{"type": "FeatureCollection", "parent": {"osm_id": 1015996, "name": "Alborz Province", "admin_level": "4", "kind": "subdivision_1", "child_kind": "subdivision_2", "iso": "IR-30"}, "features": [{"type": "Feature", "properties": {"osm_type": "relation", "osm_id": 614261937, "name": "Bakharz", "admin_level": "6", "kind": "subdivision_2", "parent_osm_id": 1015996, "parent_name": "Alborz Province", "parent_iso": "IR-30"}, "geometry": {"type": "Polygon", "coordinates": [[[60.6206, 35.0345], [60.5584, 35.0485], [60.4971, 35.0808], [60.4949, 35.1027], [60.4389, 35.1036], [60.3814, 35.1311], [60.3439, 35.1683], [60.3, 35.2388], [60.2422, 35.288], [60.2236, 35.2939], [60.1825, 35.2944], [60.1361, 35.3236], [60.115, 35.2905], [60.0772, 35.2025], [60.0314, 35.1236], [60.0014, 35.0363], [60.0031, 35.0216], [60.0272, 34.998], [60.1517, 34.9486], [60.1931, 34.8969], [60.2195, 34.8455], [60.2682, 34.7843], [60.2887, 34.8001], [60.4598, 34.8897], [60.5184, 34.8841], [60.5709, 34.8851], [60.6103, 34.8992], [60.6764, 34.938], [60.6473, 34.9866], [60.6334, 35.0002], [60.6206, 35.0345]]]}}, {"type": "Feature", "properties": {"osm_type": "relation", "osm_id": 107548458, "name": "Bajestan", "admin_level": "6", "kind": "subdivision_2", "parent_osm_id": 1015996, "parent_name": "Alborz Province", "parent_iso": "IR-30"}, "geometry": {"type": "Polygon", "coordinates": [[[58.6174, 34.7899], [58.5208, 34.808], [58.4516, 34.8405], [58.4158, 34.87], [58.386, 34.8861], [58.2669, 34.9233], [58.2449, 34.9202], [58.2205, 34.9255], [58.1177, 34.9152], [58.1007, 34.9088], [58.086, 34.8922], [57.9885, 34.8819], [57.8799, 34.8555], [57.7871, 34.8205], [57.7149, 34.7844], [57.6243, 34.6925], [57.591, 34.6511], [57.5567, 34.598], [57.6404, 34.5205], [57.6943, 34.4286], [57.7318, 34.4041], [57.7574, 34.3788], [57.7494, 34.3668], [57.766, 34.3472], [57.8124, 34.3274], [57.8913, 34.3302], [57.9521, 34.3069], [58.0352, 34.2391], [58.0899, 34.2349], [58.1891, 34.2416], [58.2138, 34.2622], [58.251, 34.3133], [58.2641, 34.3213], [58.3121, 34.3166], [58.3402, 34.3066], [58.3008, 34.3708], [58.2949, 34.3927], [58.2983, 34.4027], [58.3363, 34.4411], [58.3927, 34.4441], [58.4322, 34.4608], [58.443, 34.473], [58.4916, 34.5574], [58.5283, 34.5949], [58.5452, 34.6244], [58.5674, 34.6347], [58.5894, 34.6638], [58.5994, 34.6911], [58.6174, 34.7899]]]}}, {"type": "Feature", "properties": {"osm_type": "relation", "osm_id": 913017377, "name": "Bardaskan", "admin_level": "6", "kind": "subdivision_2", "parent_osm_id": 1015996, "parent_name": "Alborz Province", "parent_iso": "IR-30"}, "geometry": {"type": "Polygon", "coordinates": [[[58.0102, 34.8846], [57.991, 34.9947], [58.0682, 35.0577], [58.1021, 35.1111], [58.1069, 35.128], [58.0849, 35.1844], [58.0496, 35.2525], [58.0519, 35.2597], [58.0871, 35.278], [58.091, 35.2869], [58.0802, 35.2975], [58.0371, 35.2986], [58.0199, 35.3452], [58.078, 35.3789], [58.2271, 35.4377], [58.2454, 35.4496], [58.2482, 35.4617], [58.1899, 35.4541], [58.1777, 35.4622], [58.1724, 35.4944], [58.1799, 35.5314], [58.1756, 35.5462], [58.153, 35.5277], [58.0807, 35.5261], [58.0088, 35.5411], [57.9738, 35.5264], [57.9413, 35.4983], [57.8302, 35.5591], [57.7977, 35.5678], [57.7685, 35.5647], [57.6577, 35.5875], [57.6349, 35.5844], [57.6204, 35.5772], [57.5877, 35.5864], [57.5632, 35.5872], [57.5268, 35.5464], [57.4741, 35.5505], [57.4349, 35.5241], [57.4165, 35.518], [57.361, 35.5172], [57.3235, 35.5027], [57.2538, 35.5083], [57.1924, 35.5064], [57.0593, 35.4733], [57.0246, 35.4733], [57.0001, 35.4875], [56.9913, 35.4419], [57.0002, 35.4297], [57.0196, 35.3641], [57.0343, 35.3394], [57.0524, 35.3211], [57.0393, 35.2811], [57.0107, 35.2236], [56.9868, 35.2108], [56.9371, 35.2211], [56.8951, 35.2039], [56.8629, 35.2036], [56.8437, 35.1977], [56.8112, 35.1675], [56.7751, 35.1483], [56.7415, 35.0997], [56.7204, 35.0802], [56.691, 35.0625], [56.6265, 35.065], [56.5948, 35.0555], [56.5368, 35.0477], [56.4884, 35.0286], [56.4537, 35.0], [56.4429, 34.9797], [56.2884, 34.7986], [56.228, 34.7104], [56.2773, 34.6958], [56.4384, 34.6824], [56.4879, 34.6902], [56.6115, 34.7325], [56.6379, 34.7455], [56.6665, 34.7522], [56.7399, 34.7827], [56.7535, 34.8075], [56.7901, 34.8375], [56.8515, 34.9191], [56.8443, 34.9352], [56.8218, 34.9369], [56.8218, 34.9444], [56.8646, 34.9744], [56.896, 34.9825], [56.9507, 34.9847], [57.0007, 34.998], [57.0329, 35.0205], [57.1526, 35.0755], [57.1985, 35.0863], [57.2715, 35.095], [57.3313, 35.0947], [57.4832, 35.0677], [57.5157, 35.0713], [57.5463, 35.0639], [57.5585, 35.0511], [57.5621, 35.0216], [57.5729, 35.0001], [57.6216, 34.9761], [57.6727, 34.9388], [57.7043, 34.9261], [57.7871, 34.8205], [57.9046, 34.8627], [58.0102, 34.8846]]]}}, {"type": "Feature", "properties": {"osm_type": "relation", "osm_id": 947489316, "name": "Boshruyeh", "admin_level": "6", "kind": "subdivision_2", "parent_osm_id": 1015996, "parent_name": "Alborz Province", "parent_iso": "IR-30"}, "geometry": {"type": "Polygon", "coordinates": [[[57.5567, 34.598], [57.4907, 34.6033], [57.4418, 34.593], [57.421, 34.5938], [57.4002, 34.6183], [57.3918, 34.6222], [57.3243, 34.5725], [57.2852, 34.5097], [57.2243, 34.3811], [57.2113, 34.3427], [57.1707, 34.2744], [57.1465, 34.1933], [57.1074, 34.1119], [57.101, 34.0816], [57.0676, 34.0377], [57.0074, 33.998], [57.0074, 33.9624], [57.0187, 33.9338], [57.0563, 33.8849], [57.0865, 33.8652], [57.1221, 33.8013], [57.1415, 33.7555], [57.1935, 33.7124], [57.2068, 33.6902], [57.2071, 33.6419], [57.2315, 33.5877], [57.2179, 33.5685], [57.2176, 33.561], [57.2349, 33.5269], [57.2596, 33.5083], [57.3277, 33.4738], [57.3702, 33.463], [57.3993, 33.4641], [57.4574, 33.4774], [57.4915, 33.4941], [57.526, 33.5246], [57.541, 33.5324], [57.6071, 33.6121], [57.6335, 33.6374], [57.6499, 33.6316], [57.7266, 33.5646], [57.7782, 33.5405], [57.8007, 33.5571], [57.8057, 33.5755], [57.7874, 33.6913], [57.7777, 33.7044], [57.7135, 33.7494], [57.6717, 33.8058], [57.6702, 33.8188], [57.6777, 33.8522], [57.6719, 33.8907], [57.6628, 33.8975], [57.6572, 33.9362], [57.6497, 33.9527], [57.6137, 33.9973], [57.6132, 34.0096], [57.6028, 34.0273], [57.5957, 34.075], [57.5616, 34.1679], [57.5594, 34.2078], [57.5707, 34.2546], [57.5726, 34.2827], [57.5847, 34.3052], [57.6164, 34.3263], [57.6382, 34.3265], [57.657, 34.3472], [57.6669, 34.3519], [57.7494, 34.3668], [57.7574, 34.3788], [57.7318, 34.4041], [57.6999, 34.4224], [57.6404, 34.5205], [57.5567, 34.598]]]}}, {"type": "Feature", "properties": {"osm_type": "relation", "osm_id": 356896508, "name": "Binalud", "admin_level": "6", "kind": "subdivision_2", "parent_osm_id": 1015996, "parent_name": "Alborz Province", "parent_iso": "IR-30"}, "geometry": {"type": "Polygon", "coordinates": [[[59.3069, 36.1084], [59.3239, 36.1189], [59.3647, 36.1103], [59.4425, 36.1347], [59.4753, 36.1769], [59.473, 36.1914], [59.478, 36.1997], [59.4844, 36.2025], [59.4972, 36.1983], [59.5092, 36.2058], [59.5214, 36.2042], [59.5469, 36.2264], [59.5803, 36.2264], [59.59, 36.2426], [59.5784, 36.2545], [59.5437, 36.2594], [59.4716, 36.2921], [59.4663, 36.2971], [59.4634, 36.3197], [59.4563, 36.3321], [59.4368, 36.3291], [59.4429, 36.3333], [59.4397, 36.3376], [59.4425, 36.3473], [59.4367, 36.3568], [59.4703, 36.3919], [59.4591, 36.3956], [59.4541, 36.4047], [59.4353, 36.418], [59.3958, 36.4333], [59.2894, 36.4644], [59.2858, 36.4544], [59.2736, 36.4453], [59.1972, 36.4336], [59.1427, 36.3992], [59.1044, 36.3067], [59.0638, 36.2767], [59.1508, 36.2539], [59.1975, 36.2055], [59.2669, 36.1514], [59.2847, 36.1441], [59.3069, 36.1084]]]}}, {"type": "Feature", "properties": {"osm_type": "relation", "osm_id": 974112232, "name": "Taybad", "admin_level": "6", "kind": "subdivision_2", "parent_osm_id": 1015996, "parent_name": "Alborz Province", "parent_iso": "IR-30"}, "geometry": {"type": "Polygon", "coordinates": [[[60.2682, 34.7843], [60.3233, 34.7155], [60.4922, 34.5577], [60.54, 34.4944], [60.5622, 34.4749], [60.5936, 34.4588], [60.6525, 34.4502], [60.7794, 34.4859], [60.7419, 34.5108], [60.7423, 34.5269], [60.8228, 34.5449], [60.826, 34.5391], [60.831, 34.5449], [60.8486, 34.5421], [60.8973, 34.5673], [60.9222, 34.623], [60.939, 34.6244], [60.9574, 34.6167], [60.9845, 34.6198], [61.0008, 34.643], [61.0038, 34.7113], [61.0133, 34.7232], [61.0146, 34.7324], [61.0342, 34.7489], [61.0552, 34.7827], [61.0682, 34.8127], [61.0678, 34.8327], [61.0625, 34.8379], [61.0751, 34.8443], [61.0686, 34.8513], [61.0684, 34.8639], [61.0705, 34.8702], [61.0809, 34.8763], [61.0676, 34.8825], [61.0673, 34.8949], [61.0563, 34.9027], [60.9698, 34.9241], [60.9292, 34.9472], [60.912, 34.9622], [60.8356, 35.0558], [60.7775, 35.1013], [60.7545, 35.1083], [60.7059, 35.1013], [60.6728, 35.1135], [60.6419, 35.0297], [60.6206, 35.0345], [60.6334, 35.0002], [60.6473, 34.9866], [60.6764, 34.938], [60.6103, 34.8992], [60.5709, 34.8851], [60.5184, 34.8841], [60.4598, 34.8897], [60.2887, 34.8001], [60.2682, 34.7843]]]}}, {"type": "Feature", "properties": {"osm_type": "relation", "osm_id": 307606336, "name": "Torbat-e-jam", "admin_level": "6", "kind": "subdivision_2", "parent_osm_id": 1015996, "parent_name": "Alborz Province", "parent_iso": "IR-30"}, "geometry": {"type": "Polygon", "coordinates": [[[60.6206, 35.0345], [60.6419, 35.0297], [60.6728, 35.1135], [60.7059, 35.1013], [60.7545, 35.1083], [60.7662, 35.1058], [60.7864, 35.095], [60.8356, 35.0558], [60.912, 34.9622], [60.952, 34.9319], [60.9698, 34.9241], [61.0145, 34.9161], [61.0414, 34.9047], [61.0563, 34.9027], [61.0611, 34.9098], [61.0739, 34.9086], [61.0623, 34.9173], [61.0711, 34.9213], [61.072, 34.9301], [61.0851, 34.942], [61.0841, 34.9516], [61.0975, 34.9519], [61.0969, 34.9639], [61.1018, 34.9699], [61.0956, 34.9792], [61.1074, 34.9807], [61.1026, 34.9878], [61.1044, 34.9972], [61.1216, 35.0035], [61.0997, 35.0242], [61.1095, 35.0311], [61.1109, 35.0376], [61.1167, 35.0386], [61.1117, 35.0606], [61.126, 35.0589], [61.1254, 35.0666], [61.1174, 35.074], [61.1395, 35.0727], [61.1458, 35.0806], [61.1424, 35.087], [61.1261, 35.0954], [61.1415, 35.1049], [61.1305, 35.1073], [61.1326, 35.1359], [61.1244, 35.1348], [61.1062, 35.1643], [61.0985, 35.166], [61.0932, 35.159], [61.0871, 35.1648], [61.099, 35.1735], [61.0935, 35.1848], [61.1063, 35.1912], [61.1101, 35.2036], [61.1179, 35.2096], [61.0984, 35.2185], [61.1026, 35.2339], [61.0963, 35.2389], [61.0971, 35.258], [61.0918, 35.2637], [61.109, 35.2828], [61.1216, 35.2777], [61.1548, 35.2847], [61.1579, 35.2754], [61.1686, 35.29], [61.1903, 35.2929], [61.1919, 35.3011], [61.1876, 35.3022], [61.186, 35.3161], [61.1913, 35.3195], [61.1757, 35.3433], [61.1763, 35.3567], [61.1859, 35.3583], [61.1842, 35.3707], [61.1931, 35.3763], [61.2004, 35.3736], [61.193, 35.3807], [61.2003, 35.389], [61.1918, 35.3854], [61.1944, 35.3904], [61.1875, 35.3996], [61.2002, 35.4119], [61.2108, 35.4125], [61.2144, 35.42], [61.2272, 35.4217], [61.2329, 35.4331], [61.2221, 35.4429], [61.2358, 35.4498], [61.2342, 35.4631], [61.2436, 35.4761], [61.2555, 35.481], [61.2525, 35.4852], [61.2606, 35.4954], [61.2593, 35.5043], [61.2671, 35.506], [61.2778, 35.5203], [61.2753, 35.5275], [61.2826, 35.5379], [61.2833, 35.5502], [61.2704, 35.5598], [61.2716, 35.5708], [61.28, 35.5806], [61.271, 35.5892], [61.2773, 35.5988], [61.2738, 35.6094], [61.2471, 35.6266], [61.2511, 35.6351], [61.2468, 35.6452], [61.2262, 35.6507], [61.2289, 35.6571], [61.219, 35.6683], [61.2246, 35.6729], [61.2167, 35.6758], [61.2208, 35.6932], [61.2464, 35.7175], [61.2489, 35.7539], [61.2556, 35.7711], [61.2508, 35.7864], [61.2622, 35.8197], [61.2436, 35.8628], [61.2411, 35.8853], [61.245, 35.8972], [61.2275, 35.8989], [61.2239, 35.9208], [61.2069, 35.9408], [61.1906, 35.9492], [61.1807, 35.9444], [61.1721, 35.9467], [61.1603, 35.9127], [61.1384, 35.8953], [61.0537, 35.9041], [60.9839, 35.9405], [60.8603, 35.97], [60.7614, 35.9739], [60.6325, 35.998], [60.5557, 35.9504], [60.5392, 35.8847], [60.5548, 35.8525], [60.5825, 35.828], [60.5981, 35.8022], [60.5864, 35.7586], [60.5823, 35.7219], [60.577, 35.7158], [60.5003, 35.6691], [60.452, 35.6658], [60.42, 35.6564], [60.3634, 35.658], [60.2997, 35.678], [60.2739, 35.675], [60.2614, 35.6675], [60.2331, 35.6369], [60.1683, 35.6005], [60.1647, 35.5905], [60.1739, 35.543], [60.1686, 35.5147], [60.1567, 35.5136], [60.1364, 35.5241], [60.1253, 35.525], [60.0758, 35.4736], [60.0231, 35.4655], [60.0159, 35.4606], [60.0083, 35.443], [60.0083, 35.4166], [60.0128, 35.3883], [60.0247, 35.3658], [60.0486, 35.3536], [60.0767, 35.3641], [60.0978, 35.3644], [60.1389, 35.3202], [60.1825, 35.2944], [60.2236, 35.2939], [60.2422, 35.288], [60.3, 35.2388], [60.3439, 35.1683], [60.3706, 35.1383], [60.4334, 35.105], [60.4949, 35.1027], [60.4971, 35.0808], [60.5584, 35.0485], [60.6206, 35.0345]]]}}, {"type": "Feature", "properties": {"osm_type": "relation", "osm_id": 111107212, "name": "Torbat-e-Heydarieh", "admin_level": "6", "kind": "subdivision_2", "parent_osm_id": 1015996, "parent_name": "Alborz Province", "parent_iso": "IR-30"}, "geometry": {"type": "Polygon", "coordinates": [[[59.2005, 35.8039], [59.115, 35.8103], [59.0916, 35.83], [59.0305, 35.8508], [59.0211, 35.7919], [59.003, 35.7439], [58.9805, 35.7372], [58.8541, 35.7336], [58.7852, 35.7086], [58.7761, 35.695], [58.7516, 35.6039], [58.6877, 35.5716], [58.6944, 35.5502], [58.7061, 35.5366], [58.7708, 35.5083], [58.7983, 35.5039], [58.8066, 35.495], [58.8108, 35.4691], [58.8083, 35.4386], [58.7713, 35.3694], [58.7752, 35.3497], [58.7949, 35.3511], [58.8091, 35.3461], [58.8341, 35.3289], [58.8533, 35.2984], [58.9272, 35.3016], [58.9336, 35.3164], [58.9322, 35.329], [58.9699, 35.3246], [58.9816, 35.3197], [59.0452, 35.2664], [59.0555, 35.238], [59.0808, 35.2138], [59.0766, 35.1858], [59.0859, 35.1028], [59.0716, 35.023], [59.1058, 34.9819], [59.1529, 34.9557], [59.1975, 34.9602], [59.2508, 34.9888], [59.2872, 34.9844], [59.2989, 34.9977], [59.2994, 35.0333], [59.293, 35.0655], [59.3014, 35.1175], [59.2966, 35.1252], [59.2464, 35.1525], [59.2325, 35.1933], [59.245, 35.1958], [59.2755, 35.1814], [59.3316, 35.2122], [59.3386, 35.2738], [59.3352, 35.2983], [59.3219, 35.32], [59.3203, 35.3994], [59.3516, 35.4875], [59.4569, 35.4952], [59.503, 35.5133], [59.4966, 35.5236], [59.4872, 35.573], [59.5086, 35.6275], [59.4891, 35.6586], [59.488, 35.6683], [59.5072, 35.7208], [59.425, 35.7016], [59.3578, 35.7461], [59.3411, 35.748], [59.2833, 35.7366], [59.263, 35.7378], [59.2447, 35.7525], [59.2005, 35.8039]]]}}, {"type": "Feature", "properties": {"osm_type": "relation", "osm_id": 364874993, "name": "Joghatai", "admin_level": "6", "kind": "subdivision_2", "parent_osm_id": 1015996, "parent_name": "Alborz Province", "parent_iso": "IR-30"}, "geometry": {"type": "Polygon", "coordinates": [[[56.9846, 36.8613], [56.7976, 36.8217], [56.7243, 36.8], [56.6587, 36.7728], [56.5412, 36.685], [56.5321, 36.6675], [56.6276, 36.6731], [56.6887, 36.6994], [56.7585, 36.7039], [56.7682, 36.6947], [56.769, 36.6869], [56.7526, 36.6592], [56.7693, 36.6158], [56.8493, 36.5847], [56.8615, 36.5681], [56.8685, 36.5367], [57.0002, 36.5442], [57.0154, 36.5528], [57.064, 36.5597], [57.0785, 36.5456], [57.0671, 36.5208], [57.0682, 36.5092], [57.1682, 36.4433], [57.2004, 36.4342], [57.2374, 36.4333], [57.2549, 36.4378], [57.2188, 36.5369], [57.244, 36.5856], [57.294, 36.6539], [57.2843, 36.6619], [57.2304, 36.6828], [57.2215, 36.6936], [57.2174, 36.712], [57.2216, 36.8323], [57.124, 36.8439], [57.0329, 36.8714], [56.9846, 36.8613]]]}}, {"type": "Feature", "properties": {"osm_type": "relation", "osm_id": 188146067, "name": "Jowayin", "admin_level": "6", "kind": "subdivision_2", "parent_osm_id": 1015996, "parent_name": "Alborz Province", "parent_iso": "IR-30"}, "geometry": {"type": "Polygon", "coordinates": [[[57.2216, 36.8323], [57.2174, 36.712], [57.2215, 36.6936], [57.2304, 36.6828], [57.2843, 36.6619], [57.294, 36.6539], [57.244, 36.5856], [57.2213, 36.5467], [57.2196, 36.5281], [57.2477, 36.4647], [57.2513, 36.4411], [57.2957, 36.4078], [57.3188, 36.3994], [57.3267, 36.398], [57.3793, 36.4275], [57.4171, 36.4333], [57.5554, 36.4047], [57.5996, 36.4093], [57.6113, 36.4597], [57.6174, 36.5183], [57.6335, 36.5492], [57.6913, 36.5386], [57.7657, 36.5164], [57.7991, 36.5158], [57.851, 36.5305], [57.9238, 36.5897], [57.8216, 36.6161], [57.7521, 36.6406], [57.6585, 36.6806], [57.5888, 36.7342], [57.5457, 36.7512], [57.4549, 36.7786], [57.4018, 36.7872], [57.3488, 36.8097], [57.2216, 36.8323]]]}}, {"type": "Feature", "properties": {"osm_type": "relation", "osm_id": 712925837, "name": "Khalilabad", "admin_level": "6", "kind": "subdivision_2", "parent_osm_id": 1015996, "parent_name": "Alborz Province", "parent_iso": "IR-30"}, "geometry": {"type": "Polygon", "coordinates": [[[58.2013, 34.9213], [58.2441, 34.9727], [58.2477, 34.988], [58.2338, 34.9991], [58.2235, 35.0286], [58.2227, 35.0377], [58.2335, 35.0591], [58.3027, 35.085], [58.4014, 35.0948], [58.3913, 35.1041], [58.3616, 35.1572], [58.3391, 35.2105], [58.318, 35.2413], [58.3149, 35.2572], [58.3288, 35.2864], [58.3569, 35.3216], [58.4247, 35.3761], [58.4252, 35.4105], [58.3727, 35.3891], [58.2499, 35.3611], [58.2383, 35.3622], [58.2263, 35.3686], [58.2238, 35.3783], [58.2619, 35.4411], [58.259, 35.4607], [58.2482, 35.4617], [58.2454, 35.4496], [58.2271, 35.4377], [58.078, 35.3789], [58.0199, 35.3452], [58.0371, 35.2986], [58.0802, 35.2975], [58.091, 35.2869], [58.0871, 35.278], [58.0519, 35.2597], [58.0496, 35.2525], [58.0849, 35.1844], [58.1069, 35.128], [58.1021, 35.1111], [58.0682, 35.0577], [57.991, 34.9947], [58.0102, 34.8846], [58.086, 34.8922], [58.1007, 34.9088], [58.1177, 34.9152], [58.2013, 34.9213]]]}}, {"type": "Feature", "properties": {"osm_type": "relation", "osm_id": 966372046, "name": "Khaf", "admin_level": "6", "kind": "subdivision_2", "parent_osm_id": 1015996, "parent_name": "Alborz Province", "parent_iso": "IR-30"}, "geometry": {"type": "Polygon", "coordinates": [[[60.0026, 35.047], [59.9878, 35.035], [59.9414, 35.0122], [59.9178, 35.0091], [59.9133, 34.9902], [59.888, 34.9633], [59.8555, 34.9483], [59.8189, 34.9177], [59.7797, 34.8644], [59.7425, 34.8402], [59.6667, 34.8172], [59.59, 34.8252], [59.5378, 34.8433], [59.5286, 34.8369], [59.5261, 34.8105], [59.5391, 34.7769], [59.5536, 34.7547], [59.5586, 34.7347], [59.5589, 34.7077], [59.5136, 34.6291], [59.5241, 34.5808], [59.54, 34.5444], [59.4775, 34.4963], [59.468, 34.4611], [59.4541, 34.433], [59.433, 34.4097], [59.4178, 34.4016], [59.4066, 34.3474], [59.3827, 34.2749], [59.3919, 34.2341], [59.4016, 34.218], [59.4219, 34.1999], [59.4903, 34.1627], [59.5964, 34.0199], [59.725, 34.0049], [59.9525, 34.0096], [59.9913, 34.0048], [60.0486, 33.9519], [60.0611, 33.9488], [60.0881, 33.9277], [60.1442, 33.8563], [60.1831, 33.8669], [60.2881, 33.958], [60.3345, 33.9838], [60.372, 33.9922], [60.4859, 33.9935], [60.5331, 34.0002], [60.5179, 34.0724], [60.5211, 34.101], [60.5338, 34.1284], [60.5374, 34.1507], [60.5539, 34.167], [60.5626, 34.1891], [60.5859, 34.2127], [60.6406, 34.2583], [60.6695, 34.2725], [60.672, 34.3028], [60.6865, 34.3107], [60.7374, 34.3072], [60.834, 34.3106], [60.8823, 34.3034], [60.9184, 34.3048], [60.8963, 34.3246], [60.8954, 34.3336], [60.8855, 34.3353], [60.8811, 34.3483], [60.8712, 34.3482], [60.8617, 34.3654], [60.8498, 34.3682], [60.8499, 34.3821], [60.8381, 34.402], [60.8438, 34.4075], [60.8298, 34.4159], [60.8274, 34.4288], [60.8221, 34.4296], [60.8216, 34.4423], [60.8074, 34.4619], [60.8093, 34.4717], [60.794, 34.4739], [60.787, 34.4837], [60.7794, 34.4859], [60.6525, 34.4502], [60.5936, 34.4588], [60.5622, 34.4749], [60.54, 34.4944], [60.4922, 34.5577], [60.3233, 34.7155], [60.2195, 34.8455], [60.1931, 34.8969], [60.1517, 34.9486], [60.0272, 34.998], [60.0031, 35.0216], [60.0026, 35.047]]]}}, {"type": "Feature", "properties": {"osm_type": "relation", "osm_id": 874190813, "name": "Khoshab", "admin_level": "6", "kind": "subdivision_2", "parent_osm_id": 1015996, "parent_name": "Alborz Province", "parent_iso": "IR-30"}, "geometry": {"type": "Polygon", "coordinates": [[[57.9238, 36.5897], [57.851, 36.5305], [57.7991, 36.5158], [57.7657, 36.5164], [57.6913, 36.5386], [57.6335, 36.5492], [57.6174, 36.5183], [57.6113, 36.4597], [57.5996, 36.4093], [57.6271, 36.4153], [57.673, 36.3778], [57.7355, 36.3461], [57.7552, 36.3419], [57.8052, 36.3453], [57.8652, 36.3105], [57.9385, 36.2894], [57.9919, 36.2828], [58.0563, 36.2853], [58.1571, 36.2592], [58.2341, 36.2522], [58.2352, 36.2875], [58.2214, 36.3259], [58.2332, 36.4446], [58.2194, 36.5258], [58.2185, 36.6106], [58.2305, 36.6572], [58.2649, 36.6989], [58.2794, 36.7264], [58.2196, 36.7325], [58.2271, 36.7692], [58.2399, 36.7958], [58.2194, 36.8089], [58.2077, 36.8253], [58.2013, 36.8957], [58.1858, 36.8953], [58.1344, 36.8647], [58.1216, 36.8739], [58.0988, 36.8689], [58.0946, 36.8086], [58.1107, 36.7728], [58.0916, 36.7417], [58.088, 36.7225], [58.1057, 36.6456], [58.0921, 36.6083], [58.0538, 36.5883], [58.0169, 36.5825], [57.9638, 36.5794], [57.9238, 36.5897]]]}}, {"type": "Feature", "properties": {"osm_type": "relation", "osm_id": 761664389, "name": "Davarzan", "admin_level": "6", "kind": "subdivision_2", "parent_osm_id": 1015996, "parent_name": "Alborz Province", "parent_iso": "IR-30"}, "geometry": {"type": "Polygon", "coordinates": [[[56.8685, 36.5367], [56.8579, 36.5111], [56.8004, 36.4455], [56.7682, 36.4183], [56.6985, 36.3883], [56.7048, 36.3661], [56.7312, 36.3342], [56.7332, 36.3131], [56.7565, 36.2972], [56.7665, 36.2733], [56.7999, 36.2414], [56.7668, 36.1814], [56.7499, 36.1352], [56.8887, 36.1133], [57.0001, 36.0658], [57.0276, 36.0717], [57.1393, 36.1139], [57.1854, 36.1139], [57.2779, 36.0905], [57.3632, 36.0978], [57.4618, 36.135], [57.4521, 36.1958], [57.4379, 36.243], [57.4363, 36.2947], [57.3574, 36.3572], [57.3267, 36.398], [57.2957, 36.4078], [57.2549, 36.4378], [57.2374, 36.4333], [57.2004, 36.4342], [57.1682, 36.4433], [57.0682, 36.5092], [57.0671, 36.5208], [57.0785, 36.5456], [57.064, 36.5597], [57.0154, 36.5528], [57.0002, 36.5442], [56.8685, 36.5367]]]}}, {"type": "Feature", "properties": {"osm_type": "relation", "osm_id": 733208314, "name": "Dargaz", "admin_level": "6", "kind": "subdivision_2", "parent_osm_id": 1015996, "parent_name": "Alborz Province", "parent_iso": "IR-30"}, "geometry": {"type": "Polygon", "coordinates": [[[59.436, 37.287], [59.4335, 37.3055], [59.4097, 37.3073], [59.3969, 37.3173], [59.4003, 37.3237], [59.3925, 37.3324], [59.3879, 37.3737], [59.3779, 37.4076], [59.3827, 37.421], [59.4113, 37.4358], [59.3961, 37.449], [59.3876, 37.4453], [59.3814, 37.4497], [59.3921, 37.4791], [59.3844, 37.4922], [59.3611, 37.5114], [59.3535, 37.5284], [59.3194, 37.53], [59.2778, 37.5086], [59.2396, 37.521], [59.2292, 37.512], [59.1897, 37.54], [59.1786, 37.5393], [59.1671, 37.5492], [59.1547, 37.5711], [59.1228, 37.5819], [59.0603, 37.63], [59.0242, 37.6322], [58.9808, 37.6547], [58.9411, 37.6672], [58.8764, 37.6692], [58.8556, 37.6808], [58.8361, 37.6994], [58.8228, 37.7036], [58.8156, 37.7028], [58.8147, 37.6803], [58.8044, 37.6669], [58.7864, 37.6617], [58.7489, 37.6669], [58.7317, 37.6531], [58.7128, 37.6486], [58.6653, 37.655], [58.6181, 37.675], [58.5975, 37.6899], [58.55, 37.7058], [58.5347, 37.6978], [58.5069, 37.6553], [58.4896, 37.6444], [58.4938, 37.5795], [58.4874, 37.527], [58.5197, 37.5136], [58.5752, 37.4675], [58.7466, 37.355], [58.8036, 37.332], [58.7224, 37.2995], [58.7072, 37.2895], [58.6972, 37.2761], [58.7841, 37.2242], [58.8983, 37.1783], [58.9311, 37.1564], [58.9755, 37.1042], [59.0086, 37.0806], [59.063, 37.0647], [59.1211, 37.0325], [59.1864, 37.0131], [59.2025, 37.0002], [59.2355, 36.9875], [59.2875, 36.9817], [59.2983, 36.9564], [59.2965, 36.9314], [59.3111, 36.9303], [59.3247, 36.9375], [59.3544, 36.9736], [59.3591, 36.9722], [59.3586, 36.9506], [59.3669, 36.9442], [59.4189, 36.92], [59.4641, 36.9194], [59.4591, 36.9595], [59.4649, 36.9677], [59.3872, 37.0011], [59.3541, 37.0519], [59.3455, 37.0908], [59.3503, 37.1094], [59.415, 37.1892], [59.4175, 37.1961], [59.4064, 37.2345], [59.4119, 37.2517], [59.436, 37.287]]]}}, {"type": "Feature", "properties": {"osm_type": "relation", "osm_id": 212019941, "name": "Roshtkhar", "admin_level": "6", "kind": "subdivision_2", "parent_osm_id": 1015996, "parent_name": "Alborz Province", "parent_iso": "IR-30"}, "geometry": {"type": "Polygon", "coordinates": [[[59.1529, 34.9557], [59.05, 34.9188], [58.9913, 34.8902], [58.9586, 34.8594], [58.9502, 34.8397], [58.9497, 34.7977], [58.9619, 34.7933], [58.9919, 34.7519], [59.0133, 34.6858], [59.0497, 34.5413], [59.0625, 34.5177], [59.078, 34.5063], [59.173, 34.478], [59.235, 34.4433], [59.4039, 34.3994], [59.4266, 34.4052], [59.4489, 34.4247], [59.468, 34.4611], [59.4775, 34.4963], [59.54, 34.5444], [59.5241, 34.5808], [59.5136, 34.6291], [59.5589, 34.7077], [59.5586, 34.7347], [59.5536, 34.7547], [59.5391, 34.7769], [59.5261, 34.8105], [59.5286, 34.8369], [59.5378, 34.8433], [59.59, 34.8252], [59.6667, 34.8172], [59.7425, 34.8402], [59.7797, 34.8644], [59.8189, 34.9177], [59.8555, 34.9483], [59.888, 34.9633], [59.9133, 34.9902], [59.9217, 35.0161], [59.8553, 35.0698], [59.8347, 35.0978], [59.7617, 35.143], [59.6597, 35.17], [59.6092, 35.1319], [59.5836, 35.1525], [59.5664, 35.1747], [59.5333, 35.1902], [59.5047, 35.1761], [59.4858, 35.1727], [59.3316, 35.2122], [59.2755, 35.1814], [59.245, 35.1958], [59.2325, 35.1933], [59.2464, 35.1525], [59.2966, 35.1252], [59.3014, 35.1175], [59.293, 35.0655], [59.2994, 35.0333], [59.2989, 34.9977], [59.295, 34.99], [59.2797, 34.9833], [59.2508, 34.9888], [59.1975, 34.9602], [59.1529, 34.9557]]]}}, {"type": "Feature", "properties": {"osm_type": "relation", "osm_id": 872912899, "name": "Zaveh", "admin_level": "6", "kind": "subdivision_2", "parent_osm_id": 1015996, "parent_name": "Alborz Province", "parent_iso": "IR-30"}, "geometry": {"type": "Polygon", "coordinates": [[[60.1361, 35.3236], [60.0978, 35.3644], [60.0767, 35.3641], [60.0486, 35.3536], [60.0247, 35.3658], [60.0128, 35.3883], [60.0083, 35.4166], [60.0083, 35.443], [60.0159, 35.4606], [60.0039, 35.4652], [59.9264, 35.4364], [59.8361, 35.4377], [59.7805, 35.4655], [59.6186, 35.4711], [59.5475, 35.5036], [59.503, 35.5133], [59.4569, 35.4952], [59.3516, 35.4875], [59.3203, 35.3994], [59.3219, 35.32], [59.3352, 35.2983], [59.3386, 35.2738], [59.3316, 35.2122], [59.4858, 35.1727], [59.5047, 35.1761], [59.5333, 35.1902], [59.5664, 35.1747], [59.5836, 35.1525], [59.6092, 35.1319], [59.6597, 35.17], [59.7617, 35.143], [59.8347, 35.0978], [59.8553, 35.0698], [59.9136, 35.0251], [59.9217, 35.0108], [59.9414, 35.0122], [59.9878, 35.035], [60.0026, 35.047], [60.0431, 35.148], [60.0772, 35.2025], [60.115, 35.2905], [60.1361, 35.3236]]]}}, {"type": "Feature", "properties": {"osm_type": "relation", "osm_id": 466010465, "name": "Sabzevar", "admin_level": "6", "kind": "subdivision_2", "parent_osm_id": 1015996, "parent_name": "Alborz Province", "parent_iso": "IR-30"}, "geometry": {"type": "Polygon", "coordinates": [[[58.1756, 35.5462], [58.1616, 35.58], [58.1627, 35.6058], [58.1958, 35.6516], [58.253, 35.7764], [58.2583, 35.798], [58.2533, 35.8475], [58.2369, 35.8755], [58.2349, 35.9253], [58.223, 35.9711], [58.221, 36.0353], [58.2233, 36.0444], [58.2794, 36.113], [58.2863, 36.13], [58.2852, 36.1522], [58.2377, 36.2269], [58.2341, 36.2522], [58.1571, 36.2592], [58.0563, 36.2853], [57.9919, 36.2828], [57.9385, 36.2894], [57.8652, 36.3105], [57.8052, 36.3453], [57.7552, 36.3419], [57.7355, 36.3461], [57.673, 36.3778], [57.6271, 36.4153], [57.5554, 36.4047], [57.4171, 36.4333], [57.3793, 36.4275], [57.3267, 36.398], [57.3574, 36.3572], [57.4363, 36.2947], [57.4379, 36.243], [57.4635, 36.1389], [57.4488, 36.1283], [57.3632, 36.0978], [57.2779, 36.0905], [57.1854, 36.1139], [57.1393, 36.1139], [57.0276, 36.0717], [57.0001, 36.0658], [56.8887, 36.1133], [56.7499, 36.1352], [56.7312, 36.09], [56.7143, 35.9636], [56.7235, 35.853], [56.7604, 35.8133], [56.8646, 35.7261], [56.9154, 35.6928], [56.9699, 35.6147], [57.0001, 35.6036], [57.0126, 35.5922], [57.0349, 35.5641], [57.0482, 35.5377], [57.0229, 35.5008], [57.0001, 35.4875], [57.0246, 35.4733], [57.0593, 35.4733], [57.1924, 35.5064], [57.2538, 35.5083], [57.3235, 35.5027], [57.361, 35.5172], [57.4165, 35.518], [57.4349, 35.5241], [57.4741, 35.5505], [57.5268, 35.5464], [57.5632, 35.5872], [57.5877, 35.5864], [57.6204, 35.5772], [57.6349, 35.5844], [57.6577, 35.5875], [57.7685, 35.5647], [57.7977, 35.5678], [57.8302, 35.5591], [57.9413, 35.4983], [57.9738, 35.5264], [58.0088, 35.5411], [58.0807, 35.5261], [58.153, 35.5277], [58.1756, 35.5462]]]}}, {"type": "Feature", "properties": {"osm_type": "relation", "osm_id": 712835480, "name": "Sarayan", "admin_level": "6", "kind": "subdivision_2", "parent_osm_id": 1015996, "parent_name": "Alborz Province", "parent_iso": "IR-30"}, "geometry": {"type": "Polygon", "coordinates": [[[57.7782, 33.5405], [57.7349, 33.4977], [57.7218, 33.4616], [57.6979, 33.4424], [57.6752, 33.4085], [57.7443, 33.3052], [57.7488, 33.2891], [57.7555, 33.2444], [57.7524, 33.1719], [57.758, 33.0591], [57.7702, 33.0002], [57.7852, 32.981], [57.7893, 32.9496], [57.8596, 32.828], [57.8663, 32.8032], [57.8791, 32.791], [57.9613, 32.751], [58.0016, 32.7127], [58.0671, 32.6793], [58.0827, 32.6646], [58.1241, 32.6002], [58.1557, 32.5718], [58.1702, 32.5871], [58.191, 32.628], [58.2094, 32.696], [58.2227, 32.7249], [58.2669, 32.7835], [58.3146, 32.8368], [58.3224, 32.8721], [58.3124, 32.9144], [58.311, 32.9569], [58.3177, 32.988], [58.316, 33.0016], [58.3235, 33.0341], [58.3407, 33.0663], [58.4358, 33.1338], [58.5019, 33.1727], [58.5413, 33.1869], [58.7008, 33.2244], [58.8116, 33.2769], [58.8508, 33.3088], [58.8624, 33.3355], [58.8644, 33.3766], [58.8544, 33.4249], [58.8291, 33.4533], [58.7574, 33.4769], [58.6997, 33.5366], [58.6733, 33.5699], [58.6416, 33.6521], [58.6424, 33.6763], [58.6469, 33.6783], [58.6727, 33.6646], [58.6941, 33.6749], [58.7805, 33.7433], [58.7166, 33.7749], [58.676, 33.8005], [58.6613, 33.8155], [58.6527, 33.8335], [58.6447, 33.8713], [58.6394, 33.9455], [58.6313, 33.971], [58.6388, 33.9966], [58.638, 34.0222], [58.6013, 34.0374], [58.5188, 34.0894], [58.5002, 34.1091], [58.4713, 34.0799], [58.413, 34.0358], [58.3452, 34.0032], [58.3365, 33.995], [58.35, 33.9844], [58.3677, 33.983], [58.431, 33.993], [58.4558, 33.9905], [58.4419, 33.9695], [58.4068, 33.9419], [58.3604, 33.9302], [58.2645, 33.9202], [58.248, 33.9255], [58.2418, 33.9343], [58.2472, 33.9737], [58.1205, 33.8805], [58.1188, 33.8669], [58.1346, 33.8258], [58.1707, 33.7563], [58.201, 33.6835], [58.188, 33.6194], [58.1791, 33.6085], [58.141, 33.5955], [58.0863, 33.588], [58.0407, 33.6083], [57.7907, 33.6724], [57.8057, 33.5755], [57.8007, 33.5571], [57.7782, 33.5405]]]}}, {"type": "Feature", "properties": {"osm_type": "relation", "osm_id": 683985747, "name": "Sarakhs", "admin_level": "6", "kind": "subdivision_2", "parent_osm_id": 1015996, "parent_name": "Alborz Province", "parent_iso": "IR-30"}, "geometry": {"type": "Polygon", "coordinates": [[[61.1721, 35.9467], [61.1393, 35.952], [61.1283, 35.9591], [61.1208, 35.9558], [61.1171, 35.9631], [61.1322, 35.9684], [61.144, 35.9815], [61.17, 35.9953], [61.1733, 36.0081], [61.1647, 36.0353], [61.1922, 36.0542], [61.1832, 36.0606], [61.1831, 36.0672], [61.2073, 36.092], [61.2077, 36.1038], [61.216, 36.1107], [61.2269, 36.111], [61.231, 36.1195], [61.2197, 36.1202], [61.2106, 36.1277], [61.2251, 36.1406], [61.2157, 36.1489], [61.2264, 36.1666], [61.2193, 36.1923], [61.2045, 36.1998], [61.1998, 36.2094], [61.2025, 36.2125], [61.1914, 36.2279], [61.1876, 36.2398], [61.191, 36.2457], [61.1859, 36.2532], [61.1872, 36.2703], [61.1809, 36.2738], [61.1729, 36.2905], [61.1615, 36.2968], [61.161, 36.3114], [61.1492, 36.3175], [61.1609, 36.3202], [61.1604, 36.3306], [61.1491, 36.3372], [61.1575, 36.355], [61.1511, 36.3619], [61.1425, 36.3928], [61.1444, 36.3989], [61.1664, 36.4136], [61.1666, 36.4412], [61.1622, 36.4525], [61.1738, 36.4577], [61.1758, 36.4642], [61.1717, 36.48], [61.1568, 36.4864], [61.1622, 36.4994], [61.1569, 36.5074], [61.1686, 36.5206], [61.1822, 36.5258], [61.1757, 36.5376], [61.1852, 36.5482], [61.186, 36.5643], [61.1679, 36.6084], [61.1465, 36.6336], [61.1462, 36.6465], [60.6752, 36.6222], [60.6087, 36.628], [60.3606, 36.6295], [60.3686, 36.6175], [60.4417, 36.5575], [60.407, 36.5361], [60.4106, 36.5172], [60.4197, 36.5058], [60.4181, 36.4975], [60.3878, 36.4853], [60.3925, 36.4764], [60.3831, 36.4675], [60.3628, 36.4617], [60.3125, 36.4336], [60.2895, 36.4261], [60.2422, 36.4239], [60.2075, 36.4114], [60.2458, 36.3894], [60.303, 36.3382], [60.3886, 36.2742], [60.3611, 36.2516], [60.357, 36.2378], [60.3703, 36.1842], [60.3975, 36.1528], [60.4161, 36.1117], [60.4209, 36.0828], [60.4156, 36.0547], [60.4245, 36.05], [60.4539, 36.053], [60.4795, 36.0469], [60.4856, 36.0364], [60.4895, 35.9941], [60.5395, 35.9802], [60.5557, 35.9504], [60.592, 35.9697], [60.6134, 35.9897], [60.6325, 35.998], [60.6442, 35.9978], [60.7614, 35.9739], [60.8603, 35.97], [60.9839, 35.9405], [61.0537, 35.9041], [61.1384, 35.8953], [61.1603, 35.9127], [61.1721, 35.9467]]]}}, {"type": "Feature", "properties": {"osm_type": "relation", "osm_id": 277237217, "name": "Faruj", "admin_level": "6", "kind": "subdivision_2", "parent_osm_id": 1015996, "parent_name": "Alborz Province", "parent_iso": "IR-30"}, "geometry": {"type": "Polygon", "coordinates": [[[57.8792, 37.1149], [57.8632, 37.0622], [57.8644, 37.0478], [57.876, 37.0389], [57.9932, 37.0], [57.9913, 36.9911], [58.0077, 36.9356], [58.0152, 36.9331], [58.0469, 36.9428], [58.073, 36.9408], [58.1082, 36.9153], [58.1269, 36.8922], [58.1216, 36.8739], [58.1308, 36.8647], [58.1858, 36.8953], [58.2174, 36.897], [58.2588, 36.9108], [58.2808, 36.93], [58.3011, 36.9645], [58.2996, 36.9925], [58.2927, 37.0028], [58.2696, 37.0158], [58.2496, 37.02], [58.2441, 37.047], [58.159, 37.0751], [58.1896, 37.1064], [58.243, 37.1811], [58.278, 37.1703], [58.3049, 37.1681], [58.3127, 37.1908], [58.3244, 37.1995], [58.3827, 37.2078], [58.4116, 37.23], [58.4191, 37.2397], [58.423, 37.2564], [58.3693, 37.2881], [58.3274, 37.3258], [58.3169, 37.3517], [58.318, 37.3678], [58.3549, 37.4084], [58.3583, 37.4362], [58.353, 37.4729], [58.3558, 37.5267], [58.3695, 37.557], [58.3709, 37.5847], [58.3112, 37.6622], [58.2421, 37.6801], [58.2238, 37.6789], [58.1991, 37.6659], [58.1996, 37.6547], [58.2399, 37.6359], [58.246, 37.6236], [58.2374, 37.6017], [58.241, 37.5856], [58.2466, 37.5803], [58.271, 37.5828], [58.2852, 37.5745], [58.2885, 37.5667], [58.2744, 37.5303], [58.283, 37.4961], [58.2813, 37.4861], [58.2133, 37.4311], [58.1941, 37.4078], [58.1996, 37.3497], [58.196, 37.3256], [58.1767, 37.2835], [58.1505, 37.2603], [58.1374, 37.2639], [58.1107, 37.2825], [58.1005, 37.2717], [58.0682, 37.2531], [58.0294, 37.2603], [58.0046, 37.2534], [57.9935, 37.2453], [57.9796, 37.2067], [57.9527, 37.1867], [57.9321, 37.1628], [57.9577, 37.117], [57.9563, 37.112], [57.9419, 37.1122], [57.933, 37.0978], [57.9199, 37.095], [57.8949, 37.1011], [57.8792, 37.1149]]]}}, {"type": "Feature", "properties": {"osm_type": "relation", "osm_id": 898131447, "name": "Ferdows", "admin_level": "6", "kind": "subdivision_2", "parent_osm_id": 1015996, "parent_name": "Alborz Province", "parent_iso": "IR-30"}, "geometry": {"type": "Polygon", "coordinates": [[[57.7494, 34.3668], [57.6669, 34.3519], [57.657, 34.3472], [57.6382, 34.3265], [57.6164, 34.3263], [57.5847, 34.3052], [57.5726, 34.2827], [57.5707, 34.2546], [57.5594, 34.2078], [57.5616, 34.1679], [57.5957, 34.075], [57.6028, 34.0273], [57.6132, 34.0096], [57.6137, 33.9973], [57.6497, 33.9527], [57.6572, 33.9362], [57.6628, 33.8975], [57.6719, 33.8907], [57.6777, 33.8522], [57.6702, 33.8188], [57.6717, 33.8058], [57.6821, 33.7872], [57.7135, 33.7494], [57.7777, 33.7044], [57.7874, 33.6913], [57.7907, 33.6724], [58.0407, 33.6083], [58.0863, 33.588], [58.141, 33.5955], [58.1791, 33.6085], [58.188, 33.6194], [58.201, 33.6835], [58.1707, 33.7563], [58.1346, 33.8258], [58.1188, 33.8669], [58.1205, 33.8805], [58.2472, 33.9737], [58.2418, 33.9343], [58.248, 33.9255], [58.2645, 33.9202], [58.3604, 33.9302], [58.4068, 33.9419], [58.4419, 33.9695], [58.4558, 33.9905], [58.431, 33.993], [58.3677, 33.983], [58.35, 33.9844], [58.3365, 33.995], [58.3452, 34.0032], [58.413, 34.0358], [58.4713, 34.0799], [58.5002, 34.1091], [58.4855, 34.1133], [58.4644, 34.1283], [58.4397, 34.1947], [58.4269, 34.2083], [58.3969, 34.2249], [58.3983, 34.2429], [58.3771, 34.2661], [58.3707, 34.2893], [58.3619, 34.2958], [58.3444, 34.2963], [58.3402, 34.3066], [58.3121, 34.3166], [58.2641, 34.3213], [58.251, 34.3133], [58.2138, 34.2622], [58.1891, 34.2416], [58.1538, 34.2366], [58.046, 34.2369], [58.0352, 34.2391], [57.9521, 34.3069], [57.8913, 34.3302], [57.8213, 34.3263], [57.7935, 34.3327], [57.766, 34.3472], [57.7494, 34.3668]]]}}, {"type": "Feature", "properties": {"osm_type": "relation", "osm_id": 479680859, "name": "Fariman", "admin_level": "6", "kind": "subdivision_2", "parent_osm_id": 1015996, "parent_name": "Alborz Province", "parent_iso": "IR-30"}, "geometry": {"type": "Polygon", "coordinates": [[[60.5823, 35.7219], [60.5523, 35.7328], [60.4911, 35.7405], [60.4411, 35.7328], [60.3911, 35.7375], [60.3492, 35.7161], [60.3403, 35.7169], [60.3292, 35.7258], [60.3256, 35.7705], [60.3206, 35.7769], [60.2961, 35.7869], [60.2736, 35.8047], [60.2558, 35.8291], [60.2422, 35.84], [60.2253, 35.8455], [60.2131, 35.8439], [60.1875, 35.8255], [60.1775, 35.8322], [60.1692, 35.8311], [60.1467, 35.8039], [60.1361, 35.7786], [60.1292, 35.7753], [60.1042, 35.7797], [59.9308, 35.843], [59.8617, 35.9122], [59.87, 35.973], [59.8592, 35.9986], [59.8472, 36.0091], [59.7972, 36.0228], [59.7842, 36.0208], [59.7622, 36.0072], [59.6436, 36.0058], [59.6239, 35.9941], [59.6217, 35.9586], [59.5228, 35.8175], [59.538, 35.7928], [59.5403, 35.7641], [59.5333, 35.7475], [59.5072, 35.7208], [59.488, 35.6683], [59.4891, 35.6586], [59.5086, 35.6275], [59.4894, 35.583], [59.488, 35.5608], [59.503, 35.5133], [59.5475, 35.5036], [59.6186, 35.4711], [59.7805, 35.4655], [59.8314, 35.4386], [59.9264, 35.4364], [60.0, 35.4644], [60.0159, 35.4606], [60.0231, 35.4655], [60.0758, 35.4736], [60.1253, 35.525], [60.1364, 35.5241], [60.1567, 35.5136], [60.1686, 35.5147], [60.1739, 35.543], [60.1647, 35.5905], [60.1683, 35.6005], [60.2331, 35.6369], [60.2614, 35.6675], [60.2739, 35.675], [60.2997, 35.678], [60.3634, 35.658], [60.42, 35.6564], [60.452, 35.6658], [60.5003, 35.6691], [60.5823, 35.7219]]]}}, {"type": "Feature", "properties": {"osm_type": "relation", "osm_id": 582980451, "name": "Firuzeh", "admin_level": "6", "kind": "subdivision_2", "parent_osm_id": 1015996, "parent_name": "Alborz Province", "parent_iso": "IR-30"}, "geometry": {"type": "Polygon", "coordinates": [[[58.2341, 36.2522], [58.2377, 36.2269], [58.2852, 36.1522], [58.4666, 36.1008], [58.503, 36.0833], [58.538, 36.113], [58.546, 36.1441], [58.5524, 36.1525], [58.6027, 36.1886], [58.6241, 36.21], [58.6391, 36.2458], [58.6561, 36.2672], [58.653, 36.305], [58.6811, 36.3461], [58.6724, 36.3644], [58.6536, 36.3815], [58.6239, 36.3975], [58.5792, 36.4583], [58.5577, 36.4775], [58.5216, 36.4555], [58.4999, 36.4528], [58.4035, 36.4947], [58.3822, 36.4975], [58.3784, 36.4929], [58.3325, 36.5157], [58.3153, 36.5368], [58.2976, 36.5476], [58.2672, 36.5602], [58.2185, 36.6106], [58.2194, 36.5258], [58.2332, 36.4446], [58.2214, 36.3259], [58.2352, 36.2875], [58.2341, 36.2522]]]}}, {"type": "Feature", "properties": {"osm_type": "relation", "osm_id": 426058143, "name": "Quchan", "admin_level": "6", "kind": "subdivision_2", "parent_osm_id": 1015996, "parent_name": "Alborz Province", "parent_iso": "IR-30"}, "geometry": {"type": "Polygon", "coordinates": [[[58.4896, 37.6444], [58.4406, 37.6383], [58.4222, 37.6407], [58.4076, 37.6297], [58.3884, 37.627], [58.3806, 37.6365], [58.3663, 37.6372], [58.3584, 37.654], [58.3597, 37.6611], [58.3112, 37.6622], [58.3709, 37.5847], [58.3695, 37.557], [58.3558, 37.5267], [58.353, 37.4729], [58.3583, 37.4362], [58.3549, 37.4084], [58.318, 37.3678], [58.3169, 37.3517], [58.3274, 37.3258], [58.3693, 37.2881], [58.423, 37.2564], [58.4205, 37.2439], [58.4116, 37.23], [58.3827, 37.2078], [58.3244, 37.1995], [58.3127, 37.1908], [58.3049, 37.1681], [58.278, 37.1703], [58.243, 37.1811], [58.1896, 37.1064], [58.159, 37.0751], [58.2441, 37.047], [58.2496, 37.02], [58.2696, 37.0158], [58.2927, 37.0028], [58.2996, 36.9925], [58.3011, 36.9645], [58.3397, 36.9714], [58.3813, 36.9664], [58.3938, 36.9608], [58.4219, 36.9269], [58.4422, 36.9145], [58.4733, 36.9069], [58.4913, 36.8842], [58.5002, 36.8797], [58.5438, 36.8064], [58.5552, 36.8], [58.5549, 36.7944], [58.5263, 36.7692], [58.536, 36.7433], [58.5816, 36.7256], [58.6074, 36.7092], [58.6172, 36.6958], [58.6377, 36.6383], [58.6591, 36.6289], [58.7077, 36.6586], [58.7163, 36.6683], [58.723, 36.6933], [58.7077, 36.7147], [58.7236, 36.7269], [58.7449, 36.7369], [58.7552, 36.7358], [58.7702, 36.7283], [58.788, 36.7006], [58.8072, 36.6917], [58.8177, 36.6983], [58.8333, 36.7286], [58.875, 36.7553], [58.8844, 36.7731], [58.8947, 36.8075], [58.8927, 36.8222], [58.8508, 36.8317], [58.8183, 36.8525], [58.8013, 36.8661], [58.7966, 36.8803], [58.7774, 36.9056], [58.7777, 36.92], [58.7916, 36.9422], [58.7894, 36.9528], [58.8127, 36.965], [58.8245, 37.0069], [58.8398, 37.0168], [58.849, 37.0165], [58.8658, 37.0072], [58.8615, 37.0002], [58.8661, 36.9984], [58.9186, 36.997], [58.9877, 37.0214], [59.0269, 37.025], [59.0486, 37.0361], [59.0933, 37.0464], [59.063, 37.0647], [59.0086, 37.0806], [58.9755, 37.1042], [58.9311, 37.1564], [58.8983, 37.1783], [58.7841, 37.2242], [58.6972, 37.2761], [58.7072, 37.2895], [58.7224, 37.2995], [58.8036, 37.332], [58.7466, 37.355], [58.5752, 37.4675], [58.5197, 37.5136], [58.4874, 37.527], [58.4938, 37.5795], [58.4896, 37.6444]]]}}, {"type": "Feature", "properties": {"osm_type": "relation", "osm_id": 204823786, "name": "Kashmar", "admin_level": "6", "kind": "subdivision_2", "parent_osm_id": 1015996, "parent_name": "Alborz Province", "parent_iso": "IR-30"}, "geometry": {"type": "Polygon", "coordinates": [[[58.2482, 35.4617], [58.259, 35.4607], [58.2635, 35.4483], [58.2535, 35.4239], [58.2238, 35.3783], [58.2263, 35.3686], [58.2383, 35.3622], [58.2499, 35.3611], [58.3727, 35.3891], [58.4252, 35.4105], [58.4247, 35.3761], [58.3569, 35.3216], [58.3288, 35.2864], [58.3149, 35.2572], [58.318, 35.2413], [58.3391, 35.2105], [58.3616, 35.1572], [58.3913, 35.1041], [58.4014, 35.0948], [58.5002, 35.0994], [58.5319, 35.108], [58.6483, 35.1052], [58.7041, 35.1241], [58.723, 35.1472], [58.7349, 35.1722], [58.7477, 35.2275], [58.7657, 35.2475], [58.7626, 35.2556], [58.7538, 35.2574], [58.7447, 35.3075], [58.7738, 35.3408], [58.7713, 35.3694], [58.8083, 35.4386], [58.8108, 35.4691], [58.8066, 35.495], [58.7983, 35.5039], [58.7708, 35.5083], [58.7061, 35.5366], [58.6944, 35.5502], [58.6824, 35.5814], [58.6527, 35.6227], [58.5949, 35.675], [58.5619, 35.6786], [58.5183, 35.6711], [58.4852, 35.6891], [58.4569, 35.6772], [58.423, 35.6925], [58.2347, 35.7339], [58.1958, 35.6516], [58.1627, 35.6058], [58.1602, 35.5919], [58.1644, 35.5675], [58.1796, 35.5394], [58.1724, 35.4944], [58.1777, 35.4622], [58.1899, 35.4541], [58.2482, 35.4617]]]}}, {"type": "Feature", "properties": {"osm_type": "relation", "osm_id": 467325897, "name": "Kalat", "admin_level": "6", "kind": "subdivision_2", "parent_osm_id": 1015996, "parent_name": "Alborz Province", "parent_iso": "IR-30"}, "geometry": {"type": "Polygon", "coordinates": [[[59.4649, 36.9677], [59.468, 36.9808], [59.5064, 36.9628], [59.573, 36.9411], [59.6655, 36.8875], [59.7242, 36.8606], [59.7644, 36.8314], [59.7819, 36.7983], [59.8227, 36.7577], [59.8461, 36.7242], [59.9044, 36.6833], [59.9164, 36.6858], [59.9319, 36.6794], [60.0104, 36.6283], [60.0239, 36.6105], [60.0328, 36.5867], [60.0103, 36.5594], [60.0061, 36.5392], [60.0214, 36.5128], [60.0717, 36.4739], [60.1489, 36.4278], [60.2036, 36.4089], [60.2125, 36.4158], [60.2422, 36.4239], [60.2895, 36.4261], [60.3831, 36.4675], [60.3925, 36.4764], [60.3878, 36.4853], [60.4181, 36.4975], [60.4197, 36.5058], [60.4106, 36.5172], [60.407, 36.5361], [60.4417, 36.5575], [60.3686, 36.6175], [60.3606, 36.6295], [60.3455, 36.6294], [60.3454, 36.6427], [60.3364, 36.6446], [60.311, 36.674], [60.2683, 36.7426], [60.2669, 36.7572], [60.2315, 36.7917], [60.215, 36.8203], [60.1868, 36.8334], [60.1696, 36.8478], [60.1334, 36.8987], [60.1042, 36.9245], [60.0932, 36.9396], [60.0925, 36.9623], [60.0812, 36.9818], [60.0431, 37.0208], [60.0168, 37.0357], [59.9815, 37.0471], [59.9311, 37.0423], [59.8995, 37.0514], [59.8354, 37.0992], [59.8287, 37.0975], [59.8186, 37.1049], [59.8121, 37.1042], [59.8041, 37.1126], [59.7997, 37.1092], [59.7718, 37.1253], [59.7623, 37.1267], [59.7553, 37.1088], [59.7474, 37.1078], [59.7324, 37.1147], [59.7267, 37.1265], [59.679, 37.1412], [59.6535, 37.1422], [59.6434, 37.1192], [59.6265, 37.1187], [59.6232, 37.1229], [59.6174, 37.1201], [59.5992, 37.1325], [59.5582, 37.1317], [59.5471, 37.1448], [59.5439, 37.1584], [59.5517, 37.1776], [59.542, 37.178], [59.5378, 37.1853], [59.5279, 37.1852], [59.4747, 37.2148], [59.4746, 37.2188], [59.4842, 37.2194], [59.4902, 37.2265], [59.4888, 37.2404], [59.4834, 37.2485], [59.4724, 37.2526], [59.4645, 37.2661], [59.4511, 37.2696], [59.4523, 37.2789], [59.436, 37.287], [59.4119, 37.2517], [59.4064, 37.2345], [59.4175, 37.1961], [59.415, 37.1892], [59.3503, 37.1094], [59.3455, 37.0908], [59.3541, 37.0519], [59.3872, 37.0011], [59.4649, 36.9677]]]}}, {"type": "Feature", "properties": {"osm_type": "relation", "osm_id": 315152296, "name": "Mashhad", "admin_level": "6", "kind": "subdivision_2", "parent_osm_id": 1015996, "parent_name": "Alborz Province", "parent_iso": "IR-30"}, "geometry": {"type": "Polygon", "coordinates": [[[59.3069, 36.1084], [59.3139, 36.095], [59.3116, 36.0817], [59.2989, 36.0678], [59.2139, 36.0114], [59.2036, 35.995], [59.1766, 35.9747], [59.1702, 35.9503], [59.1775, 35.9064], [59.1916, 35.8814], [59.2091, 35.8178], [59.208, 35.8083], [59.2005, 35.8039], [59.2447, 35.7525], [59.263, 35.7378], [59.2833, 35.7366], [59.3411, 35.748], [59.3578, 35.7461], [59.425, 35.7016], [59.5036, 35.718], [59.5333, 35.7475], [59.5403, 35.7641], [59.538, 35.7928], [59.5228, 35.8175], [59.6217, 35.9586], [59.6275, 35.9997], [59.6497, 36.0066], [59.7622, 36.0072], [59.7842, 36.0208], [59.7972, 36.0228], [59.8472, 36.0091], [59.8592, 35.9986], [59.87, 35.973], [59.8617, 35.9122], [59.9069, 35.8644], [59.9308, 35.843], [60.0353, 35.8022], [60.1292, 35.7753], [60.1361, 35.7786], [60.1467, 35.8039], [60.1692, 35.8311], [60.1775, 35.8322], [60.1875, 35.8255], [60.2131, 35.8439], [60.2253, 35.8455], [60.2422, 35.84], [60.2558, 35.8291], [60.2736, 35.8047], [60.2961, 35.7869], [60.3206, 35.7769], [60.3256, 35.7705], [60.3292, 35.7258], [60.3403, 35.7169], [60.3492, 35.7161], [60.3911, 35.7375], [60.4411, 35.7328], [60.4911, 35.7405], [60.5523, 35.7328], [60.5823, 35.7219], [60.5864, 35.7586], [60.5981, 35.8022], [60.5939, 35.8144], [60.5548, 35.8525], [60.5406, 35.8772], [60.5557, 35.9504], [60.5395, 35.9802], [60.4895, 35.9941], [60.4856, 36.0364], [60.4795, 36.0469], [60.4539, 36.053], [60.4245, 36.05], [60.4156, 36.0547], [60.4209, 36.0828], [60.4161, 36.1117], [60.3975, 36.1528], [60.3703, 36.1842], [60.357, 36.2378], [60.3611, 36.2516], [60.3886, 36.2742], [60.303, 36.3382], [60.2458, 36.3894], [60.2075, 36.4114], [60.2036, 36.4089], [60.1489, 36.4278], [60.0336, 36.5], [60.0061, 36.5392], [60.0103, 36.5594], [60.0328, 36.5867], [60.0239, 36.6105], [60.0104, 36.6283], [59.9319, 36.6794], [59.9164, 36.6858], [59.9044, 36.6833], [59.8461, 36.7242], [59.8227, 36.7577], [59.7819, 36.7983], [59.7644, 36.8314], [59.7242, 36.8606], [59.6655, 36.8875], [59.573, 36.9411], [59.5064, 36.9628], [59.468, 36.9808], [59.4591, 36.9595], [59.4647, 36.925], [59.4622, 36.9178], [59.4464, 36.9225], [59.4189, 36.92], [59.3669, 36.9442], [59.3586, 36.9506], [59.3591, 36.9722], [59.3544, 36.9736], [59.3247, 36.9375], [59.3111, 36.9303], [59.2965, 36.9314], [59.285, 36.9017], [59.3233, 36.8708], [59.3075, 36.8283], [59.2788, 36.8077], [59.2961, 36.7967], [59.3503, 36.8007], [59.3941, 36.7638], [59.3795, 36.6962], [59.3854, 36.667], [59.3655, 36.6368], [59.3658, 36.61], [59.3747, 36.6053], [59.3097, 36.5733], [59.2747, 36.5647], [59.2672, 36.5539], [59.2666, 36.5197], [59.2786, 36.5058], [59.2894, 36.4644], [59.4353, 36.418], [59.4541, 36.4047], [59.4591, 36.3956], [59.4703, 36.3919], [59.4367, 36.3568], [59.4425, 36.3473], [59.4397, 36.3376], [59.4429, 36.3333], [59.4368, 36.3308], [59.4563, 36.3321], [59.4634, 36.3197], [59.4663, 36.2971], [59.4716, 36.2921], [59.5437, 36.2594], [59.5784, 36.2545], [59.59, 36.2426], [59.5803, 36.2264], [59.5469, 36.2264], [59.5214, 36.2042], [59.5092, 36.2058], [59.4972, 36.1983], [59.4844, 36.2025], [59.478, 36.1997], [59.473, 36.1914], [59.4753, 36.1769], [59.4425, 36.1347], [59.3647, 36.1103], [59.3239, 36.1189], [59.3069, 36.1084]]]}}, {"type": "Feature", "properties": {"osm_type": "relation", "osm_id": 378996934, "name": "Mahvelat", "admin_level": "6", "kind": "subdivision_2", "parent_osm_id": 1015996, "parent_name": "Alborz Province", "parent_iso": "IR-30"}, "geometry": {"type": "Polygon", "coordinates": [[[58.6174, 34.7899], [58.7002, 34.7674], [58.7499, 34.7613], [58.7716, 34.7647], [58.8394, 34.7947], [58.8702, 34.8008], [58.933, 34.803], [58.9497, 34.7977], [58.9502, 34.8397], [58.9586, 34.8594], [58.9738, 34.8772], [58.9913, 34.8902], [59.05, 34.9188], [59.1529, 34.9557], [59.1058, 34.9819], [59.0716, 35.023], [59.0859, 35.1028], [59.0766, 35.1858], [59.0808, 35.2138], [59.0555, 35.238], [59.0452, 35.2664], [58.9816, 35.3197], [58.9523, 35.329], [58.9322, 35.329], [58.9336, 35.3164], [58.9272, 35.3016], [58.8533, 35.2984], [58.8341, 35.3289], [58.8091, 35.3461], [58.7949, 35.3511], [58.7752, 35.3497], [58.7683, 35.3308], [58.7491, 35.3161], [58.7447, 35.3075], [58.7538, 35.2574], [58.7626, 35.2556], [58.7657, 35.2475], [58.7477, 35.2275], [58.7349, 35.1722], [58.723, 35.1472], [58.7041, 35.1241], [58.6413, 35.1041], [58.5319, 35.108], [58.5002, 35.0994], [58.3321, 35.09], [58.2727, 35.0769], [58.2335, 35.0591], [58.2285, 35.0525], [58.2227, 35.0377], [58.2269, 35.0141], [58.2338, 34.9991], [58.2477, 34.988], [58.2441, 34.9727], [58.2013, 34.9213], [58.2205, 34.9255], [58.2449, 34.9202], [58.2669, 34.9233], [58.386, 34.8861], [58.4158, 34.87], [58.4516, 34.8405], [58.5002, 34.8161], [58.5208, 34.808], [58.6174, 34.7899]]]}}, {"type": "Feature", "properties": {"osm_type": "relation", "osm_id": 697778571, "name": "Neyshabur", "admin_level": "6", "kind": "subdivision_2", "parent_osm_id": 1015996, "parent_name": "Alborz Province", "parent_iso": "IR-30"}, "geometry": {"type": "Polygon", "coordinates": [[[59.0638, 36.2767], [59.023, 36.3339], [58.97, 36.3825], [58.9205, 36.4025], [58.7827, 36.4864], [58.7541, 36.4942], [58.7377, 36.5044], [58.7294, 36.5294], [58.7374, 36.5586], [58.7358, 36.6103], [58.6461, 36.6322], [58.6377, 36.6383], [58.6133, 36.7036], [58.5816, 36.7256], [58.536, 36.7433], [58.5263, 36.7692], [58.5549, 36.7944], [58.5552, 36.8], [58.5438, 36.8064], [58.5002, 36.8797], [58.4913, 36.8842], [58.4733, 36.9069], [58.4422, 36.9145], [58.4219, 36.9269], [58.3938, 36.9608], [58.3813, 36.9664], [58.3397, 36.9714], [58.3011, 36.9645], [58.2808, 36.93], [58.2588, 36.9108], [58.2013, 36.8957], [58.2077, 36.8253], [58.2194, 36.8089], [58.2399, 36.7958], [58.2271, 36.7692], [58.2196, 36.7325], [58.2794, 36.7264], [58.2649, 36.6989], [58.2305, 36.6572], [58.2238, 36.6428], [58.2185, 36.6106], [58.2459, 36.5782], [58.2672, 36.5602], [58.3153, 36.5368], [58.3325, 36.5157], [58.3784, 36.4929], [58.3822, 36.4975], [58.4035, 36.4947], [58.4999, 36.4528], [58.5216, 36.4555], [58.5577, 36.4775], [58.5792, 36.4583], [58.6239, 36.3975], [58.6536, 36.3815], [58.6724, 36.3644], [58.6811, 36.3461], [58.653, 36.305], [58.6561, 36.2672], [58.6391, 36.2458], [58.6241, 36.21], [58.6027, 36.1886], [58.5524, 36.1525], [58.546, 36.1441], [58.538, 36.113], [58.503, 36.0833], [58.4666, 36.1008], [58.2852, 36.1522], [58.2863, 36.13], [58.2794, 36.113], [58.2233, 36.0444], [58.221, 36.0353], [58.223, 35.9711], [58.2349, 35.9253], [58.2369, 35.8755], [58.2533, 35.8475], [58.2583, 35.8194], [58.253, 35.7764], [58.2347, 35.7339], [58.423, 35.6925], [58.4569, 35.6772], [58.4852, 35.6891], [58.5183, 35.6711], [58.5619, 35.6786], [58.5949, 35.675], [58.6527, 35.6227], [58.6877, 35.5716], [58.7516, 35.6039], [58.7761, 35.695], [58.7852, 35.7086], [58.8541, 35.7336], [58.9805, 35.7372], [59.003, 35.7439], [59.0211, 35.7919], [59.0305, 35.8508], [59.0916, 35.83], [59.115, 35.8103], [59.1919, 35.8019], [59.208, 35.8083], [59.205, 35.8372], [59.1727, 35.9283], [59.1702, 35.9503], [59.1766, 35.9747], [59.2036, 35.995], [59.2139, 36.0114], [59.2989, 36.0678], [59.3116, 36.0817], [59.3139, 36.095], [59.2847, 36.1441], [59.2669, 36.1514], [59.1975, 36.2055], [59.1508, 36.2539], [59.0638, 36.2767]]]}}, {"type": "Feature", "properties": {"osm_type": "relation", "osm_id": 647997467, "name": "Chenaran", "admin_level": "6", "kind": "subdivision_2", "parent_osm_id": 1015996, "parent_name": "Alborz Province", "parent_iso": "IR-30"}, "geometry": {"type": "Polygon", "coordinates": [[[59.2894, 36.4644], [59.2786, 36.5058], [59.2666, 36.5197], [59.2672, 36.5539], [59.2747, 36.5647], [59.3097, 36.5733], [59.3747, 36.6053], [59.3658, 36.61], [59.3655, 36.6368], [59.3854, 36.667], [59.3795, 36.6962], [59.3941, 36.7638], [59.3503, 36.8007], [59.2961, 36.7967], [59.2788, 36.8077], [59.3075, 36.8283], [59.3233, 36.8708], [59.285, 36.9017], [59.2989, 36.9481], [59.295, 36.9692], [59.2875, 36.9817], [59.2355, 36.9875], [59.2025, 37.0002], [59.1864, 37.0131], [59.1211, 37.0325], [59.0933, 37.0464], [59.0486, 37.0361], [59.0269, 37.025], [58.9877, 37.0214], [58.9186, 36.997], [58.8661, 36.9984], [58.8615, 37.0002], [58.8658, 37.0072], [58.849, 37.0165], [58.8303, 37.0124], [58.8245, 37.0069], [58.8127, 36.965], [58.7894, 36.9528], [58.7916, 36.9422], [58.7777, 36.92], [58.7774, 36.9056], [58.7966, 36.8803], [58.8013, 36.8661], [58.8508, 36.8317], [58.8927, 36.8222], [58.8947, 36.8075], [58.875, 36.7553], [58.8391, 36.7344], [58.8177, 36.6983], [58.8072, 36.6917], [58.7974, 36.6942], [58.7724, 36.7197], [58.7702, 36.7283], [58.7449, 36.7369], [58.7077, 36.7147], [58.723, 36.6933], [58.7163, 36.6683], [58.7077, 36.6586], [58.6591, 36.6289], [58.7358, 36.6103], [58.7374, 36.5586], [58.7294, 36.5294], [58.7377, 36.5044], [58.7541, 36.4942], [58.7827, 36.4864], [58.9205, 36.4025], [58.97, 36.3825], [59.023, 36.3339], [59.0638, 36.2767], [59.1044, 36.3067], [59.1427, 36.3992], [59.1972, 36.4336], [59.2736, 36.4453], [59.2858, 36.4544], [59.2894, 36.4644]]]}}, {"type": "Feature", "properties": {"osm_type": "relation", "osm_id": 471386545, "name": "Gonabad", "admin_level": "6", "kind": "subdivision_2", "parent_osm_id": 1015996, "parent_name": "Alborz Province", "parent_iso": "IR-30"}, "geometry": {"type": "Polygon", "coordinates": [[[58.3402, 34.3066], [58.3444, 34.2963], [58.3619, 34.2958], [58.3743, 34.2844], [58.3771, 34.2661], [58.3983, 34.2429], [58.3969, 34.2249], [58.4269, 34.2083], [58.4397, 34.1947], [58.4644, 34.1283], [58.4855, 34.1133], [58.5002, 34.1091], [58.5188, 34.0894], [58.6013, 34.0374], [58.6363, 34.0216], [58.648, 34.0319], [58.668, 34.0716], [58.6955, 34.096], [58.7138, 34.0997], [58.7858, 34.0819], [58.7933, 34.0833], [58.8249, 34.1083], [58.8477, 34.1133], [58.8894, 34.1133], [58.948, 34.0974], [58.9797, 34.0947], [59.0088, 34.1038], [59.0441, 34.1238], [59.1625, 34.1191], [59.2208, 34.1344], [59.2594, 34.1499], [59.2975, 34.1222], [59.3472, 34.108], [59.5361, 34.1041], [59.4903, 34.1627], [59.4219, 34.1999], [59.4016, 34.218], [59.3919, 34.2341], [59.3827, 34.2749], [59.4066, 34.3474], [59.4178, 34.4016], [59.3836, 34.4027], [59.235, 34.4433], [59.1936, 34.4697], [59.0677, 34.5122], [59.0497, 34.5413], [59.0133, 34.6858], [58.9919, 34.7519], [58.9619, 34.7933], [58.933, 34.803], [58.8702, 34.8008], [58.8394, 34.7947], [58.7716, 34.7647], [58.7499, 34.7613], [58.7002, 34.7674], [58.6174, 34.7899], [58.5994, 34.6911], [58.5894, 34.6638], [58.5674, 34.6347], [58.5452, 34.6244], [58.5283, 34.5949], [58.4916, 34.5574], [58.443, 34.473], [58.4322, 34.4608], [58.3927, 34.4441], [58.3363, 34.4411], [58.2983, 34.4027], [58.2949, 34.3927], [58.3008, 34.3708], [58.3402, 34.3066]]]}}]}