{"type": "FeatureCollection", "parent": {"osm_id": 108083, "name": "Republic of Kalmykia", "admin_level": "4", "kind": "subdivision_1", "child_kind": "subdivision_2", "iso": "RU-KL"}, "features": [{"type": "Feature", "properties": {"osm_type": "relation", "osm_id": 300542992, "name": "Ketchenerovsky District", "admin_level": "6", "kind": "subdivision_2", "parent_osm_id": 108083, "parent_name": "Republic of Kalmykia", "parent_iso": "RU-KL"}, "geometry": {"type": "Polygon", "coordinates": [[[44.3184, 47.4132], [44.3242, 47.1424], [44.2675, 46.9645], [44.2615, 46.9202], [44.2616, 46.9113], [44.2659, 46.9095], [44.4497, 46.9041], [44.4812, 46.893], [44.6765, 46.8866], [44.6954, 46.8916], [44.7118, 46.8875], [44.7121, 46.8233], [44.6933, 46.7674], [44.923, 46.7452], [44.929, 46.7629], [45.0708, 46.7517], [45.0747, 46.7889], [45.0564, 46.8269], [45.0291, 46.8625], [45.2394, 46.8362], [45.4185, 46.8611], [45.5666, 46.8582], [45.622, 46.8446], [45.7691, 46.8487], [45.8032, 47.1787], [45.5295, 47.1702], [45.4575, 47.1745], [45.4485, 47.1835], [45.3096, 47.2064], [45.3476, 47.291], [45.3456, 47.304], [45.3143, 47.3234], [45.2077, 47.3591], [45.148, 47.3943], [45.0977, 47.4327], [45.0467, 47.4889], [45.0414, 47.5154], [45.0247, 47.5328], [45.0101, 47.5323], [44.9329, 47.5596], [44.8979, 47.5802], [44.8408, 47.5567], [44.8415, 47.5333], [44.7777, 47.5253], [44.7718, 47.4883], [44.7531, 47.4562], [44.7059, 47.413], [44.6199, 47.4296], [44.5156, 47.4566], [44.4812, 47.4699], [44.4709, 47.4127], [44.3184, 47.4132]]]}}, {"type": "Feature", "properties": {"osm_type": "relation", "osm_id": 663010483, "name": "Priyutnensky District", "admin_level": "6", "kind": "subdivision_2", "parent_osm_id": 108083, "parent_name": "Republic of Kalmykia", "parent_iso": "RU-KL"}, "geometry": {"type": "Polygon", "coordinates": [[[42.7691, 46.3687], [42.7865, 46.3442], [42.8556, 46.3239], [42.8905, 46.2904], [42.922, 46.2492], [42.9268, 46.2365], [42.9318, 46.2361], [42.9619, 46.1965], [43.0017, 46.1693], [43.1644, 46.1288], [43.1926, 46.1175], [43.2817, 46.104], [43.3104, 46.0899], [43.3597, 46.0331], [43.4697, 45.9889], [43.5119, 45.9892], [43.5701, 45.9791], [43.5887, 45.9821], [43.5942, 45.9889], [43.6068, 45.9789], [43.6227, 45.9911], [43.6232, 45.986], [43.636, 45.9878], [43.6352, 45.9823], [43.6454, 45.9794], [43.7232, 45.9826], [43.7663, 45.9714], [43.7764, 45.9729], [43.7871, 45.9629], [43.81, 45.9564], [43.847, 45.9574], [43.8932, 45.9442], [43.9032, 45.9484], [43.9152, 45.9466], [43.9315, 45.9106], [43.9229, 45.903], [43.945, 45.8948], [43.9828, 45.8901], [44.0169, 45.8708], [44.0355, 45.8495], [44.0328, 45.8406], [44.0421, 45.8195], [44.0593, 45.8044], [44.0638, 45.8105], [44.0719, 45.8007], [44.0891, 45.7978], [44.0887, 45.7875], [44.2198, 45.8158], [44.2084, 45.8342], [44.2117, 45.861], [44.2496, 45.8849], [44.2492, 45.9103], [44.2444, 45.9195], [44.2524, 46.0967], [44.2748, 46.0968], [44.2751, 46.1194], [44.2117, 46.1149], [44.2033, 46.2061], [44.228, 46.204], [44.2447, 46.1913], [44.2681, 46.2016], [44.2745, 46.2312], [44.2831, 46.2447], [44.231, 46.2701], [44.1924, 46.2585], [44.1338, 46.2717], [44.1424, 46.2989], [44.0757, 46.2777], [44.0498, 46.2819], [44.0177, 46.2686], [44.0085, 46.2494], [43.9516, 46.2364], [43.8318, 46.1736], [43.786, 46.1933], [43.7779, 46.2045], [43.8055, 46.2109], [43.8133, 46.219], [43.8193, 46.2164], [43.8175, 46.2194], [43.8237, 46.2193], [43.825, 46.2236], [43.827, 46.2189], [43.829, 46.2234], [43.8401, 46.2211], [43.8443, 46.2239], [43.8425, 46.2301], [43.8472, 46.2281], [43.8488, 46.2327], [43.8615, 46.2305], [43.8572, 46.2341], [43.872, 46.2425], [43.8645, 46.2463], [43.8707, 46.2598], [43.8479, 46.2868], [43.8897, 46.3138], [43.8472, 46.3325], [43.8294, 46.3499], [43.8184, 46.382], [43.8097, 46.3811], [43.7388, 46.408], [43.7293, 46.3925], [43.751, 46.3612], [43.6869, 46.284], [43.6303, 46.1754], [43.6008, 46.1728], [43.5383, 46.1572], [43.3392, 46.1671], [42.9317, 46.4469], [42.7811, 46.4028], [42.7909, 46.3826], [42.7691, 46.3687]]]}}, {"type": "Feature", "properties": {"osm_type": "relation", "osm_id": 550954719, "name": "Tselinny District", "admin_level": "6", "kind": "subdivision_2", "parent_osm_id": 108083, "parent_name": "Republic of Kalmykia", "parent_iso": "RU-KL"}, "geometry": {"type": "Polygon", "coordinates": [[[44.2659, 46.9095], [44.2485, 46.8897], [44.1569, 46.8232], [44.0868, 46.8355], [44.0484, 46.8001], [44.0336, 46.7645], [43.9122, 46.7144], [43.9007, 46.6869], [43.9126, 46.6758], [43.882, 46.6235], [43.8272, 46.5964], [43.8128, 46.5719], [43.9306, 46.535], [43.9299, 46.4855], [43.9153, 46.4469], [43.9155, 46.42], [43.932, 46.4187], [43.9239, 46.3873], [43.9408, 46.3789], [43.9412, 46.3735], [43.9587, 46.3704], [43.9725, 46.3581], [43.9587, 46.3191], [43.8957, 46.3005], [43.8624, 46.2708], [43.8707, 46.2598], [43.8645, 46.2463], [43.872, 46.2425], [43.8572, 46.2341], [43.8615, 46.2305], [43.8488, 46.2327], [43.8472, 46.2281], [43.8425, 46.2301], [43.8443, 46.2239], [43.8401, 46.2211], [43.829, 46.2234], [43.827, 46.2189], [43.825, 46.2236], [43.8237, 46.2193], [43.8175, 46.2194], [43.8193, 46.2164], [43.8133, 46.219], [43.8055, 46.2109], [43.7779, 46.2045], [43.786, 46.1933], [43.8318, 46.1736], [43.9516, 46.2364], [44.0085, 46.2494], [44.0177, 46.2686], [44.0498, 46.2819], [44.0757, 46.2777], [44.1424, 46.2989], [44.1716, 46.3884], [44.3133, 46.3707], [44.2987, 46.3783], [44.3601, 46.3732], [44.3443, 46.3703], [44.3382, 46.3645], [44.3382, 46.3549], [44.3723, 46.3527], [44.3614, 46.3386], [44.3973, 46.329], [44.402, 46.3117], [44.3677, 46.3163], [44.3371, 46.3137], [44.3288, 46.2791], [44.3241, 46.2791], [44.3089, 46.2572], [44.3031, 46.2379], [44.2831, 46.2447], [44.2745, 46.2312], [44.2681, 46.2016], [44.2561, 46.1979], [44.2768, 46.1978], [44.3064, 46.1698], [44.3053, 46.1638], [44.4107, 46.1634], [44.4505, 46.15], [44.4791, 46.1482], [44.5355, 46.2272], [44.6794, 46.2063], [44.709, 46.2709], [44.7192, 46.2785], [44.7729, 46.2816], [44.7841, 46.2923], [44.8011, 46.2969], [44.8048, 46.3041], [44.8121, 46.3009], [44.8246, 46.3042], [44.8088, 46.3154], [44.8011, 46.3118], [44.8012, 46.3167], [44.7905, 46.3186], [44.7977, 46.3815], [44.771, 46.4676], [44.9568, 46.4766], [45.0255, 46.5947], [45.0403, 46.6805], [45.0708, 46.7517], [44.929, 46.7629], [44.923, 46.7452], [44.6933, 46.7674], [44.7121, 46.8233], [44.7118, 46.8875], [44.6954, 46.8916], [44.6765, 46.8866], [44.4812, 46.893], [44.4497, 46.9041], [44.2659, 46.9095]]]}}, {"type": "Feature", "properties": {"osm_type": "relation", "osm_id": 655745519, "name": "Chernozemelsky District", "admin_level": "6", "kind": "subdivision_2", "parent_osm_id": 108083, "parent_name": "Republic of Kalmykia", "parent_iso": "RU-KL"}, "geometry": {"type": "MultiPolygon", "coordinates": [[[[46.6279, 44.8666], [46.6505, 44.9294], [46.6911, 44.9187], [46.7195, 44.9861], [46.6774, 44.9987], [46.8066, 45.3398], [46.801, 45.3431], [46.8213, 45.3992], [46.8105, 45.4007], [46.8212, 45.4541], [46.7906, 45.4744], [46.7376, 45.48], [46.6991, 45.4772], [46.6387, 45.4805], [46.6252, 45.4388], [46.5772, 45.4299], [46.5776, 45.4432], [46.444, 45.4527], [46.4573, 45.4829], [46.6464, 45.5046], [46.6601, 45.5474], [46.7335, 45.5526], [46.7711, 45.5497], [46.7722, 45.5286], [46.8845, 45.5237], [46.9094, 45.5873], [46.8544, 45.5689], [46.8141, 45.5654], [46.7691, 45.5772], [46.7625, 45.5982], [46.7497, 45.6151], [46.6925, 45.6144], [46.6834, 45.6195], [46.6939, 45.6485], [46.4777, 45.7005], [46.5358, 45.7575], [46.5498, 45.798], [46.4119, 45.816], [46.2954, 45.9144], [46.3106, 45.963], [45.5584, 45.9475], [45.4027, 45.9799], [45.3432, 45.9843], [45.3412, 45.8654], [45.3697, 45.8535], [45.3654, 45.8073], [45.3939, 45.7742], [45.3962, 45.7271], [45.3824, 45.6936], [45.367, 45.6796], [45.3597, 45.6588], [45.349, 45.6536], [45.3404, 45.6358], [45.2838, 45.5881], [45.2578, 45.5443], [45.3644, 45.4991], [45.3427, 45.4037], [45.3505, 45.4041], [45.454, 45.3152], [45.3512, 45.2184], [45.59, 45.1258], [45.5863, 45.1211], [45.716, 44.9958], [45.7051, 44.9774], [45.7143, 44.9742], [45.7488, 44.9754], [45.7834, 44.9685], [45.7973, 44.9769], [45.7936, 44.9876], [45.8137, 44.9917], [45.846, 44.9858], [45.949, 44.9863], [45.9693, 44.9808], [45.9825, 44.9891], [46.0163, 44.9796], [46.0319, 44.9808], [46.0767, 44.9648], [46.083, 44.9687], [46.1174, 44.9698], [46.1598, 44.9585], [46.1615, 44.9631], [46.2003, 44.9585], [46.2261, 44.973], [46.326, 44.9497], [46.3473, 44.951], [46.3587, 44.9408], [46.3832, 44.9473], [46.4306, 44.9345], [46.4343, 44.9388], [46.4494, 44.9391], [46.4845, 44.9304], [46.5046, 44.9343], [46.5706, 44.9073], [46.5849, 44.8899], [46.6279, 44.8666]]], [[[47.0063, 46.0745], [47.0081, 46.0557], [47.1166, 46.0537], [47.1291, 46.069], [47.1327, 46.0942], [47.1289, 46.1125], [47.1152, 46.1143], [47.1109, 46.1101], [47.0884, 46.108], [47.077, 46.1006], [47.0347, 46.1015], [47.0151, 46.0929], [47.0063, 46.0745]]], [[[46.9376, 45.769], [46.9377, 45.719], [46.9622, 45.7204], [46.9846, 45.7809], [46.9376, 45.769]]]]}}, {"type": "Feature", "properties": {"osm_type": "relation", "osm_id": 548599724, "name": "Gorodovikovsky District", "admin_level": "6", "kind": "subdivision_2", "parent_osm_id": 108083, "parent_name": "Republic of Kalmykia", "parent_iso": "RU-KL"}, "geometry": {"type": "Polygon", "coordinates": [[[42.1942, 46.1142], [42.1774, 46.1756], [42.1776, 46.24], [42.1416, 46.2401], [42.1289, 46.2976], [41.9623, 46.298], [41.9628, 46.2551], [41.9111, 46.2551], [41.9106, 46.2034], [41.9624, 46.2032], [41.9626, 46.1764], [41.8864, 46.1758], [41.8626, 46.1442], [41.7385, 46.1858], [41.744, 46.194], [41.7261, 46.1999], [41.7032, 46.217], [41.6974, 46.2151], [41.6928, 46.2043], [41.6774, 46.198], [41.687, 46.1856], [41.6597, 46.1778], [41.651, 46.1901], [41.6433, 46.1902], [41.6357, 46.1865], [41.6343, 46.1805], [41.6542, 46.1681], [41.6423, 46.1587], [41.6409, 46.1545], [41.6505, 46.1502], [41.6448, 46.142], [41.7021, 46.0517], [41.7144, 45.9824], [41.8099, 45.979], [41.9028, 45.968], [41.9273, 45.9745], [42.0829, 45.9664], [42.0801, 45.9338], [42.0833, 45.9322], [42.1516, 45.9431], [42.1636, 46.0388], [42.1762, 46.0406], [42.1803, 46.0714], [42.1676, 46.0699], [42.1707, 46.1099], [42.1942, 46.1142]]]}}, {"type": "Feature", "properties": {"osm_type": "relation", "osm_id": 139319534, "name": "Lagansky District", "admin_level": "6", "kind": "subdivision_2", "parent_osm_id": 108083, "parent_name": "Republic of Kalmykia", "parent_iso": "RU-KL"}, "geometry": {"type": "Polygon", "coordinates": [[[46.895, 44.8121], [46.8898, 44.8167], [46.9063, 44.827], [46.9166, 44.8292], [46.9223, 44.8208], [46.931, 44.8179], [46.9425, 44.8309], [46.9508, 44.8574], [46.9501, 44.8718], [46.9593, 44.8806], [46.9647, 44.9001], [46.9707, 44.9003], [46.9672, 44.9163], [46.9753, 44.9332], [46.9751, 44.946], [46.9827, 44.9573], [46.9581, 44.9845], [46.9763, 45.0057], [46.9846, 45.0067], [46.9818, 45.0028], [46.9901, 44.9959], [46.9791, 44.9821], [46.9913, 44.949], [46.9871, 44.9212], [47.0045, 44.9089], [47.0129, 44.8707], [47.0306, 44.884], [47.0431, 44.8823], [47.0484, 44.8746], [47.0472, 44.8576], [47.0604, 44.8373], [47.0692, 44.8391], [47.0919, 44.8665], [47.1046, 44.8741], [47.0999, 44.9101], [47.0649, 44.9581], [47.0658, 44.9765], [47.0366, 44.9828], [47.0331, 44.9911], [47.0404, 44.9945], [47.0627, 44.986], [47.0946, 44.9563], [47.1039, 44.9568], [47.1183, 44.9391], [47.1492, 44.9456], [47.1797, 45.0037], [47.1997, 45.0216], [47.2021, 45.0304], [47.1966, 45.0617], [47.2021, 45.0723], [47.2168, 45.0801], [47.2312, 45.0665], [47.2433, 45.0748], [47.2326, 45.0859], [47.2295, 45.1031], [47.2477, 45.1266], [47.2409, 45.1399], [47.2412, 45.1504], [47.2508, 45.153], [47.2546, 45.1382], [47.2625, 45.1341], [47.2711, 45.1639], [47.2821, 45.1724], [47.279, 45.1818], [47.2845, 45.1915], [47.2755, 45.2065], [47.2752, 45.2343], [47.2632, 45.2389], [47.257, 45.2493], [47.2773, 45.2408], [47.2865, 45.2478], [47.2965, 45.2406], [47.3023, 45.2573], [47.3195, 45.2744], [47.315, 45.2982], [47.3272, 45.3069], [47.336, 45.2975], [47.3323, 45.3139], [47.3411, 45.3211], [47.3374, 45.3317], [47.3424, 45.3411], [47.36, 45.3399], [47.3696, 45.3213], [47.3796, 45.3191], [47.3799, 45.3295], [47.4026, 45.3488], [47.4153, 45.3669], [47.4101, 45.3925], [47.3813, 45.41], [47.3679, 45.4313], [47.4047, 45.4319], [47.424, 45.4611], [47.4578, 45.4756], [47.5271, 45.5172], [47.5053, 45.5488], [47.5001, 45.5712], [47.5034, 45.5949], [47.4916, 45.6094], [47.498, 45.6184], [47.5378, 45.6179], [47.5348, 45.619], [47.5402, 45.6313], [47.5368, 45.644], [47.5095, 45.6412], [47.5204, 45.6606], [47.4891, 45.6453], [47.4796, 45.6459], [47.465, 45.651], [47.401, 45.6549], [47.4012, 45.664], [47.3964, 45.6659], [47.3398, 45.6685], [47.296, 45.6768], [47.2935, 45.6602], [47.2841, 45.6473], [47.2711, 45.6487], [47.2426, 45.6396], [47.2124, 45.6182], [47.1528, 45.6099], [46.969, 45.6189], [46.9488, 45.5964], [46.9094, 45.5873], [46.8552, 45.4505], [46.8279, 45.45], [46.8212, 45.4541], [46.8105, 45.4007], [46.8213, 45.3992], [46.801, 45.3431], [46.8066, 45.3398], [46.6774, 44.9987], [46.7195, 44.9861], [46.6911, 44.9187], [46.6505, 44.9294], [46.6279, 44.8666], [46.6351, 44.8611], [46.6393, 44.8642], [46.6771, 44.8588], [46.6901, 44.8466], [46.7698, 44.8263], [46.7728, 44.8194], [46.7551, 44.8029], [46.7561, 44.7988], [46.7955, 44.7836], [46.7979, 44.7776], [46.8129, 44.7706], [46.8126, 44.7629], [46.818, 44.7603], [46.8377, 44.7685], [46.823, 44.7804], [46.825, 44.789], [46.81, 44.7951], [46.8077, 44.8038], [46.8232, 44.8087], [46.865, 44.7994], [46.895, 44.8121]]]}}, {"type": "Feature", "properties": {"osm_type": "relation", "osm_id": 790715517, "name": "Maloderbetovsky District", "admin_level": "6", "kind": "subdivision_2", "parent_osm_id": 108083, "parent_name": "Republic of Kalmykia", "parent_iso": "RU-KL"}, "geometry": {"type": "Polygon", "coordinates": [[[44.961, 48.2709], [44.9097, 48.2194], [44.9375, 48.1947], [44.9144, 48.1714], [44.9257, 48.1202], [44.8098, 48.0506], [44.6631, 48.0863], [44.663, 48.058], [44.649, 48.0538], [44.5411, 48.0505], [44.5442, 48.1881], [44.5046, 48.1848], [44.478, 48.202], [44.4358, 48.2062], [44.4373, 48.2297], [44.3824, 48.2336], [44.3811, 48.2504], [44.3264, 48.2388], [44.3251, 48.0413], [44.4239, 48.0424], [44.4232, 47.9557], [44.3929, 47.9183], [44.392, 47.8895], [44.3591, 47.8516], [44.3754, 47.8479], [44.6276, 47.8471], [44.633, 47.831], [44.6746, 47.764], [44.7362, 47.7404], [44.8119, 47.7383], [44.8277, 47.7101], [44.8094, 47.6826], [44.8066, 47.6511], [44.8884, 47.6209], [44.8992, 47.5965], [44.8979, 47.5802], [44.9329, 47.5596], [45.0101, 47.5323], [45.0247, 47.5328], [45.1887, 47.5963], [45.1418, 47.6617], [45.1765, 47.6805], [45.2077, 47.7598], [45.2245, 47.7804], [45.2268, 47.7913], [45.1354, 47.9037], [45.1947, 47.9263], [45.142, 47.9845], [45.2426, 47.9906], [45.3683, 47.9812], [45.3888, 47.9587], [45.459, 47.9353], [45.4645, 47.8976], [45.5049, 47.8975], [45.5065, 47.8835], [45.5147, 47.8835], [45.5161, 47.8647], [45.5418, 47.866], [45.7217, 47.9012], [45.7139, 47.9312], [45.7566, 48.0013], [45.6985, 48.0323], [45.5947, 48.0117], [45.5504, 47.9938], [45.3794, 48.0998], [45.2661, 48.1055], [45.2385, 48.1649], [45.1457, 48.1877], [45.1676, 48.222], [44.961, 48.2709]]]}}, {"type": "Feature", "properties": {"osm_type": "relation", "osm_id": 339686449, "name": "Oktyabrsky District", "admin_level": "6", "kind": "subdivision_2", "parent_osm_id": 108083, "parent_name": "Republic of Kalmykia", "parent_iso": "RU-KL"}, "geometry": {"type": "Polygon", "coordinates": [[[45.7217, 47.9012], [45.5418, 47.866], [45.5161, 47.8647], [45.5147, 47.8835], [45.5065, 47.8835], [45.5049, 47.8975], [45.4645, 47.8976], [45.459, 47.9353], [45.3888, 47.9587], [45.3683, 47.9812], [45.2426, 47.9906], [45.142, 47.9845], [45.1947, 47.9263], [45.1354, 47.9037], [45.2268, 47.7913], [45.2245, 47.7804], [45.2077, 47.7598], [45.1765, 47.6805], [45.1418, 47.6617], [45.1887, 47.5963], [45.0247, 47.5328], [45.0414, 47.5154], [45.0467, 47.4889], [45.0977, 47.4327], [45.148, 47.3943], [45.2077, 47.3591], [45.3143, 47.3234], [45.3456, 47.304], [45.3476, 47.291], [45.3096, 47.2064], [45.4485, 47.1835], [45.4575, 47.1745], [45.5295, 47.1702], [45.8032, 47.1787], [45.8081, 47.2534], [45.7, 47.2572], [45.7192, 47.3621], [45.7071, 47.3623], [45.7129, 47.3896], [45.6991, 47.4087], [45.6986, 47.4386], [45.6904, 47.4418], [45.7005, 47.4831], [45.7327, 47.5564], [45.752, 47.5575], [45.7529, 47.5719], [45.8226, 47.5747], [45.8561, 47.5939], [45.8514, 47.6558], [45.8547, 47.7194], [45.8413, 47.7202], [45.784, 47.8144], [45.7402, 47.8303], [45.7217, 47.9012]]]}}, {"type": "Feature", "properties": {"osm_type": "relation", "osm_id": 562974109, "name": "Yashaltinsky District", "admin_level": "6", "kind": "subdivision_2", "parent_osm_id": 108083, "parent_name": "Republic of Kalmykia", "parent_iso": "RU-KL"}, "geometry": {"type": "Polygon", "coordinates": [[[42.7094, 46.0904], [42.7386, 46.0915], [42.863, 46.1778], [42.8551, 46.1781], [42.8571, 46.1842], [42.8394, 46.1906], [42.845, 46.1922], [42.8487, 46.201], [42.8566, 46.1991], [42.8719, 46.2082], [42.876, 46.205], [42.8751, 46.209], [42.8816, 46.2083], [42.9138, 46.2362], [42.9268, 46.2365], [42.922, 46.2492], [42.8905, 46.2904], [42.8556, 46.3239], [42.7865, 46.3442], [42.7691, 46.3687], [42.6799, 46.3683], [42.5869, 46.3873], [42.5605, 46.3993], [42.5515, 46.4138], [42.5155, 46.4407], [42.5033, 46.4567], [42.4889, 46.4641], [42.4437, 46.4669], [42.4243, 46.475], [42.4157, 46.4823], [42.4168, 46.4987], [42.3971, 46.5111], [42.3326, 46.5271], [42.2791, 46.5308], [42.2004, 46.5584], [42.13, 46.5564], [42.0628, 46.5444], [42.0497, 46.5462], [42.0493, 46.5388], [42.0441, 46.5354], [42.0562, 46.5252], [42.0495, 46.5173], [42.0509, 46.5086], [42.0663, 46.4833], [42.1007, 46.3745], [42.1642, 46.3827], [42.175, 46.3611], [42.1704, 46.2978], [42.1289, 46.2976], [42.1416, 46.2401], [42.1776, 46.24], [42.1774, 46.1756], [42.1942, 46.1142], [42.3297, 46.1352], [42.3195, 46.0416], [42.318, 45.9697], [42.5568, 46.008], [42.672, 46.0899], [42.7094, 46.0904]]]}}, {"type": "Feature", "properties": {"osm_type": "relation", "osm_id": 909372063, "name": "Yustinsky District", "admin_level": "6", "kind": "subdivision_2", "parent_osm_id": 108083, "parent_name": "Republic of Kalmykia", "parent_iso": "RU-KL"}, "geometry": {"type": "Polygon", "coordinates": [[[45.8547, 47.7194], [45.8514, 47.6558], [45.8561, 47.5939], [45.8226, 47.5747], [45.7529, 47.5719], [45.752, 47.5575], [45.7327, 47.5564], [45.7005, 47.4831], [45.6904, 47.4418], [45.6986, 47.4386], [45.6991, 47.4087], [45.7129, 47.3896], [45.7071, 47.3623], [45.7192, 47.3621], [45.7, 47.2572], [45.8081, 47.2534], [45.7745, 46.9014], [45.8864, 46.9123], [45.8855, 46.8516], [45.9077, 46.6768], [45.9614, 46.6807], [46.1128, 46.6631], [46.1639, 46.6627], [46.242, 46.7525], [46.3897, 46.7387], [46.3695, 46.7138], [46.638, 46.6771], [46.63, 46.6205], [46.5512, 46.6141], [46.5786, 46.4882], [46.716, 46.4817], [46.7199, 46.4456], [46.8647, 46.4572], [46.9647, 46.4455], [46.9503, 46.5245], [46.8662, 46.6196], [46.9572, 46.7154], [46.9648, 46.832], [46.9788, 46.8742], [46.9622, 46.9742], [46.8997, 46.9872], [46.8171, 46.9922], [46.7783, 47.0544], [46.7392, 47.0739], [46.5363, 47.4034], [46.6693, 47.482], [46.7872, 47.5264], [46.8731, 47.5489], [46.7774, 47.5946], [46.7611, 47.6076], [46.7034, 47.6072], [46.7042, 47.6023], [46.6855, 47.6017], [46.5468, 47.517], [46.3989, 47.4133], [46.2672, 47.4207], [46.0951, 47.5106], [46.008, 47.5648], [45.9217, 47.6447], [45.8999, 47.717], [45.8547, 47.7194]]]}}, {"type": "Feature", "properties": {"osm_type": "relation", "osm_id": 976637620, "name": "городской округ Элиста", "admin_level": "6", "kind": "subdivision_2", "parent_osm_id": 108083, "parent_name": "Republic of Kalmykia", "parent_iso": "RU-KL"}, "geometry": {"type": "MultiPolygon", "coordinates": [[[[44.2471, 45.9585], [44.2981, 45.9586], [44.2976, 45.9715], [44.3344, 45.9713], [44.317, 45.9849], [44.3262, 45.9943], [44.3193, 45.9995], [44.3208, 46.0119], [44.3285, 46.0088], [44.3278, 46.0126], [44.333, 46.0102], [44.3357, 46.0135], [44.3405, 46.01], [44.3428, 46.0152], [44.3583, 46.0175], [44.365, 46.014], [44.3647, 46.02], [44.4292, 46.0214], [44.3155, 46.0821], [44.3166, 46.0965], [44.3281, 46.1038], [44.3276, 46.1273], [44.3021, 46.1436], [44.3064, 46.1698], [44.2768, 46.1978], [44.2561, 46.1979], [44.2447, 46.1913], [44.228, 46.204], [44.2033, 46.2061], [44.2117, 46.1149], [44.2751, 46.1194], [44.2748, 46.0968], [44.2524, 46.0967], [44.2471, 45.9585]]], [[[44.2831, 46.2447], [44.3031, 46.2379], [44.3089, 46.2572], [44.3241, 46.2791], [44.3288, 46.2791], [44.3371, 46.3137], [44.3677, 46.3163], [44.402, 46.3117], [44.3973, 46.329], [44.3614, 46.3386], [44.3723, 46.3527], [44.3382, 46.3549], [44.3382, 46.3645], [44.3443, 46.3703], [44.3601, 46.3732], [44.2987, 46.3783], [44.3133, 46.3707], [44.1716, 46.3884], [44.1338, 46.2717], [44.1924, 46.2585], [44.231, 46.2701], [44.2831, 46.2447]]]]}}, {"type": "Feature", "properties": {"osm_type": "relation", "osm_id": 557046002, "name": "Iki-Burulsky District", "admin_level": "6", "kind": "subdivision_2", "parent_osm_id": 108083, "parent_name": "Republic of Kalmykia", "parent_iso": "RU-KL"}, "geometry": {"type": "Polygon", "coordinates": [[[44.0887, 45.7875], [44.106, 45.7382], [44.1216, 45.7311], [44.131, 45.692], [44.1714, 45.6443], [44.2346, 45.5992], [44.2745, 45.5893], [44.278, 45.5749], [44.2973, 45.5693], [44.319, 45.5513], [44.3642, 45.5519], [44.3687, 45.5429], [44.4517, 45.5071], [44.4977, 45.5018], [44.5146, 45.5105], [44.5339, 45.5048], [44.5368, 45.4989], [44.5749, 45.5061], [44.5984, 45.4783], [44.6328, 45.4641], [44.7237, 45.4452], [44.7428, 45.4349], [44.797, 45.4257], [44.8306, 45.4373], [44.8374, 45.4283], [44.8776, 45.4053], [44.8932, 45.4035], [44.8951, 45.3874], [45.1363, 45.3061], [45.3512, 45.2184], [45.454, 45.3152], [45.3505, 45.4041], [45.3427, 45.4037], [45.3644, 45.4991], [45.2578, 45.5443], [45.2838, 45.5881], [45.3404, 45.6358], [45.349, 45.6536], [45.3597, 45.6588], [45.367, 45.6796], [45.3824, 45.6936], [45.3962, 45.7271], [45.3939, 45.7742], [45.3667, 45.8043], [45.3656, 45.8346], [45.3492, 45.8302], [45.343, 45.8357], [45.332, 45.8344], [45.3287, 45.8392], [45.3014, 45.8391], [45.2686, 45.8362], [45.2485, 45.8268], [45.224, 45.827], [45.2017, 45.8334], [45.1893, 45.829], [45.1844, 45.8326], [45.1835, 45.8292], [45.1282, 45.8435], [45.2136, 45.9162], [45.1521, 45.9414], [45.1148, 45.9751], [45.1072, 45.9848], [45.1072, 46.0156], [45.103, 46.0173], [45.0528, 46.0117], [45.0032, 45.9909], [44.9898, 45.9898], [44.9536, 46.0034], [44.9182, 46.0016], [44.9137, 46.0075], [44.8924, 46.0126], [44.8855, 46.0204], [44.862, 46.0225], [44.8528, 46.0295], [44.8301, 46.1682], [44.7875, 46.1787], [44.774, 46.1882], [44.6621, 46.2109], [44.5355, 46.2272], [44.4791, 46.1482], [44.4505, 46.15], [44.4107, 46.1634], [44.3053, 46.1638], [44.3021, 46.1436], [44.3276, 46.1273], [44.3294, 46.1204], [44.3281, 46.1038], [44.3166, 46.0965], [44.3155, 46.0821], [44.4292, 46.0214], [44.3647, 46.02], [44.365, 46.014], [44.3583, 46.0175], [44.3428, 46.0152], [44.3405, 46.01], [44.3357, 46.0135], [44.333, 46.0102], [44.3278, 46.0126], [44.3285, 46.0088], [44.3208, 46.0119], [44.3193, 45.9995], [44.3262, 45.9943], [44.317, 45.9849], [44.3344, 45.9713], [44.2976, 45.9715], [44.2981, 45.9586], [44.2471, 45.9585], [44.2444, 45.9195], [44.2492, 45.9103], [44.2496, 45.8849], [44.2117, 45.861], [44.2084, 45.8342], [44.2198, 45.8158], [44.0887, 45.7875]]]}}, {"type": "Feature", "properties": {"osm_type": "relation", "osm_id": 646907486, "name": "Sarpinsky District", "admin_level": "6", "kind": "subdivision_2", "parent_osm_id": 108083, "parent_name": "Republic of Kalmykia", "parent_iso": "RU-KL"}, "geometry": {"type": "Polygon", "coordinates": [[[44.8979, 47.5802], [44.8992, 47.5965], [44.8884, 47.6209], [44.8066, 47.6511], [44.8094, 47.6826], [44.8277, 47.7101], [44.8119, 47.7383], [44.7362, 47.7404], [44.6746, 47.764], [44.633, 47.831], [44.6276, 47.8471], [44.3754, 47.8479], [44.1714, 47.8842], [44.1678, 47.8749], [44.153, 47.8745], [44.1573, 47.8875], [44.0826, 47.8994], [44.0137, 47.8399], [44.0302, 47.8234], [43.9458, 47.7531], [43.8714, 47.7608], [43.8062, 47.7459], [43.7811, 47.7331], [43.7521, 47.7331], [43.7148, 47.7176], [43.6676, 47.5489], [43.7867, 47.3542], [43.7935, 47.2678], [43.9395, 47.2588], [43.9257, 47.3287], [43.9641, 47.4002], [44.1326, 47.4135], [44.1351, 47.5449], [44.1877, 47.5361], [44.1877, 47.5516], [44.2341, 47.5491], [44.2329, 47.4785], [44.3122, 47.4779], [44.3111, 47.4133], [44.4709, 47.4127], [44.4812, 47.4699], [44.5156, 47.4566], [44.6199, 47.4296], [44.7059, 47.413], [44.7531, 47.4562], [44.7718, 47.4883], [44.7777, 47.5253], [44.8415, 47.5333], [44.8408, 47.5567], [44.8979, 47.5802]]]}}, {"type": "Feature", "properties": {"osm_type": "relation", "osm_id": 664231614, "name": "Yashkulsky District", "admin_level": "6", "kind": "subdivision_2", "parent_osm_id": 108083, "parent_name": "Republic of Kalmykia", "parent_iso": "RU-KL"}, "geometry": {"type": "Polygon", "coordinates": [[[45.0708, 46.7517], [45.0403, 46.6805], [45.0255, 46.5947], [44.9568, 46.4766], [44.771, 46.4676], [44.7977, 46.3815], [44.7905, 46.3186], [44.8012, 46.3167], [44.8011, 46.3118], [44.8088, 46.3154], [44.8246, 46.3042], [44.8121, 46.3009], [44.8048, 46.3041], [44.8011, 46.2969], [44.7841, 46.2923], [44.7729, 46.2816], [44.7192, 46.2785], [44.709, 46.2709], [44.6794, 46.2063], [44.774, 46.1882], [44.7875, 46.1787], [44.8301, 46.1682], [44.8528, 46.0295], [44.862, 46.0225], [44.8855, 46.0204], [44.8924, 46.0126], [44.9137, 46.0075], [44.9182, 46.0016], [44.9536, 46.0034], [44.9898, 45.9898], [45.0032, 45.9909], [45.0528, 46.0117], [45.1072, 46.0156], [45.1043, 45.9968], [45.1148, 45.9751], [45.1521, 45.9414], [45.2136, 45.9162], [45.1262, 45.845], [45.1835, 45.8292], [45.1844, 45.8326], [45.1893, 45.829], [45.2017, 45.8334], [45.2124, 45.8277], [45.2485, 45.8268], [45.2686, 45.8362], [45.3246, 45.8398], [45.3492, 45.8302], [45.3671, 45.8325], [45.3697, 45.8535], [45.3412, 45.8654], [45.3432, 45.9843], [45.4027, 45.9799], [45.5584, 45.9475], [46.0675, 45.9609], [46.4549, 45.9654], [46.4493, 46.1776], [46.5012, 46.2809], [46.4051, 46.3081], [46.4008, 46.3206], [46.5047, 46.3758], [46.5609, 46.3543], [46.663, 46.4409], [46.7199, 46.4456], [46.716, 46.4817], [46.5786, 46.4882], [46.5512, 46.6141], [46.63, 46.6205], [46.638, 46.6771], [46.3695, 46.7138], [46.3897, 46.7387], [46.242, 46.7525], [46.1639, 46.6627], [46.1128, 46.6631], [45.9614, 46.6807], [45.9077, 46.6768], [45.8855, 46.8516], [45.8864, 46.9123], [45.7745, 46.9014], [45.7691, 46.8487], [45.622, 46.8446], [45.5666, 46.8582], [45.4185, 46.8611], [45.2394, 46.8362], [45.0291, 46.8625], [45.0564, 46.8269], [45.0747, 46.7889], [45.0708, 46.7517]]]}}]}