{"type": "FeatureCollection", "parent": {"osm_id": 108081, "name": "Stavropol Krai", "admin_level": "4", "kind": "subdivision_1", "child_kind": "subdivision_2", "iso": "RU-STA"}, "features": [{"type": "Feature", "properties": {"osm_type": "relation", "osm_id": 228707463, "name": "Kochubeyevsky District", "admin_level": "6", "kind": "subdivision_2", "parent_osm_id": 108081, "parent_name": "Stavropol Krai", "parent_iso": "RU-STA"}, "geometry": {"type": "Polygon", "coordinates": [[[41.654, 44.9863], [41.6522, 44.9053], [41.6396, 44.9054], [41.6387, 44.8641], [41.6305, 44.8506], [41.6169, 44.8489], [41.6149, 44.8343], [41.6093, 44.8347], [41.6118, 44.8275], [41.6058, 44.826], [41.6153, 44.8], [41.5845, 44.7942], [41.5942, 44.7682], [41.5863, 44.7724], [41.5785, 44.7572], [41.5638, 44.7616], [41.5668, 44.7536], [41.5552, 44.7513], [41.5599, 44.7384], [41.4271, 44.7085], [41.4478, 44.6572], [41.4569, 44.6506], [41.4746, 44.6484], [41.4949, 44.5957], [41.5316, 44.6026], [41.5275, 44.6139], [41.552, 44.6182], [41.5897, 44.5159], [41.6383, 44.5251], [41.6511, 44.4903], [41.7, 44.4997], [41.7039, 44.4895], [41.7366, 44.4834], [41.7361, 44.4737], [41.7927, 44.4712], [41.8036, 44.4839], [41.8646, 44.4872], [41.8653, 44.4976], [41.9246, 44.4961], [41.9269, 44.4914], [41.9214, 44.4868], [41.9293, 44.4738], [41.9229, 44.4637], [41.9223, 44.4452], [41.9269, 44.435], [41.9208, 44.4099], [41.9347, 44.4005], [42.015, 44.3725], [42.0215, 44.3666], [42.0233, 44.3557], [42.0317, 44.3528], [42.2145, 44.3513], [42.2396, 44.3373], [42.2707, 44.3303], [42.2877, 44.4025], [42.3123, 44.4289], [42.3038, 44.4385], [42.2701, 44.4391], [42.2702, 44.4738], [42.1951, 44.4742], [42.1954, 44.4876], [42.1701, 44.4884], [42.1708, 44.5005], [42.1226, 44.5099], [42.1303, 44.5305], [42.1145, 44.5429], [42.1142, 44.5518], [42.1325, 44.594], [42.1644, 44.5866], [42.1737, 44.6012], [42.1658, 44.6046], [42.1813, 44.6233], [42.1931, 44.6526], [42.1869, 44.6536], [42.1933, 44.669], [42.21, 44.6659], [42.2124, 44.6713], [42.2461, 44.6652], [42.2601, 44.7019], [42.2355, 44.6962], [42.2188, 44.6975], [42.1996, 44.7013], [42.2019, 44.707], [42.2346, 44.7023], [42.2568, 44.7085], [42.2727, 44.7069], [42.2735, 44.7121], [42.321, 44.7111], [42.3342, 44.7441], [42.2705, 44.7452], [42.2703, 44.7623], [42.2214, 44.7623], [42.2211, 44.7766], [42.1696, 44.7759], [42.1402, 44.744], [42.084, 44.7713], [42.079, 44.7916], [42.0711, 44.801], [42.0574, 44.7974], [42.032, 44.7765], [42.0146, 44.7766], [42.0105, 44.7861], [42.0154, 44.7915], [42.0008, 44.803], [42.0025, 44.8137], [41.9848, 44.8189], [41.9937, 44.8045], [42.003, 44.801], [41.9977, 44.7942], [42.0021, 44.7925], [41.9985, 44.7887], [42.0021, 44.7849], [41.9853, 44.7843], [41.9805, 44.7863], [41.9832, 44.7923], [41.9592, 44.7988], [41.9575, 44.8083], [41.9622, 44.8139], [41.9502, 44.8302], [41.9174, 44.8525], [41.9144, 44.8504], [41.9129, 44.8569], [41.8948, 44.8526], [41.8702, 44.8614], [41.843, 44.8789], [41.8379, 44.8795], [41.8254, 44.8685], [41.7812, 44.8883], [41.7741, 44.8961], [41.7403, 44.896], [41.7406, 44.904], [41.7275, 44.9042], [41.728, 44.9266], [41.7087, 44.9378], [41.6968, 44.9382], [41.6955, 44.9626], [41.6867, 44.9737], [41.6959, 44.9857], [41.654, 44.9863]], [[41.8667, 44.6994], [41.8767, 44.7066], [41.8963, 44.6844], [41.9083, 44.6783], [41.9087, 44.6874], [41.8929, 44.6988], [41.9033, 44.7083], [41.9208, 44.7047], [41.9268, 44.6947], [41.9618, 44.6837], [41.9589, 44.6772], [41.9649, 44.6643], [41.9767, 44.6563], [41.9707, 44.6531], [41.9767, 44.6478], [41.9726, 44.6445], [41.9835, 44.6393], [41.9793, 44.6344], [42.0015, 44.6289], [41.9937, 44.61], [42.0043, 44.6038], [41.998, 44.5897], [41.9846, 44.5869], [41.9904, 44.5807], [41.9639, 44.5794], [41.9351, 44.5857], [41.9308, 44.5906], [41.9219, 44.586], [41.9242, 44.595], [41.9023, 44.603], [41.9052, 44.6059], [41.8974, 44.6117], [41.9112, 44.626], [41.8918, 44.6425], [41.91, 44.6493], [41.8915, 44.6546], [41.8827, 44.667], [41.8865, 44.6714], [41.8667, 44.6994]]]}}, {"type": "Feature", "properties": {"osm_type": "relation", "osm_id": 551997861, "name": "Izobilnensky District", "admin_level": "6", "kind": "subdivision_2", "parent_osm_id": 108081, "parent_name": "Stavropol Krai", "parent_iso": "RU-STA"}, "geometry": {"type": "Polygon", "coordinates": [[[41.3533, 45.2144], [41.3532, 45.1869], [41.3659, 45.1869], [41.3656, 45.1779], [41.353, 45.1779], [41.3514, 45.0914], [41.3899, 45.0773], [41.4084, 45.0605], [41.4279, 45.0605], [41.4285, 45.0875], [41.5047, 45.0868], [41.5045, 45.0778], [41.5837, 45.077], [41.6014, 45.0667], [41.6693, 45.067], [41.6701, 45.1031], [41.6574, 45.1032], [41.658, 45.1302], [41.6822, 45.13], [41.6835, 45.1403], [41.6952, 45.1351], [41.6955, 45.1567], [41.6704, 45.1617], [41.6714, 45.1938], [41.7286, 45.1968], [41.8108, 45.1765], [41.8725, 45.1916], [41.8835, 45.1896], [41.8824, 45.2026], [41.8889, 45.2212], [41.907, 45.2196], [41.8881, 45.2344], [41.9431, 45.2341], [41.9433, 45.2255], [41.9694, 45.2254], [41.9675, 45.2557], [41.9946, 45.2569], [41.9946, 45.2614], [42.0714, 45.2614], [42.0713, 45.3063], [42.0968, 45.3063], [42.0969, 45.3468], [42.0459, 45.3513], [42.0453, 45.3695], [41.8672, 45.3692], [41.8662, 45.3871], [41.836, 45.3872], [41.8465, 45.3979], [41.8499, 45.4114], [41.8425, 45.418], [41.8452, 45.4277], [41.8418, 45.4401], [41.8548, 45.4512], [41.8489, 45.4626], [41.827, 45.4761], [41.8146, 45.4925], [41.7999, 45.4988], [41.8005, 45.5106], [41.7892, 45.5106], [41.7904, 45.5395], [41.7972, 45.5384], [41.8016, 45.5468], [41.8155, 45.5542], [41.8123, 45.5594], [41.8162, 45.5638], [41.8279, 45.5645], [41.8291, 45.5804], [41.7935, 45.5737], [41.777, 45.5751], [41.7674, 45.5862], [41.7506, 45.5904], [41.7494, 45.5985], [41.7386, 45.6008], [41.7379, 45.6569], [41.6603, 45.6568], [41.6605, 45.5847], [41.5707, 45.5845], [41.5712, 45.547], [41.5648, 45.5452], [41.5249, 45.545], [41.5262, 45.5601], [41.4951, 45.5642], [41.495, 45.5682], [41.4633, 45.5685], [41.4617, 45.5102], [41.4744, 45.5101], [41.4741, 45.4921], [41.4487, 45.4923], [41.4462, 45.4021], [41.4333, 45.4021], [41.4312, 45.3035], [41.4504, 45.3031], [41.4501, 45.2872], [41.4567, 45.2869], [41.4566, 45.2806], [41.4761, 45.2745], [41.4846, 45.2777], [41.4774, 45.2701], [41.4766, 45.2557], [41.4637, 45.2547], [41.4749, 45.2535], [41.4861, 45.2422], [41.4859, 45.2313], [41.4919, 45.221], [41.5027, 45.2184], [41.4896, 45.2129], [41.389, 45.214], [41.3887, 45.196], [41.3786, 45.1959], [41.3788, 45.2141], [41.3533, 45.2144]]]}}, {"type": "Feature", "properties": {"osm_type": "relation", "osm_id": 408910115, "name": "Petrovsky District", "admin_level": "6", "kind": "subdivision_2", "parent_osm_id": 108081, "parent_name": "Stavropol Krai", "parent_iso": "RU-STA"}, "geometry": {"type": "Polygon", "coordinates": [[[42.3804, 45.5649], [42.4054, 45.5452], [42.455, 45.5419], [42.459, 45.4476], [42.4845, 45.4496], [42.4852, 45.4254], [42.472, 45.3921], [42.4998, 45.3652], [42.5018, 45.3058], [42.5399, 45.3064], [42.5414, 45.1705], [42.6178, 45.1701], [42.6177, 45.1656], [42.656, 45.1654], [42.6558, 45.1518], [42.7065, 45.1515], [42.7058, 45.0976], [42.655, 45.0979], [42.655, 45.0529], [42.7369, 45.052], [42.7669, 45.0432], [42.7814, 45.0333], [42.8028, 45.0384], [42.8199, 45.033], [42.8292, 45.0179], [42.859, 45.0182], [42.8608, 45.0049], [42.8281, 45.0044], [42.8288, 44.9775], [42.8414, 44.9776], [42.842, 44.9507], [42.9308, 44.9517], [42.932, 44.9608], [42.9935, 44.9615], [42.9934, 44.9705], [43.019, 44.9708], [43.0184, 44.9888], [43.158, 44.9903], [43.1568, 45.0353], [43.1442, 45.0352], [43.143, 45.062], [43.1309, 45.0619], [43.1299, 45.1337], [43.1419, 45.1341], [43.1415, 45.2], [43.1472, 45.1998], [43.1536, 45.2106], [43.174, 45.2108], [43.1738, 45.2242], [43.2297, 45.2252], [43.2288, 45.2697], [43.2162, 45.2699], [43.214, 45.3774], [43.1249, 45.3766], [43.1261, 45.3138], [43.1135, 45.3135], [43.1136, 45.3048], [43.1253, 45.3028], [43.1273, 45.296], [43.0247, 45.2948], [43.0227, 45.3845], [42.997, 45.3846], [42.9962, 45.4201], [42.9596, 45.4197], [42.955, 45.54], [42.8631, 45.5814], [42.8505, 45.5575], [42.8457, 45.5532], [42.8396, 45.5553], [42.8319, 45.5449], [42.8375, 45.543], [42.8277, 45.5409], [42.8309, 45.5401], [42.8281, 45.5336], [42.8325, 45.532], [42.8183, 45.5319], [42.824, 45.5664], [42.8302, 45.5741], [42.7524, 45.583], [42.7361, 45.5896], [42.7356, 45.6062], [42.6332, 45.6047], [42.6337, 45.5867], [42.5849, 45.5858], [42.5829, 45.5804], [42.5755, 45.5786], [42.5794, 45.5724], [42.5574, 45.5721], [42.5559, 45.5855], [42.5183, 45.585], [42.5184, 45.5761], [42.489, 45.5755], [42.4897, 45.5486], [42.4434, 45.5481], [42.4422, 45.5658], [42.3804, 45.5649]]]}}, {"type": "Feature", "properties": {"osm_type": "relation", "osm_id": 512735708, "name": "Ipatovsky District", "admin_level": "6", "kind": "subdivision_2", "parent_osm_id": 108081, "parent_name": "Stavropol Krai", "parent_iso": "RU-STA"}, "geometry": {"type": "Polygon", "coordinates": [[[42.9554, 45.528], [43.1727, 45.5304], [43.1719, 45.5752], [43.3002, 45.5764], [43.3002, 45.5706], [43.3547, 45.5711], [43.3531, 45.6666], [43.3303, 45.668], [43.3151, 45.6768], [43.3014, 45.6734], [43.3008, 45.6963], [43.3523, 45.697], [43.3503, 45.8273], [43.333, 45.829], [43.3324, 45.8347], [43.3255, 45.8345], [43.3192, 45.8243], [43.304, 45.8275], [43.2965, 45.8188], [43.2777, 45.8196], [43.2772, 45.8133], [43.2481, 45.8149], [43.2327, 45.8095], [43.2375, 45.8078], [43.2366, 45.8036], [43.2305, 45.804], [43.2306, 45.8004], [43.2128, 45.8036], [43.2103, 45.7969], [43.1993, 45.7952], [43.2054, 45.7899], [43.2024, 45.7833], [43.1944, 45.7787], [43.1914, 45.7819], [43.1915, 45.776], [43.1841, 45.7773], [43.1824, 45.7729], [43.1765, 45.7765], [43.178, 45.7732], [43.1745, 45.7749], [43.1717, 45.7703], [43.1674, 45.7754], [43.161, 45.7744], [43.1604, 45.7817], [43.1536, 45.7774], [43.1445, 45.7839], [43.1387, 45.7805], [43.1305, 45.7959], [43.1277, 45.7931], [43.1231, 45.798], [43.1202, 45.793], [43.1149, 45.7937], [43.1139, 45.784], [43.0955, 45.7905], [43.0901, 45.7885], [43.0933, 45.7852], [43.0886, 45.7809], [43.0737, 45.7881], [43.0668, 45.7841], [43.0653, 45.7888], [43.0701, 45.7902], [43.0597, 45.7944], [43.0506, 45.7893], [43.0434, 45.7925], [43.0444, 45.8103], [43.0893, 45.8254], [43.0358, 45.8958], [43.0231, 45.8976], [43.0071, 45.9191], [42.9953, 45.9232], [42.9986, 45.9281], [42.9916, 45.9301], [42.9507, 45.914], [42.9325, 45.9247], [42.9059, 45.9314], [42.9277, 45.9047], [42.8443, 45.8716], [42.6978, 46.0506], [42.7041, 46.0504], [42.7063, 46.0553], [42.6973, 46.0639], [42.6885, 46.0653], [42.7176, 46.08], [42.7094, 46.0904], [42.672, 46.0899], [42.5568, 46.008], [42.318, 45.9697], [42.3195, 46.0416], [42.3297, 46.1352], [42.1707, 46.1099], [42.1676, 46.0699], [42.1803, 46.0714], [42.1762, 46.0406], [42.1636, 46.0388], [42.1516, 45.9431], [42.0833, 45.9322], [42.0456, 45.9427], [42.0452, 45.884], [41.9496, 45.8842], [41.9496, 45.8552], [41.9677, 45.8553], [41.9682, 45.8463], [41.9945, 45.8464], [41.9936, 45.8194], [42.0327, 45.8193], [42.0326, 45.8013], [42.0865, 45.8013], [42.0865, 45.7924], [42.1223, 45.7922], [42.1222, 45.8025], [42.1994, 45.8022], [42.1994, 45.7652], [42.1735, 45.7651], [42.1735, 45.7472], [42.1836, 45.7471], [42.1835, 45.729], [42.1735, 45.7291], [42.1735, 45.7112], [42.1222, 45.7113], [42.1222, 45.6707], [42.1419, 45.6708], [42.1427, 45.662], [42.148, 45.6617], [42.1479, 45.6663], [42.1866, 45.6663], [42.1862, 45.6538], [42.1925, 45.6516], [42.2506, 45.65], [42.2507, 45.6391], [42.2341, 45.6394], [42.2353, 45.5983], [42.3452, 45.6003], [42.3615, 45.5897], [42.3645, 45.5789], [42.3775, 45.5648], [42.4422, 45.5658], [42.4434, 45.5481], [42.4897, 45.5486], [42.489, 45.5755], [42.5184, 45.5761], [42.5183, 45.585], [42.5559, 45.5855], [42.5574, 45.5721], [42.5794, 45.5724], [42.5755, 45.5786], [42.5829, 45.5804], [42.5849, 45.5858], [42.6337, 45.5867], [42.6332, 45.6047], [42.7356, 45.6062], [42.7361, 45.5896], [42.7524, 45.583], [42.8302, 45.5741], [42.824, 45.5664], [42.8183, 45.5319], [42.8325, 45.532], [42.8281, 45.5336], [42.8309, 45.5401], [42.8277, 45.5409], [42.8375, 45.543], [42.8319, 45.5449], [42.8396, 45.5553], [42.8457, 45.5532], [42.8505, 45.5575], [42.8631, 45.5814], [42.955, 45.54], [42.9554, 45.528]]]}}, {"type": "Feature", "properties": {"osm_type": "relation", "osm_id": 798051235, "name": "городской округ Кисловодск", "admin_level": "6", "kind": "subdivision_2", "parent_osm_id": 108081, "parent_name": "Stavropol Krai", "parent_iso": "RU-STA"}, "geometry": {"type": "Polygon", "coordinates": [[[42.6444, 43.8971], [42.6469, 43.8937], [42.659, 43.8958], [42.6731, 43.881], [42.6663, 43.8663], [42.6741, 43.8631], [42.6746, 43.8572], [42.6838, 43.8562], [42.6918, 43.861], [42.6922, 43.8473], [42.6956, 43.8574], [42.7022, 43.8595], [42.6937, 43.841], [42.6839, 43.8333], [42.6667, 43.8446], [42.6613, 43.8542], [42.6573, 43.8508], [42.6534, 43.837], [42.6579, 43.8297], [42.6587, 43.8422], [42.6725, 43.8417], [42.6706, 43.8257], [42.6688, 43.835], [42.6623, 43.8337], [42.6681, 43.8244], [42.6616, 43.8285], [42.6632, 43.8188], [42.6847, 43.8279], [42.6818, 43.8323], [42.6972, 43.8432], [42.7071, 43.8627], [42.7147, 43.8651], [42.7213, 43.8547], [42.7335, 43.8561], [42.7379, 43.843], [42.7537, 43.8321], [42.7536, 43.8271], [42.7822, 43.829], [42.7747, 43.8329], [42.7765, 43.8371], [42.7875, 43.8269], [42.8176, 43.8246], [42.823, 43.8347], [42.8214, 43.8412], [42.8289, 43.8433], [42.8244, 43.8513], [42.8083, 43.8574], [42.8004, 43.8667], [42.7727, 43.8671], [42.7741, 43.8735], [42.7822, 43.8783], [42.7786, 43.8824], [42.7917, 43.8922], [42.7806, 43.8992], [42.7779, 43.9105], [42.7677, 43.9165], [42.7561, 43.9158], [42.7496, 43.926], [42.7504, 43.9403], [42.7564, 43.9411], [42.76, 43.9336], [42.7613, 43.945], [42.7703, 43.9423], [42.7689, 43.9544], [42.739, 43.9427], [42.7315, 43.9441], [42.7443, 43.9479], [42.7384, 43.9605], [42.6938, 43.9508], [42.6851, 43.9418], [42.7031, 43.9365], [42.6967, 43.9316], [42.6967, 43.9223], [42.6804, 43.9184], [42.6762, 43.9116], [42.6652, 43.9134], [42.6696, 43.9085], [42.655, 43.9058], [42.6632, 43.9027], [42.6597, 43.8966], [42.6444, 43.8971]]]}}, {"type": "Feature", "properties": {"osm_type": "relation", "osm_id": 473693685, "name": "Predgorny District", "admin_level": "6", "kind": "subdivision_2", "parent_osm_id": 108081, "parent_name": "Stavropol Krai", "parent_iso": "RU-STA"}, "geometry": {"type": "Polygon", "coordinates": [[[42.3154, 44.0621], [42.2996, 44.0547], [42.2933, 44.039], [42.3025, 44.0294], [42.3154, 44.031], [42.3383, 44.0236], [42.3503, 44.031], [42.3506, 44.0369], [42.3583, 44.0378], [42.3704, 44.0041], [42.3678, 44.0002], [42.3814, 43.9968], [42.3676, 43.984], [42.3762, 43.9725], [42.3966, 43.9728], [42.4125, 43.9789], [42.4205, 43.9748], [42.4281, 43.9772], [42.4278, 43.9728], [42.4475, 43.9747], [42.4531, 43.9698], [42.4549, 43.9766], [42.4633, 43.968], [42.4689, 43.9762], [42.4785, 43.9721], [42.4802, 43.9664], [42.4908, 43.9671], [42.4957, 43.9783], [42.4813, 43.9804], [42.477, 43.9925], [42.4818, 44.0157], [42.5026, 44.0264], [42.5846, 44.0264], [42.5781, 44.0021], [42.5791, 43.9734], [42.6249, 43.9736], [42.6271, 43.9518], [42.6199, 43.9531], [42.6179, 43.9453], [42.6609, 43.9362], [42.6472, 43.9163], [42.6402, 43.9175], [42.6392, 43.8924], [42.628, 43.8909], [42.6551, 43.8562], [42.6395, 43.8461], [42.6465, 43.8272], [42.6603, 43.8155], [42.6721, 43.816], [42.6783, 43.8097], [42.7322, 43.8193], [42.8172, 43.8014], [42.8547, 43.8019], [42.8544, 43.8405], [42.8718, 43.8478], [42.8661, 43.8677], [42.9185, 43.8653], [42.9544, 43.8899], [42.9814, 43.8989], [43.1477, 43.8951], [43.1401, 43.9228], [43.1434, 43.9308], [43.1565, 43.9396], [43.1449, 43.948], [43.1461, 43.9595], [43.1797, 43.9615], [43.189, 43.9559], [43.225, 43.959], [43.2379, 43.9361], [43.424, 43.9909], [43.4084, 44.0123], [43.4084, 44.0265], [43.3834, 44.0265], [43.3833, 44.0354], [43.3586, 44.0355], [43.3585, 44.0445], [43.2335, 44.0438], [43.2332, 44.0912], [43.2486, 44.0885], [43.2361, 44.1061], [43.2195, 44.1118], [43.2314, 44.1136], [43.2316, 44.117], [43.2053, 44.1083], [43.1979, 44.1099], [43.1974, 44.0999], [43.1874, 44.0916], [43.1152, 44.0617], [43.1331, 44.0504], [43.1815, 44.0566], [43.1731, 44.0508], [43.1768, 44.0428], [43.1935, 44.0517], [43.2069, 44.0664], [43.201, 44.077], [43.2082, 44.0795], [43.1963, 44.08], [43.19, 44.0857], [43.2127, 44.0922], [43.2327, 44.0853], [43.2163, 44.0819], [43.2259, 44.0695], [43.2161, 44.0688], [43.2148, 44.0632], [43.2071, 44.0696], [43.2115, 44.0562], [43.2067, 44.0513], [43.1735, 44.038], [43.1377, 44.0375], [43.1321, 44.0456], [43.1167, 44.0438], [43.1245, 44.0388], [43.1247, 44.0209], [43.1285, 44.0167], [43.1215, 43.9983], [43.0976, 44.0021], [43.0719, 43.9828], [43.0676, 43.9828], [43.0682, 43.9911], [43.0781, 43.9978], [43.0589, 43.9964], [43.0579, 44.01], [43.0346, 44.0055], [43.013, 44.0101], [43.0164, 44.018], [43.0277, 44.021], [43.0185, 44.0231], [43.0184, 44.0289], [43.001, 44.0296], [43.0013, 44.024], [42.9601, 44.0354], [42.9487, 44.0342], [42.9479, 44.0195], [42.9352, 44.0187], [42.9493, 44.0005], [42.9469, 43.9954], [42.9407, 43.9958], [42.9328, 44.0056], [42.9327, 44.0195], [42.9454, 44.0203], [42.9468, 44.0342], [42.9208, 44.0366], [42.9237, 44.0333], [42.9185, 44.0336], [42.9154, 44.0276], [42.899, 44.0365], [42.8992, 44.0402], [42.8715, 44.0352], [42.8513, 44.0236], [42.8243, 44.0162], [42.8297, 44.0115], [42.824, 44.0039], [42.824, 44.0106], [42.8143, 44.0121], [42.7954, 44.0059], [42.799, 44.0148], [42.8203, 44.0295], [42.816, 44.0442], [42.8056, 44.0478], [42.8115, 44.0498], [42.8101, 44.0643], [42.8209, 44.0708], [42.9313, 44.0703], [42.9431, 44.0662], [42.9476, 44.0566], [42.9767, 44.0586], [42.9779, 44.0676], [42.984, 44.0648], [42.987, 44.0758], [42.9945, 44.0768], [42.9865, 44.087], [42.9706, 44.0861], [42.9775, 44.0953], [42.9656, 44.0972], [42.9656, 44.0917], [42.9599, 44.0963], [42.9433, 44.0976], [42.9438, 44.101], [42.9342, 44.1012], [42.9044, 44.1156], [42.907, 44.1193], [42.9358, 44.1154], [42.9428, 44.1227], [42.9664, 44.1216], [42.9664, 44.1257], [42.9882, 44.1239], [42.9791, 44.1335], [42.9854, 44.145], [42.9894, 44.1425], [43.0038, 44.161], [43.0354, 44.1662], [43.0301, 44.169], [43.0355, 44.1772], [43.041, 44.1751], [43.0405, 44.1902], [43.021, 44.1928], [43.0094, 44.1873], [42.9795, 44.1873], [42.9796, 44.2061], [42.9676, 44.2071], [42.9661, 44.2185], [42.9471, 44.2207], [42.9433, 44.2257], [42.9386, 44.2245], [42.9419, 44.2194], [42.9398, 44.2044], [42.9025, 44.2029], [42.889, 44.1876], [42.8657, 44.2039], [42.8453, 44.2118], [42.8263, 44.1671], [42.7435, 44.1874], [42.7499, 44.2078], [42.7425, 44.2149], [42.7449, 44.2423], [42.6531, 44.2424], [42.6533, 44.2989], [42.6086, 44.3118], [42.6101, 44.2694], [42.5531, 44.2691], [42.552, 44.2238], [42.5032, 44.2244], [42.5032, 44.215], [42.4778, 44.2149], [42.4674, 44.2043], [42.4715, 44.1933], [42.4403, 44.2021], [42.4412, 44.1701], [42.3794, 44.1694], [42.3787, 44.1535], [42.3352, 44.1325], [42.3516, 44.1141], [42.325, 44.0974], [42.3234, 44.0726], [42.3154, 44.0621]], [[42.6444, 43.8971], [42.6597, 43.8966], [42.6632, 43.9027], [42.655, 43.9058], [42.6696, 43.9085], [42.6652, 43.9134], [42.6762, 43.9116], [42.6804, 43.9184], [42.6967, 43.9223], [42.6967, 43.9316], [42.7031, 43.9365], [42.6851, 43.9418], [42.6938, 43.9508], [42.7384, 43.9605], [42.7443, 43.9479], [42.7315, 43.9441], [42.739, 43.9427], [42.7689, 43.9544], [42.7703, 43.9423], [42.7613, 43.945], [42.76, 43.9336], [42.7564, 43.9411], [42.7504, 43.9403], [42.7496, 43.926], [42.7561, 43.9158], [42.7677, 43.9165], [42.7779, 43.9105], [42.7806, 43.8992], [42.7917, 43.8922], [42.7786, 43.8824], [42.7822, 43.8783], [42.7741, 43.8735], [42.7727, 43.8671], [42.8004, 43.8667], [42.8083, 43.8574], [42.8244, 43.8513], [42.8289, 43.8433], [42.8214, 43.8412], [42.823, 43.8347], [42.8176, 43.8246], [42.7875, 43.8269], [42.7765, 43.8371], [42.7747, 43.8329], [42.7822, 43.829], [42.7536, 43.8271], [42.7537, 43.8321], [42.7379, 43.843], [42.7335, 43.8561], [42.7213, 43.8547], [42.7147, 43.8651], [42.7071, 43.8627], [42.6972, 43.8432], [42.6818, 43.8323], [42.6847, 43.8279], [42.6632, 43.8188], [42.6616, 43.8285], [42.6681, 43.8244], [42.6623, 43.8337], [42.6688, 43.835], [42.6706, 43.8257], [42.6725, 43.8417], [42.6587, 43.8422], [42.6579, 43.8297], [42.6534, 43.837], [42.6573, 43.8508], [42.6613, 43.8542], [42.6667, 43.8446], [42.6839, 43.8333], [42.6937, 43.841], [42.7022, 43.8595], [42.6956, 43.8574], [42.6922, 43.8473], [42.6918, 43.861], [42.6838, 43.8562], [42.6746, 43.8572], [42.6741, 43.8631], [42.6663, 43.8663], [42.6731, 43.881], [42.659, 43.8958], [42.6469, 43.8937], [42.6444, 43.8971]]]}}, {"type": "Feature", "properties": {"osm_type": "relation", "osm_id": 293761940, "name": "Andropovsky District", "admin_level": "6", "kind": "subdivision_2", "parent_osm_id": 108081, "parent_name": "Stavropol Krai", "parent_iso": "RU-STA"}, "geometry": {"type": "Polygon", "coordinates": [[[42.2707, 44.3303], [42.3013, 44.3286], [42.3414, 44.3109], [42.4084, 44.3082], [42.4078, 44.3254], [42.4821, 44.326], [42.4952, 44.3473], [42.4941, 44.3634], [42.5101, 44.3683], [42.5534, 44.3683], [42.5536, 44.3521], [42.5817, 44.3431], [42.5811, 44.3197], [42.6533, 44.2989], [42.6536, 44.3327], [42.7479, 44.332], [42.7466, 44.3833], [42.7559, 44.3975], [42.7603, 44.3958], [42.7618, 44.413], [42.7666, 44.4132], [42.7663, 44.444], [42.7792, 44.4438], [42.7794, 44.4755], [42.7917, 44.4732], [42.792, 44.4997], [42.7857, 44.5006], [42.7862, 44.5702], [42.7525, 44.5812], [42.764, 44.6007], [42.6931, 44.623], [42.6867, 44.6543], [42.6938, 44.6714], [42.6754, 44.6787], [42.6792, 44.6815], [42.6762, 44.6871], [42.6826, 44.6866], [42.6766, 44.6903], [42.6796, 44.6924], [42.6542, 44.6914], [42.6671, 44.7133], [42.6828, 44.7075], [42.6869, 44.7126], [42.7047, 44.7075], [42.7144, 44.7241], [42.7843, 44.7033], [42.7849, 44.7111], [42.7908, 44.713], [42.7852, 44.7195], [42.7962, 44.7367], [42.71, 44.7496], [42.7123, 44.7551], [42.709, 44.7567], [42.7185, 44.7597], [42.7121, 44.7672], [42.7192, 44.7718], [42.7149, 44.7755], [42.7207, 44.7814], [42.7183, 44.7848], [42.722, 44.7846], [42.7132, 44.7959], [42.7213, 44.8157], [42.7151, 44.8147], [42.7066, 44.821], [42.6965, 44.8165], [42.6823, 44.8205], [42.6842, 44.8238], [42.6798, 44.8242], [42.6847, 44.8276], [42.6792, 44.8334], [42.6824, 44.8347], [42.6777, 44.8407], [42.6719, 44.8405], [42.6852, 44.8486], [42.6897, 44.8426], [42.7034, 44.8454], [42.701, 44.8486], [42.7092, 44.8576], [42.7009, 44.8584], [42.7048, 44.8632], [42.7013, 44.8664], [42.7059, 44.8663], [42.7051, 44.8711], [42.7093, 44.8706], [42.7049, 44.8745], [42.7144, 44.8787], [42.7167, 44.8852], [42.6701, 44.8857], [42.6679, 44.9001], [42.5759, 44.9005], [42.576, 44.8915], [42.4871, 44.8919], [42.4883, 44.9549], [42.3994, 44.9551], [42.3983, 44.7754], [42.4046, 44.7753], [42.4045, 44.7437], [42.3342, 44.7441], [42.321, 44.7111], [42.2735, 44.7121], [42.2727, 44.7069], [42.2568, 44.7085], [42.2346, 44.7023], [42.2019, 44.707], [42.1996, 44.7013], [42.2188, 44.6975], [42.2355, 44.6962], [42.2601, 44.7019], [42.2461, 44.6652], [42.2124, 44.6713], [42.21, 44.6659], [42.1933, 44.669], [42.1869, 44.6536], [42.1931, 44.6526], [42.1813, 44.6233], [42.1658, 44.6046], [42.1737, 44.6012], [42.1644, 44.5866], [42.1325, 44.594], [42.1142, 44.5518], [42.1145, 44.5429], [42.1303, 44.5305], [42.1226, 44.5099], [42.1708, 44.5005], [42.1701, 44.4884], [42.1954, 44.4876], [42.1951, 44.4742], [42.2702, 44.4738], [42.2701, 44.4391], [42.3038, 44.4385], [42.3123, 44.4289], [42.2877, 44.4025], [42.2707, 44.3303]]]}}, {"type": "Feature", "properties": {"osm_type": "relation", "osm_id": 503222996, "name": "Grachyovsky District", "admin_level": "6", "kind": "subdivision_2", "parent_osm_id": 108081, "parent_name": "Stavropol Krai", "parent_iso": "RU-STA"}, "geometry": {"type": "Polygon", "coordinates": [[[42.3804, 45.5649], [42.3723, 45.5731], [42.3737, 45.5593], [42.3788, 45.5583], [42.3831, 45.4209], [42.3322, 45.42], [42.3333, 45.384], [42.2433, 45.3824], [42.243, 45.3874], [42.148, 45.3873], [42.1479, 45.3455], [42.159, 45.34], [42.1619, 45.3333], [42.1988, 45.3333], [42.2181, 45.3153], [42.2625, 45.3152], [42.2624, 45.2928], [42.3354, 45.2941], [42.3361, 45.3031], [42.3488, 45.3033], [42.3611, 45.2968], [42.3619, 45.2788], [42.3544, 45.2579], [42.3727, 45.2334], [42.3346, 45.2328], [42.3353, 45.2121], [42.3254, 45.2099], [42.3286, 45.1957], [42.3092, 45.1926], [42.2919, 45.1834], [42.2663, 45.1778], [42.1917, 45.1856], [42.1914, 45.1803], [42.185, 45.1804], [42.1825, 45.1489], [42.1389, 45.1364], [42.1317, 45.1244], [42.1535, 45.1255], [42.1648, 45.1076], [42.1729, 45.1082], [42.1338, 45.1007], [42.1353, 45.0933], [42.147, 45.0924], [42.147, 45.0803], [42.1761, 45.0761], [42.2076, 45.0402], [42.209, 45.0331], [42.2425, 45.009], [42.2552, 45.0111], [42.2903, 44.9859], [42.2861, 44.9809], [42.286, 44.9553], [42.4883, 44.9549], [42.4871, 44.8919], [42.576, 44.8915], [42.5759, 44.9005], [42.6679, 44.9001], [42.6701, 44.8857], [42.7153, 44.8856], [42.722, 44.9083], [42.7311, 44.9118], [42.7435, 44.913], [42.7638, 44.9], [42.764, 44.9136], [42.8049, 44.9142], [42.8048, 44.9234], [42.8427, 44.9238], [42.8414, 44.9776], [42.8288, 44.9775], [42.8281, 45.0044], [42.8608, 45.0049], [42.859, 45.0182], [42.8292, 45.0179], [42.8199, 45.033], [42.8028, 45.0384], [42.7814, 45.0333], [42.7669, 45.0432], [42.7369, 45.052], [42.655, 45.0529], [42.655, 45.0979], [42.7058, 45.0976], [42.7065, 45.1515], [42.6558, 45.1518], [42.656, 45.1654], [42.6177, 45.1656], [42.6178, 45.1701], [42.5414, 45.1705], [42.5399, 45.3064], [42.5018, 45.3058], [42.4998, 45.3652], [42.472, 45.3921], [42.4852, 45.4254], [42.4845, 45.4496], [42.459, 45.4476], [42.455, 45.5419], [42.4054, 45.5452], [42.3804, 45.5649]]]}}, {"type": "Feature", "properties": {"osm_type": "relation", "osm_id": 698880783, "name": "Novoalexandrovsky District", "admin_level": "6", "kind": "subdivision_2", "parent_osm_id": 108081, "parent_name": "Stavropol Krai", "parent_iso": "RU-STA"}, "geometry": {"type": "Polygon", "coordinates": [[[41.4626, 45.5552], [41.3282, 45.5564], [41.3286, 45.5831], [41.3339, 45.5834], [41.3345, 45.6221], [41.3322, 45.6331], [41.3197, 45.6335], [41.3215, 45.6823], [41.2981, 45.6825], [41.2987, 45.702], [41.3247, 45.6978], [41.3301, 45.7178], [41.2476, 45.7187], [41.2475, 45.7589], [41.1694, 45.7597], [41.1672, 45.6744], [41.0531, 45.675], [41.0533, 45.6931], [41.0291, 45.6932], [41.0326, 45.6985], [41.0098, 45.7075], [41.0077, 45.7131], [41.0006, 45.7098], [40.9791, 45.7136], [40.9635, 45.706], [40.963, 45.6937], [40.848, 45.6942], [40.846, 45.5169], [40.9232, 45.5169], [40.9225, 45.4471], [40.9314, 45.4461], [40.9406, 45.4359], [40.9784, 45.4244], [40.9793, 45.4137], [40.9735, 45.4115], [40.9816, 45.402], [40.9758, 45.4017], [40.974, 45.3925], [40.9791, 45.3905], [40.9896, 45.3957], [40.9953, 45.393], [40.991, 45.3773], [41.0072, 45.3781], [41.0072, 45.3732], [40.9995, 45.3754], [41.0012, 45.3679], [40.9895, 45.3638], [40.9982, 45.3634], [41.0072, 45.3495], [40.9945, 45.3405], [41.0031, 45.3335], [40.9935, 45.3228], [41.0066, 45.3237], [41.0029, 45.3174], [41.0149, 45.318], [41.0161, 45.3092], [41.0246, 45.3057], [41.0197, 45.3018], [41.0203, 45.2915], [41.0275, 45.2903], [41.032, 45.2808], [41.0203, 45.2817], [41.0349, 45.278], [41.027, 45.2741], [41.0113, 45.2765], [41.0155, 45.2713], [41.0277, 45.2715], [41.0249, 45.2643], [41.0169, 45.2634], [41.0182, 45.2583], [41.0388, 45.2556], [41.0275, 45.2393], [41.0361, 45.2253], [41.2327, 45.224], [41.2329, 45.233], [41.2583, 45.2328], [41.2585, 45.2508], [41.2648, 45.2507], [41.2651, 45.258], [41.279, 45.2638], [41.2975, 45.2236], [41.3535, 45.2231], [41.3533, 45.2144], [41.3788, 45.2141], [41.3786, 45.1959], [41.3887, 45.196], [41.389, 45.214], [41.4896, 45.2129], [41.5027, 45.2184], [41.4919, 45.221], [41.4859, 45.2313], [41.4861, 45.2422], [41.4749, 45.2535], [41.4637, 45.2547], [41.4766, 45.2557], [41.4774, 45.2701], [41.4846, 45.2777], [41.4761, 45.2745], [41.4566, 45.2806], [41.4567, 45.2869], [41.4501, 45.2872], [41.4504, 45.3031], [41.4312, 45.3035], [41.4333, 45.4021], [41.4462, 45.4021], [41.4487, 45.4923], [41.4741, 45.4921], [41.4744, 45.5101], [41.4617, 45.5102], [41.4626, 45.5552]]]}}, {"type": "Feature", "properties": {"osm_type": "relation", "osm_id": 617269924, "name": "Krasnogvardeysky District", "admin_level": "6", "kind": "subdivision_2", "parent_osm_id": 108081, "parent_name": "Stavropol Krai", "parent_iso": "RU-STA"}, "geometry": {"type": "Polygon", "coordinates": [[[41.7379, 45.6569], [41.7381, 45.6928], [41.8792, 45.69], [41.8788, 45.7293], [41.9046, 45.7294], [41.9045, 45.7399], [41.9163, 45.7399], [41.9175, 45.7455], [41.931, 45.7497], [41.9349, 45.7584], [41.9874, 45.7503], [41.9981, 45.7527], [41.9945, 45.8464], [41.9682, 45.8463], [41.9677, 45.8553], [41.9496, 45.8552], [41.9496, 45.8842], [42.0452, 45.884], [42.0456, 45.9427], [42.0801, 45.9338], [42.0829, 45.9664], [41.9273, 45.9745], [41.9028, 45.968], [41.8099, 45.979], [41.7282, 45.9823], [41.6934, 45.9829], [41.6669, 45.9749], [41.6434, 45.9798], [41.6241, 45.9767], [41.5062, 45.9912], [41.4951, 45.9951], [41.4962, 46.0062], [41.4714, 46.006], [41.4714, 45.9979], [41.3928, 45.9972], [41.3931, 45.9523], [41.1609, 45.9517], [41.1612, 45.8798], [41.249, 45.8801], [41.2489, 45.8651], [41.2552, 45.8692], [41.2628, 45.8573], [41.2386, 45.8466], [41.2435, 45.8417], [41.2335, 45.8314], [41.2392, 45.8228], [41.2569, 45.8181], [41.26, 45.7949], [41.2728, 45.7948], [41.2721, 45.7588], [41.2475, 45.7589], [41.2476, 45.7187], [41.3301, 45.7178], [41.3247, 45.6978], [41.2987, 45.702], [41.2981, 45.6825], [41.3215, 45.6823], [41.3197, 45.6335], [41.3322, 45.6331], [41.3345, 45.6221], [41.3339, 45.5834], [41.3286, 45.5831], [41.3282, 45.5564], [41.4626, 45.5552], [41.4633, 45.5685], [41.495, 45.5682], [41.4951, 45.5642], [41.5262, 45.5601], [41.5249, 45.545], [41.5648, 45.5452], [41.5712, 45.547], [41.5707, 45.5845], [41.6605, 45.5847], [41.6603, 45.6568], [41.7379, 45.6569]]]}}, {"type": "Feature", "properties": {"osm_type": "relation", "osm_id": 624072171, "name": "Pyatigorsk", "admin_level": "6", "kind": "subdivision_2", "parent_osm_id": 108081, "parent_name": "Stavropol Krai", "parent_iso": "RU-STA"}, "geometry": {"type": "Polygon", "coordinates": [[[42.9555, 44.0563], [42.9584, 44.0421], [42.9526, 44.0439], [42.9454, 44.0203], [42.9327, 44.0195], [42.9328, 44.0056], [42.9407, 43.9958], [42.9469, 43.9954], [42.9493, 44.0005], [42.9352, 44.0187], [42.9479, 44.0195], [42.9487, 44.0342], [42.9601, 44.0354], [43.0013, 44.024], [43.001, 44.0296], [43.0184, 44.0289], [43.0185, 44.0231], [43.0277, 44.021], [43.0164, 44.018], [43.013, 44.0101], [43.0346, 44.0055], [43.0579, 44.01], [43.0589, 43.9964], [43.0781, 43.9978], [43.0682, 43.9911], [43.0676, 43.9828], [43.0719, 43.9828], [43.0976, 44.0021], [43.1215, 43.9983], [43.1285, 44.0167], [43.1247, 44.0209], [43.1245, 44.0388], [43.1167, 44.0438], [43.1321, 44.0456], [43.1377, 44.0375], [43.1534, 44.0372], [43.1949, 44.0449], [43.2115, 44.0562], [43.2071, 44.0696], [43.2148, 44.0632], [43.2161, 44.0688], [43.2259, 44.0695], [43.2163, 44.0819], [43.2326, 44.0863], [43.2127, 44.0922], [43.19, 44.0857], [43.1963, 44.08], [43.2082, 44.0795], [43.201, 44.077], [43.2069, 44.0664], [43.1935, 44.0517], [43.1768, 44.0428], [43.1731, 44.0508], [43.1815, 44.0566], [43.1331, 44.0504], [43.0871, 44.0783], [43.0622, 44.0778], [43.0537, 44.0684], [43.0419, 44.0775], [43.0211, 44.0694], [43.0137, 44.0708], [43.0067, 44.0821], [42.987, 44.0758], [42.984, 44.0648], [42.9779, 44.0676], [42.9767, 44.0586], [42.9555, 44.0563]]]}}, {"type": "Feature", "properties": {"osm_type": "relation", "osm_id": 168223093, "name": "Stavropol", "admin_level": "6", "kind": "subdivision_2", "parent_osm_id": 108081, "parent_name": "Stavropol Krai", "parent_iso": "RU-STA"}, "geometry": {"type": "Polygon", "coordinates": [[[41.6957, 45.0205], [41.6983, 45.006], [41.71, 44.9972], [41.7281, 44.9931], [41.743, 44.9993], [41.7585, 44.9902], [41.7705, 44.9927], [41.7712, 45.0184], [41.7982, 45.0301], [41.8031, 45.0154], [41.7924, 45.0116], [41.8032, 44.9984], [41.8133, 45.0026], [41.8258, 44.9902], [41.8543, 45.002], [41.8571, 45.0068], [41.8524, 45.0083], [41.8687, 45.0083], [41.9211, 44.9936], [41.9043, 44.9919], [41.9023, 44.9822], [41.891, 44.9768], [41.8923, 44.9732], [41.9208, 44.9685], [41.9199, 44.9803], [41.9236, 44.9812], [41.9307, 44.9748], [41.9313, 44.9787], [41.9396, 44.9799], [41.9389, 44.9739], [41.9455, 44.9752], [41.9451, 44.9791], [41.9526, 44.9775], [41.9469, 44.9717], [41.9511, 44.9698], [41.9582, 44.9772], [41.9645, 44.9703], [41.9633, 44.9753], [41.979, 44.9756], [41.9632, 44.981], [41.9673, 44.9876], [41.9839, 44.9877], [41.9875, 44.9983], [42.0206, 44.9891], [42.023, 44.9936], [42.0088, 44.9956], [42.0115, 44.9993], [42.0236, 45.0016], [42.0311, 44.9953], [42.0376, 45.0143], [42.0596, 45.0265], [42.0469, 45.0247], [42.0476, 45.0293], [42.0693, 45.0347], [42.0826, 45.0437], [42.0732, 45.0475], [42.084, 45.0493], [42.092, 45.0576], [42.08, 45.0733], [42.0837, 45.074], [42.0842, 45.0842], [42.0727, 45.0877], [42.0812, 45.0894], [42.0834, 45.0946], [42.0301, 45.1068], [42.035, 45.1006], [42.053, 45.0971], [42.0519, 45.0928], [42.0585, 45.0879], [42.0234, 45.0917], [42.0249, 45.0829], [42.0026, 45.0847], [42.001, 45.0758], [41.9948, 45.0763], [41.9911, 45.0809], [41.9721, 45.0849], [41.9886, 45.0925], [41.9824, 45.0955], [41.9824, 45.1067], [41.9718, 45.1055], [41.9678, 45.1128], [41.9563, 45.113], [41.9488, 45.0993], [41.919, 45.0963], [41.9271, 45.0823], [41.9228, 45.0709], [41.896, 45.0588], [41.899, 45.057], [41.8934, 45.0523], [41.8976, 45.0442], [41.8914, 45.0442], [41.8918, 45.0347], [41.8806, 45.0348], [41.8734, 45.0298], [41.8763, 45.0267], [41.8449, 45.0207], [41.8492, 45.0237], [41.841, 45.0263], [41.8252, 45.0226], [41.8267, 45.0276], [41.822, 45.0307], [41.8246, 45.0275], [41.8156, 45.0226], [41.826, 45.0403], [41.8401, 45.0353], [41.8332, 45.0418], [41.8392, 45.0495], [41.8325, 45.0614], [41.8465, 45.0605], [41.8495, 45.0695], [41.8436, 45.0801], [41.8405, 45.0764], [41.8216, 45.077], [41.825, 45.0669], [41.8214, 45.0614], [41.8271, 45.0562], [41.8096, 45.0522], [41.8024, 45.0731], [41.7957, 45.0773], [41.7542, 45.0848], [41.7425, 45.0763], [41.7377, 45.0642], [41.717, 45.0443], [41.7149, 45.0371], [41.6967, 45.0269], [41.6957, 45.0205]]]}}, {"type": "Feature", "properties": {"osm_type": "relation", "osm_id": 459087810, "name": "Arzgirsky District", "admin_level": "6", "kind": "subdivision_2", "parent_osm_id": 108081, "parent_name": "Stavropol Krai", "parent_iso": "RU-STA"}, "geometry": {"type": "Polygon", "coordinates": [[[43.9192, 45.3634], [43.9202, 45.3498], [43.9761, 45.3496], [43.9588, 45.2846], [43.9113, 45.2448], [43.8714, 45.2388], [43.8337, 45.2618], [43.7497, 45.1921], [43.844, 45.1359], [43.8725, 45.16], [43.9723, 45.1007], [44.0349, 45.1533], [44.2512, 45.0246], [44.2482, 45.0128], [44.2211, 44.9937], [44.3811, 44.8975], [44.4625, 44.966], [44.4633, 44.9858], [44.5102, 45.0689], [44.5002, 45.072], [44.5171, 45.176], [44.6354, 45.1415], [44.7118, 45.2739], [44.7374, 45.2982], [44.7646, 45.3481], [44.8246, 45.4361], [44.797, 45.4257], [44.788, 45.4302], [44.7613, 45.4309], [44.7237, 45.4452], [44.6328, 45.4641], [44.5984, 45.4783], [44.5749, 45.5061], [44.5368, 45.4989], [44.5339, 45.5048], [44.5146, 45.5105], [44.4977, 45.5018], [44.4517, 45.5071], [44.3687, 45.5429], [44.3642, 45.5519], [44.319, 45.5513], [44.2973, 45.5693], [44.278, 45.5749], [44.2745, 45.5893], [44.2594, 45.5921], [44.2632, 45.5772], [44.2582, 45.5623], [44.2228, 45.5632], [44.1586, 45.5719], [44.066, 45.5965], [44.0138, 45.5994], [44.0065, 45.5943], [43.9937, 45.5951], [43.9881, 45.5891], [43.9436, 45.5872], [43.944, 45.401], [43.919, 45.4007], [43.9192, 45.3634]]]}}, {"type": "Feature", "properties": {"osm_type": "relation", "osm_id": 171364396, "name": "Blagodarnensky District", "admin_level": "6", "kind": "subdivision_2", "parent_osm_id": 108081, "parent_name": "Stavropol Krai", "parent_iso": "RU-STA"}, "geometry": {"type": "Polygon", "coordinates": [[[43.1577, 44.9993], [43.2085, 44.9996], [43.2091, 44.9865], [43.2288, 44.9749], [43.2454, 44.9722], [43.2397, 44.9677], [43.3652, 44.8946], [43.4304, 44.9496], [43.6475, 44.8219], [43.7027, 44.8696], [43.6741, 44.8893], [43.6617, 44.8922], [43.72, 44.9413], [43.7784, 44.9063], [43.7948, 44.9202], [43.8044, 44.9142], [43.8651, 44.9665], [43.8831, 44.9705], [43.9, 44.9619], [44.0375, 45.0633], [43.8725, 45.16], [43.844, 45.1359], [43.7497, 45.1921], [43.8337, 45.2618], [43.8714, 45.2388], [43.9113, 45.2448], [43.9588, 45.2846], [43.9761, 45.3496], [43.9202, 45.3498], [43.9192, 45.3634], [43.8433, 45.3626], [43.8432, 45.3275], [43.8187, 45.3063], [43.8275, 45.3009], [43.8133, 45.2973], [43.8004, 45.3051], [43.7839, 45.2913], [43.7093, 45.3353], [43.6927, 45.3219], [43.6749, 45.3323], [43.6671, 45.3258], [43.6717, 45.3226], [43.639, 45.2951], [43.6488, 45.2893], [43.5834, 45.234], [43.5154, 45.2741], [43.4837, 45.272], [43.4833, 45.2961], [43.4726, 45.3077], [43.3812, 45.307], [43.3819, 45.271], [43.2288, 45.2697], [43.2297, 45.2252], [43.1738, 45.2242], [43.174, 45.2108], [43.1536, 45.2106], [43.1472, 45.1998], [43.1415, 45.2], [43.1419, 45.1341], [43.1299, 45.1337], [43.1309, 45.0619], [43.143, 45.062], [43.1442, 45.0352], [43.1568, 45.0353], [43.1577, 44.9993]]]}}, {"type": "Feature", "properties": {"osm_type": "relation", "osm_id": 558421220, "name": "Budyonnovsky District", "admin_level": "6", "kind": "subdivision_2", "parent_osm_id": 108081, "parent_name": "Stavropol Krai", "parent_iso": "RU-STA"}, "geometry": {"type": "Polygon", "coordinates": [[[43.9723, 45.1007], [44.0375, 45.0633], [43.9, 44.9619], [43.8831, 44.9705], [43.8651, 44.9665], [43.8044, 44.9142], [43.7948, 44.9202], [43.7784, 44.9063], [43.72, 44.9413], [43.6617, 44.8922], [43.6741, 44.8893], [43.7012, 44.8683], [43.7227, 44.8597], [43.7295, 44.8654], [43.7574, 44.8488], [43.8348, 44.8372], [43.8747, 44.8139], [43.7686, 44.7239], [43.8021, 44.7039], [43.8013, 44.6846], [43.7991, 44.6756], [43.7895, 44.6741], [43.7435, 44.5992], [43.9784, 44.5249], [43.9731, 44.522], [43.9807, 44.5196], [43.9841, 44.5079], [44.008, 44.5052], [44.0177, 44.5067], [44.0206, 44.5138], [44.0566, 44.5187], [44.11, 44.5029], [44.25, 44.4291], [44.2792, 44.4565], [44.2693, 44.4618], [44.2997, 44.4904], [44.3426, 44.4674], [44.3868, 44.4701], [44.3901, 44.4722], [44.3877, 44.4764], [44.4059, 44.4746], [44.4332, 44.4846], [44.4446, 44.4967], [44.4852, 44.4969], [44.4945, 44.5017], [44.4924, 44.5064], [44.4978, 44.509], [44.5117, 44.5017], [44.5223, 44.505], [44.5454, 44.4701], [44.5724, 44.4786], [44.604, 44.6301], [44.4765, 44.6995], [44.4099, 44.7418], [44.3897, 44.7726], [44.4086, 44.7908], [44.4028, 44.8379], [44.3963, 44.8409], [44.4293, 44.8682], [44.2211, 44.9937], [44.2482, 45.0128], [44.2512, 45.0246], [44.0349, 45.1533], [43.9723, 45.1007]]]}}, {"type": "Feature", "properties": {"osm_type": "relation", "osm_id": 546150073, "name": "Georgiyevsky District", "admin_level": "6", "kind": "subdivision_2", "parent_osm_id": 108081, "parent_name": "Stavropol Krai", "parent_iso": "RU-STA"}, "geometry": {"type": "Polygon", "coordinates": [[[43.4122, 43.9873], [43.4383, 43.9416], [43.4696, 43.958], [43.4404, 44.0103], [43.4749, 44.0145], [43.4982, 44.0383], [43.5053, 44.0319], [43.5563, 44.0813], [43.5602, 44.0768], [43.5652, 44.0813], [43.5747, 44.0762], [43.5873, 44.0884], [43.6201, 44.071], [43.6442, 44.0797], [43.6666, 44.1013], [43.7197, 44.0732], [43.7943, 44.1448], [43.7334, 44.1775], [43.7192, 44.1635], [43.6937, 44.1772], [43.6675, 44.183], [43.6641, 44.1792], [43.6064, 44.2108], [43.6014, 44.2245], [43.6028, 44.2397], [43.6711, 44.237], [43.6923, 44.2503], [43.7083, 44.2525], [43.6949, 44.2536], [43.7061, 44.2677], [43.6951, 44.2711], [43.6936, 44.3414], [43.6568, 44.3669], [43.6581, 44.3896], [43.668, 44.3875], [43.6779, 44.4038], [43.6433, 44.4148], [43.6638, 44.4479], [43.6068, 44.4665], [43.6358, 44.514], [43.5676, 44.5367], [43.5778, 44.5535], [43.4628, 44.5905], [43.418, 44.5171], [43.3947, 44.5231], [43.3658, 44.476], [43.242, 44.4754], [43.2414, 44.3496], [43.1673, 44.3496], [43.1675, 44.2813], [43.1902, 44.2745], [43.1953, 44.2783], [43.2024, 44.2744], [43.2182, 44.2779], [43.2184, 44.2626], [43.1996, 44.2622], [43.1998, 44.2487], [43.2298, 44.2446], [43.2304, 44.2311], [43.2225, 44.2288], [43.2235, 44.2207], [43.2188, 44.2158], [43.2206, 44.1157], [43.2316, 44.117], [43.2314, 44.1136], [43.2195, 44.1118], [43.2361, 44.1061], [43.2486, 44.0885], [43.2332, 44.0912], [43.2335, 44.0438], [43.3585, 44.0445], [43.3586, 44.0355], [43.3833, 44.0354], [43.3834, 44.0265], [43.4084, 44.0265], [43.4084, 44.0123], [43.424, 43.9909], [43.4122, 43.9873]], [[43.4229, 44.1793], [43.4319, 44.1924], [43.4477, 44.1888], [43.4514, 44.1788], [43.5058, 44.1597], [43.5013, 44.1599], [43.4736, 44.1321], [43.4726, 44.1214], [43.4631, 44.123], [43.4594, 44.1169], [43.4457, 44.1189], [43.4292, 44.1303], [43.4518, 44.1584], [43.4507, 44.1622], [43.4305, 44.1644], [43.4229, 44.1793]]]}}, {"type": "Feature", "properties": {"osm_type": "relation", "osm_id": 217605728, "name": "Kirovsky District", "admin_level": "6", "kind": "subdivision_2", "parent_osm_id": 108081, "parent_name": "Stavropol Krai", "parent_iso": "RU-STA"}, "geometry": {"type": "Polygon", "coordinates": [[[43.2379, 43.9361], [43.3126, 43.804], [43.3173, 43.8054], [43.3166, 43.7998], [43.3538, 43.8188], [43.3738, 43.8379], [43.4002, 43.8457], [43.4135, 43.8595], [43.4739, 43.8656], [43.5045, 43.8603], [43.5455, 43.8431], [43.5712, 43.8496], [43.5895, 43.848], [43.6571, 43.8321], [43.712, 43.8303], [43.7327, 43.8184], [43.7353, 43.8234], [43.7449, 43.8195], [43.7464, 43.8308], [43.7552, 43.8431], [43.7503, 43.8536], [43.7559, 43.8529], [43.7705, 43.8745], [43.7705, 43.9275], [43.777, 43.9287], [43.7832, 43.9393], [43.8197, 43.9598], [43.8579, 43.9602], [43.863, 43.9876], [43.8766, 43.9914], [43.8961, 44.0103], [43.9076, 44.0107], [43.9222, 44.0203], [43.9321, 44.0183], [43.932, 44.0099], [43.9445, 44.0098], [43.9447, 43.9864], [43.9872, 43.9863], [43.9873, 43.9707], [44.1126, 43.9703], [44.1126, 44.0013], [44.1038, 44.0046], [44.1117, 44.0154], [44.1184, 44.014], [44.1195, 44.0363], [44.1071, 44.0363], [44.1074, 44.0453], [44.2067, 44.0452], [44.2072, 44.0719], [44.1866, 44.0721], [44.1854, 44.1262], [44.2322, 44.1262], [44.2324, 44.1439], [44.2074, 44.1441], [44.2074, 44.153], [44.0559, 44.1532], [44.055, 44.1489], [44.0363, 44.1425], [44.0304, 44.1293], [44.036, 44.119], [44.0209, 44.1103], [44.0231, 44.103], [44.0332, 44.0972], [44.0327, 44.0851], [44.0166, 44.0757], [44.0245, 44.0582], [44.0074, 44.0516], [43.8991, 44.1105], [43.9141, 44.125], [43.8843, 44.141], [43.8895, 44.1459], [43.859, 44.1549], [43.852, 44.1481], [43.8266, 44.1612], [43.804, 44.1394], [43.7943, 44.1448], [43.7197, 44.0732], [43.6666, 44.1013], [43.6442, 44.0797], [43.6201, 44.071], [43.5873, 44.0884], [43.5747, 44.0762], [43.5652, 44.0813], [43.5602, 44.0768], [43.5563, 44.0813], [43.5053, 44.0319], [43.4982, 44.0383], [43.4749, 44.0145], [43.4404, 44.0103], [43.4696, 43.958], [43.4383, 43.9416], [43.4122, 43.9873], [43.2379, 43.9361]]]}}, {"type": "Feature", "properties": {"osm_type": "relation", "osm_id": 843608577, "name": "Kursky District", "admin_level": "6", "kind": "subdivision_2", "parent_osm_id": 108081, "parent_name": "Stavropol Krai", "parent_iso": "RU-STA"}, "geometry": {"type": "Polygon", "coordinates": [[[44.1126, 43.9703], [44.144, 43.9702], [44.1439, 43.9285], [44.2248, 43.9282], [44.2253, 43.9185], [44.2686, 43.9182], [44.269, 43.964], [44.3184, 43.9639], [44.3185, 43.973], [44.3688, 43.9726], [44.3692, 44.0046], [44.4127, 44.0112], [44.4131, 44.0172], [44.4194, 44.0165], [44.4189, 43.9455], [44.3438, 43.9458], [44.3436, 43.9044], [44.319, 43.8934], [44.2932, 43.8912], [44.2925, 43.8097], [44.3515, 43.8079], [44.3797, 43.8134], [44.3796, 43.8015], [44.4725, 43.8012], [44.4728, 43.8074], [44.5045, 43.8073], [44.5046, 43.8145], [44.5535, 43.8142], [44.5536, 43.8197], [44.5817, 43.8215], [44.5969, 43.8287], [44.6035, 43.8249], [44.6664, 43.8266], [44.6664, 43.8351], [44.7031, 43.8346], [44.7023, 43.8174], [44.7937, 43.817], [44.7963, 43.8088], [44.8034, 43.807], [44.8029, 43.7194], [44.8263, 43.7068], [44.8355, 43.7136], [44.8448, 43.7134], [44.8475, 43.7047], [44.8365, 43.6909], [44.8252, 43.6873], [44.827, 43.6835], [44.8394, 43.681], [44.8547, 43.6963], [44.8615, 43.6952], [44.8655, 43.6899], [44.8536, 43.6758], [44.8533, 43.6672], [44.8913, 43.6591], [44.9115, 43.6693], [44.9102, 43.6803], [44.9142, 43.6824], [44.9368, 43.6725], [44.9565, 43.6814], [44.9623, 43.6864], [44.9623, 43.6971], [44.9783, 43.7002], [44.9793, 43.7113], [44.9934, 43.7216], [45.0224, 43.7275], [45.0305, 43.7184], [45.0447, 43.7199], [45.0409, 43.7121], [45.0443, 43.709], [45.0657, 43.7203], [45.0658, 43.8885], [45.0532, 43.8897], [45.0539, 43.9583], [45.2018, 43.9573], [45.2011, 43.8764], [45.4385, 43.8759], [45.4397, 44.0077], [45.4907, 44.0077], [45.49, 44.1296], [45.5026, 44.1296], [45.503, 44.1757], [45.395, 44.1769], [45.3108, 44.1836], [45.2907, 44.1805], [45.2908, 44.1841], [45.1667, 44.1917], [45.1034, 44.1909], [45.1389, 44.2583], [45.036, 44.2824], [45.0205, 44.2489], [44.9351, 44.2802], [44.9232, 44.1854], [44.9042, 44.1872], [44.9024, 44.1791], [44.9041, 44.1008], [44.7692, 44.1008], [44.7583, 44.1234], [44.6814, 44.1238], [44.6816, 44.0995], [44.5566, 44.1087], [44.5566, 44.1515], [44.4442, 44.1521], [44.4428, 44.1147], [44.419, 44.108], [44.4177, 44.0535], [44.3318, 44.0538], [44.3318, 44.0627], [44.2946, 44.0628], [44.2946, 44.09], [44.2676, 44.0993], [44.232, 44.1017], [44.2322, 44.1262], [44.1854, 44.1262], [44.1866, 44.0721], [44.2072, 44.0719], [44.2067, 44.0452], [44.1074, 44.0453], [44.1071, 44.0363], [44.1195, 44.0363], [44.1184, 44.014], [44.1117, 44.0154], [44.1038, 44.0046], [44.1126, 44.0013], [44.1126, 43.9703]]]}}, {"type": "Feature", "properties": {"osm_type": "relation", "osm_id": 573783774, "name": "Neftekumsky District", "admin_level": "6", "kind": "subdivision_2", "parent_osm_id": 108081, "parent_name": "Stavropol Krai", "parent_iso": "RU-STA"}, "geometry": {"type": "Polygon", "coordinates": [[[44.5724, 44.4786], [44.5576, 44.4055], [44.576, 44.3826], [44.6119, 44.3977], [44.613, 44.4017], [44.6281, 44.4001], [44.6299, 44.4089], [44.6665, 44.4051], [44.6695, 44.3959], [44.7943, 44.3823], [44.7972, 44.3677], [44.8125, 44.3702], [44.8903, 44.359], [44.8952, 44.3177], [44.8609, 44.3141], [44.8674, 44.2913], [44.8783, 44.2885], [44.875, 44.278], [44.8905, 44.2739], [44.9143, 44.2696], [44.9169, 44.2872], [45.0205, 44.2489], [45.036, 44.2824], [45.1389, 44.2583], [45.1367, 44.2538], [45.2169, 44.2639], [45.2177, 44.2709], [45.3715, 44.2901], [45.4259, 44.3941], [45.4291, 44.4288], [45.3977, 44.4363], [45.3867, 44.4521], [45.3727, 44.4546], [45.3584, 44.4647], [45.2267, 44.4675], [45.2311, 44.5068], [45.2649, 44.5043], [45.2681, 44.518], [45.2395, 44.5568], [45.2607, 44.5893], [45.3351, 44.5965], [45.3426, 44.5936], [45.3475, 44.6023], [45.3843, 44.6068], [45.4123, 44.5942], [45.5219, 44.6794], [45.6555, 44.8037], [45.6135, 44.874], [45.7051, 44.9774], [45.5655, 44.9867], [45.5653, 44.8925], [45.3637, 44.8875], [45.3547, 44.9764], [45.3235, 44.9746], [45.3182, 44.9712], [45.3226, 44.9588], [45.3035, 44.9637], [45.2763, 44.9574], [45.2716, 44.9499], [45.2311, 44.94], [45.2143, 44.9425], [45.1995, 44.9339], [45.1676, 44.9279], [45.1301, 44.928], [45.1212, 44.9128], [45.1236, 44.9084], [45.1092, 44.8921], [45.1087, 44.8823], [45.0867, 44.8772], [45.0771, 44.8635], [45.0747, 44.8577], [45.0792, 44.855], [45.0811, 44.8291], [45.0889, 44.8257], [45.0796, 44.8167], [45.0571, 44.8109], [45.0509, 44.801], [45.0232, 44.7825], [44.9866, 44.7859], [44.97, 44.7983], [44.9593, 44.7947], [44.9529, 44.78], [44.9681, 44.7735], [44.9609, 44.7563], [44.9018, 44.7195], [44.8426, 44.6587], [44.7942, 44.6235], [44.607, 44.6443], [44.5724, 44.4786]]]}}, {"type": "Feature", "properties": {"osm_type": "relation", "osm_id": 324356260, "name": "Novoselitsky District", "admin_level": "6", "kind": "subdivision_2", "parent_osm_id": 108081, "parent_name": "Stavropol Krai", "parent_iso": "RU-STA"}, "geometry": {"type": "Polygon", "coordinates": [[[43.2468, 44.9633], [43.1949, 44.9177], [43.2039, 44.9124], [43.1867, 44.8971], [43.1732, 44.9049], [43.1104, 44.8502], [43.078, 44.8377], [43.1002, 44.8062], [43.1206, 44.8135], [43.1322, 44.794], [43.1488, 44.7934], [43.2002, 44.8104], [43.2467, 44.8033], [43.1869, 44.783], [43.1229, 44.773], [43.1341, 44.7593], [43.1343, 44.7527], [43.1771, 44.7392], [43.1671, 44.7228], [43.3311, 44.6718], [43.3251, 44.6618], [43.3413, 44.6569], [43.3194, 44.6348], [43.336, 44.6294], [43.3158, 44.5966], [43.3274, 44.5929], [43.321, 44.5826], [43.3326, 44.5789], [43.3213, 44.5602], [43.3441, 44.5526], [43.3335, 44.5356], [43.3568, 44.5281], [43.3523, 44.5212], [43.3872, 44.5103], [43.3947, 44.5231], [43.418, 44.5171], [43.4628, 44.5905], [43.5778, 44.5535], [43.5676, 44.5367], [43.6358, 44.514], [43.6569, 44.5483], [43.6345, 44.5555], [43.6697, 44.6131], [43.7387, 44.5914], [43.7895, 44.6741], [43.7991, 44.6756], [43.8013, 44.6846], [43.8021, 44.7039], [43.7686, 44.7239], [43.8747, 44.8139], [43.8348, 44.8372], [43.7574, 44.8488], [43.7295, 44.8654], [43.7227, 44.8597], [43.7012, 44.8683], [43.6475, 44.8219], [43.4304, 44.9496], [43.3652, 44.8946], [43.2468, 44.9633]]]}}, {"type": "Feature", "properties": {"osm_type": "relation", "osm_id": 858469718, "name": "Stepnovsky District", "admin_level": "6", "kind": "subdivision_2", "parent_osm_id": 108081, "parent_name": "Stavropol Krai", "parent_iso": "RU-STA"}, "geometry": {"type": "Polygon", "coordinates": [[[44.25, 44.4291], [44.2516, 44.4146], [44.2671, 44.3905], [44.2439, 44.3823], [44.2767, 44.3351], [44.3072, 44.3443], [44.3355, 44.2988], [44.3304, 44.2956], [44.3346, 44.2852], [44.3282, 44.2796], [44.2847, 44.2844], [44.299, 44.2711], [44.2872, 44.2574], [44.2701, 44.2546], [44.2476, 44.2627], [44.2065, 44.263], [44.2113, 44.2471], [44.2062, 44.2345], [44.2074, 44.1441], [44.2324, 44.1439], [44.232, 44.1017], [44.2676, 44.0993], [44.2946, 44.09], [44.2946, 44.0628], [44.3318, 44.0627], [44.3318, 44.0538], [44.4177, 44.0535], [44.419, 44.108], [44.4428, 44.1147], [44.4442, 44.1521], [44.5566, 44.1515], [44.5566, 44.1087], [44.6816, 44.0995], [44.6814, 44.1238], [44.7583, 44.1234], [44.7692, 44.1008], [44.9041, 44.1008], [44.9024, 44.1791], [44.9042, 44.1872], [44.9232, 44.1854], [44.9351, 44.2802], [44.9169, 44.2872], [44.9143, 44.2696], [44.875, 44.278], [44.8783, 44.2885], [44.8674, 44.2913], [44.8609, 44.3141], [44.8952, 44.3177], [44.8903, 44.359], [44.8125, 44.3702], [44.7972, 44.3677], [44.7943, 44.3823], [44.6695, 44.3959], [44.6665, 44.4051], [44.6299, 44.4089], [44.6281, 44.4001], [44.613, 44.4017], [44.6119, 44.3977], [44.576, 44.3826], [44.5576, 44.4055], [44.5724, 44.4786], [44.5454, 44.4701], [44.5223, 44.505], [44.5117, 44.5017], [44.4978, 44.509], [44.4924, 44.5064], [44.4945, 44.5017], [44.4852, 44.4969], [44.4446, 44.4967], [44.4332, 44.4846], [44.4059, 44.4746], [44.3877, 44.4764], [44.3901, 44.4722], [44.3868, 44.4701], [44.3426, 44.4674], [44.2997, 44.4904], [44.2693, 44.4618], [44.2792, 44.4565], [44.25, 44.4291]]]}}, {"type": "Feature", "properties": {"osm_type": "relation", "osm_id": 189289740, "name": "Turkmensky District", "admin_level": "6", "kind": "subdivision_2", "parent_osm_id": 108081, "parent_name": "Stavropol Krai", "parent_iso": "RU-STA"}, "geometry": {"type": "Polygon", "coordinates": [[[43.2288, 45.2697], [43.3819, 45.271], [43.3812, 45.307], [43.4726, 45.3077], [43.4833, 45.2961], [43.4837, 45.272], [43.5154, 45.2741], [43.5834, 45.234], [43.6488, 45.2893], [43.639, 45.2951], [43.6717, 45.3226], [43.6671, 45.3258], [43.6749, 45.3323], [43.6927, 45.3219], [43.7093, 45.3353], [43.7839, 45.2913], [43.8004, 45.3051], [43.8133, 45.2973], [43.8275, 45.3009], [43.8187, 45.3063], [43.8432, 45.3275], [43.8433, 45.3626], [43.9192, 45.3634], [43.919, 45.4007], [43.944, 45.401], [43.9436, 45.5872], [43.9881, 45.5891], [43.9937, 45.5951], [44.0065, 45.5943], [44.0138, 45.5994], [44.0448, 45.5989], [44.1586, 45.5719], [44.2582, 45.5623], [44.2632, 45.5772], [44.2594, 45.5921], [44.2346, 45.5992], [44.1714, 45.6443], [44.131, 45.692], [44.1229, 45.7185], [44.0743, 45.7118], [44.0575, 45.7027], [44.0269, 45.7106], [44.0103, 45.7276], [43.9878, 45.7338], [43.9874, 45.7005], [43.8296, 45.6999], [43.8152, 45.6098], [43.61, 45.6086], [43.6098, 45.6266], [43.5263, 45.6261], [43.5266, 45.613], [43.5042, 45.6167], [43.504, 45.6083], [43.5085, 45.6083], [43.5087, 45.536], [43.3553, 45.5352], [43.3547, 45.5711], [43.3002, 45.5706], [43.3002, 45.5764], [43.1719, 45.5752], [43.1727, 45.5304], [42.9554, 45.528], [42.9596, 45.4197], [42.9962, 45.4201], [42.997, 45.3846], [43.0227, 45.3845], [43.0247, 45.2948], [43.1273, 45.296], [43.1253, 45.3028], [43.1136, 45.3048], [43.1135, 45.3135], [43.1261, 45.3138], [43.1249, 45.3766], [43.214, 45.3774], [43.2162, 45.2699], [43.2288, 45.2697]]]}}, {"type": "Feature", "properties": {"osm_type": "relation", "osm_id": 719472497, "name": "Levokumsky District", "admin_level": "6", "kind": "subdivision_2", "parent_osm_id": 108081, "parent_name": "Stavropol Krai", "parent_iso": "RU-STA"}, "geometry": {"type": "Polygon", "coordinates": [[[44.3811, 44.8975], [44.4293, 44.8682], [44.3963, 44.8409], [44.4028, 44.8379], [44.4086, 44.7908], [44.3897, 44.7726], [44.4099, 44.7418], [44.4765, 44.6995], [44.604, 44.6301], [44.607, 44.6443], [44.7942, 44.6235], [44.8426, 44.6587], [44.9018, 44.7195], [44.9609, 44.7563], [44.9681, 44.7735], [44.9529, 44.78], [44.9593, 44.7947], [44.97, 44.7983], [44.9866, 44.7859], [45.0232, 44.7825], [45.0509, 44.801], [45.0571, 44.8109], [45.0796, 44.8167], [45.0889, 44.8257], [45.0811, 44.8291], [45.0792, 44.855], [45.0747, 44.8577], [45.0771, 44.8635], [45.0867, 44.8772], [45.1087, 44.8823], [45.1092, 44.8921], [45.1236, 44.9084], [45.1212, 44.9128], [45.1301, 44.928], [45.1676, 44.9279], [45.1995, 44.9339], [45.2143, 44.9425], [45.2311, 44.94], [45.2716, 44.9499], [45.2763, 44.9574], [45.3035, 44.9637], [45.3226, 44.9588], [45.3182, 44.9712], [45.3235, 44.9746], [45.3547, 44.9764], [45.3637, 44.8875], [45.5653, 44.8925], [45.5655, 44.9867], [45.7051, 44.9774], [45.716, 44.9958], [45.5863, 45.1211], [45.59, 45.1258], [45.1363, 45.3061], [44.8951, 45.3874], [44.8932, 45.4035], [44.8776, 45.4053], [44.8374, 45.4283], [44.8306, 45.4373], [44.8149, 45.4262], [44.7374, 45.2982], [44.7118, 45.2739], [44.6354, 45.1415], [44.5171, 45.176], [44.5002, 45.072], [44.5102, 45.0689], [44.4633, 44.9858], [44.4625, 44.966], [44.3811, 44.8975]]]}}, {"type": "Feature", "properties": {"osm_type": "relation", "osm_id": 768788850, "name": "городской округ Ессентуки", "admin_level": "6", "kind": "subdivision_2", "parent_osm_id": 108081, "parent_name": "Stavropol Krai", "parent_iso": "RU-STA"}, "geometry": {"type": "Polygon", "coordinates": [[[42.9468, 44.0342], [42.9526, 44.0439], [42.9584, 44.0421], [42.9575, 44.0522], [42.9476, 44.0566], [42.9431, 44.0662], [42.9313, 44.0703], [42.8209, 44.0708], [42.8101, 44.0643], [42.8115, 44.0498], [42.8056, 44.0478], [42.816, 44.0442], [42.8203, 44.0295], [42.799, 44.0148], [42.7954, 44.0059], [42.8143, 44.0121], [42.824, 44.0106], [42.824, 44.0039], [42.8297, 44.0115], [42.8243, 44.0162], [42.8954, 44.0403], [42.9154, 44.0276], [42.9185, 44.0336], [42.9237, 44.0333], [42.9208, 44.0366], [42.9468, 44.0342]]]}}, {"type": "Feature", "properties": {"osm_type": "relation", "osm_id": 445497357, "name": "городской округ Железновод", "admin_level": "6", "kind": "subdivision_2", "parent_osm_id": 108081, "parent_name": "Stavropol Krai", "parent_iso": "RU-STA"}, "geometry": {"type": "Polygon", "coordinates": [[[42.9882, 44.1239], [42.9991, 44.1112], [43.0199, 44.115], [43.0332, 44.1088], [43.0416, 44.0969], [43.0481, 44.0958], [43.0456, 44.0787], [43.0419, 44.0775], [43.0537, 44.0684], [43.0622, 44.0778], [43.0871, 44.0783], [43.1152, 44.0617], [43.183, 44.09], [43.156, 44.123], [43.1419, 44.1212], [43.1182, 44.1272], [43.1074, 44.1207], [43.0945, 44.1237], [43.0921, 44.1297], [43.0707, 44.1421], [43.0632, 44.1616], [43.0474, 44.167], [43.0038, 44.161], [42.9894, 44.1425], [42.9854, 44.145], [42.9791, 44.1335], [42.9882, 44.1239]]]}}, {"type": "Feature", "properties": {"osm_type": "relation", "osm_id": 728277013, "name": "городской округ Невинномыс", "admin_level": "6", "kind": "subdivision_2", "parent_osm_id": 108081, "parent_name": "Stavropol Krai", "parent_iso": "RU-STA"}, "geometry": {"type": "Polygon", "coordinates": [[[41.8667, 44.6994], [41.8865, 44.6714], [41.8827, 44.667], [41.8915, 44.6546], [41.91, 44.6493], [41.8918, 44.6425], [41.9112, 44.626], [41.8974, 44.6117], [41.9052, 44.6059], [41.9023, 44.603], [41.9242, 44.595], [41.9219, 44.586], [41.9308, 44.5906], [41.9351, 44.5857], [41.9639, 44.5794], [41.9904, 44.5807], [41.9846, 44.5869], [41.998, 44.5897], [42.0043, 44.6038], [41.9937, 44.61], [42.0015, 44.6289], [41.9793, 44.6344], [41.9835, 44.6393], [41.9726, 44.6445], [41.9767, 44.6478], [41.9707, 44.6531], [41.9767, 44.6563], [41.9649, 44.6643], [41.9589, 44.6772], [41.9618, 44.6837], [41.9268, 44.6947], [41.9208, 44.7047], [41.9033, 44.7083], [41.8929, 44.6988], [41.9087, 44.6874], [41.9083, 44.6783], [41.8963, 44.6844], [41.8767, 44.7066], [41.8667, 44.6994]]]}}, {"type": "Feature", "properties": {"osm_type": "relation", "osm_id": 174380566, "name": "Mineralovodsky District", "admin_level": "6", "kind": "subdivision_2", "parent_osm_id": 108081, "parent_name": "Stavropol Krai", "parent_iso": "RU-STA"}, "geometry": {"type": "Polygon", "coordinates": [[[43.0354, 44.1662], [43.0632, 44.1616], [43.0707, 44.1421], [43.0921, 44.1297], [43.0945, 44.1237], [43.1074, 44.1207], [43.1182, 44.1272], [43.1419, 44.1212], [43.156, 44.123], [43.183, 44.09], [43.1974, 44.0999], [43.1979, 44.1099], [43.221, 44.1142], [43.2188, 44.2158], [43.2235, 44.2207], [43.2225, 44.2288], [43.2304, 44.2311], [43.2298, 44.2446], [43.1998, 44.2487], [43.1996, 44.2622], [43.2184, 44.2626], [43.2182, 44.2779], [43.2024, 44.2744], [43.1953, 44.2783], [43.1902, 44.2745], [43.1675, 44.2813], [43.1673, 44.3496], [43.2414, 44.3496], [43.2424, 44.4483], [43.1657, 44.4481], [43.1653, 44.5009], [43.1308, 44.509], [43.1159, 44.4945], [43.0877, 44.4981], [43.0545, 44.493], [43.0533, 44.5023], [42.9897, 44.5158], [42.9789, 44.5196], [42.9808, 44.5287], [42.9118, 44.5508], [42.9097, 44.5466], [42.8979, 44.55], [42.8935, 44.5433], [42.8699, 44.5456], [42.8287, 44.5555], [42.8259, 44.5596], [42.7969, 44.5636], [42.7862, 44.5702], [42.7857, 44.5006], [42.792, 44.4997], [42.7917, 44.4732], [42.7794, 44.4755], [42.7792, 44.4438], [42.7663, 44.444], [42.7666, 44.4132], [42.7618, 44.413], [42.7603, 44.3958], [42.7559, 44.3975], [42.7466, 44.3833], [42.7479, 44.332], [42.6536, 44.3327], [42.6531, 44.2424], [42.7449, 44.2423], [42.7425, 44.2149], [42.7499, 44.2078], [42.7435, 44.1874], [42.8263, 44.1671], [42.8453, 44.2118], [42.8657, 44.2039], [42.889, 44.1876], [42.9025, 44.2029], [42.9398, 44.2044], [42.9419, 44.2194], [42.9386, 44.2245], [42.9433, 44.2257], [42.9471, 44.2207], [42.9661, 44.2185], [42.9676, 44.2071], [42.9796, 44.2061], [42.9795, 44.1873], [43.0094, 44.1873], [43.021, 44.1928], [43.0405, 44.1902], [43.041, 44.1751], [43.0355, 44.1772], [43.0301, 44.169], [43.0354, 44.1662]]]}}, {"type": "Feature", "properties": {"osm_type": "relation", "osm_id": 281348639, "name": "Apanasenkovsky District", "admin_level": "6", "kind": "subdivision_2", "parent_osm_id": 108081, "parent_name": "Stavropol Krai", "parent_iso": "RU-STA"}, "geometry": {"type": "Polygon", "coordinates": [[[43.3547, 45.5711], [43.3553, 45.5352], [43.5087, 45.536], [43.5085, 45.6083], [43.504, 45.6083], [43.5042, 45.6167], [43.5266, 45.613], [43.5263, 45.6261], [43.6098, 45.6266], [43.61, 45.6086], [43.8152, 45.6098], [43.8296, 45.6999], [43.9874, 45.7005], [43.9878, 45.7338], [44.0103, 45.7276], [44.0269, 45.7106], [44.0575, 45.7027], [44.0743, 45.7118], [44.1229, 45.7185], [44.1193, 45.7348], [44.106, 45.7382], [44.0957, 45.76], [44.0891, 45.7978], [44.0719, 45.8007], [44.0638, 45.8105], [44.0593, 45.8044], [44.0421, 45.8195], [44.0328, 45.8406], [44.0355, 45.8495], [44.0169, 45.8708], [44.0017, 45.8807], [43.9828, 45.8901], [43.945, 45.8948], [43.9229, 45.903], [43.9315, 45.9106], [43.9207, 45.9312], [43.9194, 45.944], [43.9032, 45.9484], [43.8932, 45.9442], [43.847, 45.9574], [43.81, 45.9564], [43.7871, 45.9629], [43.7764, 45.9729], [43.7663, 45.9714], [43.7232, 45.9826], [43.6454, 45.9794], [43.6352, 45.9823], [43.636, 45.9878], [43.6232, 45.986], [43.6227, 45.9911], [43.6068, 45.9789], [43.5942, 45.9889], [43.5887, 45.9821], [43.5701, 45.9791], [43.5119, 45.9892], [43.4697, 45.9889], [43.3597, 46.0331], [43.3104, 46.0899], [43.2817, 46.104], [43.1926, 46.1175], [43.1644, 46.1288], [43.0017, 46.1693], [42.9619, 46.1965], [42.9318, 46.2361], [42.9138, 46.2362], [42.8816, 46.2083], [42.8751, 46.209], [42.876, 46.205], [42.8719, 46.2082], [42.8566, 46.1991], [42.8487, 46.201], [42.845, 46.1922], [42.8394, 46.1906], [42.8571, 46.1842], [42.8551, 46.1781], [42.863, 46.1778], [42.7386, 46.0915], [42.7094, 46.0904], [42.7176, 46.08], [42.6902, 46.069], [42.6885, 46.0653], [42.6973, 46.0639], [42.7063, 46.0553], [42.7041, 46.0504], [42.6978, 46.0506], [42.8443, 45.8716], [42.9277, 45.9047], [42.9059, 45.9314], [42.9325, 45.9247], [42.9507, 45.914], [42.9916, 45.9301], [42.9986, 45.9281], [42.9953, 45.9232], [43.0071, 45.9191], [43.0231, 45.8976], [43.0358, 45.8958], [43.0893, 45.8254], [43.0444, 45.8103], [43.0434, 45.7925], [43.0469, 45.7898], [43.0597, 45.7944], [43.0701, 45.7902], [43.0653, 45.7888], [43.0668, 45.7841], [43.0737, 45.7881], [43.0886, 45.7809], [43.0933, 45.7852], [43.0901, 45.7885], [43.0955, 45.7905], [43.1139, 45.784], [43.1149, 45.7937], [43.1202, 45.793], [43.1231, 45.798], [43.1277, 45.7931], [43.1305, 45.7959], [43.1387, 45.7805], [43.1445, 45.7839], [43.1536, 45.7774], [43.1604, 45.7817], [43.161, 45.7744], [43.1674, 45.7754], [43.1717, 45.7703], [43.1745, 45.7749], [43.178, 45.7732], [43.1765, 45.7765], [43.1824, 45.7729], [43.1841, 45.7773], [43.1915, 45.776], [43.1914, 45.7819], [43.1944, 45.7787], [43.2024, 45.7833], [43.2054, 45.7899], [43.1993, 45.7952], [43.2103, 45.7969], [43.2128, 45.8036], [43.2306, 45.8004], [43.2305, 45.804], [43.2366, 45.8036], [43.2375, 45.8078], [43.2327, 45.8095], [43.2481, 45.8149], [43.2772, 45.8133], [43.2777, 45.8196], [43.2965, 45.8188], [43.304, 45.8275], [43.3192, 45.8243], [43.3255, 45.8345], [43.3324, 45.8347], [43.333, 45.829], [43.3503, 45.8273], [43.3523, 45.697], [43.3008, 45.6963], [43.3014, 45.6734], [43.3151, 45.6768], [43.3303, 45.668], [43.3531, 45.6666], [43.3547, 45.5711]]]}}, {"type": "Feature", "properties": {"osm_type": "relation", "osm_id": 865906148, "name": "Trunovsky District", "admin_level": "6", "kind": "subdivision_2", "parent_osm_id": 108081, "parent_name": "Stavropol Krai", "parent_iso": "RU-STA"}, "geometry": {"type": "Polygon", "coordinates": [[[42.0969, 45.3468], [42.1479, 45.3455], [42.148, 45.3873], [42.243, 45.3874], [42.2433, 45.3824], [42.3333, 45.384], [42.3322, 45.42], [42.3831, 45.4209], [42.3788, 45.5583], [42.3737, 45.5593], [42.3723, 45.5731], [42.3645, 45.5789], [42.3615, 45.5897], [42.3452, 45.6003], [42.2353, 45.5983], [42.2341, 45.6394], [42.2507, 45.6391], [42.2506, 45.65], [42.1925, 45.6516], [42.1862, 45.6538], [42.1866, 45.6663], [42.1479, 45.6663], [42.148, 45.6617], [42.1427, 45.662], [42.1419, 45.6708], [42.1222, 45.6707], [42.1222, 45.7113], [42.1735, 45.7112], [42.1735, 45.7291], [42.1835, 45.729], [42.1836, 45.7471], [42.1735, 45.7472], [42.1735, 45.7651], [42.1994, 45.7652], [42.1994, 45.8022], [42.1222, 45.8025], [42.1223, 45.7922], [42.0865, 45.7924], [42.0865, 45.8013], [42.0326, 45.8013], [42.0327, 45.8193], [41.9936, 45.8194], [41.9981, 45.7527], [41.9874, 45.7503], [41.9349, 45.7584], [41.931, 45.7497], [41.9175, 45.7455], [41.9163, 45.7399], [41.9045, 45.7399], [41.9046, 45.7294], [41.8788, 45.7293], [41.8792, 45.69], [41.7381, 45.6928], [41.7386, 45.6008], [41.7494, 45.5985], [41.7506, 45.5904], [41.772, 45.5833], [41.777, 45.5751], [41.7935, 45.5737], [41.8291, 45.5804], [41.8279, 45.5645], [41.8162, 45.5638], [41.8123, 45.5594], [41.8155, 45.5542], [41.8016, 45.5468], [41.7972, 45.5384], [41.7904, 45.5395], [41.7892, 45.5106], [41.8005, 45.5106], [41.7999, 45.4988], [41.8146, 45.4925], [41.827, 45.4761], [41.8489, 45.4626], [41.8548, 45.4512], [41.8418, 45.4401], [41.8452, 45.4277], [41.8425, 45.418], [41.8499, 45.4114], [41.8465, 45.3979], [41.836, 45.3872], [41.8662, 45.3871], [41.8672, 45.3692], [42.0453, 45.3695], [42.0459, 45.3513], [42.0969, 45.3468]]]}}, {"type": "Feature", "properties": {"osm_type": "relation", "osm_id": 350116408, "name": "городской округ Лермонтов", "admin_level": "6", "kind": "subdivision_2", "parent_osm_id": 108081, "parent_name": "Stavropol Krai", "parent_iso": "RU-STA"}, "geometry": {"type": "Polygon", "coordinates": [[[42.9945, 44.0768], [43.0067, 44.0821], [43.0137, 44.0708], [43.0211, 44.0694], [43.0456, 44.0787], [43.0481, 44.0958], [43.0416, 44.0969], [43.0264, 44.1137], [42.9991, 44.1112], [42.9805, 44.127], [42.9664, 44.1257], [42.9664, 44.1216], [42.9428, 44.1227], [42.9358, 44.1154], [42.907, 44.1193], [42.9044, 44.1156], [42.9656, 44.0917], [42.9656, 44.0972], [42.9726, 44.0977], [42.9782, 44.0924], [42.9706, 44.0861], [42.9865, 44.087], [42.9945, 44.0768]]]}}, {"type": "Feature", "properties": {"osm_type": "relation", "osm_id": 875266431, "name": "Sovetsky District", "admin_level": "6", "kind": "subdivision_2", "parent_osm_id": 108081, "parent_name": "Stavropol Krai", "parent_iso": "RU-STA"}, "geometry": {"type": "Polygon", "coordinates": [[[43.7435, 44.5992], [43.7387, 44.5914], [43.6697, 44.6131], [43.6345, 44.5555], [43.6569, 44.5483], [43.6068, 44.4665], [43.6638, 44.4479], [43.6433, 44.4148], [43.6779, 44.4038], [43.668, 44.3875], [43.6581, 44.3896], [43.6568, 44.3669], [43.6936, 44.3414], [43.6951, 44.2711], [43.7061, 44.2677], [43.6949, 44.2536], [43.7083, 44.2525], [43.6923, 44.2503], [43.6711, 44.237], [43.6028, 44.2397], [43.6014, 44.2245], [43.6064, 44.2108], [43.6641, 44.1792], [43.6675, 44.183], [43.6937, 44.1772], [43.7192, 44.1635], [43.7334, 44.1775], [43.804, 44.1394], [43.8266, 44.1612], [43.852, 44.1481], [43.859, 44.1549], [43.8895, 44.1459], [43.8843, 44.141], [43.9141, 44.125], [43.8991, 44.1105], [44.0074, 44.0516], [44.0245, 44.0582], [44.0166, 44.0757], [44.0327, 44.0851], [44.0332, 44.0972], [44.0231, 44.103], [44.0209, 44.1103], [44.036, 44.119], [44.0304, 44.1293], [44.0363, 44.1425], [44.055, 44.1489], [44.0559, 44.1532], [44.2074, 44.153], [44.2062, 44.2345], [44.2113, 44.2471], [44.2065, 44.263], [44.2476, 44.2627], [44.2701, 44.2546], [44.2872, 44.2574], [44.2985, 44.2667], [44.299, 44.2711], [44.2847, 44.2844], [44.321, 44.2795], [44.3339, 44.2831], [44.3304, 44.2956], [44.3355, 44.2988], [44.3072, 44.3443], [44.2767, 44.3351], [44.2439, 44.3823], [44.2671, 44.3905], [44.2516, 44.4146], [44.25, 44.4291], [44.2072, 44.4539], [44.0941, 44.5081], [44.0566, 44.5187], [44.0206, 44.5138], [44.0177, 44.5067], [44.008, 44.5052], [43.9841, 44.5079], [43.9807, 44.5196], [43.9731, 44.522], [43.9784, 44.5249], [43.7435, 44.5992]]]}}, {"type": "Feature", "properties": {"osm_type": "relation", "osm_id": 472562365, "name": "Alexandrovsky District", "admin_level": "6", "kind": "subdivision_2", "parent_osm_id": 108081, "parent_name": "Stavropol Krai", "parent_iso": "RU-STA"}, "geometry": {"type": "Polygon", "coordinates": [[[42.842, 44.9507], [42.8427, 44.9238], [42.8048, 44.9234], [42.8049, 44.9142], [42.764, 44.9136], [42.7638, 44.9], [42.7435, 44.913], [42.722, 44.9083], [42.7155, 44.8799], [42.7049, 44.8745], [42.7093, 44.8706], [42.7013, 44.8664], [42.7048, 44.8632], [42.7009, 44.8584], [42.7092, 44.8576], [42.701, 44.8486], [42.7034, 44.8454], [42.6897, 44.8426], [42.6852, 44.8486], [42.6719, 44.8405], [42.6777, 44.8407], [42.6824, 44.8347], [42.6792, 44.8334], [42.6847, 44.8276], [42.6798, 44.8242], [42.6842, 44.8238], [42.6823, 44.8205], [42.6965, 44.8165], [42.7066, 44.821], [42.7151, 44.8147], [42.7213, 44.8157], [42.7132, 44.7959], [42.722, 44.7846], [42.7183, 44.7848], [42.7207, 44.7814], [42.7149, 44.7755], [42.7192, 44.7718], [42.7121, 44.7672], [42.7185, 44.7597], [42.709, 44.7567], [42.7123, 44.7551], [42.71, 44.7496], [42.7962, 44.7367], [42.7852, 44.7195], [42.7908, 44.713], [42.7849, 44.7111], [42.7843, 44.7033], [42.7144, 44.7241], [42.7047, 44.7075], [42.6869, 44.7126], [42.6828, 44.7075], [42.6671, 44.7133], [42.6542, 44.6914], [42.6796, 44.6924], [42.6766, 44.6903], [42.6826, 44.6866], [42.6762, 44.6871], [42.6792, 44.6815], [42.6754, 44.6787], [42.6938, 44.6714], [42.6867, 44.6543], [42.6931, 44.623], [42.764, 44.6007], [42.7525, 44.5812], [42.7969, 44.5636], [42.8259, 44.5596], [42.8287, 44.5555], [42.8699, 44.5456], [42.8935, 44.5433], [42.8979, 44.55], [42.9097, 44.5466], [42.9118, 44.5508], [42.9808, 44.5287], [42.9789, 44.5196], [42.9897, 44.5158], [43.0533, 44.5023], [43.0545, 44.493], [43.0877, 44.4981], [43.1159, 44.4945], [43.1308, 44.509], [43.1653, 44.5009], [43.1657, 44.4481], [43.2424, 44.4483], [43.242, 44.4754], [43.3658, 44.476], [43.3872, 44.5103], [43.3523, 44.5212], [43.3568, 44.5281], [43.3335, 44.5356], [43.3441, 44.5526], [43.3213, 44.5602], [43.3326, 44.5789], [43.321, 44.5826], [43.3274, 44.5929], [43.3158, 44.5966], [43.336, 44.6294], [43.3194, 44.6348], [43.3413, 44.6569], [43.3251, 44.6618], [43.3311, 44.6718], [43.1671, 44.7228], [43.1771, 44.7392], [43.1343, 44.7527], [43.1341, 44.7593], [43.1229, 44.773], [43.1869, 44.783], [43.2467, 44.8033], [43.2002, 44.8104], [43.1488, 44.7934], [43.1322, 44.794], [43.1206, 44.8135], [43.1002, 44.8062], [43.078, 44.8377], [43.1104, 44.8502], [43.1732, 44.9049], [43.1867, 44.8971], [43.2039, 44.9124], [43.1949, 44.9177], [43.2468, 44.9633], [43.2397, 44.9677], [43.2454, 44.9722], [43.2288, 44.9749], [43.2091, 44.9865], [43.2085, 44.9996], [43.1577, 44.9993], [43.158, 44.9903], [43.0184, 44.9888], [43.019, 44.9708], [42.9934, 44.9705], [42.9935, 44.9615], [42.932, 44.9608], [42.9308, 44.9517], [42.842, 44.9507]]]}}, {"type": "Feature", "properties": {"osm_type": "relation", "osm_id": 870709669, "name": "Shpakovsky District", "admin_level": "6", "kind": "subdivision_2", "parent_osm_id": 108081, "parent_name": "Stavropol Krai", "parent_iso": "RU-STA"}, "geometry": {"type": "Polygon", "coordinates": [[[42.3342, 44.7441], [42.4045, 44.7437], [42.4046, 44.7753], [42.3983, 44.7754], [42.3994, 44.9551], [42.286, 44.9553], [42.2861, 44.9809], [42.2903, 44.9859], [42.2552, 45.0111], [42.2425, 45.009], [42.209, 45.0331], [42.2076, 45.0402], [42.1712, 45.0794], [42.147, 45.0803], [42.147, 45.0924], [42.1353, 45.0933], [42.1338, 45.1007], [42.1729, 45.1082], [42.1648, 45.1076], [42.1535, 45.1255], [42.1317, 45.1244], [42.1389, 45.1364], [42.1825, 45.1489], [42.185, 45.1804], [42.1914, 45.1803], [42.1917, 45.1856], [42.2663, 45.1778], [42.3276, 45.1945], [42.3254, 45.2099], [42.3353, 45.2121], [42.3346, 45.2328], [42.3727, 45.2334], [42.3544, 45.2579], [42.3619, 45.2788], [42.3611, 45.2968], [42.3488, 45.3033], [42.3361, 45.3031], [42.3354, 45.2941], [42.2624, 45.2928], [42.2625, 45.3152], [42.2181, 45.3153], [42.2038, 45.331], [42.1619, 45.3333], [42.151, 45.3458], [42.0969, 45.3468], [42.0968, 45.3063], [42.0713, 45.3063], [42.0714, 45.2614], [41.9946, 45.2614], [41.9946, 45.2569], [41.9675, 45.2557], [41.9694, 45.2254], [41.9433, 45.2255], [41.9431, 45.2341], [41.8881, 45.2344], [41.907, 45.2196], [41.8889, 45.2212], [41.8824, 45.2026], [41.8835, 45.1896], [41.8725, 45.1916], [41.8108, 45.1765], [41.7286, 45.1968], [41.6714, 45.1938], [41.6704, 45.1617], [41.6955, 45.1567], [41.6952, 45.1351], [41.6835, 45.1403], [41.6822, 45.13], [41.658, 45.1302], [41.6574, 45.1032], [41.6701, 45.1031], [41.6693, 45.067], [41.6014, 45.0667], [41.5837, 45.077], [41.5045, 45.0778], [41.5047, 45.0868], [41.4285, 45.0875], [41.4279, 45.0605], [41.4084, 45.0605], [41.4226, 45.0266], [41.439, 45.0124], [41.4463, 44.9952], [41.4565, 44.9883], [41.6959, 44.9857], [41.6867, 44.9737], [41.6955, 44.9626], [41.6968, 44.9382], [41.7087, 44.9378], [41.728, 44.9266], [41.7275, 44.9042], [41.7406, 44.904], [41.7403, 44.896], [41.7741, 44.8961], [41.7812, 44.8883], [41.8254, 44.8685], [41.8379, 44.8795], [41.843, 44.8789], [41.8702, 44.8614], [41.8948, 44.8526], [41.9129, 44.8569], [41.9144, 44.8504], [41.9174, 44.8525], [41.9502, 44.8302], [41.9622, 44.8139], [41.9575, 44.8083], [41.9592, 44.7988], [41.9832, 44.7923], [41.9805, 44.7863], [41.9853, 44.7843], [42.0021, 44.7849], [41.9985, 44.7887], [42.0021, 44.7925], [41.9977, 44.7942], [42.003, 44.801], [41.9937, 44.8045], [41.9848, 44.8189], [42.0025, 44.8137], [42.0008, 44.803], [42.0154, 44.7915], [42.0105, 44.7861], [42.0146, 44.7766], [42.032, 44.7765], [42.0574, 44.7974], [42.0711, 44.801], [42.079, 44.7916], [42.084, 44.7713], [42.1402, 44.744], [42.1696, 44.7759], [42.2211, 44.7766], [42.2214, 44.7623], [42.2703, 44.7623], [42.2705, 44.7452], [42.3342, 44.7441]], [[41.6957, 45.0205], [41.6967, 45.0269], [41.7149, 45.0371], [41.717, 45.0443], [41.7377, 45.0642], [41.7425, 45.0763], [41.7542, 45.0848], [41.7957, 45.0773], [41.8024, 45.0731], [41.8096, 45.0522], [41.8271, 45.0562], [41.8214, 45.0614], [41.825, 45.0669], [41.8216, 45.077], [41.8405, 45.0764], [41.8436, 45.0801], [41.8495, 45.0695], [41.8465, 45.0605], [41.8325, 45.0614], [41.8392, 45.0495], [41.8332, 45.0418], [41.8401, 45.0353], [41.826, 45.0403], [41.8156, 45.0226], [41.8246, 45.0275], [41.822, 45.0307], [41.8267, 45.0276], [41.8252, 45.0226], [41.841, 45.0263], [41.8492, 45.0237], [41.8449, 45.0207], [41.8763, 45.0267], [41.8734, 45.0298], [41.8806, 45.0348], [41.8918, 45.0347], [41.8914, 45.0442], [41.8976, 45.0442], [41.8934, 45.0523], [41.899, 45.057], [41.896, 45.0588], [41.9228, 45.0709], [41.9271, 45.0823], [41.919, 45.0963], [41.9488, 45.0993], [41.9563, 45.113], [41.9678, 45.1128], [41.9718, 45.1055], [41.9824, 45.1067], [41.9824, 45.0955], [41.9886, 45.0925], [41.9721, 45.0849], [41.9911, 45.0809], [41.9948, 45.0763], [42.001, 45.0758], [42.0026, 45.0847], [42.0249, 45.0829], [42.0234, 45.0917], [42.0585, 45.0879], [42.0519, 45.0928], [42.053, 45.0971], [42.035, 45.1006], [42.0301, 45.1068], [42.0834, 45.0946], [42.0812, 45.0894], [42.0727, 45.0877], [42.0842, 45.0842], [42.0837, 45.074], [42.08, 45.0733], [42.092, 45.0576], [42.084, 45.0493], [42.0732, 45.0475], [42.0826, 45.0437], [42.0693, 45.0347], [42.0476, 45.0293], [42.0469, 45.0247], [42.0596, 45.0265], [42.0376, 45.0143], [42.0311, 44.9953], [42.0236, 45.0016], [42.0115, 44.9993], [42.0088, 44.9956], [42.023, 44.9936], [42.0206, 44.9891], [41.9875, 44.9983], [41.9839, 44.9877], [41.9673, 44.9876], [41.9632, 44.981], [41.979, 44.9756], [41.9633, 44.9753], [41.9645, 44.9703], [41.9582, 44.9772], [41.9511, 44.9698], [41.9469, 44.9717], [41.9526, 44.9775], [41.9451, 44.9791], [41.9455, 44.9752], [41.9389, 44.9739], [41.9396, 44.9799], [41.9313, 44.9787], [41.9307, 44.9748], [41.9236, 44.9812], [41.9199, 44.9803], [41.9208, 44.9685], [41.8923, 44.9732], [41.891, 44.9768], [41.9023, 44.9822], [41.9043, 44.9919], [41.9211, 44.9936], [41.8687, 45.0083], [41.8524, 45.0083], [41.8571, 45.0068], [41.8543, 45.002], [41.8258, 44.9902], [41.8133, 45.0026], [41.8032, 44.9984], [41.7924, 45.0116], [41.8031, 45.0154], [41.7982, 45.0301], [41.7712, 45.0184], [41.7705, 44.9927], [41.7585, 44.9902], [41.743, 44.9993], [41.7281, 44.9931], [41.71, 44.9972], [41.6983, 45.006], [41.6957, 45.0205]]]}}, {"type": "Feature", "properties": {"osm_type": "relation", "osm_id": 650979589, "name": "Georgiyevsk", "admin_level": "6", "kind": "subdivision_2", "parent_osm_id": 108081, "parent_name": "Stavropol Krai", "parent_iso": "RU-STA"}, "geometry": {"type": "Polygon", "coordinates": [[[43.4229, 44.1793], [43.4305, 44.1644], [43.4507, 44.1622], [43.4518, 44.1584], [43.4292, 44.1303], [43.4457, 44.1189], [43.4594, 44.1169], [43.4631, 44.123], [43.4726, 44.1214], [43.4736, 44.1321], [43.5013, 44.1599], [43.5058, 44.1597], [43.4514, 44.1788], [43.4477, 44.1888], [43.4319, 44.1924], [43.4229, 44.1793]]]}}]}