{"type": "FeatureCollection", "parent": {"osm_id": 109879, "name": "Kabardino-Balkaria", "admin_level": "4", "kind": "subdivision_1", "child_kind": "subdivision_2", "iso": "RU-KB"}, "features": [{"type": "Feature", "properties": {"osm_type": "relation", "osm_id": 561801162, "name": "Chegemsky District", "admin_level": "6", "kind": "subdivision_2", "parent_osm_id": 109879, "parent_name": "Kabardino-Balkaria", "parent_iso": "RU-KB"}, "geometry": {"type": "Polygon", "coordinates": [[[42.8603, 43.1786], [42.8775, 43.1697], [42.8744, 43.1627], [42.8811, 43.1535], [42.898, 43.1588], [42.9035, 43.1532], [42.9321, 43.1484], [42.9214, 43.1357], [42.9275, 43.1241], [42.9635, 43.1251], [43.0008, 43.1135], [43.0431, 43.088], [43.0558, 43.0889], [43.0891, 43.1095], [43.1002, 43.1258], [43.1124, 43.1283], [43.1194, 43.1368], [43.1319, 43.1375], [43.1372, 43.1527], [43.1435, 43.154], [43.1494, 43.1645], [43.1747, 43.1848], [43.1804, 43.2038], [43.1898, 43.2072], [43.2377, 43.2513], [43.2455, 43.262], [43.234, 43.2899], [43.2377, 43.3162], [43.2479, 43.3256], [43.2565, 43.3474], [43.271, 43.3476], [43.2767, 43.353], [43.3017, 43.3474], [43.3221, 43.3498], [43.3462, 43.3624], [43.4018, 43.3656], [43.4274, 43.3769], [43.44, 43.3952], [43.4526, 43.3979], [43.4795, 43.4184], [43.4793, 43.428], [43.5048, 43.4338], [43.5034, 43.4376], [43.5291, 43.4382], [43.5133, 43.4496], [43.5194, 43.4515], [43.5349, 43.4443], [43.5445, 43.4503], [43.5519, 43.4565], [43.5261, 43.4586], [43.5236, 43.4621], [43.5323, 43.4672], [43.5537, 43.4586], [43.5636, 43.4634], [43.5679, 43.468], [43.5599, 43.4764], [43.5405, 43.4808], [43.5453, 43.4851], [43.5427, 43.4878], [43.5293, 43.4861], [43.5216, 43.4732], [43.4949, 43.4727], [43.4945, 43.4818], [43.5071, 43.4951], [43.5134, 43.4955], [43.5224, 43.4876], [43.5326, 43.4911], [43.5278, 43.4945], [43.5392, 43.4954], [43.5394, 43.5011], [43.5332, 43.5001], [43.543, 43.5014], [43.5274, 43.5153], [43.5234, 43.512], [43.5282, 43.5114], [43.5198, 43.5102], [43.5224, 43.5193], [43.5132, 43.5191], [43.5194, 43.529], [43.5612, 43.513], [43.5834, 43.5215], [43.6082, 43.5216], [43.6087, 43.5274], [43.617, 43.524], [43.6338, 43.5269], [43.6483, 43.5368], [43.6795, 43.5472], [43.6875, 43.5354], [43.6833, 43.5333], [43.695, 43.5175], [43.7158, 43.5256], [43.7176, 43.5227], [43.7003, 43.5121], [43.694, 43.5161], [43.6768, 43.5095], [43.6811, 43.5018], [43.6724, 43.5025], [43.6573, 43.4925], [43.6629, 43.4846], [43.6782, 43.4857], [43.6914, 43.4748], [43.6862, 43.4744], [43.6929, 43.4713], [43.6961, 43.4755], [43.7107, 43.4674], [43.7258, 43.4742], [43.7336, 43.4916], [43.7434, 43.4905], [43.7373, 43.4988], [43.7602, 43.5118], [43.7601, 43.5268], [43.7521, 43.5344], [43.7645, 43.536], [43.7714, 43.5511], [43.8036, 43.5749], [43.8076, 43.583], [43.7662, 43.5732], [43.7436, 43.5579], [43.7323, 43.5774], [43.7569, 43.5868], [43.7465, 43.6093], [43.7544, 43.6153], [43.734, 43.6403], [43.7014, 43.6484], [43.6917, 43.6413], [43.693, 43.6292], [43.6708, 43.6306], [43.5693, 43.6044], [43.5654, 43.6127], [43.5175, 43.5983], [43.5128, 43.6033], [43.4718, 43.5892], [43.4435, 43.5936], [43.3958, 43.5781], [43.3638, 43.5583], [43.3514, 43.5717], [43.2929, 43.5667], [43.2976, 43.5559], [43.2811, 43.5479], [43.2842, 43.5536], [43.2791, 43.5556], [43.2633, 43.5442], [43.2677, 43.5398], [43.2502, 43.5149], [43.227, 43.5031], [43.2209, 43.4806], [43.2092, 43.4628], [43.2068, 43.4726], [43.1974, 43.4766], [43.188, 43.4749], [43.186, 43.4668], [43.1651, 43.4719], [43.1601, 43.4672], [43.1732, 43.448], [43.1715, 43.4443], [43.148, 43.4342], [43.0984, 43.4228], [43.11, 43.4089], [43.0422, 43.3816], [43.0324, 43.3722], [43.0207, 43.3746], [43.0274, 43.3688], [43.0226, 43.3588], [43.008, 43.3515], [43.0086, 43.345], [42.9951, 43.3319], [42.9881, 43.3016], [42.9784, 43.2941], [42.9565, 43.2973], [42.942, 43.2894], [42.9216, 43.2598], [42.8865, 43.2401], [42.881, 43.2206], [42.8885, 43.2158], [42.8647, 43.1992], [42.8752, 43.1876], [42.8603, 43.1786]]]}}, {"type": "Feature", "properties": {"osm_type": "relation", "osm_id": 205949367, "name": "Elbrussky District", "admin_level": "6", "kind": "subdivision_2", "parent_osm_id": 109879, "parent_name": "Kabardino-Balkaria", "parent_iso": "RU-KB"}, "geometry": {"type": "Polygon", "coordinates": [[[43.2633, 43.5442], [43.2439, 43.5225], [43.2385, 43.5259], [43.2424, 43.5605], [43.2364, 43.5766], [43.2194, 43.563], [43.2215, 43.5558], [43.2115, 43.5579], [43.2087, 43.5528], [43.2142, 43.5492], [43.2068, 43.5455], [43.1955, 43.544], [43.1993, 43.5496], [43.1782, 43.5577], [43.1761, 43.5615], [43.1827, 43.5745], [43.2096, 43.5773], [43.2198, 43.5899], [43.2057, 43.5916], [43.1851, 43.6393], [43.1635, 43.6374], [43.1571, 43.6297], [43.1294, 43.6302], [43.1061, 43.6193], [43.0863, 43.6198], [43.0782, 43.6104], [43.0517, 43.6205], [43.0194, 43.6503], [42.9845, 43.6382], [42.9496, 43.6583], [42.9395, 43.6438], [42.9499, 43.6289], [42.9294, 43.618], [42.9269, 43.6105], [42.8876, 43.6114], [42.8938, 43.6031], [42.8672, 43.5934], [42.8282, 43.5572], [42.8046, 43.5463], [42.7813, 43.5487], [42.724, 43.5094], [42.7166, 43.4884], [42.7089, 43.4805], [42.7079, 43.4627], [42.7283, 43.4479], [42.7186, 43.4351], [42.7246, 43.429], [42.7203, 43.4209], [42.7069, 43.4101], [42.7114, 43.397], [42.6747, 43.4013], [42.6363, 43.3944], [42.6238, 43.382], [42.6041, 43.3741], [42.5833, 43.3756], [42.5741, 43.3709], [42.5682, 43.3574], [42.5504, 43.3452], [42.4804, 43.3441], [42.4379, 43.3525], [42.4155, 43.3431], [42.4099, 43.3145], [42.3973, 43.2904], [42.416, 43.2747], [42.4138, 43.257], [42.4421, 43.2508], [42.4521, 43.2376], [42.4442, 43.2265], [42.4572, 43.2129], [42.51, 43.1991], [42.5433, 43.1766], [42.5964, 43.1714], [42.6019, 43.1627], [42.6156, 43.1646], [42.6665, 43.136], [42.6753, 43.1354], [42.6716, 43.1456], [42.6815, 43.159], [42.6816, 43.1699], [42.7, 43.1707], [42.7102, 43.1788], [42.7305, 43.1819], [42.7406, 43.1777], [42.7499, 43.1877], [42.788, 43.1856], [42.7955, 43.1808], [42.7969, 43.1732], [42.816, 43.1663], [42.8307, 43.1747], [42.8603, 43.1786], [42.8752, 43.1876], [42.8647, 43.1992], [42.8885, 43.2158], [42.881, 43.2206], [42.8865, 43.2401], [42.9216, 43.2598], [42.942, 43.2894], [42.9565, 43.2973], [42.9784, 43.2941], [42.9881, 43.3016], [42.9951, 43.3319], [43.0086, 43.345], [43.008, 43.3515], [43.0226, 43.3588], [43.0274, 43.3688], [43.0207, 43.3746], [43.0324, 43.3722], [43.0422, 43.3816], [43.11, 43.4089], [43.0984, 43.4228], [43.148, 43.4342], [43.1715, 43.4443], [43.1732, 43.448], [43.1601, 43.4672], [43.1651, 43.4719], [43.186, 43.4668], [43.188, 43.4749], [43.1974, 43.4766], [43.2068, 43.4726], [43.2092, 43.4628], [43.2209, 43.4806], [43.227, 43.5031], [43.2502, 43.5149], [43.2677, 43.5398], [43.2633, 43.5442]]]}}, {"type": "Feature", "properties": {"osm_type": "relation", "osm_id": 104151769, "name": "Zolsky District", "admin_level": "6", "kind": "subdivision_2", "parent_osm_id": 109879, "parent_name": "Kabardino-Balkaria", "parent_iso": "RU-KB"}, "geometry": {"type": "Polygon", "coordinates": [[[42.6783, 43.8097], [42.6686, 43.8032], [42.6666, 43.7924], [42.6796, 43.7368], [42.6814, 43.716], [42.6755, 43.6979], [42.6658, 43.7006], [42.6267, 43.6818], [42.6026, 43.6562], [42.4561, 43.6211], [42.4535, 43.6164], [42.4556, 43.6027], [42.4626, 43.5938], [42.4605, 43.5846], [42.4691, 43.5727], [42.4632, 43.5639], [42.4642, 43.5453], [42.4762, 43.522], [42.4671, 43.5065], [42.4579, 43.5008], [42.4589, 43.4913], [42.4515, 43.4824], [42.456, 43.472], [42.4515, 43.4629], [42.4571, 43.4543], [42.4563, 43.4434], [42.4217, 43.4368], [42.4191, 43.4302], [42.4243, 43.4222], [42.4102, 43.4132], [42.4177, 43.4048], [42.4028, 43.3928], [42.4038, 43.3827], [42.4184, 43.3618], [42.4379, 43.3525], [42.4804, 43.3441], [42.5336, 43.3432], [42.5544, 43.346], [42.5682, 43.3574], [42.5741, 43.3709], [42.5833, 43.3756], [42.6041, 43.3741], [42.6238, 43.382], [42.6363, 43.3944], [42.6747, 43.4013], [42.7114, 43.397], [42.7069, 43.4101], [42.7203, 43.4209], [42.7246, 43.429], [42.7186, 43.4351], [42.7283, 43.4479], [42.7079, 43.4627], [42.7089, 43.4805], [42.7166, 43.4884], [42.724, 43.5094], [42.7813, 43.5487], [42.8046, 43.5463], [42.8282, 43.5572], [42.8672, 43.5934], [42.8938, 43.6031], [42.8876, 43.6114], [42.9269, 43.6105], [42.9294, 43.618], [42.9499, 43.6289], [42.9395, 43.6438], [42.9496, 43.6583], [42.9845, 43.6382], [43.0194, 43.6503], [43.0517, 43.6205], [43.0782, 43.6104], [43.0863, 43.6198], [43.1061, 43.6193], [43.1294, 43.6302], [43.1423, 43.6297], [43.1554, 43.641], [43.1695, 43.6431], [43.2042, 43.6597], [43.2191, 43.6817], [43.2373, 43.6917], [43.2564, 43.7207], [43.2618, 43.7379], [43.2696, 43.7448], [43.3549, 43.7614], [43.3715, 43.7744], [43.3928, 43.7812], [43.4192, 43.8019], [43.3881, 43.8418], [43.3738, 43.8379], [43.3538, 43.8188], [43.3166, 43.7998], [43.3173, 43.8054], [43.3126, 43.804], [43.225, 43.959], [43.189, 43.9559], [43.1797, 43.9615], [43.1461, 43.9595], [43.1449, 43.948], [43.1565, 43.9396], [43.1434, 43.9308], [43.1401, 43.9228], [43.1477, 43.8951], [42.9814, 43.8989], [42.9544, 43.8899], [42.9185, 43.8653], [42.8661, 43.8677], [42.8718, 43.8478], [42.8544, 43.8405], [42.8547, 43.8019], [42.8172, 43.8014], [42.7322, 43.8193], [42.6783, 43.8097]]]}}, {"type": "Feature", "properties": {"osm_type": "relation", "osm_id": 731881889, "name": "Baksansky District", "admin_level": "6", "kind": "subdivision_2", "parent_osm_id": 109879, "parent_name": "Kabardino-Balkaria", "parent_iso": "RU-KB"}, "geometry": {"type": "MultiPolygon", "coordinates": [[[[43.4435, 43.5936], [43.4512, 43.6035], [43.4326, 43.6247], [43.4418, 43.6394], [43.4617, 43.6575], [43.4844, 43.6625], [43.4947, 43.6695], [43.4926, 43.6897], [43.4988, 43.6971], [43.5107, 43.7003], [43.5162, 43.7075], [43.5445, 43.7118], [43.5436, 43.7177], [43.5557, 43.7192], [43.5526, 43.737], [43.5248, 43.7189], [43.4988, 43.7454], [43.4817, 43.7556], [43.4511, 43.7486], [43.4444, 43.7629], [43.4927, 43.7789], [43.5158, 43.7818], [43.5344, 43.791], [43.5415, 43.763], [43.684, 43.7754], [43.6755, 43.8314], [43.6115, 43.8399], [43.5755, 43.8496], [43.5455, 43.8431], [43.5045, 43.8603], [43.4739, 43.8656], [43.4135, 43.8595], [43.4002, 43.8457], [43.3881, 43.8418], [43.4192, 43.8019], [43.4143, 43.7976], [43.3549, 43.7614], [43.2696, 43.7448], [43.2618, 43.7379], [43.2564, 43.7207], [43.2373, 43.6917], [43.2191, 43.6817], [43.2042, 43.6597], [43.1695, 43.6431], [43.1554, 43.641], [43.1461, 43.632], [43.1571, 43.6297], [43.1635, 43.6374], [43.1851, 43.6393], [43.2057, 43.5916], [43.2198, 43.5899], [43.2096, 43.5773], [43.1827, 43.5745], [43.1761, 43.5615], [43.1993, 43.5496], [43.1955, 43.544], [43.2068, 43.5455], [43.2142, 43.5492], [43.2087, 43.5528], [43.2115, 43.5579], [43.2215, 43.5558], [43.2194, 43.563], [43.2364, 43.5766], [43.2424, 43.5605], [43.2385, 43.5259], [43.2439, 43.5225], [43.2791, 43.5556], [43.2842, 43.5536], [43.2811, 43.5479], [43.2976, 43.5559], [43.2929, 43.5667], [43.3514, 43.5717], [43.3638, 43.5583], [43.3958, 43.5781], [43.4435, 43.5936]]], [[[43.7544, 43.6153], [43.7766, 43.6147], [43.8083, 43.6343], [43.8256, 43.6314], [43.8349, 43.6358], [43.8349, 43.6532], [43.8315, 43.6646], [43.785, 43.6561], [43.7349, 43.66], [43.7294, 43.7044], [43.7586, 43.709], [43.7513, 43.7256], [43.7447, 43.7245], [43.7351, 43.7315], [43.7506, 43.7411], [43.7315, 43.7425], [43.724, 43.7488], [43.7012, 43.7479], [43.6664, 43.7334], [43.5975, 43.7159], [43.5947, 43.6837], [43.6126, 43.6844], [43.6108, 43.6682], [43.5985, 43.6532], [43.5695, 43.6465], [43.567, 43.6396], [43.5548, 43.6339], [43.5693, 43.6044], [43.6708, 43.6306], [43.693, 43.6292], [43.6917, 43.6413], [43.7014, 43.6484], [43.734, 43.6403], [43.7544, 43.6153]]]]}}, {"type": "Feature", "properties": {"osm_type": "relation", "osm_id": 260547052, "name": "Maysky District", "admin_level": "6", "kind": "subdivision_2", "parent_osm_id": 109879, "parent_name": "Kabardino-Balkaria", "parent_iso": "RU-KB"}, "geometry": {"type": "Polygon", "coordinates": [[[44.1432, 43.4372], [44.1308, 43.4488], [44.0813, 43.4742], [44.0681, 43.496], [44.0736, 43.5087], [44.0763, 43.575], [44.0869, 43.5804], [44.0894, 43.5886], [44.0752, 43.5981], [44.0713, 43.6089], [44.0931, 43.6318], [44.1029, 43.6527], [44.1467, 43.679], [44.1535, 43.6906], [44.1857, 43.7086], [44.1947, 43.707], [44.2181, 43.7154], [44.2342, 43.7294], [44.2743, 43.726], [44.2734, 43.7368], [44.259, 43.7354], [44.2429, 43.7477], [44.2359, 43.7376], [44.231, 43.7455], [44.2075, 43.7517], [44.1978, 43.7599], [44.1719, 43.7642], [44.1628, 43.752], [44.1496, 43.7563], [44.1374, 43.7467], [44.1311, 43.7491], [44.1308, 43.7551], [44.1155, 43.748], [44.1052, 43.7536], [44.101, 43.7499], [44.0864, 43.7522], [44.0859, 43.7395], [44.0756, 43.737], [44.078, 43.7154], [44.0485, 43.7179], [44.0461, 43.715], [44.0551, 43.7022], [44.0456, 43.6955], [44.0413, 43.6993], [44.038, 43.6912], [44.0194, 43.6998], [44.018, 43.6945], [44.0027, 43.6936], [44.0046, 43.686], [43.9994, 43.6831], [43.9704, 43.6812], [43.9632, 43.6731], [43.9289, 43.6717], [43.9161, 43.6584], [43.8792, 43.643], [43.8818, 43.632], [43.8728, 43.6251], [43.8839, 43.6209], [43.8848, 43.6116], [43.905, 43.5963], [43.9388, 43.6108], [43.9505, 43.6009], [44.0078, 43.6202], [44.0293, 43.6185], [44.0168, 43.5755], [44.0074, 43.569], [43.9887, 43.5381], [43.9718, 43.5328], [44.0119, 43.4833], [43.9961, 43.4473], [44.0231, 43.4332], [44.0135, 43.4216], [44.0369, 43.4166], [44.0337, 43.403], [44.0403, 43.394], [44.0659, 43.3805], [44.1038, 43.4161], [44.1083, 43.4269], [44.1057, 43.4311], [44.1432, 43.4372]]]}}, {"type": "Feature", "properties": {"osm_type": "relation", "osm_id": 152030323, "name": "Prokhladny", "admin_level": "6", "kind": "subdivision_2", "parent_osm_id": 109879, "parent_name": "Kabardino-Balkaria", "parent_iso": "RU-KB"}, "geometry": {"type": "Polygon", "coordinates": [[[44.0864, 43.7522], [44.1018, 43.7541], [44.092, 43.7625], [44.0938, 43.771], [44.0674, 43.7704], [44.0579, 43.765], [44.019, 43.7702], [44.0189, 43.7755], [43.9898, 43.78], [43.9428, 43.798], [43.9723, 43.7848], [43.976, 43.7775], [43.9676, 43.7683], [43.9528, 43.7661], [43.969, 43.7573], [43.9499, 43.7556], [43.9734, 43.7552], [43.9777, 43.7446], [43.9909, 43.753], [44.0111, 43.7532], [44.0236, 43.7452], [44.0268, 43.7477], [44.0262, 43.7382], [44.0339, 43.7375], [44.0358, 43.7455], [44.0441, 43.7435], [44.0633, 43.7324], [44.0485, 43.7179], [44.078, 43.7154], [44.0756, 43.737], [44.0859, 43.7395], [44.0864, 43.7522]]]}}, {"type": "Feature", "properties": {"osm_type": "relation", "osm_id": 703214563, "name": "Tersky District", "admin_level": "6", "kind": "subdivision_2", "parent_osm_id": 109879, "parent_name": "Kabardino-Balkaria", "parent_iso": "RU-KB"}, "geometry": {"type": "Polygon", "coordinates": [[[44.4422, 43.4277], [44.4139, 43.4527], [44.4343, 43.4883], [44.448, 43.4976], [44.4406, 43.5078], [44.4445, 43.5427], [44.4754, 43.5829], [44.435, 43.6069], [44.4401, 43.6179], [44.4347, 43.6456], [44.4264, 43.6573], [44.4308, 43.663], [44.4269, 43.6858], [44.4108, 43.684], [44.4017, 43.6909], [44.3742, 43.693], [44.3586, 43.6805], [44.3385, 43.6835], [44.3333, 43.6767], [44.3265, 43.6812], [44.319, 43.6791], [44.2972, 43.6895], [44.2894, 43.7097], [44.2816, 43.7111], [44.2743, 43.726], [44.2342, 43.7294], [44.2181, 43.7154], [44.1947, 43.707], [44.1857, 43.7086], [44.1535, 43.6906], [44.1467, 43.679], [44.1029, 43.6527], [44.0931, 43.6318], [44.0713, 43.6089], [44.0752, 43.5981], [44.0894, 43.5886], [44.0869, 43.5804], [44.0763, 43.575], [44.0736, 43.5087], [44.0681, 43.496], [44.0813, 43.4742], [44.1463, 43.4377], [44.1563, 43.4163], [44.1656, 43.4115], [44.1703, 43.4012], [44.1749, 43.3486], [44.3204, 43.4496], [44.3389, 43.4375], [44.3441, 43.4179], [44.3558, 43.4085], [44.3553, 43.3924], [44.3815, 43.3965], [44.3841, 43.403], [44.4422, 43.4277]]]}}, {"type": "Feature", "properties": {"osm_type": "relation", "osm_id": 960340621, "name": "Urvansky District", "admin_level": "6", "kind": "subdivision_2", "parent_osm_id": 109879, "parent_name": "Kabardino-Balkaria", "parent_iso": "RU-KB"}, "geometry": {"type": "Polygon", "coordinates": [[[43.7434, 43.4905], [43.7422, 43.478], [43.7548, 43.4783], [43.772, 43.4542], [43.7778, 43.4421], [43.7785, 43.4246], [43.7565, 43.4101], [43.7597, 43.3969], [43.7165, 43.3493], [43.7267, 43.3495], [43.7419, 43.3393], [43.749, 43.3209], [43.7662, 43.3206], [43.7981, 43.3045], [43.7996, 43.318], [43.8125, 43.3424], [43.8561, 43.3813], [43.8489, 43.3861], [43.8767, 43.4112], [43.8648, 43.4265], [43.9298, 43.4552], [43.9115, 43.4772], [43.9921, 43.506], [43.9718, 43.5328], [43.9887, 43.5381], [44.0074, 43.569], [44.0168, 43.5755], [44.0293, 43.6185], [44.0078, 43.6202], [43.9505, 43.6009], [43.9388, 43.6108], [43.905, 43.5963], [43.8848, 43.6116], [43.8839, 43.6209], [43.8728, 43.6251], [43.8818, 43.632], [43.8792, 43.643], [43.8256, 43.6314], [43.8083, 43.6343], [43.7766, 43.6147], [43.7544, 43.6153], [43.7465, 43.6093], [43.7569, 43.5868], [43.7323, 43.5774], [43.7436, 43.5579], [43.7662, 43.5732], [43.8076, 43.583], [43.8036, 43.5749], [43.7714, 43.5511], [43.7645, 43.536], [43.7521, 43.5344], [43.7601, 43.5268], [43.7602, 43.5118], [43.7373, 43.4988], [43.7434, 43.4905]]]}}, {"type": "Feature", "properties": {"osm_type": "relation", "osm_id": 715046888, "name": "городской округ Баксан", "admin_level": "6", "kind": "subdivision_2", "parent_osm_id": 109879, "parent_name": "Kabardino-Balkaria", "parent_iso": "RU-KB"}, "geometry": {"type": "Polygon", "coordinates": [[[43.5654, 43.6127], [43.5548, 43.6339], [43.567, 43.6396], [43.5695, 43.6465], [43.5985, 43.6532], [43.6108, 43.6682], [43.6126, 43.6844], [43.5947, 43.6837], [43.5975, 43.7159], [43.6415, 43.7301], [43.6345, 43.771], [43.5415, 43.763], [43.5344, 43.791], [43.5158, 43.7818], [43.4927, 43.7789], [43.4444, 43.7629], [43.4511, 43.7486], [43.4817, 43.7556], [43.4988, 43.7454], [43.5248, 43.7189], [43.5526, 43.737], [43.5557, 43.7192], [43.5436, 43.7177], [43.5445, 43.7118], [43.5162, 43.7075], [43.5107, 43.7003], [43.4988, 43.6971], [43.4926, 43.6897], [43.4947, 43.6695], [43.4844, 43.6625], [43.4617, 43.6575], [43.4418, 43.6394], [43.4326, 43.6247], [43.4512, 43.6035], [43.4435, 43.5936], [43.4718, 43.5892], [43.5128, 43.6033], [43.5175, 43.5983], [43.5654, 43.6127]]]}}, {"type": "Feature", "properties": {"osm_type": "relation", "osm_id": 953381963, "name": "Prokhladnensky District", "admin_level": "6", "kind": "subdivision_2", "parent_osm_id": 109879, "parent_name": "Kabardino-Balkaria", "parent_iso": "RU-KB"}, "geometry": {"type": "Polygon", "coordinates": [[[43.6345, 43.771], [43.6415, 43.7301], [43.6664, 43.7334], [43.7012, 43.7479], [43.724, 43.7488], [43.7315, 43.7425], [43.7506, 43.7411], [43.7351, 43.7315], [43.7447, 43.7245], [43.7513, 43.7256], [43.7586, 43.709], [43.7294, 43.7044], [43.7349, 43.66], [43.785, 43.6561], [43.8315, 43.6646], [43.8349, 43.6358], [43.8676, 43.6385], [43.898, 43.6498], [43.9161, 43.6584], [43.9289, 43.6717], [43.9632, 43.6731], [43.9704, 43.6812], [43.9899, 43.6798], [44.0046, 43.686], [44.0027, 43.6936], [44.018, 43.6945], [44.0194, 43.6998], [44.0323, 43.6907], [44.038, 43.6912], [44.0413, 43.6993], [44.0456, 43.6955], [44.0551, 43.7022], [44.0461, 43.715], [44.0633, 43.7324], [44.0441, 43.7435], [44.0358, 43.7455], [44.0339, 43.7375], [44.0262, 43.7382], [44.0268, 43.7477], [44.0236, 43.7452], [44.0111, 43.7532], [43.9909, 43.753], [43.9777, 43.7446], [43.9734, 43.7552], [43.9499, 43.7556], [43.969, 43.7573], [43.9528, 43.7661], [43.9676, 43.7683], [43.976, 43.7775], [43.9723, 43.7848], [43.9436, 43.8001], [43.9898, 43.78], [44.0189, 43.7755], [44.019, 43.7702], [44.0579, 43.765], [44.0674, 43.7704], [44.0938, 43.771], [44.092, 43.7625], [44.1018, 43.7541], [44.0864, 43.7522], [44.0955, 43.7499], [44.1052, 43.7536], [44.1155, 43.748], [44.1308, 43.7551], [44.1311, 43.7491], [44.1374, 43.7467], [44.1496, 43.7563], [44.1628, 43.752], [44.1719, 43.7642], [44.1978, 43.7599], [44.2075, 43.7517], [44.231, 43.7455], [44.2359, 43.7376], [44.2429, 43.7477], [44.259, 43.7354], [44.2734, 43.7368], [44.2674, 43.7453], [44.268, 43.8109], [44.2925, 43.8097], [44.2932, 43.8912], [44.319, 43.8934], [44.3436, 43.9044], [44.3438, 43.9458], [44.4189, 43.9455], [44.4194, 44.0165], [44.4131, 44.0172], [44.4127, 44.0112], [44.3692, 44.0046], [44.3688, 43.9726], [44.3185, 43.973], [44.3184, 43.9639], [44.269, 43.964], [44.2686, 43.9182], [44.2253, 43.9185], [44.2248, 43.9282], [44.1439, 43.9285], [44.144, 43.9702], [43.9873, 43.9707], [43.9872, 43.9863], [43.9447, 43.9864], [43.9445, 44.0098], [43.932, 44.0099], [43.9321, 44.0183], [43.9222, 44.0203], [43.9076, 44.0107], [43.8961, 44.0103], [43.8766, 43.9914], [43.863, 43.9876], [43.8579, 43.9602], [43.8197, 43.9598], [43.7705, 43.9275], [43.7705, 43.8745], [43.7559, 43.8529], [43.7503, 43.8536], [43.7552, 43.8431], [43.7464, 43.8308], [43.7449, 43.8195], [43.7353, 43.8234], [43.7327, 43.8184], [43.712, 43.8303], [43.6755, 43.8314], [43.684, 43.7754], [43.6345, 43.771]]]}}, {"type": "Feature", "properties": {"osm_type": "relation", "osm_id": 457923889, "name": "городской округ Нальчик", "admin_level": "6", "kind": "subdivision_2", "parent_osm_id": 109879, "parent_name": "Kabardino-Balkaria", "parent_iso": "RU-KB"}, "geometry": {"type": "Polygon", "coordinates": [[[43.4823, 43.4237], [43.5037, 43.428], [43.503, 43.4185], [43.5081, 43.418], [43.5097, 43.4221], [43.5231, 43.4199], [43.5562, 43.4293], [43.5569, 43.4149], [43.5442, 43.4116], [43.5483, 43.4101], [43.5466, 43.4068], [43.54, 43.4047], [43.5607, 43.4113], [43.5569, 43.4056], [43.5655, 43.4049], [43.5644, 43.3985], [43.5975, 43.3845], [43.6037, 43.3878], [43.6062, 43.3959], [43.6004, 43.4038], [43.609, 43.4139], [43.5999, 43.4217], [43.5838, 43.4193], [43.5832, 43.4276], [43.5791, 43.4283], [43.5841, 43.4425], [43.5992, 43.4539], [43.6232, 43.4497], [43.628, 43.4382], [43.6359, 43.4477], [43.6444, 43.4375], [43.6567, 43.4394], [43.6554, 43.4485], [43.6785, 43.4614], [43.6792, 43.4685], [43.6914, 43.4748], [43.6782, 43.4857], [43.6629, 43.4846], [43.6579, 43.4942], [43.6724, 43.5025], [43.6811, 43.5018], [43.6768, 43.5095], [43.694, 43.5161], [43.7003, 43.5121], [43.7176, 43.5227], [43.7158, 43.5256], [43.695, 43.5175], [43.6833, 43.5333], [43.6875, 43.5354], [43.6795, 43.5472], [43.6483, 43.5368], [43.6338, 43.5269], [43.617, 43.524], [43.6087, 43.5274], [43.6082, 43.5216], [43.5834, 43.5215], [43.5612, 43.513], [43.5194, 43.529], [43.5132, 43.5191], [43.5224, 43.5193], [43.5198, 43.5102], [43.5282, 43.5114], [43.5234, 43.512], [43.5274, 43.5153], [43.543, 43.5014], [43.5332, 43.5001], [43.5394, 43.5011], [43.5392, 43.4954], [43.5278, 43.4945], [43.5326, 43.4911], [43.5224, 43.4876], [43.5134, 43.4955], [43.5071, 43.4951], [43.4945, 43.4818], [43.4949, 43.4727], [43.5216, 43.4732], [43.5293, 43.4861], [43.5427, 43.4878], [43.5453, 43.4851], [43.5405, 43.4808], [43.5599, 43.4764], [43.5679, 43.468], [43.5537, 43.4586], [43.5323, 43.4672], [43.5231, 43.4596], [43.5519, 43.4565], [43.5349, 43.4443], [43.5194, 43.4515], [43.5133, 43.4496], [43.5291, 43.4382], [43.5034, 43.4376], [43.5048, 43.4338], [43.4793, 43.428], [43.4823, 43.4237]]]}}, {"type": "Feature", "properties": {"osm_type": "relation", "osm_id": 419777107, "name": "Chereksky District", "admin_level": "6", "kind": "subdivision_2", "parent_osm_id": 109879, "parent_name": "Kabardino-Balkaria", "parent_iso": "RU-KB"}, "geometry": {"type": "Polygon", "coordinates": [[[43.6862, 43.4744], [43.6792, 43.4685], [43.6785, 43.4614], [43.6554, 43.4485], [43.6567, 43.4394], [43.6444, 43.4375], [43.6359, 43.4477], [43.628, 43.4382], [43.6232, 43.4497], [43.5992, 43.4539], [43.5883, 43.4469], [43.5803, 43.4366], [43.5838, 43.4193], [43.5999, 43.4217], [43.609, 43.4139], [43.6004, 43.4038], [43.6062, 43.3959], [43.6037, 43.3878], [43.5975, 43.3845], [43.5644, 43.3985], [43.5655, 43.4049], [43.5569, 43.4056], [43.5607, 43.4113], [43.54, 43.4047], [43.5466, 43.4068], [43.5483, 43.4101], [43.5442, 43.4116], [43.5569, 43.4149], [43.5562, 43.4293], [43.5231, 43.4199], [43.5097, 43.4221], [43.5081, 43.418], [43.503, 43.4185], [43.5037, 43.428], [43.4953, 43.4273], [43.4823, 43.4237], [43.4526, 43.3979], [43.44, 43.3952], [43.4274, 43.3769], [43.4018, 43.3656], [43.3462, 43.3624], [43.3221, 43.3498], [43.3017, 43.3474], [43.2767, 43.353], [43.271, 43.3476], [43.2565, 43.3474], [43.2479, 43.3256], [43.2377, 43.3162], [43.234, 43.2899], [43.2455, 43.262], [43.2172, 43.2302], [43.1804, 43.2038], [43.1747, 43.1848], [43.1494, 43.1645], [43.1435, 43.154], [43.1372, 43.1527], [43.1319, 43.1375], [43.1194, 43.1368], [43.1124, 43.1283], [43.1002, 43.1258], [43.0891, 43.1095], [43.0558, 43.0889], [43.0286, 43.0815], [43.0156, 43.0711], [43.0275, 43.0528], [43.0258, 43.048], [43.0387, 43.0387], [43.035, 43.0299], [43.0436, 43.0288], [43.0509, 43.0192], [43.0696, 43.0139], [43.0717, 43.0078], [43.0785, 43.0077], [43.0867, 42.9997], [43.1128, 43.0003], [43.117, 42.9913], [43.1333, 42.9851], [43.1327, 42.9805], [43.1415, 42.9765], [43.1437, 42.9693], [43.1732, 42.9628], [43.1852, 42.9465], [43.1863, 42.9376], [43.2049, 42.9305], [43.2332, 42.9307], [43.2383, 42.9242], [43.2907, 42.918], [43.3004, 42.9073], [43.3175, 42.9148], [43.3344, 42.8993], [43.3348, 42.8901], [43.365, 42.8907], [43.3882, 42.899], [43.3985, 42.8969], [43.4138, 42.9206], [43.4267, 42.927], [43.4251, 42.9482], [43.443, 42.9694], [43.4689, 42.9607], [43.5121, 42.9609], [43.5326, 42.9447], [43.5715, 42.9429], [43.5782, 42.9612], [43.5936, 42.9679], [43.594, 42.9775], [43.6116, 42.9907], [43.6226, 43.0107], [43.6178, 43.0251], [43.6099, 43.0308], [43.612, 43.0413], [43.6351, 43.0494], [43.6476, 43.0694], [43.63, 43.0863], [43.6254, 43.103], [43.6094, 43.0958], [43.5827, 43.0925], [43.5835, 43.1007], [43.5955, 43.1065], [43.5984, 43.1135], [43.5951, 43.1355], [43.6003, 43.1463], [43.6109, 43.1546], [43.6229, 43.1798], [43.6611, 43.2087], [43.6717, 43.2089], [43.741, 43.2414], [43.7751, 43.2692], [43.7981, 43.3045], [43.7662, 43.3206], [43.749, 43.3209], [43.7419, 43.3393], [43.7267, 43.3495], [43.7165, 43.3493], [43.7597, 43.3969], [43.7565, 43.4101], [43.7785, 43.4246], [43.7778, 43.4421], [43.772, 43.4542], [43.7548, 43.4783], [43.7422, 43.478], [43.7434, 43.4905], [43.7388, 43.4929], [43.7336, 43.4916], [43.7223, 43.4709], [43.7107, 43.4674], [43.6961, 43.4755], [43.6929, 43.4713], [43.6862, 43.4744]]]}}]}