{"type": "FeatureCollection", "parent": {"osm_id": 1305166, "name": "Meta", "admin_level": "4", "kind": "subdivision_1", "child_kind": "subdivision_2", "iso": "CO-MET"}, "features": [{"type": "Feature", "properties": {"osm_type": "relation", "osm_id": 695618702, "name": "Acacías", "admin_level": "6", "kind": "subdivision_2", "parent_osm_id": 1305166, "parent_name": "Meta", "parent_iso": "CO-MET"}, "geometry": {"type": "Polygon", "coordinates": [[[-73.9334, 4.1488], [-73.9555, 4.0999], [-73.9669, 4.0907], [-73.9736, 4.0931], [-73.9797, 4.1093], [-73.9915, 4.1028], [-74.0013, 4.1032], [-74.0052, 4.1101], [-74.0163, 4.0978], [-74.0242, 4.0992], [-74.0302, 4.0843], [-74.0359, 4.0824], [-74.0371, 4.0716], [-74.0334, 4.0679], [-74.0286, 4.0774], [-74.0188, 4.0763], [-73.9625, 4.0274], [-73.9619, 4.0088], [-73.9675, 4.0006], [-73.9614, 3.9927], [-73.9524, 3.9929], [-73.9457, 3.9859], [-73.9127, 3.9941], [-73.9017, 3.9905], [-73.8972, 3.9837], [-73.8766, 3.9826], [-73.8582, 3.9537], [-73.8311, 3.9525], [-73.801, 3.9264], [-73.7745, 3.9313], [-73.7553, 3.9254], [-73.7511, 3.9283], [-73.7454, 3.9237], [-73.7362, 3.9255], [-73.7028, 3.9117], [-73.6955, 3.9008], [-73.6387, 3.8693], [-73.589, 3.8622], [-73.5885, 3.8739], [-73.5828, 3.8731], [-73.583, 3.8769], [-73.5723, 3.8709], [-73.56, 3.8755], [-73.5531, 3.8705], [-73.5538, 3.8748], [-73.5483, 3.8753], [-73.5406, 3.8633], [-73.5289, 3.8633], [-73.5168, 3.8476], [-73.5063, 3.8479], [-73.4986, 3.8424], [-73.4914, 3.8463], [-73.4847, 3.8441], [-73.4829, 3.8479], [-73.4792, 3.8445], [-73.4715, 3.8487], [-73.4688, 3.8448], [-73.4579, 3.855], [-73.4588, 3.8687], [-73.4523, 3.8699], [-73.4506, 3.8754], [-73.4418, 3.875], [-73.4463, 3.8843], [-73.4428, 3.9086], [-73.4315, 3.9388], [-73.4309, 3.9524], [-73.4161, 3.9839], [-73.4489, 3.988], [-73.4821, 3.9983], [-73.5091, 3.9994], [-73.5771, 4.0177], [-73.6257, 4.0184], [-73.6695, 4.0291], [-73.7501, 4.0326], [-73.7642, 4.0464], [-73.768, 4.0632], [-73.7614, 4.0738], [-73.7661, 4.1173], [-73.7251, 4.1381], [-73.7098, 4.1632], [-73.7122, 4.1837], [-73.7326, 4.2031], [-73.7544, 4.1928], [-73.7901, 4.2007], [-73.8046, 4.1975], [-73.8094, 4.2039], [-73.8151, 4.1995], [-73.8259, 4.1683], [-73.8405, 4.1773], [-73.8609, 4.1718], [-73.8711, 4.1678], [-73.8794, 4.1547], [-73.8958, 4.1426], [-73.9136, 4.1488], [-73.925, 4.1433], [-73.9334, 4.1488]]]}}, {"type": "Feature", "properties": {"osm_type": "relation", "osm_id": 499299135, "name": "Barranca De Upia", "admin_level": "6", "kind": "subdivision_2", "parent_osm_id": 1305166, "parent_name": "Meta", "parent_iso": "CO-MET"}, "geometry": {"type": "Polygon", "coordinates": [[[-73.0918, 4.4752], [-73.0893, 4.4608], [-73.0789, 4.4647], [-73.0802, 4.4571], [-73.0718, 4.4567], [-73.0735, 4.4613], [-73.0679, 4.4663], [-73.0575, 4.4595], [-73.0492, 4.467], [-73.0519, 4.4612], [-73.0444, 4.457], [-73.0405, 4.4602], [-73.0166, 4.442], [-73.0138, 4.4444], [-73.003, 4.4369], [-72.9933, 4.4385], [-72.9863, 4.4287], [-72.9752, 4.4238], [-72.9784, 4.4062], [-72.973, 4.4], [-72.9552, 4.3979], [-72.9496, 4.389], [-72.9472, 4.3933], [-72.9454, 4.3894], [-72.9373, 4.3905], [-72.9369, 4.3821], [-72.9303, 4.3826], [-72.9291, 4.3715], [-72.9249, 4.3715], [-72.9248, 4.3779], [-72.9221, 4.3711], [-72.9141, 4.3733], [-72.9149, 4.3628], [-72.921, 4.3615], [-72.9155, 4.3614], [-72.9176, 4.3581], [-72.9131, 4.3547], [-72.9091, 4.3707], [-72.914, 4.3799], [-72.9117, 4.3834], [-72.9178, 4.3851], [-72.9208, 4.403], [-72.9272, 4.4073], [-72.9227, 4.4229], [-72.9301, 4.4325], [-72.843, 4.433], [-72.8524, 4.4504], [-72.8612, 4.454], [-72.8702, 4.4507], [-72.8763, 4.4623], [-72.8968, 4.4747], [-72.9027, 4.4962], [-72.9234, 4.5204], [-72.9379, 4.5227], [-72.939, 4.5335], [-72.9525, 4.5507], [-72.9502, 4.5609], [-72.9617, 4.5707], [-72.968, 4.5992], [-72.9774, 4.6101], [-72.9969, 4.617], [-73.0071, 4.632], [-73.0169, 4.6356], [-73.0169, 4.6474], [-73.028, 4.6539], [-73.0542, 4.7019], [-73.0479, 4.728], [-73.0526, 4.7363], [-73.0918, 4.4752]]]}}, {"type": "Feature", "properties": {"osm_type": "relation", "osm_id": 596322047, "name": "Cabuyaro", "admin_level": "6", "kind": "subdivision_2", "parent_osm_id": 1305166, "parent_name": "Meta", "parent_iso": "CO-MET"}, "geometry": {"type": "Polygon", "coordinates": [[[-73.1249, 4.257], [-73.1124, 4.2529], [-73.1091, 4.2434], [-73.0949, 4.2405], [-73.0824, 4.2523], [-73.063, 4.2482], [-73.0613, 4.2419], [-73.0726, 4.2392], [-73.0767, 4.2326], [-73.0576, 4.226], [-73.0581, 4.2202], [-73.0667, 4.2135], [-73.0645, 4.2076], [-73.0559, 4.2066], [-73.0511, 4.2162], [-73.0456, 4.2136], [-73.0506, 4.1934], [-73.0376, 4.1837], [-73.0451, 4.1718], [-73.0254, 4.1798], [-73.0264, 4.1607], [-73.0136, 4.1637], [-73.015, 4.1863], [-73.0108, 4.1902], [-72.9833, 4.1606], [-72.9668, 4.1587], [-72.9514, 4.1504], [-72.9363, 4.1606], [-72.9262, 4.1536], [-72.9079, 4.1973], [-72.8872, 4.2034], [-72.8783, 4.198], [-72.8745, 4.2017], [-72.884, 4.2438], [-72.8765, 4.2459], [-72.8701, 4.2337], [-72.8616, 4.2376], [-72.8562, 4.2507], [-72.8654, 4.2604], [-72.8643, 4.2686], [-72.8577, 4.27], [-72.8461, 4.261], [-72.8465, 4.2506], [-72.8397, 4.2429], [-72.8345, 4.246], [-72.8382, 4.2581], [-72.8353, 4.2638], [-72.8173, 4.2597], [-72.8086, 4.2488], [-72.8008, 4.2504], [-72.8022, 4.276], [-72.7949, 4.2809], [-72.7759, 4.2631], [-72.7661, 4.2617], [-72.7579, 4.2668], [-72.7461, 4.3051], [-72.7398, 4.3097], [-72.7393, 4.3206], [-72.7419, 4.3258], [-72.7703, 4.3343], [-72.7639, 4.3488], [-72.7738, 4.346], [-72.779, 4.3497], [-72.7787, 4.3558], [-72.7667, 4.3573], [-72.7694, 4.367], [-72.8003, 4.3776], [-72.7874, 4.3946], [-72.7933, 4.3992], [-72.8051, 4.396], [-72.8081, 4.408], [-72.8245, 4.4164], [-72.8242, 4.4203], [-72.8124, 4.4235], [-72.8135, 4.4298], [-72.9301, 4.4325], [-72.9227, 4.4229], [-72.9272, 4.4073], [-72.9208, 4.403], [-72.9178, 4.3851], [-72.9117, 4.3834], [-72.914, 4.3799], [-72.9091, 4.3707], [-72.9131, 4.3547], [-72.9176, 4.3581], [-72.9155, 4.3614], [-72.921, 4.3615], [-72.9149, 4.3628], [-72.9141, 4.3733], [-72.9221, 4.3711], [-72.9248, 4.3779], [-72.9249, 4.3715], [-72.9291, 4.3715], [-72.9303, 4.3826], [-72.9369, 4.3821], [-72.9373, 4.3905], [-72.9454, 4.3894], [-72.9472, 4.3933], [-72.9496, 4.389], [-72.9552, 4.3979], [-72.973, 4.4], [-72.9784, 4.4062], [-72.9752, 4.4238], [-72.9863, 4.4287], [-72.9933, 4.4385], [-73.003, 4.4369], [-73.0138, 4.4444], [-73.0166, 4.442], [-73.0405, 4.4602], [-73.0444, 4.457], [-73.0519, 4.4612], [-73.0492, 4.467], [-73.0575, 4.4595], [-73.0679, 4.4663], [-73.0735, 4.4613], [-73.0718, 4.4567], [-73.0802, 4.4571], [-73.0789, 4.4647], [-73.0893, 4.4608], [-73.0918, 4.4752], [-73.1249, 4.257]]]}}, {"type": "Feature", "properties": {"osm_type": "relation", "osm_id": 154162301, "name": "Castilla La Nueva", "admin_level": "6", "kind": "subdivision_2", "parent_osm_id": 1305166, "parent_name": "Meta", "parent_iso": "CO-MET"}, "geometry": {"type": "Polygon", "coordinates": [[[-73.7285, 3.9208], [-73.7315, 3.9038], [-73.7239, 3.8969], [-73.7173, 3.8972], [-73.712, 3.8846], [-73.7421, 3.8483], [-73.7346, 3.8432], [-73.7338, 3.8334], [-73.713, 3.7983], [-73.6646, 3.7864], [-73.6547, 3.7782], [-73.6367, 3.7764], [-73.6288, 3.7686], [-73.6171, 3.7725], [-73.6073, 3.7694], [-73.5888, 3.7569], [-73.5679, 3.7607], [-73.5647, 3.7519], [-73.545, 3.7419], [-73.5403, 3.7325], [-73.5203, 3.73], [-73.5173, 3.7248], [-73.4901, 3.7304], [-73.4815, 3.7225], [-73.4531, 3.7289], [-73.4502, 3.7224], [-73.4442, 3.7279], [-73.443, 3.7227], [-73.4268, 3.7157], [-73.4229, 3.7193], [-73.404, 3.7185], [-73.4024, 3.7115], [-73.3904, 3.7056], [-73.3826, 3.7104], [-73.3801, 3.7067], [-73.3574, 3.7104], [-73.3892, 3.8661], [-73.3963, 3.8555], [-73.4189, 3.8584], [-73.4142, 3.8525], [-73.4231, 3.8428], [-73.4338, 3.8498], [-73.4552, 3.8529], [-73.4548, 3.8561], [-73.4688, 3.8448], [-73.4715, 3.8487], [-73.4792, 3.8445], [-73.4829, 3.8479], [-73.4847, 3.8441], [-73.4914, 3.8463], [-73.4986, 3.8424], [-73.5063, 3.8479], [-73.5168, 3.8476], [-73.5289, 3.8633], [-73.5406, 3.8633], [-73.5483, 3.8753], [-73.5538, 3.8748], [-73.5531, 3.8705], [-73.56, 3.8755], [-73.5723, 3.8709], [-73.583, 3.8769], [-73.5828, 3.8731], [-73.5885, 3.8739], [-73.589, 3.8622], [-73.6387, 3.8693], [-73.6955, 3.9008], [-73.7085, 3.915], [-73.7285, 3.9208]]]}}, {"type": "Feature", "properties": {"osm_type": "relation", "osm_id": 680553805, "name": "Cubarral", "admin_level": "6", "kind": "subdivision_2", "parent_osm_id": 1305166, "parent_name": "Meta", "parent_iso": "CO-MET"}, "geometry": {"type": "Polygon", "coordinates": [[[-73.7496, 3.8113], [-73.7977, 3.84], [-73.8115, 3.8535], [-73.8166, 3.8678], [-73.8291, 3.8684], [-73.8562, 3.891], [-73.8831, 3.8838], [-73.973, 3.8965], [-73.9896, 3.9031], [-74.1295, 3.9256], [-74.1587, 3.9345], [-74.189, 3.974], [-74.2004, 3.994], [-74.2024, 4.0141], [-74.2063, 4.0144], [-74.2174, 4.0109], [-74.2297, 3.9934], [-74.2443, 3.9544], [-74.2512, 3.9477], [-74.2598, 3.9488], [-74.2564, 3.9279], [-74.2736, 3.9249], [-74.2781, 3.9072], [-74.2975, 3.8833], [-74.3103, 3.8884], [-74.317, 3.8808], [-74.3041, 3.8512], [-74.3071, 3.8403], [-74.299, 3.8386], [-74.2943, 3.8317], [-74.2966, 3.8189], [-74.3168, 3.8152], [-74.3183, 3.8236], [-74.3263, 3.8267], [-74.3358, 3.8215], [-74.3369, 3.811], [-74.3536, 3.8071], [-74.3524, 3.7997], [-74.3633, 3.7861], [-74.3766, 3.7837], [-74.3776, 3.7773], [-74.3939, 3.7699], [-74.3872, 3.7527], [-74.3988, 3.7514], [-74.3979, 3.7451], [-74.3874, 3.742], [-74.3733, 3.7268], [-74.3719, 3.7156], [-74.3607, 3.7193], [-74.3467, 3.7137], [-74.3307, 3.72], [-74.2993, 3.7214], [-74.2955, 3.7167], [-74.2357, 3.76], [-74.2352, 3.7867], [-74.2406, 3.7948], [-74.2325, 3.8066], [-74.218, 3.8055], [-74.2156, 3.7997], [-74.2028, 3.7973], [-74.1919, 3.7746], [-74.1703, 3.7855], [-74.1576, 3.7868], [-74.1487, 3.7854], [-74.1291, 3.7709], [-74.0914, 3.78], [-74.0795, 3.7584], [-74.0705, 3.7585], [-74.0467, 3.741], [-74.0485, 3.7291], [-74.0435, 3.7141], [-74.0044, 3.7043], [-73.9721, 3.7191], [-73.9728, 3.7419], [-73.9644, 3.7465], [-73.9331, 3.7514], [-73.9175, 3.7481], [-73.8887, 3.7313], [-73.8759, 3.7397], [-73.8714, 3.7548], [-73.8408, 3.7677], [-73.795, 3.7386], [-73.7876, 3.724], [-73.7757, 3.7426], [-73.7652, 3.7478], [-73.7665, 3.7576], [-73.7605, 3.7661], [-73.7383, 3.7606], [-73.727, 3.7634], [-73.7259, 3.7707], [-73.7352, 3.7909], [-73.7496, 3.8113]]]}}, {"type": "Feature", "properties": {"osm_type": "relation", "osm_id": 449884081, "name": "Cumaral", "admin_level": "6", "kind": "subdivision_2", "parent_osm_id": 1305166, "parent_name": "Meta", "parent_iso": "CO-MET"}, "geometry": {"type": "Polygon", "coordinates": [[[-73.5715, 4.3734], [-73.5745, 4.3203], [-73.5648, 4.3101], [-73.5659, 4.2947], [-73.5565, 4.292], [-73.5449, 4.2666], [-73.5223, 4.2742], [-73.5134, 4.2583], [-73.5027, 4.2514], [-73.4895, 4.2269], [-73.4679, 4.2072], [-73.4668, 4.201], [-73.4471, 4.1888], [-73.4414, 4.1769], [-73.4436, 4.1714], [-73.4366, 4.17], [-73.4253, 4.1558], [-73.4084, 4.1586], [-73.3963, 4.1494], [-73.3825, 4.1468], [-73.3607, 4.1532], [-73.3403, 4.1491], [-73.3349, 4.1553], [-73.2889, 4.1562], [-73.2638, 4.1706], [-73.2515, 4.168], [-73.2342, 4.183], [-73.2092, 4.1782], [-73.2023, 4.1841], [-73.2022, 4.1788], [-73.196, 4.176], [-73.1838, 4.1806], [-73.1735, 4.1765], [-73.1574, 4.184], [-73.154, 4.1813], [-73.1547, 4.1867], [-73.149, 4.189], [-73.151, 4.1829], [-73.145, 4.1763], [-73.1227, 4.1771], [-73.1223, 4.168], [-73.1115, 4.1687], [-73.1074, 4.1623], [-73.0995, 4.1675], [-73.0912, 4.1646], [-73.0813, 4.1722], [-73.0819, 4.1784], [-73.0741, 4.176], [-73.072, 4.1799], [-73.0777, 4.181], [-73.0772, 4.1858], [-73.0685, 4.1858], [-73.0671, 4.18], [-73.0578, 4.1851], [-73.0568, 4.1772], [-73.0391, 4.1792], [-73.0396, 4.1868], [-73.0506, 4.1934], [-73.0456, 4.2136], [-73.0511, 4.2162], [-73.0559, 4.2066], [-73.0645, 4.2076], [-73.0667, 4.2135], [-73.0581, 4.2202], [-73.0576, 4.226], [-73.0767, 4.2326], [-73.0726, 4.2392], [-73.0613, 4.2419], [-73.063, 4.2482], [-73.0824, 4.2523], [-73.0949, 4.2405], [-73.1091, 4.2434], [-73.1124, 4.2529], [-73.1249, 4.257], [-73.139, 4.2124], [-73.1401, 4.2191], [-73.1488, 4.2179], [-73.1445, 4.2229], [-73.1471, 4.228], [-73.1507, 4.2214], [-73.1557, 4.2307], [-73.1697, 4.2374], [-73.1707, 4.2467], [-73.1774, 4.244], [-73.1845, 4.2569], [-73.1911, 4.257], [-73.1923, 4.2641], [-73.2028, 4.2728], [-73.2605, 4.2938], [-73.2677, 4.2906], [-73.2823, 4.2981], [-73.3226, 4.3048], [-73.3536, 4.3212], [-73.4019, 4.3158], [-73.4311, 4.3059], [-73.4418, 4.291], [-73.4549, 4.2881], [-73.4606, 4.28], [-73.4717, 4.2762], [-73.484, 4.2856], [-73.4976, 4.2838], [-73.5211, 4.2924], [-73.551, 4.3082], [-73.5531, 4.349], [-73.5715, 4.3734]]]}}, {"type": "Feature", "properties": {"osm_type": "relation", "osm_id": 638659429, "name": "El Calvario", "admin_level": "6", "kind": "subdivision_2", "parent_osm_id": 1305166, "parent_name": "Meta", "parent_iso": "CO-MET"}, "geometry": {"type": "Polygon", "coordinates": [[[-73.7641, 4.2812], [-73.7497, 4.285], [-73.7242, 4.279], [-73.7137, 4.2849], [-73.7054, 4.2775], [-73.6932, 4.2885], [-73.6874, 4.2799], [-73.6657, 4.2802], [-73.6553, 4.2724], [-73.6562, 4.2866], [-73.6278, 4.2865], [-73.62, 4.3163], [-73.5997, 4.3433], [-73.6324, 4.3966], [-73.6512, 4.3892], [-73.6606, 4.3796], [-73.6593, 4.3741], [-73.6682, 4.3588], [-73.686, 4.3804], [-73.6866, 4.4062], [-73.737, 4.4154], [-73.7432, 4.4261], [-73.7453, 4.4553], [-73.7558, 4.4622], [-73.7642, 4.4498], [-73.7806, 4.4494], [-73.7925, 4.4411], [-73.807, 4.4222], [-73.8116, 4.4018], [-73.8015, 4.384], [-73.7927, 4.3811], [-73.7955, 4.3628], [-73.784, 4.3327], [-73.7843, 4.3017], [-73.7729, 4.2969], [-73.7641, 4.2812]]]}}, {"type": "Feature", "properties": {"osm_type": "relation", "osm_id": 623395620, "name": "El Castillo", "admin_level": "6", "kind": "subdivision_2", "parent_osm_id": 1305166, "parent_name": "Meta", "parent_iso": "CO-MET"}, "geometry": {"type": "Polygon", "coordinates": [[[-74.0435, 3.7141], [-74.0454, 3.7024], [-74.0297, 3.6822], [-74.0383, 3.6675], [-74.0271, 3.6504], [-74.0244, 3.6319], [-74.0283, 3.6203], [-74.0157, 3.6211], [-74.0111, 3.613], [-74.0048, 3.6118], [-73.994, 3.5893], [-73.9775, 3.5831], [-73.9743, 3.5731], [-73.959, 3.5606], [-73.9525, 3.5425], [-73.9584, 3.5308], [-73.9543, 3.5246], [-73.95, 3.5294], [-73.944, 3.5269], [-73.9411, 3.5349], [-73.9286, 3.5236], [-73.9189, 3.5242], [-73.8867, 3.5082], [-73.81, 3.5021], [-73.7634, 3.5186], [-73.747, 3.5173], [-73.7433, 3.5725], [-73.7481, 3.6258], [-73.7651, 3.6586], [-73.8119, 3.6577], [-73.8207, 3.6505], [-73.8363, 3.6722], [-73.8728, 3.6767], [-73.8993, 3.6987], [-73.9028, 3.7145], [-73.8922, 3.7156], [-73.8887, 3.7313], [-73.9175, 3.7481], [-73.9331, 3.7514], [-73.9728, 3.7419], [-73.9721, 3.7191], [-73.996, 3.7069], [-74.0044, 3.7043], [-74.0435, 3.7141]]]}}, {"type": "Feature", "properties": {"osm_type": "relation", "osm_id": 376229572, "name": "El Dorado", "admin_level": "6", "kind": "subdivision_2", "parent_osm_id": 1305166, "parent_name": "Meta", "parent_iso": "CO-MET"}, "geometry": {"type": "Polygon", "coordinates": [[[-73.8887, 3.7313], [-73.8922, 3.7156], [-73.9028, 3.7145], [-73.8993, 3.6987], [-73.8728, 3.6767], [-73.8363, 3.6722], [-73.8207, 3.6505], [-73.8119, 3.6577], [-73.7651, 3.6586], [-73.7678, 3.6817], [-73.795, 3.7386], [-73.8408, 3.7677], [-73.8714, 3.7548], [-73.8759, 3.7397], [-73.8887, 3.7313]]]}}, {"type": "Feature", "properties": {"osm_type": "relation", "osm_id": 142533294, "name": "Fuente De Oro", "admin_level": "6", "kind": "subdivision_2", "parent_osm_id": 1305166, "parent_name": "Meta", "parent_iso": "CO-MET"}, "geometry": {"type": "Polygon", "coordinates": [[[-73.4234, 3.3456], [-73.434, 3.3796], [-73.446, 3.3864], [-73.4545, 3.385], [-73.4568, 3.3978], [-73.4675, 3.4089], [-73.4827, 3.4145], [-73.5166, 3.4055], [-73.5233, 3.413], [-73.5304, 3.4134], [-73.5307, 3.4224], [-73.5342, 3.4205], [-73.5355, 3.4274], [-73.5523, 3.4405], [-73.5562, 3.4496], [-73.5735, 3.4504], [-73.573, 3.4626], [-73.5821, 3.4799], [-73.5893, 3.4778], [-73.5865, 3.4816], [-73.5953, 3.5059], [-73.6168, 3.5259], [-73.6245, 3.5431], [-73.643, 3.551], [-73.6461, 3.5448], [-73.641, 3.5422], [-73.6456, 3.5367], [-73.6415, 3.5335], [-73.6426, 3.5222], [-73.6501, 3.5113], [-73.6657, 3.511], [-73.6816, 3.4888], [-73.682, 3.4806], [-73.6878, 3.4752], [-73.6827, 3.4624], [-73.7064, 3.4447], [-73.7065, 3.4328], [-73.7142, 3.4339], [-73.7164, 3.4277], [-73.7234, 3.4273], [-73.7217, 3.4226], [-73.7307, 3.4205], [-73.723, 3.4156], [-73.7344, 3.397], [-73.735, 3.3818], [-73.7463, 3.3609], [-73.6977, 3.3229], [-73.6787, 3.3187], [-73.6739, 3.3126], [-73.6522, 3.3107], [-73.6406, 3.2941], [-73.6244, 3.2885], [-73.6294, 3.2755], [-73.6226, 3.2776], [-73.5885, 3.2582], [-73.5821, 3.2497], [-73.5844, 3.2397], [-73.5793, 3.233], [-73.5652, 3.232], [-73.5595, 3.2376], [-73.5476, 3.2309], [-73.547, 3.2537], [-73.5548, 3.2691], [-73.5934, 3.2849], [-73.599, 3.2907], [-73.5986, 3.3009], [-73.5609, 3.3014], [-73.5302, 3.2929], [-73.5168, 3.3091], [-73.5014, 3.3131], [-73.5046, 3.3162], [-73.4992, 3.3188], [-73.4985, 3.3253], [-73.4889, 3.3193], [-73.473, 3.3223], [-73.471, 3.3171], [-73.4651, 3.318], [-73.459, 3.3029], [-73.4477, 3.3008], [-73.4426, 3.3091], [-73.433, 3.3095], [-73.4234, 3.3456]]]}}, {"type": "Feature", "properties": {"osm_type": "relation", "osm_id": 697380528, "name": "Granada", "admin_level": "6", "kind": "subdivision_2", "parent_osm_id": 1305166, "parent_name": "Meta", "parent_iso": "CO-MET"}, "geometry": {"type": "Polygon", "coordinates": [[[-73.8813, 3.508], [-73.8681, 3.4984], [-73.8678, 3.4712], [-73.859, 3.471], [-73.8667, 3.446], [-73.8551, 3.4448], [-73.8558, 3.4282], [-73.8344, 3.4201], [-73.8231, 3.4232], [-73.7972, 3.4174], [-73.7869, 3.4076], [-73.7966, 3.403], [-73.7954, 3.3967], [-73.759, 3.364], [-73.7463, 3.3609], [-73.735, 3.3818], [-73.7344, 3.397], [-73.723, 3.4156], [-73.7307, 3.4205], [-73.7217, 3.4226], [-73.7234, 3.4273], [-73.7164, 3.4277], [-73.7142, 3.4339], [-73.7065, 3.4328], [-73.7064, 3.4447], [-73.6827, 3.4624], [-73.6878, 3.4752], [-73.682, 3.4806], [-73.6816, 3.4888], [-73.6657, 3.511], [-73.6501, 3.5113], [-73.6426, 3.5222], [-73.644, 3.5613], [-73.6541, 3.5685], [-73.656, 3.5788], [-73.6651, 3.5875], [-73.6722, 3.5857], [-73.6796, 3.5941], [-73.6999, 3.6413], [-73.7121, 3.6461], [-73.7472, 3.6187], [-73.7433, 3.5725], [-73.747, 3.5173], [-73.7634, 3.5186], [-73.8049, 3.5024], [-73.8813, 3.508]]]}}, {"type": "Feature", "properties": {"osm_type": "relation", "osm_id": 950013244, "name": "Guamal", "admin_level": "6", "kind": "subdivision_2", "parent_osm_id": 1305166, "parent_name": "Meta", "parent_iso": "CO-MET"}, "geometry": {"type": "Polygon", "coordinates": [[[-74.1507, 4.0048], [-74.1603, 4.0178], [-74.1756, 4.018], [-74.1839, 4.0088], [-74.1955, 4.0165], [-74.2024, 4.0141], [-74.2004, 3.994], [-74.1587, 3.9345], [-74.1295, 3.9256], [-73.9896, 3.9031], [-73.973, 3.8965], [-73.8831, 3.8838], [-73.8562, 3.891], [-73.8291, 3.8684], [-73.8166, 3.8678], [-73.8115, 3.8535], [-73.7977, 3.84], [-73.776, 3.8299], [-73.7582, 3.8148], [-73.7437, 3.808], [-73.7191, 3.8054], [-73.7346, 3.8432], [-73.7421, 3.8483], [-73.712, 3.8846], [-73.7173, 3.8972], [-73.7239, 3.8969], [-73.7315, 3.9038], [-73.7285, 3.9208], [-73.7745, 3.9313], [-73.801, 3.9264], [-73.8311, 3.9525], [-73.8582, 3.9537], [-73.8766, 3.9826], [-73.8972, 3.9837], [-73.9017, 3.9905], [-73.9127, 3.9941], [-73.9457, 3.9859], [-73.9524, 3.9929], [-73.9614, 3.9927], [-73.9675, 4.0006], [-73.9619, 4.0088], [-73.9625, 4.0274], [-74.0188, 4.0763], [-74.0286, 4.0774], [-74.0353, 4.0607], [-74.0477, 4.0652], [-74.0611, 4.0559], [-74.0641, 4.0614], [-74.0707, 4.0577], [-74.0814, 4.0352], [-74.0988, 4.0191], [-74.0997, 4.0131], [-74.1239, 4.0091], [-74.1234, 4.0014], [-74.1286, 4.0001], [-74.1507, 4.0048]]]}}, {"type": "Feature", "properties": {"osm_type": "relation", "osm_id": 434715245, "name": "Mesetas", "admin_level": "6", "kind": "subdivision_2", "parent_osm_id": 1305166, "parent_name": "Meta", "parent_iso": "CO-MET"}, "geometry": {"type": "Polygon", "coordinates": [[[-74.0515, 3.455], [-74.0681, 3.4636], [-74.072, 3.4749], [-74.1245, 3.4728], [-74.1326, 3.4801], [-74.1223, 3.4996], [-74.1365, 3.5296], [-74.1346, 3.5564], [-74.1389, 3.561], [-74.1601, 3.5605], [-74.1683, 3.5557], [-74.1773, 3.5664], [-74.187, 3.557], [-74.1874, 3.5446], [-74.2108, 3.5301], [-74.2214, 3.5281], [-74.2299, 3.5321], [-74.2253, 3.5672], [-74.243, 3.5974], [-74.2321, 3.6218], [-74.2357, 3.629], [-74.2321, 3.6373], [-74.2518, 3.6446], [-74.2558, 3.6341], [-74.2654, 3.627], [-74.2641, 3.6204], [-74.2701, 3.6152], [-74.2754, 3.5958], [-74.2532, 3.5593], [-74.2613, 3.549], [-74.268, 3.5264], [-74.2792, 3.5154], [-74.2787, 3.487], [-74.2876, 3.4781], [-74.2994, 3.4519], [-74.2924, 3.4264], [-74.2808, 3.4135], [-74.2914, 3.3933], [-74.2859, 3.3844], [-74.2886, 3.3697], [-74.2852, 3.3621], [-74.3015, 3.342], [-74.2888, 3.2963], [-74.2744, 3.2814], [-74.2735, 3.2709], [-74.2687, 3.2695], [-74.2708, 3.2615], [-74.2646, 3.2393], [-74.2678, 3.2214], [-74.2593, 3.2087], [-74.2664, 3.1894], [-74.2453, 3.1463], [-74.2435, 3.0988], [-74.2278, 3.0787], [-74.2204, 3.0392], [-74.2209, 3.0125], [-74.1932, 2.9532], [-74.1932, 2.9436], [-74.1867, 2.938], [-74.1892, 2.9307], [-74.1759, 2.917], [-74.1747, 2.8962], [-74.185, 2.8752], [-74.1834, 2.8545], [-74.1805, 2.8483], [-74.1649, 2.8438], [-74.1472, 2.8273], [-74.1458, 2.8191], [-74.1377, 2.8161], [-74.1329, 2.7989], [-74.1251, 2.7939], [-74.1218, 2.7774], [-74.1039, 2.7686], [-74.0968, 2.7487], [-74.0793, 2.7366], [-74.0791, 2.7271], [-74.0633, 2.7195], [-74.0676, 2.7123], [-74.0631, 2.7029], [-74.0695, 2.6946], [-74.0667, 2.6888], [-74.0525, 2.6844], [-74.055, 2.6791], [-74.0497, 2.6742], [-74.0554, 2.6744], [-74.0572, 2.6657], [-74.0484, 2.6651], [-74.0406, 2.6557], [-74.0477, 2.653], [-74.0436, 2.6401], [-74.0533, 2.64], [-74.0496, 2.63], [-74.0334, 2.6265], [-74.032, 2.6177], [-74.0273, 2.625], [-74.0239, 2.6128], [-74.017, 2.6092], [-74.0189, 2.6032], [-74.0113, 2.6006], [-74.0067, 2.6064], [-74.0026, 2.5971], [-74.0036, 2.6074], [-73.9968, 2.6043], [-73.9932, 2.5942], [-73.9962, 2.5867], [-73.9858, 2.5825], [-73.9831, 2.5737], [-73.9721, 2.5701], [-73.9718, 2.5808], [-73.9636, 2.5904], [-73.967, 2.5915], [-73.9632, 2.5961], [-73.9672, 2.6098], [-73.9581, 2.6215], [-73.9653, 2.6453], [-73.9537, 2.643], [-73.9507, 2.6541], [-73.9594, 2.6589], [-73.9556, 2.6641], [-73.9634, 2.6647], [-73.9607, 2.6768], [-73.9686, 2.6782], [-73.9605, 2.6908], [-73.9631, 2.6968], [-73.9688, 2.6966], [-73.9716, 2.7048], [-73.9757, 2.7018], [-73.9773, 2.7093], [-73.9884, 2.7081], [-73.9892, 2.7042], [-74.004, 2.7128], [-73.9791, 2.7346], [-73.972, 2.733], [-73.9696, 2.7392], [-73.9758, 2.7464], [-73.9756, 2.7698], [-73.9831, 2.7701], [-73.9869, 2.7761], [-73.9778, 2.7897], [-73.9825, 2.7952], [-74.005, 2.7981], [-74.0076, 2.8131], [-74.0214, 2.8137], [-74.0206, 2.8216], [-74.0284, 2.8214], [-74.0252, 2.8276], [-74.0383, 2.824], [-74.0419, 2.8313], [-74.0445, 2.8239], [-74.049, 2.8266], [-74.0484, 2.833], [-74.0533, 2.8282], [-74.0507, 2.8317], [-74.0581, 2.8396], [-74.0507, 2.8461], [-74.0582, 2.8438], [-74.0548, 2.8524], [-74.0582, 2.8607], [-74.0511, 2.8619], [-74.0493, 2.8688], [-74.0416, 2.8672], [-74.0361, 2.8783], [-74.0405, 2.8845], [-74.0327, 2.8862], [-74.0323, 2.8968], [-74.0261, 2.9039], [-74.0161, 2.906], [-74.0199, 2.9081], [-74.0153, 2.9084], [-74.0155, 2.9196], [-74.0071, 2.9273], [-74.0125, 2.9298], [-74.0134, 2.9455], [-74.0009, 2.9518], [-73.9919, 2.9699], [-73.9943, 2.9772], [-74.0066, 2.9836], [-74.0012, 2.9954], [-74.0076, 3.0163], [-73.998, 3.0272], [-74.0004, 3.034], [-73.9955, 3.0427], [-74.0564, 3.2149], [-74.0411, 3.245], [-74.0135, 3.2426], [-74.014, 3.2252], [-74.0121, 3.2282], [-74.0051, 3.224], [-74.0109, 3.222], [-74.0113, 3.2163], [-74.0063, 3.2184], [-74.0057, 3.21], [-74.0018, 3.215], [-73.9988, 3.213], [-73.9998, 3.2072], [-73.9808, 3.2302], [-73.9793, 3.2412], [-73.9883, 3.2462], [-73.9746, 3.27], [-73.9794, 3.2762], [-73.9829, 3.3014], [-73.965, 3.3266], [-73.9607, 3.3407], [-73.9985, 3.3532], [-74.0013, 3.3666], [-74.0132, 3.3851], [-74.008, 3.4002], [-74.0184, 3.4332], [-74.0371, 3.4516], [-74.0515, 3.455]]]}}, {"type": "Feature", "properties": {"osm_type": "relation", "osm_id": 561117993, "name": "Uribe", "admin_level": "6", "kind": "subdivision_2", "parent_osm_id": 1305166, "parent_name": "Meta", "parent_iso": "CO-MET"}, "geometry": {"type": "Polygon", "coordinates": [[[-74.8992, 2.9641], [-74.8782, 2.9443], [-74.8787, 2.9142], [-74.8466, 2.9144], [-74.8357, 2.909], [-74.8299, 2.9193], [-74.7981, 2.9361], [-74.7898, 2.9263], [-74.7941, 2.9137], [-74.7818, 2.9006], [-74.7789, 2.8831], [-74.7678, 2.8723], [-74.7362, 2.8804], [-74.726, 2.8789], [-74.7201, 2.8855], [-74.6945, 2.8924], [-74.6713, 2.8878], [-74.6735, 2.8782], [-74.6665, 2.8695], [-74.6694, 2.8618], [-74.6614, 2.8407], [-74.6724, 2.8312], [-74.6664, 2.8246], [-74.6667, 2.8053], [-74.6571, 2.8041], [-74.6542, 2.7835], [-74.6438, 2.7691], [-74.6425, 2.7551], [-74.6244, 2.7553], [-74.6192, 2.7505], [-74.629, 2.737], [-74.6269, 2.7219], [-74.6387, 2.7027], [-74.635, 2.6985], [-74.6194, 2.6974], [-74.6148, 2.6857], [-74.5955, 2.6789], [-74.5888, 2.67], [-74.5996, 2.636], [-74.5935, 2.6369], [-74.5683, 2.6176], [-74.5688, 2.6067], [-74.5598, 2.5934], [-74.5451, 2.5834], [-74.5312, 2.5832], [-74.516, 2.5235], [-74.5068, 2.5222], [-74.499, 2.5081], [-74.4897, 2.5088], [-74.4914, 2.518], [-74.4755, 2.5201], [-74.4741, 2.5276], [-74.4659, 2.5341], [-74.4487, 2.5289], [-74.4426, 2.5359], [-74.4337, 2.5343], [-74.4, 2.5527], [-74.3848, 2.5551], [-74.3742, 2.5431], [-74.3625, 2.5439], [-74.3589, 2.5493], [-74.3485, 2.5465], [-74.3417, 2.5536], [-74.3064, 2.5505], [-74.297, 2.5575], [-74.282, 2.5599], [-74.2727, 2.5683], [-74.2601, 2.5471], [-74.251, 2.55], [-74.2429, 2.5457], [-74.2368, 2.5617], [-74.2272, 2.558], [-74.2186, 2.5643], [-74.2063, 2.5567], [-74.199, 2.5616], [-74.2028, 2.568], [-74.1986, 2.57], [-74.1867, 2.5692], [-74.1718, 2.5594], [-74.1543, 2.5656], [-74.1359, 2.556], [-74.1146, 2.5656], [-74.0956, 2.5506], [-74.0846, 2.561], [-74.0731, 2.5563], [-74.0676, 2.5451], [-74.0568, 2.5442], [-74.0575, 2.5643], [-74.0509, 2.5658], [-74.0438, 2.5595], [-74.024, 2.5672], [-74.0166, 2.5615], [-74.0171, 2.5512], [-74.0092, 2.5525], [-74.0001, 2.5467], [-73.9939, 2.5498], [-73.9826, 2.5366], [-73.9831, 2.5282], [-73.9707, 2.528], [-73.9797, 2.5207], [-73.9755, 2.5158], [-73.9606, 2.5286], [-73.96, 2.5391], [-73.9491, 2.529], [-73.9434, 2.5393], [-73.9342, 2.5352], [-73.9336, 2.5388], [-73.9433, 2.5429], [-73.9413, 2.551], [-73.9666, 2.5528], [-73.9634, 2.5604], [-73.9675, 2.5699], [-73.9791, 2.5713], [-73.9858, 2.5825], [-73.9962, 2.5867], [-73.9932, 2.5942], [-73.9968, 2.6043], [-74.0036, 2.6074], [-74.0026, 2.5971], [-74.0067, 2.6064], [-74.0113, 2.6006], [-74.0189, 2.6032], [-74.017, 2.6092], [-74.0239, 2.6128], [-74.0273, 2.625], [-74.032, 2.6177], [-74.0334, 2.6265], [-74.0496, 2.63], [-74.0533, 2.64], [-74.0436, 2.6401], [-74.0477, 2.653], [-74.0406, 2.6557], [-74.0484, 2.6651], [-74.0572, 2.6657], [-74.0554, 2.6744], [-74.0497, 2.6742], [-74.055, 2.6791], [-74.0525, 2.6844], [-74.0667, 2.6888], [-74.0695, 2.6946], [-74.0631, 2.7029], [-74.0676, 2.7123], [-74.0633, 2.7195], [-74.0791, 2.7271], [-74.0793, 2.7366], [-74.0968, 2.7487], [-74.1039, 2.7686], [-74.1218, 2.7774], [-74.1251, 2.7939], [-74.1329, 2.7989], [-74.1377, 2.8161], [-74.1458, 2.8191], [-74.1472, 2.8273], [-74.1649, 2.8438], [-74.1805, 2.8483], [-74.185, 2.8752], [-74.1747, 2.8962], [-74.1759, 2.917], [-74.1892, 2.9307], [-74.1867, 2.938], [-74.1932, 2.9436], [-74.1932, 2.9532], [-74.2209, 3.0125], [-74.2204, 3.0392], [-74.2278, 3.0787], [-74.2435, 3.0988], [-74.2453, 3.1463], [-74.2664, 3.1894], [-74.2593, 3.2087], [-74.2678, 3.2214], [-74.2646, 3.2393], [-74.2708, 3.2615], [-74.2687, 3.2695], [-74.2735, 3.2709], [-74.2744, 3.2814], [-74.2888, 3.2963], [-74.3015, 3.342], [-74.2852, 3.3621], [-74.2886, 3.3697], [-74.2859, 3.3844], [-74.2914, 3.3933], [-74.2808, 3.4135], [-74.2924, 3.4264], [-74.2994, 3.4519], [-74.2876, 3.4781], [-74.2787, 3.487], [-74.2792, 3.5154], [-74.268, 3.5264], [-74.2613, 3.549], [-74.2532, 3.5593], [-74.2754, 3.5958], [-74.2701, 3.6152], [-74.25, 3.6491], [-74.2547, 3.6617], [-74.2415, 3.6702], [-74.2442, 3.6845], [-74.2358, 3.6868], [-74.2399, 3.7062], [-74.2257, 3.71], [-74.2288, 3.7194], [-74.2155, 3.7419], [-74.2234, 3.7512], [-74.2259, 3.7591], [-74.2223, 3.768], [-74.2266, 3.77], [-74.2308, 3.7872], [-74.2368, 3.7831], [-74.2357, 3.76], [-74.2955, 3.7167], [-74.2993, 3.7214], [-74.3307, 3.72], [-74.3467, 3.7137], [-74.3607, 3.7193], [-74.3719, 3.7156], [-74.3733, 3.7268], [-74.3874, 3.742], [-74.3979, 3.7451], [-74.402, 3.7373], [-74.4159, 3.7408], [-74.4133, 3.7238], [-74.4184, 3.7219], [-74.4245, 3.7084], [-74.439, 3.7073], [-74.4384, 3.6988], [-74.4519, 3.6914], [-74.461, 3.6672], [-74.4733, 3.6631], [-74.4824, 3.6675], [-74.5029, 3.6463], [-74.5126, 3.6213], [-74.5142, 3.6009], [-74.5233, 3.5976], [-74.5276, 3.5884], [-74.5241, 3.5797], [-74.5374, 3.5598], [-74.5681, 3.5216], [-74.5708, 3.5251], [-74.5808, 3.5236], [-74.5843, 3.5298], [-74.5897, 3.5282], [-74.6305, 3.4713], [-74.6155, 3.4595], [-74.6119, 3.446], [-74.6175, 3.4294], [-74.6136, 3.4192], [-74.6057, 3.4141], [-74.624, 3.393], [-74.6221, 3.3783], [-74.6398, 3.3684], [-74.6179, 3.3305], [-74.6166, 3.321], [-74.6261, 3.2998], [-74.6163, 3.2878], [-74.6355, 3.2785], [-74.6566, 3.2476], [-74.6664, 3.2301], [-74.6669, 3.2073], [-74.6733, 3.1863], [-74.6966, 3.1731], [-74.713, 3.17], [-74.7227, 3.1576], [-74.7272, 3.138], [-74.7489, 3.1225], [-74.749, 3.1102], [-74.7643, 3.1051], [-74.766, 3.0969], [-74.7903, 3.0737], [-74.7875, 3.0614], [-74.7918, 3.0562], [-74.816, 3.053], [-74.8496, 2.9947], [-74.8629, 2.9936], [-74.869, 2.9736], [-74.8742, 2.9695], [-74.8828, 2.9716], [-74.8872, 2.9645], [-74.8992, 2.9641]]]}}, {"type": "Feature", "properties": {"osm_type": "relation", "osm_id": 296437643, "name": "Lejanías", "admin_level": "6", "kind": "subdivision_2", "parent_osm_id": 1305166, "parent_name": "Meta", "parent_iso": "CO-MET"}, "geometry": {"type": "Polygon", "coordinates": [[[-74.2352, 3.7867], [-74.2308, 3.7872], [-74.2256, 3.7764], [-74.2266, 3.77], [-74.2223, 3.768], [-74.2259, 3.7591], [-74.2155, 3.7419], [-74.2288, 3.7194], [-74.2257, 3.71], [-74.2399, 3.7062], [-74.2358, 3.6868], [-74.2442, 3.6845], [-74.2415, 3.6702], [-74.2547, 3.6617], [-74.2548, 3.6566], [-74.2518, 3.6446], [-74.2321, 3.6373], [-74.2357, 3.629], [-74.2321, 3.6218], [-74.243, 3.5974], [-74.2253, 3.5672], [-74.2299, 3.5321], [-74.2214, 3.5281], [-74.2108, 3.5301], [-74.1874, 3.5446], [-74.187, 3.557], [-74.1773, 3.5664], [-74.1683, 3.5557], [-74.1601, 3.5605], [-74.1389, 3.561], [-74.1346, 3.5564], [-74.1365, 3.5296], [-74.1223, 3.4996], [-74.1326, 3.4801], [-74.1245, 3.4728], [-74.072, 3.4749], [-74.0681, 3.4636], [-74.0515, 3.455], [-74.0353, 3.4738], [-74.0362, 3.4885], [-74.031, 3.5021], [-74.0078, 3.4916], [-73.9889, 3.4994], [-73.9761, 3.4866], [-73.9355, 3.4674], [-73.9189, 3.4537], [-73.8966, 3.4472], [-73.8667, 3.446], [-73.8636, 3.4641], [-73.8582, 3.4638], [-73.859, 3.471], [-73.8678, 3.4712], [-73.8681, 3.4984], [-73.8982, 3.5164], [-73.9267, 3.5265], [-73.9286, 3.5236], [-73.9411, 3.5349], [-73.944, 3.5269], [-73.95, 3.5294], [-73.9543, 3.5246], [-73.9584, 3.5308], [-73.9525, 3.5425], [-73.959, 3.5606], [-73.9743, 3.5731], [-73.9775, 3.5831], [-73.994, 3.5893], [-74.0048, 3.6118], [-74.0111, 3.613], [-74.0157, 3.6211], [-74.0283, 3.6203], [-74.0244, 3.6319], [-74.0271, 3.6504], [-74.0383, 3.6675], [-74.0297, 3.6822], [-74.0454, 3.7024], [-74.042, 3.7176], [-74.0485, 3.7291], [-74.0467, 3.741], [-74.0705, 3.7585], [-74.0795, 3.7584], [-74.0914, 3.78], [-74.1291, 3.7709], [-74.1487, 3.7854], [-74.1576, 3.7868], [-74.1703, 3.7855], [-74.1919, 3.7746], [-74.2028, 3.7973], [-74.2156, 3.7997], [-74.218, 3.8055], [-74.2325, 3.8066], [-74.2406, 3.7948], [-74.2352, 3.7867]]]}}, {"type": "Feature", "properties": {"osm_type": "relation", "osm_id": 890008723, "name": "Puerto López", "admin_level": "6", "kind": "subdivision_2", "parent_osm_id": 1305166, "parent_name": "Meta", "parent_iso": "CO-MET"}, "geometry": {"type": "Polygon", "coordinates": [[[-73.0436, 4.1765], [-73.0474, 4.18], [-73.0568, 4.1772], [-73.0578, 4.1851], [-73.0671, 4.18], [-73.0715, 4.1871], [-73.0786, 4.1839], [-73.072, 4.1799], [-73.0741, 4.176], [-73.0819, 4.1784], [-73.0813, 4.1722], [-73.0912, 4.1646], [-73.0995, 4.1675], [-73.1074, 4.1623], [-73.1173, 4.1642], [-73.1273, 4.1538], [-73.1401, 4.1551], [-73.1406, 4.1449], [-73.1605, 4.1444], [-73.1684, 4.1486], [-73.1747, 4.1429], [-73.1819, 4.1484], [-73.1895, 4.14], [-73.2077, 4.1461], [-73.2125, 4.1401], [-73.222, 4.1418], [-73.2291, 4.1362], [-73.2603, 4.13], [-73.175, 4.0403], [-73.1751, 3.935], [-73.1371, 3.9388], [-73.1338, 3.9331], [-73.1007, 3.9302], [-73.0968, 3.9182], [-73.0785, 3.9154], [-73.0859, 3.905], [-73.0948, 3.908], [-73.0988, 3.9045], [-73.0946, 3.8861], [-73.1028, 3.8936], [-73.1094, 3.8934], [-73.1076, 3.8841], [-73.1132, 3.8794], [-73.1075, 3.8756], [-73.1152, 3.8585], [-73.1228, 3.8536], [-73.1151, 3.8491], [-73.1245, 3.8368], [-73.1306, 3.8416], [-73.1395, 3.8335], [-73.1405, 3.8254], [-73.135, 3.8213], [-73.1674, 3.8082], [-73.1687, 3.8005], [-73.1787, 3.8047], [-73.1802, 3.8008], [-73.1727, 3.797], [-73.1735, 3.7928], [-73.1802, 3.7956], [-73.1942, 3.7908], [-73.1873, 3.7825], [-73.1963, 3.7623], [-73.1774, 3.7577], [-73.1818, 3.7463], [-73.1748, 3.7428], [-73.1783, 3.7355], [-73.1649, 3.7345], [-73.1576, 3.7267], [-73.1466, 3.7392], [-73.1358, 3.7435], [-73.1315, 3.7549], [-73.108, 3.7568], [-73.1101, 3.7382], [-73.1024, 3.7375], [-73.1031, 3.7263], [-73.0954, 3.7204], [-73.0948, 3.7116], [-73.0859, 3.7071], [-73.0879, 3.696], [-73.0836, 3.6906], [-73.0498, 3.678], [-73.0486, 3.6842], [-73.0324, 3.6813], [-73.0266, 3.6529], [-73.014, 3.6449], [-73.0143, 3.641], [-72.9955, 3.6372], [-72.972, 3.6561], [-72.891, 3.6544], [-72.8771, 3.6616], [-72.8711, 3.6706], [-72.8282, 3.6622], [-72.8188, 3.6702], [-72.7926, 3.6743], [-72.7649, 3.6949], [-72.7629, 3.7013], [-72.7524, 3.7018], [-72.7511, 3.7113], [-72.7434, 3.7114], [-72.7365, 3.7198], [-72.7289, 3.7162], [-72.7164, 3.7187], [-72.706, 3.7303], [-72.6942, 3.726], [-72.6895, 3.7365], [-72.6812, 3.7412], [-72.677, 3.7343], [-72.6604, 3.7413], [-72.6572, 3.7341], [-72.6547, 3.739], [-72.6468, 3.7388], [-72.6428, 3.7489], [-72.6384, 3.7419], [-72.6264, 3.7446], [-72.6285, 3.7479], [-72.6239, 3.7501], [-72.6183, 3.7431], [-72.6068, 3.7486], [-72.594, 3.7372], [-72.5922, 3.728], [-72.5848, 3.7293], [-72.5805, 3.722], [-72.5779, 3.7314], [-72.5751, 3.726], [-72.5702, 3.7282], [-72.5721, 3.7341], [-72.5646, 3.7235], [-72.5532, 3.7281], [-72.5513, 3.7376], [-72.5394, 3.7322], [-72.5332, 3.7361], [-72.526, 3.7278], [-72.519, 3.7307], [-72.5101, 3.721], [-72.5037, 3.73], [-72.499, 3.7283], [-72.4944, 3.7332], [-72.4889, 3.7227], [-72.4665, 3.723], [-72.4449, 3.7112], [-72.4382, 3.7021], [-72.425, 3.7017], [-72.4234, 3.6946], [-72.4181, 3.6977], [-72.4139, 3.6943], [-72.4071, 3.7003], [-72.4027, 3.6965], [-72.3941, 3.7121], [-72.3839, 3.7136], [-72.3768, 3.7208], [-72.379, 3.7315], [-72.3738, 3.7312], [-72.3738, 3.7374], [-72.3642, 3.7332], [-72.3622, 3.7366], [-72.3616, 3.7316], [-72.3588, 3.7381], [-72.3511, 3.7348], [-72.35, 3.7296], [-72.3368, 3.7443], [-72.3357, 3.7405], [-72.3299, 3.7433], [-72.3276, 3.7511], [-72.3232, 3.7464], [-72.3141, 3.747], [-72.3079, 3.7547], [-72.2965, 3.7576], [-72.297, 3.7538], [-72.2953, 3.7645], [-72.2817, 3.759], [-72.2812, 3.7797], [-72.2924, 3.7746], [-72.2961, 3.7779], [-72.2935, 3.7832], [-72.2711, 3.7913], [-72.293, 3.8051], [-72.2945, 3.8111], [-72.2746, 3.82], [-72.2819, 3.8285], [-72.2778, 3.8352], [-72.2628, 3.8385], [-72.2673, 3.8525], [-72.2636, 3.8626], [-72.2357, 3.8626], [-72.2427, 3.8736], [-72.235, 3.879], [-72.2358, 3.8844], [-72.2449, 3.889], [-72.2614, 3.8883], [-72.265, 3.8941], [-72.2375, 3.9003], [-72.2291, 3.8969], [-72.2155, 3.9057], [-72.2136, 3.8988], [-72.2202, 3.8832], [-72.2107, 3.8796], [-72.2061, 3.9117], [-72.1937, 3.9178], [-72.1909, 3.924], [-72.2028, 3.9422], [-72.2012, 3.9519], [-72.1924, 3.9586], [-72.1667, 3.9586], [-72.18, 3.9754], [-72.1744, 3.9912], [-72.1565, 4.0027], [-72.1775, 4.0089], [-72.1761, 4.0153], [-72.1436, 4.0139], [-72.1375, 4.0256], [-72.1392, 4.0411], [-72.1462, 4.0476], [-72.16, 4.0496], [-72.1592, 4.0588], [-72.1529, 4.0613], [-72.1215, 4.0445], [-72.1223, 4.0678], [-72.1177, 4.0846], [-72.1071, 4.0885], [-72.1103, 4.1047], [-72.105, 4.1131], [-72.1071, 4.12], [-72.1099, 4.122], [-72.1183, 4.1106], [-72.1425, 4.1037], [-72.1501, 4.0955], [-72.1616, 4.0974], [-72.1702, 4.1041], [-72.1982, 4.1105], [-72.1962, 4.124], [-72.2021, 4.1312], [-72.2137, 4.1349], [-72.2254, 4.1494], [-72.2165, 4.1624], [-72.2057, 4.1599], [-72.2068, 4.1644], [-72.2012, 4.1653], [-72.1915, 4.1828], [-72.193, 4.1869], [-72.1893, 4.1855], [-72.1841, 4.2031], [-72.1878, 4.2105], [-72.1842, 4.209], [-72.1808, 4.2179], [-72.1872, 4.2208], [-72.1872, 4.2279], [-72.18, 4.2291], [-72.1833, 4.2331], [-72.1773, 4.2513], [-72.1688, 4.2563], [-72.1733, 4.264], [-72.1672, 4.2753], [-72.1721, 4.2756], [-72.1714, 4.2855], [-72.1661, 4.2911], [-72.169, 4.2994], [-72.1621, 4.3128], [-72.1662, 4.3205], [-72.1609, 4.322], [-72.1662, 4.3276], [-72.1608, 4.3277], [-72.1609, 4.3422], [-72.155, 4.3409], [-72.1504, 4.3456], [-72.1546, 4.3516], [-72.145, 4.3611], [-72.1471, 4.367], [-72.1327, 4.3773], [-72.1337, 4.3832], [-72.1297, 4.3802], [-72.1308, 4.3866], [-72.126, 4.3851], [-72.1193, 4.3988], [-72.1028, 4.3987], [-72.1022, 4.3938], [-72.0859, 4.4037], [-72.073, 4.3919], [-72.0684, 4.4018], [-72.0712, 4.4084], [-72.0954, 4.4225], [-72.1431, 4.4403], [-72.1601, 4.4414], [-72.1802, 4.431], [-72.1987, 4.4285], [-72.2105, 4.4335], [-72.2434, 4.4346], [-72.2548, 4.4191], [-72.2867, 4.4172], [-72.3026, 4.4086], [-72.31, 4.383], [-72.3205, 4.3709], [-72.3422, 4.3715], [-72.3429, 4.3586], [-72.3562, 4.3417], [-72.3883, 4.3326], [-72.405, 4.3179], [-72.4171, 4.3213], [-72.4156, 4.344], [-72.4279, 4.3537], [-72.4371, 4.3502], [-72.4525, 4.3278], [-72.4668, 4.3174], [-72.5153, 4.3386], [-72.5327, 4.3396], [-72.5405, 4.352], [-72.5478, 4.3547], [-72.5525, 4.3525], [-72.5546, 4.3368], [-72.5735, 4.3255], [-72.5693, 4.3074], [-72.5734, 4.3021], [-72.5813, 4.301], [-72.6047, 4.3152], [-72.6271, 4.3041], [-72.642, 4.3028], [-72.6604, 4.3173], [-72.6759, 4.3174], [-72.6879, 4.3105], [-72.6873, 4.2925], [-72.6936, 4.2875], [-72.7164, 4.2933], [-72.7258, 4.3058], [-72.7398, 4.3097], [-72.7461, 4.3051], [-72.7579, 4.2668], [-72.7661, 4.2617], [-72.7759, 4.2631], [-72.7949, 4.2809], [-72.8022, 4.276], [-72.8008, 4.2504], [-72.8086, 4.2488], [-72.8173, 4.2597], [-72.8353, 4.2638], [-72.8382, 4.2581], [-72.8345, 4.246], [-72.8397, 4.2429], [-72.8465, 4.2506], [-72.8461, 4.261], [-72.8618, 4.2703], [-72.8654, 4.2604], [-72.8573, 4.2549], [-72.8562, 4.2484], [-72.8616, 4.2376], [-72.8701, 4.2337], [-72.8765, 4.2459], [-72.884, 4.2438], [-72.8745, 4.2017], [-72.8783, 4.198], [-72.8872, 4.2034], [-72.9079, 4.1973], [-72.9262, 4.1536], [-72.9363, 4.1606], [-72.9514, 4.1504], [-72.9668, 4.1587], [-72.9833, 4.1606], [-73.0108, 4.1902], [-73.015, 4.1863], [-73.0112, 4.17], [-73.0177, 4.1603], [-73.0264, 4.1607], [-73.0254, 4.1798], [-73.0406, 4.1717], [-73.0451, 4.1718], [-73.0436, 4.1765]]]}}, {"type": "Feature", "properties": {"osm_type": "relation", "osm_id": 783355197, "name": "Restrepo", "admin_level": "6", "kind": "subdivision_2", "parent_osm_id": 1305166, "parent_name": "Meta", "parent_iso": "CO-MET"}, "geometry": {"type": "Polygon", "coordinates": [[[-73.6024, 4.4621], [-73.6185, 4.4432], [-73.621, 4.4126], [-73.631, 4.4057], [-73.6324, 4.3966], [-73.5997, 4.3433], [-73.62, 4.3163], [-73.6293, 4.2763], [-73.6109, 4.2609], [-73.6061, 4.2472], [-73.6226, 4.2324], [-73.6213, 4.2148], [-73.6114, 4.2141], [-73.6055, 4.2209], [-73.6058, 4.2098], [-73.5893, 4.1931], [-73.5774, 4.1961], [-73.5727, 4.1884], [-73.5588, 4.1844], [-73.5557, 4.1872], [-73.5456, 4.176], [-73.5406, 4.1793], [-73.5415, 4.1746], [-73.5146, 4.1625], [-73.4736, 4.163], [-73.4552, 4.1478], [-73.4298, 4.1446], [-73.3995, 4.1312], [-73.3817, 4.132], [-73.3747, 4.1368], [-73.348, 4.1299], [-73.2899, 4.1422], [-73.2725, 4.1393], [-73.2711, 4.1316], [-73.2603, 4.13], [-73.2291, 4.1362], [-73.222, 4.1418], [-73.2125, 4.1401], [-73.2077, 4.1461], [-73.1895, 4.14], [-73.1819, 4.1484], [-73.1747, 4.1429], [-73.1684, 4.1486], [-73.1605, 4.1444], [-73.1406, 4.1449], [-73.1401, 4.1551], [-73.1273, 4.1538], [-73.1242, 4.1602], [-73.1108, 4.1648], [-73.1115, 4.1687], [-73.1223, 4.168], [-73.1227, 4.1771], [-73.145, 4.1763], [-73.151, 4.1829], [-73.149, 4.189], [-73.1547, 4.1867], [-73.154, 4.1813], [-73.1574, 4.184], [-73.1735, 4.1765], [-73.1838, 4.1806], [-73.196, 4.176], [-73.2022, 4.1788], [-73.2023, 4.1841], [-73.2092, 4.1782], [-73.2342, 4.183], [-73.2515, 4.168], [-73.2638, 4.1706], [-73.2889, 4.1562], [-73.3349, 4.1553], [-73.3403, 4.1491], [-73.3607, 4.1532], [-73.3825, 4.1468], [-73.3963, 4.1494], [-73.4084, 4.1586], [-73.4253, 4.1558], [-73.4366, 4.17], [-73.4436, 4.1714], [-73.4414, 4.1769], [-73.4471, 4.1888], [-73.4668, 4.201], [-73.4679, 4.2072], [-73.4895, 4.2269], [-73.5027, 4.2514], [-73.5134, 4.2583], [-73.5223, 4.2742], [-73.5449, 4.2666], [-73.5565, 4.292], [-73.5659, 4.2947], [-73.5648, 4.3101], [-73.5745, 4.3203], [-73.5715, 4.3734], [-73.5769, 4.3987], [-73.5726, 4.4199], [-73.5889, 4.4344], [-73.5916, 4.4449], [-73.6026, 4.4545], [-73.6024, 4.4621]]]}}, {"type": "Feature", "properties": {"osm_type": "relation", "osm_id": 554252007, "name": "San Carlos De Guaroa", "admin_level": "6", "kind": "subdivision_2", "parent_osm_id": 1305166, "parent_name": "Meta", "parent_iso": "CO-MET"}, "geometry": {"type": "Polygon", "coordinates": [[[-73.4579, 3.855], [-73.4338, 3.8498], [-73.4231, 3.8428], [-73.4142, 3.8525], [-73.4189, 3.8584], [-73.3963, 3.8555], [-73.3892, 3.8661], [-73.3574, 3.7104], [-73.3531, 3.7063], [-73.3381, 3.7041], [-73.3111, 3.7115], [-73.303, 3.7081], [-73.2877, 3.7109], [-73.2806, 3.7051], [-73.258, 3.7012], [-73.2512, 3.7083], [-73.2238, 3.7027], [-73.2097, 3.6906], [-73.2039, 3.6945], [-73.1981, 3.6907], [-73.1858, 3.6962], [-73.1807, 3.6939], [-73.1776, 3.7027], [-73.1727, 3.6994], [-73.1731, 3.7092], [-73.1682, 3.7041], [-73.1598, 3.7083], [-73.1657, 3.7258], [-73.1779, 3.7211], [-73.1614, 3.7324], [-73.1783, 3.7355], [-73.1748, 3.7428], [-73.1818, 3.7463], [-73.1774, 3.7577], [-73.1963, 3.7623], [-73.1873, 3.7825], [-73.1942, 3.7908], [-73.1802, 3.7956], [-73.1735, 3.7928], [-73.1727, 3.797], [-73.1802, 3.8008], [-73.1787, 3.8047], [-73.1687, 3.8005], [-73.1674, 3.8082], [-73.135, 3.8213], [-73.1405, 3.8254], [-73.1395, 3.8335], [-73.1306, 3.8416], [-73.1245, 3.8368], [-73.1151, 3.8491], [-73.1228, 3.8536], [-73.1152, 3.8585], [-73.1075, 3.8756], [-73.1132, 3.8794], [-73.1076, 3.8841], [-73.1094, 3.8934], [-73.1028, 3.8936], [-73.0946, 3.8861], [-73.0988, 3.9045], [-73.0948, 3.908], [-73.0859, 3.905], [-73.0785, 3.9154], [-73.0968, 3.9182], [-73.1007, 3.9302], [-73.1338, 3.9331], [-73.1371, 3.9388], [-73.1751, 3.935], [-73.1795, 3.9429], [-73.1869, 3.9369], [-73.1987, 3.9491], [-73.2163, 3.9477], [-73.2241, 3.9578], [-73.2349, 3.956], [-73.2308, 3.9652], [-73.2406, 3.97], [-73.2534, 3.9631], [-73.2547, 3.9581], [-73.2678, 3.9617], [-73.2902, 3.9493], [-73.2989, 3.9589], [-73.3058, 3.9543], [-73.3105, 3.9587], [-73.3235, 3.9553], [-73.3292, 3.9694], [-73.3464, 3.9716], [-73.3691, 3.9669], [-73.4161, 3.9839], [-73.4309, 3.9524], [-73.4315, 3.9388], [-73.4428, 3.9086], [-73.4463, 3.8843], [-73.4418, 3.875], [-73.4506, 3.8754], [-73.4523, 3.8699], [-73.4588, 3.8687], [-73.4579, 3.855]]]}}, {"type": "Feature", "properties": {"osm_type": "relation", "osm_id": 657373867, "name": "San Juan De Arama", "admin_level": "6", "kind": "subdivision_2", "parent_osm_id": 1305166, "parent_name": "Meta", "parent_iso": "CO-MET"}, "geometry": {"type": "Polygon", "coordinates": [[[-73.7463, 3.3609], [-73.759, 3.364], [-73.7954, 3.3967], [-73.7966, 3.403], [-73.7869, 3.4076], [-73.7972, 3.4174], [-73.8515, 3.4247], [-73.8558, 3.4282], [-73.8551, 3.4448], [-73.9118, 3.4508], [-73.9355, 3.4674], [-73.9736, 3.4851], [-73.9871, 3.4989], [-74.0078, 3.4916], [-74.031, 3.5021], [-74.0362, 3.4885], [-74.0353, 3.4738], [-74.0515, 3.455], [-74.0371, 3.4516], [-74.0184, 3.4332], [-74.008, 3.4002], [-74.0132, 3.3851], [-74.0013, 3.3666], [-73.9985, 3.3532], [-73.9607, 3.3407], [-73.965, 3.3266], [-73.9829, 3.3014], [-73.9794, 3.2762], [-73.9746, 3.27], [-73.9883, 3.2462], [-73.9793, 3.2412], [-73.9808, 3.2302], [-73.9998, 3.2072], [-73.9988, 3.213], [-74.0018, 3.215], [-74.0057, 3.21], [-74.0063, 3.2184], [-74.0113, 3.2163], [-74.0109, 3.222], [-74.0051, 3.224], [-74.0121, 3.2282], [-74.014, 3.2252], [-74.0135, 3.2426], [-74.0411, 3.245], [-74.0563, 3.2183], [-74.0351, 3.1545], [-74.0263, 3.1699], [-73.9626, 3.1646], [-73.94, 3.1675], [-73.9301, 3.1782], [-73.9086, 3.177], [-73.8894, 3.2048], [-73.8632, 3.2133], [-73.8553, 3.2151], [-73.8533, 3.2088], [-73.8323, 3.1989], [-73.8043, 3.2168], [-73.7964, 3.2164], [-73.7748, 3.1972], [-73.7646, 3.1945], [-73.7601, 3.2044], [-73.7463, 3.2005], [-73.6963, 3.1719], [-73.6782, 3.1771], [-73.6732, 3.1712], [-73.6542, 3.1759], [-73.6461, 3.1672], [-73.6327, 3.1693], [-73.6305, 3.1625], [-73.5896, 3.1635], [-73.5852, 3.1492], [-73.5808, 3.1508], [-73.5782, 3.1448], [-73.5724, 3.1458], [-73.5656, 3.1385], [-73.5651, 3.1425], [-73.5562, 3.1443], [-73.5623, 3.1473], [-73.5548, 3.1583], [-73.5527, 3.153], [-73.5119, 3.1376], [-73.5053, 3.1292], [-73.482, 3.1215], [-73.4742, 3.1267], [-73.4736, 3.1222], [-73.4681, 3.1385], [-73.4706, 3.143], [-73.4613, 3.152], [-73.4659, 3.1631], [-73.489, 3.1828], [-73.5003, 3.1843], [-73.51, 3.1936], [-73.5263, 3.1914], [-73.536, 3.1978], [-73.543, 3.2289], [-73.5568, 3.2373], [-73.5652, 3.232], [-73.5793, 3.233], [-73.5844, 3.2397], [-73.5821, 3.2497], [-73.5885, 3.2582], [-73.6226, 3.2776], [-73.6294, 3.2755], [-73.6244, 3.2885], [-73.6406, 3.2941], [-73.6522, 3.3107], [-73.6739, 3.3126], [-73.6787, 3.3187], [-73.6977, 3.3229], [-73.7463, 3.3609]]]}}, {"type": "Feature", "properties": {"osm_type": "relation", "osm_id": 291069304, "name": "San Juanito", "admin_level": "6", "kind": "subdivision_2", "parent_osm_id": 1305166, "parent_name": "Meta", "parent_iso": "CO-MET"}, "geometry": {"type": "Polygon", "coordinates": [[[-73.6688, 4.5399], [-73.6879, 4.5279], [-73.6864, 4.5193], [-73.7123, 4.516], [-73.7222, 4.5032], [-73.7277, 4.5027], [-73.7332, 4.4883], [-73.7391, 4.4848], [-73.7341, 4.4812], [-73.7336, 4.4715], [-73.7467, 4.4511], [-73.7432, 4.4261], [-73.737, 4.4154], [-73.6866, 4.4062], [-73.686, 4.3804], [-73.6682, 4.3588], [-73.6593, 4.3741], [-73.6606, 4.3796], [-73.6512, 4.3892], [-73.6324, 4.3966], [-73.631, 4.4057], [-73.621, 4.4126], [-73.6185, 4.4432], [-73.6086, 4.459], [-73.5992, 4.4628], [-73.5962, 4.4869], [-73.5758, 4.4985], [-73.5757, 4.5166], [-73.5681, 4.5251], [-73.5791, 4.5428], [-73.6018, 4.5489], [-73.6212, 4.5623], [-73.642, 4.5468], [-73.6612, 4.547], [-73.6688, 4.5399]]]}}, {"type": "Feature", "properties": {"osm_type": "relation", "osm_id": 436860718, "name": "San Martín", "admin_level": "6", "kind": "subdivision_2", "parent_osm_id": 1305166, "parent_name": "Meta", "parent_iso": "CO-MET"}, "geometry": {"type": "Polygon", "coordinates": [[[-73.7191, 3.8054], [-73.7496, 3.8113], [-73.7352, 3.7909], [-73.7259, 3.7707], [-73.727, 3.7634], [-73.7383, 3.7606], [-73.7605, 3.7661], [-73.7665, 3.7576], [-73.7652, 3.7478], [-73.7757, 3.7426], [-73.7876, 3.724], [-73.7678, 3.6817], [-73.7651, 3.6586], [-73.7472, 3.6187], [-73.7121, 3.6461], [-73.6999, 3.6413], [-73.6796, 3.5941], [-73.6722, 3.5857], [-73.6651, 3.5875], [-73.656, 3.5788], [-73.6541, 3.5685], [-73.644, 3.5613], [-73.643, 3.551], [-73.6245, 3.5431], [-73.6168, 3.5259], [-73.5953, 3.5059], [-73.5865, 3.4816], [-73.5893, 3.4778], [-73.5821, 3.4799], [-73.573, 3.4626], [-73.5735, 3.4504], [-73.5562, 3.4496], [-73.5523, 3.4405], [-73.5355, 3.4274], [-73.5342, 3.4205], [-73.5307, 3.4224], [-73.5304, 3.4134], [-73.5233, 3.413], [-73.5166, 3.4055], [-73.4827, 3.4145], [-73.4675, 3.4089], [-73.4568, 3.3978], [-73.4545, 3.385], [-73.446, 3.3864], [-73.434, 3.3796], [-73.4234, 3.3456], [-73.4142, 3.3766], [-73.4065, 3.3851], [-73.4064, 3.4196], [-73.38, 3.4448], [-73.3842, 3.4571], [-73.3774, 3.4779], [-73.3578, 3.4949], [-73.3461, 3.4982], [-73.3358, 3.4937], [-73.3306, 3.4842], [-73.2993, 3.4756], [-73.2935, 3.4651], [-73.2893, 3.4697], [-73.2785, 3.468], [-73.2694, 3.4479], [-73.2622, 3.444], [-73.2633, 3.4369], [-73.2562, 3.4436], [-73.2532, 3.441], [-73.2568, 3.4321], [-73.2531, 3.4247], [-73.2324, 3.426], [-73.2344, 3.4181], [-73.2165, 3.4094], [-73.2287, 3.3977], [-73.2211, 3.3952], [-73.2215, 3.3856], [-73.2066, 3.3795], [-73.2098, 3.3718], [-73.2032, 3.3636], [-73.206, 3.3609], [-73.1999, 3.3582], [-73.1881, 3.3673], [-73.1778, 3.3526], [-73.1687, 3.3536], [-73.1657, 3.3495], [-73.165, 3.3526], [-73.1611, 3.3451], [-73.1571, 3.3482], [-73.1458, 3.3395], [-73.1356, 3.3383], [-73.1342, 3.3439], [-73.1221, 3.3427], [-73.1231, 3.3349], [-73.1167, 3.3259], [-73.1192, 3.3174], [-73.1026, 3.3077], [-73.0998, 3.3115], [-73.0934, 3.309], [-73.0889, 3.2805], [-73.0751, 3.2772], [-73.0762, 3.283], [-73.0721, 3.2854], [-73.0673, 3.2782], [-73.0662, 3.2883], [-73.0619, 3.2729], [-73.0499, 3.2714], [-73.0483, 3.2601], [-73.0378, 3.2687], [-73.0323, 3.263], [-73.0227, 3.2698], [-73.0165, 3.2674], [-73.0176, 3.2611], [-73.011, 3.262], [-73.0113, 3.258], [-73.0034, 3.2551], [-73.0043, 3.264], [-72.9972, 3.2638], [-72.9956, 3.2564], [-72.9861, 3.2554], [-72.9897, 3.2452], [-72.9828, 3.2393], [-72.9803, 3.2493], [-72.9752, 3.2453], [-72.9691, 3.2472], [-72.9748, 3.2568], [-72.97, 3.2534], [-72.9609, 3.2565], [-72.9565, 3.2507], [-72.9493, 3.2565], [-72.9278, 3.2592], [-72.9276, 3.2513], [-72.9198, 3.2545], [-72.92, 3.2599], [-72.9089, 3.2565], [-72.8945, 3.2606], [-72.8925, 3.2699], [-72.8865, 3.2721], [-72.8783, 3.2688], [-72.8774, 3.2618], [-72.8735, 3.2661], [-72.863, 3.2593], [-72.8578, 3.2637], [-72.8561, 3.2598], [-72.8558, 3.2682], [-72.8447, 3.2639], [-72.8332, 3.2687], [-72.8362, 3.2613], [-72.8301, 3.2596], [-72.8234, 3.2619], [-72.8222, 3.2698], [-72.8191, 3.2632], [-72.8021, 3.2647], [-72.8035, 3.258], [-72.7928, 3.2607], [-72.7935, 3.2705], [-72.7882, 3.2673], [-72.7806, 3.2706], [-72.7744, 3.2804], [-72.7577, 3.275], [-72.7591, 3.269], [-72.7549, 3.2697], [-72.7595, 3.2638], [-72.7512, 3.2668], [-72.7501, 3.2613], [-72.744, 3.2604], [-72.74, 3.2718], [-72.7339, 3.2651], [-72.7342, 3.2749], [-72.7252, 3.2722], [-72.7276, 3.2786], [-72.7238, 3.2823], [-72.7156, 3.2715], [-72.7116, 3.2799], [-72.7023, 3.2783], [-72.7039, 3.2982], [-72.6961, 3.3028], [-72.691, 3.2944], [-72.694, 3.291], [-72.6825, 3.2911], [-72.6783, 3.2816], [-72.6759, 3.2913], [-72.6678, 3.2921], [-72.6729, 3.2985], [-72.6686, 3.3051], [-72.6545, 3.2967], [-72.6469, 3.3109], [-72.6437, 3.3046], [-72.6382, 3.3084], [-72.6461, 3.3219], [-72.6373, 3.3273], [-72.6325, 3.324], [-72.6238, 3.3264], [-72.6242, 3.322], [-72.6156, 3.3292], [-72.6047, 3.3266], [-72.604, 3.3374], [-72.5929, 3.3481], [-72.5861, 3.3469], [-72.5853, 3.339], [-72.5901, 3.3377], [-72.5846, 3.3365], [-72.586, 3.3275], [-72.5781, 3.3263], [-72.5767, 3.3209], [-72.569, 3.3222], [-72.5623, 3.3307], [-72.5519, 3.3223], [-72.547, 3.3303], [-72.5374, 3.3185], [-72.5268, 3.3169], [-72.5293, 3.3314], [-72.534, 3.3316], [-72.5306, 3.337], [-72.5185, 3.329], [-72.5032, 3.3311], [-72.496, 3.3475], [-72.4983, 3.353], [-72.485, 3.3469], [-72.4841, 3.3555], [-72.4758, 3.3512], [-72.4788, 3.3602], [-72.473, 3.364], [-72.4683, 3.3594], [-72.464, 3.3673], [-72.4561, 3.3585], [-72.459, 3.3656], [-72.4532, 3.3679], [-72.4553, 3.3724], [-72.4477, 3.372], [-72.4483, 3.379], [-72.4319, 3.3802], [-72.4322, 3.3926], [-72.4359, 3.3921], [-72.4349, 3.3981], [-72.4246, 3.4017], [-72.4325, 3.4077], [-72.4239, 3.4116], [-72.4259, 3.4177], [-72.4108, 3.4138], [-72.4072, 3.4343], [-72.3965, 3.4369], [-72.4007, 3.4419], [-72.4067, 3.4404], [-72.3952, 3.4479], [-72.3903, 3.4459], [-72.3921, 3.455], [-72.38, 3.4535], [-72.3846, 3.4729], [-72.3778, 3.4676], [-72.3741, 3.471], [-72.379, 3.479], [-72.3756, 3.4886], [-72.3881, 3.495], [-72.3672, 3.513], [-72.3613, 3.5009], [-72.3572, 3.514], [-72.3456, 3.5139], [-72.3487, 3.5253], [-72.3584, 3.528], [-72.3514, 3.5334], [-72.3608, 3.5397], [-72.3541, 3.5427], [-72.3583, 3.5485], [-72.3564, 3.5552], [-72.3681, 3.5632], [-72.3485, 3.571], [-72.3408, 3.5814], [-72.325, 3.5767], [-72.3219, 3.5849], [-72.3283, 3.5916], [-72.3262, 3.6014], [-72.3336, 3.5973], [-72.335, 3.6019], [-72.3217, 3.6137], [-72.3158, 3.6087], [-72.3089, 3.6131], [-72.3048, 3.6091], [-72.3046, 3.6248], [-72.3127, 3.6311], [-72.3091, 3.6361], [-72.2953, 3.6317], [-72.2905, 3.6365], [-72.2949, 3.6421], [-72.3062, 3.6428], [-72.3091, 3.65], [-72.2993, 3.6591], [-72.2992, 3.6745], [-72.3061, 3.6783], [-72.3003, 3.6817], [-72.3032, 3.6945], [-72.2859, 3.6865], [-72.2848, 3.6922], [-72.2918, 3.6986], [-72.2798, 3.7029], [-72.2874, 3.7113], [-72.2909, 3.7077], [-72.2957, 3.7104], [-72.2971, 3.7236], [-72.2928, 3.7288], [-72.2968, 3.7355], [-72.287, 3.7369], [-72.2833, 3.7486], [-72.2949, 3.7565], [-72.297, 3.7538], [-72.2965, 3.7576], [-72.3079, 3.7547], [-72.3141, 3.747], [-72.3232, 3.7464], [-72.3276, 3.7511], [-72.3299, 3.7433], [-72.3357, 3.7405], [-72.3368, 3.7443], [-72.35, 3.7296], [-72.3511, 3.7348], [-72.3588, 3.7381], [-72.3616, 3.7316], [-72.3622, 3.7366], [-72.3642, 3.7332], [-72.3738, 3.7374], [-72.3738, 3.7312], [-72.379, 3.7315], [-72.3768, 3.7208], [-72.3811, 3.7153], [-72.3941, 3.7121], [-72.4027, 3.6965], [-72.4071, 3.7003], [-72.4139, 3.6943], [-72.4181, 3.6977], [-72.4234, 3.6946], [-72.425, 3.7017], [-72.4382, 3.7021], [-72.4449, 3.7112], [-72.4665, 3.723], [-72.4889, 3.7227], [-72.4944, 3.7332], [-72.499, 3.7283], [-72.5037, 3.73], [-72.5101, 3.721], [-72.519, 3.7307], [-72.526, 3.7278], [-72.5332, 3.7361], [-72.5394, 3.7322], [-72.5513, 3.7376], [-72.5532, 3.7281], [-72.5646, 3.7235], [-72.5721, 3.7341], [-72.5702, 3.7282], [-72.5751, 3.726], [-72.5779, 3.7314], [-72.5805, 3.722], [-72.5848, 3.7293], [-72.5922, 3.728], [-72.594, 3.7372], [-72.6068, 3.7486], [-72.6183, 3.7431], [-72.6239, 3.7501], [-72.6285, 3.7479], [-72.6264, 3.7446], [-72.6384, 3.7419], [-72.6428, 3.7489], [-72.6468, 3.7388], [-72.6547, 3.739], [-72.6572, 3.7341], [-72.6604, 3.7413], [-72.677, 3.7343], [-72.6812, 3.7412], [-72.6895, 3.7365], [-72.6942, 3.726], [-72.706, 3.7303], [-72.7164, 3.7187], [-72.7289, 3.7162], [-72.7365, 3.7198], [-72.7434, 3.7114], [-72.7511, 3.7113], [-72.7524, 3.7018], [-72.7629, 3.7013], [-72.7649, 3.6949], [-72.7926, 3.6743], [-72.8188, 3.6702], [-72.8282, 3.6622], [-72.8711, 3.6706], [-72.8771, 3.6616], [-72.891, 3.6544], [-72.972, 3.6561], [-72.9955, 3.6372], [-73.0143, 3.641], [-73.014, 3.6449], [-73.0266, 3.6529], [-73.0324, 3.6813], [-73.0486, 3.6842], [-73.0498, 3.678], [-73.0836, 3.6906], [-73.0879, 3.696], [-73.0859, 3.7071], [-73.0948, 3.7116], [-73.0954, 3.7204], [-73.1031, 3.7263], [-73.1024, 3.7375], [-73.1101, 3.7382], [-73.108, 3.7568], [-73.1315, 3.7549], [-73.1358, 3.7435], [-73.1466, 3.7392], [-73.1576, 3.7267], [-73.1699, 3.7302], [-73.1779, 3.7211], [-73.1657, 3.7258], [-73.1598, 3.7083], [-73.1682, 3.7041], [-73.1731, 3.7092], [-73.172, 3.7007], [-73.1776, 3.7027], [-73.1807, 3.6939], [-73.1858, 3.6962], [-73.1981, 3.6907], [-73.2039, 3.6945], [-73.2097, 3.6906], [-73.2238, 3.7027], [-73.2512, 3.7083], [-73.258, 3.7012], [-73.2806, 3.7051], [-73.2877, 3.7109], [-73.303, 3.7081], [-73.3111, 3.7115], [-73.3381, 3.7041], [-73.3574, 3.7104], [-73.3801, 3.7067], [-73.3826, 3.7104], [-73.3904, 3.7056], [-73.4024, 3.7115], [-73.404, 3.7185], [-73.4229, 3.7193], [-73.4268, 3.7157], [-73.443, 3.7227], [-73.4442, 3.7279], [-73.4502, 3.7224], [-73.4531, 3.7289], [-73.4815, 3.7225], [-73.4901, 3.7304], [-73.5173, 3.7248], [-73.5203, 3.73], [-73.5403, 3.7325], [-73.545, 3.7419], [-73.5647, 3.7519], [-73.5679, 3.7607], [-73.5888, 3.7569], [-73.5914, 3.7621], [-73.6171, 3.7725], [-73.6288, 3.7686], [-73.6367, 3.7764], [-73.6547, 3.7782], [-73.6646, 3.7864], [-73.713, 3.7983], [-73.7191, 3.8054]]]}}, {"type": "Feature", "properties": {"osm_type": "relation", "osm_id": 610546412, "name": "La Macarena", "admin_level": "6", "kind": "subdivision_2", "parent_osm_id": 1305166, "parent_name": "Meta", "parent_iso": "CO-MET"}, "geometry": {"type": "Polygon", "coordinates": [[[-74.5996, 2.636], [-74.6176, 2.6346], [-74.6158, 2.6172], [-74.6329, 2.6142], [-74.6439, 2.6062], [-74.6483, 2.6011], [-74.6479, 2.5849], [-74.6732, 2.5678], [-74.6804, 2.5573], [-74.6774, 2.5229], [-74.6568, 2.51], [-74.6486, 2.492], [-74.6619, 2.4887], [-74.6622, 2.4712], [-74.6722, 2.4482], [-74.6725, 2.4248], [-74.6926, 2.421], [-74.7085, 2.3742], [-74.7232, 2.3519], [-74.733, 2.3477], [-74.742, 2.3237], [-74.7404, 2.3127], [-74.7487, 2.2803], [-74.7432, 2.2695], [-74.7321, 2.2801], [-74.7261, 2.2651], [-74.7164, 2.2618], [-74.7091, 2.2838], [-74.6981, 2.2808], [-74.6979, 2.2697], [-74.6912, 2.2621], [-74.6664, 2.2545], [-74.6618, 2.2448], [-74.6496, 2.2423], [-74.6487, 2.2281], [-74.6593, 2.2268], [-74.668, 2.2123], [-74.641, 2.201], [-74.635, 2.1875], [-74.6233, 2.1985], [-74.6115, 2.2011], [-74.5995, 2.1938], [-74.6003, 2.1528], [-74.5915, 2.1383], [-74.6439, 2.1188], [-74.6409, 2.1085], [-74.6439, 2.0943], [-74.6305, 2.0831], [-74.653, 2.0659], [-74.6425, 2.0619], [-74.6235, 2.0691], [-74.6067, 2.067], [-74.6104, 2.0395], [-74.588, 2.0203], [-74.5871, 2.0055], [-74.5629, 1.975], [-74.5606, 1.9643], [-74.5705, 1.9233], [-74.5601, 1.9009], [-74.5663, 1.8739], [-74.5639, 1.8485], [-74.5159, 1.8332], [-74.5043, 1.8273], [-74.5001, 1.8177], [-74.4776, 1.8072], [-74.4152, 1.8124], [-74.3834, 1.7905], [-74.3168, 1.7864], [-74.2885, 1.7723], [-74.2705, 1.7535], [-74.2154, 1.7667], [-74.2056, 1.7498], [-74.2073, 1.7161], [-74.1963, 1.7079], [-74.1458, 1.7043], [-74.1086, 1.694], [-74.1062, 1.6848], [-74.0958, 1.6743], [-74.1002, 1.6603], [-74.0899, 1.6425], [-74.0476, 1.6602], [-74.0251, 1.6467], [-74.0251, 1.6353], [-74.0092, 1.6407], [-73.9943, 1.6394], [-73.9892, 1.6281], [-73.9916, 1.6117], [-73.9865, 1.6051], [-73.9749, 1.6051], [-73.9668, 1.6171], [-73.9108, 1.6373], [-73.9007, 1.6314], [-73.8929, 1.619], [-73.8775, 1.6184], [-73.8576, 1.6081], [-73.8108, 1.6174], [-73.7904, 1.6335], [-73.7714, 1.6353], [-73.7521, 1.6291], [-73.7393, 1.6378], [-73.7123, 1.6284], [-73.6911, 1.6288], [-73.6691, 1.6082], [-73.66, 1.6121], [-73.6611, 2.2941], [-73.6542, 2.2939], [-73.6434, 2.2837], [-73.6349, 2.2867], [-73.6288, 2.2991], [-73.635, 2.3257], [-73.6191, 2.3326], [-73.6138, 2.3411], [-73.6311, 2.3531], [-73.6319, 2.3634], [-73.6181, 2.377], [-73.5986, 2.3808], [-73.5874, 2.3903], [-73.5824, 2.378], [-73.588, 2.3678], [-73.5854, 2.3596], [-73.5709, 2.3551], [-73.5338, 2.386], [-73.5257, 2.3861], [-73.5225, 2.3673], [-73.5144, 2.3534], [-73.5163, 2.3343], [-73.5052, 2.3371], [-73.5083, 2.3529], [-73.4986, 2.3583], [-73.4698, 2.3613], [-73.4599, 2.3386], [-73.4507, 2.3394], [-73.4458, 2.349], [-73.4557, 2.3824], [-73.4441, 2.3903], [-73.4489, 2.4032], [-73.4575, 2.4059], [-73.45, 2.4233], [-73.4543, 2.4289], [-73.4418, 2.4551], [-73.4522, 2.4575], [-73.4564, 2.4751], [-73.4535, 2.4816], [-73.4639, 2.4928], [-73.4635, 2.4989], [-73.4724, 2.5047], [-73.4746, 2.4997], [-73.4862, 2.5021], [-73.4936, 2.4949], [-73.5013, 2.498], [-73.5048, 2.5081], [-73.5143, 2.5153], [-73.5135, 2.5218], [-73.5097, 2.5192], [-73.5018, 2.5249], [-73.5048, 2.5335], [-73.4979, 2.5382], [-73.5025, 2.5462], [-73.5007, 2.5556], [-73.505, 2.5552], [-73.5046, 2.5621], [-73.5122, 2.5684], [-73.508, 2.5816], [-73.5204, 2.5824], [-73.5208, 2.5896], [-73.5362, 2.5962], [-73.5591, 2.6399], [-73.5907, 2.6264], [-73.9317, 2.5399], [-73.9366, 2.5335], [-73.9434, 2.5393], [-73.9491, 2.529], [-73.96, 2.5391], [-73.9606, 2.5286], [-73.9755, 2.5158], [-73.9797, 2.5207], [-73.9707, 2.528], [-73.9831, 2.5282], [-73.9826, 2.5366], [-73.9939, 2.5498], [-74.0001, 2.5467], [-74.0092, 2.5525], [-74.0171, 2.5512], [-74.0166, 2.5615], [-74.024, 2.5672], [-74.0438, 2.5595], [-74.0509, 2.5658], [-74.0575, 2.5643], [-74.0568, 2.5442], [-74.0676, 2.5451], [-74.0731, 2.5563], [-74.0846, 2.561], [-74.0956, 2.5506], [-74.1146, 2.5656], [-74.1359, 2.556], [-74.1543, 2.5656], [-74.1718, 2.5594], [-74.1867, 2.5692], [-74.1986, 2.57], [-74.2028, 2.568], [-74.199, 2.5616], [-74.2063, 2.5567], [-74.2186, 2.5643], [-74.2272, 2.558], [-74.2368, 2.5617], [-74.2429, 2.5457], [-74.251, 2.55], [-74.2601, 2.5471], [-74.2727, 2.5683], [-74.282, 2.5599], [-74.297, 2.5575], [-74.3064, 2.5505], [-74.3417, 2.5536], [-74.3485, 2.5465], [-74.3589, 2.5493], [-74.3625, 2.5439], [-74.3742, 2.5431], [-74.3848, 2.5551], [-74.3917, 2.5548], [-74.4337, 2.5343], [-74.4426, 2.5359], [-74.4487, 2.5289], [-74.4659, 2.5341], [-74.4741, 2.5276], [-74.4755, 2.5201], [-74.4914, 2.518], [-74.4924, 2.5072], [-74.5023, 2.51], [-74.5068, 2.5222], [-74.516, 2.5235], [-74.5312, 2.5832], [-74.5451, 2.5834], [-74.5598, 2.5934], [-74.5688, 2.6067], [-74.5683, 2.6176], [-74.5935, 2.6369], [-74.5996, 2.636]]]}}, {"type": "Feature", "properties": {"osm_type": "relation", "osm_id": 188175397, "name": "Puerto Concordia", "admin_level": "6", "kind": "subdivision_2", "parent_osm_id": 1305166, "parent_name": "Meta", "parent_iso": "CO-MET"}, "geometry": {"type": "Polygon", "coordinates": [[[-72.4359, 2.74], [-72.4521, 2.7564], [-72.4637, 2.754], [-72.4806, 2.7411], [-72.4878, 2.7419], [-72.4889, 2.7374], [-72.4945, 2.7419], [-72.5035, 2.7386], [-72.5024, 2.7438], [-72.5199, 2.75], [-72.5197, 2.7572], [-72.5257, 2.76], [-72.5228, 2.7621], [-72.5406, 2.7682], [-72.5424, 2.7816], [-72.5539, 2.7782], [-72.5602, 2.7965], [-72.5648, 2.7906], [-72.5724, 2.794], [-72.5691, 2.7988], [-72.5745, 2.8077], [-72.5829, 2.8049], [-72.5863, 2.8123], [-72.5934, 2.809], [-72.6053, 2.8321], [-72.6136, 2.827], [-72.6204, 2.8356], [-72.6255, 2.8277], [-72.631, 2.8287], [-72.6398, 2.8365], [-72.6377, 2.8499], [-72.6419, 2.8539], [-72.6613, 2.8488], [-72.6663, 2.869], [-72.6569, 2.876], [-72.6676, 2.8776], [-72.6695, 2.8847], [-72.6794, 2.8863], [-72.6821, 2.8954], [-72.6876, 2.8963], [-72.6922, 2.9074], [-72.698, 2.9098], [-72.7038, 2.9264], [-72.7116, 2.9265], [-72.7165, 2.935], [-72.7219, 2.9345], [-72.7226, 2.9399], [-72.7329, 2.9443], [-72.7395, 2.9571], [-72.7597, 2.9707], [-72.7694, 2.9845], [-72.7987, 2.9922], [-72.7992, 3.0143], [-72.8077, 3.0201], [-72.8103, 2.9965], [-72.8149, 2.9906], [-72.8098, 2.9823], [-72.8265, 2.9674], [-72.8368, 2.9449], [-72.8312, 2.9214], [-72.8368, 2.9169], [-72.8448, 2.9192], [-72.8448, 2.9082], [-72.8586, 2.898], [-72.8668, 2.9014], [-72.8839, 2.8951], [-72.8934, 2.886], [-72.8893, 2.8761], [-72.8963, 2.8757], [-72.8881, 2.8642], [-72.8741, 2.8585], [-72.8763, 2.8536], [-72.8705, 2.8523], [-72.8599, 2.8369], [-72.8617, 2.8265], [-72.8684, 2.8326], [-72.8657, 2.8114], [-72.8578, 2.8152], [-72.8598, 2.8198], [-72.8555, 2.8156], [-72.8482, 2.8182], [-72.8456, 2.8095], [-72.827, 2.8069], [-72.8199, 2.7957], [-72.9417, 2.5249], [-72.9288, 2.5263], [-72.921, 2.5344], [-72.9231, 2.5572], [-72.9171, 2.5654], [-72.8981, 2.5632], [-72.8917, 2.5715], [-72.8685, 2.5781], [-72.8472, 2.5978], [-72.8165, 2.6146], [-72.7987, 2.6117], [-72.7872, 2.5877], [-72.7616, 2.5731], [-72.7397, 2.5699], [-72.7197, 2.5847], [-72.7022, 2.6178], [-72.6794, 2.6222], [-72.6664, 2.6088], [-72.6631, 2.5743], [-72.653, 2.5715], [-72.6431, 2.5808], [-72.6459, 2.6024], [-72.6209, 2.6274], [-72.6027, 2.6197], [-72.5975, 2.6041], [-72.599, 2.5857], [-72.5864, 2.5837], [-72.5805, 2.592], [-72.5867, 2.6393], [-72.5775, 2.6464], [-72.5576, 2.6486], [-72.5539, 2.6543], [-72.5562, 2.6614], [-72.5711, 2.6663], [-72.5669, 2.6805], [-72.5484, 2.6789], [-72.5372, 2.6828], [-72.5385, 2.7006], [-72.5338, 2.7036], [-72.5073, 2.6902], [-72.4834, 2.6858], [-72.4717, 2.6896], [-72.4638, 2.703], [-72.4643, 2.7181], [-72.4714, 2.7331], [-72.4443, 2.7346], [-72.4359, 2.74]]]}}, {"type": "Feature", "properties": {"osm_type": "relation", "osm_id": 233631581, "name": "Puerto Rico", "admin_level": "6", "kind": "subdivision_2", "parent_osm_id": 1305166, "parent_name": "Meta", "parent_iso": "CO-MET"}, "geometry": {"type": "Polygon", "coordinates": [[[-72.9417, 2.5249], [-72.8199, 2.7957], [-72.827, 2.8069], [-72.8456, 2.8095], [-72.8482, 2.8182], [-72.8555, 2.8156], [-72.8598, 2.8198], [-72.8578, 2.8152], [-72.8657, 2.8114], [-72.8684, 2.8326], [-72.8617, 2.8265], [-72.8599, 2.8369], [-72.8705, 2.8523], [-72.8763, 2.8536], [-72.8741, 2.8585], [-72.8788, 2.8576], [-72.8963, 2.8705], [-72.8963, 2.8757], [-72.8893, 2.8761], [-72.8934, 2.886], [-72.8906, 2.8882], [-72.8994, 2.9047], [-72.9081, 2.909], [-72.9066, 2.9172], [-72.9136, 2.9212], [-72.9115, 2.9281], [-72.9056, 2.9267], [-72.9037, 2.937], [-72.9082, 2.9497], [-72.9151, 2.9532], [-72.9093, 2.9593], [-72.9116, 2.9657], [-72.8997, 2.9693], [-72.8997, 2.9773], [-72.9075, 2.9788], [-72.9161, 2.9909], [-72.9263, 2.9872], [-72.929, 2.9793], [-72.9487, 2.9937], [-72.9536, 2.9923], [-72.9606, 3.0056], [-72.9596, 3.0154], [-72.9688, 3.02], [-72.9839, 3.0163], [-73.0635, 3.0217], [-73.0886, 3.0385], [-73.1253, 3.0738], [-73.1382, 3.0924], [-73.2556, 3.0266], [-73.3599, 2.9501], [-73.367, 2.9401], [-73.372, 2.9405], [-73.3783, 2.9238], [-73.3865, 2.9203], [-73.389, 2.9279], [-73.3954, 2.9318], [-73.396, 2.9272], [-73.402, 2.9279], [-73.4063, 2.9352], [-73.4065, 2.927], [-73.4117, 2.9337], [-73.4203, 2.9254], [-73.4339, 2.9329], [-73.4416, 2.9289], [-73.4469, 2.9334], [-73.4629, 2.9287], [-73.4723, 2.9324], [-73.4802, 2.9291], [-73.4965, 2.897], [-73.5097, 2.888], [-73.5191, 2.8582], [-73.5178, 2.8531], [-73.5011, 2.8566], [-73.5038, 2.8392], [-73.4881, 2.8428], [-73.4793, 2.83], [-73.4788, 2.8165], [-73.4654, 2.8152], [-73.4583, 2.7994], [-73.4458, 2.7948], [-73.4467, 2.7892], [-73.43, 2.7882], [-73.43, 2.7792], [-73.4218, 2.7766], [-73.418, 2.781], [-73.419, 2.7755], [-73.403, 2.7693], [-73.4079, 2.7597], [-73.4049, 2.7548], [-73.389, 2.7538], [-73.3878, 2.7447], [-73.3763, 2.7491], [-73.3737, 2.7448], [-73.3585, 2.7396], [-73.357, 2.7436], [-73.3488, 2.7383], [-73.3542, 2.7315], [-73.3433, 2.7203], [-73.3475, 2.7122], [-73.3403, 2.7092], [-73.3492, 2.7035], [-73.3483, 2.6965], [-73.3536, 2.6906], [-73.3479, 2.68], [-73.3524, 2.6759], [-73.3461, 2.6732], [-73.3484, 2.6685], [-73.3388, 2.6655], [-73.341, 2.6605], [-73.3362, 2.6555], [-73.3434, 2.6461], [-73.3401, 2.6447], [-73.345, 2.6343], [-73.3416, 2.6256], [-73.3455, 2.626], [-73.3495, 2.6092], [-73.3538, 2.6089], [-73.3457, 2.6009], [-73.3454, 2.569], [-73.3369, 2.555], [-73.3399, 2.5474], [-73.331, 2.5441], [-73.3382, 2.5443], [-73.3391, 2.5399], [-73.3343, 2.5351], [-73.3266, 2.5356], [-73.3265, 2.5274], [-73.3181, 2.5242], [-73.321, 2.5216], [-73.3159, 2.514], [-73.3123, 2.519], [-73.3075, 2.5116], [-73.3038, 2.5176], [-73.2984, 2.5097], [-73.2942, 2.5201], [-73.2915, 2.5154], [-73.2864, 2.5195], [-73.2839, 2.5087], [-73.2764, 2.5123], [-73.2706, 2.5019], [-73.2611, 2.5005], [-73.2577, 2.5056], [-73.2543, 2.4978], [-73.243, 2.4942], [-73.244, 2.4889], [-73.2346, 2.4915], [-73.238, 2.4855], [-73.2298, 2.4884], [-73.2285, 2.4819], [-73.223, 2.4942], [-73.2153, 2.4904], [-73.2168, 2.5029], [-73.2109, 2.4937], [-73.2075, 2.4969], [-73.2017, 2.483], [-73.1944, 2.4809], [-73.1983, 2.4735], [-73.1928, 2.4719], [-73.1941, 2.4671], [-73.1876, 2.4672], [-73.1878, 2.4579], [-73.1795, 2.4641], [-73.178, 2.4526], [-73.1639, 2.4478], [-73.1537, 2.435], [-73.1407, 2.4381], [-73.1312, 2.4218], [-73.1282, 2.4283], [-73.1206, 2.4259], [-73.1098, 2.4346], [-73.0963, 2.4256], [-73.0915, 2.4134], [-73.0814, 2.4147], [-73.0665, 2.427], [-73.0537, 2.4274], [-73.0431, 2.438], [-73.0319, 2.4128], [-72.9864, 2.4517], [-72.9649, 2.4491], [-72.9634, 2.454], [-72.9717, 2.466], [-72.9609, 2.4808], [-72.9539, 2.48], [-72.9378, 2.4644], [-72.9286, 2.4708], [-72.9276, 2.4796], [-72.9359, 2.5022], [-72.9439, 2.5037], [-72.9534, 2.4947], [-72.9587, 2.503], [-72.9522, 2.5202], [-72.9417, 2.5249]]]}}, {"type": "Feature", "properties": {"osm_type": "relation", "osm_id": 530792855, "name": "Vistahermosa", "admin_level": "6", "kind": "subdivision_2", "parent_osm_id": 1305166, "parent_name": "Meta", "parent_iso": "CO-MET"}, "geometry": {"type": "Polygon", "coordinates": [[[-73.9721, 2.5701], [-73.9675, 2.5699], [-73.9634, 2.5604], [-73.9666, 2.5528], [-73.9413, 2.551], [-73.9433, 2.5429], [-73.9295, 2.5382], [-73.5907, 2.6264], [-73.5591, 2.6399], [-73.5362, 2.5962], [-73.5208, 2.5896], [-73.5204, 2.5824], [-73.508, 2.5816], [-73.5122, 2.5684], [-73.5046, 2.5621], [-73.505, 2.5552], [-73.5007, 2.5556], [-73.5025, 2.5462], [-73.4979, 2.5382], [-73.5048, 2.5335], [-73.5018, 2.5249], [-73.5097, 2.5192], [-73.5135, 2.5218], [-73.5143, 2.5153], [-73.5048, 2.5081], [-73.5013, 2.498], [-73.4936, 2.4949], [-73.4862, 2.5021], [-73.4746, 2.4997], [-73.4724, 2.5047], [-73.4635, 2.4989], [-73.4639, 2.4928], [-73.4535, 2.4816], [-73.4564, 2.4751], [-73.4522, 2.4575], [-73.4418, 2.4551], [-73.4543, 2.4289], [-73.45, 2.4233], [-73.4575, 2.4059], [-73.4489, 2.4032], [-73.4441, 2.3903], [-73.4476, 2.3884], [-73.4396, 2.3846], [-73.431, 2.3613], [-73.441, 2.3382], [-73.4368, 2.3265], [-73.4296, 2.325], [-73.4231, 2.3368], [-73.4241, 2.3496], [-73.4122, 2.357], [-73.3903, 2.3511], [-73.3881, 2.3421], [-73.3963, 2.3289], [-73.379, 2.325], [-73.3743, 2.3318], [-73.3746, 2.3625], [-73.3569, 2.3685], [-73.3475, 2.3625], [-73.3451, 2.3527], [-73.3489, 2.3425], [-73.36, 2.3337], [-73.3559, 2.3242], [-73.3332, 2.3333], [-73.3298, 2.3441], [-73.3363, 2.3555], [-73.3304, 2.3604], [-73.32, 2.359], [-73.3006, 2.336], [-73.2674, 2.3588], [-73.2425, 2.3473], [-73.2381, 2.355], [-73.2412, 2.3713], [-73.2634, 2.3719], [-73.2679, 2.3809], [-73.2259, 2.3889], [-73.2165, 2.4055], [-73.2112, 2.3991], [-73.2177, 2.3864], [-73.2016, 2.3825], [-73.1862, 2.3883], [-73.1801, 2.3985], [-73.1657, 2.3994], [-73.1677, 2.3701], [-73.1584, 2.3649], [-73.1413, 2.3775], [-73.1235, 2.3797], [-73.1258, 2.3875], [-73.1408, 2.3955], [-73.1339, 2.4083], [-73.1241, 2.4117], [-73.119, 2.409], [-73.1148, 2.3833], [-73.1106, 2.381], [-73.0738, 2.4152], [-73.0696, 2.4251], [-73.0814, 2.4147], [-73.0915, 2.4134], [-73.0963, 2.4256], [-73.1098, 2.4346], [-73.1206, 2.4259], [-73.1282, 2.4283], [-73.1312, 2.4218], [-73.1407, 2.4381], [-73.1537, 2.435], [-73.1639, 2.4478], [-73.178, 2.4526], [-73.1795, 2.4641], [-73.1878, 2.4579], [-73.1876, 2.4672], [-73.1941, 2.4671], [-73.1928, 2.4719], [-73.1983, 2.4735], [-73.1944, 2.4809], [-73.2017, 2.483], [-73.2075, 2.4969], [-73.2109, 2.4937], [-73.2168, 2.5029], [-73.2153, 2.4904], [-73.223, 2.4942], [-73.2285, 2.4819], [-73.2298, 2.4884], [-73.238, 2.4855], [-73.2346, 2.4915], [-73.244, 2.4889], [-73.243, 2.4942], [-73.2543, 2.4978], [-73.2577, 2.5056], [-73.2611, 2.5005], [-73.2706, 2.5019], [-73.2764, 2.5123], [-73.2839, 2.5087], [-73.2864, 2.5195], [-73.2915, 2.5154], [-73.2942, 2.5201], [-73.2984, 2.5097], [-73.3038, 2.5176], [-73.3075, 2.5116], [-73.3123, 2.519], [-73.3159, 2.514], [-73.321, 2.5216], [-73.3181, 2.5242], [-73.3265, 2.5274], [-73.3266, 2.5356], [-73.3379, 2.5371], [-73.3382, 2.5443], [-73.331, 2.5441], [-73.3399, 2.5474], [-73.3369, 2.555], [-73.3454, 2.569], [-73.3457, 2.6009], [-73.3538, 2.6089], [-73.3495, 2.6092], [-73.3455, 2.626], [-73.3416, 2.6256], [-73.345, 2.6343], [-73.3401, 2.6447], [-73.3434, 2.6461], [-73.3362, 2.6555], [-73.341, 2.6605], [-73.3388, 2.6655], [-73.3484, 2.6685], [-73.3461, 2.6732], [-73.3524, 2.6759], [-73.3479, 2.68], [-73.3536, 2.6906], [-73.3483, 2.6965], [-73.3492, 2.7035], [-73.3403, 2.7092], [-73.3475, 2.7122], [-73.3433, 2.7203], [-73.3542, 2.7315], [-73.3488, 2.7383], [-73.357, 2.7436], [-73.3585, 2.7396], [-73.3737, 2.7448], [-73.3763, 2.7491], [-73.3878, 2.7447], [-73.389, 2.7538], [-73.4049, 2.7548], [-73.4079, 2.7597], [-73.403, 2.7693], [-73.419, 2.7755], [-73.418, 2.781], [-73.4218, 2.7766], [-73.43, 2.7792], [-73.43, 2.7882], [-73.4467, 2.7892], [-73.4458, 2.7948], [-73.4583, 2.7994], [-73.4654, 2.8152], [-73.4788, 2.8165], [-73.4793, 2.83], [-73.4881, 2.8428], [-73.5038, 2.8392], [-73.5011, 2.8566], [-73.5178, 2.8531], [-73.5191, 2.8582], [-73.5097, 2.888], [-73.4965, 2.897], [-73.4802, 2.9291], [-73.4469, 2.9334], [-73.4416, 2.9289], [-73.4262, 2.9318], [-73.4216, 2.9274], [-73.4239, 2.9366], [-73.4283, 2.9327], [-73.4363, 2.9385], [-73.4311, 2.9393], [-73.4296, 2.945], [-73.4418, 2.9451], [-73.435, 2.9551], [-73.438, 2.9756], [-73.4273, 2.9896], [-73.4249, 3.008], [-73.4373, 3.0344], [-73.4502, 3.0384], [-73.468, 3.0581], [-73.4789, 3.0612], [-73.5173, 3.0922], [-73.4742, 3.1267], [-73.482, 3.1215], [-73.4918, 3.1237], [-73.5338, 3.1486], [-73.5527, 3.153], [-73.5548, 3.1583], [-73.5623, 3.1473], [-73.5562, 3.1443], [-73.5651, 3.1425], [-73.5656, 3.1385], [-73.5724, 3.1458], [-73.5782, 3.1448], [-73.5808, 3.1508], [-73.5852, 3.1492], [-73.5896, 3.1635], [-73.6305, 3.1625], [-73.6327, 3.1693], [-73.6461, 3.1672], [-73.6542, 3.1759], [-73.6732, 3.1712], [-73.6782, 3.1771], [-73.6963, 3.1719], [-73.7463, 3.2005], [-73.7601, 3.2044], [-73.7646, 3.1945], [-73.7748, 3.1972], [-73.7964, 3.2164], [-73.8043, 3.2168], [-73.8323, 3.1989], [-73.8533, 3.2088], [-73.8553, 3.2151], [-73.8632, 3.2133], [-73.8894, 3.2048], [-73.9086, 3.177], [-73.9301, 3.1782], [-73.94, 3.1675], [-73.9626, 3.1646], [-74.0263, 3.1699], [-74.0351, 3.1545], [-73.9955, 3.0427], [-74.0004, 3.034], [-73.998, 3.0272], [-74.0076, 3.0163], [-74.0012, 2.9954], [-74.0066, 2.9836], [-73.9943, 2.9772], [-73.9919, 2.9699], [-74.0009, 2.9518], [-74.0134, 2.9455], [-74.0125, 2.9298], [-74.0071, 2.9273], [-74.0155, 2.9196], [-74.0153, 2.9084], [-74.0199, 2.9081], [-74.0161, 2.906], [-74.0261, 2.9039], [-74.0323, 2.8968], [-74.0327, 2.8862], [-74.0405, 2.8845], [-74.0361, 2.8783], [-74.0416, 2.8672], [-74.0493, 2.8688], [-74.0511, 2.8619], [-74.0582, 2.8607], [-74.0548, 2.8524], [-74.0582, 2.8438], [-74.0507, 2.8461], [-74.0581, 2.8396], [-74.0507, 2.8317], [-74.0533, 2.8282], [-74.0484, 2.833], [-74.049, 2.8266], [-74.0445, 2.8239], [-74.0419, 2.8313], [-74.0383, 2.824], [-74.0252, 2.8276], [-74.0284, 2.8214], [-74.0206, 2.8216], [-74.0214, 2.8137], [-74.0076, 2.8131], [-74.005, 2.7981], [-73.9825, 2.7952], [-73.9778, 2.7897], [-73.9869, 2.7761], [-73.9831, 2.7701], [-73.9756, 2.7698], [-73.9758, 2.7464], [-73.9696, 2.7392], [-73.972, 2.733], [-73.9791, 2.7346], [-74.004, 2.7128], [-73.9892, 2.7042], [-73.9884, 2.7081], [-73.9773, 2.7093], [-73.9757, 2.7018], [-73.9716, 2.7048], [-73.9688, 2.6966], [-73.9631, 2.6968], [-73.9605, 2.6908], [-73.9686, 2.6782], [-73.9607, 2.6768], [-73.9634, 2.6647], [-73.9556, 2.6641], [-73.9594, 2.6589], [-73.9507, 2.6541], [-73.9537, 2.643], [-73.9653, 2.6453], [-73.9581, 2.6215], [-73.9672, 2.6098], [-73.9632, 2.5961], [-73.967, 2.5915], [-73.9636, 2.5904], [-73.9718, 2.5808], [-73.9721, 2.5701]]]}}, {"type": "Feature", "properties": {"osm_type": "relation", "osm_id": 735348698, "name": "Mapiripán", "admin_level": "6", "kind": "subdivision_2", "parent_osm_id": 1305166, "parent_name": "Meta", "parent_iso": "CO-MET"}, "geometry": {"type": "Polygon", "coordinates": [[[-72.8782, 3.2637], [-72.8782, 3.252], [-72.8829, 3.2476], [-72.8858, 3.2501], [-72.8892, 3.2376], [-72.8954, 3.239], [-72.8991, 3.2217], [-72.8933, 3.2108], [-72.8955, 3.197], [-72.8876, 3.1607], [-72.916, 3.1275], [-72.9105, 3.1199], [-72.9039, 3.1213], [-72.9031, 3.0994], [-72.8961, 3.0971], [-72.8948, 3.0902], [-72.9041, 3.078], [-72.8988, 3.0758], [-72.9032, 3.0694], [-72.8989, 3.0669], [-72.9066, 3.0602], [-72.9019, 3.0503], [-72.9094, 3.0137], [-72.9016, 3.0067], [-72.8982, 3.0087], [-72.8927, 2.9977], [-72.9034, 2.9911], [-72.8965, 2.989], [-72.8938, 2.9791], [-72.8997, 2.9693], [-72.9116, 2.9657], [-72.9093, 2.9593], [-72.9151, 2.9532], [-72.9082, 2.9497], [-72.9037, 2.937], [-72.9056, 2.9267], [-72.9115, 2.9281], [-72.9136, 2.9212], [-72.9066, 2.9172], [-72.9081, 2.909], [-72.8994, 2.9047], [-72.8906, 2.8882], [-72.8668, 2.9014], [-72.8586, 2.898], [-72.8448, 2.9082], [-72.8448, 2.9192], [-72.8368, 2.9169], [-72.8312, 2.9214], [-72.8368, 2.9449], [-72.8265, 2.9674], [-72.8098, 2.9823], [-72.8149, 2.9906], [-72.8103, 2.9965], [-72.8106, 3.0162], [-72.8052, 3.0208], [-72.7992, 3.0143], [-72.7987, 2.9922], [-72.7694, 2.9845], [-72.7597, 2.9707], [-72.7395, 2.9571], [-72.7329, 2.9443], [-72.7226, 2.9399], [-72.7219, 2.9345], [-72.7165, 2.935], [-72.7116, 2.9265], [-72.7038, 2.9264], [-72.698, 2.9098], [-72.6922, 2.9074], [-72.6876, 2.8963], [-72.6821, 2.8954], [-72.6794, 2.8863], [-72.6695, 2.8847], [-72.6676, 2.8776], [-72.6569, 2.876], [-72.6663, 2.869], [-72.6613, 2.8488], [-72.6419, 2.8539], [-72.6377, 2.8499], [-72.6398, 2.8365], [-72.631, 2.8287], [-72.6255, 2.8277], [-72.6204, 2.8356], [-72.6136, 2.827], [-72.6053, 2.8321], [-72.5934, 2.809], [-72.5863, 2.8123], [-72.5829, 2.8049], [-72.5745, 2.8077], [-72.5691, 2.7988], [-72.5724, 2.794], [-72.5648, 2.7906], [-72.5602, 2.7965], [-72.5539, 2.7782], [-72.5424, 2.7816], [-72.5406, 2.7682], [-72.5228, 2.7621], [-72.5257, 2.76], [-72.5197, 2.7572], [-72.5199, 2.75], [-72.5024, 2.7438], [-72.5012, 2.7376], [-72.4945, 2.7419], [-72.4889, 2.7374], [-72.4878, 2.7419], [-72.4806, 2.7411], [-72.4637, 2.754], [-72.4521, 2.7564], [-72.4411, 2.7433], [-72.4071, 2.7258], [-72.3796, 2.7478], [-72.3584, 2.7811], [-72.3355, 2.7967], [-72.313, 2.7991], [-72.306, 2.7947], [-72.295, 2.7741], [-72.2729, 2.7796], [-72.2653, 2.794], [-72.2717, 2.8148], [-72.2595, 2.8247], [-72.2475, 2.8199], [-72.2249, 2.7834], [-72.2069, 2.7717], [-72.1933, 2.7721], [-72.184, 2.7903], [-72.1882, 2.7996], [-72.2058, 2.8148], [-72.2078, 2.838], [-72.2027, 2.864], [-72.1828, 2.8752], [-72.144, 2.8647], [-72.1352, 2.8889], [-72.116, 2.8808], [-72.1, 2.8406], [-72.0821, 2.8259], [-72.0516, 2.8167], [-72.0252, 2.8284], [-72.0049, 2.8294], [-71.9922, 2.8235], [-71.9819, 2.8012], [-71.9665, 2.8227], [-71.9539, 2.8317], [-71.9118, 2.8278], [-71.8555, 2.8427], [-71.8279, 2.8375], [-71.819, 2.8559], [-71.8231, 2.87], [-71.8509, 2.8716], [-71.8206, 2.8791], [-71.8005, 2.8765], [-71.7884, 2.8695], [-71.7841, 2.8536], [-71.7892, 2.8219], [-71.78, 2.8178], [-71.758, 2.853], [-71.7591, 2.8705], [-71.7676, 2.8882], [-71.7619, 2.8973], [-71.7417, 2.8843], [-71.7291, 2.8606], [-71.6971, 2.8381], [-71.6833, 2.8502], [-71.6815, 2.8717], [-71.662, 2.8727], [-71.658, 2.861], [-71.6739, 2.8258], [-71.6522, 2.8202], [-71.634, 2.8249], [-71.6278, 2.8376], [-71.6106, 2.8463], [-71.5752, 2.8443], [-71.5718, 2.8525], [-71.5845, 2.866], [-71.5832, 2.8723], [-71.5451, 2.8591], [-71.5299, 2.8785], [-71.5207, 2.879], [-71.4931, 2.8711], [-71.4818, 2.8544], [-71.4703, 2.8531], [-71.4635, 2.8615], [-71.4684, 2.8924], [-71.4634, 2.8993], [-71.4438, 2.8798], [-71.4196, 2.8678], [-71.3907, 2.844], [-71.3792, 2.8725], [-71.3835, 2.8861], [-71.3746, 2.8918], [-71.3666, 2.8927], [-71.3584, 2.8868], [-71.357, 2.8596], [-71.3453, 2.8603], [-71.3278, 2.8951], [-71.3331, 2.9135], [-71.3247, 2.9245], [-71.306, 2.9202], [-71.3005, 2.9079], [-71.2996, 2.8756], [-71.2837, 2.8678], [-71.2763, 2.869], [-71.2596, 2.8862], [-71.2518, 2.8824], [-71.2472, 2.8628], [-71.2218, 2.8656], [-71.2132, 2.8859], [-71.2052, 2.8916], [-71.1903, 2.8916], [-71.1835, 2.9048], [-71.1752, 2.9017], [-71.1538, 2.8723], [-71.1388, 2.8828], [-71.1382, 2.9039], [-71.1181, 2.8774], [-71.1094, 2.8726], [-71.1002, 2.8737], [-71.0878, 2.8831], [-71.0775, 2.8822], [-71.0776, 3.3555], [-71.0878, 3.3624], [-71.0915, 3.3751], [-71.0989, 3.3769], [-71.0955, 3.3799], [-71.0986, 3.3888], [-71.1098, 3.3839], [-71.117, 3.3902], [-71.1308, 3.3802], [-71.1385, 3.3853], [-71.1376, 3.3903], [-71.1439, 3.3892], [-71.1508, 3.4084], [-71.1599, 3.4082], [-71.1648, 3.4138], [-71.1658, 3.4235], [-71.1599, 3.4299], [-71.1621, 3.4365], [-71.1722, 3.4352], [-71.1803, 3.4417], [-71.1782, 3.4469], [-71.1831, 3.455], [-71.1915, 3.4553], [-71.199, 3.4636], [-71.2025, 3.4542], [-71.2118, 3.4582], [-71.2218, 3.4536], [-71.2204, 3.4564], [-71.2278, 3.4592], [-71.2247, 3.4667], [-71.2362, 3.4595], [-71.2479, 3.4652], [-71.2536, 3.4534], [-71.2588, 3.4558], [-71.2576, 3.4594], [-71.2674, 3.4569], [-71.2647, 3.4483], [-71.2764, 3.4402], [-71.2876, 3.4483], [-71.2913, 3.4441], [-71.2974, 3.4465], [-71.308, 3.4599], [-71.3161, 3.46], [-71.3172, 3.4768], [-71.325, 3.4754], [-71.3314, 3.4675], [-71.3361, 3.4738], [-71.3336, 3.4776], [-71.3438, 3.4817], [-71.3431, 3.4779], [-71.3482, 3.4819], [-71.3559, 3.4771], [-71.3728, 3.4825], [-71.3802, 3.4754], [-71.3895, 3.4804], [-71.4016, 3.474], [-71.4072, 3.4763], [-71.4106, 3.4859], [-71.4257, 3.4847], [-71.4256, 3.4785], [-71.4347, 3.482], [-71.4405, 3.476], [-71.4456, 3.4797], [-71.4602, 3.4714], [-71.4598, 3.464], [-71.4854, 3.4654], [-71.4873, 3.4586], [-71.5126, 3.4502], [-71.516, 3.4554], [-71.5307, 3.4542], [-71.5346, 3.4623], [-71.5361, 3.4573], [-71.5475, 3.4656], [-71.559, 3.4651], [-71.5682, 3.4782], [-71.5817, 3.4759], [-71.5968, 3.4842], [-71.6018, 3.4754], [-71.6247, 3.4729], [-71.6355, 3.4844], [-71.6502, 3.4864], [-71.6606, 3.4819], [-71.6669, 3.4706], [-71.68, 3.4696], [-71.6831, 3.4639], [-71.6929, 3.4676], [-71.6978, 3.4494], [-71.7027, 3.4458], [-71.7127, 3.4457], [-71.7155, 3.4518], [-71.7198, 3.4513], [-71.7345, 3.4395], [-71.7349, 3.4305], [-71.7501, 3.428], [-71.7569, 3.417], [-71.7629, 3.4255], [-71.7656, 3.4219], [-71.7771, 3.4257], [-71.7766, 3.4189], [-71.7825, 3.4196], [-71.7954, 3.4058], [-71.7993, 3.4067], [-71.7986, 3.4], [-71.8122, 3.3918], [-71.8156, 3.397], [-71.8268, 3.3893], [-71.8299, 3.3972], [-71.8343, 3.3955], [-71.8355, 3.4019], [-71.8401, 3.4006], [-71.8376, 3.4084], [-71.8435, 3.4132], [-71.8479, 3.4036], [-71.8488, 3.4078], [-71.8567, 3.4084], [-71.8587, 3.4005], [-71.877, 3.4059], [-71.8767, 3.4011], [-71.8834, 3.3998], [-71.8936, 3.4075], [-71.8984, 3.4006], [-71.9103, 3.3989], [-71.911, 3.3869], [-71.9393, 3.3943], [-71.9484, 3.3858], [-71.9588, 3.387], [-71.9598, 3.3781], [-71.9666, 3.3726], [-71.9821, 3.377], [-71.9843, 3.3692], [-71.9937, 3.3663], [-71.998, 3.3594], [-72.01, 3.3543], [-72.0177, 3.3571], [-72.0324, 3.3442], [-72.0393, 3.3468], [-72.0495, 3.342], [-72.0548, 3.3284], [-72.0671, 3.3283], [-72.0772, 3.3076], [-72.0834, 3.3066], [-72.0973, 3.3151], [-72.1003, 3.3097], [-72.1128, 3.3075], [-72.1205, 3.3008], [-72.1276, 3.3038], [-72.1527, 3.2812], [-72.1633, 3.2816], [-72.1816, 3.2729], [-72.1936, 3.2767], [-72.197, 3.2842], [-72.1936, 3.2946], [-72.202, 3.3072], [-72.2043, 3.3371], [-72.2204, 3.3554], [-72.2287, 3.3571], [-72.2282, 3.3626], [-72.2373, 3.3619], [-72.2403, 3.3702], [-72.2427, 3.3641], [-72.2576, 3.3638], [-72.2594, 3.368], [-72.2674, 3.3618], [-72.2701, 3.3668], [-72.2824, 3.3651], [-72.2835, 3.3708], [-72.2919, 3.3636], [-72.3065, 3.3698], [-72.3134, 3.3587], [-72.3185, 3.3609], [-72.3147, 3.3633], [-72.317, 3.367], [-72.3277, 3.3711], [-72.358, 3.3694], [-72.3635, 3.383], [-72.3731, 3.3839], [-72.3775, 3.3894], [-72.3767, 3.3958], [-72.387, 3.4062], [-72.3838, 3.4097], [-72.3956, 3.4139], [-72.3954, 3.4217], [-72.3997, 3.4214], [-72.4059, 3.4353], [-72.4108, 3.4138], [-72.4259, 3.4177], [-72.4239, 3.4116], [-72.4325, 3.4077], [-72.4246, 3.4017], [-72.4349, 3.3981], [-72.4319, 3.3802], [-72.4483, 3.379], [-72.4477, 3.372], [-72.4553, 3.3724], [-72.4532, 3.3679], [-72.459, 3.3656], [-72.4561, 3.3585], [-72.464, 3.3673], [-72.4683, 3.3594], [-72.473, 3.364], [-72.4788, 3.3602], [-72.4758, 3.3512], [-72.4841, 3.3555], [-72.485, 3.3469], [-72.4983, 3.353], [-72.496, 3.3475], [-72.5032, 3.3311], [-72.5185, 3.329], [-72.5306, 3.337], [-72.534, 3.3316], [-72.5293, 3.3314], [-72.5268, 3.3169], [-72.5374, 3.3185], [-72.547, 3.3303], [-72.5519, 3.3223], [-72.5623, 3.3307], [-72.569, 3.3222], [-72.5767, 3.3209], [-72.5781, 3.3263], [-72.586, 3.3275], [-72.5846, 3.3365], [-72.5901, 3.3377], [-72.5853, 3.339], [-72.5861, 3.3469], [-72.5929, 3.3481], [-72.604, 3.3374], [-72.6047, 3.3266], [-72.6156, 3.3292], [-72.6242, 3.322], [-72.6238, 3.3264], [-72.6325, 3.324], [-72.6373, 3.3273], [-72.6461, 3.3219], [-72.6382, 3.3084], [-72.6437, 3.3046], [-72.6469, 3.3109], [-72.6545, 3.2967], [-72.6686, 3.3051], [-72.6729, 3.2985], [-72.6678, 3.2921], [-72.6759, 3.2913], [-72.6783, 3.2816], [-72.6825, 3.2911], [-72.694, 3.291], [-72.691, 3.2944], [-72.6961, 3.3028], [-72.7039, 3.2982], [-72.7023, 3.2783], [-72.7116, 3.2799], [-72.7156, 3.2715], [-72.7238, 3.2823], [-72.7276, 3.2786], [-72.7252, 3.2722], [-72.7342, 3.2749], [-72.7339, 3.2651], [-72.74, 3.2718], [-72.744, 3.2604], [-72.7501, 3.2613], [-72.7512, 3.2668], [-72.7595, 3.2638], [-72.7549, 3.2697], [-72.7591, 3.269], [-72.7577, 3.275], [-72.7744, 3.2804], [-72.7806, 3.2706], [-72.7882, 3.2673], [-72.7935, 3.2705], [-72.7928, 3.2607], [-72.8035, 3.258], [-72.8021, 3.2647], [-72.8191, 3.2632], [-72.8222, 3.2698], [-72.8234, 3.2619], [-72.8301, 3.2596], [-72.8362, 3.2613], [-72.8332, 3.2687], [-72.8447, 3.2639], [-72.8558, 3.2682], [-72.8561, 3.2598], [-72.8578, 3.2637], [-72.863, 3.2593], [-72.8694, 3.2652], [-72.8782, 3.2637]]]}}, {"type": "Feature", "properties": {"osm_type": "relation", "osm_id": 514719349, "name": "Puerto Lleras", "admin_level": "6", "kind": "subdivision_2", "parent_osm_id": 1305166, "parent_name": "Meta", "parent_iso": "CO-MET"}, "geometry": {"type": "Polygon", "coordinates": [[[-73.5476, 3.2309], [-73.5409, 3.2239], [-73.536, 3.1978], [-73.5263, 3.1914], [-73.51, 3.1936], [-73.5003, 3.1843], [-73.489, 3.1828], [-73.4611, 3.1578], [-73.4613, 3.152], [-73.4706, 3.143], [-73.4681, 3.1385], [-73.4736, 3.1222], [-73.5173, 3.0922], [-73.4789, 3.0612], [-73.468, 3.0581], [-73.4502, 3.0384], [-73.4373, 3.0344], [-73.4249, 3.008], [-73.4273, 2.9896], [-73.438, 2.9756], [-73.435, 2.9551], [-73.4418, 2.9451], [-73.4296, 2.945], [-73.4311, 2.9393], [-73.4363, 2.9385], [-73.4283, 2.9327], [-73.4239, 2.9366], [-73.4203, 2.9254], [-73.4117, 2.9337], [-73.4065, 2.927], [-73.4063, 2.9352], [-73.402, 2.9279], [-73.396, 2.9272], [-73.3954, 2.9318], [-73.389, 2.9279], [-73.3865, 2.9203], [-73.3783, 2.9238], [-73.372, 2.9405], [-73.367, 2.9401], [-73.3599, 2.9501], [-73.2556, 3.0266], [-73.1382, 3.0924], [-73.1253, 3.0738], [-73.0886, 3.0385], [-73.0635, 3.0217], [-72.9839, 3.0163], [-72.9688, 3.02], [-72.9596, 3.0154], [-72.9606, 3.0056], [-72.9536, 2.9923], [-72.9487, 2.9937], [-72.929, 2.9793], [-72.9263, 2.9872], [-72.9161, 2.9909], [-72.9075, 2.9788], [-72.8997, 2.9773], [-72.9008, 2.9709], [-72.8938, 2.9791], [-72.8965, 2.989], [-72.9034, 2.9911], [-72.8927, 2.9977], [-72.8982, 3.0087], [-72.9016, 3.0067], [-72.9094, 3.0137], [-72.9019, 3.0503], [-72.9066, 3.0602], [-72.8989, 3.0669], [-72.9032, 3.0694], [-72.8988, 3.0758], [-72.9041, 3.078], [-72.8948, 3.0902], [-72.8961, 3.0971], [-72.9031, 3.0994], [-72.9039, 3.1213], [-72.9105, 3.1199], [-72.916, 3.1275], [-72.8876, 3.1607], [-72.8955, 3.197], [-72.8933, 3.2108], [-72.8991, 3.2217], [-72.8954, 3.239], [-72.8892, 3.2376], [-72.8858, 3.2501], [-72.8829, 3.2476], [-72.8782, 3.252], [-72.8783, 3.2688], [-72.8909, 3.2708], [-72.8945, 3.2606], [-72.9089, 3.2565], [-72.92, 3.2599], [-72.9198, 3.2545], [-72.9276, 3.2513], [-72.9278, 3.2592], [-72.9493, 3.2565], [-72.9565, 3.2507], [-72.9609, 3.2565], [-72.97, 3.2534], [-72.9748, 3.2568], [-72.9691, 3.2472], [-72.9752, 3.2453], [-72.9803, 3.2493], [-72.9828, 3.2393], [-72.9897, 3.2452], [-72.9861, 3.2554], [-72.9956, 3.2564], [-72.9972, 3.2638], [-73.0043, 3.264], [-73.0034, 3.2551], [-73.0113, 3.258], [-73.011, 3.262], [-73.0176, 3.2611], [-73.0165, 3.2674], [-73.0227, 3.2698], [-73.0323, 3.263], [-73.0378, 3.2687], [-73.0483, 3.2601], [-73.0499, 3.2714], [-73.0619, 3.2729], [-73.0662, 3.2883], [-73.0673, 3.2782], [-73.0721, 3.2854], [-73.0762, 3.283], [-73.0751, 3.2772], [-73.0889, 3.2805], [-73.0934, 3.309], [-73.0998, 3.3115], [-73.1026, 3.3077], [-73.1192, 3.3174], [-73.1167, 3.3259], [-73.1231, 3.3349], [-73.1221, 3.3427], [-73.1342, 3.3439], [-73.1356, 3.3383], [-73.1458, 3.3395], [-73.1571, 3.3482], [-73.1611, 3.3451], [-73.165, 3.3526], [-73.1657, 3.3495], [-73.1687, 3.3536], [-73.1778, 3.3526], [-73.1881, 3.3673], [-73.1999, 3.3582], [-73.206, 3.3609], [-73.2032, 3.3636], [-73.2098, 3.3718], [-73.2066, 3.3795], [-73.2215, 3.3856], [-73.2211, 3.3952], [-73.2287, 3.3977], [-73.2165, 3.4094], [-73.2344, 3.4181], [-73.2324, 3.426], [-73.2531, 3.4247], [-73.2568, 3.4321], [-73.2532, 3.441], [-73.2562, 3.4436], [-73.2633, 3.4369], [-73.2622, 3.444], [-73.2694, 3.4479], [-73.2785, 3.468], [-73.2893, 3.4697], [-73.2935, 3.4651], [-73.2993, 3.4756], [-73.3306, 3.4842], [-73.3358, 3.4937], [-73.3461, 3.4982], [-73.3744, 3.4822], [-73.3842, 3.4571], [-73.38, 3.4448], [-73.4064, 3.4196], [-73.4065, 3.3851], [-73.4142, 3.3766], [-73.433, 3.3095], [-73.4551, 3.3011], [-73.4607, 3.3045], [-73.4651, 3.318], [-73.471, 3.3171], [-73.473, 3.3223], [-73.4889, 3.3193], [-73.4985, 3.3253], [-73.4992, 3.3188], [-73.5046, 3.3162], [-73.5014, 3.3131], [-73.5168, 3.3091], [-73.5302, 3.2929], [-73.5609, 3.3014], [-73.5986, 3.3009], [-73.599, 3.2907], [-73.5934, 3.2849], [-73.5548, 3.2691], [-73.547, 3.2537], [-73.5476, 3.2309]]]}}, {"type": "Feature", "properties": {"osm_type": "relation", "osm_id": 303975321, "name": "Villavicencio", "admin_level": "6", "kind": "subdivision_2", "parent_osm_id": 1305166, "parent_name": "Meta", "parent_iso": "CO-MET"}, "geometry": {"type": "Polygon", "coordinates": [[[-73.7426, 4.1987], [-73.7326, 4.2031], [-73.7219, 4.1964], [-73.7122, 4.1837], [-73.7093, 4.1661], [-73.7251, 4.1381], [-73.7661, 4.1173], [-73.7614, 4.0738], [-73.7678, 4.0573], [-73.7642, 4.0464], [-73.7501, 4.0326], [-73.6695, 4.0291], [-73.6257, 4.0184], [-73.5771, 4.0177], [-73.5091, 3.9994], [-73.4821, 3.9983], [-73.4489, 3.988], [-73.4161, 3.9839], [-73.3691, 3.9669], [-73.3464, 3.9716], [-73.3292, 3.9694], [-73.3235, 3.9553], [-73.3105, 3.9587], [-73.3058, 3.9543], [-73.2989, 3.9589], [-73.2902, 3.9493], [-73.2678, 3.9617], [-73.2547, 3.9581], [-73.2534, 3.9631], [-73.2406, 3.97], [-73.2308, 3.9652], [-73.2349, 3.956], [-73.2241, 3.9578], [-73.2163, 3.9477], [-73.1987, 3.9491], [-73.1869, 3.9369], [-73.1795, 3.9429], [-73.1751, 3.935], [-73.175, 4.0403], [-73.2603, 4.13], [-73.2711, 4.1316], [-73.2725, 4.1393], [-73.3066, 4.1408], [-73.3172, 4.1336], [-73.3359, 4.1349], [-73.348, 4.1299], [-73.3747, 4.1368], [-73.3817, 4.132], [-73.3995, 4.1312], [-73.4298, 4.1446], [-73.4552, 4.1478], [-73.4736, 4.163], [-73.5146, 4.1625], [-73.5415, 4.1746], [-73.5406, 4.1793], [-73.5456, 4.176], [-73.5557, 4.1872], [-73.5588, 4.1844], [-73.5727, 4.1884], [-73.5774, 4.1961], [-73.5893, 4.1931], [-73.6058, 4.2098], [-73.6055, 4.2209], [-73.6114, 4.2141], [-73.6213, 4.2148], [-73.6226, 4.2324], [-73.6061, 4.2472], [-73.6109, 4.2609], [-73.6293, 4.2763], [-73.6278, 4.2865], [-73.6562, 4.2866], [-73.6553, 4.2724], [-73.6657, 4.2802], [-73.6874, 4.2799], [-73.6932, 4.2885], [-73.7054, 4.2775], [-73.7137, 4.2849], [-73.7242, 4.279], [-73.7497, 4.285], [-73.7641, 4.2812], [-73.7441, 4.2662], [-73.7514, 4.259], [-73.7603, 4.2364], [-73.7507, 4.2041], [-73.7426, 4.1987]]]}}, {"type": "Feature", "properties": {"osm_type": "relation", "osm_id": 773288371, "name": "Puerto Gaitán", "admin_level": "6", "kind": "subdivision_2", "parent_osm_id": 1305166, "parent_name": "Meta", "parent_iso": "CO-MET"}, "geometry": {"type": "Polygon", "coordinates": [[[-72.2949, 3.7565], [-72.2833, 3.7486], [-72.287, 3.7369], [-72.2968, 3.7355], [-72.2928, 3.7288], [-72.2971, 3.7236], [-72.2957, 3.7104], [-72.2909, 3.7077], [-72.2874, 3.7113], [-72.2798, 3.7029], [-72.2918, 3.6986], [-72.2848, 3.6922], [-72.2859, 3.6865], [-72.3032, 3.6945], [-72.3003, 3.6817], [-72.3061, 3.6783], [-72.2992, 3.6745], [-72.2993, 3.6591], [-72.3091, 3.65], [-72.3062, 3.6428], [-72.2949, 3.6421], [-72.2905, 3.6365], [-72.2953, 3.6317], [-72.3091, 3.6361], [-72.3127, 3.6311], [-72.3046, 3.6248], [-72.3048, 3.6091], [-72.3089, 3.6131], [-72.3158, 3.6087], [-72.3217, 3.6137], [-72.335, 3.6019], [-72.3336, 3.5973], [-72.3262, 3.6014], [-72.3283, 3.5916], [-72.3219, 3.5849], [-72.325, 3.5767], [-72.3408, 3.5814], [-72.3485, 3.571], [-72.3681, 3.5632], [-72.3564, 3.5552], [-72.3583, 3.5485], [-72.3541, 3.5427], [-72.3608, 3.5397], [-72.3514, 3.5334], [-72.3584, 3.528], [-72.3487, 3.5253], [-72.3456, 3.5139], [-72.3572, 3.514], [-72.3613, 3.5009], [-72.3672, 3.513], [-72.3881, 3.495], [-72.3756, 3.4886], [-72.379, 3.479], [-72.3741, 3.471], [-72.3778, 3.4676], [-72.3846, 3.4729], [-72.38, 3.4535], [-72.3921, 3.455], [-72.3903, 3.4459], [-72.4045, 3.443], [-72.4055, 3.4385], [-72.4007, 3.4419], [-72.3965, 3.4369], [-72.4059, 3.4353], [-72.4059, 3.4309], [-72.3997, 3.4214], [-72.3954, 3.4217], [-72.3956, 3.4139], [-72.3838, 3.4097], [-72.387, 3.4062], [-72.3767, 3.3958], [-72.3775, 3.3894], [-72.3731, 3.3839], [-72.3635, 3.383], [-72.358, 3.3694], [-72.3277, 3.3711], [-72.317, 3.367], [-72.3147, 3.3633], [-72.3185, 3.3609], [-72.3134, 3.3587], [-72.3065, 3.3698], [-72.2919, 3.3636], [-72.2835, 3.3708], [-72.2824, 3.3651], [-72.2701, 3.3668], [-72.2674, 3.3618], [-72.2594, 3.368], [-72.2576, 3.3638], [-72.2427, 3.3641], [-72.2403, 3.3702], [-72.2373, 3.3619], [-72.2282, 3.3626], [-72.2287, 3.3571], [-72.2204, 3.3554], [-72.2043, 3.3371], [-72.2061, 3.3274], [-72.1989, 3.2978], [-72.1936, 3.2946], [-72.1972, 3.2878], [-72.1936, 3.2767], [-72.1816, 3.2729], [-72.1633, 3.2816], [-72.1527, 3.2812], [-72.1276, 3.3038], [-72.1205, 3.3008], [-72.1128, 3.3075], [-72.1003, 3.3097], [-72.0973, 3.3151], [-72.0834, 3.3066], [-72.0772, 3.3076], [-72.0671, 3.3283], [-72.0548, 3.3284], [-72.0495, 3.342], [-72.0393, 3.3468], [-72.0324, 3.3442], [-72.0177, 3.3571], [-72.01, 3.3543], [-71.998, 3.3594], [-71.9937, 3.3663], [-71.9843, 3.3692], [-71.9821, 3.377], [-71.9666, 3.3726], [-71.9598, 3.3781], [-71.9588, 3.387], [-71.9484, 3.3858], [-71.9393, 3.3943], [-71.911, 3.3869], [-71.9103, 3.3989], [-71.8984, 3.4006], [-71.8936, 3.4075], [-71.8834, 3.3998], [-71.8767, 3.4011], [-71.877, 3.4059], [-71.8587, 3.4005], [-71.8567, 3.4084], [-71.8488, 3.4078], [-71.8479, 3.4036], [-71.8435, 3.4132], [-71.8376, 3.4084], [-71.8401, 3.4006], [-71.8355, 3.4019], [-71.8343, 3.3955], [-71.8299, 3.3972], [-71.8268, 3.3893], [-71.8156, 3.397], [-71.8122, 3.3918], [-71.7986, 3.4], [-71.7993, 3.4067], [-71.7954, 3.4058], [-71.7825, 3.4196], [-71.7766, 3.4189], [-71.7771, 3.4257], [-71.7656, 3.4219], [-71.7629, 3.4255], [-71.7569, 3.417], [-71.7501, 3.428], [-71.7349, 3.4305], [-71.7345, 3.4395], [-71.7198, 3.4513], [-71.7155, 3.4518], [-71.7127, 3.4457], [-71.7027, 3.4458], [-71.6978, 3.4494], [-71.6929, 3.4676], [-71.6831, 3.4639], [-71.68, 3.4696], [-71.6669, 3.4706], [-71.6606, 3.4819], [-71.6502, 3.4864], [-71.6355, 3.4844], [-71.6247, 3.4729], [-71.6018, 3.4754], [-71.5968, 3.4842], [-71.5817, 3.4759], [-71.5682, 3.4782], [-71.559, 3.4651], [-71.5475, 3.4656], [-71.5361, 3.4573], [-71.5346, 3.4623], [-71.5307, 3.4542], [-71.516, 3.4554], [-71.5126, 3.4502], [-71.4873, 3.4586], [-71.4854, 3.4654], [-71.4598, 3.464], [-71.4602, 3.4714], [-71.4456, 3.4797], [-71.4405, 3.476], [-71.4347, 3.482], [-71.4256, 3.4785], [-71.4257, 3.4847], [-71.4106, 3.4859], [-71.4072, 3.4763], [-71.4016, 3.474], [-71.3895, 3.4804], [-71.3802, 3.4754], [-71.3728, 3.4825], [-71.3559, 3.4771], [-71.3482, 3.4819], [-71.3431, 3.4779], [-71.3438, 3.4817], [-71.3336, 3.4776], [-71.3361, 3.4738], [-71.3314, 3.4675], [-71.325, 3.4754], [-71.3172, 3.4768], [-71.3161, 3.46], [-71.308, 3.4599], [-71.2974, 3.4465], [-71.2913, 3.4441], [-71.2876, 3.4483], [-71.2764, 3.4402], [-71.2647, 3.4483], [-71.2674, 3.4569], [-71.2576, 3.4594], [-71.2588, 3.4558], [-71.2536, 3.4534], [-71.2479, 3.4652], [-71.2362, 3.4595], [-71.2247, 3.4667], [-71.2278, 3.4592], [-71.2204, 3.4564], [-71.2218, 3.4536], [-71.2118, 3.4582], [-71.2025, 3.4542], [-71.199, 3.4636], [-71.1915, 3.4553], [-71.1831, 3.455], [-71.1782, 3.4469], [-71.1803, 3.4417], [-71.1722, 3.4352], [-71.1621, 3.4365], [-71.1599, 3.4299], [-71.1658, 3.4235], [-71.1648, 3.4138], [-71.1599, 3.4082], [-71.1508, 3.4084], [-71.1439, 3.3892], [-71.1376, 3.3903], [-71.1385, 3.3853], [-71.1308, 3.3802], [-71.117, 3.3902], [-71.1098, 3.3839], [-71.0986, 3.3888], [-71.0955, 3.3799], [-71.0989, 3.3769], [-71.0915, 3.3751], [-71.0878, 3.3624], [-71.0776, 3.3555], [-71.0779, 4.8991], [-71.106, 4.8845], [-71.1132, 4.8746], [-71.1501, 4.8617], [-71.1688, 4.8426], [-71.2117, 4.8173], [-71.2389, 4.8177], [-71.2749, 4.7992], [-71.2883, 4.8031], [-71.3228, 4.7667], [-71.3762, 4.7512], [-71.3902, 4.7567], [-71.4293, 4.7233], [-71.5088, 4.6981], [-71.5233, 4.6822], [-71.5768, 4.675], [-71.5979, 4.6453], [-71.6184, 4.6371], [-71.646, 4.6151], [-71.6697, 4.6097], [-71.7352, 4.5745], [-71.7626, 4.5813], [-71.7771, 4.5796], [-71.787, 4.5861], [-71.8067, 4.5835], [-71.8238, 4.5518], [-71.8501, 4.5327], [-71.8678, 4.5054], [-71.8986, 4.4894], [-71.905, 4.4678], [-71.9189, 4.4528], [-71.933, 4.4465], [-71.9384, 4.4363], [-71.9562, 4.4219], [-71.9565, 4.412], [-71.9709, 4.4078], [-71.9753, 4.394], [-71.9882, 4.3844], [-72.0268, 4.387], [-72.0587, 4.3745], [-72.0859, 4.4037], [-72.1022, 4.3938], [-72.1028, 4.3987], [-72.1193, 4.3988], [-72.126, 4.3851], [-72.1308, 4.3866], [-72.1297, 4.3802], [-72.1337, 4.3832], [-72.1327, 4.3773], [-72.1471, 4.367], [-72.145, 4.3611], [-72.1546, 4.3516], [-72.1504, 4.3456], [-72.155, 4.3409], [-72.1609, 4.3422], [-72.1608, 4.3277], [-72.1662, 4.3276], [-72.1609, 4.322], [-72.1662, 4.3205], [-72.1621, 4.3128], [-72.169, 4.2994], [-72.1661, 4.2911], [-72.1714, 4.2855], [-72.1721, 4.2756], [-72.1672, 4.2753], [-72.1733, 4.264], [-72.1688, 4.2563], [-72.1773, 4.2513], [-72.1833, 4.2331], [-72.18, 4.2291], [-72.1872, 4.2279], [-72.1872, 4.2208], [-72.1808, 4.2179], [-72.1842, 4.209], [-72.1878, 4.2105], [-72.1841, 4.2031], [-72.1893, 4.1855], [-72.193, 4.1869], [-72.1915, 4.1828], [-72.2012, 4.1653], [-72.2068, 4.1644], [-72.2057, 4.1599], [-72.2165, 4.1624], [-72.2254, 4.1494], [-72.2137, 4.1349], [-72.2021, 4.1312], [-72.1962, 4.124], [-72.1982, 4.1105], [-72.1702, 4.1041], [-72.1616, 4.0974], [-72.1501, 4.0955], [-72.1425, 4.1037], [-72.1183, 4.1106], [-72.1099, 4.122], [-72.1048, 4.1166], [-72.1103, 4.1047], [-72.1071, 4.0885], [-72.1177, 4.0846], [-72.1223, 4.0678], [-72.1215, 4.0445], [-72.1529, 4.0613], [-72.1592, 4.0588], [-72.16, 4.0496], [-72.1462, 4.0476], [-72.1392, 4.0411], [-72.1375, 4.0256], [-72.1436, 4.0139], [-72.1761, 4.0153], [-72.1775, 4.0089], [-72.1565, 4.0027], [-72.1744, 3.9912], [-72.18, 3.9754], [-72.1667, 3.9586], [-72.1924, 3.9586], [-72.2012, 3.9519], [-72.2028, 3.9422], [-72.1909, 3.924], [-72.1937, 3.9178], [-72.2061, 3.9117], [-72.2107, 3.8796], [-72.2202, 3.8832], [-72.2136, 3.8988], [-72.2155, 3.9057], [-72.2291, 3.8969], [-72.2375, 3.9003], [-72.265, 3.8941], [-72.2614, 3.8883], [-72.2449, 3.889], [-72.2358, 3.8844], [-72.235, 3.879], [-72.2427, 3.8736], [-72.2357, 3.8626], [-72.2636, 3.8626], [-72.2673, 3.8525], [-72.2628, 3.8385], [-72.2778, 3.8352], [-72.2819, 3.8285], [-72.2746, 3.82], [-72.2945, 3.8111], [-72.293, 3.8051], [-72.2711, 3.7913], [-72.2935, 3.7832], [-72.2943, 3.7745], [-72.2812, 3.7797], [-72.2843, 3.7737], [-72.2798, 3.7637], [-72.2817, 3.759], [-72.2953, 3.7645], [-72.2949, 3.7565]]]}}]}