{"type": "FeatureCollection", "parent": {"osm_id": 1319097, "name": "Magdalena", "admin_level": "4", "kind": "subdivision_1", "child_kind": "subdivision_2", "iso": "CO-MAG"}, "features": [{"type": "Feature", "properties": {"osm_type": "relation", "osm_id": 521742011, "name": "Algarrobo", "admin_level": "6", "kind": "subdivision_2", "parent_osm_id": 1319097, "parent_name": "Magdalena", "parent_iso": "CO-MAG"}, "geometry": {"type": "Polygon", "coordinates": [[[-73.9781, 10.2772], [-73.995, 10.2738], [-74.0044, 10.279], [-74.0048, 10.289], [-74.0283, 10.3287], [-74.0261, 10.3314], [-74.0331, 10.3393], [-74.0363, 10.3369], [-74.0415, 10.3461], [-74.0572, 10.3246], [-74.1104, 10.3932], [-74.1251, 10.3753], [-74.1375, 10.3761], [-74.1503, 10.3704], [-74.1675, 10.3415], [-74.1707, 10.3247], [-74.1814, 10.3193], [-74.1902, 10.294], [-74.1902, 10.2552], [-74.2057, 10.2241], [-74.2048, 10.2149], [-74.213, 10.1967], [-74.1964, 10.1863], [-74.1813, 10.1984], [-74.1705, 10.198], [-74.1616, 10.1909], [-74.1482, 10.2022], [-74.1331, 10.2085], [-74.1274, 10.2066], [-74.1272, 10.1802], [-74.1179, 10.1672], [-74.1141, 10.1679], [-74.1141, 10.1242], [-74.1074, 10.1195], [-74.1079, 10.1106], [-74.1036, 10.1106], [-74.1031, 10.093], [-74.0986, 10.0895], [-74.1016, 10.0856], [-74.0975, 10.0811], [-74.0908, 10.0827], [-74.0853, 10.0617], [-74.0784, 10.0563], [-74.0806, 10.0534], [-74.074, 10.0517], [-74.0738, 10.0585], [-74.0844, 10.0731], [-74.0673, 10.0981], [-74.0683, 10.1128], [-74.0744, 10.1201], [-74.0629, 10.1288], [-74.0604, 10.1404], [-74.0657, 10.1667], [-74.0578, 10.183], [-74.0514, 10.1843], [-74.0389, 10.2015], [-74.0407, 10.22], [-74.0104, 10.2363], [-74.0122, 10.2524], [-74.0004, 10.2659], [-73.9781, 10.2772]]]}}, {"type": "Feature", "properties": {"osm_type": "relation", "osm_id": 332740587, "name": "Ariguaní", "admin_level": "6", "kind": "subdivision_2", "parent_osm_id": 1319097, "parent_name": "Magdalena", "parent_iso": "CO-MAG"}, "geometry": {"type": "Polygon", "coordinates": [[[-74.0346, 9.9984], [-74.0543, 9.993], [-74.0623, 9.9799], [-74.0699, 9.9889], [-74.0907, 9.9861], [-74.099, 9.9818], [-74.1051, 9.9665], [-74.1278, 9.9669], [-74.1334, 9.9607], [-74.1254, 9.9521], [-74.1348, 9.9451], [-74.1397, 9.9497], [-74.138, 9.9539], [-74.1506, 9.9614], [-74.1493, 9.9651], [-74.1564, 9.9656], [-74.1545, 9.977], [-74.1609, 9.9745], [-74.1677, 9.9816], [-74.1844, 9.9811], [-74.186, 9.9919], [-74.2281, 9.9848], [-74.2522, 9.9644], [-74.262, 9.9314], [-74.257, 9.9085], [-74.2644, 9.8981], [-74.2735, 9.8572], [-74.2648, 9.8364], [-74.2781, 9.8072], [-74.2696, 9.7917], [-74.2672, 9.7721], [-74.2525, 9.7642], [-74.2329, 9.7616], [-74.229, 9.7479], [-74.206, 9.7356], [-74.1943, 9.7234], [-74.1932, 9.6981], [-74.1676, 9.6713], [-74.1763, 9.6492], [-74.1778, 9.619], [-74.1644, 9.6238], [-74.1595, 9.6324], [-74.1609, 9.643], [-74.1541, 9.6521], [-74.1354, 9.6638], [-74.1258, 9.664], [-74.1039, 9.6803], [-74.0946, 9.6933], [-74.0946, 9.7034], [-74.0852, 9.71], [-74.0658, 9.7114], [-74.0224, 9.7407], [-73.9971, 9.7407], [-73.9879, 9.7463], [-73.972, 9.7461], [-73.9669, 9.7516], [-73.9372, 9.7385], [-73.9065, 9.7413], [-73.9029, 9.7336], [-73.8934, 9.729], [-73.8856, 9.7312], [-73.8659, 9.7247], [-73.8536, 9.7328], [-73.8544, 9.7385], [-73.8366, 9.7357], [-73.8341, 9.7459], [-73.8281, 9.7495], [-73.8418, 9.7973], [-73.8509, 9.7995], [-73.8527, 9.8076], [-73.864, 9.8089], [-73.8694, 9.8167], [-73.8744, 9.8127], [-73.8862, 9.8334], [-73.895, 9.8321], [-73.9062, 9.8547], [-73.9044, 9.8613], [-73.9119, 9.8637], [-73.9177, 9.8776], [-73.9229, 9.8769], [-73.9223, 9.8856], [-73.937, 9.9067], [-73.9501, 9.9135], [-73.9527, 9.9269], [-73.9742, 9.9367], [-73.9857, 9.9325], [-73.9855, 9.9359], [-74.0018, 9.9402], [-74.0118, 9.9761], [-74.0248, 9.9827], [-74.0346, 9.9984]]]}}, {"type": "Feature", "properties": {"osm_type": "relation", "osm_id": 143256061, "name": "Cerro De San Antonio", "admin_level": "6", "kind": "subdivision_2", "parent_osm_id": 1319097, "parent_name": "Magdalena", "parent_iso": "CO-MAG"}, "geometry": {"type": "Polygon", "coordinates": [[[-74.8684, 10.3406], [-74.8953, 10.2954], [-74.9156, 10.2383], [-74.8939, 10.2317], [-74.8832, 10.215], [-74.8764, 10.2137], [-74.8722, 10.2338], [-74.8571, 10.2423], [-74.8438, 10.2712], [-74.8264, 10.2802], [-74.8118, 10.2803], [-74.8117, 10.2747], [-74.7995, 10.2768], [-74.7704, 10.2576], [-74.7505, 10.2635], [-74.7461, 10.2594], [-74.7468, 10.2515], [-74.7336, 10.2554], [-74.7313, 10.2438], [-74.7178, 10.2447], [-74.7059, 10.2598], [-74.701, 10.2744], [-74.7191, 10.2819], [-74.7424, 10.3055], [-74.75, 10.3248], [-74.7641, 10.3273], [-74.7701, 10.3232], [-74.8136, 10.3558], [-74.8397, 10.3599], [-74.8508, 10.367], [-74.8635, 10.3667], [-74.8612, 10.3527], [-74.8684, 10.3406]]]}}, {"type": "Feature", "properties": {"osm_type": "relation", "osm_id": 689936282, "name": "Chivolo", "admin_level": "6", "kind": "subdivision_2", "parent_osm_id": 1319097, "parent_name": "Magdalena", "parent_iso": "CO-MAG"}, "geometry": {"type": "Polygon", "coordinates": [[[-74.4655, 10.2029], [-74.4954, 10.2324], [-74.5073, 10.2304], [-74.5301, 10.214], [-74.549, 10.2114], [-74.5532, 10.2058], [-74.5601, 10.21], [-74.5746, 10.2068], [-74.587, 10.2185], [-74.5831, 10.2018], [-74.594, 10.1881], [-74.5914, 10.1745], [-74.6131, 10.1646], [-74.615, 10.1455], [-74.6369, 10.1412], [-74.6316, 10.1359], [-74.634, 10.1175], [-74.6219, 10.105], [-74.6219, 10.0813], [-74.6333, 10.0701], [-74.6473, 10.0704], [-74.6418, 10.0503], [-74.6481, 10.0371], [-74.6616, 10.0406], [-74.6724, 10.0533], [-74.6686, 10.0174], [-74.6511, 10.0024], [-74.6192, 9.9953], [-74.6153, 9.9893], [-74.5956, 9.9843], [-74.5693, 9.9628], [-74.5642, 9.9692], [-74.5642, 9.9569], [-74.5543, 9.9479], [-74.5511, 9.9692], [-74.5441, 9.9748], [-74.5475, 9.9837], [-74.5563, 9.9875], [-74.5566, 10.0019], [-74.5465, 10.0284], [-74.5146, 10.0193], [-74.4865, 10.0333], [-74.4373, 10.0151], [-74.4242, 10.0165], [-74.4024, 10.0341], [-74.4145, 10.0439], [-74.3984, 10.0836], [-74.4043, 10.101], [-74.3858, 10.1273], [-74.3934, 10.1298], [-74.3938, 10.1382], [-74.4039, 10.1501], [-74.4181, 10.1563], [-74.4424, 10.1907], [-74.4538, 10.1927], [-74.4602, 10.2028], [-74.4655, 10.2029]]]}}, {"type": "Feature", "properties": {"osm_type": "relation", "osm_id": 533878744, "name": "Ciénaga", "admin_level": "6", "kind": "subdivision_2", "parent_osm_id": 1319097, "parent_name": "Magdalena", "parent_iso": "CO-MAG"}, "geometry": {"type": "Polygon", "coordinates": [[[-73.7651, 10.8756], [-73.7717, 10.8809], [-73.8053, 10.8623], [-73.8183, 10.8665], [-73.8419, 10.8649], [-73.8459, 10.8692], [-73.858, 10.8657], [-73.8707, 10.8844], [-73.8777, 10.884], [-73.8766, 10.8912], [-73.8823, 10.8949], [-73.8785, 10.908], [-73.8669, 10.9165], [-73.8646, 10.9304], [-73.8675, 10.934], [-73.8619, 10.9606], [-73.8679, 10.9685], [-73.864, 10.9826], [-73.8685, 10.9889], [-73.9086, 10.9942], [-73.9164, 11.0133], [-73.936, 11.0057], [-73.9643, 11.0103], [-73.9698, 11.0155], [-73.9844, 11.0138], [-74.0019, 11.036], [-74.0163, 11.0355], [-74.0191, 11.0281], [-74.0416, 11.0367], [-74.0471, 11.0424], [-74.0459, 11.064], [-74.0774, 11.0577], [-74.0849, 11.0622], [-74.0887, 11.075], [-74.1093, 11.0775], [-74.1158, 11.0975], [-74.1129, 11.1039], [-74.1238, 11.1055], [-74.143, 11.098], [-74.1573, 11.1018], [-74.1776, 11.0992], [-74.2097, 11.0844], [-74.2178, 11.0653], [-74.2444, 11.0326], [-74.2449, 11.0241], [-74.2651, 11.0065], [-74.2618, 11.005], [-74.2673, 10.9394], [-74.2617, 10.9093], [-74.2749, 10.9026], [-74.2761, 10.8959], [-74.2794, 10.8975], [-74.2754, 10.8874], [-74.2849, 10.8745], [-74.2701, 10.8715], [-74.2626, 10.8626], [-74.2185, 10.8657], [-74.2167, 10.8709], [-74.2241, 10.8776], [-74.2208, 10.8952], [-74.2383, 10.8969], [-74.2379, 10.9059], [-74.2252, 10.9048], [-74.2235, 10.9107], [-74.2313, 10.921], [-74.2273, 10.9219], [-74.2284, 10.9278], [-74.2224, 10.9257], [-74.2201, 10.9416], [-74.2164, 10.9424], [-74.2192, 10.9464], [-74.1936, 10.9604], [-74.186, 10.9556], [-74.1669, 10.9565], [-74.1625, 10.9455], [-74.1568, 10.9465], [-74.1623, 10.94], [-74.1584, 10.9363], [-74.1617, 10.9288], [-74.1549, 10.9236], [-74.1505, 10.9267], [-74.1476, 10.9102], [-74.1416, 10.9054], [-74.1507, 10.8995], [-74.1429, 10.8866], [-74.1455, 10.874], [-74.1353, 10.858], [-74.1313, 10.8649], [-74.1149, 10.8726], [-74.1142, 10.8902], [-74.1056, 10.8926], [-74.0958, 10.8858], [-74.1094, 10.8729], [-74.1049, 10.8651], [-74.1111, 10.8568], [-74.0991, 10.8548], [-74.0907, 10.8345], [-74.1025, 10.8195], [-74.0986, 10.8086], [-74.0867, 10.8069], [-74.0941, 10.7985], [-74.081, 10.7868], [-74.0924, 10.7749], [-74.0867, 10.7564], [-74.0997, 10.7402], [-74.098, 10.7371], [-74.1094, 10.7349], [-74.1114, 10.7235], [-74.1203, 10.7254], [-74.1226, 10.7167], [-74.1301, 10.7119], [-74.1297, 10.695], [-74.1211, 10.6836], [-74.137, 10.6764], [-74.1349, 10.6665], [-74.1488, 10.6576], [-74.156, 10.6448], [-74.1499, 10.6465], [-74.1515, 10.6373], [-74.1475, 10.6347], [-74.1398, 10.6365], [-74.1407, 10.6284], [-74.1196, 10.633], [-74.1182, 10.6194], [-74.1022, 10.6078], [-74.0984, 10.6158], [-74.0869, 10.6211], [-74.0887, 10.6409], [-74.0839, 10.6423], [-74.0878, 10.647], [-74.083, 10.653], [-74.0795, 10.6509], [-74.072, 10.6581], [-74.0618, 10.6563], [-74.0483, 10.6643], [-74.0381, 10.6808], [-74.0306, 10.6781], [-73.9861, 10.7122], [-73.9795, 10.7086], [-73.9767, 10.7132], [-73.9643, 10.7129], [-73.9696, 10.7161], [-73.9673, 10.7203], [-73.9589, 10.7166], [-73.9532, 10.7286], [-73.9444, 10.7269], [-73.9363, 10.7381], [-73.8982, 10.7526], [-73.8856, 10.7676], [-73.871, 10.7723], [-73.866, 10.7778], [-73.8687, 10.7818], [-73.857, 10.793], [-73.8295, 10.8074], [-73.808, 10.8539], [-73.7945, 10.8609], [-73.78, 10.8615], [-73.7651, 10.8756]]]}}, {"type": "Feature", "properties": {"osm_type": "relation", "osm_id": 692290661, "name": "Concordia", "admin_level": "6", "kind": "subdivision_2", "parent_osm_id": 1319097, "parent_name": "Magdalena", "parent_iso": "CO-MAG"}, "geometry": {"type": "Polygon", "coordinates": [[[-74.8764, 10.2137], [-74.8262, 10.2346], [-74.8064, 10.2204], [-74.7957, 10.2199], [-74.7756, 10.1929], [-74.7539, 10.1803], [-74.73, 10.1907], [-74.7256, 10.1871], [-74.7186, 10.1996], [-74.7092, 10.2], [-74.7051, 10.2206], [-74.6927, 10.2249], [-74.7038, 10.2452], [-74.7161, 10.2489], [-74.7178, 10.2447], [-74.7313, 10.2438], [-74.7336, 10.2554], [-74.7468, 10.2515], [-74.7461, 10.2594], [-74.7505, 10.2635], [-74.7704, 10.2576], [-74.7995, 10.2768], [-74.8117, 10.2747], [-74.8118, 10.2803], [-74.8264, 10.2802], [-74.8438, 10.2712], [-74.8571, 10.2423], [-74.8722, 10.2338], [-74.8764, 10.2137]]]}}, {"type": "Feature", "properties": {"osm_type": "relation", "osm_id": 504701900, "name": "El Banco", "admin_level": "6", "kind": "subdivision_2", "parent_osm_id": 1319097, "parent_name": "Magdalena", "parent_iso": "CO-MAG"}, "geometry": {"type": "Polygon", "coordinates": [[[-73.8677, 8.9365], [-73.8631, 8.9466], [-73.8498, 8.9558], [-73.8505, 8.9646], [-73.8403, 8.9668], [-73.8322, 8.9793], [-73.8364, 8.984], [-73.8258, 9.0007], [-73.8259, 9.0226], [-73.8195, 9.0283], [-73.8082, 9.0281], [-73.811, 9.0372], [-73.8027, 9.0365], [-73.8097, 9.0448], [-73.7964, 9.0459], [-73.799, 9.0593], [-73.8611, 9.1092], [-73.8753, 9.1305], [-73.8755, 9.146], [-73.8619, 9.1706], [-73.8666, 9.183], [-73.8789, 9.1858], [-73.8928, 9.1736], [-73.962, 9.1877], [-73.9559, 9.1962], [-73.964, 9.2066], [-73.9657, 9.2178], [-73.9495, 9.2374], [-73.951, 9.2566], [-73.9432, 9.2684], [-73.9431, 9.2897], [-73.9579, 9.3038], [-73.9749, 9.3041], [-73.9856, 9.3114], [-73.992, 9.3253], [-73.9918, 9.3312], [-73.9881, 9.3314], [-73.9897, 9.3511], [-74.0079, 9.3148], [-74.0359, 9.2941], [-74.0456, 9.27], [-74.0477, 9.242], [-74.0572, 9.2358], [-74.0628, 9.2229], [-74.0751, 9.2184], [-74.0816, 9.2224], [-74.0872, 9.2166], [-74.0857, 9.1975], [-74.0968, 9.188], [-74.0932, 9.1726], [-74.1002, 9.1484], [-74.1757, 9.088], [-74.1774, 9.0771], [-74.1576, 9.0709], [-74.157, 9.0572], [-74.1347, 9.0644], [-74.1311, 9.0555], [-74.1177, 9.0456], [-74.1397, 9.0417], [-74.1409, 9.031], [-74.1277, 9.0281], [-74.1192, 9.0398], [-74.1126, 9.0409], [-74.098, 9.0158], [-74.0921, 9.0152], [-74.0775, 9.0263], [-74.0566, 9.0186], [-74.0473, 9.0234], [-74.0432, 9.0406], [-74.0356, 9.0444], [-74.027, 9.0262], [-74.0188, 9.0253], [-74.0085, 9.0323], [-73.9847, 9.0097], [-74.0017, 9.0101], [-74.0049, 9.0054], [-74.0017, 8.9954], [-73.9898, 8.9957], [-73.9777, 8.9839], [-73.9671, 8.9944], [-73.9591, 8.9959], [-73.9208, 8.9783], [-73.9001, 8.9807], [-73.8704, 8.9604], [-73.8658, 8.9503], [-73.8677, 8.9365]]]}}, {"type": "Feature", "properties": {"osm_type": "relation", "osm_id": 451401648, "name": "El Piñón", "admin_level": "6", "kind": "subdivision_2", "parent_osm_id": 1319097, "parent_name": "Magdalena", "parent_iso": "CO-MAG"}, "geometry": {"type": "Polygon", "coordinates": [[[-74.8635, 10.3667], [-74.8136, 10.3558], [-74.7701, 10.3232], [-74.7641, 10.3273], [-74.75, 10.3248], [-74.7424, 10.3055], [-74.7191, 10.2819], [-74.701, 10.2744], [-74.6922, 10.2567], [-74.6865, 10.2568], [-74.6671, 10.2395], [-74.6423, 10.247], [-74.6329, 10.2316], [-74.6176, 10.2354], [-74.6024, 10.2283], [-74.5958, 10.2319], [-74.5973, 10.2222], [-74.5908, 10.2223], [-74.5746, 10.2068], [-74.5601, 10.21], [-74.5532, 10.2058], [-74.549, 10.2114], [-74.5301, 10.214], [-74.5073, 10.2304], [-74.4954, 10.2324], [-74.5053, 10.2592], [-74.5458, 10.2934], [-74.5486, 10.3055], [-74.5651, 10.3255], [-74.5656, 10.3578], [-74.5746, 10.364], [-74.5942, 10.3561], [-74.6056, 10.3595], [-74.6128, 10.3526], [-74.6198, 10.3531], [-74.625, 10.3595], [-74.6217, 10.3727], [-74.631, 10.4306], [-74.6846, 10.4708], [-74.7052, 10.4513], [-74.7304, 10.4538], [-74.7352, 10.4492], [-74.7555, 10.4582], [-74.8007, 10.4578], [-74.812, 10.4509], [-74.8149, 10.4317], [-74.8272, 10.4112], [-74.8382, 10.4091], [-74.8597, 10.3905], [-74.8657, 10.3741], [-74.8635, 10.3667]]]}}, {"type": "Feature", "properties": {"osm_type": "relation", "osm_id": 252586490, "name": "El Retén", "admin_level": "6", "kind": "subdivision_2", "parent_osm_id": 1319097, "parent_name": "Magdalena", "parent_iso": "CO-MAG"}, "geometry": {"type": "Polygon", "coordinates": [[[-74.2576, 10.6649], [-74.2633, 10.6713], [-74.2632, 10.6833], [-74.2706, 10.6844], [-74.2732, 10.6923], [-74.2786, 10.6926], [-74.2911, 10.706], [-74.3122, 10.7015], [-74.3411, 10.7381], [-74.3468, 10.757], [-74.3666, 10.7678], [-74.3735, 10.7664], [-74.3689, 10.7652], [-74.3755, 10.7579], [-74.3751, 10.7451], [-74.4262, 10.728], [-74.4405, 10.6912], [-74.451, 10.6848], [-74.4506, 10.6729], [-74.4376, 10.6776], [-74.4218, 10.6653], [-74.4193, 10.6542], [-74.3743, 10.6213], [-74.3476, 10.6176], [-74.3424, 10.6254], [-74.3129, 10.6204], [-74.3059, 10.6249], [-74.2946, 10.616], [-74.2905, 10.6194], [-74.2853, 10.6126], [-74.2873, 10.6082], [-74.2777, 10.6016], [-74.2706, 10.6034], [-74.2635, 10.5957], [-74.2669, 10.5938], [-74.2581, 10.5777], [-74.2443, 10.5694], [-74.2469, 10.5608], [-74.2201, 10.5357], [-74.2156, 10.5362], [-74.2094, 10.5518], [-74.1881, 10.5541], [-74.1948, 10.5749], [-74.1923, 10.5856], [-74.2, 10.5915], [-74.2017, 10.6011], [-74.2233, 10.604], [-74.2537, 10.6421], [-74.251, 10.6524], [-74.2576, 10.6649]]]}}, {"type": "Feature", "properties": {"osm_type": "relation", "osm_id": 687311401, "name": "Fundación", "admin_level": "6", "kind": "subdivision_2", "parent_osm_id": 1319097, "parent_name": "Magdalena", "parent_iso": "CO-MAG"}, "geometry": {"type": "Polygon", "coordinates": [[[-73.9781, 10.2772], [-73.97, 10.2886], [-73.9636, 10.2903], [-73.9631, 10.3086], [-73.9578, 10.3094], [-73.9633, 10.3152], [-73.9555, 10.3261], [-73.9613, 10.3368], [-73.9533, 10.3397], [-73.9546, 10.3442], [-73.948, 10.3434], [-73.9437, 10.352], [-73.9329, 10.3552], [-73.9293, 10.3621], [-73.9329, 10.3658], [-73.917, 10.3785], [-73.907, 10.3837], [-73.9007, 10.3811], [-73.8932, 10.3853], [-73.8937, 10.3906], [-73.8839, 10.3937], [-73.884, 10.3875], [-73.872, 10.389], [-73.8674, 10.3946], [-73.8565, 10.3879], [-73.8428, 10.4009], [-73.8394, 10.3978], [-73.8305, 10.4026], [-73.8305, 10.3963], [-73.8233, 10.3957], [-73.8231, 10.3909], [-73.8165, 10.3887], [-73.8183, 10.3852], [-73.8065, 10.3964], [-73.793, 10.3919], [-73.786, 10.3983], [-73.779, 10.3962], [-73.7653, 10.4136], [-73.7536, 10.4162], [-73.7463, 10.4313], [-73.7406, 10.4296], [-73.7405, 10.4359], [-73.7239, 10.4363], [-73.7042, 10.4301], [-73.6994, 10.4394], [-73.7046, 10.443], [-73.6992, 10.4514], [-73.7031, 10.4637], [-73.6855, 10.4645], [-73.6592, 10.4555], [-73.6439, 10.4685], [-73.6532, 10.4769], [-73.6448, 10.4832], [-73.6481, 10.4913], [-73.6398, 10.5008], [-73.6295, 10.4946], [-73.6154, 10.5009], [-73.6015, 10.5006], [-73.5924, 10.4938], [-73.5844, 10.5019], [-73.5746, 10.4989], [-73.5631, 10.5038], [-73.5607, 10.5096], [-73.5663, 10.5163], [-73.5653, 10.5305], [-73.5705, 10.5418], [-73.5905, 10.5491], [-73.5978, 10.5623], [-73.6134, 10.5642], [-73.6002, 10.5747], [-73.5959, 10.5851], [-73.5943, 10.602], [-73.6012, 10.614], [-73.5954, 10.6309], [-73.5985, 10.6396], [-73.6167, 10.6448], [-73.6324, 10.6434], [-73.6378, 10.6387], [-73.6538, 10.6399], [-73.6578, 10.6325], [-73.651, 10.6194], [-73.6632, 10.6058], [-73.674, 10.6045], [-73.6815, 10.5924], [-73.7124, 10.5775], [-73.7154, 10.5652], [-73.7344, 10.5715], [-73.7365, 10.5662], [-73.742, 10.5673], [-73.7418, 10.5614], [-73.7527, 10.5629], [-73.7583, 10.5587], [-73.7643, 10.5488], [-73.7809, 10.5473], [-73.8002, 10.5246], [-73.8056, 10.5301], [-73.8133, 10.5234], [-73.8202, 10.5248], [-73.8397, 10.5087], [-73.8597, 10.5146], [-73.8593, 10.5068], [-73.8654, 10.5012], [-73.8689, 10.5089], [-73.885, 10.5115], [-73.8922, 10.5079], [-73.8993, 10.5148], [-73.9017, 10.5119], [-73.9096, 10.5162], [-73.9135, 10.5018], [-73.9303, 10.4858], [-73.9444, 10.486], [-73.9475, 10.4819], [-73.9504, 10.491], [-73.9656, 10.4895], [-73.9839, 10.4474], [-74.0311, 10.4265], [-74.0479, 10.4249], [-74.056, 10.4363], [-74.0646, 10.4347], [-74.0698, 10.4418], [-74.0802, 10.4374], [-74.0806, 10.4456], [-74.0881, 10.4484], [-74.0881, 10.4675], [-74.1236, 10.4804], [-74.124, 10.4879], [-74.1346, 10.4848], [-74.1283, 10.4959], [-74.1361, 10.4985], [-74.138, 10.5115], [-74.1427, 10.5019], [-74.152, 10.5052], [-74.1586, 10.5147], [-74.1676, 10.5146], [-74.1725, 10.509], [-74.1839, 10.5278], [-74.1953, 10.5254], [-74.2201, 10.5357], [-74.2444, 10.5577], [-74.2448, 10.5463], [-74.2221, 10.5172], [-74.2153, 10.4891], [-74.1949, 10.4797], [-74.1963, 10.4672], [-74.1923, 10.4506], [-74.1819, 10.4379], [-74.1838, 10.4146], [-74.1784, 10.405], [-74.1855, 10.3999], [-74.1869, 10.3908], [-74.1698, 10.3658], [-74.158, 10.3563], [-74.1503, 10.3704], [-74.1375, 10.3761], [-74.1251, 10.3753], [-74.1104, 10.3932], [-74.0572, 10.3246], [-74.0415, 10.3461], [-74.0363, 10.3369], [-74.0331, 10.3393], [-74.0261, 10.3314], [-74.0283, 10.3287], [-74.0048, 10.289], [-74.0044, 10.279], [-73.995, 10.2738], [-73.9781, 10.2772]]]}}, {"type": "Feature", "properties": {"osm_type": "relation", "osm_id": 988910370, "name": "Guamal", "admin_level": "6", "kind": "subdivision_2", "parent_osm_id": 1319097, "parent_name": "Magdalena", "parent_iso": "CO-MAG"}, "geometry": {"type": "Polygon", "coordinates": [[[-74.1757, 9.088], [-74.1002, 9.1484], [-74.0932, 9.1726], [-74.0968, 9.188], [-74.0857, 9.1975], [-74.0872, 9.2166], [-74.0816, 9.2224], [-74.0751, 9.2184], [-74.0628, 9.2229], [-74.0572, 9.2358], [-74.0477, 9.242], [-74.0456, 9.27], [-74.0359, 9.2941], [-74.0008, 9.3248], [-73.9846, 9.365], [-73.982, 9.3867], [-73.9952, 9.3811], [-74.011, 9.3953], [-74.0237, 9.3941], [-74.0315, 9.4005], [-74.0637, 9.4032], [-74.0702, 9.3936], [-74.0772, 9.3926], [-74.0882, 9.3679], [-74.1204, 9.343], [-74.124, 9.3327], [-74.1382, 9.3308], [-74.1547, 9.3447], [-74.1613, 9.3386], [-74.1749, 9.3418], [-74.2017, 9.3186], [-74.2142, 9.3185], [-74.2146, 9.3053], [-74.2049, 9.3019], [-74.2033, 9.2931], [-74.2201, 9.2824], [-74.2207, 9.2725], [-74.2345, 9.2579], [-74.2366, 9.2494], [-74.2665, 9.223], [-74.2997, 9.2041], [-74.2911, 9.1938], [-74.2982, 9.1598], [-74.2823, 9.158], [-74.2665, 9.1696], [-74.2492, 9.1654], [-74.2201, 9.1361], [-74.2284, 9.124], [-74.2137, 9.1202], [-74.2008, 9.1005], [-74.1757, 9.088]]]}}, {"type": "Feature", "properties": {"osm_type": "relation", "osm_id": 462943400, "name": "Nueva Granada", "admin_level": "6", "kind": "subdivision_2", "parent_osm_id": 1319097, "parent_name": "Magdalena", "parent_iso": "CO-MAG"}, "geometry": {"type": "Polygon", "coordinates": [[[-74.2686, 9.8797], [-74.2776, 9.8877], [-74.2855, 9.8852], [-74.3134, 9.9229], [-74.3237, 9.9247], [-74.3344, 9.9345], [-74.3492, 9.9352], [-74.3607, 9.9103], [-74.3837, 9.94], [-74.3905, 9.9407], [-74.4004, 9.9524], [-74.4106, 9.9387], [-74.4143, 9.9225], [-74.4102, 9.9019], [-74.4215, 9.8881], [-74.4462, 9.8751], [-74.454, 9.8561], [-74.4655, 9.8439], [-74.4815, 9.837], [-74.4696, 9.8267], [-74.4435, 9.8219], [-74.4296, 9.8119], [-74.4382, 9.7857], [-74.421, 9.7688], [-74.4118, 9.771], [-74.4121, 9.754], [-74.4238, 9.7201], [-74.4368, 9.7151], [-74.4287, 9.7001], [-74.4366, 9.692], [-74.4424, 9.6749], [-74.4273, 9.6604], [-74.4242, 9.6451], [-74.4553, 9.6295], [-74.4481, 9.6193], [-74.4504, 9.6091], [-74.4413, 9.608], [-74.4209, 9.59], [-74.4112, 9.5888], [-74.3892, 9.6039], [-74.3803, 9.5913], [-74.3624, 9.5847], [-74.361, 9.5709], [-74.3551, 9.5694], [-74.3211, 9.5913], [-74.295, 9.5946], [-74.2826, 9.587], [-74.2696, 9.5666], [-74.2595, 9.5779], [-74.249, 9.5757], [-74.2245, 9.5854], [-74.2146, 9.5826], [-74.2043, 9.592], [-74.1974, 9.5921], [-74.1951, 9.604], [-74.1779, 9.6171], [-74.1763, 9.6492], [-74.1676, 9.6713], [-74.1932, 9.6981], [-74.1943, 9.7234], [-74.206, 9.7356], [-74.229, 9.7479], [-74.2329, 9.7616], [-74.2525, 9.7642], [-74.2695, 9.7752], [-74.2696, 9.7917], [-74.2781, 9.8072], [-74.2648, 9.8364], [-74.2735, 9.8572], [-74.2686, 9.8797]]]}}, {"type": "Feature", "properties": {"osm_type": "relation", "osm_id": 777101863, "name": "Pedraza", "admin_level": "6", "kind": "subdivision_2", "parent_osm_id": 1319097, "parent_name": "Magdalena", "parent_iso": "CO-MAG"}, "geometry": {"type": "Polygon", "coordinates": [[[-74.9454, 10.1286], [-74.9368, 10.1145], [-74.9268, 10.1082], [-74.8926, 10.1062], [-74.8485, 10.085], [-74.8251, 10.0592], [-74.8176, 10.0653], [-74.8145, 10.0625], [-74.806, 10.0722], [-74.8009, 10.0701], [-74.7966, 10.0807], [-74.7836, 10.0879], [-74.7809, 10.0855], [-74.7737, 10.0975], [-74.7555, 10.091], [-74.7566, 10.0795], [-74.7511, 10.0808], [-74.7384, 10.0892], [-74.7307, 10.1063], [-74.7418, 10.1416], [-74.7312, 10.149], [-74.7284, 10.1454], [-74.7304, 10.1541], [-74.7332, 10.1525], [-74.7196, 10.164], [-74.7223, 10.1747], [-74.7019, 10.1846], [-74.6972, 10.1964], [-74.6819, 10.2093], [-74.6821, 10.2149], [-74.6927, 10.2249], [-74.7051, 10.2206], [-74.7092, 10.2], [-74.7186, 10.1996], [-74.7256, 10.1871], [-74.73, 10.1907], [-74.7539, 10.1803], [-74.7756, 10.1929], [-74.7957, 10.2199], [-74.8064, 10.2204], [-74.8262, 10.2346], [-74.8764, 10.2137], [-74.8879, 10.2188], [-74.8939, 10.2317], [-74.9156, 10.2383], [-74.9283, 10.2155], [-74.9316, 10.1804], [-74.946, 10.145], [-74.9454, 10.1286]]]}}, {"type": "Feature", "properties": {"osm_type": "relation", "osm_id": 833989795, "name": "Pijiño Del Carmen", "admin_level": "6", "kind": "subdivision_2", "parent_osm_id": 1319097, "parent_name": "Magdalena", "parent_iso": "CO-MAG"}, "geometry": {"type": "Polygon", "coordinates": [[[-73.8033, 9.6364], [-73.8082, 9.6422], [-73.8033, 9.643], [-73.8091, 9.6532], [-73.8063, 9.6584], [-73.8107, 9.6617], [-73.8074, 9.672], [-73.812, 9.6721], [-73.8215, 9.6848], [-73.8325, 9.6833], [-73.8315, 9.6719], [-73.8664, 9.6721], [-73.8795, 9.6681], [-73.8772, 9.6645], [-73.8838, 9.6598], [-73.8985, 9.6706], [-73.9131, 9.6622], [-73.9272, 9.6632], [-73.9298, 9.688], [-73.9342, 9.6919], [-73.9325, 9.7042], [-73.9472, 9.7063], [-73.9371, 9.7186], [-73.9448, 9.7186], [-73.9449, 9.7323], [-73.9598, 9.7322], [-73.9597, 9.7185], [-73.9791, 9.7137], [-73.9795, 9.7207], [-73.9855, 9.7205], [-73.984, 9.685], [-73.9961, 9.6825], [-74.0054, 9.6701], [-74.0035, 9.6625], [-74.0118, 9.6639], [-74.0203, 9.6749], [-74.0616, 9.6674], [-74.0643, 9.6382], [-74.0858, 9.6354], [-74.0889, 9.6214], [-74.1151, 9.6058], [-74.1109, 9.5921], [-74.1304, 9.5768], [-74.1455, 9.5842], [-74.1489, 9.5727], [-74.166, 9.573], [-74.1731, 9.5558], [-74.1833, 9.5671], [-74.1977, 9.5678], [-74.2492, 9.5189], [-74.2647, 9.528], [-74.2793, 9.5176], [-74.2711, 9.5016], [-74.2691, 9.4815], [-74.2761, 9.471], [-74.2777, 9.4537], [-74.2856, 9.4523], [-74.2841, 9.4354], [-74.2925, 9.4378], [-74.302, 9.4313], [-74.3032, 9.4348], [-74.3328, 9.4171], [-74.3418, 9.4284], [-74.3628, 9.436], [-74.391, 9.4353], [-74.4037, 9.4101], [-74.4322, 9.3942], [-74.4371, 9.3935], [-74.4359, 9.3986], [-74.4603, 9.3964], [-74.4589, 9.4024], [-74.4755, 9.4013], [-74.4797, 9.3031], [-74.4752, 9.3163], [-74.4652, 9.3234], [-74.416, 9.3321], [-74.4113, 9.3263], [-74.3953, 9.3393], [-74.3721, 9.3379], [-74.3576, 9.3449], [-74.3394, 9.3459], [-74.3372, 9.3543], [-74.2992, 9.3689], [-74.2807, 9.3913], [-74.2827, 9.3961], [-74.2758, 9.4116], [-74.2665, 9.4151], [-74.2565, 9.4298], [-74.2461, 9.4358], [-74.2293, 9.4601], [-74.2145, 9.4626], [-74.1864, 9.484], [-74.1747, 9.4834], [-74.1675, 9.4912], [-74.1392, 9.4938], [-74.1194, 9.504], [-74.1113, 9.5182], [-74.0999, 9.5223], [-74.0975, 9.533], [-74.0717, 9.5617], [-74.0639, 9.5687], [-74.0537, 9.5668], [-74.0367, 9.5913], [-74.0103, 9.5896], [-74.0104, 9.5956], [-74.004, 9.5954], [-73.9944, 9.5905], [-73.9971, 9.5829], [-73.9893, 9.5798], [-73.9845, 9.5866], [-73.9488, 9.591], [-73.9187, 9.6056], [-73.9098, 9.6018], [-73.8934, 9.6164], [-73.8823, 9.614], [-73.8794, 9.6009], [-73.8679, 9.601], [-73.8033, 9.6364]]]}}, {"type": "Feature", "properties": {"osm_type": "relation", "osm_id": 497185271, "name": "Pivijay", "admin_level": "6", "kind": "subdivision_2", "parent_osm_id": 1319097, "parent_name": "Magdalena", "parent_iso": "CO-MAG"}, "geometry": {"type": "Polygon", "coordinates": [[[-74.4655, 10.2029], [-74.4594, 10.206], [-74.4564, 10.2162], [-74.4488, 10.2148], [-74.4549, 10.2481], [-74.4512, 10.2506], [-74.4397, 10.2456], [-74.4325, 10.2643], [-74.4165, 10.2631], [-74.4063, 10.2433], [-74.3961, 10.2477], [-74.386, 10.2319], [-74.3725, 10.2259], [-74.3758, 10.2162], [-74.3708, 10.2123], [-74.3477, 10.2172], [-74.3512, 10.2301], [-74.3405, 10.2429], [-74.3554, 10.257], [-74.3502, 10.2606], [-74.3421, 10.262], [-74.3393, 10.2545], [-74.3281, 10.2488], [-74.3118, 10.2475], [-74.3075, 10.2481], [-74.3086, 10.2667], [-74.292, 10.2607], [-74.2925, 10.2711], [-74.2702, 10.2657], [-74.2732, 10.2826], [-74.2905, 10.2904], [-74.2872, 10.3031], [-74.2732, 10.2983], [-74.2705, 10.3016], [-74.262, 10.2971], [-74.2646, 10.2929], [-74.2567, 10.2912], [-74.2451, 10.3126], [-74.2311, 10.323], [-74.2288, 10.3466], [-74.1937, 10.3695], [-74.1893, 10.3802], [-74.1801, 10.383], [-74.1854, 10.3844], [-74.1876, 10.3951], [-74.1784, 10.405], [-74.1838, 10.4146], [-74.1819, 10.4379], [-74.1923, 10.4506], [-74.1963, 10.4672], [-74.1949, 10.4797], [-74.2153, 10.4891], [-74.2221, 10.5172], [-74.2448, 10.5463], [-74.2443, 10.5694], [-74.2581, 10.5777], [-74.2669, 10.5938], [-74.2635, 10.5957], [-74.2706, 10.6034], [-74.2777, 10.6016], [-74.2873, 10.6082], [-74.2853, 10.6126], [-74.2905, 10.6194], [-74.2946, 10.616], [-74.3059, 10.6249], [-74.3129, 10.6204], [-74.3424, 10.6254], [-74.3476, 10.6176], [-74.3743, 10.6213], [-74.4193, 10.6542], [-74.4218, 10.6653], [-74.4376, 10.6776], [-74.4467, 10.6764], [-74.4489, 10.6718], [-74.4461, 10.6582], [-74.4374, 10.6505], [-74.4409, 10.6389], [-74.4346, 10.6283], [-74.4536, 10.5952], [-74.4696, 10.5895], [-74.4704, 10.5772], [-74.4885, 10.5639], [-74.4963, 10.5654], [-74.5129, 10.5554], [-74.5135, 10.5612], [-74.5335, 10.5655], [-74.5413, 10.5607], [-74.5353, 10.5601], [-74.5394, 10.5554], [-74.5288, 10.5461], [-74.5396, 10.5382], [-74.5396, 10.5317], [-74.5416, 10.5384], [-74.546, 10.5281], [-74.5496, 10.5333], [-74.5592, 10.5234], [-74.5624, 10.531], [-74.5544, 10.534], [-74.5669, 10.5409], [-74.6242, 10.5399], [-74.6245, 10.5498], [-74.635, 10.5597], [-74.6536, 10.5554], [-74.6682, 10.5634], [-74.6562, 10.5362], [-74.659, 10.5064], [-74.6846, 10.4708], [-74.631, 10.4306], [-74.6217, 10.3727], [-74.625, 10.3595], [-74.6198, 10.3531], [-74.6128, 10.3526], [-74.6056, 10.3595], [-74.5942, 10.3561], [-74.5746, 10.364], [-74.5656, 10.3578], [-74.5651, 10.3255], [-74.5486, 10.3055], [-74.5497, 10.2987], [-74.5053, 10.2592], [-74.4967, 10.231], [-74.4857, 10.2267], [-74.4829, 10.2163], [-74.4734, 10.2138], [-74.4655, 10.2029]]]}}, {"type": "Feature", "properties": {"osm_type": "relation", "osm_id": 608321391, "name": "Plato", "admin_level": "6", "kind": "subdivision_2", "parent_osm_id": 1319097, "parent_name": "Magdalena", "parent_iso": "CO-MAG"}, "geometry": {"type": "Polygon", "coordinates": [[[-74.7777, 9.5076], [-74.7772, 9.5176], [-74.7716, 9.5169], [-74.7683, 9.5323], [-74.7506, 9.5475], [-74.7486, 9.5549], [-74.7324, 9.5518], [-74.7317, 9.5477], [-74.7262, 9.5496], [-74.7234, 9.5433], [-74.6925, 9.5656], [-74.6617, 9.5783], [-74.6559, 9.6109], [-74.6728, 9.6145], [-74.678, 9.6239], [-74.6878, 9.6243], [-74.6652, 9.6448], [-74.6457, 9.6479], [-74.6328, 9.6432], [-74.591, 9.6685], [-74.5861, 9.6547], [-74.5628, 9.6416], [-74.5622, 9.6331], [-74.5559, 9.6292], [-74.5564, 9.6198], [-74.5345, 9.6041], [-74.5401, 9.5836], [-74.5369, 9.576], [-74.5215, 9.5653], [-74.5074, 9.58], [-74.5001, 9.6101], [-74.4856, 9.6127], [-74.4771, 9.621], [-74.4504, 9.6091], [-74.4481, 9.6193], [-74.4553, 9.6295], [-74.4242, 9.6451], [-74.4273, 9.6604], [-74.4424, 9.6749], [-74.4366, 9.692], [-74.4287, 9.7001], [-74.4368, 9.7151], [-74.4238, 9.7201], [-74.4121, 9.754], [-74.4118, 9.771], [-74.421, 9.7688], [-74.4382, 9.7857], [-74.4296, 9.8119], [-74.4435, 9.8219], [-74.4696, 9.8267], [-74.4815, 9.837], [-74.4655, 9.8439], [-74.454, 9.8561], [-74.4462, 9.8751], [-74.4215, 9.8881], [-74.4102, 9.9019], [-74.4143, 9.9225], [-74.4106, 9.9387], [-74.4004, 9.9524], [-74.4385, 9.9778], [-74.4435, 9.977], [-74.4393, 9.9831], [-74.4417, 10.0173], [-74.4865, 10.0333], [-74.5146, 10.0193], [-74.5465, 10.0284], [-74.5566, 10.0019], [-74.5563, 9.9875], [-74.5475, 9.9837], [-74.5441, 9.9748], [-74.5511, 9.9692], [-74.5576, 9.9298], [-74.5703, 9.9157], [-74.5745, 9.9005], [-74.5718, 9.8899], [-74.58, 9.8867], [-74.604, 9.899], [-74.6128, 9.8968], [-74.6222, 9.8861], [-74.6382, 9.8939], [-74.6594, 9.8807], [-74.6932, 9.8892], [-74.7051, 9.8759], [-74.7334, 9.8671], [-74.7344, 9.8508], [-74.7406, 9.8459], [-74.7598, 9.8493], [-74.7674, 9.84], [-74.776, 9.8413], [-74.7762, 9.835], [-74.7882, 9.8283], [-74.7952, 9.8291], [-74.8049, 9.8201], [-74.8141, 9.8224], [-74.8394, 9.8103], [-74.8156, 9.7899], [-74.8052, 9.7618], [-74.8155, 9.7322], [-74.7876, 9.6969], [-74.7897, 9.6895], [-74.8019, 9.6833], [-74.8058, 9.6755], [-74.7814, 9.6368], [-74.7731, 9.6116], [-74.7736, 9.5873], [-74.7809, 9.5736], [-74.8056, 9.5536], [-74.807, 9.5473], [-74.7894, 9.5289], [-74.7777, 9.5076]]]}}, {"type": "Feature", "properties": {"osm_type": "relation", "osm_id": 124589071, "name": "Pueblo Viejo", "admin_level": "6", "kind": "subdivision_2", "parent_osm_id": 1319097, "parent_name": "Magdalena", "parent_iso": "CO-MAG"}, "geometry": {"type": "Polygon", "coordinates": [[[-74.2651, 11.0065], [-74.303, 10.9853], [-74.3508, 10.976], [-74.4291, 10.975], [-74.4848, 10.981], [-74.4828, 10.8417], [-74.4785, 10.8226], [-74.4617, 10.8016], [-74.4624, 10.7603], [-74.4571, 10.7265], [-74.432, 10.7286], [-74.4277, 10.723], [-74.4219, 10.7311], [-74.3881, 10.7382], [-74.3751, 10.7451], [-74.3755, 10.7579], [-74.3689, 10.7652], [-74.3735, 10.7664], [-74.3666, 10.7678], [-74.3468, 10.757], [-74.3411, 10.7381], [-74.3122, 10.7015], [-74.2911, 10.706], [-74.2786, 10.6926], [-74.2732, 10.6923], [-74.2706, 10.6844], [-74.2632, 10.6833], [-74.2633, 10.6713], [-74.2576, 10.6649], [-74.2239, 10.6576], [-74.2197, 10.6625], [-74.2196, 10.6929], [-74.2251, 10.6885], [-74.2399, 10.6971], [-74.2347, 10.7146], [-74.2429, 10.7204], [-74.2487, 10.7353], [-74.2471, 10.7855], [-74.2684, 10.8011], [-74.2609, 10.8132], [-74.2589, 10.8321], [-74.273, 10.8419], [-74.2686, 10.8546], [-74.2723, 10.8594], [-74.2664, 10.8677], [-74.2849, 10.8745], [-74.2754, 10.8874], [-74.2794, 10.8975], [-74.2761, 10.8959], [-74.2749, 10.9026], [-74.2617, 10.9093], [-74.2673, 10.9394], [-74.2618, 11.005], [-74.2651, 11.0065]]]}}, {"type": "Feature", "properties": {"osm_type": "relation", "osm_id": 608879080, "name": "Remolino", "admin_level": "6", "kind": "subdivision_2", "parent_osm_id": 1319097, "parent_name": "Magdalena", "parent_iso": "CO-MAG"}, "geometry": {"type": "Polygon", "coordinates": [[[-74.7464, 10.6511], [-74.7398, 10.6345], [-74.732, 10.6313], [-74.7252, 10.6204], [-74.7261, 10.6012], [-74.7194, 10.5929], [-74.7036, 10.5954], [-74.6895, 10.5912], [-74.683, 10.5967], [-74.669, 10.5953], [-74.6728, 10.5839], [-74.6695, 10.5681], [-74.66, 10.5569], [-74.635, 10.5597], [-74.6245, 10.5498], [-74.6242, 10.5399], [-74.5606, 10.5395], [-74.5544, 10.534], [-74.5624, 10.531], [-74.5592, 10.5234], [-74.5496, 10.5333], [-74.546, 10.5281], [-74.5459, 10.5327], [-74.5431, 10.5303], [-74.5416, 10.5384], [-74.5396, 10.5317], [-74.5396, 10.5382], [-74.5288, 10.5461], [-74.5394, 10.5554], [-74.5353, 10.5601], [-74.5413, 10.5607], [-74.5335, 10.5655], [-74.5135, 10.5612], [-74.5129, 10.5554], [-74.4963, 10.5654], [-74.4885, 10.5639], [-74.4704, 10.5772], [-74.4696, 10.5895], [-74.4563, 10.593], [-74.4445, 10.6089], [-74.4346, 10.6283], [-74.4409, 10.6389], [-74.4374, 10.6505], [-74.448, 10.663], [-74.451, 10.6848], [-74.4405, 10.6912], [-74.4277, 10.723], [-74.473, 10.7192], [-74.4675, 10.7425], [-74.4724, 10.7489], [-74.4773, 10.7454], [-74.4981, 10.7526], [-74.5359, 10.752], [-74.5872, 10.736], [-74.5935, 10.7407], [-74.6021, 10.7233], [-74.6277, 10.726], [-74.6336, 10.7186], [-74.64, 10.7319], [-74.6859, 10.725], [-74.726, 10.7278], [-74.7236, 10.667], [-74.7464, 10.6511]]]}}, {"type": "Feature", "properties": {"osm_type": "relation", "osm_id": 471085287, "name": "Sabanas De San Angel", "admin_level": "6", "kind": "subdivision_2", "parent_osm_id": 1319097, "parent_name": "Magdalena", "parent_iso": "CO-MAG"}, "geometry": {"type": "Polygon", "coordinates": [[[-74.158, 10.3563], [-74.1801, 10.383], [-74.1893, 10.3802], [-74.1937, 10.3695], [-74.2288, 10.3466], [-74.2311, 10.323], [-74.2451, 10.3126], [-74.2567, 10.2912], [-74.2646, 10.2929], [-74.262, 10.2971], [-74.2705, 10.3016], [-74.2732, 10.2983], [-74.2872, 10.3031], [-74.2905, 10.2904], [-74.2732, 10.2826], [-74.2702, 10.2657], [-74.2925, 10.2711], [-74.292, 10.2607], [-74.3086, 10.2667], [-74.3075, 10.2481], [-74.3118, 10.2475], [-74.3281, 10.2488], [-74.3393, 10.2545], [-74.3421, 10.262], [-74.3554, 10.257], [-74.3405, 10.2429], [-74.3512, 10.2301], [-74.3477, 10.2172], [-74.3735, 10.2131], [-74.3725, 10.2259], [-74.386, 10.2319], [-74.3961, 10.2477], [-74.4063, 10.2433], [-74.4165, 10.2631], [-74.4325, 10.2643], [-74.4397, 10.2456], [-74.4512, 10.2506], [-74.4549, 10.2481], [-74.4488, 10.2148], [-74.4564, 10.2162], [-74.4594, 10.206], [-74.4655, 10.2029], [-74.4602, 10.2028], [-74.4538, 10.1927], [-74.4424, 10.1907], [-74.4181, 10.1563], [-74.4039, 10.1501], [-74.3938, 10.1382], [-74.3934, 10.1298], [-74.3858, 10.1273], [-74.4043, 10.101], [-74.3984, 10.0836], [-74.4145, 10.0439], [-74.4024, 10.0341], [-74.4242, 10.0165], [-74.4417, 10.0173], [-74.4393, 9.9831], [-74.4435, 9.977], [-74.4035, 9.957], [-74.3965, 9.946], [-74.3837, 9.94], [-74.3702, 9.9256], [-74.3703, 9.9197], [-74.3607, 9.9103], [-74.3492, 9.9352], [-74.3344, 9.9345], [-74.3237, 9.9247], [-74.3134, 9.9229], [-74.2855, 9.8852], [-74.2776, 9.8877], [-74.2686, 9.8797], [-74.2622, 9.9044], [-74.257, 9.9085], [-74.262, 9.9314], [-74.2522, 9.9644], [-74.2281, 9.9848], [-74.186, 9.9919], [-74.1844, 9.9811], [-74.1677, 9.9816], [-74.1609, 9.9745], [-74.1545, 9.977], [-74.1564, 9.9656], [-74.1493, 9.9651], [-74.1506, 9.9614], [-74.138, 9.9539], [-74.1397, 9.9497], [-74.1348, 9.9451], [-74.1254, 9.9521], [-74.1334, 9.9607], [-74.1278, 9.9669], [-74.1051, 9.9665], [-74.099, 9.9818], [-74.0907, 9.9861], [-74.0699, 9.9889], [-74.0623, 9.9799], [-74.0543, 9.993], [-74.0346, 9.9984], [-74.0371, 10.0064], [-74.0511, 10.0103], [-74.0618, 10.0416], [-74.0701, 10.0509], [-74.0806, 10.0534], [-74.0784, 10.0563], [-74.0853, 10.0617], [-74.0908, 10.0827], [-74.0975, 10.0811], [-74.1016, 10.0856], [-74.0986, 10.0895], [-74.1031, 10.093], [-74.1036, 10.1106], [-74.1079, 10.1106], [-74.1074, 10.1195], [-74.1141, 10.1242], [-74.1141, 10.1679], [-74.1179, 10.1672], [-74.1272, 10.1802], [-74.1274, 10.2066], [-74.1331, 10.2085], [-74.1482, 10.2022], [-74.1616, 10.1909], [-74.1705, 10.198], [-74.1813, 10.1984], [-74.1964, 10.1863], [-74.213, 10.1967], [-74.2048, 10.2149], [-74.2057, 10.2241], [-74.1902, 10.2552], [-74.1902, 10.294], [-74.1844, 10.3131], [-74.1707, 10.3247], [-74.1675, 10.3415], [-74.158, 10.3563]]]}}, {"type": "Feature", "properties": {"osm_type": "relation", "osm_id": 276275143, "name": "Salamina", "admin_level": "6", "kind": "subdivision_2", "parent_osm_id": 1319097, "parent_name": "Magdalena", "parent_iso": "CO-MAG"}, "geometry": {"type": "Polygon", "coordinates": [[[-74.812, 10.4509], [-74.8007, 10.4578], [-74.7812, 10.4596], [-74.7555, 10.4582], [-74.7352, 10.4492], [-74.7304, 10.4538], [-74.7052, 10.4513], [-74.6938, 10.4606], [-74.659, 10.5064], [-74.6562, 10.5362], [-74.6722, 10.5799], [-74.669, 10.5953], [-74.683, 10.5967], [-74.6895, 10.5912], [-74.7036, 10.5954], [-74.7194, 10.5929], [-74.7261, 10.6012], [-74.7382, 10.5821], [-74.7389, 10.5423], [-74.7671, 10.5281], [-74.7984, 10.4962], [-74.81, 10.4753], [-74.812, 10.4509]]]}}, {"type": "Feature", "properties": {"osm_type": "relation", "osm_id": 605049940, "name": "San Sebastian De Buenavista", "admin_level": "6", "kind": "subdivision_2", "parent_osm_id": 1319097, "parent_name": "Magdalena", "parent_iso": "CO-MAG"}, "geometry": {"type": "Polygon", "coordinates": [[[-74.3918, 9.2152], [-74.3489, 9.2333], [-74.2997, 9.2041], [-74.2665, 9.223], [-74.2366, 9.2494], [-74.2345, 9.2579], [-74.2207, 9.2725], [-74.2201, 9.2824], [-74.2033, 9.2931], [-74.2049, 9.3019], [-74.2146, 9.3053], [-74.2142, 9.3185], [-74.2017, 9.3186], [-74.1749, 9.3418], [-74.1613, 9.3386], [-74.1547, 9.3447], [-74.1382, 9.3308], [-74.124, 9.3327], [-74.1204, 9.343], [-74.0882, 9.3679], [-74.0772, 9.3926], [-74.0702, 9.3936], [-74.0637, 9.4032], [-74.0315, 9.4005], [-74.0237, 9.3941], [-74.011, 9.3953], [-73.9952, 9.3811], [-73.9781, 9.3894], [-73.9906, 9.3977], [-73.9999, 9.3948], [-74.0083, 9.3989], [-74.0165, 9.4113], [-74.034, 9.424], [-74.0493, 9.4244], [-74.0639, 9.437], [-74.0695, 9.4493], [-74.0917, 9.4654], [-74.0974, 9.4767], [-74.1208, 9.4801], [-74.1392, 9.4938], [-74.1675, 9.4912], [-74.1747, 9.4834], [-74.1864, 9.484], [-74.1937, 9.4459], [-74.2118, 9.4146], [-74.2298, 9.3996], [-74.2434, 9.3773], [-74.2438, 9.3497], [-74.2931, 9.3214], [-74.3627, 9.2671], [-74.3961, 9.2305], [-74.403, 9.2263], [-74.4104, 9.2382], [-74.4179, 9.2362], [-74.404, 9.2145], [-74.3918, 9.2152]]]}}, {"type": "Feature", "properties": {"osm_type": "relation", "osm_id": 475686532, "name": "San Zenón", "admin_level": "6", "kind": "subdivision_2", "parent_osm_id": 1319097, "parent_name": "Magdalena", "parent_iso": "CO-MAG"}, "geometry": {"type": "Polygon", "coordinates": [[[-74.4179, 9.2362], [-74.4104, 9.2382], [-74.403, 9.2263], [-74.3961, 9.2305], [-74.3627, 9.2671], [-74.2931, 9.3214], [-74.2438, 9.3497], [-74.2434, 9.3773], [-74.2298, 9.3996], [-74.2118, 9.4146], [-74.1937, 9.4459], [-74.1864, 9.484], [-74.2145, 9.4626], [-74.2293, 9.4601], [-74.2461, 9.4358], [-74.2565, 9.4298], [-74.2665, 9.4151], [-74.2758, 9.4116], [-74.2827, 9.3961], [-74.2807, 9.3913], [-74.2992, 9.3689], [-74.3372, 9.3543], [-74.3394, 9.3459], [-74.3576, 9.3449], [-74.3721, 9.3379], [-74.3953, 9.3393], [-74.4113, 9.3263], [-74.416, 9.3321], [-74.4652, 9.3234], [-74.4752, 9.3163], [-74.4811, 9.2939], [-74.5109, 9.2941], [-74.5139, 9.2821], [-74.5252, 9.2776], [-74.5274, 9.2716], [-74.5206, 9.2641], [-74.5239, 9.2581], [-74.5292, 9.2622], [-74.5306, 9.2421], [-74.5109, 9.2341], [-74.4686, 9.2688], [-74.4479, 9.269], [-74.4356, 9.2743], [-74.4179, 9.2362]]]}}, {"type": "Feature", "properties": {"osm_type": "relation", "osm_id": 356825931, "name": "Santa Ana", "admin_level": "6", "kind": "subdivision_2", "parent_osm_id": 1319097, "parent_name": "Magdalena", "parent_iso": "CO-MAG"}, "geometry": {"type": "Polygon", "coordinates": [[[-74.532, 9.2557], [-74.5292, 9.2622], [-74.5215, 9.2596], [-74.5274, 9.2716], [-74.5226, 9.2812], [-74.5139, 9.2821], [-74.5109, 9.2941], [-74.4793, 9.2958], [-74.4755, 9.4013], [-74.4589, 9.4024], [-74.4603, 9.3964], [-74.4359, 9.3986], [-74.4371, 9.3935], [-74.4322, 9.3942], [-74.4037, 9.4101], [-74.391, 9.4353], [-74.3628, 9.436], [-74.3418, 9.4284], [-74.3328, 9.4171], [-74.3032, 9.4348], [-74.302, 9.4313], [-74.2925, 9.4378], [-74.2841, 9.4354], [-74.2856, 9.4523], [-74.2777, 9.4537], [-74.2761, 9.471], [-74.2691, 9.4815], [-74.2711, 9.5016], [-74.2793, 9.5176], [-74.2647, 9.528], [-74.2492, 9.5189], [-74.1977, 9.5678], [-74.1833, 9.5671], [-74.1731, 9.5558], [-74.166, 9.573], [-74.1489, 9.5727], [-74.1455, 9.5842], [-74.1304, 9.5768], [-74.1109, 9.5921], [-74.1151, 9.6058], [-74.0889, 9.6214], [-74.0858, 9.6354], [-74.0643, 9.6382], [-74.0616, 9.6674], [-74.0203, 9.6749], [-74.0118, 9.6639], [-74.0035, 9.6625], [-74.0054, 9.6701], [-73.9961, 9.6825], [-73.984, 9.685], [-73.9855, 9.7205], [-73.9795, 9.7207], [-73.9791, 9.7137], [-73.9597, 9.7185], [-73.9598, 9.7322], [-73.9449, 9.7323], [-73.9448, 9.7186], [-73.9371, 9.7186], [-73.9472, 9.7063], [-73.9325, 9.7042], [-73.9342, 9.6919], [-73.9298, 9.688], [-73.9272, 9.6632], [-73.9131, 9.6622], [-73.8985, 9.6706], [-73.8838, 9.6598], [-73.8772, 9.6645], [-73.8795, 9.6681], [-73.8664, 9.6721], [-73.8315, 9.6719], [-73.8325, 9.6833], [-73.8265, 9.6859], [-73.8107, 9.6736], [-73.8136, 9.6835], [-73.8106, 9.6854], [-73.8146, 9.6864], [-73.8094, 9.6893], [-73.8151, 9.69], [-73.8091, 9.692], [-73.8133, 9.6929], [-73.8104, 9.6965], [-73.8181, 9.7041], [-73.8178, 9.7108], [-73.8251, 9.7105], [-73.8237, 9.7166], [-73.8292, 9.7163], [-73.8251, 9.7198], [-73.8293, 9.7248], [-73.8334, 9.7229], [-73.8329, 9.7285], [-73.839, 9.731], [-73.8355, 9.7343], [-73.8449, 9.7393], [-73.8544, 9.7385], [-73.8536, 9.7328], [-73.8659, 9.7247], [-73.8856, 9.7312], [-73.8934, 9.729], [-73.9029, 9.7336], [-73.9065, 9.7413], [-73.9372, 9.7385], [-73.9669, 9.7516], [-73.972, 9.7461], [-73.9879, 9.7463], [-73.9971, 9.7407], [-74.0224, 9.7407], [-74.0658, 9.7114], [-74.0852, 9.71], [-74.0946, 9.7034], [-74.0946, 9.6933], [-74.1039, 9.6803], [-74.1258, 9.664], [-74.1354, 9.6638], [-74.1541, 9.6521], [-74.1609, 9.643], [-74.1595, 9.6324], [-74.1644, 9.6238], [-74.1755, 9.6226], [-74.1899, 9.6094], [-74.1975, 9.5995], [-74.1974, 9.5921], [-74.2043, 9.592], [-74.2146, 9.5826], [-74.2245, 9.5854], [-74.249, 9.5757], [-74.2595, 9.5779], [-74.2696, 9.5666], [-74.2826, 9.587], [-74.295, 9.5946], [-74.3211, 9.5913], [-74.3494, 9.5698], [-74.3564, 9.5728], [-74.3598, 9.5697], [-74.3624, 9.5847], [-74.3803, 9.5913], [-74.3892, 9.6039], [-74.4112, 9.5888], [-74.4209, 9.59], [-74.4413, 9.608], [-74.4555, 9.609], [-74.4771, 9.621], [-74.4856, 9.6127], [-74.5001, 9.6101], [-74.5074, 9.58], [-74.5301, 9.556], [-74.5257, 9.5349], [-74.5366, 9.5168], [-74.5423, 9.515], [-74.5418, 9.5102], [-74.5602, 9.5125], [-74.5519, 9.5014], [-74.5572, 9.4883], [-74.5758, 9.4897], [-74.5819, 9.4764], [-74.5941, 9.4666], [-74.5984, 9.4604], [-74.5954, 9.4386], [-74.6096, 9.4252], [-74.6106, 9.4116], [-74.6279, 9.3903], [-74.6329, 9.3937], [-74.6452, 9.39], [-74.6429, 9.384], [-74.6529, 9.3915], [-74.6559, 9.384], [-74.6207, 9.3739], [-74.6135, 9.3606], [-74.6157, 9.3414], [-74.593, 9.3239], [-74.5659, 9.3146], [-74.5609, 9.2932], [-74.532, 9.2557]]]}}, {"type": "Feature", "properties": {"osm_type": "relation", "osm_id": 487898089, "name": "Santa Bárbara De Pinto", "admin_level": "6", "kind": "subdivision_2", "parent_osm_id": 1319097, "parent_name": "Magdalena", "parent_iso": "CO-MAG"}, "geometry": {"type": "Polygon", "coordinates": [[[-74.8008, 9.4421], [-74.7787, 9.4618], [-74.7633, 9.4638], [-74.7424, 9.4467], [-74.7391, 9.426], [-74.7319, 9.4187], [-74.7227, 9.4173], [-74.6985, 9.4268], [-74.6908, 9.4191], [-74.6719, 9.4126], [-74.6602, 9.386], [-74.6559, 9.384], [-74.6529, 9.3915], [-74.6429, 9.384], [-74.6452, 9.39], [-74.6329, 9.3937], [-74.6279, 9.3903], [-74.6106, 9.4116], [-74.6096, 9.4252], [-74.5954, 9.4386], [-74.5984, 9.4604], [-74.5941, 9.4666], [-74.5819, 9.4764], [-74.5758, 9.4897], [-74.5572, 9.4883], [-74.5519, 9.5014], [-74.5602, 9.5125], [-74.5418, 9.5102], [-74.5423, 9.515], [-74.5366, 9.5168], [-74.5257, 9.5349], [-74.5301, 9.556], [-74.5215, 9.5653], [-74.5369, 9.576], [-74.5401, 9.5836], [-74.5345, 9.6041], [-74.5564, 9.6198], [-74.5559, 9.6292], [-74.5622, 9.6331], [-74.5628, 9.6416], [-74.5861, 9.6547], [-74.591, 9.6685], [-74.6328, 9.6432], [-74.6457, 9.6479], [-74.6733, 9.64], [-74.6878, 9.6243], [-74.678, 9.6239], [-74.6728, 9.6145], [-74.6559, 9.6109], [-74.6617, 9.5783], [-74.6925, 9.5656], [-74.7234, 9.5433], [-74.7262, 9.5496], [-74.7317, 9.5477], [-74.7324, 9.5518], [-74.7486, 9.5549], [-74.7506, 9.5475], [-74.7683, 9.5323], [-74.7716, 9.5169], [-74.7772, 9.5176], [-74.7771, 9.4958], [-74.8084, 9.4619], [-74.808, 9.4519], [-74.8008, 9.4421]]]}}, {"type": "Feature", "properties": {"osm_type": "relation", "osm_id": 653816095, "name": "Sitionuevo", "admin_level": "6", "kind": "subdivision_2", "parent_osm_id": 1319097, "parent_name": "Magdalena", "parent_iso": "CO-MAG"}, "geometry": {"type": "Polygon", "coordinates": [[[-74.7573, 10.9454], [-74.7538, 10.9361], [-74.7184, 10.9093], [-74.7347, 10.893], [-74.7413, 10.8457], [-74.7362, 10.8002], [-74.7251, 10.7717], [-74.726, 10.7278], [-74.6859, 10.725], [-74.64, 10.7319], [-74.6336, 10.7186], [-74.6277, 10.726], [-74.6021, 10.7233], [-74.5935, 10.7407], [-74.5872, 10.736], [-74.5359, 10.752], [-74.4981, 10.7526], [-74.4773, 10.7454], [-74.4724, 10.7489], [-74.4675, 10.7425], [-74.473, 10.7192], [-74.4277, 10.723], [-74.432, 10.7286], [-74.4523, 10.7257], [-74.458, 10.7291], [-74.4617, 10.8016], [-74.4785, 10.8226], [-74.4828, 10.8417], [-74.4848, 10.981], [-74.6195, 11.0156], [-74.8519, 11.1054], [-74.8451, 11.0707], [-74.837, 11.056], [-74.7848, 11.018], [-74.7632, 10.9943], [-74.7559, 10.9698], [-74.7573, 10.9454]]]}}, {"type": "Feature", "properties": {"osm_type": "relation", "osm_id": 128927346, "name": "Tenerife", "admin_level": "6", "kind": "subdivision_2", "parent_osm_id": 1319097, "parent_name": "Magdalena", "parent_iso": "CO-MAG"}, "geometry": {"type": "Polygon", "coordinates": [[[-74.8626, 9.944], [-74.8733, 9.9357], [-74.8717, 9.9019], [-74.8797, 9.8897], [-74.8823, 9.8723], [-74.8733, 9.8485], [-74.8639, 9.8448], [-74.8556, 9.8275], [-74.8394, 9.8103], [-74.8141, 9.8224], [-74.8049, 9.8201], [-74.7952, 9.8291], [-74.7882, 9.8283], [-74.7762, 9.835], [-74.776, 9.8413], [-74.7674, 9.84], [-74.7598, 9.8493], [-74.7406, 9.8459], [-74.7344, 9.8508], [-74.7334, 9.8671], [-74.7051, 9.8759], [-74.6932, 9.8892], [-74.6594, 9.8807], [-74.6382, 9.8939], [-74.6222, 9.8861], [-74.6128, 9.8968], [-74.604, 9.899], [-74.58, 9.8867], [-74.5718, 9.8899], [-74.5745, 9.9005], [-74.5703, 9.9157], [-74.5576, 9.9298], [-74.5528, 9.9458], [-74.5642, 9.9569], [-74.5642, 9.9692], [-74.5693, 9.9628], [-74.5956, 9.9843], [-74.6153, 9.9893], [-74.6192, 9.9953], [-74.6511, 10.0024], [-74.6613, 10.0119], [-74.6739, 10.008], [-74.7042, 10.0164], [-74.732, 10.0085], [-74.7439, 9.9994], [-74.7633, 10.0182], [-74.7779, 10.0066], [-74.7896, 10.0138], [-74.788, 10.0063], [-74.8204, 9.9673], [-74.8502, 9.956], [-74.8626, 9.944]]]}}, {"type": "Feature", "properties": {"osm_type": "relation", "osm_id": 536537128, "name": "Zapayán", "admin_level": "6", "kind": "subdivision_2", "parent_osm_id": 1319097, "parent_name": "Magdalena", "parent_iso": "CO-MAG"}, "geometry": {"type": "Polygon", "coordinates": [[[-74.7896, 10.0138], [-74.7779, 10.0066], [-74.7633, 10.0182], [-74.7439, 9.9994], [-74.732, 10.0085], [-74.7042, 10.0164], [-74.6739, 10.008], [-74.6613, 10.0119], [-74.6725, 10.0284], [-74.668, 10.0401], [-74.6724, 10.0533], [-74.6616, 10.0406], [-74.6481, 10.0371], [-74.6418, 10.0503], [-74.6473, 10.0704], [-74.6333, 10.0701], [-74.6219, 10.0813], [-74.6219, 10.105], [-74.634, 10.1175], [-74.6316, 10.1359], [-74.6369, 10.1412], [-74.615, 10.1455], [-74.6131, 10.1646], [-74.5914, 10.1745], [-74.594, 10.1881], [-74.5831, 10.2018], [-74.587, 10.2185], [-74.5973, 10.2222], [-74.5958, 10.2319], [-74.6024, 10.2283], [-74.6176, 10.2354], [-74.6329, 10.2316], [-74.6423, 10.247], [-74.6671, 10.2395], [-74.6865, 10.2568], [-74.6922, 10.2567], [-74.701, 10.2744], [-74.7059, 10.2598], [-74.7161, 10.2489], [-74.7038, 10.2452], [-74.6819, 10.2093], [-74.6972, 10.1964], [-74.7019, 10.1846], [-74.7223, 10.1747], [-74.7196, 10.164], [-74.7332, 10.1525], [-74.7304, 10.1541], [-74.7284, 10.1454], [-74.7312, 10.149], [-74.7418, 10.1416], [-74.7307, 10.1063], [-74.7384, 10.0892], [-74.7566, 10.0795], [-74.7555, 10.091], [-74.7737, 10.0975], [-74.7809, 10.0855], [-74.7836, 10.0879], [-74.7966, 10.0807], [-74.8009, 10.0701], [-74.806, 10.0722], [-74.8145, 10.0625], [-74.8176, 10.0653], [-74.8251, 10.0592], [-74.8167, 10.0404], [-74.7896, 10.0138]]]}}, {"type": "Feature", "properties": {"osm_type": "relation", "osm_id": 823086225, "name": "Zona Bananera", "admin_level": "6", "kind": "subdivision_2", "parent_osm_id": 1319097, "parent_name": "Magdalena", "parent_iso": "CO-MAG"}, "geometry": {"type": "Polygon", "coordinates": [[[-74.2663, 10.8657], [-74.2723, 10.8594], [-74.2686, 10.8546], [-74.273, 10.8419], [-74.2589, 10.8321], [-74.2609, 10.8132], [-74.2684, 10.8011], [-74.2471, 10.7855], [-74.2487, 10.7353], [-74.2429, 10.7204], [-74.2347, 10.7146], [-74.2399, 10.6971], [-74.2251, 10.6885], [-74.2196, 10.6929], [-74.2184, 10.6607], [-74.2088, 10.6648], [-74.1896, 10.6551], [-74.1832, 10.6407], [-74.1766, 10.6424], [-74.1728, 10.6375], [-74.1661, 10.6444], [-74.164, 10.6345], [-74.1515, 10.6373], [-74.1499, 10.6465], [-74.156, 10.6448], [-74.1542, 10.6501], [-74.1349, 10.6665], [-74.137, 10.6764], [-74.1211, 10.6836], [-74.1297, 10.695], [-74.1301, 10.7119], [-74.1226, 10.7167], [-74.1203, 10.7254], [-74.1114, 10.7235], [-74.1094, 10.7349], [-74.098, 10.7371], [-74.0997, 10.7402], [-74.0867, 10.7564], [-74.0924, 10.7749], [-74.081, 10.7868], [-74.0941, 10.7985], [-74.0867, 10.8069], [-74.0986, 10.8086], [-74.1025, 10.8195], [-74.0907, 10.8345], [-74.0991, 10.8548], [-74.1111, 10.8568], [-74.1049, 10.8651], [-74.1094, 10.8729], [-74.0958, 10.8858], [-74.1056, 10.8926], [-74.1142, 10.8902], [-74.1149, 10.8726], [-74.1313, 10.8649], [-74.1353, 10.858], [-74.1455, 10.874], [-74.1429, 10.8866], [-74.1507, 10.8995], [-74.1416, 10.9054], [-74.1476, 10.9102], [-74.1505, 10.9267], [-74.1549, 10.9236], [-74.1617, 10.9288], [-74.1584, 10.9363], [-74.1623, 10.94], [-74.1568, 10.9465], [-74.1625, 10.9455], [-74.1669, 10.9565], [-74.186, 10.9556], [-74.1936, 10.9604], [-74.2192, 10.9464], [-74.2164, 10.9424], [-74.2201, 10.9416], [-74.2224, 10.9257], [-74.2284, 10.9278], [-74.2273, 10.9219], [-74.2313, 10.921], [-74.2235, 10.9107], [-74.2252, 10.9048], [-74.2379, 10.9059], [-74.2383, 10.8969], [-74.2208, 10.8952], [-74.2241, 10.8776], [-74.2167, 10.8709], [-74.2185, 10.8657], [-74.2529, 10.8613], [-74.2663, 10.8657]]]}}, {"type": "Feature", "properties": {"osm_type": "relation", "osm_id": 450982394, "name": "Aracataca", "admin_level": "6", "kind": "subdivision_2", "parent_osm_id": 1319097, "parent_name": "Magdalena", "parent_iso": "CO-MAG"}, "geometry": {"type": "Polygon", "coordinates": [[[-74.1515, 10.6373], [-74.164, 10.6345], [-74.1661, 10.6444], [-74.1728, 10.6375], [-74.1766, 10.6424], [-74.1832, 10.6407], [-74.1896, 10.6551], [-74.2088, 10.6648], [-74.2234, 10.6627], [-74.2239, 10.6576], [-74.2576, 10.6649], [-74.251, 10.6524], [-74.2537, 10.6421], [-74.2233, 10.604], [-74.2017, 10.6011], [-74.2, 10.5915], [-74.1923, 10.5856], [-74.1948, 10.5749], [-74.1881, 10.5541], [-74.2094, 10.5518], [-74.2156, 10.5362], [-74.1953, 10.5254], [-74.1839, 10.5278], [-74.1725, 10.509], [-74.1676, 10.5146], [-74.1586, 10.5147], [-74.152, 10.5052], [-74.1427, 10.5019], [-74.138, 10.5115], [-74.1361, 10.4985], [-74.1283, 10.4959], [-74.1346, 10.4848], [-74.124, 10.4879], [-74.1236, 10.4804], [-74.0881, 10.4675], [-74.0881, 10.4484], [-74.0806, 10.4456], [-74.0802, 10.4374], [-74.0698, 10.4418], [-74.0646, 10.4347], [-74.056, 10.4363], [-74.0479, 10.4249], [-74.0311, 10.4265], [-73.9839, 10.4474], [-73.9656, 10.4895], [-73.9504, 10.491], [-73.9475, 10.4819], [-73.9213, 10.492], [-73.9096, 10.5162], [-73.9017, 10.5119], [-73.8993, 10.5148], [-73.8922, 10.5079], [-73.885, 10.5115], [-73.8689, 10.5089], [-73.8654, 10.5012], [-73.8593, 10.5068], [-73.8597, 10.5146], [-73.8397, 10.5087], [-73.8202, 10.5248], [-73.8133, 10.5234], [-73.8056, 10.5301], [-73.8002, 10.5246], [-73.7809, 10.5473], [-73.7643, 10.5488], [-73.7583, 10.5587], [-73.7527, 10.5629], [-73.7418, 10.5614], [-73.742, 10.5673], [-73.7365, 10.5662], [-73.7344, 10.5715], [-73.7154, 10.5652], [-73.7124, 10.5775], [-73.7018, 10.5796], [-73.6815, 10.5924], [-73.674, 10.6045], [-73.6632, 10.6058], [-73.6524, 10.6151], [-73.6578, 10.6325], [-73.6538, 10.6399], [-73.6378, 10.6387], [-73.6324, 10.6434], [-73.6167, 10.6448], [-73.6117, 10.6727], [-73.6031, 10.6752], [-73.5967, 10.6858], [-73.5938, 10.7053], [-73.5855, 10.7091], [-73.5829, 10.7167], [-73.5753, 10.7121], [-73.5629, 10.7162], [-73.5647, 10.726], [-73.5582, 10.732], [-73.5623, 10.7409], [-73.5419, 10.7547], [-73.5737, 10.7665], [-73.589, 10.7817], [-73.6126, 10.7887], [-73.6387, 10.7878], [-73.6338, 10.7977], [-73.6387, 10.8021], [-73.6352, 10.8079], [-73.5986, 10.836], [-73.6104, 10.8317], [-73.6218, 10.834], [-73.6508, 10.824], [-73.6603, 10.8257], [-73.6816, 10.8388], [-73.6923, 10.835], [-73.7074, 10.8407], [-73.7144, 10.859], [-73.7418, 10.8662], [-73.7482, 10.8777], [-73.7542, 10.879], [-73.7651, 10.8756], [-73.78, 10.8615], [-73.7945, 10.8609], [-73.808, 10.8539], [-73.8295, 10.8074], [-73.857, 10.793], [-73.8687, 10.7818], [-73.866, 10.7778], [-73.871, 10.7723], [-73.8856, 10.7676], [-73.8982, 10.7526], [-73.9363, 10.7381], [-73.9444, 10.7269], [-73.9532, 10.7286], [-73.9589, 10.7166], [-73.9673, 10.7203], [-73.9696, 10.7161], [-73.9643, 10.7129], [-73.9767, 10.7132], [-73.9795, 10.7086], [-73.9861, 10.7122], [-74.0306, 10.6781], [-74.0381, 10.6808], [-74.0483, 10.6643], [-74.0618, 10.6563], [-74.072, 10.6581], [-74.0795, 10.6509], [-74.083, 10.653], [-74.0878, 10.647], [-74.0839, 10.6423], [-74.0887, 10.6409], [-74.0869, 10.6211], [-74.0984, 10.6158], [-74.1022, 10.6078], [-74.1182, 10.6194], [-74.1196, 10.633], [-74.1407, 10.6284], [-74.1398, 10.6365], [-74.1515, 10.6373]]]}}, {"type": "Feature", "properties": {"osm_type": "relation", "osm_id": 309279362, "name": "Santa Marta", "admin_level": "6", "kind": "subdivision_2", "parent_osm_id": 1319097, "parent_name": "Magdalena", "parent_iso": "CO-MAG"}, "geometry": {"type": "Polygon", "coordinates": [[[-73.5749, 11.2597], [-73.593, 11.2635], [-73.6614, 11.2521], [-73.6985, 11.2608], [-73.7152, 11.2539], [-73.7609, 11.2651], [-73.7907, 11.2564], [-73.858, 11.2742], [-73.8947, 11.2988], [-73.9471, 11.3143], [-73.9604, 11.3289], [-73.9748, 11.3332], [-73.9752, 11.3387], [-73.9884, 11.3374], [-74.0054, 11.3428], [-74.0106, 11.3388], [-74.0129, 11.3434], [-74.0306, 11.3466], [-74.0366, 11.3385], [-74.0454, 11.3489], [-74.0535, 11.3406], [-74.0497, 11.3315], [-74.057, 11.3281], [-74.0631, 11.3307], [-74.065, 11.3453], [-74.076, 11.3411], [-74.0804, 11.3328], [-74.0767, 11.319], [-74.0829, 11.3155], [-74.0894, 11.3215], [-74.0999, 11.3223], [-74.0957, 11.3392], [-74.1051, 11.3403], [-74.1073, 11.3479], [-74.1117, 11.342], [-74.1037, 11.325], [-74.1054, 11.3189], [-74.1242, 11.3344], [-74.1282, 11.3298], [-74.1254, 11.3195], [-74.135, 11.3155], [-74.1349, 11.3258], [-74.1425, 11.3257], [-74.1383, 11.3317], [-74.1447, 11.337], [-74.151, 11.3261], [-74.1609, 11.3242], [-74.1467, 11.3017], [-74.149, 11.2981], [-74.1569, 11.296], [-74.1608, 11.2998], [-74.1679, 11.2955], [-74.1672, 11.3055], [-74.1734, 11.3076], [-74.1854, 11.2987], [-74.1943, 11.3037], [-74.1908, 11.2918], [-74.2066, 11.2742], [-74.1914, 11.2644], [-74.2198, 11.2541], [-74.2207, 11.2503], [-74.216, 11.2541], [-74.2145, 11.2481], [-74.218, 11.2383], [-74.2416, 11.2211], [-74.2334, 11.2154], [-74.2366, 11.2094], [-74.2281, 11.2045], [-74.2412, 11.1758], [-74.2311, 11.1675], [-74.2267, 11.1489], [-74.2335, 11.1165], [-74.2215, 11.0993], [-74.2146, 11.0754], [-74.2097, 11.0844], [-74.1776, 11.0992], [-74.1573, 11.1018], [-74.143, 11.098], [-74.1238, 11.1055], [-74.1129, 11.1039], [-74.1158, 11.0975], [-74.1093, 11.0775], [-74.0887, 11.075], [-74.0849, 11.0622], [-74.0774, 11.0577], [-74.0459, 11.064], [-74.0471, 11.0424], [-74.0416, 11.0367], [-74.0191, 11.0281], [-74.0163, 11.0355], [-74.0019, 11.036], [-73.9844, 11.0138], [-73.9698, 11.0155], [-73.9643, 11.0103], [-73.936, 11.0057], [-73.9164, 11.0133], [-73.9086, 10.9942], [-73.8685, 10.9889], [-73.864, 10.9826], [-73.8679, 10.9685], [-73.8619, 10.9606], [-73.8675, 10.934], [-73.8646, 10.9304], [-73.8669, 10.9165], [-73.8785, 10.908], [-73.8823, 10.8949], [-73.8766, 10.8912], [-73.8777, 10.884], [-73.8707, 10.8844], [-73.8556, 10.8644], [-73.8459, 10.8692], [-73.8419, 10.8649], [-73.8183, 10.8665], [-73.8053, 10.8623], [-73.7717, 10.8809], [-73.7651, 10.8756], [-73.7542, 10.879], [-73.7482, 10.8777], [-73.7418, 10.8662], [-73.7144, 10.859], [-73.7074, 10.8407], [-73.6923, 10.835], [-73.6816, 10.8388], [-73.6508, 10.824], [-73.6218, 10.834], [-73.6104, 10.8317], [-73.5986, 10.836], [-73.5991, 10.8397], [-73.6111, 10.8603], [-73.6146, 10.8809], [-73.6334, 10.9002], [-73.6426, 10.9672], [-73.6617, 10.9809], [-73.6649, 10.9899], [-73.6486, 11.0158], [-73.653, 11.0306], [-73.6355, 11.0416], [-73.6411, 11.0544], [-73.65, 11.0608], [-73.641, 11.0707], [-73.6474, 11.0755], [-73.6409, 11.0779], [-73.6486, 11.0817], [-73.6509, 11.0885], [-73.6374, 11.1088], [-73.6433, 11.1234], [-73.652, 11.1275], [-73.6533, 11.1376], [-73.6448, 11.1376], [-73.6446, 11.1446], [-73.6341, 11.1418], [-73.6343, 11.1463], [-73.6275, 11.1417], [-73.6168, 11.1536], [-73.6198, 11.1617], [-73.6133, 11.1655], [-73.6086, 11.1631], [-73.6104, 11.1714], [-73.5981, 11.1796], [-73.5913, 11.1784], [-73.5915, 11.1885], [-73.5839, 11.1894], [-73.582, 11.2165], [-73.5745, 11.2183], [-73.5788, 11.2249], [-73.5726, 11.2252], [-73.5781, 11.2297], [-73.5681, 11.2327], [-73.5655, 11.2552], [-73.5749, 11.2597]]]}}]}