{"type": "FeatureCollection", "parent": {"osm_id": 14419962, "name": "Ulster", "admin_level": "5", "kind": "subdivision_1", "child_kind": "subdivision_2", "iso": "IE-U"}, "features": [{"type": "Feature", "properties": {"osm_type": "relation", "osm_id": 694273295, "name": "MILFORD LEA-3", "admin_level": "6", "kind": "subdivision_2", "parent_osm_id": 14419962, "parent_name": "Ulster", "parent_iso": "IE-U"}, "geometry": {"type": "MultiPolygon", "coordinates": [[[[-8.0499, 54.9912], [-8.0074, 54.9788], [-8.0048, 54.9742], [-7.975, 54.9701], [-7.9491, 54.9755], [-7.9085, 54.997], [-7.8741, 55.0017], [-7.8543, 55.0222], [-7.8226, 55.0198], [-7.8119, 55.0252], [-7.8008, 55.0095], [-7.7829, 55.0243], [-7.7454, 55.0111], [-7.7478, 55.0217], [-7.7269, 55.0279], [-7.7179, 55.0176], [-7.7088, 55.0194], [-7.7071, 55.01], [-7.6945, 55.0008], [-7.6627, 55.0047], [-7.627, 55.0183], [-7.6292, 55.0134], [-7.619, 55.0049], [-7.599, 55.0108], [-7.5583, 55.0355], [-7.5596, 55.0448], [-7.5676, 55.0533], [-7.5787, 55.0546], [-7.6074, 55.043], [-7.6235, 55.0471], [-7.652, 55.037], [-7.6385, 55.0409], [-7.6416, 55.0455], [-7.6295, 55.0522], [-7.6367, 55.0544], [-7.6328, 55.0583], [-7.6201, 55.0552], [-7.5971, 55.0618], [-7.5998, 55.0744], [-7.5928, 55.0738], [-7.5854, 55.0818], [-7.5304, 55.0949], [-7.5257, 55.1035], [-7.5316, 55.1149], [-7.518, 55.1228], [-7.52, 55.1331], [-7.5219, 55.139], [-7.5246, 55.1364], [-7.5321, 55.1432], [-7.5417, 55.1416], [-7.551, 55.1558], [-7.5737, 55.1663], [-7.5772, 55.1697], [-7.5705, 55.1752], [-7.5717, 55.1803], [-7.5878, 55.1879], [-7.5973, 55.1855], [-7.6153, 55.1905], [-7.6259, 55.2043], [-7.6073, 55.2169], [-7.6033, 55.2312], [-7.6147, 55.2367], [-7.614, 55.2456], [-7.619, 55.2499], [-7.6166, 55.2559], [-7.6241, 55.2589], [-7.6262, 55.2697], [-7.6368, 55.2717], [-7.6322, 55.2776], [-7.6593, 55.2775], [-7.6761, 55.2638], [-7.6942, 55.2645], [-7.6915, 55.2551], [-7.7022, 55.2477], [-7.7272, 55.2477], [-7.7306, 55.2551], [-7.7416, 55.2491], [-7.7588, 55.2569], [-7.7498, 55.2493], [-7.76, 55.2423], [-7.7523, 55.2366], [-7.76, 55.2375], [-7.7577, 55.2343], [-7.7989, 55.2155], [-7.7953, 55.2062], [-7.78, 55.2043], [-7.7709, 55.1912], [-7.752, 55.1929], [-7.7458, 55.1993], [-7.7351, 55.1959], [-7.7381, 55.1895], [-7.7483, 55.1933], [-7.7465, 55.1879], [-7.7105, 55.1689], [-7.7126, 55.1758], [-7.7043, 55.1812], [-7.719, 55.1876], [-7.7159, 55.1879], [-7.7222, 55.1993], [-7.7117, 55.2059], [-7.7202, 55.2057], [-7.7233, 55.2204], [-7.7094, 55.2302], [-7.706, 55.2246], [-7.7007, 55.2255], [-7.7033, 55.2151], [-7.7079, 55.2175], [-7.6992, 55.211], [-7.6967, 55.2031], [-7.7014, 55.1994], [-7.6964, 55.1962], [-7.7085, 55.2024], [-7.7165, 55.1963], [-7.7035, 55.1885], [-7.6951, 55.193], [-7.6934, 55.1867], [-7.7015, 55.1801], [-7.6916, 55.1773], [-7.6834, 55.1823], [-7.6802, 55.1652], [-7.6646, 55.1587], [-7.6692, 55.1417], [-7.6836, 55.1326], [-7.6776, 55.1304], [-7.692, 55.1124], [-7.6861, 55.1071], [-7.694, 55.0993], [-7.6973, 55.0992], [-7.6944, 55.1058], [-7.6997, 55.1028], [-7.7022, 55.107], [-7.7177, 55.0969], [-7.7069, 55.1064], [-7.7077, 55.1159], [-7.6887, 55.1433], [-7.6964, 55.1436], [-7.694, 55.1512], [-7.7073, 55.1572], [-7.712, 55.1669], [-7.7255, 55.1749], [-7.7291, 55.1752], [-7.7279, 55.1679], [-7.7137, 55.1612], [-7.7187, 55.1591], [-7.7409, 55.1814], [-7.7452, 55.1802], [-7.7427, 55.1731], [-7.7534, 55.1778], [-7.7502, 55.1815], [-7.7598, 55.1876], [-7.7689, 55.1861], [-7.7678, 55.183], [-7.7848, 55.1845], [-7.788, 55.1798], [-7.7943, 55.1846], [-7.7965, 55.1772], [-7.8069, 55.1776], [-7.8007, 55.1868], [-7.8169, 55.199], [-7.8073, 55.2044], [-7.8083, 55.216], [-7.8066, 55.213], [-7.8006, 55.2215], [-7.7886, 55.2248], [-7.7933, 55.2295], [-7.7886, 55.2317], [-7.7905, 55.2415], [-7.7831, 55.2519], [-7.7874, 55.2575], [-7.7892, 55.2472], [-7.8055, 55.2511], [-7.8039, 55.2479], [-7.8091, 55.2455], [-7.8033, 55.2427], [-7.8067, 55.2438], [-7.8075, 55.2372], [-7.8221, 55.2379], [-7.8138, 55.2311], [-7.8171, 55.2255], [-7.8281, 55.2244], [-7.8422, 55.2321], [-7.8489, 55.2258], [-7.8663, 55.23], [-7.8654, 55.2247], [-7.8707, 55.2204], [-7.8652, 55.2154], [-7.8714, 55.2142], [-7.8734, 55.2025], [-7.8607, 55.1929], [-7.8515, 55.1937], [-7.8498, 55.1891], [-7.8364, 55.1941], [-7.8254, 55.1787], [-7.8317, 55.1633], [-7.8492, 55.1552], [-7.8384, 55.1507], [-7.8598, 55.14], [-7.8575, 55.1328], [-7.8499, 55.1335], [-7.8543, 55.1294], [-7.847, 55.1171], [-7.8349, 55.1117], [-7.8693, 55.0921], [-7.9046, 55.0791], [-7.9317, 55.0615], [-7.9364, 55.0538], [-7.9715, 55.0388], [-7.9938, 55.0208], [-7.9982, 55.025], [-8.0147, 55.0173], [-8.0499, 54.9912]]], [[[-7.7931, 55.191], [-7.8, 55.1896], [-7.7963, 55.1868], [-7.7863, 55.1882], [-7.7833, 55.1924], [-7.7892, 55.1955], [-7.7866, 55.1908], [-7.7931, 55.191]]], [[[-7.5962, 55.0561], [-7.6009, 55.0481], [-7.5937, 55.0533], [-7.5962, 55.0561]]], [[[-7.708, 55.2118], [-7.7046, 55.2129], [-7.7097, 55.2145], [-7.708, 55.2118]]], [[[-7.7615, 55.2468], [-7.7582, 55.2476], [-7.7615, 55.2468]]], [[[-7.7967, 55.1979], [-7.7996, 55.197], [-7.7967, 55.1979]]], [[[-7.6878, 55.1224], [-7.6882, 55.1208], [-7.6861, 55.1233], [-7.6878, 55.1224]]], [[[-7.7903, 55.1983], [-7.7913, 55.1994], [-7.793, 55.1981], [-7.7903, 55.1983]]]]}}, {"type": "Feature", "properties": {"osm_type": "relation", "osm_id": 260449754, "name": "BALLYBAY-CLONES LEA-5", "admin_level": "6", "kind": "subdivision_2", "parent_osm_id": 14419962, "parent_name": "Ulster", "parent_iso": "IE-U"}, "geometry": {"type": "Polygon", "coordinates": [[[-6.7895, 54.1545], [-6.7999, 54.1665], [-6.8139, 54.1615], [-6.8325, 54.1661], [-6.8394, 54.1623], [-6.8472, 54.1698], [-6.8781, 54.1772], [-6.8753, 54.1989], [-6.8858, 54.2], [-6.8843, 54.206], [-6.8996, 54.2077], [-6.9218, 54.1965], [-6.9124, 54.1804], [-6.941, 54.1832], [-6.9551, 54.1799], [-6.9551, 54.1912], [-6.9628, 54.1874], [-6.9785, 54.2042], [-6.9916, 54.2059], [-6.9993, 54.2213], [-7.0089, 54.2232], [-7.0067, 54.2301], [-7.0251, 54.2307], [-7.0223, 54.2257], [-7.0477, 54.2246], [-7.0472, 54.2298], [-7.0527, 54.2308], [-7.0509, 54.2373], [-7.0672, 54.2421], [-7.0694, 54.2382], [-7.064, 54.2353], [-7.0689, 54.2327], [-7.103, 54.2343], [-7.1151, 54.2432], [-7.1024, 54.2575], [-7.1119, 54.2577], [-7.1167, 54.2633], [-7.1016, 54.2672], [-7.117, 54.2775], [-7.1077, 54.285], [-7.1371, 54.2899], [-7.1427, 54.2869], [-7.1384, 54.2769], [-7.1606, 54.2736], [-7.1505, 54.2584], [-7.1419, 54.255], [-7.159, 54.2439], [-7.1461, 54.2398], [-7.1499, 54.2316], [-7.145, 54.2247], [-7.1709, 54.2176], [-7.1848, 54.2201], [-7.1883, 54.2248], [-7.1988, 54.2156], [-7.2211, 54.2158], [-7.2327, 54.2109], [-7.2318, 54.2056], [-7.2481, 54.2044], [-7.2492, 54.1979], [-7.233, 54.1978], [-7.2361, 54.1934], [-7.2591, 54.1923], [-7.2583, 54.1774], [-7.2403, 54.1697], [-7.2581, 54.1645], [-7.2525, 54.1557], [-7.2639, 54.1454], [-7.2629, 54.1375], [-7.2776, 54.1296], [-7.278, 54.1233], [-7.2919, 54.1191], [-7.3035, 54.1228], [-7.3089, 54.1321], [-7.2927, 54.1306], [-7.2854, 54.1364], [-7.2842, 54.1398], [-7.3013, 54.1444], [-7.2989, 54.1493], [-7.2838, 54.1539], [-7.2858, 54.1579], [-7.2798, 54.1677], [-7.2914, 54.1719], [-7.3004, 54.1662], [-7.3102, 54.1673], [-7.3261, 54.1515], [-7.3395, 54.1467], [-7.3275, 54.1353], [-7.3187, 54.1374], [-7.312, 54.1317], [-7.3161, 54.127], [-7.3053, 54.1234], [-7.3211, 54.1087], [-7.2934, 54.1078], [-7.2631, 54.0932], [-7.2381, 54.0947], [-7.247, 54.1022], [-7.233, 54.0966], [-7.2234, 54.1024], [-7.2023, 54.0924], [-7.1932, 54.0958], [-7.1807, 54.0865], [-7.1686, 54.0892], [-7.163, 54.0875], [-7.1638, 54.0838], [-7.15, 54.0821], [-7.1182, 54.0956], [-7.1012, 54.0939], [-7.0914, 54.0874], [-7.0928, 54.0827], [-7.0869, 54.0818], [-7.0781, 54.0889], [-7.0534, 54.0938], [-7.0488, 54.1006], [-7.0177, 54.0986], [-7.0142, 54.0927], [-7.0293, 54.0879], [-7.0255, 54.0793], [-7.0122, 54.0777], [-7.0023, 54.0648], [-6.9865, 54.062], [-6.9824, 54.0519], [-6.9675, 54.0458], [-6.9663, 54.0402], [-6.9561, 54.0433], [-6.9398, 54.0335], [-6.9349, 54.019], [-6.9251, 54.0119], [-6.9148, 54.0162], [-6.9013, 54.0087], [-6.8898, 54.012], [-6.8907, 54.0032], [-6.8756, 53.9978], [-6.8801, 53.9926], [-6.8641, 53.9879], [-6.867, 53.9835], [-6.851, 53.9754], [-6.8477, 53.9811], [-6.8355, 53.9812], [-6.8348, 53.985], [-6.8415, 53.9861], [-6.8353, 53.9951], [-6.8425, 54.002], [-6.8447, 54.0148], [-6.8248, 54.0165], [-6.8247, 54.0268], [-6.8353, 54.0323], [-6.8287, 54.0405], [-6.816, 54.0358], [-6.8125, 54.0434], [-6.7897, 54.0398], [-6.7866, 54.0458], [-6.7701, 54.0489], [-6.773, 54.0568], [-6.7585, 54.065], [-6.7675, 54.0717], [-6.7595, 54.0783], [-6.78, 54.0949], [-6.7691, 54.0976], [-6.7751, 54.1105], [-6.7612, 54.109], [-6.7697, 54.1159], [-6.7901, 54.1205], [-6.783, 54.1245], [-6.7882, 54.1308], [-6.7836, 54.1386], [-6.7896, 54.1403], [-6.7925, 54.1496], [-6.7895, 54.1545]]]}}, {"type": "Feature", "properties": {"osm_type": "relation", "osm_id": 726228918, "name": "CAVAN - BELTURBET LEA-6", "admin_level": "6", "kind": "subdivision_2", "parent_osm_id": 14419962, "parent_name": "Ulster", "parent_iso": "IE-U"}, "geometry": {"type": "Polygon", "coordinates": [[[-7.3473, 54.1174], [-7.3463, 54.1225], [-7.3634, 54.1314], [-7.3927, 54.1206], [-7.3918, 54.1276], [-7.3729, 54.1382], [-7.3755, 54.1419], [-7.3903, 54.1368], [-7.401, 54.141], [-7.4206, 54.137], [-7.4251, 54.1412], [-7.4123, 54.1484], [-7.4096, 54.1563], [-7.4424, 54.1539], [-7.4538, 54.1448], [-7.4686, 54.1408], [-7.467, 54.1345], [-7.4794, 54.1222], [-7.5196, 54.1297], [-7.5284, 54.1357], [-7.5376, 54.1272], [-7.5467, 54.1292], [-7.5478, 54.1222], [-7.5657, 54.1266], [-7.5751, 54.1337], [-7.5746, 54.1415], [-7.6104, 54.1438], [-7.6253, 54.1533], [-7.6285, 54.1692], [-7.6561, 54.1857], [-7.6644, 54.188], [-7.6766, 54.182], [-7.6795, 54.1925], [-7.6885, 54.1992], [-7.6854, 54.2078], [-7.6922, 54.2039], [-7.702, 54.2078], [-7.7104, 54.2032], [-7.7394, 54.2035], [-7.7485, 54.2095], [-7.7682, 54.2095], [-7.8037, 54.207], [-7.8115, 54.2009], [-7.8394, 54.2097], [-7.8618, 54.2187], [-7.8554, 54.2227], [-7.86, 54.2296], [-7.8605, 54.2602], [-7.8727, 54.2662], [-7.8732, 54.2795], [-7.8707, 54.2883], [-7.862, 54.2935], [-7.8806, 54.2919], [-7.8883, 54.3005], [-7.9017, 54.3014], [-7.9117, 54.2959], [-7.9188, 54.3031], [-7.9466, 54.3043], [-7.9725, 54.2844], [-7.9744, 54.2735], [-8.0038, 54.2493], [-8.0412, 54.254], [-8.0581, 54.2359], [-8.0326, 54.2128], [-8.0354, 54.2064], [-8.0507, 54.1976], [-8.0452, 54.1937], [-8.048, 54.1869], [-8.0423, 54.1831], [-8.0294, 54.1904], [-8.0238, 54.1864], [-8.0053, 54.1923], [-7.9886, 54.1799], [-7.953, 54.1789], [-7.9051, 54.1539], [-7.8884, 54.1418], [-7.8936, 54.1355], [-7.8816, 54.1318], [-7.8753, 54.1237], [-7.8519, 54.119], [-7.8587, 54.1131], [-7.8314, 54.0986], [-7.8136, 54.1003], [-7.8141, 54.1078], [-7.7967, 54.1168], [-7.7876, 54.108], [-7.7632, 54.1097], [-7.7563, 54.1062], [-7.7571, 54.1023], [-7.751, 54.1021], [-7.7505, 54.0951], [-7.7371, 54.0935], [-7.7366, 54.0829], [-7.7089, 54.0842], [-7.6986, 54.0723], [-7.6875, 54.0681], [-7.6849, 54.0602], [-7.6577, 54.0564], [-7.6549, 54.0428], [-7.6491, 54.0402], [-7.644, 54.0447], [-7.638, 54.0429], [-7.6352, 54.0394], [-7.6464, 54.0332], [-7.6404, 54.0225], [-7.6124, 54.0189], [-7.6112, 54.0267], [-7.5975, 54.0205], [-7.5945, 54.0291], [-7.5903, 54.0268], [-7.5899, 54.0179], [-7.5775, 54.008], [-7.5637, 54.0064], [-7.5525, 53.9869], [-7.5272, 53.9869], [-7.5233, 53.9821], [-7.5203, 53.9897], [-7.5144, 53.9869], [-7.5121, 53.9911], [-7.4984, 53.9918], [-7.4968, 53.999], [-7.4815, 53.9887], [-7.4661, 53.994], [-7.4513, 53.9891], [-7.4482, 53.9967], [-7.4421, 53.9914], [-7.4439, 53.9844], [-7.4381, 53.9767], [-7.4443, 53.9743], [-7.4335, 53.9669], [-7.4197, 53.9683], [-7.4103, 53.9587], [-7.4126, 53.9535], [-7.4002, 53.9438], [-7.3849, 53.943], [-7.376, 53.9353], [-7.3824, 53.945], [-7.3783, 53.9485], [-7.3819, 53.9556], [-7.3734, 53.9524], [-7.3663, 53.9559], [-7.3534, 53.9457], [-7.3539, 53.9406], [-7.3456, 53.9417], [-7.3301, 53.9343], [-7.3149, 53.9379], [-7.3138, 53.9436], [-7.3028, 53.9408], [-7.2846, 53.9483], [-7.2788, 53.954], [-7.2916, 53.958], [-7.2978, 53.9669], [-7.2903, 53.9713], [-7.289, 53.9791], [-7.2826, 53.9805], [-7.2852, 53.9852], [-7.2624, 53.9867], [-7.2762, 53.9923], [-7.2957, 53.9903], [-7.3036, 53.9971], [-7.3131, 53.9978], [-7.3282, 54.0142], [-7.3437, 54.0108], [-7.3399, 54.0138], [-7.3463, 54.0207], [-7.3592, 54.02], [-7.3517, 54.0251], [-7.3689, 54.0415], [-7.3622, 54.0517], [-7.3358, 54.057], [-7.3465, 54.0663], [-7.3555, 54.0669], [-7.3586, 54.0733], [-7.3546, 54.0798], [-7.3613, 54.0852], [-7.3564, 54.0894], [-7.366, 54.0968], [-7.3574, 54.108], [-7.3475, 54.1107], [-7.3473, 54.1174]]]}}, {"type": "Feature", "properties": {"osm_type": "relation", "osm_id": 956639804, "name": "MONAGHAN LEA-7", "admin_level": "6", "kind": "subdivision_2", "parent_osm_id": 14419962, "parent_name": "Ulster", "parent_iso": "IE-U"}, "geometry": {"type": "Polygon", "coordinates": [[[-6.7895, 54.1545], [-6.7811, 54.1621], [-6.7671, 54.161], [-6.7708, 54.1692], [-6.7397, 54.1721], [-6.7386, 54.1815], [-6.7559, 54.199], [-6.7756, 54.1989], [-6.801, 54.2131], [-6.8003, 54.2211], [-6.8162, 54.223], [-6.819, 54.2385], [-6.8291, 54.2475], [-6.8277, 54.2614], [-6.8394, 54.2677], [-6.8518, 54.265], [-6.8523, 54.2689], [-6.8656, 54.2697], [-6.8654, 54.2745], [-6.8774, 54.2783], [-6.8778, 54.2851], [-6.8725, 54.2879], [-6.868, 54.2821], [-6.8589, 54.2819], [-6.8605, 54.2891], [-6.8515, 54.2915], [-6.8508, 54.2973], [-6.859, 54.3038], [-6.8563, 54.3135], [-6.8633, 54.3153], [-6.8639, 54.3301], [-6.8755, 54.3385], [-6.8759, 54.3465], [-6.9063, 54.3504], [-6.903, 54.3609], [-6.9106, 54.3653], [-6.9067, 54.3695], [-6.9112, 54.3747], [-6.9224, 54.3787], [-6.9307, 54.3757], [-6.9332, 54.3799], [-6.9237, 54.3829], [-6.9378, 54.3831], [-6.9456, 54.3872], [-6.944, 54.3911], [-6.9596, 54.3922], [-6.9591, 54.3978], [-6.9783, 54.4017], [-6.9788, 54.4086], [-6.996, 54.4054], [-7.0021, 54.4084], [-7.0007, 54.4132], [-7.0134, 54.417], [-7.0166, 54.414], [-7.0289, 54.4214], [-7.0573, 54.4111], [-7.0724, 54.3884], [-7.1097, 54.3683], [-7.1017, 54.3608], [-7.1036, 54.3559], [-7.1527, 54.3354], [-7.1885, 54.3377], [-7.1804, 54.3321], [-7.1792, 54.3097], [-7.1977, 54.311], [-7.2121, 54.2997], [-7.207, 54.2944], [-7.172, 54.2854], [-7.1801, 54.2758], [-7.1769, 54.2706], [-7.1554, 54.2772], [-7.1384, 54.2769], [-7.1427, 54.2869], [-7.1371, 54.2899], [-7.1077, 54.285], [-7.117, 54.2775], [-7.1016, 54.2672], [-7.1167, 54.2633], [-7.1119, 54.2577], [-7.1024, 54.2575], [-7.1151, 54.2432], [-7.103, 54.2343], [-7.0689, 54.2327], [-7.064, 54.2353], [-7.0694, 54.2382], [-7.0672, 54.2421], [-7.0509, 54.2373], [-7.0527, 54.2308], [-7.0472, 54.2298], [-7.0477, 54.2246], [-7.0223, 54.2257], [-7.0251, 54.2307], [-7.0067, 54.2301], [-7.0089, 54.2232], [-6.9993, 54.2213], [-6.9916, 54.2059], [-6.9785, 54.2042], [-6.9628, 54.1874], [-6.9551, 54.1912], [-6.9551, 54.1799], [-6.941, 54.1832], [-6.9124, 54.1804], [-6.9218, 54.1965], [-6.8996, 54.2077], [-6.8843, 54.206], [-6.8858, 54.2], [-6.8753, 54.1989], [-6.8781, 54.1772], [-6.8472, 54.1698], [-6.8394, 54.1623], [-6.8325, 54.1661], [-6.8139, 54.1615], [-6.7999, 54.1665], [-6.7895, 54.1545]]]}}, {"type": "Feature", "properties": {"osm_type": "relation", "osm_id": 250930362, "name": "LIFFORD-STRANORLAR LEA-6", "admin_level": "6", "kind": "subdivision_2", "parent_osm_id": 14419962, "parent_name": "Ulster", "parent_iso": "IE-U"}, "geometry": {"type": "Polygon", "coordinates": [[[-7.5694, 54.9541], [-7.572, 54.9454], [-7.5838, 54.9379], [-7.5728, 54.921], [-7.573, 54.9065], [-7.5649, 54.9055], [-7.5624, 54.8979], [-7.5988, 54.8999], [-7.6535, 54.8846], [-7.6629, 54.8856], [-7.6655, 54.8936], [-7.679, 54.8967], [-7.7107, 54.8911], [-7.71, 54.8978], [-7.7233, 54.8909], [-7.7534, 54.8998], [-7.7714, 54.8923], [-7.8079, 54.8916], [-7.8287, 54.8841], [-7.8365, 54.8878], [-7.8333, 54.895], [-7.8799, 54.9011], [-7.8797, 54.9059], [-7.8897, 54.9139], [-7.8896, 54.9234], [-7.8944, 54.9225], [-7.8983, 54.9303], [-7.8933, 54.9357], [-7.9079, 54.9293], [-7.9515, 54.9297], [-7.9783, 54.9191], [-7.9782, 54.9131], [-7.9892, 54.9032], [-8.0348, 54.9], [-8.0379, 54.8957], [-8.0176, 54.8859], [-8.0236, 54.8816], [-8.0239, 54.8735], [-8.0078, 54.8629], [-8.0243, 54.8593], [-8.0484, 54.8633], [-8.0579, 54.8474], [-8.0869, 54.8299], [-8.0717, 54.8172], [-8.0488, 54.8119], [-8.0496, 54.8006], [-8.0597, 54.7902], [-8.052, 54.7761], [-8.0396, 54.7675], [-8.0324, 54.7679], [-8.0275, 54.7601], [-7.9989, 54.7763], [-7.9819, 54.7721], [-7.9902, 54.7655], [-7.979, 54.7624], [-7.9589, 54.7384], [-7.9398, 54.7324], [-7.9461, 54.7241], [-7.9311, 54.704], [-7.8794, 54.7029], [-7.855, 54.7269], [-7.8367, 54.7364], [-7.8177, 54.7338], [-7.8081, 54.72], [-7.7887, 54.7196], [-7.7788, 54.7159], [-7.778, 54.7104], [-7.7499, 54.7043], [-7.7354, 54.7169], [-7.7116, 54.7261], [-7.697, 54.7238], [-7.6367, 54.7515], [-7.6176, 54.7434], [-7.5886, 54.7437], [-7.5867, 54.7499], [-7.5781, 54.7504], [-7.5782, 54.7418], [-7.5578, 54.7453], [-7.5492, 54.7405], [-7.5342, 54.7471], [-7.5476, 54.7554], [-7.5482, 54.7724], [-7.5431, 54.7797], [-7.5492, 54.7894], [-7.5389, 54.8009], [-7.5277, 54.8029], [-7.5283, 54.8077], [-7.5175, 54.8082], [-7.484, 54.8238], [-7.4441, 54.8695], [-7.442, 54.8794], [-7.4525, 54.8986], [-7.4451, 54.911], [-7.4484, 54.9304], [-7.4452, 54.9368], [-7.484, 54.9467], [-7.5065, 54.9419], [-7.518, 54.9456], [-7.5251, 54.9496], [-7.5088, 54.9647], [-7.5158, 54.9719], [-7.5366, 54.9711], [-7.5539, 54.9564], [-7.5694, 54.9541]]]}}, {"type": "Feature", "properties": {"osm_type": "relation", "osm_id": 137882038, "name": "BAILIEBOROUGH - COOTEHILL LEA-6", "admin_level": "6", "kind": "subdivision_2", "parent_osm_id": 14419962, "parent_name": "Ulster", "parent_iso": "IE-U"}, "geometry": {"type": "Polygon", "coordinates": [[[-7.3198, 54.1135], [-7.3271, 54.1246], [-7.336, 54.1167], [-7.3473, 54.1174], [-7.3475, 54.1107], [-7.3574, 54.108], [-7.366, 54.0968], [-7.3564, 54.0894], [-7.3613, 54.0852], [-7.3546, 54.0798], [-7.3586, 54.0733], [-7.3555, 54.0669], [-7.3465, 54.0663], [-7.3358, 54.057], [-7.3622, 54.0517], [-7.3689, 54.0415], [-7.3517, 54.0251], [-7.3592, 54.02], [-7.3463, 54.0207], [-7.3399, 54.0138], [-7.3437, 54.0108], [-7.3282, 54.0142], [-7.3131, 53.9978], [-7.3036, 53.9971], [-7.2957, 53.9903], [-7.263, 53.99], [-7.2697, 53.9839], [-7.2852, 53.9852], [-7.2826, 53.9805], [-7.289, 53.9791], [-7.2903, 53.9713], [-7.2978, 53.9669], [-7.2916, 53.958], [-7.2686, 53.9455], [-7.2524, 53.9593], [-7.2437, 53.9511], [-7.2443, 53.9418], [-7.2365, 53.9287], [-7.2263, 53.9259], [-7.2172, 53.9329], [-7.201, 53.9089], [-7.2085, 53.91], [-7.2028, 53.9021], [-7.2071, 53.8977], [-7.1796, 53.8912], [-7.1726, 53.8837], [-7.1474, 53.8873], [-7.124, 53.8747], [-7.1175, 53.8862], [-7.1039, 53.8742], [-7.0938, 53.8792], [-7.0835, 53.8719], [-7.0817, 53.8687], [-7.0868, 53.867], [-7.0841, 53.8626], [-7.0657, 53.8498], [-7.0598, 53.8529], [-7.0613, 53.8581], [-7.0754, 53.8693], [-7.071, 53.8702], [-7.0724, 53.8758], [-7.0629, 53.8746], [-7.0643, 53.8786], [-7.0545, 53.883], [-7.0405, 53.8729], [-7.0139, 53.8704], [-6.9994, 53.8574], [-6.9799, 53.8679], [-6.9672, 53.8607], [-6.9732, 53.8721], [-6.9566, 53.8637], [-6.9242, 53.8753], [-6.9326, 53.881], [-6.9357, 53.8915], [-6.9094, 53.8887], [-6.8967, 53.881], [-6.8842, 53.8801], [-6.8813, 53.8752], [-6.8621, 53.8757], [-6.8451, 53.8787], [-6.8401, 53.8824], [-6.8463, 53.8886], [-6.8236, 53.8974], [-6.8092, 53.8961], [-6.8153, 53.8911], [-6.7937, 53.8867], [-6.7853, 53.8899], [-6.7839, 53.8983], [-6.7898, 53.9002], [-6.7793, 53.9163], [-6.7692, 53.9107], [-6.7626, 53.9138], [-6.762, 53.9175], [-6.7773, 53.9279], [-6.8303, 53.9321], [-6.8332, 53.9347], [-6.8292, 53.9365], [-6.8361, 53.942], [-6.8331, 53.9453], [-6.8392, 53.9473], [-6.8443, 53.9597], [-6.8543, 53.9635], [-6.867, 53.9835], [-6.8641, 53.9879], [-6.8801, 53.9926], [-6.8756, 53.9978], [-6.8907, 54.0032], [-6.8898, 54.012], [-6.9013, 54.0087], [-6.9148, 54.0162], [-6.9251, 54.0119], [-6.9349, 54.019], [-6.9398, 54.0335], [-6.9561, 54.0433], [-6.9663, 54.0402], [-6.9675, 54.0458], [-6.9824, 54.0519], [-6.9865, 54.062], [-7.0023, 54.0648], [-7.0122, 54.0777], [-7.0255, 54.0793], [-7.0293, 54.0879], [-7.0142, 54.0927], [-7.0177, 54.0986], [-7.0488, 54.1006], [-7.0534, 54.0938], [-7.0781, 54.0889], [-7.0869, 54.0818], [-7.0928, 54.0827], [-7.0914, 54.0874], [-7.1012, 54.0939], [-7.1182, 54.0956], [-7.15, 54.0821], [-7.1638, 54.0838], [-7.163, 54.0875], [-7.1686, 54.0892], [-7.1807, 54.0865], [-7.1932, 54.0958], [-7.2023, 54.0924], [-7.2234, 54.1024], [-7.233, 54.0966], [-7.247, 54.1022], [-7.2381, 54.0947], [-7.2631, 54.0932], [-7.2934, 54.1078], [-7.3149, 54.1056], [-7.3211, 54.1087], [-7.3198, 54.1135]]]}}, {"type": "Feature", "properties": {"osm_type": "relation", "osm_id": 452106866, "name": "BALLYJAMESDUFF LEA-6", "admin_level": "6", "kind": "subdivision_2", "parent_osm_id": 14419962, "parent_name": "Ulster", "parent_iso": "IE-U"}, "geometry": {"type": "Polygon", "coordinates": [[[-7.3437, 53.7991], [-7.308, 53.8128], [-7.284, 53.7971], [-7.274, 53.7796], [-7.2539, 53.7739], [-7.2407, 53.7781], [-7.229, 53.7716], [-7.2142, 53.7709], [-7.2196, 53.7742], [-7.2104, 53.7806], [-7.2127, 53.7856], [-7.1939, 53.7947], [-7.1849, 53.7888], [-7.1749, 53.791], [-7.1762, 53.7952], [-7.1567, 53.7941], [-7.154, 53.8063], [-7.1278, 53.7905], [-7.1107, 53.7915], [-7.1055, 53.7863], [-7.105, 53.7766], [-7.0502, 53.7717], [-7.0382, 53.7768], [-7.0022, 53.7656], [-6.9954, 53.7811], [-6.9815, 53.7727], [-6.9712, 53.7777], [-6.9729, 53.7851], [-6.9632, 53.7911], [-6.9514, 53.7816], [-6.9317, 53.7835], [-6.9297, 53.7858], [-6.9419, 53.7893], [-6.9401, 53.7985], [-6.9311, 53.8038], [-6.9213, 53.8011], [-6.9128, 53.8089], [-6.9174, 53.817], [-6.9532, 53.8358], [-6.9551, 53.8452], [-6.963, 53.8437], [-6.9724, 53.857], [-6.9672, 53.8607], [-6.9799, 53.8679], [-6.9994, 53.8574], [-7.0139, 53.8704], [-7.0405, 53.8729], [-7.0545, 53.883], [-7.0643, 53.8786], [-7.0629, 53.8746], [-7.0724, 53.8758], [-7.071, 53.8702], [-7.0754, 53.8693], [-7.0613, 53.8581], [-7.0598, 53.8529], [-7.0657, 53.8498], [-7.0841, 53.8626], [-7.0868, 53.867], [-7.0817, 53.8687], [-7.0835, 53.8719], [-7.0938, 53.8792], [-7.1039, 53.8742], [-7.1175, 53.8862], [-7.124, 53.8747], [-7.1474, 53.8873], [-7.1726, 53.8837], [-7.1796, 53.8912], [-7.2047, 53.8959], [-7.2028, 53.9021], [-7.2085, 53.91], [-7.201, 53.9089], [-7.2172, 53.9329], [-7.2263, 53.9259], [-7.2365, 53.9287], [-7.2443, 53.9418], [-7.2437, 53.9511], [-7.2524, 53.9593], [-7.2686, 53.9455], [-7.2788, 53.954], [-7.3028, 53.9408], [-7.3138, 53.9436], [-7.3149, 53.9379], [-7.3301, 53.9343], [-7.3456, 53.9417], [-7.3539, 53.9406], [-7.3534, 53.9457], [-7.3663, 53.9559], [-7.3734, 53.9524], [-7.3819, 53.9556], [-7.3783, 53.9485], [-7.3824, 53.945], [-7.376, 53.9353], [-7.3849, 53.943], [-7.4002, 53.9438], [-7.4126, 53.9535], [-7.4103, 53.9587], [-7.4197, 53.9683], [-7.4335, 53.9669], [-7.4443, 53.9743], [-7.4381, 53.9767], [-7.4439, 53.9844], [-7.4421, 53.9914], [-7.4482, 53.9967], [-7.4513, 53.9891], [-7.4661, 53.994], [-7.4815, 53.9887], [-7.4968, 53.999], [-7.4984, 53.9918], [-7.5121, 53.9911], [-7.5144, 53.9869], [-7.5203, 53.9897], [-7.5233, 53.9821], [-7.5272, 53.9869], [-7.5525, 53.9869], [-7.5637, 54.0064], [-7.5775, 54.008], [-7.5899, 54.0179], [-7.5903, 54.0268], [-7.5945, 54.0291], [-7.5975, 54.0205], [-7.593, 54.0165], [-7.6018, 54.0122], [-7.5931, 54.0029], [-7.5934, 53.9971], [-7.6004, 53.9877], [-7.5851, 53.9809], [-7.5855, 53.9726], [-7.5937, 53.9687], [-7.5864, 53.9591], [-7.6134, 53.9404], [-7.5833, 53.9146], [-7.5855, 53.9087], [-7.5802, 53.9031], [-7.5766, 53.9017], [-7.5749, 53.9075], [-7.5611, 53.9057], [-7.5499, 53.8929], [-7.5568, 53.888], [-7.556, 53.8786], [-7.5721, 53.8801], [-7.5764, 53.865], [-7.5851, 53.8569], [-7.5835, 53.8511], [-7.5432, 53.8535], [-7.528, 53.8637], [-7.515, 53.8572], [-7.4945, 53.8603], [-7.4875, 53.8523], [-7.4768, 53.8536], [-7.4735, 53.848], [-7.4764, 53.843], [-7.4658, 53.8234], [-7.4754, 53.8121], [-7.4622, 53.8013], [-7.4116, 53.79], [-7.41, 53.779], [-7.3783, 53.7844], [-7.3437, 53.7991]]]}}, {"type": "Feature", "properties": {"osm_type": "relation", "osm_id": 534192069, "name": "CARRICKMACROSS-CASTLEBLAYNEY LEA-6", "admin_level": "6", "kind": "subdivision_2", "parent_osm_id": 14419962, "parent_name": "Ulster", "parent_iso": "IE-U"}, "geometry": {"type": "Polygon", "coordinates": [[[-6.86, 53.9769], [-6.8543, 53.9635], [-6.8443, 53.9597], [-6.8392, 53.9473], [-6.8331, 53.9453], [-6.8361, 53.942], [-6.8292, 53.9365], [-6.8332, 53.9347], [-6.8303, 53.9321], [-6.7773, 53.9279], [-6.7447, 53.9124], [-6.7306, 53.9177], [-6.7147, 53.9035], [-6.6999, 53.9007], [-6.6864, 53.912], [-6.674, 53.9088], [-6.6475, 53.916], [-6.6448, 53.9238], [-6.6286, 53.9283], [-6.6603, 53.9416], [-6.648, 53.9459], [-6.6623, 53.9574], [-6.6472, 53.9529], [-6.648, 53.9571], [-6.6613, 53.9625], [-6.656, 53.9661], [-6.6376, 53.9646], [-6.6355, 53.9686], [-6.643, 53.9715], [-6.6399, 53.9754], [-6.6265, 53.9755], [-6.6276, 53.9821], [-6.6186, 53.984], [-6.5908, 53.9705], [-6.5657, 53.9709], [-6.5623, 53.9787], [-6.5679, 53.9818], [-6.5528, 53.9866], [-6.5546, 53.9944], [-6.563, 53.999], [-6.5497, 54.0059], [-6.5582, 54.0097], [-6.5583, 54.0154], [-6.5693, 54.0173], [-6.5636, 54.0203], [-6.5716, 54.0225], [-6.5712, 54.0268], [-6.5792, 54.0302], [-6.5735, 54.0341], [-6.5838, 54.0396], [-6.5983, 54.0458], [-6.6046, 54.045], [-6.6066, 54.0397], [-6.6162, 54.0426], [-6.6238, 54.0365], [-6.6407, 54.0482], [-6.6499, 54.0615], [-6.6651, 54.0663], [-6.6685, 54.0738], [-6.6582, 54.0761], [-6.6556, 54.0871], [-6.662, 54.0926], [-6.6451, 54.096], [-6.6612, 54.1227], [-6.6486, 54.1216], [-6.6498, 54.1294], [-6.6398, 54.1316], [-6.6407, 54.142], [-6.6316, 54.1471], [-6.6297, 54.1534], [-6.6357, 54.1709], [-6.6651, 54.1932], [-6.7059, 54.2001], [-6.7209, 54.1872], [-6.7209, 54.182], [-6.7351, 54.1858], [-6.7397, 54.1721], [-6.7708, 54.1692], [-6.7671, 54.161], [-6.7811, 54.1621], [-6.7895, 54.1545], [-6.7925, 54.1496], [-6.7896, 54.1403], [-6.7836, 54.1386], [-6.7882, 54.1308], [-6.783, 54.1245], [-6.7901, 54.1205], [-6.7697, 54.1159], [-6.7612, 54.109], [-6.7751, 54.1105], [-6.7691, 54.0976], [-6.78, 54.0949], [-6.7595, 54.0783], [-6.7675, 54.0717], [-6.7585, 54.065], [-6.773, 54.0568], [-6.7701, 54.0489], [-6.7866, 54.0458], [-6.7897, 54.0398], [-6.8125, 54.0434], [-6.816, 54.0358], [-6.8287, 54.0405], [-6.8353, 54.0323], [-6.8247, 54.0268], [-6.8248, 54.0165], [-6.8447, 54.0148], [-6.8425, 54.002], [-6.8353, 53.9951], [-6.8415, 53.9861], [-6.8348, 53.985], [-6.8355, 53.9812], [-6.8477, 53.9811], [-6.851, 53.9754], [-6.86, 53.9769]]]}}, {"type": "Feature", "properties": {"osm_type": "relation", "osm_id": 268070727, "name": "GLENTIES LEA-6", "admin_level": "6", "kind": "subdivision_2", "parent_osm_id": 14419962, "parent_name": "Ulster", "parent_iso": "IE-U"}, "geometry": {"type": "MultiPolygon", "coordinates": [[[[-7.8543, 55.1294], [-7.8696, 55.1259], [-7.8608, 55.1312], [-7.8695, 55.1309], [-7.8633, 55.1353], [-7.8746, 55.1448], [-7.8768, 55.1385], [-7.8893, 55.1401], [-7.9076, 55.1335], [-7.8937, 55.1464], [-7.8655, 55.15], [-7.8643, 55.1567], [-7.8533, 55.1647], [-7.8613, 55.1665], [-7.8586, 55.169], [-7.8746, 55.1679], [-7.8868, 55.1605], [-7.9151, 55.155], [-7.8777, 55.1732], [-7.8987, 55.1737], [-7.9023, 55.1778], [-7.8957, 55.1872], [-7.9054, 55.1913], [-7.9139, 55.1914], [-7.9187, 55.1868], [-7.9153, 55.1863], [-7.9276, 55.1842], [-7.9307, 55.1784], [-7.9575, 55.1888], [-7.9652, 55.184], [-7.9928, 55.1831], [-7.9844, 55.1704], [-8.0078, 55.1712], [-7.9958, 55.1832], [-7.9745, 55.1915], [-7.9595, 55.1909], [-7.9448, 55.1965], [-7.9397, 55.2039], [-7.9431, 55.2145], [-7.9677, 55.2128], [-7.9824, 55.2268], [-8.0013, 55.2147], [-8.0168, 55.214], [-8.0245, 55.199], [-8.0131, 55.1963], [-8.0242, 55.1906], [-8.0157, 55.1841], [-8.0244, 55.1736], [-8.0516, 55.1738], [-8.0815, 55.1594], [-8.1222, 55.1582], [-8.1245, 55.154], [-8.1167, 55.1521], [-8.123, 55.1495], [-8.121, 55.1361], [-8.1362, 55.1425], [-8.1323, 55.1237], [-8.1389, 55.1195], [-8.1362, 55.1276], [-8.1452, 55.1316], [-8.1533, 55.1243], [-8.1647, 55.127], [-8.1571, 55.134], [-8.1616, 55.1372], [-8.1558, 55.1384], [-8.1713, 55.1445], [-8.1608, 55.1425], [-8.1299, 55.1556], [-8.1345, 55.1633], [-8.1486, 55.1637], [-8.1538, 55.1506], [-8.1657, 55.145], [-8.1968, 55.1493], [-8.2124, 55.1469], [-8.2197, 55.1527], [-8.2342, 55.1497], [-8.2845, 55.1587], [-8.297, 55.1507], [-8.2878, 55.1465], [-8.2996, 55.1393], [-8.2941, 55.1308], [-8.296, 55.1259], [-8.3036, 55.1254], [-8.3015, 55.1181], [-8.31, 55.1201], [-8.3168, 55.1126], [-8.3131, 55.1104], [-8.3173, 55.1057], [-8.3146, 55.0935], [-8.2927, 55.0858], [-8.2937, 55.0822], [-8.2992, 55.0866], [-8.3037, 55.0868], [-8.3038, 55.0821], [-8.3091, 55.084], [-8.3062, 55.0892], [-8.326, 55.0897], [-8.3261, 55.0841], [-8.3146, 55.0764], [-8.3178, 55.069], [-8.3406, 55.0649], [-8.3429, 55.0609], [-8.3491, 55.0637], [-8.3427, 55.0484], [-8.35, 55.0392], [-8.3679, 55.0414], [-8.3795, 55.0328], [-8.3919, 55.0431], [-8.4004, 55.0412], [-8.4005, 55.0359], [-8.4074, 55.0345], [-8.3933, 55.0254], [-8.4088, 55.0148], [-8.4016, 55.0129], [-8.4049, 55.0091], [-8.3993, 55.0021], [-8.4199, 55.0047], [-8.424, 55.0065], [-8.4159, 55.0099], [-8.4241, 55.0113], [-8.4253, 55.0071], [-8.4505, 55.0064], [-8.4516, 55.0017], [-8.4468, 54.9999], [-8.4539, 54.9987], [-8.434, 54.9886], [-8.4432, 54.9865], [-8.4432, 54.9824], [-8.418, 54.9691], [-8.4136, 54.9591], [-8.4071, 54.9614], [-8.3635, 54.9479], [-8.3795, 54.9426], [-8.378, 54.9399], [-8.3878, 54.9442], [-8.4088, 54.9361], [-8.4205, 54.9386], [-8.4196, 54.9349], [-8.4459, 54.9346], [-8.4485, 54.9372], [-8.4337, 54.941], [-8.4357, 54.9466], [-8.4588, 54.942], [-8.4574, 54.9362], [-8.4442, 54.931], [-8.4494, 54.9239], [-8.4581, 54.9237], [-8.4543, 54.9106], [-8.4097, 54.8981], [-8.3853, 54.8832], [-8.3743, 54.8882], [-8.3829, 54.9025], [-8.3795, 54.906], [-8.3683, 54.9046], [-8.3699, 54.9003], [-8.363, 54.8988], [-8.3446, 54.9078], [-8.3394, 54.9033], [-8.3423, 54.8984], [-8.3384, 54.8939], [-8.3427, 54.8927], [-8.3384, 54.89], [-8.3045, 54.8882], [-8.3251, 54.8798], [-8.3203, 54.8785], [-8.3203, 54.8729], [-8.3515, 54.8831], [-8.3701, 54.8761], [-8.39, 54.8787], [-8.3837, 54.875], [-8.3854, 54.8571], [-8.3802, 54.8514], [-8.3999, 54.8525], [-8.411, 54.8461], [-8.4214, 54.8467], [-8.424, 54.849], [-8.4193, 54.8513], [-8.4248, 54.8515], [-8.4314, 54.8445], [-8.4486, 54.8385], [-8.4934, 54.8479], [-8.5086, 54.8402], [-8.505, 54.8376], [-8.5149, 54.8368], [-8.5036, 54.8315], [-8.5107, 54.8281], [-8.5345, 54.8347], [-8.5532, 54.8338], [-8.5652, 54.8281], [-8.5412, 54.8224], [-8.5245, 54.8241], [-8.5313, 54.8167], [-8.5255, 54.8141], [-8.5301, 54.8126], [-8.5141, 54.8141], [-8.4976, 54.8086], [-8.4989, 54.7993], [-8.4622, 54.8012], [-8.4473, 54.7931], [-8.4595, 54.7914], [-8.441, 54.7877], [-8.4485, 54.7852], [-8.4386, 54.7827], [-8.4402, 54.7767], [-8.4113, 54.7745], [-8.4246, 54.7693], [-8.4202, 54.7633], [-8.4296, 54.7623], [-8.4566, 54.7715], [-8.4602, 54.7808], [-8.4712, 54.7816], [-8.4745, 54.7911], [-8.517, 54.7844], [-8.5304, 54.79], [-8.547, 54.7894], [-8.5528, 54.7867], [-8.5473, 54.7826], [-8.5159, 54.7721], [-8.5042, 54.775], [-8.484, 54.7718], [-8.4662, 54.7671], [-8.4742, 54.7641], [-8.4674, 54.7638], [-8.4682, 54.7597], [-8.4342, 54.7551], [-8.471, 54.7558], [-8.4978, 54.7624], [-8.5142, 54.7589], [-8.5219, 54.7611], [-8.5106, 54.7641], [-8.5148, 54.7703], [-8.5368, 54.7647], [-8.5591, 54.7733], [-8.5941, 54.7785], [-8.5983, 54.7777], [-8.5993, 54.7641], [-8.6059, 54.7588], [-8.5954, 54.751], [-8.621, 54.7374], [-8.6062, 54.7258], [-8.6026, 54.7086], [-8.5266, 54.7188], [-8.4917, 54.7137], [-8.4855, 54.7172], [-8.4675, 54.7147], [-8.4376, 54.7013], [-8.4174, 54.6998], [-8.4033, 54.6888], [-8.3935, 54.6943], [-8.3848, 54.7141], [-8.3672, 54.712], [-8.3624, 54.7203], [-8.3438, 54.7152], [-8.3207, 54.7287], [-8.2901, 54.735], [-8.2609, 54.7499], [-8.2229, 54.7497], [-8.2065, 54.7595], [-8.197, 54.7595], [-8.1987, 54.7695], [-8.1612, 54.756], [-8.1307, 54.7676], [-8.1058, 54.7649], [-8.0994, 54.759], [-8.0826, 54.7653], [-8.0695, 54.7769], [-8.0711, 54.7885], [-8.0597, 54.7902], [-8.0496, 54.8006], [-8.0488, 54.8119], [-8.0717, 54.8172], [-8.0869, 54.8299], [-8.0579, 54.8474], [-8.0484, 54.8633], [-8.0243, 54.8593], [-8.0078, 54.8629], [-8.0239, 54.8735], [-8.0236, 54.8816], [-8.0176, 54.8859], [-8.0379, 54.8957], [-8.0302, 54.9052], [-8.0349, 54.9099], [-8.0626, 54.9183], [-8.0823, 54.9333], [-8.1052, 54.9319], [-8.1122, 54.9373], [-8.1029, 54.9414], [-8.1049, 54.9572], [-8.0147, 55.0173], [-7.9982, 55.025], [-7.9938, 55.0208], [-7.9715, 55.0388], [-7.9364, 55.0538], [-7.9317, 55.0615], [-7.9046, 55.0791], [-7.8693, 55.0921], [-7.8349, 55.1117], [-7.847, 55.1171], [-7.8543, 55.1294]]], [[[-8.5329, 54.9736], [-8.5221, 54.9685], [-8.5181, 54.9736], [-8.4878, 54.9733], [-8.4891, 54.9857], [-8.4976, 54.9878], [-8.5, 54.9954], [-8.4948, 55.0021], [-8.531, 55.0121], [-8.5297, 55.0168], [-8.542, 55.0228], [-8.5384, 55.0195], [-8.5455, 55.0122], [-8.5624, 55.0145], [-8.5459, 55.0059], [-8.5501, 55.003], [-8.5466, 55.0016], [-8.5628, 54.995], [-8.5585, 54.9837], [-8.5655, 54.9832], [-8.568, 54.9769], [-8.5329, 54.9736]]], [[[-8.2294, 55.2628], [-8.2259, 55.2649], [-8.2142, 55.2543], [-8.2024, 55.2533], [-8.1938, 55.2547], [-8.1905, 55.2641], [-8.1954, 55.2573], [-8.2074, 55.2596], [-8.2231, 55.2706], [-8.2291, 55.2677], [-8.2379, 55.2704], [-8.235, 55.2744], [-8.2479, 55.275], [-8.2517, 55.2678], [-8.2477, 55.2639], [-8.2294, 55.2628]]], [[[-8.4241, 55.0381], [-8.4223, 55.0334], [-8.4298, 55.0278], [-8.4364, 55.0307], [-8.4384, 55.0275], [-8.422, 55.0264], [-8.423, 55.0197], [-8.412, 55.013], [-8.4089, 55.0277], [-8.4155, 55.0305], [-8.4164, 55.039], [-8.4268, 55.0526], [-8.4318, 55.0526], [-8.4318, 55.0464], [-8.4241, 55.0381]]], [[[-8.3576, 55.0933], [-8.3772, 55.0944], [-8.3801, 55.091], [-8.37, 55.0891], [-8.3787, 55.0849], [-8.3603, 55.0811], [-8.3491, 55.0842], [-8.3568, 55.086], [-8.3576, 55.0933]]], [[[-8.4541, 54.9509], [-8.4452, 54.9488], [-8.4341, 54.9556], [-8.4424, 54.9622], [-8.457, 54.9563], [-8.4541, 54.9509]]], [[[-8.4448, 55.051], [-8.4394, 55.0526], [-8.4462, 55.0609], [-8.4616, 55.0578], [-8.4559, 55.0485], [-8.4448, 55.051]]], [[[-8.4636, 54.9821], [-8.4673, 54.9741], [-8.4465, 54.9705], [-8.4504, 54.9775], [-8.4636, 54.9821]]], [[[-8.1628, 55.1739], [-8.1671, 55.1794], [-8.1781, 55.1796], [-8.1779, 55.1838], [-8.1852, 55.1822], [-8.1817, 55.1798], [-8.186, 55.1776], [-8.176, 55.1758], [-8.1777, 55.17], [-8.1647, 55.1696], [-8.1628, 55.1739]]], [[[-8.3313, 55.1036], [-8.3335, 55.1083], [-8.3439, 55.1045], [-8.3362, 55.1002], [-8.3313, 55.1036]]], [[[-8.461, 54.9912], [-8.4657, 54.9909], [-8.4621, 54.9844], [-8.4531, 54.9848], [-8.461, 54.9912]]], [[[-8.3385, 55.1224], [-8.3492, 55.123], [-8.3292, 55.114], [-8.3385, 55.1224]]], [[[-8.1617, 55.1891], [-8.1611, 55.1957], [-8.168, 55.1956], [-8.1617, 55.1891]]], [[[-8.4516, 54.8465], [-8.4491, 54.8482], [-8.4548, 54.8502], [-8.4634, 54.8487], [-8.4516, 54.8465]]], [[[-8.4288, 54.9457], [-8.4207, 54.948], [-8.4286, 54.952], [-8.4288, 54.9457]]], [[[-8.3397, 55.0751], [-8.3324, 55.0723], [-8.3337, 55.0766], [-8.3397, 55.0751]]], [[[-8.4717, 54.9916], [-8.4792, 54.9939], [-8.4717, 54.9916]]], [[[-8.4947, 54.9587], [-8.4991, 54.9563], [-8.4909, 54.9546], [-8.4947, 54.9587]]], [[[-8.3826, 55.0656], [-8.3854, 55.0632], [-8.3773, 55.0609], [-8.3826, 55.0656]]], [[[-8.4541, 55.0097], [-8.4521, 55.0065], [-8.4458, 55.0097], [-8.4541, 55.0097]]], [[[-8.4579, 55.0007], [-8.4612, 54.9984], [-8.4528, 54.9995], [-8.4579, 55.0007]]], [[[-8.4481, 54.9902], [-8.4418, 54.9888], [-8.4481, 54.9902]]], [[[-8.163, 55.2053], [-8.1632, 55.2019], [-8.1594, 55.2048], [-8.163, 55.2053]]], [[[-7.8763, 55.1739], [-7.8726, 55.1761], [-7.8763, 55.1739]]], [[[-8.3693, 55.1028], [-8.3624, 55.1009], [-8.3693, 55.1028]]], [[[-8.5364, 54.8709], [-8.5314, 54.8697], [-8.5364, 54.8709]]], [[[-8.3997, 54.9468], [-8.3941, 54.9451], [-8.3997, 54.9468]]], [[[-8.4527, 54.9937], [-8.4586, 54.9965], [-8.4527, 54.9937]]], [[[-8.5728, 54.9825], [-8.5744, 54.9788], [-8.5728, 54.9825]]], [[[-8.4324, 54.9692], [-8.4362, 54.9732], [-8.4376, 54.9701], [-8.4324, 54.9692]]], [[[-8.4127, 55.0448], [-8.4093, 55.0436], [-8.4127, 55.0448]]], [[[-8.1329, 55.1453], [-8.1303, 55.1424], [-8.1329, 55.1453]]], [[[-8.5617, 54.814], [-8.5575, 54.8122], [-8.5617, 54.814]]], [[[-8.4567, 54.9824], [-8.4532, 54.9811], [-8.4567, 54.9824]]], [[[-8.4721, 54.9957], [-8.4736, 54.9968], [-8.4748, 54.9958], [-8.4703, 54.9942], [-8.4721, 54.9957]]], [[[-8.5595, 54.8319], [-8.558, 54.8304], [-8.5569, 54.8326], [-8.5595, 54.8319]]], [[[-8.3646, 55.0781], [-8.3618, 55.0781], [-8.3624, 55.0796], [-8.3647, 55.0797], [-8.3646, 55.0781]]], [[[-8.4246, 54.9671], [-8.4222, 54.9645], [-8.4246, 54.9671]]], [[[-8.4336, 54.9529], [-8.4308, 54.9531], [-8.4334, 54.9553], [-8.4336, 54.9529]]], [[[-8.4518, 54.9611], [-8.4553, 54.9591], [-8.4518, 54.9611]]], [[[-7.8845, 55.1424], [-7.8869, 55.1419], [-7.8859, 55.1403], [-7.8845, 55.1424]]], [[[-8.4477, 54.7831], [-8.4496, 54.7843], [-8.4491, 54.7823], [-8.4477, 54.7831]]], [[[-8.4816, 54.9417], [-8.4794, 54.9411], [-8.4828, 54.943], [-8.4816, 54.9417]]], [[[-8.425, 55.024], [-8.4251, 55.0229], [-8.4228, 55.0254], [-8.425, 55.024]]], [[[-8.3419, 55.0738], [-8.3444, 55.0741], [-8.3427, 55.0727], [-8.3419, 55.0738]]], [[[-8.4418, 54.9784], [-8.4431, 54.979], [-8.4417, 54.977], [-8.4418, 54.9784]]], [[[-8.3699, 55.0787], [-8.3685, 55.0799], [-8.3704, 55.0802], [-8.3699, 55.0787]]], [[[-8.4625, 54.9992], [-8.4645, 54.9992], [-8.4615, 54.9982], [-8.4625, 54.9992]]], [[[-8.5418, 55.0238], [-8.5392, 55.0237], [-8.54, 55.0248], [-8.5418, 55.0238]]]]}}, {"type": "Feature", "properties": {"osm_type": "relation", "osm_id": 294844146, "name": "BUNCRANA LEA-5", "admin_level": "6", "kind": "subdivision_2", "parent_osm_id": 14419962, "parent_name": "Ulster", "parent_iso": "IE-U"}, "geometry": {"type": "Polygon", "coordinates": [[[-7.4452, 54.9368], [-7.4251, 54.9432], [-7.3921, 54.9454], [-7.4064, 54.9541], [-7.4021, 54.9596], [-7.4075, 54.9637], [-7.4003, 54.9722], [-7.4071, 54.983], [-7.3914, 54.9978], [-7.4056, 55.0033], [-7.3915, 55.0223], [-7.3453, 55.0508], [-7.3183, 55.0451], [-7.2994, 55.0561], [-7.2863, 55.0485], [-7.2727, 55.0634], [-7.2581, 55.0664], [-7.2455, 55.081], [-7.2129, 55.104], [-7.2045, 55.1185], [-7.1883, 55.1252], [-7.1853, 55.1328], [-7.1664, 55.1439], [-7.2042, 55.1683], [-7.2079, 55.1808], [-7.2142, 55.1823], [-7.2187, 55.167], [-7.2275, 55.1615], [-7.2627, 55.1611], [-7.2911, 55.1507], [-7.3074, 55.1537], [-7.2954, 55.1719], [-7.3075, 55.1932], [-7.3281, 55.1873], [-7.3413, 55.2117], [-7.3662, 55.2141], [-7.4001, 55.2324], [-7.4069, 55.2259], [-7.4334, 55.2236], [-7.4378, 55.2124], [-7.4689, 55.218], [-7.4806, 55.2259], [-7.496, 55.2221], [-7.508, 55.2277], [-7.528, 55.2193], [-7.5389, 55.2219], [-7.549, 55.2072], [-7.5389, 55.2024], [-7.5484, 55.2022], [-7.5543, 55.1959], [-7.541, 55.1948], [-7.5185, 55.1844], [-7.4969, 55.1609], [-7.4847, 55.1562], [-7.4749, 55.1401], [-7.4617, 55.1395], [-7.4649, 55.1266], [-7.4581, 55.1295], [-7.4576, 55.1216], [-7.4742, 55.1101], [-7.4796, 55.0916], [-7.478, 55.087], [-7.4563, 55.0774], [-7.4546, 55.0631], [-7.4623, 55.0616], [-7.4699, 55.0704], [-7.4668, 55.072], [-7.4795, 55.074], [-7.4903, 55.0844], [-7.5167, 55.084], [-7.5296, 55.076], [-7.5332, 55.0723], [-7.5255, 55.0588], [-7.5086, 55.0564], [-7.4964, 55.0474], [-7.4698, 55.05], [-7.4763, 55.0429], [-7.4802, 55.047], [-7.4945, 55.0405], [-7.5133, 55.0401], [-7.5182, 55.0328], [-7.5157, 55.025], [-7.5272, 55.0198], [-7.5396, 55.0239], [-7.5728, 55.0039], [-7.5648, 54.9996], [-7.5729, 54.9943], [-7.5598, 54.9892], [-7.5809, 54.9676], [-7.5851, 54.9548], [-7.5539, 54.9564], [-7.5366, 54.9711], [-7.5158, 54.9719], [-7.5088, 54.9647], [-7.5251, 54.9496], [-7.518, 54.9456], [-7.5065, 54.9419], [-7.484, 54.9467], [-7.4452, 54.9368]]]}}, {"type": "Feature", "properties": {"osm_type": "relation", "osm_id": 600525752, "name": "LETTERKENNY LEA-7", "admin_level": "6", "kind": "subdivision_2", "parent_osm_id": 14419962, "parent_name": "Ulster", "parent_iso": "IE-U"}, "geometry": {"type": "Polygon", "coordinates": [[[-8.0499, 54.9912], [-8.0988, 54.9642], [-8.0978, 54.9595], [-8.1049, 54.9572], [-8.1029, 54.9414], [-8.1122, 54.9373], [-8.1052, 54.9319], [-8.0823, 54.9333], [-8.0626, 54.9183], [-8.0349, 54.9099], [-8.0302, 54.9052], [-8.0348, 54.9], [-7.9892, 54.9032], [-7.9782, 54.9131], [-7.9783, 54.9191], [-7.9515, 54.9297], [-7.9079, 54.9293], [-7.8933, 54.9357], [-7.8983, 54.9303], [-7.8944, 54.9225], [-7.8896, 54.9234], [-7.8897, 54.9139], [-7.8797, 54.9059], [-7.8799, 54.9011], [-7.8333, 54.895], [-7.8365, 54.8878], [-7.8287, 54.8841], [-7.8079, 54.8916], [-7.7714, 54.8923], [-7.7534, 54.8998], [-7.7233, 54.8909], [-7.71, 54.8978], [-7.7107, 54.8911], [-7.679, 54.8967], [-7.6655, 54.8936], [-7.6629, 54.8856], [-7.6535, 54.8846], [-7.5988, 54.8999], [-7.5624, 54.8979], [-7.5649, 54.9055], [-7.573, 54.9065], [-7.5728, 54.921], [-7.5838, 54.9379], [-7.572, 54.9454], [-7.5694, 54.9541], [-7.5851, 54.9548], [-7.5809, 54.9676], [-7.5598, 54.9892], [-7.5729, 54.9943], [-7.5648, 54.9996], [-7.5728, 55.0039], [-7.6002, 54.9912], [-7.6256, 54.9622], [-7.6394, 54.959], [-7.6329, 54.9517], [-7.6372, 54.9473], [-7.6333, 54.9519], [-7.6409, 54.9596], [-7.6232, 54.9669], [-7.6358, 54.9723], [-7.6464, 54.9635], [-7.6594, 54.9695], [-7.6509, 54.9829], [-7.6372, 54.9921], [-7.6403, 54.9967], [-7.619, 55.0049], [-7.6292, 55.0134], [-7.627, 55.0183], [-7.6627, 55.0047], [-7.6945, 55.0008], [-7.7071, 55.01], [-7.7088, 55.0194], [-7.7179, 55.0176], [-7.7269, 55.0279], [-7.7478, 55.0217], [-7.7454, 55.0111], [-7.7601, 55.0133], [-7.7791, 55.0241], [-7.7928, 55.0193], [-7.8008, 55.0095], [-7.8119, 55.0252], [-7.8226, 55.0198], [-7.8543, 55.0222], [-7.8741, 55.0017], [-7.9085, 54.997], [-7.9491, 54.9755], [-7.975, 54.9701], [-8.0048, 54.9742], [-8.0074, 54.9788], [-8.0499, 54.9912]]]}}]}