{"type": "FeatureCollection", "parent": {"osm_id": 145194, "name": "Altai Republic", "admin_level": "4", "kind": "subdivision_1", "child_kind": "subdivision_2", "iso": "RU-AL"}, "features": [{"type": "Feature", "properties": {"osm_type": "relation", "osm_id": 369924243, "name": "Kosh-Agachsky Rayon", "admin_level": "6", "kind": "subdivision_2", "parent_osm_id": 145194, "parent_name": "Altai Republic", "parent_iso": "RU-AL"}, "geometry": {"type": "Polygon", "coordinates": [[[86.7012, 50.2237], [86.669, 50.1971], [86.6624, 50.1693], [86.6773, 50.1486], [86.6945, 50.1438], [86.6934, 50.136], [86.6841, 50.129], [86.6901, 50.1227], [86.7035, 50.1214], [86.7157, 50.1], [86.7132, 50.0848], [86.6954, 50.0655], [86.6794, 50.0702], [86.6153, 50.0109], [86.6269, 49.9867], [86.6237, 49.9713], [86.6371, 49.9524], [86.6521, 49.9432], [86.6514, 49.9272], [86.6567, 49.9229], [86.6535, 49.9084], [86.6663, 49.8879], [86.654, 49.8761], [86.6219, 49.8824], [86.6207, 49.8753], [86.6128, 49.8703], [86.6201, 49.8589], [86.6067, 49.8541], [86.6096, 49.8497], [86.6034, 49.8408], [86.6124, 49.8296], [86.6036, 49.8262], [86.5891, 49.8089], [86.6198, 49.8044], [86.6456, 49.8065], [86.6539, 49.8126], [86.6762, 49.8076], [86.6884, 49.8109], [86.7359, 49.7872], [86.7835, 49.7931], [86.7748, 49.768], [86.7645, 49.7581], [86.7646, 49.7502], [86.753, 49.7424], [86.7568, 49.7322], [86.7663, 49.7249], [86.7789, 49.696], [86.7677, 49.6891], [86.7384, 49.6884], [86.7242, 49.6767], [86.7095, 49.6873], [86.6997, 49.685], [86.7007, 49.6807], [86.6842, 49.6751], [86.6819, 49.6687], [86.6657, 49.6655], [86.6632, 49.6568], [86.6533, 49.6525], [86.6592, 49.6438], [86.6357, 49.6319], [86.6155, 49.6285], [86.5976, 49.6095], [86.6182, 49.5704], [86.6659, 49.5603], [86.681, 49.5638], [86.6824, 49.5691], [86.7395, 49.5712], [86.7588, 49.5688], [86.7646, 49.5618], [86.7772, 49.5635], [86.7747, 49.5575], [86.7902, 49.5528], [86.8272, 49.5454], [86.8274, 49.5387], [86.8148, 49.5323], [86.851, 49.5106], [86.8554, 49.4991], [86.8297, 49.4817], [86.8343, 49.4771], [86.831, 49.4698], [86.8387, 49.4627], [86.8334, 49.4522], [86.8471, 49.4517], [86.8511, 49.4446], [86.8683, 49.4348], [86.9065, 49.4276], [86.9144, 49.4166], [86.9301, 49.4201], [86.9473, 49.4096], [86.9363, 49.4002], [86.9492, 49.3799], [86.9368, 49.3689], [86.9247, 49.3698], [86.9265, 49.3489], [86.9541, 49.3352], [86.9627, 49.3254], [86.959, 49.3176], [86.971, 49.3059], [87.006, 49.2989], [87.0185, 49.269], [87.0307, 49.2529], [87.1283, 49.2561], [87.1417, 49.2459], [87.1658, 49.2502], [87.1756, 49.2467], [87.1983, 49.2525], [87.232, 49.2448], [87.2433, 49.2379], [87.2553, 49.2402], [87.2693, 49.2326], [87.3097, 49.2339], [87.3156, 49.2311], [87.2916, 49.2018], [87.2927, 49.1901], [87.3008, 49.184], [87.3038, 49.1722], [87.29, 49.156], [87.2995, 49.1487], [87.2941, 49.1399], [87.297, 49.1325], [87.2858, 49.1159], [87.3222, 49.1048], [87.3213, 49.101], [87.3463, 49.1025], [87.3615, 49.0946], [87.3804, 49.0931], [87.3978, 49.0866], [87.4069, 49.0753], [87.4273, 49.0713], [87.4395, 49.0738], [87.4545, 49.0857], [87.4767, 49.0896], [87.4896, 49.0861], [87.5032, 49.0925], [87.5078, 49.1044], [87.5056, 49.1172], [87.4928, 49.1271], [87.4929, 49.1385], [87.5141, 49.1395], [87.5232, 49.1444], [87.5551, 49.1404], [87.5657, 49.135], [87.5695, 49.1414], [87.5816, 49.1404], [87.5992, 49.1493], [87.6151, 49.1443], [87.6493, 49.1536], [87.6705, 49.1521], [87.6797, 49.1585], [87.6859, 49.1713], [87.695, 49.1757], [87.7375, 49.1761], [87.7511, 49.1672], [87.7785, 49.1787], [87.8059, 49.1685], [87.8232, 49.1778], [87.8613, 49.1779], [87.875, 49.1714], [87.9039, 49.1773], [87.9244, 49.1737], [87.932, 49.1801], [87.9566, 49.1855], [87.9884, 49.183], [88.003, 49.2], [88.0008, 49.2088], [88.0199, 49.2206], [88.018, 49.2263], [88.0564, 49.2411], [88.0519, 49.2561], [88.0548, 49.2584], [88.0816, 49.2607], [88.0871, 49.2547], [88.1067, 49.2566], [88.1263, 49.2786], [88.1485, 49.2815], [88.1701, 49.2936], [88.1625, 49.299], [88.1662, 49.307], [88.1581, 49.3165], [88.166, 49.3184], [88.17, 49.3255], [88.1544, 49.3372], [88.1656, 49.3404], [88.1667, 49.3505], [88.1599, 49.3559], [88.1605, 49.3628], [88.1241, 49.3729], [88.1242, 49.3775], [88.1171, 49.3794], [88.1188, 49.3908], [88.1844, 49.4159], [88.1782, 49.4354], [88.1663, 49.4395], [88.1656, 49.4455], [88.2218, 49.4797], [88.2374, 49.4746], [88.2448, 49.4801], [88.2632, 49.4824], [88.2977, 49.4709], [88.3179, 49.4751], [88.3312, 49.4935], [88.368, 49.4838], [88.4059, 49.4946], [88.445, 49.4726], [88.4949, 49.4719], [88.5173, 49.4841], [88.5449, 49.4856], [88.5729, 49.4978], [88.5992, 49.5009], [88.6323, 49.4954], [88.6836, 49.4622], [88.7328, 49.4515], [88.7496, 49.4603], [88.8022, 49.4604], [88.8143, 49.4584], [88.8429, 49.4416], [88.8628, 49.4595], [88.8534, 49.4667], [88.8686, 49.4674], [88.8801, 49.4781], [88.8571, 49.4918], [88.8587, 49.4963], [88.8749, 49.5014], [88.8797, 49.5138], [88.8754, 49.5302], [88.8777, 49.5409], [88.8696, 49.5467], [88.9001, 49.559], [88.9131, 49.5466], [88.9295, 49.5429], [88.9326, 49.5168], [88.9595, 49.5], [88.96, 49.4776], [88.9708, 49.4657], [88.9845, 49.4637], [89.0027, 49.4705], [89.0136, 49.4696], [89.035, 49.4861], [89.0846, 49.4861], [89.1224, 49.4991], [89.1476, 49.5021], [89.1621, 49.5174], [89.1953, 49.5202], [89.2038, 49.5254], [89.2327, 49.5537], [89.2182, 49.57], [89.1915, 49.586], [89.1996, 49.6043], [89.1824, 49.6229], [89.1936, 49.6347], [89.241, 49.6452], [89.2709, 49.6329], [89.3124, 49.6043], [89.345, 49.5918], [89.3431, 49.5828], [89.36, 49.5844], [89.391, 49.5953], [89.3846, 49.6062], [89.4053, 49.6211], [89.4274, 49.6194], [89.4378, 49.6287], [89.4358, 49.6382], [89.4616, 49.6662], [89.4715, 49.6612], [89.4966, 49.665], [89.5205, 49.6791], [89.5531, 49.6854], [89.5788, 49.6815], [89.6074, 49.686], [89.6608, 49.6999], [89.6778, 49.7143], [89.7192, 49.7283], [89.7143, 49.7412], [89.7208, 49.7523], [89.7124, 49.7618], [89.7191, 49.7719], [89.7125, 49.7774], [89.7119, 49.7901], [89.6735, 49.7835], [89.6245, 49.8064], [89.6293, 49.8095], [89.625, 49.818], [89.6436, 49.8191], [89.651, 49.8264], [89.6398, 49.8355], [89.6432, 49.8434], [89.6304, 49.8452], [89.6117, 49.8635], [89.6149, 49.8778], [89.6308, 49.8853], [89.6309, 49.8993], [89.6259, 49.9054], [89.61, 49.9054], [89.5917, 49.9126], [89.6147, 49.9392], [89.6048, 49.9482], [89.6087, 49.9637], [89.6248, 49.9709], [89.5987, 49.9845], [89.6015, 49.9939], [89.594, 50.0037], [89.5929, 50.0155], [89.5679, 50.0199], [89.544, 50.015], [89.5388, 50.029], [89.5247, 50.0393], [89.536, 50.0539], [89.534, 50.0659], [89.5554, 50.0683], [89.5622, 50.076], [89.5792, 50.0767], [89.5918, 50.0835], [89.5846, 50.088], [89.5824, 50.107], [89.5658, 50.1059], [89.558, 50.1086], [89.5568, 50.115], [89.5115, 50.1193], [89.51, 50.1286], [89.5229, 50.1349], [89.5325, 50.1479], [89.5256, 50.1837], [89.5172, 50.1932], [89.4779, 50.2019], [89.4406, 50.2037], [89.417, 50.1922], [89.4035, 50.1779], [89.3934, 50.1855], [89.3673, 50.182], [89.3513, 50.1932], [89.3084, 50.2079], [89.333, 50.2167], [89.3367, 50.2329], [89.3315, 50.2444], [89.3451, 50.2581], [89.3438, 50.2642], [89.3596, 50.2706], [89.3417, 50.2833], [89.3139, 50.2797], [89.2963, 50.2697], [89.2809, 50.2497], [89.2583, 50.2466], [89.2347, 50.2356], [89.2296, 50.2259], [89.2429, 50.2187], [89.2477, 50.2076], [89.2446, 50.2019], [89.2278, 50.1985], [89.1763, 50.2022], [89.1592, 50.2094], [89.1596, 50.2146], [89.1462, 50.2253], [89.1311, 50.2224], [89.1171, 50.2267], [89.1033, 50.2167], [89.0795, 50.224], [89.0583, 50.2242], [89.0466, 50.2311], [89.0366, 50.2285], [89.0389, 50.2131], [89.0681, 50.2002], [89.0631, 50.1877], [89.0693, 50.177], [89.0769, 50.1735], [89.0666, 50.1579], [89.0588, 50.1539], [88.9899, 50.1468], [88.983, 50.1564], [88.9627, 50.1627], [88.9137, 50.1624], [88.8912, 50.1677], [88.8663, 50.1852], [88.8566, 50.1815], [88.8416, 50.162], [88.7994, 50.1619], [88.7912, 50.1175], [88.741, 50.1318], [88.7116, 50.1226], [88.6838, 50.1233], [88.6692, 50.1148], [88.6567, 50.1307], [88.6173, 50.1404], [88.6107, 50.1489], [88.5916, 50.1423], [88.5783, 50.1481], [88.5417, 50.1457], [88.5234, 50.1318], [88.4237, 50.1472], [88.4052, 50.155], [88.3995, 50.16], [88.3998, 50.167], [88.3842, 50.175], [88.3929, 50.179], [88.3926, 50.1841], [88.3757, 50.1924], [88.3639, 50.2156], [88.351, 50.2241], [88.3185, 50.2109], [88.2956, 50.2099], [88.2888, 50.2176], [88.2457, 50.2247], [88.2403, 50.2319], [88.2234, 50.2378], [88.1734, 50.2441], [88.1579, 50.2531], [88.099, 50.266], [88.0889, 50.2767], [88.0757, 50.274], [88.0554, 50.2841], [88.0347, 50.3079], [88.0507, 50.3182], [88.0459, 50.3204], [88.0462, 50.3285], [88.0362, 50.3335], [88.0394, 50.3452], [88.0339, 50.3489], [88.0104, 50.3492], [88.0104, 50.3564], [87.9997, 50.3595], [87.9866, 50.3531], [87.9683, 50.3532], [87.9426, 50.3629], [87.9116, 50.3198], [87.9057, 50.319], [87.8862, 50.322], [87.8801, 50.3299], [87.8827, 50.3353], [87.875, 50.341], [87.8608, 50.3435], [87.8496, 50.3372], [87.8325, 50.3392], [87.8219, 50.3335], [87.8083, 50.3454], [87.7873, 50.3493], [87.781, 50.3572], [87.751, 50.3424], [87.7479, 50.3381], [87.7617, 50.3278], [87.7288, 50.3103], [87.7722, 50.3167], [87.8096, 50.3042], [87.7614, 50.2643], [87.7628, 50.2211], [87.7576, 50.2018], [87.7614, 50.1905], [87.8028, 50.1865], [87.8053, 50.1803], [87.7911, 50.1721], [87.774, 50.1707], [87.7602, 50.19], [87.7545, 50.1852], [87.7002, 50.1802], [87.6572, 50.2082], [87.6359, 50.2113], [87.5836, 50.1987], [87.5655, 50.187], [87.5362, 50.1915], [87.5306, 50.1957], [87.6128, 50.2178], [87.6267, 50.2315], [87.5871, 50.2398], [87.5367, 50.2757], [87.5274, 50.275], [87.5079, 50.2854], [87.4907, 50.2992], [87.48, 50.3249], [87.3691, 50.3518], [87.3613, 50.359], [87.3399, 50.3559], [87.2821, 50.3642], [87.2381, 50.3507], [87.2465, 50.3309], [87.2287, 50.3341], [87.1919, 50.3217], [87.1528, 50.3175], [87.1426, 50.3294], [87.1083, 50.3292], [87.0989, 50.2984], [87.074, 50.2891], [87.1011, 50.2718], [87.1056, 50.2615], [87.1202, 50.2491], [87.1337, 50.2429], [87.122, 50.2348], [87.0952, 50.2369], [87.0784, 50.2543], [86.9771, 50.2904], [86.9602, 50.286], [86.9567, 50.2782], [86.8911, 50.2611], [86.8856, 50.2531], [86.873, 50.252], [86.8384, 50.2335], [86.7765, 50.1947], [86.7193, 50.2383], [86.7012, 50.2237]]]}}, {"type": "Feature", "properties": {"osm_type": "relation", "osm_id": 239597281, "name": "Shebalinsky Rayon", "admin_level": "6", "kind": "subdivision_2", "parent_osm_id": 145194, "parent_name": "Altai Republic", "parent_iso": "RU-AL"}, "geometry": {"type": "Polygon", "coordinates": [[[85.2867, 51.0006], [85.3072, 51.0128], [85.3073, 50.9984], [85.3618, 50.9617], [85.4165, 50.9601], [85.4202, 50.9693], [85.4031, 50.9733], [85.4115, 50.9887], [85.4078, 50.9948], [85.4142, 51.0253], [85.4334, 51.0257], [85.4418, 51.0373], [85.4536, 51.0393], [85.501, 51.0691], [85.5188, 51.0746], [85.5462, 51.0586], [85.5568, 51.0591], [85.5647, 51.0772], [85.5771, 51.0897], [85.573, 51.0952], [85.5795, 51.0978], [85.5963, 51.094], [85.62, 51.0979], [85.6837, 51.0829], [85.69, 51.0836], [85.6986, 51.0971], [85.7351, 51.0774], [85.78, 51.0895], [85.8022, 51.1469], [85.8668, 51.1382], [85.8977, 51.1091], [85.9064, 51.0924], [85.9061, 51.0764], [85.9474, 51.0632], [85.9612, 51.0418], [85.9891, 51.0369], [85.9943, 51.0525], [86.0173, 51.0684], [86.0565, 51.0602], [86.0488, 51.0703], [86.0551, 51.0787], [86.0499, 51.0872], [86.0635, 51.1], [86.0912, 51.1116], [86.1051, 51.1111], [86.1113, 51.1191], [86.132, 51.1267], [86.1619, 51.1474], [86.1652, 51.1226], [86.1865, 51.1546], [86.1737, 51.1618], [86.125, 51.1638], [86.0983, 51.1763], [86.0899, 51.1688], [86.0623, 51.1662], [86.0463, 51.1713], [85.9802, 51.1635], [85.9201, 51.165], [85.9167, 51.1802], [85.9203, 51.1945], [85.9347, 51.2083], [85.9781, 51.2335], [85.9529, 51.2862], [85.9395, 51.2994], [85.957, 51.3059], [85.9823, 51.3435], [85.9283, 51.3648], [85.9154, 51.3629], [85.8991, 51.369], [85.8816, 51.407], [85.8521, 51.4065], [85.8109, 51.424], [85.7768, 51.4321], [85.7938, 51.4537], [85.7797, 51.4599], [85.8455, 51.471], [85.8464, 51.4888], [85.8538, 51.5046], [85.849, 51.5157], [85.8527, 51.544], [85.8648, 51.5477], [85.8732, 51.5656], [85.8356, 51.5807], [85.8066, 51.6054], [85.7745, 51.6194], [85.7566, 51.6373], [85.746, 51.6571], [85.7475, 51.6619], [85.7705, 51.67], [85.7781, 51.6811], [85.7637, 51.7029], [85.7284, 51.6931], [85.704, 51.7043], [85.6877, 51.7188], [85.6763, 51.7174], [85.6685, 51.7225], [85.6685, 51.7284], [85.6314, 51.7414], [85.6263, 51.7472], [85.6172, 51.736], [85.6062, 51.732], [85.5823, 51.6972], [85.5563, 51.6917], [85.5029, 51.7012], [85.4852, 51.6936], [85.481, 51.6864], [85.4902, 51.6745], [85.4732, 51.6634], [85.4785, 51.6551], [85.474, 51.6377], [85.4799, 51.6231], [85.446, 51.6018], [85.454, 51.5723], [85.4443, 51.5634], [85.3295, 51.5616], [85.3059, 51.5556], [85.2954, 51.5464], [85.3027, 51.5387], [85.2991, 51.5306], [85.2848, 51.5261], [85.2608, 51.5287], [85.2528, 51.518], [85.2508, 51.5044], [85.244, 51.4992], [85.2059, 51.4932], [85.1956, 51.4855], [85.1669, 51.4865], [85.1488, 51.5014], [85.141, 51.5021], [85.1359, 51.5128], [85.1139, 51.5195], [85.111, 51.5241], [85.086, 51.523], [85.0611, 51.5121], [85.0332, 51.5136], [85.0426, 51.4933], [85.0328, 51.4745], [85.0446, 51.4553], [85.0074, 51.4604], [84.9842, 51.445], [84.9433, 51.4409], [84.8847, 51.4181], [84.9375, 51.3618], [84.9582, 51.3516], [84.9815, 51.3265], [85.0313, 51.335], [85.0427, 51.3244], [85.0368, 51.3127], [85.0078, 51.2898], [85.0167, 51.2813], [85.0256, 51.2813], [85.0421, 51.271], [85.0299, 51.2134], [85.0608, 51.1973], [85.0632, 51.1809], [85.0974, 51.185], [85.1344, 51.1745], [85.0938, 51.1557], [85.1083, 51.14], [85.14, 51.1251], [85.1367, 51.0862], [85.2, 51.0453], [85.2053, 51.0378], [85.246, 51.0389], [85.2617, 51.0159], [85.2585, 51.0072], [85.2867, 51.0006]]]}}, {"type": "Feature", "properties": {"osm_type": "relation", "osm_id": 762227379, "name": "Gorno-Altaysk", "admin_level": "6", "kind": "subdivision_2", "parent_osm_id": 145194, "parent_name": "Altai Republic", "parent_iso": "RU-AL"}, "geometry": {"type": "Polygon", "coordinates": [[[85.8819, 51.9804], [85.8826, 51.9695], [85.894, 51.9531], [85.8947, 51.9338], [85.8887, 51.9194], [85.9055, 51.9153], [85.9014, 51.8936], [85.909, 51.8799], [85.9501, 51.8703], [85.9795, 51.8929], [85.9566, 51.9041], [85.9677, 51.9109], [86.0023, 51.9156], [86.0008, 51.9185], [86.0104, 51.9233], [86.0436, 51.9116], [86.0654, 51.9259], [86.0622, 51.9443], [86.0407, 51.9476], [86.0298, 51.9587], [86.0222, 51.9593], [86.0197, 51.9655], [85.9926, 51.9714], [85.9907, 51.9812], [86.0042, 51.9846], [86.0031, 51.9933], [85.9618, 51.9861], [85.9551, 51.9925], [85.9347, 51.9918], [85.9427, 51.9812], [85.935, 51.9762], [85.9031, 51.9742], [85.903, 51.9787], [85.8923, 51.9823], [85.8819, 51.9804]]]}}, {"type": "Feature", "properties": {"osm_type": "relation", "osm_id": 911884150, "name": "Turochaksky Rayon", "admin_level": "6", "kind": "subdivision_2", "parent_osm_id": 145194, "parent_name": "Altai Republic", "parent_iso": "RU-AL"}, "geometry": {"type": "Polygon", "coordinates": [[[86.6279, 52.5268], [86.6619, 52.4989], [86.6494, 52.4948], [86.6566, 52.4931], [86.6541, 52.4854], [86.6767, 52.4662], [86.6794, 52.4368], [86.657, 52.4254], [86.623, 52.4238], [86.623, 52.406], [86.6424, 52.4026], [86.6428, 52.3771], [86.6544, 52.3552], [86.6671, 52.3427], [86.6838, 52.3481], [86.6896, 52.3414], [86.6837, 52.3366], [86.6936, 52.2948], [86.7834, 52.293], [86.7718, 52.2794], [86.7671, 52.243], [86.7581, 52.2377], [86.7562, 52.2288], [86.7316, 52.214], [86.7239, 52.1972], [86.8056, 52.1878], [86.801, 52.1587], [86.7402, 52.1714], [86.7404, 52.1529], [86.7264, 52.139], [86.6887, 52.1411], [86.6843, 52.126], [86.6689, 52.1254], [86.6561, 52.1186], [86.6488, 52.1057], [86.7319, 52.0949], [86.7879, 52.1285], [86.8046, 52.1292], [86.882, 52.1138], [86.9049, 52.1218], [86.9185, 52.1182], [86.9314, 52.1261], [86.9323, 52.1323], [86.9489, 52.1351], [86.9868, 52.1276], [86.9949, 52.1239], [86.9967, 52.1105], [87.0095, 52.1139], [87.0143, 52.1023], [87.0296, 52.0956], [87.044, 52.0971], [87.0397, 52.0804], [87.0135, 52.0676], [87.0203, 52.0564], [87.0086, 52.0366], [86.9944, 52.0298], [86.9915, 52.0192], [86.9955, 52.0085], [87.0093, 52.0091], [87.0186, 52.0042], [87.0248, 51.9888], [86.9982, 51.9801], [86.996, 51.9749], [86.9767, 51.9688], [86.9723, 51.9618], [86.9751, 51.9455], [86.9823, 51.9363], [86.981, 51.9294], [86.9999, 51.91], [87.0331, 51.8979], [86.9721, 51.8903], [86.9715, 51.8859], [86.9597, 51.8869], [86.9492, 51.8807], [86.9609, 51.8712], [86.9591, 51.8433], [87.0197, 51.776], [87.0066, 51.7633], [87.0015, 51.7479], [87.0116, 51.7278], [87.002, 51.7225], [87.0339, 51.6906], [87.0145, 51.6734], [87.0192, 51.6669], [87.002, 51.6556], [87.0066, 51.6456], [87.0009, 51.6379], [86.9667, 51.6192], [86.9695, 51.6061], [86.9616, 51.5955], [86.9808, 51.5864], [86.9713, 51.5777], [86.9702, 51.5638], [86.9544, 51.5465], [86.9722, 51.5176], [86.9924, 51.5082], [87.0029, 51.494], [87.0144, 51.493], [87.0298, 51.4691], [87.0446, 51.4593], [87.0875, 51.4495], [87.0953, 51.4395], [87.0929, 51.4255], [87.1083, 51.4193], [87.1098, 51.4129], [87.0935, 51.4059], [87.1223, 51.388], [87.1311, 51.3722], [87.1264, 51.3488], [87.1422, 51.3442], [87.1548, 51.3336], [87.167, 51.3066], [87.1682, 51.2841], [87.1615, 51.2675], [87.1412, 51.26], [87.1492, 51.2506], [87.1474, 51.2444], [87.1671, 51.2353], [87.198, 51.2391], [87.2386, 51.2353], [87.2499, 51.2392], [87.2701, 51.2202], [87.2837, 51.2263], [87.3051, 51.2239], [87.3132, 51.2405], [87.3287, 51.241], [87.3363, 51.2357], [87.3538, 51.2378], [87.4044, 51.2543], [87.424, 51.2429], [87.4288, 51.2577], [87.5, 51.2308], [87.5089, 51.2389], [87.527, 51.2444], [87.5512, 51.2678], [87.5492, 51.2772], [87.5551, 51.3015], [87.5445, 51.3541], [87.5542, 51.365], [87.6099, 51.3711], [87.6216, 51.378], [87.7085, 51.376], [87.7422, 51.3825], [87.7323, 51.4204], [87.7013, 51.4805], [87.6863, 51.4973], [87.679, 51.5318], [87.8061, 51.5422], [87.8219, 51.551], [87.9501, 51.5513], [87.959, 51.5763], [87.9748, 51.5779], [87.9898, 51.5907], [88.0039, 51.5893], [88.0012, 51.6324], [88.0041, 51.642], [88.0196, 51.6567], [88.0191, 51.6644], [88.0543, 51.6669], [88.062, 51.6731], [88.076, 51.6748], [88.0779, 51.6912], [88.0979, 51.6964], [88.1068, 51.7086], [88.1018, 51.7193], [88.1083, 51.727], [88.1101, 51.7403], [88.1, 51.7413], [88.0841, 51.7583], [88.0502, 51.7569], [88.0292, 51.7506], [87.9912, 51.7514], [87.9633, 51.7673], [87.9488, 51.7683], [87.9438, 51.7785], [87.9327, 51.7845], [87.8826, 51.7829], [87.8895, 51.7915], [87.8914, 51.8126], [87.8986, 51.8223], [87.9152, 51.8325], [87.9173, 51.8424], [87.9345, 51.8486], [87.9314, 51.8583], [87.9444, 51.8679], [87.9393, 51.8757], [87.9453, 51.8857], [87.9698, 51.8903], [87.9895, 51.9021], [88.0014, 51.9162], [88.0063, 51.9316], [88.0018, 51.9417], [87.9893, 51.9401], [87.9768, 51.9523], [87.9934, 51.9563], [87.9926, 51.9647], [88.0, 51.9681], [88.0286, 51.9643], [88.0344, 51.9755], [88.0876, 52.0], [88.0684, 52.0172], [88.0576, 52.0168], [88.0573, 52.0363], [88.0615, 52.0444], [88.0667, 52.0497], [88.1264, 52.0682], [88.1518, 52.096], [88.1783, 52.0658], [88.2525, 52.0458], [88.2559, 52.0656], [88.2484, 52.0776], [88.289, 52.1015], [88.2863, 52.1117], [88.3021, 52.1136], [88.3064, 52.1099], [88.3486, 52.1184], [88.3702, 52.1172], [88.3783, 52.1246], [88.3612, 52.1325], [88.3602, 52.1463], [88.3745, 52.1546], [88.3636, 52.1691], [88.377, 52.1783], [88.3747, 52.1932], [88.3842, 52.2009], [88.3827, 52.2229], [88.3969, 52.2397], [88.3829, 52.2502], [88.3866, 52.2586], [88.3807, 52.2739], [88.4021, 52.2768], [88.3914, 52.2923], [88.4051, 52.3031], [88.4033, 52.3117], [88.4271, 52.3155], [88.4303, 52.3223], [88.4273, 52.3254], [88.4419, 52.3356], [88.4639, 52.3415], [88.4225, 52.3587], [88.4213, 52.3643], [88.428, 52.3705], [88.406, 52.3783], [88.4418, 52.405], [88.4483, 52.4258], [88.4457, 52.433], [88.4362, 52.433], [88.4131, 52.4447], [88.3714, 52.4409], [88.3173, 52.4642], [88.318, 52.4534], [88.3083, 52.4437], [88.3109, 52.4369], [88.2822, 52.4277], [88.281, 52.4145], [88.2674, 52.4149], [88.2521, 52.3999], [88.2315, 52.4001], [88.2028, 52.4116], [88.1868, 52.4103], [88.1589, 52.4304], [88.1436, 52.4289], [88.1279, 52.4469], [88.131, 52.4514], [88.1235, 52.4626], [88.0571, 52.4889], [88.0462, 52.4998], [88.0261, 52.504], [88.0211, 52.5111], [88.0002, 52.5193], [87.9708, 52.5187], [87.9363, 52.5354], [87.9036, 52.5353], [87.8914, 52.5395], [87.8926, 52.5259], [87.8649, 52.5189], [87.8451, 52.491], [87.8189, 52.4988], [87.8028, 52.4794], [87.7553, 52.4849], [87.7508, 52.4791], [87.7369, 52.4755], [87.7329, 52.4627], [87.7008, 52.4643], [87.6732, 52.442], [87.6689, 52.4264], [87.6533, 52.4224], [87.618, 52.4383], [87.6226, 52.4492], [87.6107, 52.4564], [87.6234, 52.4648], [87.6116, 52.4715], [87.5838, 52.4621], [87.5769, 52.4683], [87.5524, 52.4669], [87.551, 52.4749], [87.54, 52.4835], [87.4943, 52.4742], [87.4779, 52.4819], [87.4438, 52.486], [87.4283, 52.4995], [87.3718, 52.4987], [87.3783, 52.5409], [87.3663, 52.549], [87.3749, 52.563], [87.3712, 52.5737], [87.3532, 52.5702], [87.3337, 52.5727], [87.2972, 52.5924], [87.2738, 52.5878], [87.2417, 52.5916], [87.2185, 52.5888], [87.1971, 52.5732], [87.1706, 52.5805], [87.174, 52.5889], [87.1702, 52.5919], [87.1383, 52.5992], [87.1276, 52.5951], [87.1189, 52.5986], [87.1331, 52.6076], [87.1269, 52.6153], [87.0991, 52.6192], [87.0955, 52.6263], [87.0738, 52.6368], [87.0688, 52.6574], [87.0528, 52.6603], [87.0128, 52.6425], [86.9895, 52.6585], [86.9715, 52.6521], [86.9367, 52.6545], [86.9383, 52.6373], [86.933, 52.6352], [86.8902, 52.6305], [86.8812, 52.6365], [86.8449, 52.6264], [86.8098, 52.6481], [86.8212, 52.6086], [86.7815, 52.6042], [86.7751, 52.5958], [86.7829, 52.5868], [86.7826, 52.5675], [86.7932, 52.5595], [86.7791, 52.553], [86.7949, 52.5148], [86.7642, 52.5159], [86.7633, 52.5243], [86.7545, 52.5234], [86.7426, 52.5131], [86.7221, 52.5087], [86.712, 52.5181], [86.6687, 52.5153], [86.6279, 52.5268]]]}}, {"type": "Feature", "properties": {"osm_type": "relation", "osm_id": 933116492, "name": "Mayminsky Rayon", "admin_level": "6", "kind": "subdivision_2", "parent_osm_id": 145194, "parent_name": "Altai Republic", "parent_iso": "RU-AL"}, "geometry": {"type": "Polygon", "coordinates": [[[85.7594, 51.6672], [85.7701, 51.6578], [85.7908, 51.6525], [85.8179, 51.6666], [85.8469, 51.6691], [85.8586, 51.6983], [85.8765, 51.7044], [85.8932, 51.6948], [85.909, 51.6778], [85.9272, 51.6901], [85.9619, 51.6956], [85.9615, 51.7189], [85.9899, 51.7196], [86.0107, 51.7153], [86.011, 51.7029], [86.0368, 51.7093], [86.0428, 51.7034], [86.0679, 51.7136], [86.0748, 51.6931], [86.0711, 51.6822], [86.0839, 51.6779], [86.0936, 51.681], [86.1026, 51.6715], [86.11, 51.6711], [86.1225, 51.6525], [86.1314, 51.6552], [86.1489, 51.64], [86.1842, 51.6419], [86.1976, 51.6469], [86.1956, 51.64], [86.2002, 51.6347], [86.2455, 51.6397], [86.2749, 51.654], [86.2771, 51.6493], [86.3052, 51.6507], [86.3039, 51.6658], [86.2832, 51.6666], [86.2865, 51.6948], [86.2816, 51.7127], [86.2564, 51.7339], [86.2605, 51.7661], [86.2561, 51.7724], [86.2693, 51.7901], [86.265, 51.8006], [86.2733, 51.8045], [86.2739, 51.8178], [86.2953, 51.8209], [86.2652, 51.8456], [86.235, 51.8329], [86.2326, 51.8605], [86.2414, 51.8742], [86.2384, 51.8771], [86.1588, 51.8899], [86.1721, 51.9], [86.169, 51.9099], [86.1732, 51.9181], [86.2179, 51.9529], [86.2498, 51.9937], [86.2513, 52.0029], [86.2369, 52.0058], [86.2286, 52.0136], [86.1729, 52.0197], [86.1592, 52.0351], [86.1685, 52.0398], [86.1307, 52.0683], [86.1439, 52.0843], [86.1045, 52.0865], [86.0849, 52.0774], [86.0276, 52.0874], [86.0121, 52.0844], [85.9805, 52.1005], [85.9188, 52.1057], [85.9153, 52.0999], [85.9216, 52.0931], [85.9203, 52.0803], [85.9109, 52.075], [85.9128, 52.0598], [85.8744, 52.058], [85.8517, 52.0634], [85.8285, 52.051], [85.7991, 52.0528], [85.834, 52.0261], [85.8908, 52.0262], [85.8858, 52.0162], [85.8754, 52.0131], [85.8602, 51.9966], [85.8401, 51.9863], [85.8291, 51.9744], [85.8175, 51.9712], [85.8195, 51.9461], [85.8265, 51.9307], [85.837, 51.9217], [85.8574, 51.9144], [85.8659, 51.9061], [85.865, 51.8967], [85.7499, 51.8672], [85.7409, 51.854], [85.7212, 51.845], [85.7349, 51.8315], [85.7708, 51.8291], [85.7773, 51.8202], [85.7437, 51.8068], [85.7368, 51.7986], [85.7434, 51.7816], [85.7028, 51.7325], [85.6899, 51.7281], [85.6877, 51.7188], [85.704, 51.7043], [85.7284, 51.6931], [85.7637, 51.7029], [85.7781, 51.6811], [85.7705, 51.67], [85.7594, 51.6672]], [[85.8819, 51.9804], [85.8923, 51.9823], [85.903, 51.9787], [85.9031, 51.9742], [85.935, 51.9762], [85.9427, 51.9812], [85.9347, 51.9918], [85.9551, 51.9925], [85.9618, 51.9861], [86.0031, 51.9933], [86.0042, 51.9846], [85.9907, 51.9812], [85.9926, 51.9714], [86.0197, 51.9655], [86.0222, 51.9593], [86.0298, 51.9587], [86.0407, 51.9476], [86.0622, 51.9443], [86.0654, 51.9259], [86.0436, 51.9116], [86.0104, 51.9233], [86.0008, 51.9185], [86.0023, 51.9156], [85.9677, 51.9109], [85.9566, 51.9041], [85.9795, 51.8929], [85.9501, 51.8703], [85.909, 51.8799], [85.9014, 51.8936], [85.9055, 51.9153], [85.8887, 51.9194], [85.8947, 51.9338], [85.894, 51.9531], [85.8826, 51.9695], [85.8819, 51.9804]]]}}, {"type": "Feature", "properties": {"osm_type": "relation", "osm_id": 413568668, "name": "Chemalsky Rayon", "admin_level": "6", "kind": "subdivision_2", "parent_osm_id": 145194, "parent_name": "Altai Republic", "parent_iso": "RU-AL"}, "geometry": {"type": "Polygon", "coordinates": [[[85.9943, 51.0525], [86.0237, 51.0223], [86.0351, 51.0173], [86.0587, 51.0138], [86.12, 51.0263], [86.1362, 51.0086], [86.1656, 50.9938], [86.2044, 51.0101], [86.24, 51.002], [86.2569, 50.9924], [86.2721, 50.9696], [86.2882, 50.9591], [86.287, 50.9475], [86.2983, 50.9365], [86.2916, 50.9252], [86.2958, 50.9184], [86.3503, 50.9046], [86.3497, 50.915], [86.374, 50.932], [86.3842, 50.9557], [86.4182, 50.9716], [86.4173, 50.9935], [86.3998, 51.0258], [86.4342, 51.0354], [86.4459, 51.0536], [86.4649, 51.0632], [86.4647, 51.0827], [86.5041, 51.0835], [86.5314, 51.092], [86.5244, 51.0987], [86.5233, 51.1191], [86.5142, 51.1328], [86.52, 51.1402], [86.5104, 51.1536], [86.5168, 51.161], [86.5411, 51.1652], [86.5488, 51.1708], [86.5485, 51.1878], [86.5595, 51.1935], [86.5577, 51.202], [86.5625, 51.2047], [86.5582, 51.2123], [86.5504, 51.2147], [86.5564, 51.2239], [86.5649, 51.2296], [86.5765, 51.2271], [86.6006, 51.2352], [86.6168, 51.2345], [86.6362, 51.2464], [86.6594, 51.2429], [86.6661, 51.2547], [86.6773, 51.2529], [86.6928, 51.258], [86.6927, 51.2761], [86.6838, 51.279], [86.6815, 51.2853], [86.6702, 51.2873], [86.6626, 51.3012], [86.65, 51.3055], [86.6609, 51.315], [86.6376, 51.3595], [86.6228, 51.363], [86.6032, 51.3742], [86.6023, 51.3793], [86.567, 51.3815], [86.5594, 51.4264], [86.5377, 51.4221], [86.4959, 51.4275], [86.4843, 51.4326], [86.4857, 51.4377], [86.48, 51.4408], [86.4561, 51.4452], [86.4472, 51.4385], [86.4088, 51.4402], [86.3996, 51.4601], [86.4037, 51.4666], [86.3969, 51.4945], [86.3881, 51.5054], [86.391, 51.5101], [86.3867, 51.5196], [86.3914, 51.5307], [86.3825, 51.5376], [86.3735, 51.5606], [86.3646, 51.5682], [86.3638, 51.58], [86.3506, 51.6025], [86.3248, 51.617], [86.3194, 51.6275], [86.3057, 51.6309], [86.3086, 51.6419], [86.3052, 51.6507], [86.2771, 51.6493], [86.2749, 51.654], [86.2455, 51.6397], [86.2002, 51.6347], [86.1956, 51.64], [86.1976, 51.6469], [86.1842, 51.6419], [86.1462, 51.6406], [86.1314, 51.6552], [86.1225, 51.6525], [86.11, 51.6711], [86.1026, 51.6715], [86.0936, 51.681], [86.0839, 51.6779], [86.0711, 51.6822], [86.0748, 51.6931], [86.0679, 51.7136], [86.0428, 51.7034], [86.0368, 51.7093], [86.0202, 51.7024], [86.011, 51.7029], [86.0107, 51.7153], [85.9615, 51.7189], [85.9619, 51.6956], [85.9272, 51.6901], [85.909, 51.6778], [85.8812, 51.703], [85.8615, 51.7005], [85.8469, 51.6691], [85.8179, 51.6666], [85.7908, 51.6525], [85.7701, 51.6578], [85.7594, 51.6672], [85.746, 51.6571], [85.7566, 51.6373], [85.7745, 51.6194], [85.8066, 51.6054], [85.8356, 51.5807], [85.8732, 51.5656], [85.8648, 51.5477], [85.8527, 51.544], [85.849, 51.5157], [85.8538, 51.5046], [85.8464, 51.4888], [85.8455, 51.471], [85.7797, 51.4599], [85.7938, 51.4537], [85.7768, 51.4321], [85.8109, 51.424], [85.8521, 51.4065], [85.8816, 51.407], [85.8991, 51.369], [85.9154, 51.3629], [85.9283, 51.3648], [85.9823, 51.3435], [85.957, 51.3059], [85.9395, 51.2994], [85.9529, 51.2862], [85.9781, 51.2335], [85.9347, 51.2083], [85.9203, 51.1945], [85.9167, 51.1802], [85.9201, 51.165], [85.9802, 51.1635], [86.0463, 51.1713], [86.0623, 51.1662], [86.0899, 51.1688], [86.0983, 51.1763], [86.125, 51.1638], [86.1737, 51.1618], [86.1865, 51.1546], [86.1652, 51.1226], [86.1619, 51.1474], [86.132, 51.1267], [86.1113, 51.1191], [86.1051, 51.1111], [86.0912, 51.1116], [86.0635, 51.1], [86.0499, 51.0872], [86.0551, 51.0787], [86.0488, 51.0703], [86.0565, 51.0602], [86.0173, 51.0684], [85.9943, 51.0525]]]}}, {"type": "Feature", "properties": {"osm_type": "relation", "osm_id": 569585171, "name": "Ulagansky Rayon", "admin_level": "6", "kind": "subdivision_2", "parent_osm_id": 145194, "parent_name": "Altai Republic", "parent_iso": "RU-AL"}, "geometry": {"type": "Polygon", "coordinates": [[[89.3596, 50.2706], [89.3903, 50.2864], [89.3933, 50.3048], [89.4017, 50.3063], [89.4066, 50.314], [89.3795, 50.3149], [89.3767, 50.3282], [89.3815, 50.3389], [89.4136, 50.3372], [89.4968, 50.3639], [89.4925, 50.375], [89.5016, 50.3857], [89.4916, 50.3908], [89.4926, 50.3964], [89.4814, 50.3999], [89.4936, 50.4346], [89.4915, 50.4453], [89.5106, 50.4499], [89.5029, 50.4598], [89.5454, 50.4454], [89.5693, 50.4316], [89.5899, 50.4281], [89.5972, 50.4194], [89.6004, 50.3996], [89.6086, 50.3907], [89.6132, 50.3743], [89.6328, 50.3783], [89.6552, 50.3697], [89.6629, 50.3745], [89.6647, 50.385], [89.7073, 50.3841], [89.7188, 50.3923], [89.7231, 50.4031], [89.7358, 50.4093], [89.7867, 50.4198], [89.7945, 50.4145], [89.8189, 50.4112], [89.8293, 50.4352], [89.8479, 50.4416], [89.8593, 50.4552], [89.8556, 50.4629], [89.8656, 50.472], [89.8616, 50.4825], [89.8422, 50.4999], [89.8434, 50.5146], [89.8516, 50.5233], [89.8013, 50.5358], [89.7896, 50.5507], [89.7733, 50.5461], [89.7486, 50.5521], [89.7458, 50.5591], [89.7291, 50.5686], [89.7036, 50.5683], [89.6958, 50.5756], [89.6866, 50.5761], [89.6645, 50.5701], [89.6495, 50.5769], [89.644, 50.5813], [89.6429, 50.5916], [89.6483, 50.5998], [89.6438, 50.613], [89.632, 50.6171], [89.6325, 50.6225], [89.6458, 50.6325], [89.6398, 50.6429], [89.6252, 50.6474], [89.5828, 50.6458], [89.5669, 50.6619], [89.5706, 50.6748], [89.5597, 50.6849], [89.5483, 50.6876], [89.5284, 50.7241], [89.4858, 50.7377], [89.4779, 50.7454], [89.4659, 50.7701], [89.4665, 50.7805], [89.4534, 50.7926], [89.4309, 50.8089], [89.4141, 50.8015], [89.3902, 50.8099], [89.3759, 50.8264], [89.3795, 50.835], [89.3987, 50.8505], [89.3792, 50.8607], [89.3486, 50.8597], [89.3429, 50.8726], [89.3469, 50.8813], [89.3219, 50.8796], [89.2976, 50.8852], [89.2824, 50.8764], [89.2677, 50.8805], [89.268, 50.916], [89.2527, 50.9147], [89.242, 50.9216], [89.2388, 50.9334], [89.2286, 50.9351], [89.2215, 50.9484], [89.2096, 50.9527], [89.1985, 50.9663], [89.1925, 50.983], [89.1741, 50.9867], [89.1671, 50.997], [89.1232, 51.0074], [89.1177, 51.0258], [89.1013, 51.032], [89.101, 51.0375], [89.0542, 51.0471], [89.0616, 51.0582], [89.0519, 51.0647], [89.0541, 51.0823], [89.0334, 51.0991], [89.0223, 51.1025], [89.0289, 51.1124], [89.0395, 51.1125], [89.0487, 51.1196], [89.0392, 51.1308], [89.041, 51.1407], [89.0365, 51.1444], [89.0498, 51.1598], [89.0365, 51.1677], [89.0393, 51.1703], [89.0313, 51.1868], [89.0156, 51.184], [88.9896, 51.1985], [88.9673, 51.2029], [88.9632, 51.2085], [88.9675, 51.2141], [88.9611, 51.2227], [88.9607, 51.2283], [88.9765, 51.2399], [88.9603, 51.2435], [88.9601, 51.2483], [88.9746, 51.2584], [88.967, 51.265], [88.978, 51.2816], [88.9815, 51.304], [88.9912, 51.3084], [88.9898, 51.3185], [88.9977, 51.3215], [88.993, 51.3276], [88.9975, 51.3354], [88.9862, 51.347], [88.9906, 51.354], [88.9865, 51.3646], [89.0031, 51.3684], [89.0089, 51.3943], [88.9709, 51.4291], [88.932, 51.4472], [88.9199, 51.4639], [88.8913, 51.4723], [88.8799, 51.4669], [88.8639, 51.4679], [88.8547, 51.4803], [88.8631, 51.4899], [88.8539, 51.5076], [88.8461, 51.5163], [88.8145, 51.5206], [88.8049, 51.534], [88.7941, 51.5381], [88.7996, 51.547], [88.7915, 51.5538], [88.7729, 51.5503], [88.7631, 51.5614], [88.7518, 51.5564], [88.7541, 51.5486], [88.7504, 51.5454], [88.7322, 51.5455], [88.7103, 51.5348], [88.6786, 51.5374], [88.6581, 51.528], [88.6657, 51.5223], [88.6721, 51.4996], [88.6853, 51.4923], [88.6925, 51.4808], [88.694, 51.4685], [88.683, 51.4603], [88.6806, 51.4444], [88.6938, 51.4404], [88.6965, 51.4265], [88.6924, 51.4222], [88.7009, 51.3909], [88.6878, 51.3856], [88.672, 51.3919], [88.654, 51.3821], [88.6415, 51.3874], [88.6314, 51.3853], [88.6197, 51.3715], [88.6217, 51.3534], [88.5955, 51.3361], [88.5904, 51.3233], [88.5728, 51.32], [88.5548, 51.3253], [88.5104, 51.3001], [88.4694, 51.3065], [88.4611, 51.2942], [88.4455, 51.2851], [88.4216, 51.2872], [88.4035, 51.2992], [88.4014, 51.3081], [88.3734, 51.3108], [88.3485, 51.3223], [88.3253, 51.3245], [88.3151, 51.3444], [88.3024, 51.3404], [88.2691, 51.3519], [88.2427, 51.3502], [88.1873, 51.359], [88.1729, 51.3474], [88.1564, 51.3485], [88.1578, 51.3531], [88.1473, 51.3712], [88.1333, 51.3742], [88.1433, 51.3862], [88.1252, 51.3941], [88.1335, 51.406], [88.1322, 51.4175], [88.1411, 51.4285], [88.119, 51.4306], [88.1063, 51.4439], [88.0958, 51.4442], [88.097, 51.4486], [88.0836, 51.4534], [88.0737, 51.4508], [88.0707, 51.4596], [88.0523, 51.4665], [88.0227, 51.467], [88.0178, 51.4707], [88.0002, 51.4666], [87.9905, 51.4731], [87.9802, 51.4665], [87.9457, 51.4752], [87.9414, 51.4789], [87.9517, 51.4854], [87.9342, 51.5186], [87.9344, 51.5263], [87.9004, 51.5515], [87.8219, 51.551], [87.8061, 51.5422], [87.679, 51.5318], [87.6863, 51.4973], [87.7013, 51.4805], [87.7323, 51.4204], [87.7422, 51.3825], [87.7085, 51.376], [87.6216, 51.378], [87.6099, 51.3711], [87.5542, 51.365], [87.5445, 51.3541], [87.5551, 51.3015], [87.5492, 51.2772], [87.5512, 51.2678], [87.527, 51.2444], [87.5089, 51.2389], [87.5, 51.2308], [87.4288, 51.2577], [87.424, 51.2429], [87.4044, 51.2543], [87.3538, 51.2378], [87.3363, 51.2357], [87.3287, 51.241], [87.3132, 51.2405], [87.3051, 51.2239], [87.2967, 51.2221], [87.2837, 51.2263], [87.2701, 51.2202], [87.2499, 51.2392], [87.2114, 51.2352], [87.1532, 51.2392], [87.1486, 51.2277], [87.129, 51.2232], [87.1337, 51.2157], [87.1433, 51.2121], [87.1419, 51.2035], [87.1485, 51.1947], [87.1388, 51.1843], [87.1454, 51.163], [87.1734, 51.1386], [87.182, 51.1362], [87.1896, 51.1269], [87.1882, 51.1177], [87.2021, 51.1044], [87.2022, 51.0907], [87.1948, 51.0861], [87.2077, 51.0751], [87.2034, 51.057], [87.2102, 51.0461], [87.2286, 51.0403], [87.2516, 51.0249], [87.2472, 51.0092], [87.2622, 50.9872], [87.293, 50.9629], [87.2918, 50.9498], [87.3095, 50.9347], [87.3141, 50.9225], [87.3582, 50.926], [87.3687, 50.9211], [87.358, 50.889], [87.3721, 50.8487], [87.3922, 50.8433], [87.4281, 50.8068], [87.4311, 50.7751], [87.4361, 50.7717], [87.4309, 50.7652], [87.4378, 50.762], [87.4399, 50.7453], [87.4277, 50.7395], [87.4475, 50.7335], [87.4566, 50.7254], [87.4585, 50.7143], [87.467, 50.7075], [87.4661, 50.6897], [87.4821, 50.6825], [87.4799, 50.6655], [87.502, 50.6485], [87.4973, 50.629], [87.4908, 50.6225], [87.4911, 50.6134], [87.48, 50.601], [87.4598, 50.5948], [87.4635, 50.5872], [87.4521, 50.5706], [87.4612, 50.5461], [87.4589, 50.541], [87.4469, 50.5374], [87.4478, 50.5317], [87.4367, 50.5207], [87.4434, 50.5134], [87.4388, 50.5028], [87.4109, 50.5033], [87.4032, 50.4989], [87.3982, 50.4955], [87.3965, 50.4816], [87.4041, 50.4656], [87.4018, 50.4609], [87.3911, 50.4599], [87.3809, 50.4514], [87.3649, 50.4523], [87.3424, 50.4414], [87.3493, 50.4301], [87.3931, 50.406], [87.4131, 50.3693], [87.3864, 50.3694], [87.3691, 50.3518], [87.48, 50.3249], [87.4907, 50.2992], [87.5079, 50.2854], [87.5274, 50.275], [87.5367, 50.2757], [87.5871, 50.2398], [87.6267, 50.2315], [87.6128, 50.2178], [87.5306, 50.1957], [87.5362, 50.1915], [87.5655, 50.187], [87.5836, 50.1987], [87.6359, 50.2113], [87.6572, 50.2082], [87.7002, 50.1802], [87.7545, 50.1852], [87.7602, 50.19], [87.774, 50.1707], [87.7963, 50.1739], [87.8053, 50.1803], [87.8028, 50.1865], [87.7614, 50.1905], [87.7576, 50.2018], [87.7628, 50.2211], [87.7614, 50.2643], [87.8096, 50.3042], [87.7722, 50.3167], [87.7288, 50.3103], [87.7617, 50.3278], [87.7479, 50.3381], [87.751, 50.3424], [87.781, 50.3572], [87.7873, 50.3493], [87.8083, 50.3454], [87.8219, 50.3335], [87.8325, 50.3392], [87.8496, 50.3372], [87.8608, 50.3435], [87.875, 50.341], [87.8827, 50.3353], [87.8801, 50.3299], [87.8862, 50.322], [87.9057, 50.319], [87.9116, 50.3198], [87.9426, 50.3629], [87.9683, 50.3532], [87.9866, 50.3531], [87.9997, 50.3595], [88.0104, 50.3564], [88.0104, 50.3492], [88.0394, 50.3452], [88.035, 50.3361], [88.0462, 50.3285], [88.0459, 50.3204], [88.0507, 50.3182], [88.0347, 50.3079], [88.0554, 50.2841], [88.0757, 50.274], [88.0889, 50.2767], [88.099, 50.266], [88.1579, 50.2531], [88.1734, 50.2441], [88.2234, 50.2378], [88.2403, 50.2319], [88.2457, 50.2247], [88.2888, 50.2176], [88.2956, 50.2099], [88.3185, 50.2109], [88.351, 50.2241], [88.3639, 50.2156], [88.3757, 50.1924], [88.3926, 50.1841], [88.3929, 50.179], [88.3842, 50.175], [88.3998, 50.167], [88.3995, 50.16], [88.4052, 50.155], [88.4237, 50.1472], [88.5234, 50.1318], [88.5417, 50.1457], [88.5783, 50.1481], [88.5916, 50.1423], [88.6107, 50.1489], [88.6173, 50.1404], [88.6567, 50.1307], [88.6692, 50.1148], [88.6838, 50.1233], [88.7116, 50.1226], [88.741, 50.1318], [88.7912, 50.1175], [88.7994, 50.1619], [88.8416, 50.162], [88.8566, 50.1815], [88.8663, 50.1852], [88.8912, 50.1677], [88.9137, 50.1624], [88.9627, 50.1627], [88.983, 50.1564], [88.9899, 50.1468], [89.044, 50.1501], [89.0666, 50.1579], [89.0769, 50.1735], [89.0693, 50.177], [89.0631, 50.1877], [89.0681, 50.2002], [89.0389, 50.2131], [89.0366, 50.2285], [89.0466, 50.2311], [89.0583, 50.2242], [89.0795, 50.224], [89.1033, 50.2167], [89.1171, 50.2267], [89.1311, 50.2224], [89.1462, 50.2253], [89.1596, 50.2146], [89.1592, 50.2094], [89.1763, 50.2022], [89.2278, 50.1985], [89.2446, 50.2019], [89.2477, 50.2076], [89.2429, 50.2187], [89.2296, 50.2259], [89.2347, 50.2356], [89.2583, 50.2466], [89.2809, 50.2497], [89.2991, 50.2719], [89.3208, 50.2815], [89.3417, 50.2833], [89.3596, 50.2706]]]}}, {"type": "Feature", "properties": {"osm_type": "relation", "osm_id": 164551975, "name": "Ongudaysky Rayon", "admin_level": "6", "kind": "subdivision_2", "parent_osm_id": 145194, "parent_name": "Altai Republic", "parent_iso": "RU-AL"}, "geometry": {"type": "Polygon", "coordinates": [[[87.3691, 50.3518], [87.3864, 50.3694], [87.4131, 50.3693], [87.3931, 50.406], [87.3493, 50.4301], [87.3424, 50.4414], [87.3649, 50.4523], [87.3809, 50.4514], [87.3911, 50.4599], [87.4018, 50.4609], [87.4041, 50.4656], [87.3965, 50.4816], [87.3982, 50.4955], [87.4032, 50.4989], [87.4109, 50.5033], [87.4388, 50.5028], [87.4434, 50.5134], [87.4367, 50.5207], [87.4478, 50.5317], [87.4469, 50.5374], [87.4589, 50.541], [87.4612, 50.5461], [87.4521, 50.5706], [87.4635, 50.5872], [87.4598, 50.5948], [87.48, 50.601], [87.4911, 50.6134], [87.4908, 50.6225], [87.4973, 50.629], [87.502, 50.6485], [87.4799, 50.6655], [87.4821, 50.6825], [87.4661, 50.6897], [87.467, 50.7075], [87.4585, 50.7143], [87.4566, 50.7254], [87.4475, 50.7335], [87.4277, 50.7395], [87.4399, 50.7453], [87.4378, 50.762], [87.4309, 50.7652], [87.4361, 50.7717], [87.4311, 50.7751], [87.4281, 50.8068], [87.3922, 50.8433], [87.3721, 50.8487], [87.358, 50.889], [87.3687, 50.9211], [87.3582, 50.926], [87.3141, 50.9225], [87.3095, 50.9347], [87.2918, 50.9498], [87.293, 50.9629], [87.2622, 50.9872], [87.2472, 51.0092], [87.2516, 51.0249], [87.2286, 51.0403], [87.2102, 51.0461], [87.2034, 51.057], [87.2077, 51.0751], [87.1948, 51.0861], [87.2022, 51.0907], [87.2021, 51.1044], [87.1882, 51.1177], [87.1896, 51.1269], [87.182, 51.1362], [87.1734, 51.1386], [87.1454, 51.163], [87.1388, 51.1843], [87.1197, 51.1832], [87.1115, 51.1623], [87.0983, 51.1613], [87.0889, 51.1542], [87.0769, 51.1554], [87.0611, 51.1647], [87.0446, 51.1834], [87.0399, 51.1718], [87.0181, 51.1684], [87.0115, 51.1591], [86.9962, 51.1582], [86.9906, 51.1781], [86.9827, 51.1831], [86.9847, 51.1917], [86.9512, 51.2], [86.9222, 51.1849], [86.9151, 51.163], [86.9058, 51.1586], [86.8889, 51.1635], [86.886, 51.1724], [86.8644, 51.1753], [86.8555, 51.1879], [86.8402, 51.1901], [86.8062, 51.2426], [86.774, 51.2613], [86.7434, 51.2581], [86.7408, 51.2617], [86.7451, 51.2679], [86.7303, 51.2876], [86.7015, 51.2806], [86.6927, 51.2761], [86.6928, 51.258], [86.6773, 51.2529], [86.6661, 51.2547], [86.6594, 51.2429], [86.6362, 51.2464], [86.6168, 51.2345], [86.6006, 51.2352], [86.5765, 51.2271], [86.5649, 51.2296], [86.5564, 51.2239], [86.5504, 51.2147], [86.5582, 51.2123], [86.5625, 51.2047], [86.5577, 51.202], [86.5595, 51.1935], [86.5485, 51.1878], [86.5488, 51.1708], [86.5411, 51.1652], [86.5168, 51.161], [86.5104, 51.1536], [86.52, 51.1402], [86.5142, 51.1328], [86.5233, 51.1191], [86.5244, 51.0987], [86.5314, 51.092], [86.5041, 51.0835], [86.4647, 51.0827], [86.4649, 51.0632], [86.4459, 51.0536], [86.4342, 51.0354], [86.3998, 51.0258], [86.4173, 50.9935], [86.4182, 50.9716], [86.3842, 50.9557], [86.374, 50.932], [86.3497, 50.915], [86.3503, 50.9046], [86.2958, 50.9184], [86.2916, 50.9252], [86.2983, 50.9365], [86.287, 50.9475], [86.2882, 50.9591], [86.2721, 50.9696], [86.2569, 50.9924], [86.24, 51.002], [86.2044, 51.0101], [86.1656, 50.9938], [86.1362, 51.0086], [86.12, 51.0263], [86.0587, 51.0138], [86.0351, 51.0173], [86.0237, 51.0223], [85.9943, 51.0525], [85.9891, 51.0369], [85.9699, 51.0392], [85.9612, 51.0418], [85.9474, 51.0632], [85.9061, 51.0764], [85.9064, 51.0924], [85.8977, 51.1091], [85.8668, 51.1382], [85.8022, 51.1469], [85.78, 51.0895], [85.7351, 51.0774], [85.6986, 51.0971], [85.69, 51.0836], [85.6837, 51.0829], [85.62, 51.0979], [85.5963, 51.094], [85.5795, 51.0978], [85.573, 51.0952], [85.5771, 51.0897], [85.5647, 51.0772], [85.5568, 51.0591], [85.5462, 51.0586], [85.5188, 51.0746], [85.501, 51.0691], [85.4536, 51.0393], [85.4418, 51.0373], [85.4334, 51.0257], [85.4142, 51.0253], [85.4078, 50.9948], [85.4115, 50.9887], [85.4031, 50.9733], [85.4202, 50.9693], [85.4165, 50.9601], [85.3618, 50.9617], [85.3073, 50.9984], [85.3072, 51.0128], [85.2867, 51.0006], [85.3009, 50.9917], [85.2882, 50.9642], [85.2404, 50.9588], [85.2564, 50.9418], [85.2773, 50.9356], [85.2854, 50.9218], [85.2725, 50.9111], [85.2913, 50.9037], [85.3004, 50.8761], [85.3018, 50.8549], [85.275, 50.8547], [85.2696, 50.8481], [85.277, 50.8209], [85.2866, 50.8057], [85.2641, 50.7599], [85.2982, 50.7706], [85.3248, 50.7646], [85.3273, 50.7692], [85.3421, 50.7548], [85.2907, 50.7354], [85.2803, 50.7097], [85.3215, 50.711], [85.3491, 50.6998], [85.3789, 50.6937], [85.3892, 50.6965], [85.3769, 50.6762], [85.3936, 50.6188], [85.4044, 50.5905], [85.41, 50.5885], [85.4089, 50.5823], [85.4056, 50.5832], [85.413, 50.5718], [85.4059, 50.5539], [85.4107, 50.546], [85.4027, 50.5418], [85.403, 50.5361], [85.4104, 50.5369], [85.4123, 50.533], [85.4054, 50.5185], [85.4677, 50.5279], [85.5111, 50.5241], [85.5417, 50.5332], [85.5605, 50.5238], [85.5766, 50.5398], [85.5958, 50.5705], [85.6846, 50.5685], [85.6903, 50.5547], [85.6677, 50.4826], [85.7336, 50.4474], [85.7845, 50.4526], [85.8078, 50.4245], [85.8902, 50.4682], [85.9998, 50.4838], [86.0494, 50.4402], [86.0948, 50.4119], [86.1302, 50.4056], [86.1645, 50.4096], [86.1963, 50.4058], [86.3078, 50.3307], [86.3389, 50.3329], [86.6795, 50.2363], [86.6924, 50.236], [86.7012, 50.2237], [86.7193, 50.2383], [86.7765, 50.1947], [86.8384, 50.2335], [86.873, 50.252], [86.8856, 50.2531], [86.8911, 50.2611], [86.9567, 50.2782], [86.9602, 50.286], [86.9771, 50.2904], [87.0784, 50.2543], [87.0952, 50.2369], [87.122, 50.2348], [87.1337, 50.2429], [87.1202, 50.2491], [87.1056, 50.2615], [87.1011, 50.2718], [87.074, 50.2891], [87.0989, 50.2984], [87.1083, 50.3292], [87.1426, 50.3294], [87.1528, 50.3175], [87.1919, 50.3217], [87.2287, 50.3341], [87.2465, 50.3309], [87.2381, 50.3507], [87.2821, 50.3642], [87.3399, 50.3559], [87.3613, 50.359], [87.3691, 50.3518]]]}}, {"type": "Feature", "properties": {"osm_type": "relation", "osm_id": 576625129, "name": "Choysky District", "admin_level": "6", "kind": "subdivision_2", "parent_osm_id": 145194, "parent_name": "Altai Republic", "parent_iso": "RU-AL"}, "geometry": {"type": "Polygon", "coordinates": [[[86.6488, 52.1057], [86.5669, 52.1083], [86.5302, 52.1187], [86.523, 52.1157], [86.492, 52.1296], [86.4564, 52.1284], [86.456, 52.1174], [86.4417, 52.1118], [86.4543, 52.1017], [86.4512, 52.0941], [86.4423, 52.0945], [86.4542, 52.0845], [86.4526, 52.0742], [86.417, 52.0654], [86.404, 52.0506], [86.403, 52.0362], [86.3957, 52.0332], [86.3767, 52.0395], [86.3476, 52.0352], [86.2939, 52.0382], [86.2814, 52.045], [86.2585, 52.0395], [86.2418, 52.0422], [86.2291, 52.0101], [86.2513, 52.0029], [86.2498, 51.9937], [86.2179, 51.9529], [86.1732, 51.9181], [86.169, 51.9099], [86.1721, 51.9], [86.1588, 51.8899], [86.2384, 51.8771], [86.2414, 51.8742], [86.2326, 51.8605], [86.235, 51.8329], [86.2652, 51.8456], [86.2953, 51.8209], [86.2739, 51.8178], [86.2733, 51.8045], [86.265, 51.8006], [86.2693, 51.7901], [86.2561, 51.7724], [86.2605, 51.7661], [86.2564, 51.7339], [86.2816, 51.7127], [86.2865, 51.6948], [86.2832, 51.6666], [86.3039, 51.6658], [86.3086, 51.6419], [86.3057, 51.6309], [86.3194, 51.6275], [86.3248, 51.617], [86.3506, 51.6025], [86.3638, 51.58], [86.3646, 51.5682], [86.3735, 51.5606], [86.3825, 51.5376], [86.3914, 51.5307], [86.3867, 51.5196], [86.391, 51.5101], [86.3881, 51.5054], [86.3969, 51.4945], [86.4037, 51.4666], [86.3996, 51.4601], [86.4088, 51.4402], [86.4472, 51.4385], [86.4561, 51.4452], [86.48, 51.4408], [86.4857, 51.4377], [86.4843, 51.4326], [86.4959, 51.4275], [86.5377, 51.4221], [86.5594, 51.4264], [86.567, 51.3815], [86.6023, 51.3793], [86.6032, 51.3742], [86.6228, 51.363], [86.6376, 51.3595], [86.6609, 51.315], [86.65, 51.3055], [86.6626, 51.3012], [86.6702, 51.2873], [86.6815, 51.2853], [86.6838, 51.279], [86.6927, 51.2761], [86.7303, 51.2876], [86.7451, 51.2679], [86.7408, 51.2617], [86.7434, 51.2581], [86.774, 51.2613], [86.8062, 51.2426], [86.8402, 51.1901], [86.8555, 51.1879], [86.8644, 51.1753], [86.886, 51.1724], [86.8889, 51.1635], [86.9058, 51.1586], [86.9151, 51.163], [86.9222, 51.1849], [86.9512, 51.2], [86.9847, 51.1917], [86.9827, 51.1831], [86.9906, 51.1781], [86.9962, 51.1582], [87.0115, 51.1591], [87.0181, 51.1684], [87.0399, 51.1718], [87.0446, 51.1834], [87.0611, 51.1647], [87.0769, 51.1554], [87.0889, 51.1542], [87.0983, 51.1613], [87.1115, 51.1623], [87.1197, 51.1832], [87.1388, 51.1843], [87.1485, 51.1947], [87.1419, 51.2035], [87.1433, 51.2121], [87.1337, 51.2157], [87.129, 51.2232], [87.1486, 51.2277], [87.1532, 51.2392], [87.1412, 51.26], [87.1615, 51.2675], [87.1682, 51.2841], [87.1618, 51.322], [87.1422, 51.3442], [87.1264, 51.3488], [87.1311, 51.3722], [87.1183, 51.3922], [87.0935, 51.4059], [87.1106, 51.4157], [87.0929, 51.4255], [87.0953, 51.4395], [87.0875, 51.4495], [87.0446, 51.4593], [87.0298, 51.4691], [87.0144, 51.493], [87.0029, 51.494], [86.9924, 51.5082], [86.9722, 51.5176], [86.9544, 51.5465], [86.9702, 51.5638], [86.9713, 51.5777], [86.9808, 51.5864], [86.9616, 51.5955], [86.9695, 51.6061], [86.9667, 51.6192], [87.0009, 51.6379], [87.0066, 51.6456], [87.002, 51.6556], [87.0192, 51.6669], [87.0145, 51.6734], [87.0339, 51.6906], [87.002, 51.7225], [87.0116, 51.7278], [87.0015, 51.7479], [87.0066, 51.7633], [87.0197, 51.776], [86.9591, 51.8433], [86.9609, 51.8712], [86.9492, 51.8807], [86.9597, 51.8869], [86.9715, 51.8859], [86.9721, 51.8903], [87.0331, 51.8979], [86.9999, 51.91], [86.981, 51.9294], [86.9823, 51.9363], [86.9751, 51.9455], [86.9723, 51.9618], [86.9767, 51.9688], [86.996, 51.9749], [86.9982, 51.9801], [87.0248, 51.9888], [87.0186, 52.0042], [87.0093, 52.0091], [86.9955, 52.0085], [86.9915, 52.0192], [86.9944, 52.0298], [87.0086, 52.0366], [87.0203, 52.0564], [87.0135, 52.0676], [87.0397, 52.0804], [87.044, 52.0971], [87.0296, 52.0956], [87.0143, 52.1023], [87.0095, 52.1139], [86.9967, 52.1105], [86.9949, 52.1239], [86.9868, 52.1276], [86.9489, 52.1351], [86.9323, 52.1323], [86.9314, 52.1261], [86.9185, 52.1182], [86.9049, 52.1218], [86.882, 52.1138], [86.8046, 52.1292], [86.7879, 52.1285], [86.7319, 52.0949], [86.6488, 52.1057]]]}}, {"type": "Feature", "properties": {"osm_type": "relation", "osm_id": 967232026, "name": "Ust-Koksinsky Rayon", "admin_level": "6", "kind": "subdivision_2", "parent_osm_id": 145194, "parent_name": "Altai Republic", "parent_iso": "RU-AL"}, "geometry": {"type": "Polygon", "coordinates": [[[86.7012, 50.2237], [86.6924, 50.236], [86.6795, 50.2363], [86.3389, 50.3329], [86.3078, 50.3307], [86.1963, 50.4058], [86.1645, 50.4096], [86.1302, 50.4056], [86.0948, 50.4119], [86.0494, 50.4402], [85.9998, 50.4838], [85.8902, 50.4682], [85.8078, 50.4245], [85.7845, 50.4526], [85.7336, 50.4474], [85.6677, 50.4826], [85.6903, 50.5547], [85.6846, 50.5685], [85.5958, 50.5705], [85.5766, 50.5398], [85.5605, 50.5238], [85.5417, 50.5332], [85.5111, 50.5241], [85.4677, 50.5279], [85.4054, 50.5185], [85.4123, 50.533], [85.4104, 50.5369], [85.403, 50.5361], [85.4027, 50.5418], [85.4107, 50.546], [85.4059, 50.5539], [85.413, 50.5718], [85.4056, 50.5832], [85.4089, 50.5823], [85.41, 50.5885], [85.4044, 50.5905], [85.3936, 50.6188], [85.3769, 50.6762], [85.3892, 50.6965], [85.3789, 50.6937], [85.3491, 50.6998], [85.3215, 50.711], [85.2803, 50.7097], [85.2604, 50.6958], [85.2527, 50.7023], [85.2065, 50.7017], [85.2204, 50.6867], [85.2054, 50.6687], [85.1476, 50.6509], [85.1248, 50.6368], [85.0989, 50.631], [84.9988, 50.6485], [84.975, 50.6616], [84.9169, 50.6672], [84.879, 50.6489], [84.8716, 50.65], [84.8739, 50.6287], [84.8909, 50.6159], [84.8695, 50.592], [84.8415, 50.5707], [84.807, 50.5746], [84.7978, 50.5678], [84.834, 50.5586], [84.885, 50.5291], [84.9028, 50.5248], [84.9158, 50.5296], [84.9463, 50.4965], [84.9111, 50.4823], [84.8897, 50.4884], [84.8475, 50.4844], [84.81, 50.4902], [84.7918, 50.4964], [84.7713, 50.5176], [84.7236, 50.5187], [84.714, 50.5299], [84.7452, 50.5511], [84.6831, 50.5617], [84.6666, 50.5978], [84.6454, 50.6047], [84.6154, 50.5814], [84.5999, 50.5786], [84.5979, 50.5641], [84.5994, 50.5485], [84.605, 50.5446], [84.598, 50.5332], [84.6004, 50.5254], [84.6153, 50.5272], [84.6279, 50.5395], [84.6519, 50.5481], [84.6464, 50.5421], [84.6505, 50.5344], [84.641, 50.5193], [84.6102, 50.5028], [84.6129, 50.4887], [84.6095, 50.4856], [84.5907, 50.4896], [84.5809, 50.498], [84.586, 50.5026], [84.579, 50.5014], [84.5759, 50.5057], [84.5484, 50.5038], [84.5453, 50.5001], [84.5296, 50.5024], [84.5305, 50.4977], [84.5193, 50.4944], [84.519, 50.4384], [84.4664, 50.3652], [84.4769, 50.2388], [84.5028, 50.2315], [84.5158, 50.2151], [84.5303, 50.206], [84.5414, 50.2074], [84.5675, 50.1968], [84.5812, 50.2081], [84.6282, 50.2107], [84.6585, 50.1998], [84.6627, 50.1937], [84.692, 50.1886], [84.6995, 50.1778], [84.7272, 50.1642], [84.7324, 50.1537], [84.7577, 50.1369], [84.8052, 50.1472], [84.8254, 50.143], [84.8134, 50.1362], [84.8139, 50.1208], [84.8326, 50.1143], [84.8335, 50.1051], [84.8507, 50.0939], [84.8728, 50.096], [84.8768, 50.1021], [84.8866, 50.1042], [84.924, 50.0922], [84.9458, 50.0966], [84.9748, 50.067], [85.0062, 50.0582], [85.0241, 50.0602], [85.0261, 50.0541], [85.0355, 50.0525], [85.0395, 50.0484], [85.0335, 50.0418], [85.0354, 50.0189], [85.0493, 50.0104], [85.0378, 50.0091], [85.0322, 49.9991], [84.9935, 49.9888], [84.978, 49.9763], [84.9947, 49.9701], [84.9729, 49.9543], [84.9849, 49.9499], [84.9781, 49.9425], [84.9871, 49.9234], [84.9855, 49.9068], [85.0233, 49.8911], [85.0597, 49.885], [85.0846, 49.8602], [85.1004, 49.8521], [85.1055, 49.8431], [85.1016, 49.8242], [85.1213, 49.818], [85.1356, 49.8003], [85.1446, 49.7964], [85.1395, 49.7854], [85.1487, 49.7679], [85.1657, 49.7691], [85.1753, 49.7546], [85.2034, 49.7453], [85.1986, 49.7372], [85.2155, 49.7185], [85.2068, 49.7154], [85.2055, 49.7099], [85.2149, 49.6891], [85.2141, 49.6753], [85.2083, 49.6728], [85.2101, 49.6618], [85.2036, 49.6574], [85.2053, 49.6481], [85.2163, 49.637], [85.2101, 49.6271], [85.2545, 49.6273], [85.2647, 49.6198], [85.255, 49.604], [85.2575, 49.5885], [85.3213, 49.5908], [85.3884, 49.6348], [85.4902, 49.5981], [85.5533, 49.5944], [85.5899, 49.6144], [85.6216, 49.6009], [85.6272, 49.5778], [85.6777, 49.5504], [85.6939, 49.5641], [85.7569, 49.5772], [85.8099, 49.5659], [85.8055, 49.5574], [85.816, 49.547], [85.8262, 49.5443], [85.8837, 49.5669], [85.8902, 49.562], [85.9173, 49.5652], [85.9279, 49.5588], [85.9443, 49.5613], [85.9494, 49.5538], [85.9294, 49.5359], [85.969, 49.4871], [85.9865, 49.4889], [86.0245, 49.5037], [86.0328, 49.5081], [86.0372, 49.5218], [86.1129, 49.5244], [86.1663, 49.5033], [86.1739, 49.479], [86.202, 49.4661], [86.2172, 49.4778], [86.2283, 49.4952], [86.2394, 49.5254], [86.267, 49.5465], [86.2662, 49.5686], [86.2716, 49.5827], [86.2866, 49.5918], [86.3159, 49.5993], [86.3314, 49.5932], [86.3618, 49.5924], [86.42, 49.6076], [86.4286, 49.6294], [86.4563, 49.6383], [86.4885, 49.6579], [86.5084, 49.6782], [86.5092, 49.691], [86.5823, 49.7241], [86.5784, 49.7339], [86.6024, 49.744], [86.6106, 49.772], [86.603, 49.7799], [86.6048, 49.7843], [86.5956, 49.7906], [86.5891, 49.8089], [86.6036, 49.8262], [86.6124, 49.8296], [86.6034, 49.8408], [86.6096, 49.8497], [86.6067, 49.8541], [86.6201, 49.8589], [86.6128, 49.8703], [86.6207, 49.8753], [86.6219, 49.8824], [86.654, 49.8761], [86.6663, 49.8879], [86.6535, 49.9084], [86.6567, 49.9229], [86.6514, 49.9272], [86.6521, 49.9432], [86.6371, 49.9524], [86.6237, 49.9713], [86.6269, 49.9867], [86.6153, 50.0109], [86.6794, 50.0702], [86.6954, 50.0655], [86.7132, 50.0848], [86.7157, 50.1], [86.7035, 50.1214], [86.6901, 50.1227], [86.6841, 50.129], [86.6934, 50.136], [86.6945, 50.1438], [86.6773, 50.1486], [86.6624, 50.1693], [86.669, 50.1971], [86.7012, 50.2237]]]}}]}