{"type": "FeatureCollection", "parent": {"osm_id": 1592819, "name": "Tangier-Tetouan-Al Hoceima", "admin_level": "4", "kind": "subdivision_1", "child_kind": "subdivision_2", "iso": "MA-01"}, "features": [{"type": "Feature", "properties": {"osm_type": "relation", "osm_id": 207671507, "name": "Chefchaouen Province", "admin_level": "6", "kind": "subdivision_2", "parent_osm_id": 1592819, "parent_name": "Tangier-Tetouan-Al Hoceima", "parent_iso": "MA-01"}, "geometry": {"type": "Polygon", "coordinates": [[[-5.4905, 35.2501], [-5.4967, 35.2286], [-5.5467, 35.2082], [-5.5393, 35.1846], [-5.5359, 35.1325], [-5.5153, 35.1224], [-5.5341, 35.1068], [-5.5247, 35.0907], [-5.5308, 35.0806], [-5.4909, 35.0387], [-5.4937, 35.0243], [-5.4575, 35.0429], [-5.4501, 35.0336], [-5.4224, 35.0224], [-5.3962, 35.0268], [-5.3763, 35.0238], [-5.3626, 35.0144], [-5.3526, 34.9961], [-5.3449, 34.9956], [-5.322, 34.9799], [-5.2729, 34.9363], [-5.229, 34.9091], [-5.2285, 34.9043], [-5.2116, 34.8933], [-5.2145, 34.8869], [-5.2009, 34.8766], [-5.2017, 34.8714], [-5.1961, 34.8725], [-5.1993, 34.8623], [-5.1955, 34.8608], [-5.1996, 34.8607], [-5.1917, 34.8509], [-5.196, 34.8472], [-5.1913, 34.8454], [-5.1912, 34.8361], [-5.1825, 34.832], [-5.184, 34.8207], [-5.1698, 34.7858], [-5.1449, 34.7653], [-5.1246, 34.7674], [-5.1121, 34.7763], [-5.0902, 34.7798], [-5.0839, 34.7746], [-5.08, 34.7824], [-5.0208, 34.8008], [-5.0148, 34.7978], [-5.0174, 34.7915], [-4.9874, 34.7936], [-4.9778, 34.7903], [-4.9509, 34.8077], [-4.9211, 34.8145], [-4.8849, 34.8333], [-4.8749, 34.8256], [-4.863, 34.8252], [-4.807, 34.835], [-4.7906, 34.8428], [-4.7917, 34.8619], [-4.7766, 34.852], [-4.7694, 34.8546], [-4.7497, 34.9002], [-4.7368, 34.899], [-4.7274, 34.9081], [-4.6881, 34.9115], [-4.6922, 34.9364], [-4.6882, 34.9401], [-4.6817, 34.9363], [-4.6559, 34.9598], [-4.6374, 34.9467], [-4.6099, 34.947], [-4.5815, 34.9533], [-4.5651, 34.9621], [-4.5297, 34.9948], [-4.5145, 35.0016], [-4.4899, 35.03], [-4.4704, 35.0793], [-4.4942, 35.083], [-4.4829, 35.1147], [-4.4676, 35.1365], [-4.4835, 35.1461], [-4.4677, 35.1653], [-4.4747, 35.1698], [-4.4921, 35.176], [-4.5199, 35.1752], [-4.5919, 35.1917], [-4.603, 35.1876], [-4.615, 35.1895], [-4.6337, 35.197], [-4.6487, 35.214], [-4.6773, 35.2047], [-4.7811, 35.2373], [-4.7941, 35.2504], [-4.8296, 35.2663], [-4.8679, 35.3019], [-4.897, 35.3049], [-4.927, 35.3182], [-4.9404, 35.3359], [-5.0045, 35.3889], [-5.0163, 35.4034], [-5.0297, 35.3994], [-5.0579, 35.4051], [-5.0803, 35.4352], [-5.0798, 35.4279], [-5.0889, 35.4233], [-5.0943, 35.4279], [-5.0909, 35.4323], [-5.102, 35.4331], [-5.1048, 35.4236], [-5.1254, 35.4179], [-5.123, 35.4091], [-5.1305, 35.4075], [-5.1385, 35.3952], [-5.1596, 35.3909], [-5.1597, 35.3853], [-5.1469, 35.3783], [-5.1605, 35.3725], [-5.1736, 35.3733], [-5.1793, 35.3591], [-5.176, 35.3559], [-5.1872, 35.3518], [-5.1926, 35.3345], [-5.1902, 35.3277], [-5.2042, 35.3118], [-5.2021, 35.298], [-5.2145, 35.2982], [-5.2159, 35.2831], [-5.2048, 35.2622], [-5.2269, 35.252], [-5.2526, 35.2249], [-5.2691, 35.2217], [-5.3008, 35.2245], [-5.3257, 35.2388], [-5.3251, 35.2327], [-5.3466, 35.2347], [-5.35, 35.2231], [-5.3587, 35.2246], [-5.3995, 35.2105], [-5.4387, 35.2064], [-5.4424, 35.2375], [-5.4698, 35.2588], [-5.4905, 35.2501]]]}}, {"type": "Feature", "properties": {"osm_type": "relation", "osm_id": 747282961, "name": "Préfecture de M'diq-Fnideq عمالة المضيق الفنيدق", "admin_level": "6", "kind": "subdivision_2", "parent_osm_id": 1592819, "parent_name": "Tangier-Tetouan-Al Hoceima", "parent_iso": "MA-01"}, "geometry": {"type": "Polygon", "coordinates": [[[-5.4223, 35.9096], [-5.4194, 35.8974], [-5.4035, 35.8908], [-5.4057, 35.881], [-5.3994, 35.86], [-5.3771, 35.8438], [-5.4008, 35.8117], [-5.399, 35.8053], [-5.4048, 35.7937], [-5.4228, 35.7882], [-5.4502, 35.7922], [-5.4583, 35.7852], [-5.4564, 35.7454], [-5.4506, 35.7405], [-5.4554, 35.6967], [-5.4505, 35.6961], [-5.4424, 35.6696], [-5.4323, 35.661], [-5.4327, 35.6647], [-5.4015, 35.6653], [-5.3863, 35.6716], [-5.37, 35.6689], [-5.3655, 35.6789], [-5.3214, 35.6724], [-5.3193, 35.655], [-5.3348, 35.6055], [-5.3178, 35.6065], [-5.3052, 35.5963], [-5.2965, 35.6055], [-5.2664, 35.6071], [-5.2843, 35.666], [-5.2733, 35.6865], [-5.3189, 35.683], [-5.3323, 35.7073], [-5.3339, 35.7213], [-5.338, 35.7192], [-5.3348, 35.7205], [-5.3429, 35.7559], [-5.3381, 35.7509], [-5.3438, 35.7577], [-5.3477, 35.7776], [-5.3536, 35.8417], [-5.3434, 35.8709], [-5.3717, 35.8818], [-5.3798, 35.9107], [-5.3944, 35.9095], [-5.4014, 35.9224], [-5.4129, 35.9116], [-5.4223, 35.9096]]]}}, {"type": "Feature", "properties": {"osm_type": "relation", "osm_id": 905747067, "name": "Province d'Ouezzane إقليم وزان", "admin_level": "6", "kind": "subdivision_2", "parent_osm_id": 1592819, "parent_name": "Tangier-Tetouan-Al Hoceima", "parent_iso": "MA-01"}, "geometry": {"type": "Polygon", "coordinates": [[[-5.7909, 34.8352], [-5.7841, 34.825], [-5.788, 34.7936], [-5.7816, 34.7779], [-5.7949, 34.7508], [-5.7762, 34.7348], [-5.7606, 34.7369], [-5.7442, 34.7266], [-5.7285, 34.7305], [-5.7193, 34.7271], [-5.7171, 34.7204], [-5.7106, 34.7186], [-5.7146, 34.7047], [-5.7051, 34.7113], [-5.6825, 34.7127], [-5.6683, 34.7264], [-5.6666, 34.7344], [-5.6442, 34.7401], [-5.6293, 34.7363], [-5.6343, 34.726], [-5.6047, 34.7226], [-5.6035, 34.7166], [-5.5901, 34.7216], [-5.5796, 34.7078], [-5.5758, 34.6933], [-5.5518, 34.6936], [-5.5521, 34.6679], [-5.5408, 34.6681], [-5.5284, 34.6386], [-5.5057, 34.6446], [-5.4893, 34.6313], [-5.4615, 34.6284], [-5.4569, 34.6223], [-5.4448, 34.6236], [-5.422, 34.6083], [-5.4127, 34.5867], [-5.4294, 34.5736], [-5.4344, 34.5606], [-5.4293, 34.5504], [-5.4306, 34.5404], [-5.4089, 34.5336], [-5.3949, 34.5219], [-5.387, 34.5227], [-5.3925, 34.5353], [-5.3894, 34.5371], [-5.3439, 34.5273], [-5.3152, 34.5159], [-5.2808, 34.5148], [-5.2562, 34.5325], [-5.2671, 34.5421], [-5.2586, 34.556], [-5.1977, 34.5584], [-5.1814, 34.5904], [-5.1962, 34.5973], [-5.1821, 34.6069], [-5.1806, 34.6143], [-5.1831, 34.6592], [-5.1887, 34.6697], [-5.1808, 34.6926], [-5.1852, 34.72], [-5.1811, 34.739], [-5.1449, 34.7653], [-5.1698, 34.7858], [-5.184, 34.8207], [-5.1825, 34.832], [-5.1912, 34.8361], [-5.1913, 34.8454], [-5.196, 34.8472], [-5.1917, 34.8509], [-5.1996, 34.8607], [-5.1955, 34.8608], [-5.1993, 34.8623], [-5.1961, 34.8725], [-5.2017, 34.8714], [-5.2009, 34.8766], [-5.2145, 34.8869], [-5.2116, 34.8933], [-5.2285, 34.9043], [-5.229, 34.9091], [-5.2729, 34.9363], [-5.322, 34.9799], [-5.3449, 34.9956], [-5.3526, 34.9961], [-5.3592, 35.011], [-5.3763, 35.0238], [-5.4098, 35.027], [-5.4224, 35.0224], [-5.4501, 35.0336], [-5.4575, 35.0429], [-5.5001, 35.0199], [-5.5008, 35.0059], [-5.5332, 34.9893], [-5.5492, 34.9976], [-5.5495, 35.0074], [-5.5537, 35.0094], [-5.5641, 35.007], [-5.5656, 34.9965], [-5.5826, 35.0009], [-5.5855, 35.0058], [-5.5737, 35.0156], [-5.5787, 35.0205], [-5.603, 35.0255], [-5.6074, 35.0219], [-5.6059, 35.0146], [-5.6159, 35.0124], [-5.6323, 35.0374], [-5.6413, 35.012], [-5.636, 34.9933], [-5.6788, 34.9853], [-5.6865, 34.9792], [-5.6884, 34.9656], [-5.6994, 34.9602], [-5.7047, 34.9419], [-5.732, 34.9281], [-5.756, 34.9247], [-5.7698, 34.9356], [-5.7757, 34.9246], [-5.7813, 34.9279], [-5.7912, 34.8875], [-5.7849, 34.8778], [-5.7745, 34.8741], [-5.7844, 34.8528], [-5.791, 34.8507], [-5.7864, 34.8406], [-5.7909, 34.8352]]]}}, {"type": "Feature", "properties": {"osm_type": "relation", "osm_id": 561455206, "name": "Fahs-Anjra Province", "admin_level": "6", "kind": "subdivision_2", "parent_osm_id": 1592819, "parent_name": "Tangier-Tetouan-Al Hoceima", "parent_iso": "MA-01"}, "geometry": {"type": "Polygon", "coordinates": [[[-5.4223, 35.9096], [-5.4381, 35.9098], [-5.4437, 35.9041], [-5.458, 35.9146], [-5.4652, 35.9144], [-5.4745, 35.9061], [-5.4831, 35.9084], [-5.4921, 35.8973], [-5.4875, 35.8983], [-5.5002, 35.8875], [-5.5046, 35.8907], [-5.4942, 35.9003], [-5.5038, 35.8944], [-5.5082, 35.8839], [-5.5191, 35.882], [-5.5141, 35.8812], [-5.5182, 35.8769], [-5.5225, 35.8783], [-5.5223, 35.8842], [-5.5261, 35.8804], [-5.5202, 35.8741], [-5.5379, 35.8642], [-5.541, 35.8558], [-5.5464, 35.8612], [-5.5392, 35.8745], [-5.5476, 35.8605], [-5.5423, 35.8528], [-5.556, 35.8444], [-5.5621, 35.8484], [-5.5752, 35.8394], [-5.5773, 35.842], [-5.5704, 35.8465], [-5.5777, 35.8423], [-5.5761, 35.8384], [-5.589, 35.8329], [-5.6043, 35.83], [-5.6278, 35.8354], [-5.6551, 35.8277], [-5.6898, 35.8383], [-5.7074, 35.8295], [-5.7189, 35.8309], [-5.7231, 35.8244], [-5.7364, 35.8206], [-5.7348, 35.8162], [-5.7417, 35.8074], [-5.7375, 35.8011], [-5.749, 35.7648], [-5.7462, 35.7555], [-5.7664, 35.7341], [-5.768, 35.7187], [-5.7544, 35.7002], [-5.7288, 35.7007], [-5.7226, 35.6873], [-5.7282, 35.6781], [-5.7158, 35.649], [-5.7208, 35.6394], [-5.7146, 35.6142], [-5.6596, 35.5894], [-5.5873, 35.6211], [-5.5754, 35.6225], [-5.5681, 35.6272], [-5.5697, 35.6444], [-5.5503, 35.6456], [-5.5339, 35.6347], [-5.5191, 35.6332], [-5.5003, 35.623], [-5.4965, 35.6495], [-5.5032, 35.6592], [-5.4952, 35.6764], [-5.4743, 35.6814], [-5.4612, 35.6962], [-5.4554, 35.6967], [-5.4506, 35.7405], [-5.4564, 35.7454], [-5.4583, 35.7852], [-5.4502, 35.7922], [-5.4228, 35.7882], [-5.4048, 35.7937], [-5.399, 35.8053], [-5.4008, 35.8117], [-5.3771, 35.8438], [-5.3994, 35.86], [-5.4057, 35.881], [-5.4035, 35.8908], [-5.4194, 35.8974], [-5.4223, 35.9096]]]}}, {"type": "Feature", "properties": {"osm_type": "relation", "osm_id": 412458708, "name": "Larache Province", "admin_level": "6", "kind": "subdivision_2", "parent_osm_id": 1592819, "parent_name": "Tangier-Tetouan-Al Hoceima", "parent_iso": "MA-01"}, "geometry": {"type": "Polygon", "coordinates": [[[-5.7813, 34.9279], [-5.7757, 34.9246], [-5.7698, 34.9356], [-5.756, 34.9247], [-5.732, 34.9281], [-5.7047, 34.9419], [-5.6994, 34.9602], [-5.6884, 34.9656], [-5.6865, 34.9792], [-5.6788, 34.9853], [-5.636, 34.9933], [-5.6413, 35.012], [-5.6323, 35.0374], [-5.6159, 35.0124], [-5.6059, 35.0146], [-5.6074, 35.0219], [-5.603, 35.0255], [-5.5787, 35.0205], [-5.5737, 35.0156], [-5.5855, 35.0058], [-5.5769, 34.998], [-5.5656, 34.9965], [-5.5641, 35.007], [-5.5537, 35.0094], [-5.5495, 35.0074], [-5.5492, 34.9976], [-5.5332, 34.9893], [-5.4991, 35.0076], [-5.5001, 35.0199], [-5.4937, 35.0243], [-5.4898, 35.0362], [-5.5308, 35.0806], [-5.5247, 35.0907], [-5.5341, 35.1068], [-5.5153, 35.1224], [-5.5359, 35.1325], [-5.5393, 35.1846], [-5.5467, 35.2082], [-5.4967, 35.2286], [-5.4875, 35.2643], [-5.459, 35.2981], [-5.4683, 35.3234], [-5.4808, 35.34], [-5.4854, 35.3645], [-5.466, 35.3555], [-5.459, 35.3645], [-5.48, 35.3712], [-5.482, 35.3861], [-5.5102, 35.3925], [-5.512, 35.3892], [-5.5292, 35.3913], [-5.5556, 35.4011], [-5.5846, 35.398], [-5.6218, 35.3608], [-5.6504, 35.384], [-5.7009, 35.3735], [-5.7829, 35.4026], [-5.7819, 35.4109], [-5.8068, 35.427], [-5.8207, 35.4668], [-5.8635, 35.4457], [-5.8819, 35.4422], [-5.8937, 35.4452], [-5.8945, 35.4365], [-5.9065, 35.425], [-5.92, 35.428], [-5.9295, 35.4195], [-5.9339, 35.4271], [-5.949, 35.4234], [-5.9472, 35.4163], [-5.957, 35.4119], [-5.9582, 35.3938], [-5.9252, 35.3806], [-5.9184, 35.3627], [-5.9227, 35.3447], [-5.9168, 35.3329], [-5.933, 35.3055], [-5.9604, 35.2991], [-5.9728, 35.322], [-5.9896, 35.3225], [-5.9954, 35.3344], [-6.0527, 35.3187], [-6.1069, 35.3162], [-6.1457, 35.2158], [-6.151, 35.2039], [-6.1563, 35.2036], [-6.1475, 35.2035], [-6.1469, 35.1999], [-6.1547, 35.2015], [-6.1559, 35.1964], [-6.1693, 35.1934], [-6.2143, 35.0878], [-6.2434, 35.0014], [-6.1859, 34.9889], [-6.1385, 34.997], [-6.1268, 35.0105], [-6.1002, 35.0155], [-6.058, 34.9982], [-6.0668, 34.9905], [-6.0538, 34.9765], [-6.0264, 34.9765], [-6.007, 34.9918], [-5.962, 34.97], [-5.9194, 34.941], [-5.8783, 34.934], [-5.8332, 34.9436], [-5.7813, 34.9279]]]}}, {"type": "Feature", "properties": {"osm_type": "relation", "osm_id": 235231356, "name": "Tetouan Province", "admin_level": "6", "kind": "subdivision_2", "parent_osm_id": 1592819, "parent_name": "Tangier-Tetouan-Al Hoceima", "parent_iso": "MA-01"}, "geometry": {"type": "Polygon", "coordinates": [[[-5.0803, 35.4352], [-5.1065, 35.4772], [-5.1532, 35.5046], [-5.1732, 35.5314], [-5.1932, 35.5353], [-5.2002, 35.5414], [-5.2135, 35.538], [-5.2259, 35.5503], [-5.233, 35.5468], [-5.2397, 35.5495], [-5.2664, 35.6071], [-5.2965, 35.6055], [-5.3052, 35.5963], [-5.3178, 35.6065], [-5.3348, 35.6055], [-5.3193, 35.655], [-5.3214, 35.6724], [-5.3655, 35.6789], [-5.37, 35.6689], [-5.3863, 35.6716], [-5.4015, 35.6653], [-5.4327, 35.6647], [-5.4323, 35.661], [-5.4424, 35.6696], [-5.4505, 35.6961], [-5.4554, 35.6967], [-5.4612, 35.6962], [-5.4743, 35.6814], [-5.4952, 35.6764], [-5.5032, 35.6592], [-5.4965, 35.6495], [-5.5003, 35.623], [-5.5191, 35.6332], [-5.5339, 35.6347], [-5.5503, 35.6456], [-5.5697, 35.6444], [-5.5681, 35.6272], [-5.5754, 35.6225], [-5.5873, 35.6211], [-5.6596, 35.5894], [-5.7146, 35.6142], [-5.7034, 35.5351], [-5.7161, 35.5242], [-5.758, 35.5242], [-5.7704, 35.5134], [-5.7834, 35.5128], [-5.7811, 35.5084], [-5.8213, 35.4774], [-5.8402, 35.4686], [-5.8423, 35.4541], [-5.8207, 35.4668], [-5.8068, 35.427], [-5.7819, 35.4109], [-5.7829, 35.4026], [-5.7009, 35.3735], [-5.6504, 35.384], [-5.6218, 35.3608], [-5.5846, 35.398], [-5.5556, 35.4011], [-5.5292, 35.3913], [-5.512, 35.3892], [-5.5102, 35.3925], [-5.482, 35.3861], [-5.48, 35.3712], [-5.459, 35.3645], [-5.466, 35.3555], [-5.4854, 35.3645], [-5.4808, 35.34], [-5.4683, 35.3234], [-5.459, 35.2981], [-5.4875, 35.2643], [-5.4905, 35.2501], [-5.4698, 35.2588], [-5.4424, 35.2375], [-5.4387, 35.2064], [-5.3995, 35.2105], [-5.3587, 35.2246], [-5.35, 35.2231], [-5.3466, 35.2347], [-5.3251, 35.2327], [-5.3257, 35.2388], [-5.3008, 35.2245], [-5.2691, 35.2217], [-5.2526, 35.2249], [-5.2269, 35.252], [-5.2048, 35.2622], [-5.2159, 35.2831], [-5.2145, 35.2982], [-5.2021, 35.298], [-5.2042, 35.3118], [-5.1902, 35.3277], [-5.1926, 35.3345], [-5.1872, 35.3518], [-5.176, 35.3559], [-5.1793, 35.3591], [-5.1736, 35.3733], [-5.1605, 35.3725], [-5.1469, 35.3783], [-5.1597, 35.3853], [-5.1596, 35.3909], [-5.1385, 35.3952], [-5.1305, 35.4075], [-5.123, 35.4091], [-5.1254, 35.4179], [-5.1048, 35.4236], [-5.102, 35.4331], [-5.0909, 35.4323], [-5.0943, 35.4279], [-5.0889, 35.4233], [-5.0798, 35.4279], [-5.0803, 35.4352]]]}}, {"type": "Feature", "properties": {"osm_type": "relation", "osm_id": 183735726, "name": "Prefecture of Tangier - Assilah", "admin_level": "6", "kind": "subdivision_2", "parent_osm_id": 1592819, "parent_name": "Tangier-Tetouan-Al Hoceima", "parent_iso": "MA-01"}, "geometry": {"type": "Polygon", "coordinates": [[[-5.7364, 35.8206], [-5.7502, 35.8179], [-5.7518, 35.7978], [-5.7817, 35.7769], [-5.7956, 35.7782], [-5.8, 35.7812], [-5.7967, 35.7843], [-5.8049, 35.7819], [-5.7952, 35.7852], [-5.8078, 35.7874], [-5.7932, 35.7913], [-5.8075, 35.7893], [-5.8098, 35.7933], [-5.8358, 35.7947], [-5.848, 35.8011], [-5.863, 35.7959], [-5.9076, 35.8011], [-5.9296, 35.7883], [-5.9686, 35.6713], [-6.0187, 35.4977], [-6.0281, 35.4751], [-6.0364, 35.4674], [-6.0395, 35.469], [-6.0343, 35.4728], [-6.0398, 35.4692], [-6.0501, 35.4554], [-6.0635, 35.4204], [-6.0815, 35.3961], [-6.1069, 35.3162], [-6.0527, 35.3187], [-5.9954, 35.3344], [-5.9896, 35.3225], [-5.9728, 35.322], [-5.9604, 35.2991], [-5.933, 35.3055], [-5.9168, 35.3329], [-5.9227, 35.3447], [-5.9184, 35.3627], [-5.9252, 35.3806], [-5.9582, 35.3938], [-5.957, 35.4119], [-5.9472, 35.4163], [-5.949, 35.4234], [-5.9339, 35.4271], [-5.9295, 35.4195], [-5.92, 35.428], [-5.9065, 35.425], [-5.8945, 35.4365], [-5.8937, 35.4452], [-5.8714, 35.4435], [-5.8423, 35.4541], [-5.8402, 35.4686], [-5.8213, 35.4774], [-5.7811, 35.5084], [-5.7834, 35.5128], [-5.7704, 35.5134], [-5.758, 35.5242], [-5.7161, 35.5242], [-5.7034, 35.5351], [-5.7136, 35.6183], [-5.7208, 35.6394], [-5.7158, 35.649], [-5.7282, 35.6781], [-5.7226, 35.6873], [-5.7288, 35.7007], [-5.7544, 35.7002], [-5.768, 35.7187], [-5.7664, 35.7341], [-5.7462, 35.7555], [-5.749, 35.7648], [-5.7375, 35.8011], [-5.7417, 35.8074], [-5.7348, 35.8162], [-5.7364, 35.8206]]]}}]}