{"type": "FeatureCollection", "parent": {"osm_id": 161645, "name": "Oklahoma", "admin_level": "4", "kind": "subdivision_1", "child_kind": "subdivision_2", "iso": "US-OK"}, "features": [{"type": "Feature", "properties": {"osm_type": "relation", "osm_id": 754405187, "name": "Harper", "admin_level": "6", "kind": "subdivision_2", "parent_osm_id": 161645, "parent_name": "Oklahoma", "parent_iso": "US-OK"}, "geometry": {"type": "Polygon", "coordinates": [[[-100.0026, 37.0017], [-100.0032, 36.5933], [-99.2953, 36.5951], [-99.2952, 36.8196], [-99.3174, 36.8423], [-99.3143, 36.8562], [-99.3742, 36.8796], [-99.3981, 36.9215], [-99.4205, 36.9411], [-99.4434, 36.9955], [-99.4562, 36.9995], [-100.0026, 37.0017]]]}}, {"type": "Feature", "properties": {"osm_type": "relation", "osm_id": 575290118, "name": "Blaine", "admin_level": "6", "kind": "subdivision_2", "parent_osm_id": 161645, "parent_name": "Oklahoma", "parent_iso": "US-OK"}, "geometry": {"type": "Polygon", "coordinates": [[[-98.6369, 36.1649], [-98.6321, 35.5516], [-98.3133, 35.5515], [-98.3134, 35.7252], [-98.2071, 35.7251], [-98.2106, 36.1649], [-98.6369, 36.1649]]]}}, {"type": "Feature", "properties": {"osm_type": "relation", "osm_id": 266463628, "name": "Okfuskee", "admin_level": "6", "kind": "subdivision_2", "parent_osm_id": 161645, "parent_name": "Oklahoma", "parent_iso": "US-OK"}, "geometry": {"type": "Polygon", "coordinates": [[[-96.6249, 35.4627], [-96.6237, 35.4007], [-96.5997, 35.397], [-96.5858, 35.4115], [-96.5767, 35.4019], [-96.5549, 35.4017], [-96.5357, 35.391], [-96.5372, 35.4109], [-96.5608, 35.4227], [-96.5559, 35.4347], [-96.5685, 35.4382], [-96.5536, 35.4543], [-96.5216, 35.4385], [-96.5186, 35.4312], [-96.4966, 35.4289], [-96.483, 35.4398], [-96.4877, 35.4492], [-96.4731, 35.464], [-96.4656, 35.4581], [-96.4456, 35.4588], [-96.4413, 35.4677], [-96.4414, 35.2901], [-95.9814, 35.2899], [-95.9813, 35.3768], [-96.0875, 35.3769], [-96.0878, 35.5521], [-96.1929, 35.5519], [-96.1926, 35.6391], [-96.6207, 35.639], [-96.6249, 35.4627]]]}}, {"type": "Feature", "properties": {"osm_type": "relation", "osm_id": 917865824, "name": "Grant", "admin_level": "6", "kind": "subdivision_2", "parent_osm_id": 161645, "parent_name": "Oklahoma", "parent_iso": "US-OK"}, "geometry": {"type": "Polygon", "coordinates": [[[-98.112, 36.9981], [-98.1043, 36.5936], [-97.4625, 36.5936], [-97.4624, 36.9987], [-98.112, 36.9981]]]}}, {"type": "Feature", "properties": {"osm_type": "relation", "osm_id": 641105379, "name": "Garfield", "admin_level": "6", "kind": "subdivision_2", "parent_osm_id": 161645, "parent_name": "Oklahoma", "parent_iso": "US-OK"}, "geometry": {"type": "Polygon", "coordinates": [[[-98.1043, 36.5936], [-98.1039, 36.1649], [-97.4608, 36.1645], [-97.4616, 36.5936], [-98.1043, 36.5936]]]}}, {"type": "Feature", "properties": {"osm_type": "relation", "osm_id": 247752198, "name": "Kingfisher", "admin_level": "6", "kind": "subdivision_2", "parent_osm_id": 161645, "parent_name": "Oklahoma", "parent_iso": "US-OK"}, "geometry": {"type": "Polygon", "coordinates": [[[-98.2071, 35.7251], [-97.674, 35.726], [-97.6756, 36.1647], [-98.2106, 36.1649], [-98.2071, 35.7251]]]}}, {"type": "Feature", "properties": {"osm_type": "relation", "osm_id": 974957878, "name": "Major", "admin_level": "6", "kind": "subdivision_2", "parent_osm_id": 161645, "parent_name": "Oklahoma", "parent_iso": "US-OK"}, "geometry": {"type": "Polygon", "coordinates": [[[-98.2106, 36.1649], [-98.1039, 36.1649], [-98.1044, 36.4631], [-98.5336, 36.4632], [-98.5336, 36.3976], [-98.5526, 36.4023], [-98.5935, 36.392], [-98.6254, 36.3926], [-98.6995, 36.416], [-98.7092, 36.422], [-98.7268, 36.4453], [-98.7777, 36.4484], [-98.8078, 36.4608], [-98.8437, 36.5063], [-98.9603, 36.5069], [-98.9609, 36.2468], [-98.956, 36.2309], [-98.9559, 36.1616], [-98.2106, 36.1649]]]}}, {"type": "Feature", "properties": {"osm_type": "relation", "osm_id": 652188851, "name": "Comanche", "admin_level": "6", "kind": "subdivision_2", "parent_osm_id": 161645, "parent_name": "Oklahoma", "parent_iso": "US-OK"}, "geometry": {"type": "Polygon", "coordinates": [[[-98.6198, 34.855], [-98.8261, 34.8555], [-98.8261, 34.5074], [-98.662, 34.5075], [-98.662, 34.406], [-98.6095, 34.4061], [-98.6096, 34.4206], [-98.505, 34.4205], [-98.505, 34.4494], [-98.2959, 34.449], [-98.2959, 34.4635], [-98.2442, 34.4637], [-98.2441, 34.5071], [-98.1422, 34.507], [-98.1418, 34.6812], [-98.0891, 34.6811], [-98.089, 34.8407], [-98.0927, 34.8549], [-98.6198, 34.855]]]}}, {"type": "Feature", "properties": {"osm_type": "relation", "osm_id": 289502274, "name": "Dewey", "admin_level": "6", "kind": "subdivision_2", "parent_osm_id": 161645, "parent_name": "Oklahoma", "parent_iso": "US-OK"}, "geometry": {"type": "Polygon", "coordinates": [[[-98.6369, 36.1649], [-98.9559, 36.1616], [-99.3821, 36.1643], [-99.3811, 35.8988], [-99.3758, 35.8122], [-98.632, 35.8124], [-98.6369, 36.1649]]]}}, {"type": "Feature", "properties": {"osm_type": "relation", "osm_id": 279894216, "name": "Nowata", "admin_level": "6", "kind": "subdivision_2", "parent_osm_id": 161645, "parent_name": "Oklahoma", "parent_iso": "US-OK"}, "geometry": {"type": "Polygon", "coordinates": [[[-95.7868, 36.9993], [-95.7867, 36.9419], [-95.8098, 36.9419], [-95.8096, 36.5975], [-95.4316, 36.5975], [-95.4317, 36.9428], [-95.4079, 36.9427], [-95.4076, 36.9992], [-95.7868, 36.9993]]]}}, {"type": "Feature", "properties": {"osm_type": "relation", "osm_id": 376460553, "name": "Okmulgee", "admin_level": "6", "kind": "subdivision_2", "parent_osm_id": 161645, "parent_name": "Oklahoma", "parent_iso": "US-OK"}, "geometry": {"type": "Polygon", "coordinates": [[[-95.9813, 35.3768], [-95.8756, 35.3767], [-95.8756, 35.4636], [-95.8234, 35.464], [-95.8224, 35.5517], [-95.713, 35.5518], [-95.7131, 35.7258], [-95.7663, 35.7258], [-95.7662, 35.8564], [-96.1924, 35.8571], [-96.1929, 35.5519], [-96.0878, 35.5521], [-96.0875, 35.3769], [-95.9813, 35.3768]]]}}, {"type": "Feature", "properties": {"osm_type": "relation", "osm_id": 665917123, "name": "Beckham", "admin_level": "6", "kind": "subdivision_2", "parent_osm_id": 161645, "parent_name": "Oklahoma", "parent_iso": "US-OK"}, "geometry": {"type": "Polygon", "coordinates": [[[-100.0004, 35.1827], [-100.0004, 35.0304], [-99.783, 35.0301], [-99.7827, 35.1168], [-99.4407, 35.1165], [-99.44, 35.1091], [-99.4083, 35.1165], [-99.3602, 35.1167], [-99.3641, 35.5088], [-99.5756, 35.5089], [-99.5758, 35.4217], [-100.0004, 35.4224], [-100.0004, 35.1827]]]}}, {"type": "Feature", "properties": {"osm_type": "relation", "osm_id": 280049901, "name": "Logan", "admin_level": "6", "kind": "subdivision_2", "parent_osm_id": 161645, "parent_name": "Oklahoma", "parent_iso": "US-OK"}, "geometry": {"type": "Polygon", "coordinates": [[[-97.6756, 36.1647], [-97.674, 35.726], [-97.1411, 35.7244], [-97.1429, 35.9542], [-97.1724, 35.941], [-97.2036, 35.9448], [-97.2212, 35.9646], [-97.2432, 35.9722], [-97.2753, 35.9732], [-97.2859, 35.9805], [-97.2946, 36.0056], [-97.3236, 36.0109], [-97.3533, 35.9853], [-97.354, 36.1643], [-97.6756, 36.1647]]]}}, {"type": "Feature", "properties": {"osm_type": "relation", "osm_id": 858965901, "name": "Johnston", "admin_level": "6", "kind": "subdivision_2", "parent_osm_id": 161645, "parent_name": "Oklahoma", "parent_iso": "US-OK"}, "geometry": {"type": "Polygon", "coordinates": [[[-96.9335, 34.3327], [-96.9337, 34.1726], [-96.67, 34.1723], [-96.6537, 34.1614], [-96.6419, 34.1682], [-96.6198, 34.1612], [-96.6068, 34.1399], [-96.5823, 34.1253], [-96.5854, 34.1145], [-96.4538, 34.1144], [-96.4539, 34.1574], [-96.4076, 34.1573], [-96.4073, 34.4184], [-96.5138, 34.4196], [-96.5139, 34.5054], [-96.8808, 34.5061], [-96.881, 34.333], [-96.9335, 34.3327]]]}}, {"type": "Feature", "properties": {"osm_type": "relation", "osm_id": 937235203, "name": "Pontotoc", "admin_level": "6", "kind": "subdivision_2", "parent_osm_id": 161645, "parent_name": "Oklahoma", "parent_iso": "US-OK"}, "geometry": {"type": "Polygon", "coordinates": [[[-96.5139, 34.5054], [-96.5122, 34.6801], [-96.4064, 34.68], [-96.4086, 34.9307], [-96.4247, 34.9037], [-96.46, 34.9164], [-96.4908, 34.9106], [-96.5126, 34.8755], [-96.5286, 34.8696], [-96.5438, 34.8801], [-96.5559, 34.8981], [-96.5569, 34.9142], [-96.5771, 34.9166], [-96.5958, 34.906], [-96.6219, 34.899], [-96.647, 34.9022], [-96.6677, 34.9296], [-96.6995, 34.9303], [-96.7109, 34.9117], [-96.6957, 34.9036], [-96.6865, 34.8832], [-96.6942, 34.8685], [-96.7276, 34.8572], [-96.7421, 34.8694], [-96.7555, 34.8998], [-96.7986, 34.9059], [-96.7982, 34.93], [-96.8135, 34.9447], [-96.8524, 34.9288], [-96.8854, 34.9263], [-96.9106, 34.9587], [-96.9306, 34.9644], [-96.9324, 34.5933], [-96.8273, 34.5932], [-96.8273, 34.506], [-96.5139, 34.5054]]]}}, {"type": "Feature", "properties": {"osm_type": "relation", "osm_id": 724199891, "name": "Pushmataha", "admin_level": "6", "kind": "subdivision_2", "parent_osm_id": 161645, "parent_name": "Oklahoma", "parent_iso": "US-OK"}, "geometry": {"type": "Polygon", "coordinates": [[[-95.672, 34.5939], [-95.6717, 34.5068], [-95.7794, 34.5066], [-95.7794, 34.1567], [-95.1565, 34.157], [-95.1512, 34.2439], [-95.0466, 34.2437], [-95.0468, 34.5072], [-94.9376, 34.5068], [-94.9378, 34.6809], [-95.5145, 34.6811], [-95.5143, 34.5942], [-95.672, 34.5939]]]}}, {"type": "Feature", "properties": {"osm_type": "relation", "osm_id": 281752696, "name": "Wagoner", "admin_level": "6", "kind": "subdivision_2", "parent_osm_id": 161645, "parent_name": "Oklahoma", "parent_iso": "US-OK"}, "geometry": {"type": "Polygon", "coordinates": [[[-95.7662, 35.8564], [-95.6504, 35.8568], [-95.6405, 35.835], [-95.6383, 35.7876], [-95.6215, 35.7776], [-95.602, 35.7781], [-95.5902, 35.7654], [-95.5799, 35.7697], [-95.5631, 35.7879], [-95.5182, 35.7928], [-95.4776, 35.8042], [-95.4203, 35.7996], [-95.3623, 35.8226], [-95.324, 35.8134], [-95.2657, 35.8133], [-95.2532, 35.834], [-95.2315, 35.8512], [-95.2275, 35.8622], [-95.2325, 35.8728], [-95.2577, 35.8773], [-95.2816, 35.9041], [-95.2807, 35.9189], [-95.2693, 35.9294], [-95.2699, 35.9474], [-95.2787, 35.9641], [-95.2522, 35.9879], [-95.2384, 35.988], [-95.2255, 36.0092], [-95.2253, 36.0398], [-95.2084, 36.0399], [-95.208, 36.0747], [-95.5715, 36.0753], [-95.5526, 36.0915], [-95.5683, 36.1074], [-95.5679, 36.1294], [-95.6047, 36.1335], [-95.6192, 36.1625], [-95.7617, 36.1628], [-95.7617, 35.9008], [-95.8195, 35.9011], [-95.82, 35.8559], [-95.7662, 35.8564]]]}}, {"type": "Feature", "properties": {"osm_type": "relation", "osm_id": 207535738, "name": "Mayes", "admin_level": "6", "kind": "subdivision_2", "parent_osm_id": 161645, "parent_name": "Oklahoma", "parent_iso": "US-OK"}, "geometry": {"type": "Polygon", "coordinates": [[[-95.208, 36.0747], [-95.1184, 36.0746], [-95.1185, 36.1616], [-95.0113, 36.1618], [-95.0112, 36.2344], [-95.0059, 36.2496], [-95.0057, 36.5099], [-95.4356, 36.5102], [-95.44, 36.0752], [-95.208, 36.0747]]]}}, {"type": "Feature", "properties": {"osm_type": "relation", "osm_id": 318592128, "name": "Roger Mills", "admin_level": "6", "kind": "subdivision_2", "parent_osm_id": 161645, "parent_name": "Oklahoma", "parent_iso": "US-OK"}, "geometry": {"type": "Polygon", "coordinates": [[[-100.0004, 35.4224], [-99.5758, 35.4217], [-99.5756, 35.5089], [-99.3641, 35.5088], [-99.3641, 35.5517], [-99.3771, 35.5517], [-99.3758, 35.8122], [-99.3811, 35.8988], [-99.381, 36.0129], [-99.4222, 36.0119], [-99.4528, 36.0052], [-99.4775, 35.9857], [-99.4958, 35.9787], [-99.5153, 35.9258], [-99.5496, 35.9002], [-99.5585, 35.866], [-99.6018, 35.8559], [-99.6198, 35.8421], [-99.7171, 35.8598], [-99.7464, 35.882], [-99.7611, 35.8808], [-99.7761, 35.8881], [-99.7791, 35.8964], [-99.8014, 35.9107], [-99.8102, 35.9289], [-99.8079, 35.9603], [-99.8023, 35.9716], [-99.8095, 36.0001], [-99.838, 36.0068], [-99.855, 36.0037], [-99.8754, 35.9878], [-99.8883, 35.9879], [-99.9083, 35.9666], [-99.9125, 35.955], [-99.9056, 35.9367], [-99.9252, 35.9137], [-99.9596, 35.9], [-99.9721, 35.8888], [-100.0004, 35.881], [-100.0004, 35.4224]]]}}, {"type": "Feature", "properties": {"osm_type": "relation", "osm_id": 733232260, "name": "Latimer", "admin_level": "6", "kind": "subdivision_2", "parent_osm_id": 161645, "parent_name": "Oklahoma", "parent_iso": "US-OK"}, "geometry": {"type": "Polygon", "coordinates": [[[-95.0596, 34.6807], [-95.0595, 34.855], [-94.9978, 34.8551], [-94.9981, 34.9422], [-94.9277, 34.9422], [-94.9279, 35.0583], [-95.3492, 35.0585], [-95.3494, 35.0293], [-95.5077, 35.0292], [-95.5075, 34.8549], [-95.5145, 34.6811], [-95.0596, 34.6807]]]}}, {"type": "Feature", "properties": {"osm_type": "relation", "osm_id": 951666931, "name": "Seminole", "admin_level": "6", "kind": "subdivision_2", "parent_osm_id": 161645, "parent_name": "Oklahoma", "parent_iso": "US-OK"}, "geometry": {"type": "Polygon", "coordinates": [[[-96.6237, 35.4007], [-96.6538, 35.3921], [-96.7024, 35.4161], [-96.7188, 35.412], [-96.7248, 35.425], [-96.7443, 35.4066], [-96.7767, 35.4054], [-96.7757, 34.9], [-96.7555, 34.8998], [-96.7421, 34.8694], [-96.7276, 34.8572], [-96.6942, 34.8685], [-96.6865, 34.8832], [-96.6957, 34.9036], [-96.7109, 34.9117], [-96.6995, 34.9303], [-96.6677, 34.9296], [-96.647, 34.9022], [-96.6219, 34.899], [-96.5958, 34.906], [-96.5771, 34.9166], [-96.5569, 34.9142], [-96.5559, 34.8981], [-96.5438, 34.8801], [-96.5286, 34.8696], [-96.5126, 34.8755], [-96.4908, 34.9106], [-96.4904, 35.1159], [-96.4414, 35.1158], [-96.4413, 35.4677], [-96.4456, 35.4588], [-96.4656, 35.4581], [-96.4731, 35.464], [-96.4877, 35.4492], [-96.483, 35.4398], [-96.4966, 35.4289], [-96.5186, 35.4312], [-96.5216, 35.4385], [-96.5536, 35.4543], [-96.5685, 35.4382], [-96.5559, 35.4347], [-96.5608, 35.4227], [-96.5372, 35.4109], [-96.5357, 35.391], [-96.5549, 35.4017], [-96.5767, 35.4019], [-96.5858, 35.4115], [-96.5997, 35.397], [-96.6237, 35.4007]]]}}, {"type": "Feature", "properties": {"osm_type": "relation", "osm_id": 437274708, "name": "Custer", "admin_level": "6", "kind": "subdivision_2", "parent_osm_id": 161645, "parent_name": "Oklahoma", "parent_iso": "US-OK"}, "geometry": {"type": "Polygon", "coordinates": [[[-98.632, 35.8124], [-99.3758, 35.8122], [-99.3771, 35.5517], [-99.3641, 35.5517], [-99.3642, 35.4653], [-98.6233, 35.4642], [-98.6232, 35.5516], [-98.6321, 35.5516], [-98.632, 35.8124]]]}}, {"type": "Feature", "properties": {"osm_type": "relation", "osm_id": 548445257, "name": "Rogers", "admin_level": "6", "kind": "subdivision_2", "parent_osm_id": 161645, "parent_name": "Oklahoma", "parent_iso": "US-OK"}, "geometry": {"type": "Polygon", "coordinates": [[[-95.8096, 36.5975], [-95.8127, 36.4236], [-95.7944, 36.4236], [-95.7943, 36.3945], [-95.8122, 36.3943], [-95.8154, 36.1626], [-95.6192, 36.1625], [-95.6047, 36.1335], [-95.5679, 36.1294], [-95.5683, 36.1074], [-95.5526, 36.0915], [-95.5715, 36.0753], [-95.44, 36.0752], [-95.4356, 36.5102], [-95.3282, 36.5102], [-95.3284, 36.5976], [-95.8096, 36.5975]]]}}, {"type": "Feature", "properties": {"osm_type": "relation", "osm_id": 755532222, "name": "Marshall", "admin_level": "6", "kind": "subdivision_2", "parent_osm_id": 161645, "parent_name": "Oklahoma", "parent_iso": "US-OK"}, "geometry": {"type": "Polygon", "coordinates": [[[-96.9337, 34.1726], [-96.9684, 34.1726], [-96.9697, 34.013], [-96.9348, 34.0129], [-96.9348, 33.9544], [-96.9186, 33.9589], [-96.9053, 33.9472], [-96.8994, 33.9337], [-96.8957, 33.8964], [-96.883, 33.868], [-96.8664, 33.8532], [-96.8561, 33.8475], [-96.8459, 33.849], [-96.8398, 33.8684], [-96.8322, 33.8748], [-96.7943, 33.8689], [-96.7806, 33.8601], [-96.7768, 33.842], [-96.7662, 33.8255], [-96.746, 33.8257], [-96.7124, 33.8316], [-96.6996, 33.8391], [-96.6847, 33.8629], [-96.681, 33.8962], [-96.6672, 33.9169], [-96.6599, 33.9167], [-96.6283, 33.8945], [-96.5885, 33.8949], [-96.5825, 33.9083], [-96.5958, 33.9441], [-96.577, 33.9644], [-96.5853, 33.9745], [-96.5943, 33.9717], [-96.6156, 33.9907], [-96.6249, 34.0089], [-96.6043, 34.0079], [-96.5934, 34.0167], [-96.583, 34.0069], [-96.5737, 34.021], [-96.5745, 34.038], [-96.5475, 34.0644], [-96.5604, 34.0734], [-96.5657, 34.0897], [-96.5854, 34.1145], [-96.5823, 34.1253], [-96.6068, 34.1399], [-96.6198, 34.1612], [-96.6419, 34.1682], [-96.6537, 34.1614], [-96.67, 34.1723], [-96.9337, 34.1726]]]}}, {"type": "Feature", "properties": {"osm_type": "relation", "osm_id": 466959454, "name": "Texas", "admin_level": "6", "kind": "subdivision_2", "parent_osm_id": 161645, "parent_name": "Oklahoma", "parent_iso": "US-OK"}, "geometry": {"type": "Polygon", "coordinates": [[[-101.0852, 36.4993], [-100.9542, 36.4996], [-100.9538, 36.8484], [-100.9456, 36.8487], [-100.9455, 36.9982], [-102.0282, 36.9931], [-102.0323, 36.5006], [-101.0852, 36.4993]]]}}, {"type": "Feature", "properties": {"osm_type": "relation", "osm_id": 724558322, "name": "Washington", "admin_level": "6", "kind": "subdivision_2", "parent_osm_id": 161645, "parent_name": "Oklahoma", "parent_iso": "US-OK"}, "geometry": {"type": "Polygon", "coordinates": [[[-96.0008, 36.9989], [-96.0012, 36.4237], [-95.8127, 36.4236], [-95.8098, 36.9419], [-95.7867, 36.9419], [-95.7868, 36.9993], [-96.0008, 36.9989]]]}}, {"type": "Feature", "properties": {"osm_type": "relation", "osm_id": 232002333, "name": "Pittsburg", "admin_level": "6", "kind": "subdivision_2", "parent_osm_id": 161645, "parent_name": "Oklahoma", "parent_iso": "US-OK"}, "geometry": {"type": "Polygon", "coordinates": [[[-95.5145, 34.6811], [-95.5075, 34.8549], [-95.5077, 35.0292], [-95.3494, 35.0293], [-95.3493, 35.1603], [-95.455, 35.1606], [-95.4508, 35.2028], [-95.4513, 35.296], [-95.5004, 35.3009], [-95.5191, 35.2795], [-95.513, 35.2661], [-95.5727, 35.2443], [-95.5962, 35.2234], [-95.6081, 35.2204], [-95.6225, 35.2247], [-95.6068, 35.2351], [-95.6092, 35.2493], [-95.6281, 35.2468], [-95.6721, 35.2273], [-95.6828, 35.2164], [-95.6744, 35.2085], [-95.7072, 35.2023], [-95.7162, 35.1894], [-95.7423, 35.1925], [-95.756, 35.1772], [-95.7685, 35.179], [-95.7933, 35.1973], [-95.8397, 35.1844], [-95.8707, 35.186], [-95.8884, 35.1557], [-95.908, 35.1435], [-95.9285, 35.1436], [-95.9625, 35.1524], [-95.9837, 35.1516], [-96.0136, 35.1418], [-96.0104, 35.1174], [-96.03, 35.1203], [-96.0627, 35.0881], [-96.0692, 35.0566], [-96.0889, 35.0498], [-96.0921, 34.6806], [-95.8821, 34.6805], [-95.882, 34.5935], [-95.5143, 34.5942], [-95.5145, 34.6811]]]}}, {"type": "Feature", "properties": {"osm_type": "relation", "osm_id": 345310203, "name": "Hughes", "admin_level": "6", "kind": "subdivision_2", "parent_osm_id": 161645, "parent_name": "Oklahoma", "parent_iso": "US-OK"}, "geometry": {"type": "Polygon", "coordinates": [[[-96.4414, 35.2901], [-96.4414, 35.1158], [-96.4904, 35.1159], [-96.4908, 34.9106], [-96.46, 34.9164], [-96.4247, 34.9037], [-96.4086, 34.9307], [-96.4065, 34.7676], [-96.092, 34.7675], [-96.0889, 35.0498], [-96.0692, 35.0566], [-96.0627, 35.0881], [-96.03, 35.1203], [-96.0104, 35.1174], [-96.0136, 35.1418], [-95.9837, 35.1516], [-95.9814, 35.2899], [-96.4414, 35.2901]]]}}, {"type": "Feature", "properties": {"osm_type": "relation", "osm_id": 726588891, "name": "Kiowa", "admin_level": "6", "kind": "subdivision_2", "parent_osm_id": 161645, "parent_name": "Oklahoma", "parent_iso": "US-OK"}, "geometry": {"type": "Polygon", "coordinates": [[[-98.6198, 34.855], [-98.6211, 35.0974], [-98.63, 35.1164], [-98.6399, 35.1229], [-98.6504, 35.1148], [-98.6509, 35.1239], [-98.6722, 35.119], [-98.675, 35.109], [-98.6963, 35.1119], [-98.7125, 35.1048], [-98.7168, 35.1134], [-98.7305, 35.1122], [-98.7347, 35.1019], [-98.7504, 35.1163], [-99.4093, 35.1145], [-99.3986, 35.0948], [-99.3684, 35.0879], [-99.3653, 35.0602], [-99.3502, 35.0437], [-99.3278, 35.0417], [-99.3269, 35.0156], [-99.3364, 34.9976], [-99.3351, 34.9885], [-99.3481, 34.9833], [-99.3343, 34.9728], [-99.3308, 34.9448], [-99.2984, 34.9241], [-99.2895, 34.9024], [-99.2913, 34.8862], [-99.3159, 34.8856], [-99.3173, 34.8715], [-99.3062, 34.8576], [-99.2823, 34.849], [-99.278, 34.8394], [-99.2564, 34.8366], [-99.2465, 34.8221], [-99.2131, 34.8262], [-99.1819, 34.8596], [-99.1592, 34.8477], [-99.1446, 34.8495], [-99.1445, 34.8294], [-99.1537, 34.8277], [-99.149, 34.7982], [-99.1626, 34.7931], [-99.1656, 34.7737], [-99.152, 34.7604], [-99.173, 34.7553], [-99.1547, 34.724], [-99.1587, 34.7103], [-99.1491, 34.7024], [-99.0986, 34.6952], [-99.0525, 34.7016], [-99.0372, 34.6867], [-99.044, 34.677], [-99.0953, 34.6689], [-99.1032, 34.638], [-99.001, 34.6379], [-99.0011, 34.5944], [-98.826, 34.5944], [-98.8261, 34.8555], [-98.6198, 34.855]]]}}, {"type": "Feature", "properties": {"osm_type": "relation", "osm_id": 987156899, "name": "Le Flore", "admin_level": "6", "kind": "subdivision_2", "parent_osm_id": 161645, "parent_name": "Oklahoma", "parent_iso": "US-OK"}, "geometry": {"type": "Polygon", "coordinates": [[[-94.9376, 34.5068], [-94.4612, 34.5075], [-94.4337, 35.3865], [-94.4723, 35.376], [-94.4867, 35.3649], [-94.4805, 35.3523], [-94.4948, 35.3426], [-94.4948, 35.3298], [-94.4812, 35.3095], [-94.4939, 35.3012], [-94.517, 35.3095], [-94.5335, 35.3043], [-94.5546, 35.3102], [-94.5692, 35.3256], [-94.5948, 35.328], [-94.6159, 35.3041], [-94.648, 35.2912], [-94.6688, 35.295], [-94.6783, 35.3048], [-94.6789, 35.3184], [-94.7257, 35.3497], [-94.7564, 35.3568], [-94.7785, 35.3509], [-94.7944, 35.3271], [-94.8136, 35.3234], [-94.8143, 35.2023], [-94.9279, 35.2026], [-94.9277, 34.9422], [-94.9981, 34.9422], [-94.9978, 34.8551], [-95.0595, 34.855], [-95.0596, 34.6807], [-94.9378, 34.6809], [-94.9376, 34.5068]]]}}, {"type": "Feature", "properties": {"osm_type": "relation", "osm_id": 664407325, "name": "Washita", "admin_level": "6", "kind": "subdivision_2", "parent_osm_id": 161645, "parent_name": "Oklahoma", "parent_iso": "US-OK"}, "geometry": {"type": "Polygon", "coordinates": [[[-99.3602, 35.1167], [-98.7504, 35.1163], [-98.7347, 35.1019], [-98.7305, 35.1122], [-98.7168, 35.1134], [-98.7125, 35.1048], [-98.6963, 35.1119], [-98.675, 35.109], [-98.6722, 35.119], [-98.6509, 35.1239], [-98.6504, 35.1148], [-98.6399, 35.1229], [-98.63, 35.1164], [-98.6211, 35.0974], [-98.618, 35.2041], [-98.6236, 35.2042], [-98.6233, 35.4642], [-99.3642, 35.4653], [-99.3602, 35.1167]]]}}, {"type": "Feature", "properties": {"osm_type": "relation", "osm_id": 409799612, "name": "Cherokee", "admin_level": "6", "kind": "subdivision_2", "parent_osm_id": 161645, "parent_name": "Oklahoma", "parent_iso": "US-OK"}, "geometry": {"type": "Polygon", "coordinates": [[[-95.2657, 35.8133], [-95.1272, 35.8128], [-95.1275, 35.6389], [-94.8073, 35.6386], [-94.8073, 35.9009], [-94.7972, 35.9009], [-94.7973, 36.1614], [-95.1185, 36.1616], [-95.1184, 36.0746], [-95.208, 36.0747], [-95.2084, 36.0399], [-95.2253, 36.0398], [-95.2255, 36.0092], [-95.2384, 35.988], [-95.2522, 35.9879], [-95.2787, 35.9641], [-95.2699, 35.9474], [-95.2693, 35.9294], [-95.2807, 35.9189], [-95.2816, 35.9041], [-95.2577, 35.8773], [-95.2325, 35.8728], [-95.2275, 35.8622], [-95.2315, 35.8512], [-95.2532, 35.834], [-95.2657, 35.8133]]]}}, {"type": "Feature", "properties": {"osm_type": "relation", "osm_id": 254147729, "name": "Adair", "admin_level": "6", "kind": "subdivision_2", "parent_osm_id": 161645, "parent_name": "Oklahoma", "parent_iso": "US-OK"}, "geometry": {"type": "Polygon", "coordinates": [[[-94.5628, 36.1619], [-94.7973, 36.1614], [-94.7972, 35.9009], [-94.8073, 35.9009], [-94.8073, 35.6386], [-94.4727, 35.6386], [-94.5628, 36.1619]]]}}, {"type": "Feature", "properties": {"osm_type": "relation", "osm_id": 182603381, "name": "Beaver", "admin_level": "6", "kind": "subdivision_2", "parent_osm_id": 161645, "parent_name": "Oklahoma", "parent_iso": "US-OK"}, "geometry": {"type": "Polygon", "coordinates": [[[-100.0026, 37.0017], [-100.9455, 36.9982], [-100.9456, 36.8487], [-100.9538, 36.8484], [-100.9542, 36.4996], [-100.0038, 36.4997], [-100.0026, 37.0017]]]}}, {"type": "Feature", "properties": {"osm_type": "relation", "osm_id": 914843709, "name": "Choctaw", "admin_level": "6", "kind": "subdivision_2", "parent_osm_id": 161645, "parent_name": "Oklahoma", "parent_iso": "US-OK"}, "geometry": {"type": "Polygon", "coordinates": [[[-95.7794, 34.1567], [-95.9916, 34.1568], [-95.9535, 34.1483], [-95.9498, 34.1292], [-95.9382, 34.1251], [-95.9353, 33.9414], [-95.9189, 33.9251], [-95.8786, 33.9158], [-95.8681, 33.9059], [-95.8611, 33.8874], [-95.8403, 33.8742], [-95.8051, 33.8701], [-95.7618, 33.873], [-95.7564, 33.8926], [-95.7473, 33.8958], [-95.7285, 33.8937], [-95.7135, 33.8851], [-95.697, 33.8852], [-95.6848, 33.8902], [-95.6653, 33.9081], [-95.637, 33.9066], [-95.6037, 33.9272], [-95.5997, 33.9343], [-95.586, 33.9345], [-95.5634, 33.9322], [-95.5569, 33.927], [-95.5492, 33.908], [-95.5521, 33.8884], [-95.5452, 33.8803], [-95.5333, 33.8812], [-95.5153, 33.8911], [-95.5062, 33.8863], [-95.5061, 33.8764], [-95.5023, 33.8747], [-95.492, 33.8748], [-95.4649, 33.8867], [-95.4615, 33.8837], [-95.4634, 33.8723], [-95.4474, 33.8689], [-95.3391, 33.8689], [-95.3335, 33.8863], [-95.2948, 33.8754], [-95.2835, 33.8778], [-95.2779, 33.9009], [-95.2639, 33.8993], [-95.2531, 33.9055], [-95.2529, 33.9337], [-95.2305, 33.9608], [-95.2194, 33.9616], [-95.1841, 33.9504], [-95.1559, 33.937], [-95.1565, 34.157], [-95.7794, 34.1567]]]}}, {"type": "Feature", "properties": {"osm_type": "relation", "osm_id": 360753058, "name": "Jefferson", "admin_level": "6", "kind": "subdivision_2", "parent_osm_id": 161645, "parent_name": "Oklahoma", "parent_iso": "US-OK"}, "geometry": {"type": "Polygon", "coordinates": [[[-98.1392, 34.2898], [-98.139, 34.1418], [-98.1234, 34.1545], [-98.1095, 34.1541], [-98.0902, 34.1302], [-98.0993, 34.1043], [-98.121, 34.0813], [-98.118, 34.0671], [-98.0962, 34.0446], [-98.1055, 34.0313], [-98.0828, 34.0024], [-98.0277, 33.9934], [-97.9874, 33.9998], [-97.9742, 34.0067], [-97.9583, 33.9909], [-97.9457, 33.9898], [-97.9604, 33.9519], [-97.9742, 33.9428], [-97.9712, 33.9371], [-97.9545, 33.9378], [-97.9572, 33.9145], [-97.9699, 33.906], [-97.98, 33.9114], [-97.9846, 33.8991], [-97.9678, 33.8824], [-97.9368, 33.8792], [-97.8774, 33.8502], [-97.8343, 33.8577], [-97.8054, 33.8772], [-97.8016, 33.8851], [-97.7847, 33.8906], [-97.7797, 33.8992], [-97.7837, 33.9106], [-97.7655, 33.9135], [-97.7594, 33.9188], [-97.7628, 33.9344], [-97.7337, 33.9364], [-97.7253, 33.9411], [-97.7097, 33.955], [-97.6931, 33.9837], [-97.6718, 33.9914], [-97.6338, 33.9813], [-97.5896, 33.9536], [-97.5963, 33.9138], [-97.5874, 33.9025], [-97.5612, 33.8975], [-97.5609, 33.984], [-97.5368, 33.9839], [-97.5609, 34.003], [-97.5626, 34.2892], [-98.1392, 34.2898]]]}}, {"type": "Feature", "properties": {"osm_type": "relation", "osm_id": 244855702, "name": "Kay", "admin_level": "6", "kind": "subdivision_2", "parent_osm_id": 161645, "parent_name": "Oklahoma", "parent_iso": "US-OK"}, "geometry": {"type": "Polygon", "coordinates": [[[-97.4625, 36.5936], [-97.0574, 36.5937], [-97.0447, 36.6027], [-97.053, 36.6439], [-97.062, 36.6507], [-97.0641, 36.6842], [-97.0307, 36.7016], [-97.0242, 36.6934], [-97.003, 36.6935], [-96.992, 36.6876], [-96.932, 36.6861], [-96.9209, 36.7171], [-96.8895, 36.7512], [-96.8664, 36.7529], [-96.8341, 36.7434], [-96.8217, 36.75], [-96.8226, 36.7676], [-96.7887, 36.7676], [-96.7887, 36.782], [-96.7524, 36.7821], [-96.7498, 36.999], [-97.4624, 36.9987], [-97.4625, 36.5936]]]}}, {"type": "Feature", "properties": {"osm_type": "relation", "osm_id": 632773814, "name": "McIntosh", "admin_level": "6", "kind": "subdivision_2", "parent_osm_id": 161645, "parent_name": "Oklahoma", "parent_iso": "US-OK"}, "geometry": {"type": "Polygon", "coordinates": [[[-95.9814, 35.2899], [-95.9837, 35.1516], [-95.9625, 35.1524], [-95.9285, 35.1436], [-95.908, 35.1435], [-95.8884, 35.1557], [-95.8707, 35.186], [-95.8397, 35.1844], [-95.7933, 35.1973], [-95.7685, 35.179], [-95.756, 35.1772], [-95.7423, 35.1925], [-95.7162, 35.1894], [-95.7072, 35.2023], [-95.6744, 35.2085], [-95.6828, 35.2164], [-95.6721, 35.2273], [-95.6281, 35.2468], [-95.6092, 35.2493], [-95.6068, 35.2351], [-95.6225, 35.2247], [-95.6081, 35.2204], [-95.5962, 35.2234], [-95.5727, 35.2443], [-95.513, 35.2661], [-95.5191, 35.2795], [-95.5004, 35.3009], [-95.4513, 35.296], [-95.4271, 35.3055], [-95.4112, 35.3234], [-95.3903, 35.3275], [-95.3447, 35.2931], [-95.345, 35.5518], [-95.8224, 35.5517], [-95.8234, 35.464], [-95.8756, 35.4636], [-95.8756, 35.3767], [-95.9813, 35.3768], [-95.9814, 35.2899]]]}}, {"type": "Feature", "properties": {"osm_type": "relation", "osm_id": 862596894, "name": "Ellis", "admin_level": "6", "kind": "subdivision_2", "parent_osm_id": 161645, "parent_name": "Oklahoma", "parent_iso": "US-OK"}, "geometry": {"type": "Polygon", "coordinates": [[[-100.0032, 36.5933], [-100.0004, 35.881], [-99.9721, 35.8888], [-99.9596, 35.9], [-99.9252, 35.9137], [-99.9056, 35.9367], [-99.9125, 35.955], [-99.9083, 35.9666], [-99.8883, 35.9879], [-99.8754, 35.9878], [-99.855, 36.0037], [-99.838, 36.0068], [-99.8095, 36.0001], [-99.8023, 35.9716], [-99.8079, 35.9603], [-99.8102, 35.9289], [-99.8014, 35.9107], [-99.7791, 35.8964], [-99.7761, 35.8881], [-99.7611, 35.8808], [-99.7464, 35.882], [-99.7171, 35.8598], [-99.6198, 35.8421], [-99.6018, 35.8559], [-99.5585, 35.866], [-99.5496, 35.9002], [-99.5153, 35.9258], [-99.4958, 35.9787], [-99.4775, 35.9857], [-99.4528, 36.0052], [-99.4222, 36.0119], [-99.381, 36.0129], [-99.3821, 36.1643], [-99.5961, 36.1641], [-99.5958, 36.2467], [-99.6048, 36.2466], [-99.6056, 36.5928], [-100.0032, 36.5933]]]}}, {"type": "Feature", "properties": {"osm_type": "relation", "osm_id": 487169358, "name": "Caddo", "admin_level": "6", "kind": "subdivision_2", "parent_osm_id": 161645, "parent_name": "Oklahoma", "parent_iso": "US-OK"}, "geometry": {"type": "Polygon", "coordinates": [[[-98.6232, 35.5516], [-98.6236, 35.2042], [-98.618, 35.2041], [-98.6198, 34.855], [-98.0927, 34.8549], [-98.0913, 35.2037], [-98.096, 35.3778], [-98.3063, 35.3772], [-98.3083, 35.5513], [-98.6232, 35.5516]]]}}, {"type": "Feature", "properties": {"osm_type": "relation", "osm_id": 525069005, "name": "Muskogee", "admin_level": "6", "kind": "subdivision_2", "parent_osm_id": 161645, "parent_name": "Oklahoma", "parent_iso": "US-OK"}, "geometry": {"type": "Polygon", "coordinates": [[[-95.713, 35.5518], [-95.345, 35.5518], [-95.3447, 35.2931], [-95.3118, 35.3027], [-95.2884, 35.2952], [-95.2622, 35.269], [-95.2407, 35.2623], [-95.2226, 35.2717], [-95.2054, 35.2894], [-95.1992, 35.3036], [-95.1765, 35.3014], [-95.1705, 35.3101], [-95.1826, 35.3369], [-95.175, 35.3506], [-95.1505, 35.3459], [-95.1413, 35.3556], [-95.1608, 35.3694], [-95.1392, 35.38], [-95.1233, 35.3723], [-95.1018, 35.3976], [-95.086, 35.4059], [-95.0799, 35.433], [-95.0688, 35.4489], [-95.0499, 35.4589], [-95.084, 35.4604], [-95.0973, 35.4868], [-95.1208, 35.5057], [-95.1324, 35.5262], [-95.1272, 35.5959], [-95.1272, 35.8128], [-95.324, 35.8134], [-95.3623, 35.8226], [-95.4203, 35.7996], [-95.4776, 35.8042], [-95.5182, 35.7928], [-95.5631, 35.7879], [-95.5799, 35.7697], [-95.5902, 35.7654], [-95.602, 35.7781], [-95.6215, 35.7776], [-95.6383, 35.7876], [-95.6405, 35.835], [-95.6504, 35.8568], [-95.7662, 35.8564], [-95.7663, 35.7258], [-95.7131, 35.7258], [-95.713, 35.5518]]]}}, {"type": "Feature", "properties": {"osm_type": "relation", "osm_id": 213842339, "name": "Atoka", "admin_level": "6", "kind": "subdivision_2", "parent_osm_id": 161645, "parent_name": "Oklahoma", "parent_iso": "US-OK"}, "geometry": {"type": "Polygon", "coordinates": [[[-96.4076, 34.1573], [-95.7794, 34.1567], [-95.7794, 34.5066], [-95.6717, 34.5068], [-95.672, 34.5939], [-95.882, 34.5935], [-95.8821, 34.6805], [-96.0921, 34.6806], [-96.0926, 34.5062], [-96.1453, 34.5061], [-96.1451, 34.4187], [-96.4073, 34.4184], [-96.4076, 34.1573]]]}}, {"type": "Feature", "properties": {"osm_type": "relation", "osm_id": 562446034, "name": "Craig", "admin_level": "6", "kind": "subdivision_2", "parent_osm_id": 161645, "parent_name": "Oklahoma", "parent_iso": "US-OK"}, "geometry": {"type": "Polygon", "coordinates": [[[-95.4316, 36.5975], [-95.3284, 36.5976], [-95.3282, 36.5102], [-95.0057, 36.5099], [-95.0057, 36.5977], [-94.9994, 36.6706], [-94.9992, 36.9432], [-94.9934, 36.9499], [-95.0222, 36.9608], [-95.0307, 36.9724], [-95.0341, 36.9942], [-95.0076, 36.9995], [-95.4076, 36.9992], [-95.4079, 36.9427], [-95.4317, 36.9428], [-95.4316, 36.5975]]]}}, {"type": "Feature", "properties": {"osm_type": "relation", "osm_id": 267415177, "name": "Harmon", "admin_level": "6", "kind": "subdivision_2", "parent_osm_id": 161645, "parent_name": "Oklahoma", "parent_iso": "US-OK"}, "geometry": {"type": "Polygon", "coordinates": [[[-99.9975, 34.5604], [-99.9716, 34.5622], [-99.9546, 34.5782], [-99.9293, 34.5767], [-99.8872, 34.5491], [-99.8447, 34.5068], [-99.6665, 34.5071], [-99.6672, 34.7537], [-99.6847, 34.7537], [-99.6848, 34.7684], [-99.7201, 34.7685], [-99.72, 34.857], [-99.7232, 34.857], [-99.7311, 34.9441], [-99.8884, 34.944], [-99.8886, 35.0303], [-100.0004, 35.0304], [-99.9975, 34.5604]]]}}, {"type": "Feature", "properties": {"osm_type": "relation", "osm_id": 757232160, "name": "Woods", "admin_level": "6", "kind": "subdivision_2", "parent_osm_id": 161645, "parent_name": "Oklahoma", "parent_iso": "US-OK"}, "geometry": {"type": "Polygon", "coordinates": [[[-99.2952, 36.8196], [-99.2943, 36.8059], [-99.2702, 36.7897], [-99.2504, 36.785], [-99.2106, 36.7907], [-99.1891, 36.7874], [-99.1667, 36.7906], [-99.1399, 36.783], [-99.1266, 36.7626], [-99.0975, 36.7421], [-99.0845, 36.7216], [-99.0615, 36.7155], [-99.0444, 36.695], [-99.0481, 36.6865], [-99.0342, 36.6673], [-99.0235, 36.6611], [-99.0225, 36.6424], [-99.013, 36.6402], [-98.9715, 36.6003], [-98.96, 36.599], [-98.9603, 36.5069], [-98.8437, 36.5063], [-98.8078, 36.4608], [-98.7777, 36.4484], [-98.7268, 36.4453], [-98.7092, 36.422], [-98.6995, 36.416], [-98.6254, 36.3926], [-98.5935, 36.392], [-98.5526, 36.4023], [-98.5336, 36.3976], [-98.5334, 36.5942], [-98.5447, 36.999], [-99.4562, 36.9995], [-99.4434, 36.9955], [-99.4205, 36.9411], [-99.3981, 36.9215], [-99.3742, 36.8796], [-99.3143, 36.8562], [-99.3174, 36.8423], [-99.2952, 36.8196]]]}}, {"type": "Feature", "properties": {"osm_type": "relation", "osm_id": 685563821, "name": "Lincoln", "admin_level": "6", "kind": "subdivision_2", "parent_osm_id": 161645, "parent_name": "Oklahoma", "parent_iso": "US-OK"}, "geometry": {"type": "Polygon", "coordinates": [[[-96.6207, 35.639], [-96.6211, 35.9415], [-97.1406, 35.942], [-97.1415, 35.464], [-96.6249, 35.4627], [-96.6207, 35.639]]]}}, {"type": "Feature", "properties": {"osm_type": "relation", "osm_id": 366351342, "name": "Tulsa", "admin_level": "6", "kind": "subdivision_2", "parent_osm_id": 161645, "parent_name": "Oklahoma", "parent_iso": "US-OK"}, "geometry": {"type": "Polygon", "coordinates": [[[-95.82, 35.8559], [-95.8195, 35.9011], [-95.7617, 35.9008], [-95.7617, 36.1628], [-95.8154, 36.1626], [-95.8122, 36.3943], [-95.7943, 36.3945], [-95.7944, 36.4236], [-96.0012, 36.4237], [-96.0011, 36.1613], [-96.2979, 36.1623], [-96.2978, 36.0758], [-96.0296, 36.0754], [-96.0331, 35.8568], [-95.82, 35.8559]]]}}, {"type": "Feature", "properties": {"osm_type": "relation", "osm_id": 508355023, "name": "Sequoyah", "admin_level": "6", "kind": "subdivision_2", "parent_osm_id": 161645, "parent_name": "Oklahoma", "parent_iso": "US-OK"}, "geometry": {"type": "Polygon", "coordinates": [[[-94.4337, 35.3865], [-94.4312, 35.3943], [-94.4727, 35.6386], [-95.1275, 35.6389], [-95.1324, 35.5262], [-95.1208, 35.5057], [-95.0973, 35.4868], [-95.084, 35.4604], [-95.0249, 35.4531], [-95.0242, 35.4314], [-95.0044, 35.4135], [-94.9446, 35.4025], [-94.9258, 35.3929], [-94.9018, 35.3979], [-94.8923, 35.3844], [-94.8947, 35.3731], [-94.9153, 35.3587], [-94.9166, 35.3487], [-94.902, 35.3467], [-94.8659, 35.3566], [-94.8452, 35.3708], [-94.829, 35.3616], [-94.8275, 35.3374], [-94.8136, 35.3234], [-94.7944, 35.3271], [-94.7785, 35.3509], [-94.7564, 35.3568], [-94.7257, 35.3497], [-94.6909, 35.3299], [-94.6789, 35.3184], [-94.6783, 35.3048], [-94.6688, 35.295], [-94.648, 35.2912], [-94.6159, 35.3041], [-94.5948, 35.328], [-94.5692, 35.3256], [-94.5546, 35.3102], [-94.5335, 35.3043], [-94.517, 35.3095], [-94.4939, 35.3012], [-94.4812, 35.3095], [-94.4948, 35.3298], [-94.4948, 35.3426], [-94.4805, 35.3523], [-94.4867, 35.3649], [-94.4723, 35.376], [-94.4337, 35.3865]]]}}, {"type": "Feature", "properties": {"osm_type": "relation", "osm_id": 707761074, "name": "Bryan", "admin_level": "6", "kind": "subdivision_2", "parent_osm_id": 161645, "parent_name": "Oklahoma", "parent_iso": "US-OK"}, "geometry": {"type": "Polygon", "coordinates": [[[-96.5854, 34.1145], [-96.5657, 34.0897], [-96.5604, 34.0734], [-96.5475, 34.0644], [-96.5745, 34.038], [-96.5737, 34.021], [-96.583, 34.0069], [-96.5934, 34.0167], [-96.6043, 34.0079], [-96.6249, 34.0089], [-96.6156, 33.9907], [-96.5943, 33.9717], [-96.5853, 33.9745], [-96.577, 33.9644], [-96.5958, 33.9441], [-96.5825, 33.9083], [-96.5885, 33.8949], [-96.5854, 33.889], [-96.5901, 33.8807], [-96.612, 33.869], [-96.629, 33.8524], [-96.6293, 33.8455], [-96.5729, 33.8191], [-96.5267, 33.8209], [-96.5166, 33.8032], [-96.5159, 33.7878], [-96.5003, 33.7726], [-96.4592, 33.7752], [-96.4481, 33.781], [-96.4227, 33.776], [-96.4085, 33.7512], [-96.3696, 33.7168], [-96.3622, 33.6918], [-96.356, 33.6872], [-96.3427, 33.687], [-96.3169, 33.699], [-96.307, 33.72], [-96.303, 33.7509], [-96.2925, 33.7664], [-96.2699, 33.7684], [-96.2205, 33.7474], [-96.1781, 33.7605], [-96.1695, 33.7701], [-96.1621, 33.7961], [-96.1752, 33.802], [-96.179, 33.8106], [-96.1759, 33.8146], [-96.1508, 33.817], [-96.1481, 33.8378], [-96.123, 33.84], [-96.0994, 33.8305], [-96.1001, 33.848], [-96.0488, 33.8365], [-96.0372, 33.8413], [-96.0295, 33.8524], [-96.0222, 33.8509], [-96.0196, 33.8406], [-95.9984, 33.8511], [-95.9968, 33.8644], [-95.9915, 33.8669], [-95.9722, 33.8564], [-95.9443, 33.8598], [-95.9366, 33.8706], [-95.9352, 33.8871], [-95.8595, 33.8525], [-95.8375, 33.8356], [-95.8228, 33.8388], [-95.819, 33.8445], [-95.8206, 33.8585], [-95.8052, 33.8613], [-95.7899, 33.8577], [-95.7721, 33.8438], [-95.7535, 33.8565], [-95.7618, 33.873], [-95.8051, 33.8701], [-95.8403, 33.8742], [-95.8611, 33.8874], [-95.8681, 33.9059], [-95.8786, 33.9158], [-95.9189, 33.9251], [-95.9353, 33.9414], [-95.9382, 34.1251], [-95.9498, 34.1292], [-95.9535, 34.1483], [-95.9916, 34.1568], [-96.4539, 34.1574], [-96.4538, 34.1144], [-96.5854, 34.1145]]]}}, {"type": "Feature", "properties": {"osm_type": "relation", "osm_id": 498273278, "name": "Ottawa", "admin_level": "6", "kind": "subdivision_2", "parent_osm_id": 161645, "parent_name": "Oklahoma", "parent_iso": "US-OK"}, "geometry": {"type": "Polygon", "coordinates": [[[-94.6183, 36.7666], [-94.618, 36.9989], [-95.0076, 36.9995], [-95.0341, 36.9942], [-95.0307, 36.9724], [-95.0222, 36.9608], [-94.9934, 36.9499], [-94.9992, 36.9432], [-94.9994, 36.6706], [-94.618, 36.6679], [-94.6183, 36.7666]]]}}, {"type": "Feature", "properties": {"osm_type": "relation", "osm_id": 857510048, "name": "Creek", "admin_level": "6", "kind": "subdivision_2", "parent_osm_id": 161645, "parent_name": "Oklahoma", "parent_iso": "US-OK"}, "geometry": {"type": "Polygon", "coordinates": [[[-96.1926, 35.6391], [-96.1924, 35.8571], [-96.0331, 35.8568], [-96.0296, 36.0754], [-96.2978, 36.0758], [-96.2979, 36.1623], [-96.6193, 36.1636], [-96.6207, 35.639], [-96.1926, 35.6391]]]}}, {"type": "Feature", "properties": {"osm_type": "relation", "osm_id": 779025233, "name": "Cooke", "admin_level": "6", "kind": "subdivision_2", "parent_osm_id": 161645, "parent_name": "Oklahoma", "parent_iso": "US-OK"}, "geometry": {"type": "Polygon", "coordinates": [[[-97.3831, 33.4305], [-96.9439, 33.4164], [-96.9446, 33.9492], [-96.9738, 33.9357], [-96.9798, 33.9416], [-96.9794, 33.9562], [-96.9943, 33.9492], [-96.995, 33.932], [-96.984, 33.8921], [-97.0239, 33.8442], [-97.0413, 33.8378], [-97.0558, 33.8557], [-97.0681, 33.8605], [-97.0873, 33.8535], [-97.0905, 33.8448], [-97.0578, 33.8345], [-97.0489, 33.8252], [-97.0482, 33.8175], [-97.0786, 33.8128], [-97.0921, 33.8041], [-97.0952, 33.7941], [-97.0852, 33.7655], [-97.0862, 33.7439], [-97.0972, 33.7278], [-97.1211, 33.7172], [-97.1494, 33.722], [-97.1722, 33.7376], [-97.1904, 33.7812], [-97.2054, 33.8015], [-97.205, 33.8189], [-97.1997, 33.8273], [-97.1716, 33.8353], [-97.1666, 33.8473], [-97.1809, 33.8952], [-97.2061, 33.9143], [-97.2265, 33.9146], [-97.2421, 33.9063], [-97.2556, 33.8637], [-97.2791, 33.8646], [-97.2993, 33.8802], [-97.3075, 33.8782], [-97.3183, 33.8651], [-97.3329, 33.8744], [-97.3483, 33.8439], [-97.3655, 33.8238], [-97.3729, 33.8195], [-97.4104, 33.8189], [-97.4442, 33.8238], [-97.4591, 33.8346], [-97.4629, 33.8418], [-97.4515, 33.8709], [-97.451, 33.8914], [-97.4604, 33.904], [-97.484, 33.9158], [-97.4871, 33.4337], [-97.3831, 33.4305]]]}}, {"type": "Feature", "properties": {"osm_type": "relation", "osm_id": 990039522, "name": "Jackson", "admin_level": "6", "kind": "subdivision_2", "parent_osm_id": 161645, "parent_name": "Oklahoma", "parent_iso": "US-OK"}, "geometry": {"type": "Polygon", "coordinates": [[[-99.2465, 34.8221], [-99.2504, 34.8127], [-99.4058, 34.813], [-99.4057, 34.769], [-99.4373, 34.7691], [-99.437, 34.7365], [-99.4426, 34.7302], [-99.4232, 34.725], [-99.6669, 34.7246], [-99.6665, 34.5071], [-99.8447, 34.5068], [-99.8253, 34.4976], [-99.8143, 34.4762], [-99.7937, 34.4539], [-99.7656, 34.4375], [-99.7672, 34.4305], [-99.7203, 34.4063], [-99.7127, 34.3909], [-99.6965, 34.381], [-99.6627, 34.3737], [-99.6497, 34.3799], [-99.6242, 34.3736], [-99.6, 34.3747], [-99.5855, 34.3889], [-99.5845, 34.4077], [-99.5744, 34.4183], [-99.5493, 34.4127], [-99.5143, 34.414], [-99.4999, 34.4096], [-99.4872, 34.398], [-99.4527, 34.3883], [-99.4408, 34.3741], [-99.431, 34.3734], [-99.4204, 34.3805], [-99.4089, 34.3728], [-99.3973, 34.3779], [-99.3915, 34.4056], [-99.3969, 34.4187], [-99.395, 34.4421], [-99.381, 34.4569], [-99.3696, 34.4587], [-99.3547, 34.4519], [-99.3567, 34.4421], [-99.334, 34.4275], [-99.3196, 34.4089], [-99.2947, 34.4154], [-99.2613, 34.4035], [-99.259, 34.3912], [-99.2749, 34.3849], [-99.2587, 34.3726], [-99.249, 34.376], [-99.243, 34.3727], [-99.2326, 34.3424], [-99.2131, 34.3404], [-99.2107, 34.3363], [-99.1983, 34.3396], [-99.1928, 34.3549], [-99.2076, 34.3742], [-99.2197, 34.3743], [-99.2092, 34.3886], [-99.2139, 34.3947], [-99.2283, 34.3872], [-99.2266, 34.4013], [-99.2352, 34.4011], [-99.2381, 34.425], [-99.228, 34.4196], [-99.223, 34.4329], [-99.228, 34.4518], [-99.2134, 34.4562], [-99.2212, 34.4642], [-99.2207, 34.4945], [-99.2101, 34.5017], [-99.1968, 34.5424], [-99.178, 34.5401], [-99.1845, 34.5623], [-99.1633, 34.588], [-99.1322, 34.5921], [-99.1218, 34.5879], [-99.0997, 34.5941], [-99.0829, 34.5909], [-99.0885, 34.6153], [-99.0793, 34.619], [-99.1032, 34.638], [-99.0953, 34.6689], [-99.044, 34.677], [-99.0372, 34.6867], [-99.0525, 34.7016], [-99.0986, 34.6952], [-99.1491, 34.7024], [-99.1587, 34.7103], [-99.1547, 34.724], [-99.173, 34.7553], [-99.152, 34.7604], [-99.1656, 34.7737], [-99.1626, 34.7931], [-99.149, 34.7982], [-99.1537, 34.8277], [-99.1445, 34.8294], [-99.1446, 34.8495], [-99.1592, 34.8477], [-99.1819, 34.8596], [-99.2131, 34.8262], [-99.2465, 34.8221]]]}}, {"type": "Feature", "properties": {"osm_type": "relation", "osm_id": 874468946, "name": "Woodward", "admin_level": "6", "kind": "subdivision_2", "parent_osm_id": 161645, "parent_name": "Oklahoma", "parent_iso": "US-OK"}, "geometry": {"type": "Polygon", "coordinates": [[[-99.6056, 36.5928], [-99.6048, 36.2466], [-99.5958, 36.2467], [-99.5961, 36.1641], [-98.9559, 36.1616], [-98.956, 36.2309], [-98.9609, 36.2468], [-98.96, 36.599], [-98.9715, 36.6003], [-99.013, 36.6402], [-99.0225, 36.6424], [-99.0235, 36.6611], [-99.0342, 36.6673], [-99.0481, 36.6865], [-99.0444, 36.695], [-99.0615, 36.7155], [-99.0845, 36.7216], [-99.0975, 36.7421], [-99.1266, 36.7626], [-99.1399, 36.783], [-99.1667, 36.7906], [-99.1891, 36.7874], [-99.2106, 36.7907], [-99.2504, 36.785], [-99.2702, 36.7897], [-99.2943, 36.8059], [-99.2952, 36.8196], [-99.2953, 36.5951], [-99.6056, 36.5928]]]}}, {"type": "Feature", "properties": {"osm_type": "relation", "osm_id": 643749322, "name": "Stephens", "admin_level": "6", "kind": "subdivision_2", "parent_osm_id": 161645, "parent_name": "Oklahoma", "parent_iso": "US-OK"}, "geometry": {"type": "Polygon", "coordinates": [[[-98.1422, 34.507], [-98.1392, 34.2898], [-97.5626, 34.2892], [-97.5628, 34.6812], [-98.1418, 34.6812], [-98.1422, 34.507]]]}}, {"type": "Feature", "properties": {"osm_type": "relation", "osm_id": 281399066, "name": "Murray", "admin_level": "6", "kind": "subdivision_2", "parent_osm_id": 161645, "parent_name": "Oklahoma", "parent_iso": "US-OK"}, "geometry": {"type": "Polygon", "coordinates": [[[-96.8273, 34.506], [-96.8273, 34.5932], [-96.9324, 34.5933], [-96.9323, 34.6368], [-97.1427, 34.6371], [-97.1424, 34.6226], [-97.2001, 34.6228], [-97.1894, 34.596], [-97.1671, 34.5882], [-97.1761, 34.5714], [-97.1576, 34.551], [-97.1649, 34.5307], [-97.1439, 34.5213], [-97.1531, 34.5168], [-97.144, 34.5065], [-97.3521, 34.5068], [-97.3522, 34.3762], [-97.0491, 34.3756], [-97.0337, 34.3729], [-97.0354, 34.3478], [-97.0426, 34.3418], [-97.0287, 34.3326], [-96.881, 34.333], [-96.8808, 34.5061], [-96.8273, 34.506]]]}}, {"type": "Feature", "properties": {"osm_type": "relation", "osm_id": 407984435, "name": "Greer", "admin_level": "6", "kind": "subdivision_2", "parent_osm_id": 161645, "parent_name": "Oklahoma", "parent_iso": "US-OK"}, "geometry": {"type": "Polygon", "coordinates": [[[-99.8886, 35.0303], [-99.8884, 34.944], [-99.7311, 34.9441], [-99.7232, 34.857], [-99.72, 34.857], [-99.7201, 34.7685], [-99.6848, 34.7684], [-99.6847, 34.7537], [-99.6672, 34.7537], [-99.6669, 34.7246], [-99.4232, 34.725], [-99.4426, 34.7302], [-99.437, 34.7365], [-99.4373, 34.7691], [-99.4057, 34.769], [-99.4058, 34.813], [-99.2504, 34.8127], [-99.2465, 34.8221], [-99.2564, 34.8366], [-99.278, 34.8394], [-99.2823, 34.849], [-99.3062, 34.8576], [-99.3173, 34.8715], [-99.3159, 34.8856], [-99.2913, 34.8862], [-99.2895, 34.9024], [-99.2984, 34.9241], [-99.3308, 34.9448], [-99.3343, 34.9728], [-99.3481, 34.9833], [-99.3351, 34.9885], [-99.3364, 34.9976], [-99.3269, 35.0156], [-99.3278, 35.0417], [-99.3502, 35.0437], [-99.3653, 35.0602], [-99.3684, 35.0879], [-99.3986, 35.0948], [-99.4093, 35.1145], [-99.44, 35.1091], [-99.4407, 35.1165], [-99.7827, 35.1168], [-99.783, 35.0301], [-99.8886, 35.0303]]]}}, {"type": "Feature", "properties": {"osm_type": "relation", "osm_id": 303479554, "name": "Haskell", "admin_level": "6", "kind": "subdivision_2", "parent_osm_id": 161645, "parent_name": "Oklahoma", "parent_iso": "US-OK"}, "geometry": {"type": "Polygon", "coordinates": [[[-94.9279, 35.0583], [-94.9279, 35.2026], [-94.8143, 35.2023], [-94.8136, 35.3234], [-94.8275, 35.3374], [-94.829, 35.3616], [-94.8452, 35.3708], [-94.8659, 35.3566], [-94.902, 35.3467], [-94.9166, 35.3487], [-94.9153, 35.3587], [-94.8947, 35.3731], [-94.8923, 35.3844], [-94.9018, 35.3979], [-94.9258, 35.3929], [-94.9446, 35.4025], [-95.0044, 35.4135], [-95.0242, 35.4314], [-95.0249, 35.4531], [-95.0499, 35.4589], [-95.0688, 35.4489], [-95.0799, 35.433], [-95.086, 35.4059], [-95.1018, 35.3976], [-95.1233, 35.3723], [-95.1392, 35.38], [-95.1608, 35.3694], [-95.1413, 35.3556], [-95.1505, 35.3459], [-95.175, 35.3506], [-95.1826, 35.3369], [-95.1705, 35.3101], [-95.1765, 35.3014], [-95.1992, 35.3036], [-95.2054, 35.2894], [-95.2226, 35.2717], [-95.2407, 35.2623], [-95.2622, 35.269], [-95.2884, 35.2952], [-95.3118, 35.3027], [-95.3447, 35.2931], [-95.3903, 35.3275], [-95.4112, 35.3234], [-95.4271, 35.3055], [-95.4513, 35.296], [-95.4508, 35.2028], [-95.455, 35.1606], [-95.3493, 35.1603], [-95.3492, 35.0585], [-94.9279, 35.0583]]]}}, {"type": "Feature", "properties": {"osm_type": "relation", "osm_id": 251726164, "name": "McCurtain", "admin_level": "6", "kind": "subdivision_2", "parent_osm_id": 161645, "parent_name": "Oklahoma", "parent_iso": "US-OK"}, "geometry": {"type": "Polygon", "coordinates": [[[-95.1565, 34.157], [-95.1559, 33.937], [-95.1247, 33.9347], [-95.1224, 33.9186], [-95.1008, 33.9122], [-95.0904, 33.8933], [-95.0713, 33.9016], [-95.0655, 33.8996], [-95.0466, 33.8626], [-95.0223, 33.8598], [-95.0084, 33.8661], [-94.9885, 33.851], [-94.9689, 33.8609], [-94.9644, 33.837], [-94.9495, 33.8257], [-94.9443, 33.8121], [-94.9195, 33.8102], [-94.9196, 33.7863], [-94.8862, 33.7646], [-94.8792, 33.7649], [-94.8771, 33.7522], [-94.8693, 33.7459], [-94.8493, 33.7396], [-94.8308, 33.7401], [-94.8174, 33.7522], [-94.7986, 33.7445], [-94.7709, 33.7544], [-94.7665, 33.7509], [-94.7677, 33.7375], [-94.763, 33.7318], [-94.7394, 33.7226], [-94.7391, 33.7101], [-94.7324, 33.7003], [-94.719, 33.7082], [-94.7111, 33.7057], [-94.7079, 33.6869], [-94.6848, 33.6844], [-94.6523, 33.691], [-94.6485, 33.6734], [-94.6429, 33.6684], [-94.6212, 33.681], [-94.6031, 33.6714], [-94.5866, 33.679], [-94.5796, 33.6776], [-94.57, 33.6664], [-94.5708, 33.655], [-94.5521, 33.6535], [-94.5527, 33.6383], [-94.5333, 33.6377], [-94.5292, 33.6344], [-94.5289, 33.6218], [-94.5207, 33.6166], [-94.4875, 33.6289], [-94.4612, 34.5075], [-95.0468, 34.5072], [-95.0466, 34.2437], [-95.1512, 34.2439], [-95.1565, 34.157]]]}}, {"type": "Feature", "properties": {"osm_type": "relation", "osm_id": 259806652, "name": "Coal", "admin_level": "6", "kind": "subdivision_2", "parent_osm_id": 161645, "parent_name": "Oklahoma", "parent_iso": "US-OK"}, "geometry": {"type": "Polygon", "coordinates": [[[-96.4073, 34.4184], [-96.1451, 34.4187], [-96.1453, 34.5061], [-96.0926, 34.5062], [-96.092, 34.7675], [-96.4065, 34.7676], [-96.4064, 34.68], [-96.5122, 34.6801], [-96.5138, 34.4196], [-96.4073, 34.4184]]]}}, {"type": "Feature", "properties": {"osm_type": "relation", "osm_id": 802268161, "name": "Garvin", "admin_level": "6", "kind": "subdivision_2", "parent_osm_id": 161645, "parent_name": "Oklahoma", "parent_iso": "US-OK"}, "geometry": {"type": "Polygon", "coordinates": [[[-96.9325, 34.8545], [-97.6681, 34.8552], [-97.6684, 34.6814], [-97.5628, 34.6812], [-97.5623, 34.507], [-97.144, 34.5065], [-97.1531, 34.5168], [-97.1439, 34.5213], [-97.1649, 34.5307], [-97.1576, 34.551], [-97.1761, 34.5714], [-97.1671, 34.5882], [-97.1894, 34.596], [-97.2001, 34.6228], [-97.1424, 34.6226], [-97.1427, 34.6371], [-96.9323, 34.6368], [-96.9325, 34.8545]]]}}, {"type": "Feature", "properties": {"osm_type": "relation", "osm_id": 407583221, "name": "Payne", "admin_level": "6", "kind": "subdivision_2", "parent_osm_id": 161645, "parent_name": "Oklahoma", "parent_iso": "US-OK"}, "geometry": {"type": "Polygon", "coordinates": [[[-97.1406, 35.942], [-96.6211, 35.9415], [-96.6214, 36.1599], [-96.819, 36.1589], [-96.819, 36.2465], [-97.141, 36.2464], [-97.1407, 36.1592], [-97.3541, 36.1591], [-97.3533, 35.9853], [-97.3236, 36.0109], [-97.2946, 36.0056], [-97.2859, 35.9805], [-97.2753, 35.9732], [-97.2432, 35.9722], [-97.2212, 35.9646], [-97.2036, 35.9448], [-97.1724, 35.941], [-97.1429, 35.9542], [-97.1406, 35.942]]]}}, {"type": "Feature", "properties": {"osm_type": "relation", "osm_id": 940309413, "name": "Delaware", "admin_level": "6", "kind": "subdivision_2", "parent_osm_id": 161645, "parent_name": "Oklahoma", "parent_iso": "US-OK"}, "geometry": {"type": "Polygon", "coordinates": [[[-95.0113, 36.1618], [-94.5628, 36.1619], [-94.6179, 36.4994], [-94.618, 36.6679], [-94.9994, 36.6706], [-95.0057, 36.5977], [-95.0059, 36.2496], [-95.0112, 36.2344], [-95.0113, 36.1618]]]}}, {"type": "Feature", "properties": {"osm_type": "relation", "osm_id": 655480612, "name": "Grady", "admin_level": "6", "kind": "subdivision_2", "parent_osm_id": 161645, "parent_name": "Oklahoma", "parent_iso": "US-OK"}, "geometry": {"type": "Polygon", "coordinates": [[[-98.0891, 34.6811], [-97.6684, 34.6814], [-97.6716, 35.3359], [-97.7062, 35.325], [-97.7373, 35.3238], [-97.7693, 35.3457], [-97.792, 35.3327], [-97.8072, 35.3409], [-97.8337, 35.3354], [-97.8568, 35.3449], [-97.8628, 35.3618], [-97.8841, 35.349], [-97.9031, 35.3454], [-97.9016, 35.3534], [-97.9208, 35.3535], [-97.9323, 35.3734], [-97.9471, 35.3749], [-97.9469, 35.3564], [-97.9551, 35.3461], [-97.9997, 35.3628], [-98.0064, 35.3604], [-98.0175, 35.3779], [-98.096, 35.3778], [-98.0891, 34.6811]]]}}, {"type": "Feature", "properties": {"osm_type": "relation", "osm_id": 482790058, "name": "Osage", "admin_level": "6", "kind": "subdivision_2", "parent_osm_id": 161645, "parent_name": "Oklahoma", "parent_iso": "US-OK"}, "geometry": {"type": "Polygon", "coordinates": [[[-96.5256, 36.9987], [-96.7498, 36.999], [-96.7524, 36.7821], [-96.7887, 36.782], [-96.7887, 36.7676], [-96.8226, 36.7676], [-96.8217, 36.75], [-96.8341, 36.7434], [-96.8664, 36.7529], [-96.8895, 36.7512], [-96.9209, 36.7171], [-96.932, 36.6861], [-96.992, 36.6876], [-97.003, 36.6935], [-97.0242, 36.6934], [-97.0307, 36.7016], [-97.0641, 36.6842], [-97.062, 36.6507], [-97.053, 36.6439], [-97.0447, 36.6027], [-97.0574, 36.5937], [-97.0029, 36.5826], [-96.9486, 36.59], [-96.9205, 36.6007], [-96.9128, 36.599], [-96.888, 36.5749], [-96.9027, 36.5514], [-96.9247, 36.5526], [-96.9585, 36.5343], [-96.979, 36.5352], [-96.9962, 36.529], [-97.0098, 36.5069], [-97.0055, 36.486], [-96.9684, 36.4604], [-96.9402, 36.4555], [-96.9125, 36.4678], [-96.8753, 36.4709], [-96.8517, 36.4913], [-96.8379, 36.5118], [-96.8377, 36.5208], [-96.821, 36.5388], [-96.7695, 36.5654], [-96.7536, 36.5626], [-96.7372, 36.5501], [-96.7279, 36.5306], [-96.7249, 36.5032], [-96.7097, 36.4912], [-96.7062, 36.4776], [-96.7177, 36.4553], [-96.7158, 36.4431], [-96.6895, 36.4239], [-96.6745, 36.4204], [-96.6357, 36.4259], [-96.6201, 36.4098], [-96.6065, 36.4033], [-96.6019, 36.3823], [-96.5757, 36.3744], [-96.5407, 36.4004], [-96.5266, 36.3942], [-96.5186, 36.3751], [-96.5342, 36.356], [-96.559, 36.3485], [-96.5729, 36.3319], [-96.5735, 36.3157], [-96.547, 36.2981], [-96.5152, 36.2983], [-96.5014, 36.3074], [-96.4868, 36.3299], [-96.4568, 36.3322], [-96.4458, 36.3213], [-96.4338, 36.2859], [-96.3868, 36.2671], [-96.34, 36.23], [-96.2568, 36.2257], [-96.2428, 36.2026], [-96.2692, 36.1737], [-96.2683, 36.162], [-96.0011, 36.1613], [-96.0008, 36.9989], [-96.5256, 36.9987]]]}}, {"type": "Feature", "properties": {"osm_type": "relation", "osm_id": 517544886, "name": "Alfalfa", "admin_level": "6", "kind": "subdivision_2", "parent_osm_id": 161645, "parent_name": "Oklahoma", "parent_iso": "US-OK"}, "geometry": {"type": "Polygon", "coordinates": [[[-98.112, 36.9981], [-98.5447, 36.999], [-98.5402, 36.9422], [-98.5336, 36.4632], [-98.1044, 36.4631], [-98.112, 36.9981]]]}}, {"type": "Feature", "properties": {"osm_type": "relation", "osm_id": 249527522, "name": "Cimarron", "admin_level": "6", "kind": "subdivision_2", "parent_osm_id": 161645, "parent_name": "Oklahoma", "parent_iso": "US-OK"}, "geometry": {"type": "Polygon", "coordinates": [[[-102.1625, 36.5003], [-102.0323, 36.5006], [-102.0282, 36.9931], [-103.0022, 37.0001], [-103.0024, 36.5004], [-102.1625, 36.5003]]]}}, {"type": "Feature", "properties": {"osm_type": "relation", "osm_id": 983445660, "name": "Carter", "admin_level": "6", "kind": "subdivision_2", "parent_osm_id": 161645, "parent_name": "Oklahoma", "parent_iso": "US-OK"}, "geometry": {"type": "Polygon", "coordinates": [[[-96.9335, 34.3327], [-97.0287, 34.3326], [-97.0426, 34.3418], [-97.0354, 34.3478], [-97.0337, 34.3729], [-97.0491, 34.3756], [-97.3522, 34.3762], [-97.3521, 34.5068], [-97.5623, 34.507], [-97.5608, 34.0711], [-96.9696, 34.071], [-96.9684, 34.1726], [-96.9337, 34.1726], [-96.9335, 34.3327]]]}}, {"type": "Feature", "properties": {"osm_type": "relation", "osm_id": 774860148, "name": "Cleveland", "admin_level": "6", "kind": "subdivision_2", "parent_osm_id": 161645, "parent_name": "Oklahoma", "parent_iso": "US-OK"}, "geometry": {"type": "Polygon", "coordinates": [[[-97.6714, 35.3772], [-97.6715, 35.3375], [-97.6525, 35.3334], [-97.6178, 35.3052], [-97.579, 35.3018], [-97.5593, 35.2907], [-97.5548, 35.262], [-97.5665, 35.2474], [-97.5622, 35.2346], [-97.5415, 35.2142], [-97.4438, 35.1606], [-97.4383, 35.147], [-97.4071, 35.1382], [-97.4021, 35.0864], [-97.3683, 35.0852], [-97.3542, 35.0767], [-97.3505, 35.0511], [-97.358, 35.0337], [-97.3419, 34.9903], [-97.3482, 34.9854], [-97.3415, 34.964], [-97.3077, 34.954], [-97.2996, 34.9646], [-97.2739, 34.963], [-97.2616, 34.9454], [-97.2327, 34.9419], [-97.2279, 34.9321], [-97.2179, 34.9443], [-97.1984, 34.9399], [-97.1962, 34.9283], [-97.1546, 34.9314], [-97.1424, 34.9282], [-97.1421, 35.3769], [-97.6714, 35.3772]]]}}, {"type": "Feature", "properties": {"osm_type": "relation", "osm_id": 420890121, "name": "Pawnee", "admin_level": "6", "kind": "subdivision_2", "parent_osm_id": 161645, "parent_name": "Oklahoma", "parent_iso": "US-OK"}, "geometry": {"type": "Polygon", "coordinates": [[[-96.2683, 36.162], [-96.2692, 36.1737], [-96.2428, 36.2026], [-96.2568, 36.2257], [-96.34, 36.23], [-96.3868, 36.2671], [-96.4338, 36.2859], [-96.4458, 36.3213], [-96.4568, 36.3322], [-96.4868, 36.3299], [-96.5014, 36.3074], [-96.5152, 36.2983], [-96.547, 36.2981], [-96.5735, 36.3157], [-96.5729, 36.3319], [-96.559, 36.3485], [-96.5342, 36.356], [-96.5186, 36.3751], [-96.5266, 36.3942], [-96.5407, 36.4004], [-96.5757, 36.3744], [-96.6019, 36.3823], [-96.6065, 36.4033], [-96.6201, 36.4098], [-96.6357, 36.4259], [-96.6745, 36.4204], [-96.6895, 36.4239], [-96.7158, 36.4431], [-96.7177, 36.4553], [-96.7062, 36.4776], [-96.7097, 36.4912], [-96.7249, 36.5032], [-96.7279, 36.5306], [-96.7372, 36.5501], [-96.7536, 36.5626], [-96.7695, 36.5654], [-96.821, 36.5388], [-96.8377, 36.5208], [-96.8379, 36.5118], [-96.8517, 36.4913], [-96.8753, 36.4709], [-96.9125, 36.4678], [-96.9402, 36.4555], [-96.9684, 36.4604], [-97.0055, 36.486], [-97.0098, 36.5069], [-97.0321, 36.507], [-97.0321, 36.3334], [-96.9249, 36.3334], [-96.9251, 36.2465], [-96.819, 36.2465], [-96.819, 36.1589], [-96.6214, 36.1599], [-96.6193, 36.1636], [-96.2683, 36.162]]]}}, {"type": "Feature", "properties": {"osm_type": "relation", "osm_id": 682908370, "name": "Noble", "admin_level": "6", "kind": "subdivision_2", "parent_osm_id": 161645, "parent_name": "Oklahoma", "parent_iso": "US-OK"}, "geometry": {"type": "Polygon", "coordinates": [[[-97.4608, 36.1645], [-97.354, 36.1643], [-97.3541, 36.1591], [-97.1407, 36.1592], [-97.141, 36.2464], [-96.9251, 36.2465], [-96.9249, 36.3334], [-97.0321, 36.3334], [-97.0321, 36.507], [-97.0098, 36.5069], [-96.9962, 36.529], [-96.979, 36.5352], [-96.9585, 36.5343], [-96.9247, 36.5526], [-96.9027, 36.5514], [-96.888, 36.5749], [-96.9128, 36.599], [-96.9205, 36.6007], [-96.9486, 36.59], [-97.0029, 36.5826], [-97.0574, 36.5937], [-97.4616, 36.5936], [-97.4608, 36.1645]]]}}, {"type": "Feature", "properties": {"osm_type": "relation", "osm_id": 311465799, "name": "Cotton", "admin_level": "6", "kind": "subdivision_2", "parent_osm_id": 161645, "parent_name": "Oklahoma", "parent_iso": "US-OK"}, "geometry": {"type": "Polygon", "coordinates": [[[-98.662, 34.406], [-98.662, 34.3334], [-98.6097, 34.3337], [-98.6102, 34.1571], [-98.5998, 34.1606], [-98.5771, 34.149], [-98.5282, 34.095], [-98.5042, 34.0724], [-98.4863, 34.0626], [-98.449, 34.0735], [-98.4401, 34.0843], [-98.4144, 34.0851], [-98.3998, 34.1], [-98.3984, 34.1285], [-98.3812, 34.1495], [-98.364, 34.1571], [-98.3255, 34.151], [-98.2939, 34.133], [-98.2565, 34.1295], [-98.241, 34.1331], [-98.2037, 34.1177], [-98.1691, 34.1142], [-98.1544, 34.1227], [-98.139, 34.1418], [-98.1422, 34.507], [-98.2441, 34.5071], [-98.2442, 34.4637], [-98.2959, 34.4635], [-98.2959, 34.449], [-98.505, 34.4494], [-98.505, 34.4205], [-98.6096, 34.4206], [-98.6095, 34.4061], [-98.662, 34.406]]]}}, {"type": "Feature", "properties": {"osm_type": "relation", "osm_id": 520609735, "name": "Canadian", "admin_level": "6", "kind": "subdivision_2", "parent_osm_id": 161645, "parent_name": "Oklahoma", "parent_iso": "US-OK"}, "geometry": {"type": "Polygon", "coordinates": [[[-98.3133, 35.5515], [-98.3083, 35.5513], [-98.3063, 35.5163], [-98.3063, 35.3772], [-98.0175, 35.3779], [-98.0064, 35.3604], [-97.9997, 35.3628], [-97.9551, 35.3461], [-97.9469, 35.3564], [-97.9471, 35.3749], [-97.9323, 35.3734], [-97.9208, 35.3535], [-97.9016, 35.3534], [-97.9031, 35.3454], [-97.8841, 35.349], [-97.8628, 35.3618], [-97.8568, 35.3449], [-97.8287, 35.3344], [-97.8072, 35.3409], [-97.792, 35.3327], [-97.7693, 35.3457], [-97.7373, 35.3238], [-97.7062, 35.325], [-97.6716, 35.3359], [-97.674, 35.726], [-98.3134, 35.7252], [-98.3133, 35.5515]]]}}, {"type": "Feature", "properties": {"osm_type": "relation", "osm_id": 655748929, "name": "McClain", "admin_level": "6", "kind": "subdivision_2", "parent_osm_id": 161645, "parent_name": "Oklahoma", "parent_iso": "US-OK"}, "geometry": {"type": "Polygon", "coordinates": [[[-96.9306, 34.9644], [-96.957, 34.951], [-96.9676, 34.9346], [-96.9959, 34.9149], [-97.0159, 34.9074], [-97.0525, 34.9213], [-97.0718, 34.9199], [-97.0797, 34.9289], [-97.1329, 34.9346], [-97.1424, 34.9282], [-97.1546, 34.9314], [-97.1962, 34.9283], [-97.1984, 34.9399], [-97.2179, 34.9443], [-97.2279, 34.9321], [-97.2327, 34.9419], [-97.2616, 34.9454], [-97.2739, 34.963], [-97.2996, 34.9646], [-97.3077, 34.954], [-97.3415, 34.964], [-97.3482, 34.9854], [-97.3419, 34.9903], [-97.358, 35.0337], [-97.3505, 35.0511], [-97.3542, 35.0767], [-97.3683, 35.0852], [-97.4021, 35.0864], [-97.4071, 35.1382], [-97.4383, 35.147], [-97.4438, 35.1606], [-97.5415, 35.2142], [-97.5622, 35.2346], [-97.5665, 35.2474], [-97.5548, 35.262], [-97.5593, 35.2907], [-97.579, 35.3018], [-97.6178, 35.3052], [-97.6525, 35.3334], [-97.6715, 35.3375], [-97.6681, 34.8552], [-96.9325, 34.8545], [-96.9306, 34.9644]]]}}, {"type": "Feature", "properties": {"osm_type": "relation", "osm_id": 995894662, "name": "Oklahoma", "admin_level": "6", "kind": "subdivision_2", "parent_osm_id": 161645, "parent_name": "Oklahoma", "parent_iso": "US-OK"}, "geometry": {"type": "Polygon", "coordinates": [[[-97.674, 35.726], [-97.6714, 35.3772], [-97.1421, 35.3769], [-97.1411, 35.7244], [-97.674, 35.726]]]}}, {"type": "Feature", "properties": {"osm_type": "relation", "osm_id": 254014215, "name": "Pottawatomie", "admin_level": "6", "kind": "subdivision_2", "parent_osm_id": 161645, "parent_name": "Oklahoma", "parent_iso": "US-OK"}, "geometry": {"type": "Polygon", "coordinates": [[[-96.6249, 35.4627], [-97.1415, 35.464], [-97.1424, 34.9282], [-97.1329, 34.9346], [-97.0797, 34.9289], [-97.0718, 34.9199], [-97.0525, 34.9213], [-97.0159, 34.9074], [-96.9959, 34.9149], [-96.9676, 34.9346], [-96.957, 34.951], [-96.9306, 34.9644], [-96.9106, 34.9587], [-96.8854, 34.9263], [-96.8524, 34.9288], [-96.8135, 34.9447], [-96.7982, 34.93], [-96.7986, 34.9059], [-96.7757, 34.9], [-96.7767, 35.4054], [-96.7443, 35.4066], [-96.7248, 35.425], [-96.7188, 35.412], [-96.7024, 35.4161], [-96.6538, 35.3921], [-96.6237, 35.4007], [-96.6249, 35.4627]]]}}, {"type": "Feature", "properties": {"osm_type": "relation", "osm_id": 616026789, "name": "Tillman", "admin_level": "6", "kind": "subdivision_2", "parent_osm_id": 161645, "parent_name": "Oklahoma", "parent_iso": "US-OK"}, "geometry": {"type": "Polygon", "coordinates": [[[-98.826, 34.5944], [-99.0011, 34.5944], [-99.001, 34.6379], [-99.1032, 34.638], [-99.0793, 34.619], [-99.0885, 34.6153], [-99.0829, 34.5909], [-99.0997, 34.5941], [-99.1218, 34.5879], [-99.1322, 34.5921], [-99.1633, 34.588], [-99.1845, 34.5623], [-99.178, 34.5401], [-99.1968, 34.5424], [-99.2101, 34.5017], [-99.2207, 34.4945], [-99.2212, 34.4642], [-99.2134, 34.4562], [-99.228, 34.4518], [-99.223, 34.4329], [-99.228, 34.4196], [-99.2381, 34.425], [-99.2352, 34.4011], [-99.2266, 34.4013], [-99.2283, 34.3872], [-99.2139, 34.3947], [-99.2092, 34.3886], [-99.2197, 34.3743], [-99.2076, 34.3742], [-99.1928, 34.3549], [-99.1983, 34.3396], [-99.2107, 34.3363], [-99.2135, 34.3107], [-99.2076, 34.2835], [-99.1956, 34.2808], [-99.1972, 34.2443], [-99.1902, 34.2297], [-99.1895, 34.2143], [-99.159, 34.2089], [-99.1306, 34.2194], [-99.1266, 34.2153], [-99.1319, 34.2074], [-99.1266, 34.203], [-99.0795, 34.2115], [-99.0435, 34.1982], [-99.0363, 34.2069], [-99.0131, 34.2032], [-99.0029, 34.2088], [-99.0008, 34.2176], [-98.9873, 34.2212], [-98.969, 34.2013], [-98.9625, 34.2047], [-98.9608, 34.213], [-98.9524, 34.2126], [-98.9183, 34.1818], [-98.8729, 34.1666], [-98.8749, 34.1557], [-98.8681, 34.1496], [-98.8601, 34.1499], [-98.8556, 34.1616], [-98.813, 34.1584], [-98.792, 34.1437], [-98.7656, 34.1364], [-98.757, 34.1246], [-98.742, 34.1255], [-98.7343, 34.1358], [-98.6901, 34.1332], [-98.6481, 34.1644], [-98.6102, 34.1571], [-98.6097, 34.3337], [-98.662, 34.3334], [-98.662, 34.5075], [-98.8261, 34.5074], [-98.826, 34.5944]]]}}]}