{"type": "FeatureCollection", "parent": {"osm_id": 161950, "name": "Alabama", "admin_level": "4", "kind": "subdivision_1", "child_kind": "subdivision_2", "iso": "US-AL"}, "features": [{"type": "Feature", "properties": {"osm_type": "relation", "osm_id": 687575171, "name": "Baldwin", "admin_level": "6", "kind": "subdivision_2", "parent_osm_id": 161950, "parent_name": "Alabama", "parent_iso": "US-AL"}, "geometry": {"type": "Polygon", "coordinates": [[[-87.5988, 30.9974], [-87.6154, 30.9974], [-87.6159, 31.2445], [-87.6322, 31.2429], [-87.6764, 31.262], [-87.7143, 31.3021], [-87.7716, 31.2937], [-87.7956, 31.3027], [-87.804, 31.319], [-87.809, 31.3066], [-87.7858, 31.2829], [-87.7855, 31.2758], [-87.8015, 31.2698], [-87.8182, 31.2786], [-87.8283, 31.2753], [-87.8337, 31.2591], [-87.8493, 31.26], [-87.8371, 31.2473], [-87.8446, 31.2393], [-87.8359, 31.2311], [-87.8601, 31.2354], [-87.8636, 31.2261], [-87.8485, 31.2084], [-87.86, 31.2046], [-87.8698, 31.2158], [-87.8792, 31.198], [-87.8896, 31.2044], [-87.9062, 31.1992], [-87.9136, 31.1874], [-87.9466, 31.1929], [-87.9413, 31.1631], [-87.9729, 31.1627], [-87.9663, 31.1483], [-87.9401, 31.1472], [-87.9466, 31.1217], [-87.9762, 31.0895], [-87.9632, 31.068], [-87.9487, 31.0679], [-87.9412, 31.0482], [-87.9574, 31.0294], [-87.9505, 31.0221], [-87.9648, 31.0082], [-87.9566, 30.9898], [-87.9652, 30.9678], [-87.9436, 30.9618], [-87.9243, 30.9354], [-87.9523, 30.9249], [-87.9869, 30.8752], [-87.981, 30.8619], [-87.9545, 30.8494], [-87.9446, 30.8271], [-87.9871, 30.8115], [-87.9906, 30.7942], [-88.0167, 30.7811], [-88.0263, 30.7534], [-88.001, 30.6983], [-88.0084, 30.685], [-87.9812, 30.6751], [-87.956, 30.6589], [-87.9367, 30.6574], [-87.9194, 30.6361], [-87.9125, 30.6158], [-87.915, 30.5859], [-87.9042, 30.566], [-87.9017, 30.5509], [-87.9334, 30.4874], [-87.92, 30.4707], [-87.9063, 30.4094], [-87.865, 30.3835], [-87.8451, 30.3775], [-87.8093, 30.3327], [-87.7728, 30.3117], [-87.7555, 30.2912], [-87.7553, 30.2773], [-87.7666, 30.2624], [-87.7878, 30.2542], [-87.8177, 30.2543], [-87.8601, 30.2403], [-87.8793, 30.2386], [-87.9005, 30.2415], [-87.936, 30.2615], [-87.949, 30.2566], [-87.9669, 30.2356], [-88.024, 30.2304], [-88.0284, 30.2211], [-87.9623, 30.2295], [-87.8006, 30.2294], [-87.6569, 30.2497], [-87.5183, 30.2804], [-87.5094, 30.2922], [-87.4669, 30.3023], [-87.4641, 30.3118], [-87.4857, 30.3089], [-87.4962, 30.318], [-87.463, 30.334], [-87.4523, 30.3441], [-87.4514, 30.3672], [-87.4387, 30.3808], [-87.4407, 30.3915], [-87.4296, 30.4065], [-87.4035, 30.4102], [-87.3666, 30.4366], [-87.3708, 30.4469], [-87.3999, 30.451], [-87.4251, 30.4656], [-87.4356, 30.4805], [-87.4312, 30.4958], [-87.4477, 30.5105], [-87.4466, 30.5271], [-87.4355, 30.5491], [-87.4261, 30.5601], [-87.4187, 30.5618], [-87.4066, 30.5999], [-87.395, 30.6153], [-87.3962, 30.6504], [-87.407, 30.6752], [-87.4514, 30.6998], [-87.4664, 30.7008], [-87.4812, 30.7165], [-87.5023, 30.7216], [-87.5117, 30.7335], [-87.5326, 30.7435], [-87.5365, 30.7614], [-87.5462, 30.772], [-87.5451, 30.7786], [-87.5819, 30.8124], [-87.6005, 30.8206], [-87.6058, 30.8313], [-87.6159, 30.8347], [-87.6349, 30.8659], [-87.5921, 30.9515], [-87.5892, 30.9644], [-87.5988, 30.9974]]]}}, {"type": "Feature", "properties": {"osm_type": "relation", "osm_id": 193884582, "name": "Franklin", "admin_level": "6", "kind": "subdivision_2", "parent_osm_id": 161950, "parent_name": "Alabama", "parent_iso": "US-AL"}, "geometry": {"type": "Polygon", "coordinates": [[[-88.1563, 34.4632], [-88.1736, 34.3211], [-87.5297, 34.3046], [-87.5297, 34.5671], [-88.14, 34.5817], [-88.1563, 34.4632]]]}}, {"type": "Feature", "properties": {"osm_type": "relation", "osm_id": 510896555, "name": "Geneva", "admin_level": "6", "kind": "subdivision_2", "parent_osm_id": 161950, "parent_name": "Alabama", "parent_iso": "US-AL"}, "geometry": {"type": "Polygon", "coordinates": [[[-86.1935, 31.1922], [-86.1873, 30.994], [-85.4883, 30.9971], [-85.4858, 31.1999], [-85.5857, 31.1949], [-86.1167, 31.193], [-86.1167, 31.1821], [-86.1255, 31.1928], [-86.1935, 31.1922]]]}}, {"type": "Feature", "properties": {"osm_type": "relation", "osm_id": 948763445, "name": "Fayette", "admin_level": "6", "kind": "subdivision_2", "parent_osm_id": 161950, "parent_name": "Alabama", "parent_iso": "US-AL"}, "geometry": {"type": "Polygon", "coordinates": [[[-87.9518, 33.9199], [-87.9465, 33.5241], [-87.6667, 33.5217], [-87.6666, 33.5798], [-87.6316, 33.5807], [-87.6317, 33.6098], [-87.4237, 33.6021], [-87.4238, 33.6891], [-87.5283, 33.6921], [-87.5316, 33.8676], [-87.636, 33.872], [-87.6359, 33.9153], [-87.9518, 33.9199]]]}}, {"type": "Feature", "properties": {"osm_type": "relation", "osm_id": 361830322, "name": "Randolph", "admin_level": "6", "kind": "subdivision_2", "parent_osm_id": 161950, "parent_name": "Alabama", "parent_iso": "US-AL"}, "geometry": {"type": "Polygon", "coordinates": [[[-85.6435, 33.4959], [-85.6499, 33.3242], [-85.6411, 33.3239], [-85.6414, 33.306], [-85.6505, 33.3062], [-85.6537, 33.1066], [-85.2324, 33.1081], [-85.3045, 33.4829], [-85.3477, 33.5014], [-85.3526, 33.4924], [-85.6435, 33.4959]]]}}, {"type": "Feature", "properties": {"osm_type": "relation", "osm_id": 534095428, "name": "Tallapoosa", "admin_level": "6", "kind": "subdivision_2", "parent_osm_id": 161950, "parent_name": "Alabama", "parent_iso": "US-AL"}, "geometry": {"type": "Polygon", "coordinates": [[[-85.6537, 33.1066], [-85.9747, 33.1053], [-85.9746, 33.0905], [-86.0092, 33.0903], [-86.0076, 32.8278], [-86.0135, 32.8201], [-86.0073, 32.8122], [-86.0072, 32.755], [-85.9722, 32.7549], [-85.9728, 32.7692], [-85.9556, 32.7691], [-85.9549, 32.7548], [-85.8799, 32.7545], [-85.8906, 32.717], [-85.9075, 32.6993], [-85.9117, 32.6778], [-85.8878, 32.6476], [-85.8946, 32.6147], [-85.8876, 32.558], [-85.8904, 32.5001], [-85.8862, 32.4931], [-85.7972, 32.4942], [-85.7986, 32.5811], [-85.7127, 32.5818], [-85.7092, 32.5958], [-85.6959, 32.5959], [-85.6968, 32.6974], [-85.6797, 32.6979], [-85.6799, 32.7125], [-85.6103, 32.7139], [-85.61, 32.728], [-85.5932, 32.7285], [-85.5932, 33.1073], [-85.6537, 33.1066]]]}}, {"type": "Feature", "properties": {"osm_type": "relation", "osm_id": 131146738, "name": "Monroe", "admin_level": "6", "kind": "subdivision_2", "parent_osm_id": 161950, "parent_name": "Alabama", "parent_iso": "US-AL"}, "geometry": {"type": "Polygon", "coordinates": [[[-87.6159, 31.2445], [-87.5593, 31.2273], [-87.523, 31.2479], [-87.4892, 31.2601], [-87.4275, 31.2604], [-87.4209, 31.2763], [-87.3932, 31.3009], [-87.3598, 31.3178], [-87.3465, 31.3496], [-87.3322, 31.3553], [-87.2967, 31.4013], [-87.2711, 31.4162], [-87.23, 31.4534], [-87.2069, 31.4581], [-87.1979, 31.4781], [-87.1666, 31.5196], [-87.1677, 31.5348], [-87.1589, 31.5661], [-87.1451, 31.5872], [-87.1351, 31.6424], [-87.0914, 31.6523], [-87.0783, 31.6663], [-87.056, 31.6774], [-87.061, 31.7049], [-87.0511, 31.7183], [-87.0241, 31.7126], [-86.9893, 31.7186], [-86.9799, 31.7262], [-86.9487, 31.7349], [-86.9339, 31.7462], [-86.9059, 31.753], [-86.9069, 31.8306], [-87.5009, 31.8293], [-87.501, 31.814], [-87.5184, 31.8144], [-87.5161, 31.6978], [-87.5668, 31.6971], [-87.5654, 31.5536], [-87.6215, 31.5148], [-87.6051, 31.5002], [-87.5628, 31.4777], [-87.5634, 31.4647], [-87.577, 31.4321], [-87.6031, 31.4096], [-87.6227, 31.4107], [-87.6397, 31.4248], [-87.6656, 31.4232], [-87.6855, 31.4076], [-87.7061, 31.401], [-87.7258, 31.3737], [-87.7228, 31.3436], [-87.7464, 31.3333], [-87.7536, 31.3406], [-87.7545, 31.3623], [-87.7628, 31.3643], [-87.768, 31.3441], [-87.7844, 31.3289], [-87.7838, 31.3155], [-87.7652, 31.2974], [-87.7143, 31.3021], [-87.6764, 31.262], [-87.6322, 31.2429], [-87.6159, 31.2445]]]}}, {"type": "Feature", "properties": {"osm_type": "relation", "osm_id": 100770239, "name": "Butler", "admin_level": "6", "kind": "subdivision_2", "parent_osm_id": 161950, "parent_name": "Alabama", "parent_iso": "US-AL"}, "geometry": {"type": "Polygon", "coordinates": [[[-86.9059, 31.753], [-86.9068, 31.6327], [-86.894, 31.6163], [-86.8881, 31.5922], [-86.8746, 31.578], [-86.8663, 31.547], [-86.8394, 31.5252], [-86.4992, 31.5253], [-86.4995, 31.6553], [-86.4486, 31.6556], [-86.4464, 31.8317], [-86.4384, 31.8428], [-86.4466, 31.8464], [-86.4482, 31.9646], [-86.9089, 31.9617], [-86.9059, 31.753]]]}}, {"type": "Feature", "properties": {"osm_type": "relation", "osm_id": 158530856, "name": "Cullman", "admin_level": "6", "kind": "subdivision_2", "parent_osm_id": 161950, "parent_name": "Alabama", "parent_iso": "US-AL"}, "geometry": {"type": "Polygon", "coordinates": [[[-87.151, 33.9932], [-87.1341, 33.9651], [-87.1124, 33.9595], [-87.1046, 33.9352], [-87.0856, 33.9192], [-87.082, 33.9064], [-87.1008, 33.8984], [-87.0918, 33.8901], [-87.0071, 33.8889], [-87.0069, 33.8662], [-86.994, 33.8609], [-86.9634, 33.8582], [-86.9202, 33.8735], [-86.9244, 33.9092], [-86.886, 33.9174], [-86.8779, 33.9363], [-86.8682, 33.9328], [-86.8362, 33.9506], [-86.8213, 33.9415], [-86.8201, 33.9575], [-86.792, 33.9524], [-86.7917, 33.9636], [-86.764, 33.9742], [-86.7601, 33.9959], [-86.7404, 34.0004], [-86.7367, 34.012], [-86.7206, 34.032], [-86.7015, 34.0396], [-86.701, 34.0606], [-86.6854, 34.0591], [-86.7045, 34.0804], [-86.6925, 34.0924], [-86.6878, 34.0918], [-86.6866, 34.0796], [-86.6726, 34.0884], [-86.669, 34.0837], [-86.6568, 34.0917], [-86.6535, 34.1072], [-86.6241, 34.1222], [-86.6012, 34.119], [-86.5947, 34.1354], [-86.5678, 34.1702], [-86.5452, 34.1873], [-86.5558, 34.1891], [-86.5394, 34.226], [-86.5234, 34.2273], [-86.5189, 34.2523], [-86.4997, 34.249], [-86.4859, 34.2602], [-86.453, 34.2593], [-86.4595, 34.2892], [-86.4775, 34.3028], [-87.1101, 34.3138], [-87.112, 33.9924], [-87.151, 33.9932]]]}}, {"type": "Feature", "properties": {"osm_type": "relation", "osm_id": 315043824, "name": "Blount", "admin_level": "6", "kind": "subdivision_2", "parent_osm_id": 161950, "parent_name": "Alabama", "parent_iso": "US-AL"}, "geometry": {"type": "Polygon", "coordinates": [[[-86.9634, 33.8582], [-86.9543, 33.8449], [-86.9537, 33.8153], [-86.9365, 33.8153], [-86.884, 33.8432], [-86.7591, 33.8406], [-86.6453, 33.773], [-86.6478, 33.7659], [-86.5778, 33.7653], [-86.5775, 33.802], [-86.5218, 33.8019], [-86.5125, 33.8108], [-86.4453, 33.826], [-86.4377, 33.82], [-86.406, 33.8359], [-86.3427, 33.8865], [-86.3495, 33.907], [-86.3222, 33.9324], [-86.3256, 33.9402], [-86.3702, 33.9398], [-86.3393, 33.9715], [-86.3327, 33.9861], [-86.3324, 34.0405], [-86.3227, 34.0723], [-86.3035, 34.0991], [-86.409, 34.205], [-86.4307, 34.2319], [-86.4441, 34.2591], [-86.4859, 34.2602], [-86.4997, 34.249], [-86.5189, 34.2523], [-86.5234, 34.2273], [-86.5394, 34.226], [-86.5558, 34.1891], [-86.5452, 34.1873], [-86.5678, 34.1702], [-86.5947, 34.1354], [-86.6012, 34.119], [-86.6241, 34.1222], [-86.6535, 34.1072], [-86.6568, 34.0917], [-86.669, 34.0837], [-86.6726, 34.0884], [-86.6866, 34.0796], [-86.6878, 34.0918], [-86.6925, 34.0924], [-86.7045, 34.0804], [-86.6854, 34.0591], [-86.701, 34.0606], [-86.7015, 34.0396], [-86.7206, 34.032], [-86.7367, 34.012], [-86.7404, 34.0004], [-86.7601, 33.9959], [-86.764, 33.9742], [-86.7917, 33.9636], [-86.792, 33.9524], [-86.8201, 33.9575], [-86.8213, 33.9415], [-86.8362, 33.9506], [-86.8682, 33.9328], [-86.8779, 33.9363], [-86.886, 33.9174], [-86.9244, 33.9092], [-86.9202, 33.8735], [-86.9634, 33.8582]]]}}, {"type": "Feature", "properties": {"osm_type": "relation", "osm_id": 381056976, "name": "Morgan", "admin_level": "6", "kind": "subdivision_2", "parent_osm_id": 161950, "parent_name": "Alabama", "parent_iso": "US-AL"}, "geometry": {"type": "Polygon", "coordinates": [[[-86.5819, 34.3047], [-86.5813, 34.3711], [-86.5502, 34.546], [-86.5535, 34.5617], [-86.568, 34.5755], [-86.5985, 34.5821], [-86.6142, 34.5772], [-86.6362, 34.5552], [-86.6651, 34.5521], [-86.6766, 34.5778], [-86.7022, 34.589], [-86.7217, 34.5827], [-86.7531, 34.5557], [-86.7901, 34.5508], [-86.8369, 34.5562], [-86.9072, 34.5798], [-87.0353, 34.652], [-87.0529, 34.6504], [-87.1051, 34.686], [-87.1101, 34.3138], [-86.5819, 34.3047]]]}}, {"type": "Feature", "properties": {"osm_type": "relation", "osm_id": 635398958, "name": "Lamar", "admin_level": "6", "kind": "subdivision_2", "parent_osm_id": 161950, "parent_name": "Alabama", "parent_iso": "US-AL"}, "geometry": {"type": "Polygon", "coordinates": [[[-87.9518, 33.9199], [-87.9519, 34.0222], [-87.9874, 34.0229], [-87.9869, 34.0521], [-88.2072, 34.0583], [-88.2746, 33.534], [-87.9465, 33.5241], [-87.9518, 33.9199]]]}}, {"type": "Feature", "properties": {"osm_type": "relation", "osm_id": 539116449, "name": "Clay", "admin_level": "6", "kind": "subdivision_2", "parent_osm_id": 161950, "parent_name": "Alabama", "parent_iso": "US-AL"}, "geometry": {"type": "Polygon", "coordinates": [[[-85.6435, 33.4959], [-85.7654, 33.4986], [-85.7656, 33.4835], [-85.7827, 33.4836], [-85.7827, 33.4694], [-85.8878, 33.4694], [-85.8877, 33.4768], [-85.8701, 33.4768], [-85.8693, 33.4916], [-85.8524, 33.4917], [-85.8519, 33.4987], [-85.9049, 33.4987], [-85.9053, 33.4547], [-85.9228, 33.4546], [-85.9238, 33.3962], [-85.9409, 33.3961], [-85.9413, 33.3818], [-85.9765, 33.3819], [-85.9803, 33.2942], [-86.1182, 33.2963], [-86.1206, 33.1945], [-86.1728, 33.1957], [-86.1744, 33.1044], [-86.0093, 33.1046], [-86.0092, 33.0903], [-85.9746, 33.0905], [-85.9747, 33.1053], [-85.6537, 33.1066], [-85.6505, 33.3062], [-85.6414, 33.306], [-85.6411, 33.3239], [-85.6499, 33.3242], [-85.6435, 33.4959]]]}}, {"type": "Feature", "properties": {"osm_type": "relation", "osm_id": 402498012, "name": "Colbert", "admin_level": "6", "kind": "subdivision_2", "parent_osm_id": 161950, "parent_name": "Alabama", "parent_iso": "US-AL"}, "geometry": {"type": "Polygon", "coordinates": [[[-88.14, 34.5817], [-87.5178, 34.5662], [-87.5186, 34.5775], [-87.5073, 34.5865], [-87.5145, 34.5983], [-87.5027, 34.6095], [-87.4969, 34.626], [-87.4768, 34.6378], [-87.4837, 34.6482], [-87.4595, 34.6444], [-87.4434, 34.6611], [-87.4511, 34.6824], [-87.45, 34.6968], [-87.4263, 34.7093], [-87.4331, 34.7175], [-87.4279, 34.7519], [-87.4165, 34.7676], [-87.4344, 34.7736], [-87.4265, 34.8], [-87.48, 34.8126], [-87.5244, 34.8324], [-87.5848, 34.8192], [-87.6137, 34.799], [-87.7076, 34.7729], [-87.7327, 34.7457], [-87.7673, 34.7346], [-87.807, 34.7321], [-87.8358, 34.7412], [-87.9203, 34.8045], [-87.9335, 34.8389], [-87.9523, 34.8677], [-87.9866, 34.8868], [-88.0409, 34.9066], [-88.0979, 34.8922], [-88.14, 34.5817]]]}}, {"type": "Feature", "properties": {"osm_type": "relation", "osm_id": 719416623, "name": "Choctaw", "admin_level": "6", "kind": "subdivision_2", "parent_osm_id": 161950, "parent_name": "Alabama", "parent_iso": "US-AL"}, "geometry": {"type": "Polygon", "coordinates": [[[-88.4644, 31.698], [-88.0883, 31.6993], [-88.0934, 31.7375], [-88.1049, 31.7608], [-88.122, 31.7608], [-88.1426, 31.7525], [-88.1586, 31.7661], [-88.1653, 31.789], [-88.1807, 31.8167], [-88.162, 31.8408], [-88.1584, 31.8535], [-88.1457, 31.86], [-88.1294, 31.9049], [-88.0887, 31.9108], [-88.077, 31.9218], [-88.0553, 31.9235], [-88.0677, 31.9369], [-88.0881, 31.9219], [-88.1023, 31.94], [-88.1172, 31.9393], [-88.1214, 31.9503], [-88.0967, 31.965], [-88.0809, 31.9539], [-88.0708, 31.9587], [-88.0735, 31.9902], [-88.0921, 32.0071], [-88.0951, 31.9931], [-88.1136, 32.0062], [-88.1174, 32.0168], [-88.1134, 32.0412], [-88.1183, 32.0511], [-88.0959, 32.0699], [-88.0848, 32.0708], [-88.0706, 32.0617], [-88.0447, 32.0823], [-88.0522, 32.1018], [-88.0358, 32.145], [-88.0214, 32.145], [-88.0071, 32.1853], [-88.0125, 32.2008], [-88.0075, 32.2193], [-88.0151, 32.2349], [-88.0095, 32.2617], [-88.0201, 32.2718], [-88.0192, 32.2852], [-88.0042, 32.2837], [-88.0043, 32.2966], [-87.9914, 32.2946], [-87.9757, 32.3079], [-87.9679, 32.2983], [-87.9484, 32.3041], [-87.9368, 32.3017], [-87.9447, 32.283], [-87.9336, 32.2824], [-87.9307, 32.3106], [-88.4215, 32.3087], [-88.4732, 31.8939], [-88.4644, 31.698]]]}}, {"type": "Feature", "properties": {"osm_type": "relation", "osm_id": 996971524, "name": "Sumter", "admin_level": "6", "kind": "subdivision_2", "parent_osm_id": 161950, "parent_name": "Alabama", "parent_iso": "US-AL"}, "geometry": {"type": "Polygon", "coordinates": [[[-88.3479, 32.9291], [-88.4215, 32.3087], [-87.9307, 32.3106], [-87.942, 32.3147], [-87.9709, 32.3444], [-87.9939, 32.3472], [-88.0195, 32.3705], [-88.0463, 32.3771], [-88.0423, 32.4103], [-88.0316, 32.4336], [-87.9946, 32.4552], [-87.9751, 32.4576], [-87.9542, 32.473], [-87.9451, 32.4913], [-87.9137, 32.5182], [-87.9013, 32.5232], [-87.8527, 32.5152], [-87.8446, 32.5182], [-87.8415, 32.5256], [-87.8738, 32.5443], [-87.875, 32.5718], [-87.8984, 32.5923], [-87.8979, 32.6001], [-87.8826, 32.6097], [-87.8621, 32.6065], [-87.8602, 32.5909], [-87.8409, 32.6058], [-87.8581, 32.6208], [-87.8772, 32.6221], [-87.9048, 32.6146], [-87.9118, 32.6248], [-87.9287, 32.6323], [-88.0099, 32.6007], [-88.0573, 32.5934], [-88.0792, 32.6197], [-88.079, 32.6386], [-88.055, 32.6465], [-88.058, 32.6744], [-88.0409, 32.6877], [-88.0515, 32.697], [-88.0782, 32.684], [-88.1071, 32.6892], [-88.1159, 32.701], [-88.0854, 32.7091], [-88.0819, 32.7194], [-88.1014, 32.7393], [-88.1096, 32.771], [-88.103, 32.7794], [-88.0793, 32.773], [-88.0645, 32.7922], [-88.0792, 32.8045], [-88.1054, 32.7984], [-88.1327, 32.8329], [-88.1473, 32.8249], [-88.1797, 32.8302], [-88.155, 32.8529], [-88.18, 32.8717], [-88.1898, 32.9107], [-88.2073, 32.9248], [-88.1963, 32.9357], [-88.1753, 32.9321], [-88.1723, 32.9429], [-88.1824, 32.9457], [-88.1841, 32.9625], [-88.1653, 32.9543], [-88.1574, 32.9646], [-88.1673, 32.9706], [-88.1719, 32.9959], [-88.3404, 32.9912], [-88.3479, 32.9291]]]}}, {"type": "Feature", "properties": {"osm_type": "relation", "osm_id": 837154872, "name": "Winston", "admin_level": "6", "kind": "subdivision_2", "parent_osm_id": 161950, "parent_name": "Alabama", "parent_iso": "US-AL"}, "geometry": {"type": "Polygon", "coordinates": [[[-87.6347, 34.307], [-87.6361, 34.0022], [-87.2167, 33.9939], [-87.2, 33.9849], [-87.1899, 34.0028], [-87.1689, 34.0051], [-87.151, 33.9932], [-87.112, 33.9924], [-87.1099, 34.2993], [-87.6347, 34.307]]]}}, {"type": "Feature", "properties": {"osm_type": "relation", "osm_id": 889842661, "name": "Lawrence", "admin_level": "6", "kind": "subdivision_2", "parent_osm_id": 161950, "parent_name": "Alabama", "parent_iso": "US-AL"}, "geometry": {"type": "Polygon", "coordinates": [[[-87.5297, 34.3046], [-87.1099, 34.2993], [-87.1051, 34.686], [-87.1195, 34.6973], [-87.1389, 34.7241], [-87.1716, 34.7429], [-87.2228, 34.7632], [-87.2979, 34.7508], [-87.3442, 34.7965], [-87.3703, 34.805], [-87.4265, 34.8], [-87.4344, 34.7736], [-87.4165, 34.7676], [-87.4279, 34.7519], [-87.4331, 34.7175], [-87.4263, 34.7093], [-87.45, 34.6968], [-87.4511, 34.6824], [-87.4434, 34.6611], [-87.4595, 34.6444], [-87.4837, 34.6482], [-87.4768, 34.6378], [-87.4969, 34.626], [-87.5027, 34.6095], [-87.5145, 34.5983], [-87.5073, 34.5865], [-87.5186, 34.5775], [-87.5178, 34.5662], [-87.5297, 34.5671], [-87.5297, 34.3046]]]}}, {"type": "Feature", "properties": {"osm_type": "relation", "osm_id": 543437672, "name": "Marshall", "admin_level": "6", "kind": "subdivision_2", "parent_osm_id": 161950, "parent_name": "Alabama", "parent_iso": "US-AL"}, "geometry": {"type": "Polygon", "coordinates": [[[-86.453, 34.2593], [-86.4441, 34.2591], [-86.4307, 34.2319], [-86.409, 34.205], [-86.3035, 34.0991], [-86.19, 34.1829], [-86.157, 34.1873], [-86.1056, 34.1862], [-86.1101, 34.3748], [-86.1189, 34.4039], [-86.1104, 34.4278], [-86.0577, 34.476], [-86.0834, 34.4646], [-86.0962, 34.4887], [-86.0979, 34.5217], [-86.1264, 34.5333], [-86.1478, 34.5209], [-86.1485, 34.5991], [-86.3269, 34.5994], [-86.3031, 34.5926], [-86.3031, 34.5796], [-86.3314, 34.5733], [-86.3289, 34.5652], [-86.3067, 34.5607], [-86.3112, 34.5393], [-86.3245, 34.5292], [-86.3302, 34.5127], [-86.3382, 34.5101], [-86.3552, 34.5235], [-86.3697, 34.5138], [-86.3924, 34.5184], [-86.3889, 34.5002], [-86.4125, 34.4942], [-86.4239, 34.4796], [-86.454, 34.4838], [-86.4689, 34.4756], [-86.5, 34.4823], [-86.5318, 34.5013], [-86.5502, 34.546], [-86.5531, 34.5432], [-86.5813, 34.3711], [-86.5819, 34.3047], [-86.4775, 34.3028], [-86.4595, 34.2892], [-86.453, 34.2593]]]}}, {"type": "Feature", "properties": {"osm_type": "relation", "osm_id": 380910852, "name": "Etowah", "admin_level": "6", "kind": "subdivision_2", "parent_osm_id": 161950, "parent_name": "Alabama", "parent_iso": "US-AL"}, "geometry": {"type": "Polygon", "coordinates": [[[-86.3256, 33.9402], [-86.2901, 33.9837], [-86.2781, 33.9891], [-86.2516, 33.9656], [-86.2302, 33.9828], [-86.1992, 33.9889], [-86.1836, 33.9722], [-86.1681, 33.9652], [-86.1654, 33.9266], [-86.1492, 33.9206], [-86.1427, 33.8994], [-86.1125, 33.904], [-86.1089, 33.8812], [-86.0967, 33.8614], [-86.0731, 33.8658], [-86.0545, 33.8464], [-86.0653, 33.8422], [-86.0491, 33.8416], [-86.0465, 33.8526], [-86.0213, 33.8515], [-86.0215, 33.8661], [-85.9952, 33.8649], [-85.9875, 33.8792], [-85.9865, 33.8937], [-85.9692, 33.8929], [-85.9692, 33.9146], [-85.9345, 33.921], [-85.9343, 33.9064], [-85.8996, 33.9064], [-85.8997, 33.943], [-85.8818, 33.9503], [-85.811, 33.9471], [-85.741, 33.9353], [-85.7371, 33.9892], [-85.7971, 34.1002], [-85.791, 34.1251], [-85.812, 34.1251], [-85.8332, 34.11], [-85.8414, 34.1107], [-85.8436, 34.2], [-86.1061, 34.2008], [-86.1056, 34.1862], [-86.157, 34.1873], [-86.19, 34.1829], [-86.3035, 34.0991], [-86.3227, 34.0723], [-86.3324, 34.0405], [-86.3327, 33.9861], [-86.3393, 33.9715], [-86.3702, 33.9398], [-86.3256, 33.9402]]]}}, {"type": "Feature", "properties": {"osm_type": "relation", "osm_id": 224149426, "name": "St. Clair", "admin_level": "6", "kind": "subdivision_2", "parent_osm_id": 161950, "parent_name": "Alabama", "parent_iso": "US-AL"}, "geometry": {"type": "Polygon", "coordinates": [[[-86.5778, 33.7653], [-86.5428, 33.7652], [-86.5426, 33.7356], [-86.5251, 33.7212], [-86.5251, 33.6487], [-86.5338, 33.6489], [-86.5342, 33.6344], [-86.5428, 33.6344], [-86.5428, 33.6198], [-86.5515, 33.6055], [-86.552, 33.561], [-86.5167, 33.5534], [-86.5168, 33.5459], [-86.4816, 33.5461], [-86.4819, 33.5026], [-86.3782, 33.5024], [-86.3787, 33.391], [-86.3459, 33.411], [-86.3231, 33.4445], [-86.3106, 33.4526], [-86.2806, 33.511], [-86.2631, 33.5121], [-86.2656, 33.4964], [-86.2533, 33.4889], [-86.2353, 33.4945], [-86.2266, 33.5206], [-86.1905, 33.5437], [-86.1927, 33.5531], [-86.2086, 33.5599], [-86.221, 33.5879], [-86.2132, 33.5946], [-86.1844, 33.5938], [-86.2008, 33.6087], [-86.1695, 33.6192], [-86.1649, 33.6366], [-86.1724, 33.6598], [-86.2008, 33.6768], [-86.205, 33.6895], [-86.1866, 33.6995], [-86.1766, 33.6966], [-86.1709, 33.6793], [-86.1551, 33.6716], [-86.1456, 33.6791], [-86.1437, 33.7091], [-86.1239, 33.7108], [-86.1166, 33.7238], [-86.0816, 33.743], [-86.0626, 33.7599], [-86.0444, 33.7631], [-86.0644, 33.7978], [-86.0514, 33.8241], [-86.0653, 33.8422], [-86.0545, 33.8464], [-86.0731, 33.8658], [-86.0967, 33.8614], [-86.1089, 33.8812], [-86.1125, 33.904], [-86.1427, 33.8994], [-86.1492, 33.9206], [-86.1654, 33.9266], [-86.1681, 33.9652], [-86.1836, 33.9722], [-86.1992, 33.9889], [-86.2302, 33.9828], [-86.2516, 33.9656], [-86.2781, 33.9891], [-86.2901, 33.9837], [-86.3256, 33.9402], [-86.3222, 33.9324], [-86.3495, 33.907], [-86.3427, 33.8865], [-86.406, 33.8359], [-86.4377, 33.82], [-86.4453, 33.826], [-86.5125, 33.8108], [-86.5218, 33.8019], [-86.5775, 33.802], [-86.5778, 33.7653]]]}}, {"type": "Feature", "properties": {"osm_type": "relation", "osm_id": 561838742, "name": "Covington", "admin_level": "6", "kind": "subdivision_2", "parent_osm_id": 161950, "parent_name": "Alabama", "parent_iso": "US-AL"}, "geometry": {"type": "Polygon", "coordinates": [[[-86.1935, 31.1922], [-86.194, 31.4401], [-86.2619, 31.4412], [-86.2602, 31.4557], [-86.277, 31.4556], [-86.2802, 31.5285], [-86.2989, 31.5285], [-86.3196, 31.505], [-86.3306, 31.501], [-86.34, 31.4869], [-86.3647, 31.4867], [-86.3703, 31.4737], [-86.3957, 31.4507], [-86.3999, 31.5271], [-86.7016, 31.524], [-86.7012, 31.4366], [-86.6749, 31.4366], [-86.6621, 31.4028], [-86.6754, 31.389], [-86.6672, 31.3694], [-86.6925, 31.3475], [-86.7025, 31.3454], [-86.7002, 31.0004], [-86.6883, 30.9946], [-86.1873, 30.994], [-86.1935, 31.1922]]]}}, {"type": "Feature", "properties": {"osm_type": "relation", "osm_id": 890419435, "name": "Houston", "admin_level": "6", "kind": "subdivision_2", "parent_osm_id": 161950, "parent_name": "Alabama", "parent_iso": "US-AL"}, "geometry": {"type": "Polygon", "coordinates": [[[-85.4883, 30.9971], [-85.0025, 31.0007], [-85.0114, 31.0536], [-85.0356, 31.1082], [-85.0529, 31.1195], [-85.0766, 31.1569], [-85.0934, 31.1623], [-85.1075, 31.1865], [-85.0998, 31.2098], [-85.0988, 31.2325], [-85.1146, 31.2763], [-85.0898, 31.295], [-85.0888, 31.3087], [-85.4174, 31.315], [-85.4171, 31.2872], [-85.4854, 31.2871], [-85.4859, 31.2461], [-85.5461, 31.2539], [-85.603, 31.2724], [-85.6353, 31.2756], [-85.66, 31.2709], [-85.6712, 31.2497], [-85.6891, 31.2361], [-85.6967, 31.2047], [-85.7103, 31.1952], [-85.4858, 31.1999], [-85.4883, 30.9971]]]}}, {"type": "Feature", "properties": {"osm_type": "relation", "osm_id": 289948546, "name": "Limestone", "admin_level": "6", "kind": "subdivision_2", "parent_osm_id": 161950, "parent_name": "Alabama", "parent_iso": "US-AL"}, "geometry": {"type": "Polygon", "coordinates": [[[-86.7901, 34.5508], [-86.7836, 34.9919], [-87.2108, 34.999], [-87.2149, 34.816], [-87.2556, 34.7884], [-87.2711, 34.7838], [-87.2783, 34.7736], [-87.2607, 34.7586], [-87.2228, 34.7632], [-87.1716, 34.7429], [-87.1389, 34.7241], [-87.1195, 34.6973], [-87.0529, 34.6504], [-87.0353, 34.652], [-86.9072, 34.5798], [-86.8369, 34.5562], [-86.7901, 34.5508]]]}}, {"type": "Feature", "properties": {"osm_type": "relation", "osm_id": 935338265, "name": "Dallas", "admin_level": "6", "kind": "subdivision_2", "parent_osm_id": 161950, "parent_name": "Alabama", "parent_iso": "US-AL"}, "geometry": {"type": "Polygon", "coordinates": [[[-87.4731, 32.3076], [-87.4722, 32.2649], [-87.4446, 32.2689], [-87.4228, 32.2441], [-87.3943, 32.2373], [-87.3886, 32.2232], [-87.3745, 32.2219], [-87.3654, 32.1972], [-87.3534, 32.2017], [-87.3287, 32.1953], [-87.318, 32.1813], [-87.2925, 32.1679], [-87.2809, 32.1444], [-87.2629, 32.147], [-87.2522, 32.1358], [-87.2612, 32.1238], [-87.2455, 32.1222], [-87.2232, 32.0935], [-87.1903, 32.0861], [-87.1916, 32.0703], [-87.1756, 32.0647], [-87.1779, 32.0475], [-86.907, 32.048], [-86.9083, 32.225], [-86.8103, 32.2248], [-86.8105, 32.2376], [-86.8213, 32.2338], [-86.8413, 32.242], [-86.8639, 32.2703], [-86.8537, 32.2873], [-86.8261, 32.306], [-86.8505, 32.3099], [-86.8504, 32.329], [-86.8149, 32.3408], [-86.8074, 32.3544], [-86.8154, 32.3708], [-86.8272, 32.3788], [-86.8438, 32.4004], [-86.8455, 32.4154], [-86.8244, 32.4247], [-86.8499, 32.4383], [-86.8671, 32.4392], [-86.8601, 32.4509], [-86.8702, 32.469], [-86.8852, 32.4824], [-86.879, 32.4873], [-86.9068, 32.5373], [-86.8983, 32.5677], [-86.9188, 32.6443], [-86.9176, 32.6642], [-87.0177, 32.6633], [-87.0178, 32.7295], [-87.0333, 32.6959], [-87.0321, 32.664], [-87.0435, 32.643], [-87.0479, 32.6208], [-87.0407, 32.5992], [-87.0814, 32.5704], [-87.0773, 32.5574], [-87.0818, 32.5371], [-87.09, 32.5344], [-87.1007, 32.5047], [-87.1128, 32.4885], [-87.4232, 32.483], [-87.4217, 32.3081], [-87.4731, 32.3076]]]}}, {"type": "Feature", "properties": {"osm_type": "relation", "osm_id": 798093696, "name": "Elmore", "admin_level": "6", "kind": "subdivision_2", "parent_osm_id": 161950, "parent_name": "Alabama", "parent_iso": "US-AL"}, "geometry": {"type": "Polygon", "coordinates": [[[-86.0072, 32.755], [-86.3195, 32.7537], [-86.3192, 32.7678], [-86.3367, 32.7681], [-86.3368, 32.7538], [-86.4133, 32.7506], [-86.4112, 32.4099], [-86.3984, 32.4269], [-86.3445, 32.4326], [-86.3082, 32.4149], [-86.3252, 32.4435], [-86.308, 32.467], [-86.3133, 32.489], [-86.2903, 32.4726], [-86.262, 32.4865], [-86.2629, 32.5013], [-86.2371, 32.495], [-86.1981, 32.4514], [-86.1806, 32.4475], [-86.1923, 32.4361], [-86.1542, 32.4344], [-86.151, 32.4246], [-86.1255, 32.4341], [-86.1296, 32.4222], [-86.1163, 32.417], [-86.0863, 32.4217], [-86.0781, 32.4127], [-86.0464, 32.4062], [-86.0426, 32.4179], [-86.023, 32.42], [-85.9907, 32.4331], [-85.9935, 32.4515], [-85.9853, 32.4405], [-85.9735, 32.4535], [-85.959, 32.4411], [-85.9318, 32.4535], [-85.8944, 32.4476], [-85.8822, 32.455], [-85.8727, 32.4739], [-85.8526, 32.4758], [-85.8703, 32.4815], [-85.8904, 32.5001], [-85.8876, 32.558], [-85.8946, 32.6147], [-85.8878, 32.6476], [-85.9117, 32.6778], [-85.9075, 32.6993], [-85.8906, 32.717], [-85.8799, 32.7545], [-85.9549, 32.7548], [-85.9556, 32.7691], [-85.9728, 32.7692], [-85.9722, 32.7549], [-86.0072, 32.755]]]}}, {"type": "Feature", "properties": {"osm_type": "relation", "osm_id": 998735705, "name": "Tuscaloosa", "admin_level": "6", "kind": "subdivision_2", "parent_osm_id": 161950, "parent_name": "Alabama", "parent_iso": "US-AL"}, "geometry": {"type": "Polygon", "coordinates": [[[-87.8407, 33.5248], [-87.8381, 33.1369], [-87.8315, 33.0939], [-87.8322, 33.0173], [-87.7147, 33.0177], [-87.7157, 33.0068], [-87.3185, 33.0062], [-87.3116, 33.0939], [-87.2819, 33.1331], [-87.1993, 33.1307], [-87.1992, 33.1966], [-87.1435, 33.2362], [-87.1219, 33.2358], [-87.1215, 33.2215], [-87.1041, 33.2215], [-87.0766, 33.2468], [-87.0657, 33.2469], [-87.0658, 33.2759], [-87.0875, 33.2907], [-87.1268, 33.2909], [-87.1271, 33.306], [-87.162, 33.3066], [-87.1622, 33.321], [-87.1796, 33.3211], [-87.18, 33.343], [-87.1948, 33.3431], [-87.1976, 33.3581], [-87.232, 33.3659], [-87.232, 33.3951], [-87.2493, 33.3956], [-87.2538, 33.4178], [-87.2843, 33.4257], [-87.2844, 33.4406], [-87.3144, 33.4417], [-87.3141, 33.4557], [-87.3356, 33.4563], [-87.3417, 33.4705], [-87.3303, 33.492], [-87.285, 33.4858], [-87.2854, 33.5023], [-87.2614, 33.5007], [-87.2669, 33.5129], [-87.3182, 33.5142], [-87.3185, 33.5874], [-87.371, 33.5871], [-87.3711, 33.6017], [-87.6317, 33.6098], [-87.6316, 33.5807], [-87.6666, 33.5798], [-87.6667, 33.5217], [-87.7367, 33.5196], [-87.8407, 33.5248]]]}}, {"type": "Feature", "properties": {"osm_type": "relation", "osm_id": 367220895, "name": "Bullock", "admin_level": "6", "kind": "subdivision_2", "parent_osm_id": 161950, "parent_name": "Alabama", "parent_iso": "US-AL"}, "geometry": {"type": "Polygon", "coordinates": [[[-85.9193, 32.2744], [-85.9866, 32.2723], [-85.9866, 32.2506], [-85.9992, 32.2505], [-85.9969, 32.0511], [-85.9841, 32.0475], [-85.9759, 32.0544], [-85.9503, 32.0546], [-85.9463, 32.0619], [-85.9463, 32.0546], [-85.9118, 32.0548], [-85.9115, 32.0474], [-85.8937, 32.0474], [-85.8927, 31.9891], [-85.8843, 31.9819], [-85.8844, 31.9673], [-85.7901, 31.9673], [-85.7911, 31.8804], [-85.6577, 31.8803], [-85.6488, 31.9116], [-85.6048, 31.9609], [-85.5926, 31.9943], [-85.5124, 31.9997], [-85.5126, 32.0141], [-85.4285, 32.015], [-85.4274, 32.1394], [-85.4102, 32.1467], [-85.4274, 32.1466], [-85.4335, 32.2347], [-85.8562, 32.232], [-85.8761, 32.2464], [-85.8779, 32.2915], [-85.8985, 32.3053], [-85.8987, 32.275], [-85.9193, 32.2744]]]}}, {"type": "Feature", "properties": {"osm_type": "relation", "osm_id": 534137284, "name": "Pike", "admin_level": "6", "kind": "subdivision_2", "parent_osm_id": 161950, "parent_name": "Alabama", "parent_iso": "US-AL"}, "geometry": {"type": "Polygon", "coordinates": [[[-85.9969, 32.0511], [-85.9956, 31.9676], [-86.1914, 31.9665], [-86.175, 31.9306], [-86.1731, 31.8931], [-86.1823, 31.8703], [-86.183, 31.8324], [-86.1994, 31.8079], [-86.1994, 31.7905], [-86.1483, 31.791], [-86.1472, 31.6632], [-86.1601, 31.6602], [-86.1589, 31.6475], [-86.1787, 31.6282], [-86.1797, 31.6165], [-85.7414, 31.6196], [-85.7298, 31.6324], [-85.7162, 31.6605], [-85.7179, 31.698], [-85.7061, 31.7073], [-85.7051, 31.7317], [-85.6956, 31.7478], [-85.6741, 31.7586], [-85.6627, 31.7833], [-85.6741, 31.8081], [-85.6683, 31.8345], [-85.6776, 31.8568], [-85.6577, 31.8803], [-85.7911, 31.8804], [-85.7901, 31.9673], [-85.8844, 31.9673], [-85.8843, 31.9819], [-85.8927, 31.9891], [-85.8937, 32.0474], [-85.9115, 32.0474], [-85.9118, 32.0548], [-85.9463, 32.0546], [-85.9463, 32.0619], [-85.9503, 32.0546], [-85.9759, 32.0544], [-85.9841, 32.0475], [-85.9969, 32.0511]]]}}, {"type": "Feature", "properties": {"osm_type": "relation", "osm_id": 152933147, "name": "Jefferson", "admin_level": "6", "kind": "subdivision_2", "parent_osm_id": 161950, "parent_name": "Alabama", "parent_iso": "US-AL"}, "geometry": {"type": "Polygon", "coordinates": [[[-86.9537, 33.8153], [-86.9558, 33.8008], [-86.9712, 33.8012], [-86.9709, 33.7865], [-87.006, 33.7872], [-87.0059, 33.7726], [-87.0233, 33.7727], [-87.0234, 33.7466], [-87.0316, 33.729], [-87.0406, 33.729], [-87.0398, 33.6875], [-87.0573, 33.6855], [-87.0578, 33.6564], [-87.0927, 33.6569], [-87.0927, 33.6279], [-87.1445, 33.6282], [-87.1444, 33.6134], [-87.1794, 33.6138], [-87.1796, 33.5993], [-87.1969, 33.5993], [-87.2046, 33.5788], [-87.1969, 33.5624], [-87.1858, 33.5559], [-87.21, 33.5387], [-87.2326, 33.5394], [-87.2505, 33.5142], [-87.2687, 33.5306], [-87.2755, 33.5221], [-87.2614, 33.5007], [-87.2854, 33.5023], [-87.285, 33.4858], [-87.3303, 33.492], [-87.3417, 33.4705], [-87.3356, 33.4563], [-87.3141, 33.4557], [-87.3144, 33.4417], [-87.2844, 33.4406], [-87.2843, 33.4257], [-87.2538, 33.4178], [-87.2493, 33.3956], [-87.232, 33.3951], [-87.232, 33.3659], [-87.1976, 33.3581], [-87.1948, 33.3431], [-87.18, 33.343], [-87.1796, 33.3211], [-87.1622, 33.321], [-87.162, 33.3066], [-87.1271, 33.306], [-87.1268, 33.2909], [-87.0875, 33.2907], [-87.0658, 33.2759], [-87.0657, 33.2469], [-86.9829, 33.246], [-86.9827, 33.253], [-86.9696, 33.2675], [-86.9262, 33.2782], [-86.9261, 33.2965], [-86.8956, 33.3166], [-86.8825, 33.3327], [-86.8306, 33.332], [-86.8302, 33.3608], [-86.7786, 33.3669], [-86.7784, 33.3889], [-86.7611, 33.3884], [-86.7525, 33.4159], [-86.7181, 33.4163], [-86.7106, 33.4306], [-86.7004, 33.4304], [-86.7006, 33.4393], [-86.6919, 33.4515], [-86.6745, 33.4517], [-86.6676, 33.4666], [-86.6045, 33.4671], [-86.5606, 33.5175], [-86.5172, 33.5241], [-86.5167, 33.5534], [-86.552, 33.561], [-86.5515, 33.6055], [-86.5428, 33.6198], [-86.5428, 33.6344], [-86.5342, 33.6344], [-86.5338, 33.6489], [-86.5251, 33.6487], [-86.5251, 33.7212], [-86.5426, 33.7356], [-86.5428, 33.7652], [-86.6478, 33.7659], [-86.6453, 33.773], [-86.7591, 33.8406], [-86.884, 33.8432], [-86.9365, 33.8153], [-86.9537, 33.8153]]]}}, {"type": "Feature", "properties": {"osm_type": "relation", "osm_id": 407941674, "name": "Madison", "admin_level": "6", "kind": "subdivision_2", "parent_osm_id": 161950, "parent_name": "Alabama", "parent_iso": "US-AL"}, "geometry": {"type": "Polygon", "coordinates": [[[-86.5502, 34.546], [-86.5318, 34.5013], [-86.5, 34.4823], [-86.4689, 34.4756], [-86.454, 34.4838], [-86.4239, 34.4796], [-86.4125, 34.4942], [-86.3889, 34.5002], [-86.3924, 34.5184], [-86.3697, 34.5138], [-86.3552, 34.5235], [-86.3382, 34.5101], [-86.3302, 34.5127], [-86.3245, 34.5292], [-86.3112, 34.5393], [-86.3067, 34.5607], [-86.3289, 34.5652], [-86.3314, 34.5733], [-86.3031, 34.5796], [-86.3031, 34.5926], [-86.3269, 34.5994], [-86.3313, 34.6073], [-86.3259, 34.6096], [-86.3538, 34.6291], [-86.3581, 34.735], [-86.3423, 34.7443], [-86.3379, 34.763], [-86.3435, 34.8171], [-86.3266, 34.8313], [-86.347, 34.8577], [-86.3513, 34.8737], [-86.3294, 34.9014], [-86.3113, 34.9148], [-86.3262, 34.9371], [-86.3114, 34.9348], [-86.296, 34.9448], [-86.2817, 34.9385], [-86.2722, 34.9241], [-86.2569, 34.9265], [-86.2592, 34.9454], [-86.2871, 34.9577], [-86.2894, 34.9686], [-86.3063, 34.9749], [-86.3113, 34.9911], [-86.7836, 34.9919], [-86.7901, 34.5508], [-86.7531, 34.5557], [-86.7217, 34.5827], [-86.7022, 34.589], [-86.6766, 34.5778], [-86.6651, 34.5521], [-86.6362, 34.5552], [-86.6142, 34.5772], [-86.5985, 34.5821], [-86.568, 34.5755], [-86.5535, 34.5617], [-86.5502, 34.546]]]}}, {"type": "Feature", "properties": {"osm_type": "relation", "osm_id": 667926557, "name": "Mobile", "admin_level": "6", "kind": "subdivision_2", "parent_osm_id": 161950, "parent_name": "Alabama", "parent_iso": "US-AL"}, "geometry": {"type": "MultiPolygon", "coordinates": [[[[-88.0437, 30.5174], [-88.0533, 30.5062], [-88.0259, 30.4908], [-88.0247, 30.5164], [-88.0366, 30.5205], [-88.0437, 30.5174]]], [[[-88.2673, 30.3538], [-88.2732, 30.3333], [-88.2578, 30.3189], [-88.2483, 30.3261], [-88.2506, 30.3671], [-88.2613, 30.3723], [-88.2673, 30.3538]]], [[[-88.3308, 30.235], [-88.3247, 30.2232], [-88.2794, 30.2223], [-88.1666, 30.2412], [-88.1447, 30.239], [-88.1073, 30.2251], [-88.0929, 30.2407], [-88.0749, 30.2491], [-88.1247, 30.2836], [-88.1306, 30.2621], [-88.3308, 30.235]]], [[[-87.9729, 31.1627], [-87.9888, 31.1733], [-88.0227, 31.1443], [-88.3298, 31.1438], [-88.3299, 31.1144], [-88.432, 31.1143], [-88.395, 30.3694], [-88.3747, 30.3856], [-88.364, 30.388], [-88.3323, 30.3884], [-88.3116, 30.3689], [-88.2907, 30.3707], [-88.2826, 30.3829], [-88.2607, 30.3824], [-88.2001, 30.3624], [-88.1885, 30.3481], [-88.1984, 30.3388], [-88.1915, 30.317], [-88.1558, 30.3272], [-88.1362, 30.3207], [-88.1154, 30.3566], [-88.1073, 30.3773], [-88.1064, 30.4527], [-88.0969, 30.4711], [-88.1038, 30.5009], [-88.0907, 30.5236], [-88.0828, 30.5287], [-88.0855, 30.5633], [-88.0649, 30.5883], [-88.054, 30.6125], [-88.0596, 30.6191], [-88.062, 30.6449], [-88.0346, 30.6537], [-88.001, 30.6983], [-88.0263, 30.7534], [-88.0222, 30.7722], [-88.0167, 30.7811], [-87.9906, 30.7942], [-87.9871, 30.8115], [-87.9446, 30.8271], [-87.9545, 30.8494], [-87.981, 30.8619], [-87.9869, 30.8752], [-87.9523, 30.9249], [-87.9243, 30.9354], [-87.9436, 30.9618], [-87.9652, 30.9678], [-87.9566, 30.9898], [-87.9648, 31.0082], [-87.9505, 31.0221], [-87.9574, 31.0294], [-87.9412, 31.0482], [-87.9487, 31.0679], [-87.9632, 31.068], [-87.9762, 31.0895], [-87.9466, 31.1217], [-87.9401, 31.1472], [-87.9663, 31.1483], [-87.9729, 31.1627]]]]}}, {"type": "Feature", "properties": {"osm_type": "relation", "osm_id": 928376245, "name": "Lee", "admin_level": "6", "kind": "subdivision_2", "parent_osm_id": 161950, "parent_name": "Alabama", "parent_iso": "US-AL"}, "geometry": {"type": "Polygon", "coordinates": [[[-85.6959, 32.5959], [-85.6957, 32.582], [-85.6613, 32.5823], [-85.6611, 32.5679], [-85.4894, 32.4969], [-85.4386, 32.4971], [-85.434, 32.4098], [-85.3301, 32.4108], [-85.3338, 32.4686], [-85.0593, 32.4729], [-85.0608, 32.5077], [-85.0037, 32.5101], [-85.0071, 32.5239], [-85.0225, 32.5429], [-85.0677, 32.58], [-85.0897, 32.6316], [-85.1053, 32.6448], [-85.0885, 32.658], [-85.0935, 32.6697], [-85.1147, 32.6856], [-85.1227, 32.7157], [-85.1143, 32.7305], [-85.1301, 32.7518], [-85.135, 32.7465], [-85.2848, 32.7451], [-85.2932, 32.7307], [-85.4046, 32.7305], [-85.4135, 32.7447], [-85.4306, 32.745], [-85.4306, 32.7303], [-85.61, 32.728], [-85.6103, 32.7139], [-85.6799, 32.7125], [-85.6797, 32.6979], [-85.6968, 32.6974], [-85.6959, 32.5959]]]}}, {"type": "Feature", "properties": {"osm_type": "relation", "osm_id": 859404200, "name": "Montgomery", "admin_level": "6", "kind": "subdivision_2", "parent_osm_id": 161950, "parent_name": "Alabama", "parent_iso": "US-AL"}, "geometry": {"type": "Polygon", "coordinates": [[[-86.4112, 32.4099], [-86.4447, 32.3998], [-86.4563, 32.4058], [-86.4613, 32.4035], [-86.4636, 32.3773], [-86.4919, 32.3643], [-86.4968, 32.3444], [-86.4745, 32.3316], [-86.4911, 32.3016], [-86.4847, 32.2845], [-86.4088, 32.2443], [-86.4063, 32.0507], [-86.3035, 32.0503], [-86.3022, 31.9651], [-85.9956, 31.9676], [-85.9992, 32.2505], [-85.9866, 32.2506], [-85.9866, 32.2723], [-85.9193, 32.2744], [-85.9543, 32.3022], [-85.9585, 32.3235], [-85.9691, 32.3336], [-85.9913, 32.3361], [-85.9937, 32.3579], [-86.0146, 32.3843], [-86.0109, 32.4043], [-86.023, 32.42], [-86.0426, 32.4179], [-86.0464, 32.4062], [-86.0781, 32.4127], [-86.0863, 32.4217], [-86.1163, 32.417], [-86.1296, 32.4222], [-86.1255, 32.4341], [-86.151, 32.4246], [-86.1542, 32.4344], [-86.1923, 32.4361], [-86.1806, 32.4475], [-86.1981, 32.4514], [-86.2371, 32.495], [-86.2629, 32.5013], [-86.262, 32.4865], [-86.2903, 32.4726], [-86.3133, 32.489], [-86.308, 32.467], [-86.3252, 32.4435], [-86.3082, 32.4149], [-86.3445, 32.4326], [-86.3984, 32.4269], [-86.4112, 32.4099]]]}}, {"type": "Feature", "properties": {"osm_type": "relation", "osm_id": 818280612, "name": "Clarke", "admin_level": "6", "kind": "subdivision_2", "parent_osm_id": 161950, "parent_name": "Alabama", "parent_iso": "US-AL"}, "geometry": {"type": "Polygon", "coordinates": [[[-87.7652, 31.2974], [-87.7838, 31.3155], [-87.7844, 31.3289], [-87.768, 31.3441], [-87.7628, 31.3643], [-87.7545, 31.3623], [-87.7536, 31.3406], [-87.7464, 31.3333], [-87.7228, 31.3436], [-87.7258, 31.3737], [-87.7061, 31.401], [-87.6855, 31.4076], [-87.6656, 31.4232], [-87.6397, 31.4248], [-87.6227, 31.4107], [-87.6031, 31.4096], [-87.577, 31.4321], [-87.5634, 31.4647], [-87.5628, 31.4777], [-87.6051, 31.5002], [-87.6215, 31.5148], [-87.5654, 31.5536], [-87.5668, 31.6971], [-87.5161, 31.6978], [-87.5184, 31.8144], [-87.501, 31.814], [-87.5009, 31.8293], [-87.6201, 31.8271], [-87.621, 31.8704], [-87.633, 31.876], [-87.6668, 31.8758], [-87.6678, 31.9914], [-88.0735, 31.9902], [-88.0708, 31.9587], [-88.0809, 31.9539], [-88.0967, 31.965], [-88.1214, 31.9503], [-88.1172, 31.9393], [-88.1023, 31.94], [-88.0881, 31.9219], [-88.0677, 31.9369], [-88.0553, 31.9235], [-88.077, 31.9218], [-88.0887, 31.9108], [-88.1294, 31.9049], [-88.1457, 31.86], [-88.1584, 31.8535], [-88.162, 31.8408], [-88.1807, 31.8167], [-88.1653, 31.789], [-88.1586, 31.7661], [-88.1426, 31.7525], [-88.122, 31.7608], [-88.1049, 31.7608], [-88.0934, 31.7375], [-88.087, 31.6862], [-88.0787, 31.6696], [-88.0894, 31.6588], [-88.084, 31.6303], [-88.0743, 31.6164], [-88.08, 31.6058], [-88.0722, 31.5945], [-88.0515, 31.5835], [-88.0277, 31.5843], [-88.0234, 31.5709], [-88.0401, 31.5723], [-88.0313, 31.5605], [-87.9704, 31.5306], [-87.9425, 31.5267], [-87.9244, 31.503], [-87.9061, 31.4918], [-87.9191, 31.4671], [-87.9155, 31.4498], [-87.9351, 31.4424], [-87.9111, 31.4244], [-87.9278, 31.4078], [-87.9073, 31.4061], [-87.9121, 31.3945], [-87.9277, 31.3966], [-87.9443, 31.3752], [-87.9173, 31.3767], [-87.9186, 31.3896], [-87.898, 31.3811], [-87.8873, 31.3922], [-87.8928, 31.3723], [-87.8889, 31.364], [-87.9081, 31.323], [-87.9101, 31.3341], [-87.9232, 31.3346], [-87.9245, 31.3129], [-87.9596, 31.3162], [-87.9647, 31.3112], [-87.9475, 31.2963], [-87.9574, 31.2797], [-87.9551, 31.2678], [-87.9757, 31.2697], [-87.9862, 31.2598], [-87.9692, 31.2584], [-87.9634, 31.2502], [-87.944, 31.2443], [-87.9313, 31.2246], [-87.9484, 31.2068], [-87.9466, 31.1929], [-87.9136, 31.1874], [-87.9062, 31.1992], [-87.8896, 31.2044], [-87.8792, 31.198], [-87.8698, 31.2158], [-87.86, 31.2046], [-87.8485, 31.2084], [-87.8636, 31.2261], [-87.8601, 31.2354], [-87.8359, 31.2311], [-87.8446, 31.2393], [-87.8371, 31.2473], [-87.8493, 31.26], [-87.8337, 31.2591], [-87.8283, 31.2753], [-87.8182, 31.2786], [-87.8015, 31.2698], [-87.7855, 31.2758], [-87.7858, 31.2829], [-87.809, 31.3066], [-87.804, 31.319], [-87.7956, 31.3027], [-87.7716, 31.2937], [-87.7652, 31.2974]]]}}, {"type": "Feature", "properties": {"osm_type": "relation", "osm_id": 708795154, "name": "Wilcox", "admin_level": "6", "kind": "subdivision_2", "parent_osm_id": 161950, "parent_name": "Alabama", "parent_iso": "US-AL"}, "geometry": {"type": "Polygon", "coordinates": [[[-86.9069, 31.8306], [-86.9089, 31.9617], [-86.8576, 31.9622], [-86.8566, 32.0484], [-87.1779, 32.0475], [-87.1756, 32.0647], [-87.1916, 32.0703], [-87.1903, 32.0861], [-87.2232, 32.0935], [-87.2455, 32.1222], [-87.2612, 32.1238], [-87.2522, 32.1358], [-87.2629, 32.147], [-87.2809, 32.1444], [-87.2925, 32.1679], [-87.318, 32.1813], [-87.3287, 32.1953], [-87.3534, 32.2017], [-87.3654, 32.1972], [-87.3745, 32.2219], [-87.3886, 32.2232], [-87.3943, 32.2373], [-87.4228, 32.2441], [-87.4446, 32.2689], [-87.5141, 32.266], [-87.5233, 32.251], [-87.5221, 32.1328], [-87.624, 32.1324], [-87.6228, 32.0055], [-87.668, 32.0022], [-87.6668, 31.8758], [-87.633, 31.876], [-87.621, 31.8704], [-87.6201, 31.8271], [-86.9069, 31.8306]]]}}, {"type": "Feature", "properties": {"osm_type": "relation", "osm_id": 798241824, "name": "Hale", "admin_level": "6", "kind": "subdivision_2", "parent_osm_id": 161950, "parent_name": "Alabama", "parent_iso": "US-AL"}, "geometry": {"type": "Polygon", "coordinates": [[[-87.7157, 33.0068], [-87.7069, 32.9914], [-87.729, 32.9844], [-87.7333, 32.9784], [-87.7488, 32.9789], [-87.7407, 32.9613], [-87.7464, 32.9551], [-87.7348, 32.9526], [-87.7313, 32.9467], [-87.7358, 32.9414], [-87.7551, 32.9367], [-87.7523, 32.9322], [-87.7613, 32.9338], [-87.7749, 32.9245], [-87.7653, 32.9049], [-87.786, 32.8949], [-87.8063, 32.8955], [-87.8083, 32.887], [-87.8187, 32.8911], [-87.8103, 32.8802], [-87.8188, 32.8815], [-87.8208, 32.8687], [-87.8302, 32.8651], [-87.8328, 32.8592], [-87.8227, 32.8528], [-87.824, 32.8481], [-87.8313, 32.8473], [-87.8318, 32.8405], [-87.817, 32.8321], [-87.8187, 32.8008], [-87.8417, 32.7785], [-87.8665, 32.7704], [-87.8693, 32.7644], [-87.8613, 32.7569], [-87.8341, 32.7619], [-87.8332, 32.7697], [-87.8232, 32.7659], [-87.8053, 32.7479], [-87.8132, 32.7336], [-87.8286, 32.7273], [-87.8316, 32.7157], [-87.8264, 32.7083], [-87.816, 32.7067], [-87.8046, 32.7148], [-87.7947, 32.7121], [-87.7869, 32.675], [-87.7923, 32.6602], [-87.7786, 32.6515], [-87.7438, 32.6544], [-87.748, 32.6408], [-87.7629, 32.6364], [-87.7806, 32.6401], [-87.8078, 32.638], [-87.8108, 32.6288], [-87.8068, 32.6193], [-87.7907, 32.6071], [-87.7487, 32.6125], [-87.7376, 32.5905], [-87.7707, 32.5755], [-87.7715, 32.5813], [-87.7848, 32.5848], [-87.7863, 32.5674], [-87.7968, 32.5646], [-87.8011, 32.535], [-87.8126, 32.5246], [-87.7285, 32.5245], [-87.7287, 32.4809], [-87.5245, 32.482], [-87.5252, 32.6557], [-87.4739, 32.6559], [-87.4722, 32.8306], [-87.4214, 32.8308], [-87.4219, 33.0034], [-87.7157, 33.0068]]]}}, {"type": "Feature", "properties": {"osm_type": "relation", "osm_id": 518001284, "name": "Henry", "admin_level": "6", "kind": "subdivision_2", "parent_osm_id": 161950, "parent_name": "Alabama", "parent_iso": "US-AL"}, "geometry": {"type": "Polygon", "coordinates": [[[-85.0456, 31.5172], [-85.0419, 31.5447], [-85.058, 31.5708], [-85.0622, 31.6229], [-85.1255, 31.695], [-85.1189, 31.7327], [-85.1287, 31.7639], [-85.1484, 31.7735], [-85.1883, 31.7464], [-85.206, 31.7418], [-85.2095, 31.7105], [-85.2161, 31.7024], [-85.416, 31.7067], [-85.4174, 31.315], [-85.0888, 31.3087], [-85.0867, 31.34], [-85.0925, 31.3629], [-85.0776, 31.3981], [-85.08, 31.4105], [-85.066, 31.4314], [-85.0716, 31.4684], [-85.0456, 31.5172]]]}}, {"type": "Feature", "properties": {"osm_type": "relation", "osm_id": 800179617, "name": "Coosa", "admin_level": "6", "kind": "subdivision_2", "parent_osm_id": 161950, "parent_name": "Alabama", "parent_iso": "US-AL"}, "geometry": {"type": "Polygon", "coordinates": [[[-86.0092, 33.0903], [-86.0093, 33.1046], [-86.491, 33.103], [-86.5111, 33.0884], [-86.506, 33.0678], [-86.5201, 33.057], [-86.5173, 33.0206], [-86.5223, 33.0044], [-86.5106, 32.9854], [-86.5181, 32.9712], [-86.516, 32.9294], [-86.4905, 32.9056], [-86.4802, 32.8744], [-86.4515, 32.8637], [-86.4478, 32.851], [-86.4607, 32.8335], [-86.457, 32.8139], [-86.4272, 32.7917], [-86.4134, 32.7882], [-86.3967, 32.763], [-86.375, 32.7536], [-86.3368, 32.7538], [-86.3367, 32.7681], [-86.3192, 32.7678], [-86.3195, 32.7537], [-86.0072, 32.755], [-86.0073, 32.8122], [-86.0135, 32.8201], [-86.0076, 32.8278], [-86.0092, 33.0903]]]}}, {"type": "Feature", "properties": {"osm_type": "relation", "osm_id": 625844316, "name": "Talladega", "admin_level": "6", "kind": "subdivision_2", "parent_osm_id": 161950, "parent_name": "Alabama", "parent_iso": "US-AL"}, "geometry": {"type": "Polygon", "coordinates": [[[-85.8519, 33.4987], [-85.7969, 33.5419], [-85.7946, 33.5856], [-85.9949, 33.5865], [-85.9969, 33.6009], [-86.0217, 33.604], [-86.0258, 33.6463], [-86.0496, 33.6735], [-86.1456, 33.6791], [-86.1551, 33.6716], [-86.1709, 33.6793], [-86.1766, 33.6966], [-86.1866, 33.6995], [-86.205, 33.6895], [-86.2008, 33.6768], [-86.1724, 33.6598], [-86.1649, 33.6366], [-86.1695, 33.6192], [-86.2008, 33.6087], [-86.1844, 33.5938], [-86.2132, 33.5946], [-86.221, 33.5879], [-86.2086, 33.5599], [-86.1927, 33.5531], [-86.1905, 33.5437], [-86.2266, 33.5206], [-86.2353, 33.4945], [-86.2533, 33.4889], [-86.2656, 33.4964], [-86.2631, 33.5121], [-86.2806, 33.511], [-86.3106, 33.4526], [-86.3231, 33.4445], [-86.3459, 33.411], [-86.3787, 33.391], [-86.3529, 33.3725], [-86.3409, 33.3531], [-86.3622, 33.3469], [-86.3675, 33.3357], [-86.3609, 33.2924], [-86.3933, 33.2754], [-86.4103, 33.2729], [-86.4343, 33.2817], [-86.4244, 33.2606], [-86.4289, 33.2495], [-86.4355, 33.242], [-86.447, 33.2426], [-86.4665, 33.2245], [-86.461, 33.2029], [-86.4861, 33.2019], [-86.5031, 33.1792], [-86.4835, 33.1595], [-86.483, 33.1483], [-86.4599, 33.1251], [-86.491, 33.103], [-86.1744, 33.1044], [-86.1728, 33.1957], [-86.1206, 33.1945], [-86.1182, 33.2963], [-85.9803, 33.2942], [-85.9765, 33.3819], [-85.9413, 33.3818], [-85.9409, 33.3961], [-85.9238, 33.3962], [-85.9228, 33.4546], [-85.9053, 33.4547], [-85.9049, 33.4987], [-85.8519, 33.4987]]]}}, {"type": "Feature", "properties": {"osm_type": "relation", "osm_id": 789931604, "name": "Jackson", "admin_level": "6", "kind": "subdivision_2", "parent_osm_id": 161950, "parent_name": "Alabama", "parent_iso": "US-AL"}, "geometry": {"type": "Polygon", "coordinates": [[[-86.0577, 34.476], [-86.0349, 34.4734], [-86.0156, 34.4816], [-86.0038, 34.48], [-85.9623, 34.4998], [-85.9385, 34.5254], [-85.7855, 34.6246], [-85.693, 34.7443], [-85.6734, 34.7449], [-85.6602, 34.755], [-85.6343, 34.799], [-85.6271, 34.8319], [-85.5832, 34.8604], [-85.6052, 34.9847], [-86.3113, 34.9911], [-86.3063, 34.9749], [-86.2894, 34.9686], [-86.2871, 34.9577], [-86.2592, 34.9454], [-86.2569, 34.9265], [-86.2722, 34.9241], [-86.2817, 34.9385], [-86.296, 34.9448], [-86.3114, 34.9348], [-86.3262, 34.9371], [-86.3113, 34.9148], [-86.3294, 34.9014], [-86.3513, 34.8737], [-86.347, 34.8577], [-86.3266, 34.8313], [-86.3435, 34.8171], [-86.3379, 34.763], [-86.3423, 34.7443], [-86.3581, 34.735], [-86.3538, 34.6291], [-86.3259, 34.6096], [-86.3313, 34.6073], [-86.3269, 34.5994], [-86.1485, 34.5991], [-86.1478, 34.5209], [-86.1264, 34.5333], [-86.0979, 34.5217], [-86.0962, 34.4887], [-86.0834, 34.4646], [-86.0577, 34.476]]]}}, {"type": "Feature", "properties": {"osm_type": "relation", "osm_id": 367983738, "name": "DeKalb", "admin_level": "6", "kind": "subdivision_2", "parent_osm_id": 161950, "parent_name": "Alabama", "parent_iso": "US-AL"}, "geometry": {"type": "Polygon", "coordinates": [[[-86.1061, 34.2008], [-85.8436, 34.2], [-85.8438, 34.2435], [-85.8084, 34.2394], [-85.809, 34.2589], [-85.7742, 34.2591], [-85.6753, 34.3434], [-85.6642, 34.3619], [-85.6366, 34.3666], [-85.6203, 34.387], [-85.6275, 34.3959], [-85.6167, 34.3934], [-85.6007, 34.4209], [-85.5797, 34.4397], [-85.5839, 34.458], [-85.5803, 34.4703], [-85.5703, 34.4678], [-85.577, 34.4835], [-85.5604, 34.4899], [-85.5594, 34.5013], [-85.5444, 34.5001], [-85.5334, 34.5141], [-85.5137, 34.5242], [-85.5832, 34.8604], [-85.6271, 34.8319], [-85.6343, 34.799], [-85.6602, 34.755], [-85.6734, 34.7449], [-85.693, 34.7443], [-85.7855, 34.6246], [-85.9385, 34.5254], [-85.9623, 34.4998], [-86.0038, 34.48], [-86.0156, 34.4816], [-86.0349, 34.4734], [-86.0577, 34.476], [-86.1104, 34.4278], [-86.1189, 34.4039], [-86.1101, 34.3748], [-86.1061, 34.2008]]]}}, {"type": "Feature", "properties": {"osm_type": "relation", "osm_id": 480011224, "name": "Conecuh", "admin_level": "6", "kind": "subdivision_2", "parent_osm_id": 161950, "parent_name": "Alabama", "parent_iso": "US-AL"}, "geometry": {"type": "Polygon", "coordinates": [[[-87.4275, 31.2604], [-86.764, 31.2613], [-86.7723, 31.2507], [-86.7638, 31.2205], [-86.7725, 31.2022], [-86.7567, 31.1932], [-86.7387, 31.1947], [-86.7212, 31.1837], [-86.7211, 31.191], [-86.7003, 31.1922], [-86.7025, 31.3454], [-86.6925, 31.3475], [-86.6672, 31.3694], [-86.6754, 31.389], [-86.6621, 31.4028], [-86.6749, 31.4366], [-86.7012, 31.4366], [-86.7016, 31.524], [-86.8394, 31.5252], [-86.8663, 31.547], [-86.8746, 31.578], [-86.8881, 31.5922], [-86.894, 31.6163], [-86.9068, 31.6327], [-86.9059, 31.753], [-86.9339, 31.7462], [-86.9487, 31.7349], [-86.9799, 31.7262], [-86.9893, 31.7186], [-87.0241, 31.7126], [-87.0511, 31.7183], [-87.061, 31.7049], [-87.056, 31.6774], [-87.0783, 31.6663], [-87.0914, 31.6523], [-87.1351, 31.6424], [-87.1451, 31.5872], [-87.1589, 31.5661], [-87.1677, 31.5348], [-87.1666, 31.5196], [-87.1979, 31.4781], [-87.2069, 31.4581], [-87.23, 31.4534], [-87.2711, 31.4162], [-87.2967, 31.4013], [-87.3322, 31.3553], [-87.3465, 31.3496], [-87.3598, 31.3178], [-87.3932, 31.3009], [-87.4209, 31.2763], [-87.4275, 31.2604]]]}}, {"type": "Feature", "properties": {"osm_type": "relation", "osm_id": 206522724, "name": "Perry", "admin_level": "6", "kind": "subdivision_2", "parent_osm_id": 161950, "parent_name": "Alabama", "parent_iso": "US-AL"}, "geometry": {"type": "Polygon", "coordinates": [[[-87.0178, 32.7295], [-87.0192, 32.837], [-87.3192, 32.8315], [-87.3195, 32.8751], [-87.4212, 32.8745], [-87.4214, 32.8308], [-87.4722, 32.8306], [-87.4739, 32.6559], [-87.5252, 32.6557], [-87.5243, 32.3073], [-87.4217, 32.3081], [-87.4232, 32.483], [-87.1128, 32.4885], [-87.1007, 32.5047], [-87.09, 32.5344], [-87.0818, 32.5371], [-87.0773, 32.5574], [-87.0814, 32.5704], [-87.0407, 32.5992], [-87.0479, 32.6208], [-87.0435, 32.643], [-87.0321, 32.664], [-87.0333, 32.6959], [-87.0178, 32.7295]]]}}, {"type": "Feature", "properties": {"osm_type": "relation", "osm_id": 319770706, "name": "Escambia", "admin_level": "6", "kind": "subdivision_2", "parent_osm_id": 161950, "parent_name": "Alabama", "parent_iso": "US-AL"}, "geometry": {"type": "Polygon", "coordinates": [[[-87.1636, 30.999], [-86.6883, 30.9946], [-86.7002, 31.0004], [-86.7003, 31.1922], [-86.7211, 31.191], [-86.7212, 31.1837], [-86.7387, 31.1947], [-86.7567, 31.1932], [-86.7725, 31.2022], [-86.7638, 31.2205], [-86.7723, 31.2507], [-86.764, 31.2613], [-87.4892, 31.2601], [-87.523, 31.2479], [-87.5593, 31.2273], [-87.6159, 31.2445], [-87.6154, 30.9974], [-87.1636, 30.999]]]}}, {"type": "Feature", "properties": {"osm_type": "relation", "osm_id": 474413836, "name": "Lauderdale", "admin_level": "6", "kind": "subdivision_2", "parent_osm_id": 161950, "parent_name": "Alabama", "parent_iso": "US-AL"}, "geometry": {"type": "Polygon", "coordinates": [[[-88.0979, 34.8922], [-88.0409, 34.9066], [-87.9866, 34.8868], [-87.9523, 34.8677], [-87.9335, 34.8389], [-87.9203, 34.8045], [-87.8358, 34.7412], [-87.807, 34.7321], [-87.7673, 34.7346], [-87.7327, 34.7457], [-87.7076, 34.7729], [-87.6137, 34.799], [-87.5848, 34.8192], [-87.5244, 34.8324], [-87.48, 34.8126], [-87.4265, 34.8], [-87.3703, 34.805], [-87.3442, 34.7965], [-87.2979, 34.7508], [-87.2607, 34.7586], [-87.2783, 34.7736], [-87.2711, 34.7838], [-87.2556, 34.7884], [-87.2149, 34.816], [-87.2108, 34.999], [-88.203, 35.008], [-88.1988, 34.9912], [-88.1761, 34.9625], [-88.1546, 34.9224], [-88.1367, 34.9076], [-88.0979, 34.8922]]]}}, {"type": "Feature", "properties": {"osm_type": "relation", "osm_id": 475846430, "name": "Chambers", "admin_level": "6", "kind": "subdivision_2", "parent_osm_id": 161950, "parent_name": "Alabama", "parent_iso": "US-AL"}, "geometry": {"type": "Polygon", "coordinates": [[[-85.5932, 33.1073], [-85.5932, 32.7285], [-85.4306, 32.7303], [-85.4306, 32.745], [-85.4135, 32.7447], [-85.4046, 32.7305], [-85.2932, 32.7307], [-85.2848, 32.7451], [-85.135, 32.7465], [-85.1301, 32.7518], [-85.1389, 32.7601], [-85.1222, 32.7734], [-85.1679, 32.8116], [-85.1535, 32.8428], [-85.1844, 32.8613], [-85.2324, 33.1081], [-85.5932, 33.1073]]]}}, {"type": "Feature", "properties": {"osm_type": "relation", "osm_id": 973556593, "name": "Lowndes", "admin_level": "6", "kind": "subdivision_2", "parent_osm_id": 161950, "parent_name": "Alabama", "parent_iso": "US-AL"}, "geometry": {"type": "Polygon", "coordinates": [[[-86.4482, 31.9646], [-86.405, 31.9638], [-86.4088, 32.2443], [-86.4847, 32.2845], [-86.4911, 32.3016], [-86.4745, 32.3316], [-86.4968, 32.3444], [-86.5325, 32.3388], [-86.5425, 32.3635], [-86.5706, 32.375], [-86.5819, 32.375], [-86.5953, 32.3614], [-86.6148, 32.3743], [-86.6135, 32.3986], [-86.618, 32.4057], [-86.6534, 32.3973], [-86.6556, 32.3762], [-86.6835, 32.3534], [-86.7113, 32.3608], [-86.719, 32.3721], [-86.7179, 32.4028], [-86.7272, 32.4045], [-86.75, 32.3891], [-86.7784, 32.3946], [-86.7805, 32.3686], [-86.7732, 32.3407], [-86.7983, 32.3086], [-86.8161, 32.31], [-86.8209, 32.3332], [-86.8149, 32.3408], [-86.8504, 32.329], [-86.8505, 32.3099], [-86.8261, 32.306], [-86.8537, 32.2873], [-86.8639, 32.2703], [-86.8413, 32.242], [-86.8213, 32.2338], [-86.8105, 32.2376], [-86.8103, 32.2248], [-86.9083, 32.225], [-86.907, 32.048], [-86.8566, 32.0484], [-86.8576, 31.9622], [-86.4482, 31.9646]]]}}, {"type": "Feature", "properties": {"osm_type": "relation", "osm_id": 405688987, "name": "Macon", "admin_level": "6", "kind": "subdivision_2", "parent_osm_id": 161950, "parent_name": "Alabama", "parent_iso": "US-AL"}, "geometry": {"type": "Polygon", "coordinates": [[[-85.8862, 32.4931], [-85.8703, 32.4815], [-85.8526, 32.4758], [-85.8727, 32.4739], [-85.8822, 32.455], [-85.8944, 32.4476], [-85.9318, 32.4535], [-85.959, 32.4411], [-85.9735, 32.4535], [-85.9853, 32.4405], [-85.9935, 32.4515], [-85.9907, 32.4331], [-86.023, 32.42], [-86.0109, 32.4043], [-86.0146, 32.3843], [-85.9937, 32.3579], [-85.9913, 32.3361], [-85.9691, 32.3336], [-85.9585, 32.3235], [-85.9543, 32.3022], [-85.9193, 32.2744], [-85.8987, 32.275], [-85.8985, 32.3053], [-85.8779, 32.2915], [-85.8761, 32.2464], [-85.8626, 32.2349], [-85.4335, 32.2347], [-85.4386, 32.4971], [-85.4894, 32.4969], [-85.6611, 32.5679], [-85.6613, 32.5823], [-85.6957, 32.582], [-85.6959, 32.5959], [-85.7092, 32.5958], [-85.7127, 32.5818], [-85.7986, 32.5811], [-85.7972, 32.4942], [-85.8862, 32.4931]]]}}, {"type": "Feature", "properties": {"osm_type": "relation", "osm_id": 562677116, "name": "Coffee", "admin_level": "6", "kind": "subdivision_2", "parent_osm_id": 161950, "parent_name": "Alabama", "parent_iso": "US-AL"}, "geometry": {"type": "Polygon", "coordinates": [[[-85.7914, 31.1964], [-85.7891, 31.618], [-86.1459, 31.6177], [-86.144, 31.5377], [-86.1503, 31.5376], [-86.1566, 31.5302], [-86.1948, 31.53], [-86.1935, 31.1922], [-86.1255, 31.1928], [-86.1167, 31.1821], [-86.1167, 31.193], [-85.7914, 31.1964]]]}}, {"type": "Feature", "properties": {"osm_type": "relation", "osm_id": 969863953, "name": "Washington", "admin_level": "6", "kind": "subdivision_2", "parent_osm_id": 161950, "parent_name": "Alabama", "parent_iso": "US-AL"}, "geometry": {"type": "Polygon", "coordinates": [[[-88.4496, 31.4358], [-88.432, 31.1143], [-88.3299, 31.1144], [-88.3298, 31.1438], [-88.0227, 31.1443], [-87.9888, 31.1733], [-87.9729, 31.1627], [-87.9413, 31.1631], [-87.9484, 31.2068], [-87.9313, 31.2246], [-87.944, 31.2443], [-87.9634, 31.2502], [-87.9692, 31.2584], [-87.9862, 31.2598], [-87.9757, 31.2697], [-87.9551, 31.2678], [-87.9574, 31.2797], [-87.9475, 31.2963], [-87.9647, 31.3112], [-87.9596, 31.3162], [-87.9245, 31.3129], [-87.9232, 31.3346], [-87.9101, 31.3341], [-87.9081, 31.323], [-87.8889, 31.364], [-87.8928, 31.3723], [-87.8873, 31.3922], [-87.898, 31.3811], [-87.9186, 31.3896], [-87.9173, 31.3767], [-87.9443, 31.3752], [-87.9277, 31.3966], [-87.9121, 31.3945], [-87.9073, 31.4061], [-87.9278, 31.4078], [-87.9111, 31.4244], [-87.9351, 31.4424], [-87.9155, 31.4498], [-87.9191, 31.4671], [-87.9061, 31.4918], [-87.9244, 31.503], [-87.9425, 31.5267], [-87.9704, 31.5306], [-88.0313, 31.5605], [-88.0401, 31.5723], [-88.0234, 31.5709], [-88.0277, 31.5843], [-88.0515, 31.5835], [-88.0722, 31.5945], [-88.08, 31.6058], [-88.0743, 31.6164], [-88.084, 31.6303], [-88.0894, 31.6588], [-88.0787, 31.6696], [-88.0883, 31.6993], [-88.4644, 31.698], [-88.4496, 31.4358]]]}}, {"type": "Feature", "properties": {"osm_type": "relation", "osm_id": 740676578, "name": "Bibb", "admin_level": "6", "kind": "subdivision_2", "parent_osm_id": 161950, "parent_name": "Alabama", "parent_iso": "US-AL"}, "geometry": {"type": "Polygon", "coordinates": [[[-87.4219, 33.0034], [-87.4212, 32.8745], [-87.3195, 32.8751], [-87.3192, 32.8315], [-86.8761, 32.8363], [-86.8769, 33.0499], [-86.934, 33.0641], [-86.934, 33.0788], [-86.9517, 33.0787], [-86.9509, 33.0986], [-86.9693, 33.1041], [-86.9696, 33.1581], [-87.0256, 33.1658], [-87.0269, 33.2465], [-87.0766, 33.2468], [-87.1041, 33.2215], [-87.1215, 33.2215], [-87.1219, 33.2358], [-87.1521, 33.2325], [-87.1992, 33.1966], [-87.1993, 33.1307], [-87.2819, 33.1331], [-87.3116, 33.0939], [-87.3185, 33.0062], [-87.4219, 33.0034]]]}}, {"type": "Feature", "properties": {"osm_type": "relation", "osm_id": 216154009, "name": "Shelby", "admin_level": "6", "kind": "subdivision_2", "parent_osm_id": 161950, "parent_name": "Alabama", "parent_iso": "US-AL"}, "geometry": {"type": "Polygon", "coordinates": [[[-86.5168, 33.5459], [-86.5172, 33.5241], [-86.5606, 33.5175], [-86.6045, 33.4671], [-86.6676, 33.4666], [-86.6745, 33.4517], [-86.6919, 33.4515], [-86.7006, 33.4393], [-86.7004, 33.4304], [-86.7106, 33.4306], [-86.7181, 33.4163], [-86.7525, 33.4159], [-86.7611, 33.3884], [-86.7784, 33.3889], [-86.7786, 33.3669], [-86.8302, 33.3608], [-86.8306, 33.332], [-86.8825, 33.3327], [-86.8956, 33.3166], [-86.9261, 33.2965], [-86.9262, 33.2782], [-86.9696, 33.2675], [-86.9827, 33.253], [-86.9829, 33.246], [-87.0269, 33.2465], [-87.0256, 33.1658], [-86.9696, 33.1581], [-86.9693, 33.1041], [-86.9509, 33.0986], [-86.9517, 33.0787], [-86.934, 33.0788], [-86.934, 33.0641], [-86.8812, 33.0499], [-86.8816, 33.0719], [-86.61, 33.07], [-86.604, 33.0551], [-86.5538, 33.0189], [-86.5369, 33.0244], [-86.5173, 33.0206], [-86.5201, 33.057], [-86.506, 33.0678], [-86.5111, 33.0884], [-86.4599, 33.1251], [-86.483, 33.1483], [-86.4835, 33.1595], [-86.5031, 33.1792], [-86.4861, 33.2019], [-86.461, 33.2029], [-86.4665, 33.2245], [-86.447, 33.2426], [-86.4355, 33.242], [-86.4289, 33.2495], [-86.4244, 33.2606], [-86.4343, 33.2817], [-86.4103, 33.2729], [-86.3933, 33.2754], [-86.3609, 33.2924], [-86.3675, 33.3357], [-86.3622, 33.3469], [-86.3409, 33.3531], [-86.3529, 33.3725], [-86.3787, 33.391], [-86.3782, 33.5024], [-86.4819, 33.5026], [-86.4816, 33.5461], [-86.5168, 33.5459]]]}}, {"type": "Feature", "properties": {"osm_type": "relation", "osm_id": 674379028, "name": "Marengo", "admin_level": "6", "kind": "subdivision_2", "parent_osm_id": 161950, "parent_name": "Alabama", "parent_iso": "US-AL"}, "geometry": {"type": "Polygon", "coordinates": [[[-88.0735, 31.9902], [-87.6678, 31.9914], [-87.668, 32.0022], [-87.6228, 32.0055], [-87.624, 32.1324], [-87.5221, 32.1328], [-87.5233, 32.251], [-87.5141, 32.266], [-87.4722, 32.2649], [-87.4731, 32.3076], [-87.5243, 32.3073], [-87.5245, 32.482], [-87.7287, 32.4809], [-87.7285, 32.5245], [-87.8126, 32.5246], [-87.8234, 32.5204], [-87.8223, 32.5438], [-87.8438, 32.5472], [-87.8534, 32.5321], [-87.8415, 32.5256], [-87.8446, 32.5182], [-87.8527, 32.5152], [-87.9013, 32.5232], [-87.9137, 32.5182], [-87.9451, 32.4913], [-87.9542, 32.473], [-87.9751, 32.4576], [-87.9946, 32.4552], [-88.0316, 32.4336], [-88.0423, 32.4103], [-88.0463, 32.3771], [-88.0195, 32.3705], [-87.9939, 32.3472], [-87.9709, 32.3444], [-87.942, 32.3147], [-87.9307, 32.3106], [-87.9297, 32.2925], [-87.9336, 32.2824], [-87.9447, 32.283], [-87.9368, 32.3017], [-87.9484, 32.3041], [-87.9679, 32.2983], [-87.9757, 32.3079], [-87.9914, 32.2946], [-88.0043, 32.2966], [-88.0042, 32.2837], [-88.0192, 32.2852], [-88.0201, 32.2718], [-88.0095, 32.2617], [-88.0151, 32.2349], [-88.0075, 32.2193], [-88.0125, 32.2008], [-88.0071, 32.1853], [-88.0214, 32.145], [-88.0358, 32.145], [-88.0522, 32.1018], [-88.0447, 32.0823], [-88.0706, 32.0617], [-88.0848, 32.0708], [-88.0959, 32.0699], [-88.1183, 32.0511], [-88.1134, 32.0412], [-88.1174, 32.0168], [-88.1136, 32.0062], [-88.0951, 31.9931], [-88.0921, 32.0071], [-88.0735, 31.9902]]]}}, {"type": "Feature", "properties": {"osm_type": "relation", "osm_id": 531076635, "name": "Pickens", "admin_level": "6", "kind": "subdivision_2", "parent_osm_id": 161950, "parent_name": "Alabama", "parent_iso": "US-AL"}, "geometry": {"type": "Polygon", "coordinates": [[[-87.9465, 33.5241], [-88.2746, 33.534], [-88.3404, 32.9912], [-88.1719, 32.9959], [-88.1718, 33.0087], [-88.1429, 33.0254], [-88.1494, 33.0373], [-88.1152, 33.0418], [-88.0861, 33.0363], [-88.0749, 33.0528], [-88.065, 33.0514], [-88.0434, 33.0326], [-88.0316, 33.0422], [-88.0394, 33.0536], [-88.027, 33.0636], [-87.9815, 33.0806], [-87.9688, 33.0776], [-87.9383, 33.1147], [-87.9337, 33.1132], [-87.8375, 33.1536], [-87.8407, 33.5248], [-87.9465, 33.5241]]]}}, {"type": "Feature", "properties": {"osm_type": "relation", "osm_id": 176412172, "name": "Russell", "admin_level": "6", "kind": "subdivision_2", "parent_osm_id": 161950, "parent_name": "Alabama", "parent_iso": "US-AL"}, "geometry": {"type": "Polygon", "coordinates": [[[-85.0037, 32.5101], [-85.0608, 32.5077], [-85.0593, 32.4729], [-85.3338, 32.4686], [-85.3301, 32.4108], [-85.434, 32.4098], [-85.4335, 32.2347], [-85.4274, 32.1466], [-85.2578, 32.1479], [-85.2598, 32.1385], [-85.2363, 32.1237], [-85.2291, 32.1027], [-85.1958, 32.0818], [-85.1914, 32.0646], [-85.1851, 32.0617], [-85.0493, 32.0625], [-85.0471, 32.0874], [-85.0588, 32.136], [-85.0113, 32.1805], [-84.9617, 32.1987], [-84.9646, 32.2036], [-84.9793, 32.2073], [-84.9674, 32.2194], [-84.925, 32.2222], [-84.914, 32.2488], [-84.8894, 32.2619], [-84.9338, 32.2983], [-85.0019, 32.322], [-85.0081, 32.3367], [-84.9835, 32.3632], [-84.9752, 32.4149], [-84.9634, 32.4226], [-84.9718, 32.4428], [-84.9953, 32.4532], [-84.9952, 32.4752], [-85.0037, 32.5101]]]}}, {"type": "Feature", "properties": {"osm_type": "relation", "osm_id": 152551846, "name": "Marion", "admin_level": "6", "kind": "subdivision_2", "parent_osm_id": 161950, "parent_name": "Alabama", "parent_iso": "US-AL"}, "geometry": {"type": "Polygon", "coordinates": [[[-88.1736, 34.3211], [-88.2072, 34.0583], [-87.9869, 34.0521], [-87.9874, 34.0229], [-87.9519, 34.0222], [-87.9518, 33.9199], [-87.6359, 33.9153], [-87.6347, 34.307], [-88.1736, 34.3211]]]}}, {"type": "Feature", "properties": {"osm_type": "relation", "osm_id": 491321456, "name": "Walker", "admin_level": "6", "kind": "subdivision_2", "parent_osm_id": 161950, "parent_name": "Alabama", "parent_iso": "US-AL"}, "geometry": {"type": "Polygon", "coordinates": [[[-87.4237, 33.6021], [-87.3711, 33.6017], [-87.371, 33.5871], [-87.3185, 33.5874], [-87.3182, 33.5142], [-87.2669, 33.5129], [-87.2755, 33.5221], [-87.2687, 33.5306], [-87.2505, 33.5142], [-87.2326, 33.5394], [-87.21, 33.5387], [-87.1858, 33.5559], [-87.1969, 33.5624], [-87.2046, 33.5788], [-87.1969, 33.5993], [-87.1796, 33.5993], [-87.1794, 33.6138], [-87.1444, 33.6134], [-87.1445, 33.6282], [-87.0927, 33.6279], [-87.0927, 33.6569], [-87.0578, 33.6564], [-87.0573, 33.6855], [-87.0398, 33.6875], [-87.0406, 33.729], [-87.0316, 33.729], [-87.0234, 33.7466], [-87.0233, 33.7727], [-87.0059, 33.7726], [-87.006, 33.7872], [-86.9709, 33.7865], [-86.9712, 33.8012], [-86.9558, 33.8008], [-86.9543, 33.8449], [-86.9634, 33.8582], [-87.0069, 33.8662], [-87.0071, 33.8889], [-87.0918, 33.8901], [-87.1008, 33.8984], [-87.082, 33.9064], [-87.0856, 33.9192], [-87.1046, 33.9352], [-87.1124, 33.9595], [-87.1341, 33.9651], [-87.151, 33.9932], [-87.1689, 34.0051], [-87.1899, 34.0028], [-87.2, 33.9849], [-87.2167, 33.9939], [-87.6361, 34.0022], [-87.636, 33.872], [-87.5316, 33.8676], [-87.5283, 33.6921], [-87.4238, 33.6891], [-87.4237, 33.6021]]]}}, {"type": "Feature", "properties": {"osm_type": "relation", "osm_id": 179357102, "name": "Greene", "admin_level": "6", "kind": "subdivision_2", "parent_osm_id": 161950, "parent_name": "Alabama", "parent_iso": "US-AL"}, "geometry": {"type": "Polygon", "coordinates": [[[-87.8534, 32.5321], [-87.8438, 32.5472], [-87.8223, 32.5438], [-87.8234, 32.5204], [-87.8126, 32.5246], [-87.8011, 32.535], [-87.7968, 32.5646], [-87.7863, 32.5674], [-87.7848, 32.5848], [-87.7715, 32.5813], [-87.7707, 32.5755], [-87.7376, 32.5905], [-87.7487, 32.6125], [-87.7558, 32.6144], [-87.7824, 32.6057], [-87.8068, 32.6193], [-87.8108, 32.6288], [-87.8078, 32.638], [-87.7806, 32.6401], [-87.7629, 32.6364], [-87.748, 32.6408], [-87.7438, 32.6544], [-87.7786, 32.6515], [-87.7923, 32.6602], [-87.7869, 32.675], [-87.7947, 32.7121], [-87.8046, 32.7148], [-87.816, 32.7067], [-87.8264, 32.7083], [-87.8316, 32.7157], [-87.8286, 32.7273], [-87.8132, 32.7336], [-87.8053, 32.7479], [-87.8232, 32.7659], [-87.8332, 32.7697], [-87.8341, 32.7619], [-87.8613, 32.7569], [-87.8693, 32.7644], [-87.8665, 32.7704], [-87.8417, 32.7785], [-87.8187, 32.8008], [-87.817, 32.8321], [-87.8318, 32.8405], [-87.8313, 32.8473], [-87.824, 32.8481], [-87.8227, 32.8528], [-87.8328, 32.8592], [-87.8302, 32.8651], [-87.8208, 32.8687], [-87.8188, 32.8815], [-87.8103, 32.8802], [-87.8187, 32.8911], [-87.8083, 32.887], [-87.8063, 32.8955], [-87.7708, 32.8992], [-87.7652, 32.9103], [-87.7749, 32.9245], [-87.7613, 32.9338], [-87.7523, 32.9322], [-87.7551, 32.9367], [-87.7358, 32.9414], [-87.7313, 32.9467], [-87.7348, 32.9526], [-87.7464, 32.9551], [-87.7407, 32.9613], [-87.7488, 32.9789], [-87.7333, 32.9784], [-87.729, 32.9844], [-87.7069, 32.9914], [-87.7157, 33.0068], [-87.7147, 33.0177], [-87.8322, 33.0173], [-87.8315, 33.0939], [-87.8375, 33.1536], [-87.9337, 33.1132], [-87.9383, 33.1147], [-87.9688, 33.0776], [-87.9815, 33.0806], [-88.027, 33.0636], [-88.0394, 33.0536], [-88.0316, 33.0422], [-88.0434, 33.0326], [-88.065, 33.0514], [-88.0749, 33.0528], [-88.0861, 33.0363], [-88.1152, 33.0418], [-88.1494, 33.0373], [-88.1429, 33.0254], [-88.1718, 33.0087], [-88.1673, 32.9706], [-88.1574, 32.9646], [-88.1653, 32.9543], [-88.1841, 32.9625], [-88.1824, 32.9457], [-88.1723, 32.9429], [-88.1753, 32.9321], [-88.1963, 32.9357], [-88.2073, 32.9248], [-88.1898, 32.9107], [-88.18, 32.8717], [-88.155, 32.8529], [-88.1797, 32.8302], [-88.1473, 32.8249], [-88.1327, 32.8329], [-88.1054, 32.7984], [-88.0792, 32.8045], [-88.0645, 32.7922], [-88.0793, 32.773], [-88.103, 32.7794], [-88.1096, 32.771], [-88.1014, 32.7393], [-88.0819, 32.7194], [-88.0854, 32.7091], [-88.1159, 32.701], [-88.1071, 32.6892], [-88.0782, 32.684], [-88.0515, 32.697], [-88.0409, 32.6877], [-88.058, 32.6744], [-88.055, 32.6465], [-88.079, 32.6386], [-88.0792, 32.6197], [-88.0573, 32.5934], [-88.0099, 32.6007], [-87.9287, 32.6323], [-87.9118, 32.6248], [-87.9048, 32.6146], [-87.8772, 32.6221], [-87.8581, 32.6208], [-87.8409, 32.6058], [-87.8602, 32.5909], [-87.8621, 32.6065], [-87.8826, 32.6097], [-87.8979, 32.6001], [-87.8984, 32.5923], [-87.875, 32.5718], [-87.8738, 32.5443], [-87.8534, 32.5321]]]}}, {"type": "Feature", "properties": {"osm_type": "relation", "osm_id": 481613897, "name": "Cleburne", "admin_level": "6", "kind": "subdivision_2", "parent_osm_id": 161950, "parent_name": "Alabama", "parent_iso": "US-AL"}, "geometry": {"type": "Polygon", "coordinates": [[[-85.3865, 33.9017], [-85.3989, 33.9641], [-85.4256, 33.9571], [-85.4953, 33.9569], [-85.4958, 33.9424], [-85.5301, 33.9414], [-85.5325, 33.8892], [-85.6019, 33.8898], [-85.6019, 33.8749], [-85.637, 33.8753], [-85.6371, 33.8465], [-85.5852, 33.8459], [-85.586, 33.8021], [-85.6034, 33.8024], [-85.6035, 33.7878], [-85.6209, 33.788], [-85.6212, 33.7735], [-85.6381, 33.7733], [-85.6386, 33.6484], [-85.6558, 33.6272], [-85.6907, 33.6278], [-85.6901, 33.6158], [-85.725, 33.6135], [-85.7245, 33.5994], [-85.7423, 33.6], [-85.7441, 33.5561], [-85.7961, 33.5562], [-85.7969, 33.5419], [-85.8519, 33.4987], [-85.8524, 33.4917], [-85.8693, 33.4916], [-85.8701, 33.4768], [-85.8877, 33.4768], [-85.8878, 33.4694], [-85.7827, 33.4694], [-85.7827, 33.4836], [-85.7656, 33.4835], [-85.7654, 33.4986], [-85.3526, 33.4924], [-85.3477, 33.5014], [-85.3045, 33.4829], [-85.3865, 33.9017]]]}}, {"type": "Feature", "properties": {"osm_type": "relation", "osm_id": 494889134, "name": "Crenshaw", "admin_level": "6", "kind": "subdivision_2", "parent_osm_id": 161950, "parent_name": "Alabama", "parent_iso": "US-AL"}, "geometry": {"type": "Polygon", "coordinates": [[[-86.4992, 31.5253], [-86.3999, 31.5271], [-86.3957, 31.4507], [-86.3703, 31.4737], [-86.3647, 31.4867], [-86.34, 31.4869], [-86.3306, 31.501], [-86.3196, 31.505], [-86.2989, 31.5285], [-86.2802, 31.5285], [-86.277, 31.4556], [-86.2602, 31.4557], [-86.2619, 31.4412], [-86.194, 31.4401], [-86.1948, 31.53], [-86.1566, 31.5302], [-86.1503, 31.5376], [-86.144, 31.5377], [-86.1459, 31.6177], [-86.1797, 31.6165], [-86.1787, 31.6282], [-86.1589, 31.6475], [-86.1601, 31.6602], [-86.1472, 31.6632], [-86.1483, 31.791], [-86.1994, 31.7905], [-86.1994, 31.8079], [-86.183, 31.8324], [-86.1823, 31.8703], [-86.1731, 31.8931], [-86.175, 31.9306], [-86.1914, 31.9665], [-86.3022, 31.9651], [-86.3035, 32.0503], [-86.307, 32.0517], [-86.4063, 32.0507], [-86.405, 31.9638], [-86.4482, 31.9646], [-86.4466, 31.8464], [-86.4384, 31.8428], [-86.4464, 31.8317], [-86.4486, 31.6556], [-86.4995, 31.6553], [-86.4992, 31.5253]]]}}, {"type": "Feature", "properties": {"osm_type": "relation", "osm_id": 926277592, "name": "Dale", "admin_level": "6", "kind": "subdivision_2", "parent_osm_id": 161950, "parent_name": "Alabama", "parent_iso": "US-AL"}, "geometry": {"type": "Polygon", "coordinates": [[[-85.7103, 31.1952], [-85.6967, 31.2047], [-85.6891, 31.2361], [-85.6712, 31.2497], [-85.66, 31.2709], [-85.6353, 31.2756], [-85.603, 31.2724], [-85.5461, 31.2539], [-85.4859, 31.2461], [-85.4854, 31.2871], [-85.4171, 31.2872], [-85.4164, 31.6195], [-85.7891, 31.618], [-85.7914, 31.1964], [-85.7103, 31.1952]]]}}, {"type": "Feature", "properties": {"osm_type": "relation", "osm_id": 548184640, "name": "Calhoun", "admin_level": "6", "kind": "subdivision_2", "parent_osm_id": 161950, "parent_name": "Alabama", "parent_iso": "US-AL"}, "geometry": {"type": "Polygon", "coordinates": [[[-86.0653, 33.8422], [-86.0514, 33.8241], [-86.0644, 33.7978], [-86.0444, 33.7631], [-86.0626, 33.7599], [-86.0816, 33.743], [-86.1166, 33.7238], [-86.1239, 33.7108], [-86.1437, 33.7091], [-86.1456, 33.6791], [-86.0496, 33.6735], [-86.0258, 33.6463], [-86.0217, 33.604], [-85.9969, 33.6009], [-85.9949, 33.5865], [-85.7946, 33.5856], [-85.7961, 33.5562], [-85.7441, 33.5561], [-85.7423, 33.6], [-85.7245, 33.5994], [-85.725, 33.6135], [-85.6901, 33.6158], [-85.6907, 33.6278], [-85.6558, 33.6272], [-85.6386, 33.6484], [-85.6381, 33.7733], [-85.6212, 33.7735], [-85.6209, 33.788], [-85.6035, 33.7878], [-85.6034, 33.8024], [-85.586, 33.8021], [-85.5852, 33.8459], [-85.6371, 33.8465], [-85.637, 33.8753], [-85.6019, 33.8749], [-85.6019, 33.8898], [-85.5325, 33.8892], [-85.5294, 33.956], [-85.739, 33.9685], [-85.741, 33.9353], [-85.811, 33.9471], [-85.8818, 33.9503], [-85.8997, 33.943], [-85.8996, 33.9064], [-85.9343, 33.9064], [-85.9345, 33.921], [-85.9692, 33.9146], [-85.9692, 33.8929], [-85.9865, 33.8937], [-85.9875, 33.8792], [-85.9952, 33.8649], [-86.0215, 33.8661], [-86.0213, 33.8515], [-86.0465, 33.8526], [-86.0491, 33.8416], [-86.0653, 33.8422]]]}}, {"type": "Feature", "properties": {"osm_type": "relation", "osm_id": 307402339, "name": "Autauga", "admin_level": "6", "kind": "subdivision_2", "parent_osm_id": 161950, "parent_name": "Alabama", "parent_iso": "US-AL"}, "geometry": {"type": "Polygon", "coordinates": [[[-86.8149, 32.3408], [-86.8209, 32.3332], [-86.8161, 32.31], [-86.7983, 32.3086], [-86.7732, 32.3407], [-86.7805, 32.3686], [-86.7784, 32.3946], [-86.75, 32.3891], [-86.7272, 32.4045], [-86.7179, 32.4028], [-86.719, 32.3721], [-86.7113, 32.3608], [-86.6835, 32.3534], [-86.6556, 32.3762], [-86.6534, 32.3973], [-86.618, 32.4057], [-86.6135, 32.3986], [-86.6148, 32.3743], [-86.5953, 32.3614], [-86.5819, 32.375], [-86.5706, 32.375], [-86.5425, 32.3635], [-86.5325, 32.3388], [-86.4968, 32.3444], [-86.4919, 32.3643], [-86.4636, 32.3773], [-86.4613, 32.4035], [-86.4563, 32.4058], [-86.4447, 32.3998], [-86.4112, 32.4099], [-86.4131, 32.7074], [-86.7142, 32.7057], [-86.7134, 32.6617], [-86.9176, 32.6642], [-86.9188, 32.6443], [-86.8983, 32.5677], [-86.9068, 32.5373], [-86.879, 32.4873], [-86.8852, 32.4824], [-86.8702, 32.469], [-86.8601, 32.4509], [-86.8671, 32.4392], [-86.8499, 32.4383], [-86.8244, 32.4247], [-86.8455, 32.4154], [-86.8438, 32.4004], [-86.8272, 32.3788], [-86.8154, 32.3708], [-86.8074, 32.3544], [-86.8149, 32.3408]]]}}, {"type": "Feature", "properties": {"osm_type": "relation", "osm_id": 851781999, "name": "Barbour", "admin_level": "6", "kind": "subdivision_2", "parent_osm_id": 161950, "parent_name": "Alabama", "parent_iso": "US-AL"}, "geometry": {"type": "Polygon", "coordinates": [[[-85.6577, 31.8803], [-85.6776, 31.8568], [-85.6683, 31.8345], [-85.6741, 31.8081], [-85.6627, 31.7833], [-85.6741, 31.7586], [-85.6956, 31.7478], [-85.7051, 31.7317], [-85.7061, 31.7073], [-85.7179, 31.698], [-85.7162, 31.6605], [-85.7298, 31.6324], [-85.7483, 31.6181], [-85.4164, 31.6195], [-85.416, 31.7067], [-85.2161, 31.7024], [-85.2095, 31.7105], [-85.206, 31.7418], [-85.1883, 31.7464], [-85.1484, 31.7735], [-85.1287, 31.7639], [-85.1365, 31.789], [-85.1312, 31.8153], [-85.1418, 31.8393], [-85.1298, 31.8835], [-85.0821, 31.9447], [-85.0538, 32.0135], [-85.0493, 32.0625], [-85.1851, 32.0617], [-85.1914, 32.0646], [-85.1958, 32.0818], [-85.2291, 32.1027], [-85.2363, 32.1237], [-85.2598, 32.1385], [-85.2578, 32.1479], [-85.4102, 32.1467], [-85.4274, 32.1394], [-85.4285, 32.015], [-85.5126, 32.0141], [-85.5124, 31.9997], [-85.5926, 31.9943], [-85.6048, 31.9609], [-85.6488, 31.9116], [-85.6577, 31.8803]]]}}, {"type": "Feature", "properties": {"osm_type": "relation", "osm_id": 958734066, "name": "Chilton", "admin_level": "6", "kind": "subdivision_2", "parent_osm_id": 161950, "parent_name": "Alabama", "parent_iso": "US-AL"}, "geometry": {"type": "Polygon", "coordinates": [[[-86.9176, 32.6642], [-86.7134, 32.6617], [-86.7142, 32.7057], [-86.4131, 32.7074], [-86.4133, 32.7506], [-86.375, 32.7536], [-86.3967, 32.763], [-86.4134, 32.7882], [-86.4272, 32.7917], [-86.457, 32.8139], [-86.4607, 32.8335], [-86.4478, 32.851], [-86.4515, 32.8637], [-86.4802, 32.8744], [-86.4905, 32.9056], [-86.516, 32.9294], [-86.5181, 32.9712], [-86.5106, 32.9854], [-86.5223, 33.0044], [-86.5173, 33.0206], [-86.5369, 33.0244], [-86.5538, 33.0189], [-86.604, 33.0551], [-86.61, 33.07], [-86.8816, 33.0719], [-86.8812, 33.0499], [-86.8769, 33.0499], [-86.8761, 32.8363], [-87.0192, 32.837], [-87.0177, 32.6633], [-86.9176, 32.6642]]]}}, {"type": "Feature", "properties": {"osm_type": "relation", "osm_id": 878137476, "name": "Cherokee", "admin_level": "6", "kind": "subdivision_2", "parent_osm_id": 161950, "parent_name": "Alabama", "parent_iso": "US-AL"}, "geometry": {"type": "Polygon", "coordinates": [[[-85.4219, 34.0808], [-85.5137, 34.5242], [-85.5334, 34.5141], [-85.5444, 34.5001], [-85.5594, 34.5013], [-85.5604, 34.4899], [-85.577, 34.4835], [-85.5703, 34.4678], [-85.5803, 34.4703], [-85.5839, 34.458], [-85.5797, 34.4397], [-85.6007, 34.4209], [-85.6167, 34.3934], [-85.6275, 34.3959], [-85.6203, 34.387], [-85.6366, 34.3666], [-85.6642, 34.3619], [-85.6753, 34.3434], [-85.7742, 34.2591], [-85.809, 34.2589], [-85.8084, 34.2394], [-85.8438, 34.2435], [-85.8414, 34.1107], [-85.8332, 34.11], [-85.812, 34.1251], [-85.791, 34.1251], [-85.7971, 34.1002], [-85.7371, 33.9892], [-85.739, 33.9685], [-85.5294, 33.956], [-85.5301, 33.9414], [-85.4958, 33.9424], [-85.4953, 33.9569], [-85.4256, 33.9571], [-85.3989, 33.9641], [-85.4219, 34.0808]]]}}]}