{"type": "FeatureCollection", "parent": {"osm_id": 162116, "name": "Idaho", "admin_level": "4", "kind": "subdivision_1", "child_kind": "subdivision_2", "iso": "US-ID"}, "features": [{"type": "Feature", "properties": {"osm_type": "relation", "osm_id": 232677558, "name": "Lincoln", "admin_level": "6", "kind": "subdivision_2", "parent_osm_id": 162116, "parent_name": "Idaho", "parent_iso": "US-ID"}, "geometry": {"type": "Polygon", "coordinates": [[[-114.5946, 43.1984], [-114.5944, 42.8509], [-114.3654, 42.8508], [-114.3653, 42.8236], [-114.3457, 42.8236], [-114.3457, 42.8091], [-114.0499, 42.8085], [-114.05, 42.765], [-113.7639, 42.7645], [-113.7638, 42.8498], [-113.7141, 42.8497], [-113.7147, 43.1998], [-114.5946, 43.1984]]]}}, {"type": "Feature", "properties": {"osm_type": "relation", "osm_id": 498200794, "name": "Boundary", "admin_level": "6", "kind": "subdivision_2", "parent_osm_id": 162116, "parent_name": "Idaho", "parent_iso": "US-ID"}, "geometry": {"type": "Polygon", "coordinates": [[[-117.0324, 48.9992], [-117.0324, 48.8467], [-116.7852, 48.8474], [-116.7849, 48.5005], [-116.0491, 48.5021], [-116.0491, 49.0009], [-117.0324, 48.9992]]]}}, {"type": "Feature", "properties": {"osm_type": "relation", "osm_id": 816608250, "name": "Minidoka", "admin_level": "6", "kind": "subdivision_2", "parent_osm_id": 162116, "parent_name": "Idaho", "parent_iso": "US-ID"}, "geometry": {"type": "Polygon", "coordinates": [[[-113.9317, 42.765], [-113.9318, 42.5352], [-113.8898, 42.5494], [-113.8763, 42.5495], [-113.8404, 42.536], [-113.7802, 42.5569], [-113.7636, 42.5472], [-113.7583, 42.5341], [-113.7393, 42.5229], [-113.6991, 42.5192], [-113.6542, 42.5362], [-113.6442, 42.5455], [-113.6213, 42.5865], [-113.6071, 42.5963], [-113.5845, 42.6252], [-113.5753, 42.6456], [-113.5572, 42.6568], [-113.4937, 42.6736], [-113.4722, 42.6694], [-113.4722, 42.8492], [-113.4132, 42.8492], [-113.4139, 43.1999], [-113.7147, 43.1998], [-113.7141, 42.8497], [-113.7638, 42.8498], [-113.7639, 42.7645], [-113.9317, 42.765]]]}}, {"type": "Feature", "properties": {"osm_type": "relation", "osm_id": 836425656, "name": "Custer", "admin_level": "6", "kind": "subdivision_2", "parent_osm_id": 162116, "parent_name": "Idaho", "parent_iso": "US-ID"}, "geometry": {"type": "Polygon", "coordinates": [[[-114.8124, 44.8084], [-114.8369, 44.7995], [-114.8516, 44.7834], [-114.8731, 44.7782], [-114.896, 44.7605], [-114.9106, 44.7572], [-114.9266, 44.7351], [-114.9564, 44.7211], [-114.9852, 44.73], [-114.9972, 44.7286], [-115.0064, 44.7152], [-115.0122, 44.717], [-115.0161, 44.7399], [-115.022, 44.7431], [-115.0292, 44.7363], [-115.0362, 44.7479], [-115.0635, 44.7568], [-115.0789, 44.7698], [-115.0904, 44.7696], [-115.1346, 44.7444], [-115.1515, 44.7274], [-115.1407, 44.712], [-115.1678, 44.65], [-115.1944, 44.633], [-115.1966, 44.6271], [-115.2249, 44.6295], [-115.2241, 44.6184], [-115.2338, 44.6215], [-115.2542, 44.6157], [-115.2608, 44.6061], [-115.2759, 44.6111], [-115.2817, 44.6086], [-115.304, 44.5808], [-115.2914, 44.5316], [-115.2789, 44.5184], [-115.2483, 44.5204], [-115.2382, 44.5099], [-115.2386, 44.5008], [-115.2281, 44.4872], [-115.2264, 44.4754], [-115.2343, 44.4674], [-115.2248, 44.4605], [-115.2311, 44.4551], [-115.2282, 44.4258], [-115.2333, 44.4126], [-115.2633, 44.3684], [-115.2851, 44.3542], [-115.2842, 44.35], [-115.294, 44.3428], [-115.2877, 44.3247], [-115.2497, 44.3111], [-115.2479, 44.2967], [-115.236, 44.3081], [-115.2127, 44.304], [-115.203, 44.2825], [-115.179, 44.2965], [-115.1688, 44.2831], [-115.1606, 44.2396], [-115.1748, 44.2355], [-115.1628, 44.2137], [-115.1677, 44.2028], [-115.1437, 44.1903], [-115.1305, 44.1922], [-115.1079, 44.1701], [-115.0832, 44.1762], [-115.0617, 44.1601], [-115.0513, 44.1653], [-115.0242, 44.1555], [-115.0172, 44.1414], [-115.0281, 44.1274], [-115.0467, 44.12], [-115.0205, 44.0984], [-114.9981, 44.0982], [-114.9997, 44.0857], [-115.0196, 44.08], [-115.0436, 44.0588], [-115.0481, 44.0378], [-115.0324, 44.0195], [-115.0074, 44.0133], [-114.9986, 44.0207], [-114.9826, 44.0112], [-114.9849, 43.9889], [-114.9674, 43.9821], [-114.9908, 43.9497], [-114.9789, 43.9468], [-114.9714, 43.9383], [-114.9395, 43.9532], [-114.931, 43.9687], [-114.8734, 43.993], [-114.8139, 43.9929], [-114.8138, 43.9278], [-114.6812, 43.9277], [-114.6444, 43.9143], [-114.6333, 43.9024], [-114.6062, 43.8936], [-114.5835, 43.8751], [-114.582, 43.8515], [-114.5624, 43.8444], [-114.5285, 43.8457], [-114.5133, 43.8632], [-114.5197, 43.8717], [-114.5078, 43.8991], [-114.4851, 43.9045], [-114.4746, 43.8965], [-114.4437, 43.8972], [-114.4275, 43.8915], [-114.41, 43.8957], [-114.3593, 43.8742], [-114.3435, 43.8903], [-114.2927, 43.8871], [-114.2788, 43.8789], [-114.2839, 43.8609], [-114.2757, 43.8311], [-114.2416, 43.8108], [-114.18, 43.7899], [-114.1599, 43.7744], [-114.1421, 43.7742], [-114.1377, 43.7563], [-114.117, 43.7404], [-114.07, 43.7347], [-114.0531, 43.7466], [-114.0535, 43.7622], [-114.0297, 43.7734], [-114.0062, 43.7659], [-113.9841, 43.7337], [-113.9745, 43.7082], [-113.952, 43.6977], [-113.9335, 43.6794], [-113.9114, 43.6716], [-113.9049, 43.6497], [-113.8753, 43.6505], [-113.8439, 43.625], [-113.8356, 43.6049], [-113.8134, 43.6001], [-113.8061, 43.5719], [-113.7985, 43.5692], [-113.7843, 43.5809], [-113.7612, 43.6212], [-113.7476, 43.6284], [-113.7237, 43.6291], [-113.6765, 43.6615], [-113.6417, 43.6726], [-113.5984, 43.6954], [-113.572, 43.7009], [-113.5395, 43.7203], [-113.5281, 43.7189], [-113.5145, 43.7341], [-113.4881, 43.7388], [-113.4814, 43.7502], [-113.4537, 43.7682], [-113.445, 43.7849], [-113.4431, 43.8085], [-113.4128, 43.8167], [-113.3779, 43.8097], [-113.361, 43.7967], [-113.3732, 43.8215], [-113.3855, 43.8247], [-113.3912, 43.8397], [-113.4106, 43.8602], [-113.4565, 43.8759], [-113.4555, 43.8969], [-113.4456, 43.9146], [-113.4461, 43.9835], [-113.4547, 43.9909], [-113.4578, 44.0595], [-113.4163, 44.0593], [-113.4165, 44.2334], [-113.3206, 44.2332], [-113.3348, 44.2598], [-113.3261, 44.2724], [-113.3396, 44.3163], [-113.3564, 44.3291], [-113.3612, 44.3457], [-113.4048, 44.3825], [-113.4255, 44.4229], [-113.4359, 44.4268], [-113.4467, 44.4511], [-113.4775, 44.448], [-113.5021, 44.4221], [-113.5544, 44.4265], [-113.5893, 44.4436], [-113.6543, 44.4497], [-113.7067, 44.4745], [-113.7454, 44.4807], [-113.788, 44.494], [-113.8162, 44.494], [-113.8444, 44.5234], [-113.8994, 44.5584], [-113.9203, 44.5657], [-113.9745, 44.6195], [-113.9843, 44.6191], [-114.0206, 44.6529], [-114.0429, 44.6891], [-114.0509, 44.7115], [-114.0849, 44.756], [-114.1242, 44.7415], [-114.1356, 44.7304], [-114.1548, 44.7453], [-114.2168, 44.7469], [-114.2161, 44.7623], [-114.2016, 44.7783], [-114.2043, 44.8], [-114.1961, 44.8032], [-114.1917, 44.8379], [-114.1972, 44.8628], [-114.2117, 44.8631], [-114.2215, 44.8791], [-114.2249, 44.8643], [-114.2624, 44.8497], [-114.2782, 44.8231], [-114.3, 44.8196], [-114.3155, 44.8019], [-114.3443, 44.7938], [-114.354, 44.7746], [-114.3529, 44.7587], [-114.3798, 44.7435], [-114.4042, 44.7396], [-114.4066, 44.7195], [-114.3729, 44.7097], [-114.3862, 44.673], [-114.4088, 44.6564], [-114.4353, 44.6513], [-114.4484, 44.6315], [-114.4519, 44.6117], [-114.4774, 44.5942], [-114.4954, 44.604], [-114.5199, 44.603], [-114.5404, 44.5827], [-114.567, 44.5757], [-114.6024, 44.5949], [-114.5957, 44.6187], [-114.6057, 44.6349], [-114.6292, 44.6529], [-114.6628, 44.6622], [-114.713, 44.6504], [-114.7411, 44.6527], [-114.7368, 44.67], [-114.7574, 44.6948], [-114.7819, 44.714], [-114.7931, 44.713], [-114.8175, 44.7395], [-114.8143, 44.7664], [-114.7977, 44.7943], [-114.8124, 44.8084]]]}}, {"type": "Feature", "properties": {"osm_type": "relation", "osm_id": 157261660, "name": "Valley", "admin_level": "6", "kind": "subdivision_2", "parent_osm_id": 162116, "parent_name": "Idaho", "parent_iso": "US-ID"}, "geometry": {"type": "Polygon", "coordinates": [[[-114.8124, 44.8084], [-114.7945, 44.8343], [-114.7676, 44.8417], [-114.7617, 44.8586], [-114.7698, 44.8652], [-114.7623, 44.8756], [-114.7346, 44.8788], [-114.7233, 44.8912], [-114.7356, 44.9243], [-114.7233, 44.9344], [-114.7348, 44.949], [-114.7355, 44.9723], [-114.7231, 45.0053], [-114.7276, 45.026], [-114.7225, 45.0417], [-114.7272, 45.0793], [-114.7207, 45.0889], [-114.7332, 45.0945], [-114.7215, 45.121], [-114.7323, 45.1512], [-114.7236, 45.1601], [-114.7221, 45.1801], [-114.694, 45.1972], [-115.9758, 45.1953], [-115.9651, 45.2035], [-115.9767, 45.2192], [-116.0193, 45.1828], [-116.0455, 45.1774], [-116.048, 45.1663], [-116.0639, 45.1653], [-116.0815, 45.1529], [-116.1217, 45.1586], [-116.1365, 45.1371], [-116.1353, 45.1241], [-116.1444, 45.1077], [-116.1401, 45.098], [-116.1413, 45.0821], [-116.0963, 45.0685], [-116.092, 45.0611], [-116.1025, 45.052], [-116.1031, 45.0357], [-116.1277, 45.0168], [-116.1349, 45.0022], [-116.1157, 44.9779], [-116.1183, 44.96], [-116.1329, 44.9407], [-116.1545, 44.9409], [-116.1609, 44.9033], [-116.1732, 44.898], [-116.1741, 44.8885], [-116.1863, 44.886], [-116.1904, 44.868], [-116.1974, 44.8615], [-116.2025, 44.796], [-116.2104, 44.7799], [-116.2071, 44.7688], [-116.1769, 44.7424], [-116.1828, 44.7251], [-116.1574, 44.703], [-116.167, 44.6676], [-116.1775, 44.6474], [-116.1702, 44.6205], [-116.1838, 44.5861], [-116.1774, 44.5795], [-116.157, 44.4989], [-116.1523, 44.3245], [-116.2129, 44.3244], [-116.2139, 44.1514], [-116.1327, 44.1477], [-116.114, 44.1515], [-116.12, 44.1715], [-116.1059, 44.2236], [-116.0974, 44.2364], [-115.5652, 44.2356], [-115.5184, 44.2386], [-115.5108, 44.2428], [-115.4968, 44.2338], [-115.4509, 44.2467], [-115.4225, 44.266], [-115.4019, 44.2616], [-115.3934, 44.2674], [-115.3878, 44.2869], [-115.3524, 44.3053], [-115.3524, 44.3478], [-115.3182, 44.3479], [-115.2946, 44.3395], [-115.2842, 44.35], [-115.2851, 44.3542], [-115.2633, 44.3684], [-115.2487, 44.3864], [-115.2282, 44.4258], [-115.2311, 44.4551], [-115.2248, 44.4605], [-115.2343, 44.4674], [-115.2264, 44.4754], [-115.2281, 44.4872], [-115.2386, 44.5008], [-115.2382, 44.5099], [-115.2483, 44.5204], [-115.2789, 44.5184], [-115.2914, 44.5316], [-115.2986, 44.5546], [-115.304, 44.5808], [-115.2817, 44.6086], [-115.2759, 44.6111], [-115.2608, 44.6061], [-115.2542, 44.6157], [-115.2338, 44.6215], [-115.2241, 44.6184], [-115.2249, 44.6295], [-115.1966, 44.6271], [-115.1944, 44.633], [-115.1678, 44.65], [-115.1407, 44.712], [-115.1515, 44.7274], [-115.1346, 44.7444], [-115.0904, 44.7696], [-115.0789, 44.7698], [-115.0635, 44.7568], [-115.0362, 44.7479], [-115.0292, 44.7363], [-115.022, 44.7431], [-115.0161, 44.7399], [-115.0122, 44.717], [-115.0064, 44.7152], [-114.9972, 44.7286], [-114.9852, 44.73], [-114.9564, 44.7211], [-114.9266, 44.7351], [-114.9106, 44.7572], [-114.896, 44.7605], [-114.8731, 44.7782], [-114.8516, 44.7834], [-114.8369, 44.7995], [-114.8124, 44.8084]]]}}, {"type": "Feature", "properties": {"osm_type": "relation", "osm_id": 749150992, "name": "Lemhi", "admin_level": "6", "kind": "subdivision_2", "parent_osm_id": 162116, "parent_name": "Idaho", "parent_iso": "US-ID"}, "geometry": {"type": "Polygon", "coordinates": [[[-113.3206, 44.2332], [-112.9402, 44.2342], [-112.8138, 44.2303], [-112.8142, 44.3768], [-112.8448, 44.358], [-112.8553, 44.3598], [-112.8817, 44.3801], [-112.8847, 44.3981], [-112.9514, 44.418], [-113.0034, 44.4506], [-113.0067, 44.4715], [-113.0185, 44.4814], [-113.0261, 44.4968], [-113.0067, 44.5182], [-113.0071, 44.5257], [-113.0423, 44.5419], [-113.046, 44.5507], [-113.0374, 44.5641], [-113.0824, 44.5955], [-113.0837, 44.602], [-113.0737, 44.6137], [-113.0567, 44.6184], [-113.0493, 44.6292], [-113.0514, 44.6367], [-113.0655, 44.6491], [-113.0705, 44.6794], [-113.0818, 44.6912], [-113.098, 44.6973], [-113.102, 44.7288], [-113.1347, 44.7525], [-113.1376, 44.7599], [-113.1313, 44.7645], [-113.1314, 44.7726], [-113.1637, 44.7787], [-113.1943, 44.8019], [-113.2386, 44.8139], [-113.2471, 44.8227], [-113.3416, 44.7846], [-113.3539, 44.7915], [-113.3547, 44.7952], [-113.346, 44.8004], [-113.356, 44.8196], [-113.377, 44.8332], [-113.4222, 44.8401], [-113.4571, 44.874], [-113.4986, 44.9421], [-113.4943, 44.9484], [-113.4674, 44.9478], [-113.4489, 44.9533], [-113.4437, 44.9597], [-113.4468, 44.9983], [-113.4376, 45.0067], [-113.4498, 45.0349], [-113.4519, 45.059], [-113.4605, 45.0647], [-113.4789, 45.0623], [-113.5203, 45.0898], [-113.506, 45.108], [-113.5098, 45.1147], [-113.5494, 45.1129], [-113.5746, 45.1282], [-113.5694, 45.1408], [-113.5945, 45.1658], [-113.5898, 45.1768], [-113.5994, 45.1909], [-113.6368, 45.2128], [-113.6569, 45.2412], [-113.6848, 45.2535], [-113.6919, 45.265], [-113.6893, 45.2833], [-113.7386, 45.3295], [-113.733, 45.3899], [-113.7608, 45.4063], [-113.7742, 45.4066], [-113.7769, 45.4154], [-113.7642, 45.4223], [-113.7645, 45.4312], [-113.7841, 45.4547], [-113.7602, 45.4863], [-113.7669, 45.5018], [-113.7679, 45.519], [-113.7783, 45.5232], [-113.8345, 45.5205], [-113.8198, 45.5661], [-113.8015, 45.5846], [-113.8066, 45.6019], [-113.823, 45.6123], [-113.8613, 45.6234], [-113.8859, 45.6168], [-113.9046, 45.6218], [-113.8971, 45.6413], [-113.9314, 45.673], [-113.9383, 45.6957], [-113.9608, 45.69], [-113.9866, 45.7043], [-114.0192, 45.6927], [-114.02, 45.6701], [-114.0149, 45.6538], [-114.0186, 45.6484], [-114.0334, 45.6484], [-114.0675, 45.6275], [-114.0817, 45.6111], [-114.082, 45.5967], [-114.0865, 45.591], [-114.1222, 45.584], [-114.1314, 45.5742], [-114.129, 45.5653], [-114.1352, 45.5572], [-114.1799, 45.5512], [-114.1927, 45.5364], [-114.2036, 45.5353], [-114.2278, 45.5462], [-114.248, 45.5457], [-114.2517, 45.5376], [-114.2477, 45.5241], [-114.2706, 45.4859], [-114.3331, 45.4591], [-114.3449, 45.4597], [-114.3606, 45.4739], [-114.3684, 45.4925], [-114.4157, 45.5095], [-114.4389, 45.5359], [-114.4567, 45.5438], [-114.4604, 45.5611], [-114.4737, 45.5631], [-114.4981, 45.5552], [-114.526, 45.5705], [-114.5494, 45.5604], [-114.5589, 45.5655], [-114.5716, 45.5496], [-114.5955, 45.5342], [-114.632, 45.5192], [-114.6637, 45.471], [-114.6806, 45.474], [-114.6806, 45.4842], [-114.7052, 45.4926], [-114.7342, 45.4899], [-114.7675, 45.5115], [-114.7938, 45.5083], [-114.7986, 45.4763], [-114.7904, 45.4662], [-114.7932, 45.4363], [-114.7691, 45.4346], [-114.7601, 45.4121], [-114.7349, 45.3954], [-114.718, 45.3963], [-114.6955, 45.3689], [-114.6746, 45.3626], [-114.67, 45.3429], [-114.6408, 45.3192], [-114.604, 45.2958], [-114.5933, 45.2974], [-114.6075, 45.2813], [-114.624, 45.2748], [-114.6749, 45.2337], [-114.694, 45.1972], [-114.7221, 45.1801], [-114.7236, 45.1601], [-114.7323, 45.1512], [-114.7215, 45.121], [-114.7332, 45.0945], [-114.7207, 45.0889], [-114.7272, 45.0793], [-114.7225, 45.0417], [-114.7276, 45.026], [-114.7231, 45.0053], [-114.7355, 44.9723], [-114.7348, 44.949], [-114.7233, 44.9344], [-114.7356, 44.9243], [-114.7233, 44.8912], [-114.7346, 44.8788], [-114.7623, 44.8756], [-114.7698, 44.8652], [-114.7617, 44.8586], [-114.7676, 44.8417], [-114.7945, 44.8343], [-114.8124, 44.8084], [-114.7977, 44.7943], [-114.8143, 44.7664], [-114.8175, 44.7395], [-114.7931, 44.713], [-114.7819, 44.714], [-114.7574, 44.6948], [-114.7368, 44.67], [-114.7411, 44.6527], [-114.713, 44.6504], [-114.6628, 44.6622], [-114.6292, 44.6529], [-114.6057, 44.6349], [-114.5957, 44.6187], [-114.6024, 44.5949], [-114.567, 44.5757], [-114.5404, 44.5827], [-114.5199, 44.603], [-114.4954, 44.604], [-114.4774, 44.5942], [-114.4519, 44.6117], [-114.4484, 44.6315], [-114.4353, 44.6513], [-114.4088, 44.6564], [-114.3862, 44.673], [-114.3729, 44.7097], [-114.4066, 44.7195], [-114.4042, 44.7396], [-114.3798, 44.7435], [-114.3529, 44.7587], [-114.354, 44.7746], [-114.3443, 44.7938], [-114.3155, 44.8019], [-114.3, 44.8196], [-114.2782, 44.8231], [-114.2624, 44.8497], [-114.2249, 44.8643], [-114.2215, 44.8791], [-114.2117, 44.8631], [-114.1972, 44.8628], [-114.1917, 44.8379], [-114.1961, 44.8032], [-114.2043, 44.8], [-114.2016, 44.7783], [-114.2161, 44.7623], [-114.2168, 44.7469], [-114.1548, 44.7453], [-114.1356, 44.7304], [-114.1242, 44.7415], [-114.0849, 44.756], [-114.0509, 44.7115], [-114.0429, 44.6891], [-114.0206, 44.6529], [-113.9843, 44.6191], [-113.9745, 44.6195], [-113.9203, 44.5657], [-113.8994, 44.5584], [-113.8444, 44.5234], [-113.8162, 44.494], [-113.788, 44.494], [-113.7454, 44.4807], [-113.7067, 44.4745], [-113.6543, 44.4497], [-113.5893, 44.4436], [-113.5544, 44.4265], [-113.5021, 44.4221], [-113.4775, 44.448], [-113.4467, 44.4511], [-113.4359, 44.4268], [-113.4255, 44.4229], [-113.4048, 44.3825], [-113.3612, 44.3457], [-113.3564, 44.3291], [-113.3396, 44.3163], [-113.3261, 44.2724], [-113.3348, 44.2598], [-113.3206, 44.2332]]]}}, {"type": "Feature", "properties": {"osm_type": "relation", "osm_id": 514846390, "name": "Latah", "admin_level": "6", "kind": "subdivision_2", "parent_osm_id": 162116, "parent_name": "Idaho", "parent_iso": "US-ID"}, "geometry": {"type": "Polygon", "coordinates": [[[-117.0398, 47.1273], [-117.0397, 46.5417], [-116.7191, 46.5429], [-116.6963, 46.5877], [-116.6879, 46.5886], [-116.6587, 46.6121], [-116.621, 46.6297], [-116.3296, 46.628], [-116.3294, 47.0219], [-116.4582, 47.0221], [-116.4581, 47.0366], [-116.8353, 47.0325], [-116.8351, 47.0455], [-116.847, 47.0472], [-116.8962, 47.0779], [-116.9252, 47.0816], [-116.9444, 47.0672], [-116.9575, 47.0709], [-116.9775, 47.0891], [-116.9677, 47.1152], [-117.001, 47.1305], [-117.0398, 47.1273]]]}}, {"type": "Feature", "properties": {"osm_type": "relation", "osm_id": 266242575, "name": "Clark", "admin_level": "6", "kind": "subdivision_2", "parent_osm_id": 162116, "parent_name": "Idaho", "parent_iso": "US-ID"}, "geometry": {"type": "Polygon", "coordinates": [[[-112.9951, 44.2341], [-112.9943, 43.9724], [-112.6953, 43.9719], [-112.6948, 44.0585], [-112.0343, 44.0574], [-112.0337, 44.1441], [-111.9136, 44.1443], [-111.9138, 44.1878], [-111.8579, 44.1878], [-111.8523, 44.317], [-111.7916, 44.317], [-111.7916, 44.4016], [-111.6174, 44.4013], [-111.6173, 44.5493], [-111.7041, 44.56], [-111.7154, 44.5433], [-111.7371, 44.5428], [-111.7618, 44.5296], [-111.8063, 44.5221], [-111.8078, 44.5115], [-111.8214, 44.5091], [-111.8424, 44.5258], [-111.8704, 44.5638], [-111.9035, 44.557], [-111.9478, 44.5566], [-111.9514, 44.5498], [-111.9807, 44.5365], [-111.9951, 44.5352], [-112.0326, 44.5464], [-112.0368, 44.5301], [-112.0689, 44.5369], [-112.0932, 44.5298], [-112.0962, 44.523], [-112.1067, 44.5206], [-112.125, 44.5283], [-112.1364, 44.5397], [-112.1645, 44.5414], [-112.1838, 44.5328], [-112.2216, 44.5433], [-112.2294, 44.5493], [-112.23, 44.5625], [-112.2427, 44.5679], [-112.2861, 44.5682], [-112.3128, 44.5533], [-112.3191, 44.5389], [-112.3541, 44.5354], [-112.3588, 44.5286], [-112.3588, 44.4861], [-112.3687, 44.4669], [-112.3873, 44.4478], [-112.4352, 44.462], [-112.4731, 44.4798], [-112.5002, 44.4628], [-112.5116, 44.4662], [-112.5188, 44.4756], [-112.5419, 44.4837], [-112.5841, 44.4811], [-112.6018, 44.4908], [-112.6644, 44.4862], [-112.719, 44.5041], [-112.776, 44.4841], [-112.8281, 44.4422], [-112.8359, 44.4224], [-112.8125, 44.3921], [-112.8138, 44.2303], [-112.9951, 44.2341]]]}}, {"type": "Feature", "properties": {"osm_type": "relation", "osm_id": 741635245, "name": "Bonner", "admin_level": "6", "kind": "subdivision_2", "parent_osm_id": 162116, "parent_name": "Idaho", "parent_iso": "US-ID"}, "geometry": {"type": "Polygon", "coordinates": [[[-116.0497, 48.2161], [-116.0491, 48.5021], [-116.7849, 48.5005], [-116.7852, 48.8474], [-117.0324, 48.8467], [-117.0423, 47.9775], [-116.6334, 47.9772], [-116.633, 47.9915], [-116.5043, 47.9914], [-116.5051, 47.8901], [-116.3296, 47.8904], [-116.3296, 48.0177], [-116.2731, 48.0619], [-116.2331, 48.0689], [-116.2071, 48.0464], [-116.1619, 48.0216], [-116.1202, 48.0335], [-116.1034, 48.0123], [-116.0621, 47.9956], [-116.0491, 47.9773], [-116.0497, 48.2161]]]}}, {"type": "Feature", "properties": {"osm_type": "relation", "osm_id": 515454038, "name": "Bingham", "admin_level": "6", "kind": "subdivision_2", "parent_osm_id": 162116, "parent_name": "Idaho", "parent_iso": "US-ID"}, "geometry": {"type": "Polygon", "coordinates": [[[-113.0077, 43.1109], [-113.0078, 42.8631], [-112.8166, 42.8632], [-112.8072, 42.8826], [-112.7946, 42.8775], [-112.7797, 42.8932], [-112.7792, 42.9138], [-112.7612, 42.9236], [-112.7661, 42.9343], [-112.7506, 42.9515], [-112.7511, 42.9634], [-112.7357, 42.9732], [-112.7416, 42.9889], [-112.7076, 42.9906], [-112.6804, 43.0123], [-112.6784, 43.0217], [-112.6648, 43.0156], [-112.6566, 43.022], [-111.5895, 43.0201], [-111.5881, 43.2818], [-111.8225, 43.2823], [-111.8225, 43.366], [-112.0438, 43.3667], [-112.0437, 43.4101], [-112.1034, 43.4103], [-112.1033, 43.4251], [-112.52, 43.4252], [-112.5199, 43.6266], [-112.6991, 43.6231], [-112.6989, 43.5401], [-112.8163, 43.536], [-112.8167, 43.4492], [-112.9368, 43.4494], [-112.947, 43.3673], [-112.947, 43.2848], [-113.0073, 43.2848], [-113.0077, 43.1109]]]}}, {"type": "Feature", "properties": {"osm_type": "relation", "osm_id": 176366592, "name": "Blaine", "admin_level": "6", "kind": "subdivision_2", "parent_osm_id": 162116, "parent_name": "Idaho", "parent_iso": "US-ID"}, "geometry": {"type": "Polygon", "coordinates": [[[-113.7147, 43.1998], [-113.4139, 43.1999], [-113.4132, 42.8492], [-113.4722, 42.8492], [-113.4722, 42.6694], [-113.4116, 42.6745], [-113.3731, 42.6876], [-113.3607, 42.6721], [-113.3044, 42.6288], [-113.2622, 42.6283], [-113.2573, 42.6181], [-113.237, 42.6253], [-113.2369, 42.6753], [-113.1786, 42.6755], [-113.1789, 42.7624], [-113.237, 42.7622], [-113.2435, 43.111], [-113.0077, 43.1109], [-113.0073, 43.2848], [-113.362, 43.2847], [-113.3619, 43.3672], [-113.6352, 43.3676], [-113.6343, 43.4975], [-113.6536, 43.4937], [-113.6728, 43.5004], [-113.6656, 43.5118], [-113.6843, 43.531], [-113.687, 43.5531], [-113.7012, 43.5846], [-113.7277, 43.5901], [-113.7484, 43.5872], [-113.7529, 43.5752], [-113.7771, 43.5669], [-113.8061, 43.5719], [-113.8134, 43.6001], [-113.8356, 43.6049], [-113.8439, 43.625], [-113.8753, 43.6505], [-113.9049, 43.6497], [-113.9114, 43.6716], [-113.9335, 43.6794], [-113.952, 43.6977], [-113.9745, 43.7082], [-113.9841, 43.7337], [-114.0062, 43.7659], [-114.0297, 43.7734], [-114.0535, 43.7622], [-114.0531, 43.7466], [-114.07, 43.7347], [-114.117, 43.7404], [-114.1377, 43.7563], [-114.1421, 43.7742], [-114.1599, 43.7744], [-114.18, 43.7899], [-114.2416, 43.8108], [-114.2757, 43.8311], [-114.2839, 43.8609], [-114.2788, 43.8789], [-114.2927, 43.8871], [-114.3435, 43.8903], [-114.3593, 43.8742], [-114.41, 43.8957], [-114.4275, 43.8915], [-114.4437, 43.8972], [-114.4746, 43.8965], [-114.4851, 43.9045], [-114.5078, 43.8991], [-114.5197, 43.8717], [-114.5133, 43.8632], [-114.5285, 43.8457], [-114.5624, 43.8444], [-114.582, 43.8515], [-114.5835, 43.8751], [-114.6062, 43.8936], [-114.6333, 43.9024], [-114.6444, 43.9143], [-114.6812, 43.9277], [-114.8138, 43.9278], [-114.8139, 43.9929], [-114.8734, 43.993], [-114.931, 43.9687], [-114.9395, 43.9532], [-114.9714, 43.9383], [-114.9967, 43.9144], [-114.9739, 43.8674], [-114.9893, 43.8586], [-114.9693, 43.8486], [-114.9519, 43.8543], [-114.931, 43.84], [-114.8478, 43.8164], [-114.8544, 43.7917], [-114.8289, 43.788], [-114.8005, 43.8027], [-114.7602, 43.7916], [-114.7404, 43.8068], [-114.7147, 43.8147], [-114.7021, 43.8054], [-114.6926, 43.7843], [-114.6902, 43.7504], [-114.6662, 43.738], [-114.6801, 43.7241], [-114.6762, 43.6981], [-114.688, 43.6861], [-114.6792, 43.67], [-114.6623, 43.6607], [-114.6687, 43.6295], [-114.6791, 43.6163], [-114.6824, 43.5904], [-114.6517, 43.593], [-114.6361, 43.5736], [-114.5868, 43.5588], [-114.5957, 43.5312], [-114.5619, 43.4989], [-114.5294, 43.4907], [-114.5061, 43.4779], [-114.5145, 43.4576], [-114.5466, 43.4355], [-114.5464, 43.3984], [-114.5265, 43.3984], [-114.527, 43.3686], [-114.5345, 43.3334], [-114.5031, 43.3291], [-114.4802, 43.3324], [-114.4631, 43.3251], [-114.4324, 43.3342], [-114.3946, 43.3265], [-114.3949, 43.2576], [-114.3748, 43.2575], [-114.375, 43.1996], [-113.7147, 43.1998]]]}}, {"type": "Feature", "properties": {"osm_type": "relation", "osm_id": 844378424, "name": "Butte", "admin_level": "6", "kind": "subdivision_2", "parent_osm_id": 162116, "parent_name": "Idaho", "parent_iso": "US-ID"}, "geometry": {"type": "Polygon", "coordinates": [[[-113.7985, 43.5692], [-113.7771, 43.5669], [-113.7529, 43.5752], [-113.7484, 43.5872], [-113.7277, 43.5901], [-113.7012, 43.5846], [-113.687, 43.5531], [-113.6843, 43.531], [-113.6656, 43.5118], [-113.6728, 43.5004], [-113.6536, 43.4937], [-113.6343, 43.4975], [-113.6352, 43.3676], [-113.3619, 43.3672], [-113.362, 43.2847], [-112.947, 43.2848], [-112.947, 43.3673], [-112.9368, 43.4494], [-112.8167, 43.4492], [-112.8163, 43.536], [-112.6989, 43.5401], [-112.6953, 43.9719], [-112.9943, 43.9724], [-112.9951, 44.2341], [-113.4165, 44.2334], [-113.4163, 44.0593], [-113.4578, 44.0595], [-113.4547, 43.9909], [-113.4461, 43.9835], [-113.4456, 43.9146], [-113.4555, 43.8969], [-113.4565, 43.8759], [-113.4106, 43.8602], [-113.3912, 43.8397], [-113.3855, 43.8247], [-113.3732, 43.8215], [-113.361, 43.7967], [-113.3779, 43.8097], [-113.4128, 43.8167], [-113.4431, 43.8085], [-113.445, 43.7849], [-113.4537, 43.7682], [-113.4814, 43.7502], [-113.4881, 43.7388], [-113.5145, 43.7341], [-113.5281, 43.7189], [-113.5395, 43.7203], [-113.572, 43.7009], [-113.5984, 43.6954], [-113.6417, 43.6726], [-113.6765, 43.6615], [-113.7237, 43.6291], [-113.7476, 43.6284], [-113.7612, 43.6212], [-113.7843, 43.5809], [-113.7985, 43.5692]]]}}, {"type": "Feature", "properties": {"osm_type": "relation", "osm_id": 714952808, "name": "Canyon", "admin_level": "6", "kind": "subdivision_2", "parent_osm_id": 162116, "parent_name": "Idaho", "parent_iso": "US-ID"}, "geometry": {"type": "Polygon", "coordinates": [[[-117.0266, 43.6808], [-116.9682, 43.6674], [-116.9553, 43.6357], [-116.9241, 43.6198], [-116.9116, 43.6031], [-116.8715, 43.5921], [-116.845, 43.5944], [-116.8159, 43.5774], [-116.8, 43.548], [-116.7803, 43.5269], [-116.7849, 43.515], [-116.7813, 43.4786], [-116.7443, 43.4552], [-116.7287, 43.4365], [-116.6765, 43.4005], [-116.6674, 43.3866], [-116.6226, 43.37], [-116.6072, 43.3513], [-116.6003, 43.3317], [-116.5792, 43.3062], [-116.5218, 43.2979], [-116.5119, 43.2905], [-116.5134, 43.4593], [-116.4736, 43.4592], [-116.4735, 43.6341], [-116.5131, 43.6342], [-116.5125, 43.8072], [-116.7532, 43.8072], [-116.7531, 43.7999], [-116.7932, 43.7999], [-116.7932, 43.7927], [-116.8532, 43.7927], [-116.8531, 43.8074], [-116.8938, 43.8074], [-116.8941, 43.8218], [-116.9138, 43.8217], [-116.914, 43.8362], [-116.9545, 43.8365], [-116.9544, 43.8802], [-116.9797, 43.8801], [-116.983, 43.8677], [-116.9896, 43.8643], [-117.0211, 43.859], [-117.0227, 43.8544], [-117.0107, 43.8498], [-117.009, 43.8423], [-117.0252, 43.8413], [-117.0329, 43.83], [-117.0219, 43.8182], [-117.0266, 43.8081], [-117.0266, 43.6808]]]}}, {"type": "Feature", "properties": {"osm_type": "relation", "osm_id": 650691446, "name": "Clearwater", "admin_level": "6", "kind": "subdivision_2", "parent_osm_id": 162116, "parent_name": "Idaho", "parent_iso": "US-ID"}, "geometry": {"type": "Polygon", "coordinates": [[[-116.4561, 46.6291], [-116.4517, 46.4907], [-116.4479, 46.498], [-116.3693, 46.5005], [-116.3691, 46.4669], [-116.32, 46.4375], [-116.3086, 46.413], [-116.1971, 46.4131], [-116.1842, 46.4034], [-116.1703, 46.3716], [-116.1488, 46.3696], [-116.1316, 46.3542], [-116.1143, 46.3637], [-116.0761, 46.362], [-116.0387, 46.3469], [-115.9995, 46.3065], [-115.9573, 46.2889], [-115.9381, 46.2925], [-115.8485, 46.2826], [-115.8148, 46.2658], [-115.8068, 46.2718], [-115.7788, 46.2674], [-115.7735, 46.2801], [-115.7567, 46.2846], [-115.7484, 46.2972], [-115.7542, 46.3095], [-115.7394, 46.3199], [-115.7309, 46.3412], [-115.7335, 46.3629], [-115.725, 46.3736], [-115.6811, 46.3942], [-115.6664, 46.4136], [-115.6342, 46.4376], [-115.6393, 46.4508], [-115.6307, 46.473], [-114.5945, 46.6343], [-114.6107, 46.6376], [-114.6161, 46.644], [-114.6116, 46.6475], [-114.6146, 46.655], [-114.6358, 46.6595], [-114.6415, 46.6795], [-114.6236, 46.6909], [-114.6221, 46.7082], [-114.6467, 46.7303], [-114.6616, 46.7362], [-114.6989, 46.74], [-114.7161, 46.7143], [-114.7406, 46.7117], [-114.7501, 46.6979], [-114.766, 46.697], [-114.7849, 46.71], [-114.7875, 46.7149], [-114.7799, 46.7298], [-114.7671, 46.7386], [-114.7654, 46.7579], [-114.7826, 46.7688], [-114.789, 46.7796], [-114.8296, 46.783], [-114.8367, 46.7925], [-114.86, 46.8048], [-114.8648, 46.8142], [-114.8906, 46.8037], [-114.898, 46.8078], [-114.8955, 46.8159], [-114.8996, 46.8226], [-114.9153, 46.8254], [-114.9268, 46.8334], [-114.9284, 46.843], [-114.9243, 46.8475], [-114.93, 46.8552], [-114.9483, 46.86], [-114.933, 46.8753], [-114.931, 46.8819], [-114.9367, 46.8972], [-114.9218, 46.9127], [-114.9244, 46.9179], [-114.9606, 46.93], [-114.9593, 46.9329], [-116.3294, 46.9347], [-116.3296, 46.628], [-116.4561, 46.6291]]]}}, {"type": "Feature", "properties": {"osm_type": "relation", "osm_id": 657545972, "name": "Teton", "admin_level": "6", "kind": "subdivision_2", "parent_osm_id": 162116, "parent_name": "Idaho", "parent_iso": "US-ID"}, "geometry": {"type": "Polygon", "coordinates": [[[-111.3988, 43.9229], [-111.3998, 43.622], [-111.2439, 43.6219], [-111.2261, 43.6064], [-111.2264, 43.5902], [-111.2076, 43.5439], [-111.1989, 43.5397], [-111.172, 43.547], [-111.1435, 43.5467], [-111.1261, 43.5319], [-111.0859, 43.5214], [-111.0732, 43.5274], [-111.0558, 43.5195], [-111.0452, 43.5011], [-111.0471, 43.9835], [-111.0586, 43.9843], [-111.1029, 43.9684], [-111.1137, 43.9686], [-111.1873, 43.9321], [-111.2374, 43.9487], [-111.2541, 43.9386], [-111.2713, 43.9388], [-111.2801, 43.9268], [-111.3097, 43.9196], [-111.328, 43.9254], [-111.3359, 43.9401], [-111.3546, 43.9481], [-111.3988, 43.9229]]]}}, {"type": "Feature", "properties": {"osm_type": "relation", "osm_id": 426127128, "name": "Idaho", "admin_level": "6", "kind": "subdivision_2", "parent_osm_id": 162116, "parent_name": "Idaho", "parent_iso": "US-ID"}, "geometry": {"type": "Polygon", "coordinates": [[[-114.694, 45.1972], [-114.6749, 45.2337], [-114.624, 45.2748], [-114.6075, 45.2813], [-114.5933, 45.2974], [-114.604, 45.2958], [-114.6408, 45.3192], [-114.67, 45.3429], [-114.6746, 45.3626], [-114.6955, 45.3689], [-114.718, 45.3963], [-114.7349, 45.3954], [-114.7601, 45.4121], [-114.7691, 45.4346], [-114.7932, 45.4363], [-114.7904, 45.4662], [-114.7986, 45.4763], [-114.7938, 45.5083], [-114.7675, 45.5115], [-114.7342, 45.4899], [-114.7052, 45.4926], [-114.6806, 45.4842], [-114.6806, 45.474], [-114.6637, 45.471], [-114.632, 45.5192], [-114.5955, 45.5342], [-114.5716, 45.5496], [-114.5589, 45.5655], [-114.5582, 45.5849], [-114.538, 45.6066], [-114.5448, 45.6164], [-114.5538, 45.6191], [-114.5636, 45.6372], [-114.5357, 45.6504], [-114.522, 45.6491], [-114.5075, 45.6587], [-114.4995, 45.6688], [-114.4992, 45.6794], [-114.5084, 45.6835], [-114.5077, 45.6898], [-114.4953, 45.7031], [-114.5109, 45.725], [-114.5244, 45.7272], [-114.5447, 45.7422], [-114.546, 45.7563], [-114.5661, 45.7736], [-114.5446, 45.7912], [-114.5295, 45.8193], [-114.5144, 45.8271], [-114.5148, 45.8408], [-114.5022, 45.8483], [-114.4711, 45.8499], [-114.4433, 45.8618], [-114.4092, 45.8531], [-114.406, 45.8648], [-114.3881, 45.8821], [-114.3871, 45.8889], [-114.395, 45.9012], [-114.4131, 45.9113], [-114.4311, 45.9355], [-114.4046, 45.9557], [-114.4036, 45.9668], [-114.4118, 45.9777], [-114.4309, 45.9868], [-114.4488, 45.9879], [-114.4561, 45.9949], [-114.4784, 45.9925], [-114.4867, 46.0004], [-114.4737, 46.0164], [-114.4801, 46.0301], [-114.5062, 46.0306], [-114.5047, 46.0401], [-114.4675, 46.0662], [-114.46, 46.0969], [-114.4743, 46.1123], [-114.5207, 46.1274], [-114.5249, 46.142], [-114.5107, 46.1661], [-114.4892, 46.1675], [-114.4782, 46.1607], [-114.4458, 46.1737], [-114.4431, 46.2027], [-114.4491, 46.2166], [-114.4459, 46.221], [-114.4518, 46.241], [-114.4682, 46.2486], [-114.4704, 46.2671], [-114.4649, 46.2729], [-114.4412, 46.2736], [-114.4272, 46.2834], [-114.4334, 46.3053], [-114.4137, 46.3357], [-114.4106, 46.3604], [-114.4224, 46.3869], [-114.4077, 46.401], [-114.3874, 46.4099], [-114.3832, 46.4316], [-114.3728, 46.4359], [-114.3831, 46.4505], [-114.3795, 46.4601], [-114.383, 46.4662], [-114.3944, 46.4693], [-114.4, 46.477], [-114.4033, 46.4982], [-114.3845, 46.5049], [-114.3753, 46.5016], [-114.3524, 46.5075], [-114.342, 46.5195], [-114.3491, 46.5293], [-114.3444, 46.5408], [-114.3471, 46.5506], [-114.3312, 46.5776], [-114.3423, 46.5886], [-114.3224, 46.6108], [-114.3245, 46.6534], [-114.3318, 46.6606], [-114.3595, 46.6689], [-114.3944, 46.6646], [-114.4108, 46.6572], [-114.4243, 46.6604], [-114.4531, 46.649], [-114.4527, 46.6416], [-114.4645, 46.6337], [-114.4807, 46.632], [-114.544, 46.6476], [-114.5803, 46.6346], [-115.6307, 46.473], [-115.6393, 46.4508], [-115.6342, 46.4376], [-115.6664, 46.4136], [-115.6811, 46.3942], [-115.725, 46.3736], [-115.7335, 46.3629], [-115.7309, 46.3412], [-115.7394, 46.3199], [-115.7542, 46.3095], [-115.7484, 46.2972], [-115.7567, 46.2846], [-115.7735, 46.2801], [-115.7788, 46.2674], [-115.8068, 46.2718], [-115.8148, 46.2658], [-115.8485, 46.2826], [-115.9381, 46.2925], [-115.9573, 46.2889], [-115.9995, 46.3065], [-116.0387, 46.3469], [-116.0761, 46.362], [-116.1143, 46.3637], [-116.1316, 46.3542], [-116.1488, 46.3696], [-116.1703, 46.3716], [-116.1271, 46.2986], [-116.1143, 46.2863], [-116.0864, 46.2628], [-116.0464, 46.2527], [-116.0404, 46.2433], [-116.0156, 46.2293], [-116.0162, 46.2245], [-116.0561, 46.21], [-116.0872, 46.2083], [-116.1271, 46.2149], [-116.1484, 46.2105], [-116.1668, 46.189], [-116.1846, 46.1786], [-116.1879, 46.1579], [-116.2005, 46.1528], [-116.2228, 46.1608], [-116.2346, 46.1598], [-116.2552, 46.1705], [-116.2675, 46.1681], [-116.2848, 46.1739], [-116.3016, 46.1668], [-116.3294, 46.1831], [-116.3912, 46.1885], [-116.4205, 46.2015], [-116.4475, 46.1969], [-116.4802, 46.1437], [-116.478, 46.1225], [-116.5146, 46.1287], [-116.5156, 46.0378], [-116.5266, 46.0219], [-116.5247, 46.0092], [-116.5299, 46.0007], [-116.5386, 45.9988], [-116.5564, 46.0075], [-116.5799, 46.0278], [-116.6196, 46.0367], [-116.6407, 46.035], [-116.6481, 46.0268], [-116.6431, 46.0046], [-116.6507, 45.9949], [-116.6635, 45.9926], [-116.6972, 45.9996], [-116.7491, 45.9612], [-116.7571, 45.9421], [-116.7304, 45.8941], [-116.7502, 45.8693], [-116.7945, 45.8561], [-116.7878, 45.8443], [-116.7883, 45.8319], [-116.7634, 45.8166], [-116.7363, 45.8262], [-116.7118, 45.8263], [-116.6972, 45.8201], [-116.6802, 45.7936], [-116.6654, 45.782], [-116.6464, 45.7798], [-116.632, 45.785], [-116.593, 45.7785], [-116.5467, 45.751], [-116.5357, 45.7342], [-116.5354, 45.6917], [-116.4879, 45.6498], [-116.4635, 45.6158], [-116.4636, 45.6028], [-116.482, 45.5779], [-116.5028, 45.5666], [-116.5237, 45.5466], [-116.5487, 45.5104], [-116.5588, 45.4812], [-116.5548, 45.4629], [-116.5882, 45.4429], [-116.5975, 45.4128], [-116.6191, 45.3982], [-116.6738, 45.3215], [-116.6727, 45.2832], [-116.6756, 45.2749], [-116.6872, 45.2677], [-116.3429, 45.2679], [-116.3011, 45.1845], [-116.3038, 45.1721], [-116.2872, 45.1466], [-116.286, 45.1287], [-116.3042, 45.1192], [-116.3048, 45.1088], [-116.1444, 45.1077], [-116.1353, 45.1241], [-116.1365, 45.1371], [-116.1217, 45.1586], [-116.0815, 45.1529], [-116.0639, 45.1653], [-116.048, 45.1663], [-116.0455, 45.1774], [-116.0193, 45.1828], [-115.9767, 45.2192], [-115.9651, 45.2035], [-115.9758, 45.1953], [-114.694, 45.1972]]]}}, {"type": "Feature", "properties": {"osm_type": "relation", "osm_id": 714626918, "name": "Oneida", "admin_level": "6", "kind": "subdivision_2", "parent_osm_id": 162116, "parent_name": "Idaho", "parent_iso": "US-ID"}, "geometry": {"type": "Polygon", "coordinates": [[[-113.0, 42.3274], [-113.0001, 41.9982], [-112.193, 42.0012], [-112.1734, 41.9966], [-112.1095, 41.9976], [-112.1093, 42.1699], [-112.0703, 42.1697], [-112.071, 42.2383], [-112.0834, 42.246], [-112.0983, 42.2699], [-112.1133, 42.2694], [-112.1378, 42.2958], [-112.156, 42.2945], [-112.161, 42.3085], [-112.1859, 42.3374], [-112.1907, 42.3508], [-112.2593, 42.3507], [-112.2757, 42.3186], [-112.2913, 42.3168], [-112.3051, 42.3265], [-112.3271, 42.3238], [-112.3289, 42.3472], [-112.3048, 42.3797], [-112.2939, 42.3867], [-112.2908, 42.4271], [-112.2973, 42.4539], [-112.3429, 42.4477], [-112.346, 42.467], [-112.3655, 42.467], [-112.3802, 42.4815], [-112.3845, 42.5031], [-112.4982, 42.503], [-112.4979, 42.416], [-112.654, 42.4162], [-112.654, 42.3289], [-113.0, 42.3274]]]}}, {"type": "Feature", "properties": {"osm_type": "relation", "osm_id": 303221422, "name": "Jefferson", "admin_level": "6", "kind": "subdivision_2", "parent_osm_id": 162116, "parent_name": "Idaho", "parent_iso": "US-ID"}, "geometry": {"type": "Polygon", "coordinates": [[[-112.6953, 43.9719], [-112.6971, 43.6231], [-112.6393, 43.6266], [-111.6261, 43.6268], [-111.626, 43.6552], [-111.7174, 43.6553], [-111.7437, 43.6682], [-111.7608, 43.6674], [-111.7781, 43.676], [-111.8039, 43.702], [-111.8203, 43.7042], [-111.831, 43.7167], [-111.8581, 43.7186], [-111.8732, 43.737], [-111.9021, 43.7472], [-111.9082, 43.7603], [-111.9193, 43.7561], [-111.9299, 43.7671], [-111.9468, 43.7507], [-111.967, 43.7482], [-111.9835, 43.7538], [-111.9775, 43.7972], [-111.977, 43.9709], [-112.1564, 43.9713], [-112.1559, 44.0578], [-112.6948, 44.0585], [-112.6953, 43.9719]]]}}, {"type": "Feature", "properties": {"osm_type": "relation", "osm_id": 407674929, "name": "Gooding", "admin_level": "6", "kind": "subdivision_2", "parent_osm_id": 162116, "parent_name": "Idaho", "parent_iso": "US-ID"}, "geometry": {"type": "Polygon", "coordinates": [[[-114.5946, 43.1984], [-115.0862, 43.1981], [-115.0869, 42.9146], [-115.0378, 42.9119], [-115.026, 42.9178], [-114.9603, 42.9149], [-114.9548, 42.9051], [-114.9188, 42.8811], [-114.9016, 42.8591], [-114.9032, 42.8437], [-114.9144, 42.8263], [-114.9367, 42.8133], [-114.9314, 42.8059], [-114.9408, 42.7914], [-114.9336, 42.7669], [-114.9082, 42.7705], [-114.877, 42.7569], [-114.8578, 42.7553], [-114.844, 42.7351], [-114.8504, 42.7137], [-114.8246, 42.704], [-114.8258, 42.6861], [-114.8122, 42.6644], [-114.7777, 42.6644], [-114.7458, 42.6733], [-114.6823, 42.6596], [-114.6518, 42.661], [-114.6165, 42.6493], [-114.6174, 42.8509], [-114.5944, 42.8509], [-114.5946, 43.1984]]]}}, {"type": "Feature", "properties": {"osm_type": "relation", "osm_id": 310334513, "name": "Power", "admin_level": "6", "kind": "subdivision_2", "parent_osm_id": 162116, "parent_name": "Idaho", "parent_iso": "US-ID"}, "geometry": {"type": "Polygon", "coordinates": [[[-113.0077, 43.1109], [-113.2435, 43.111], [-113.237, 42.7622], [-113.1789, 42.7624], [-113.1786, 42.6755], [-113.2369, 42.6753], [-113.237, 42.6253], [-113.1957, 42.6339], [-113.1752, 42.6273], [-113.1757, 42.5895], [-113.0028, 42.588], [-113.0017, 42.3274], [-112.654, 42.3289], [-112.654, 42.4162], [-112.4979, 42.416], [-112.4982, 42.503], [-112.4198, 42.503], [-112.4156, 42.5682], [-112.3862, 42.5718], [-112.3894, 42.6244], [-112.3797, 42.6461], [-112.4181, 42.6462], [-112.418, 42.6751], [-112.4375, 42.6751], [-112.4379, 42.6968], [-112.4575, 42.6968], [-112.4578, 42.733], [-112.4969, 42.733], [-112.4972, 42.7907], [-112.5168, 42.7908], [-112.5207, 42.9128], [-112.5593, 42.961], [-112.5891, 42.9736], [-112.6026, 42.9596], [-112.6195, 42.961], [-112.6439, 42.942], [-112.7022, 42.9353], [-112.7022, 42.926], [-112.7274, 42.9158], [-112.7375, 42.9054], [-112.7475, 42.9127], [-112.7321, 42.9401], [-112.7506, 42.9515], [-112.7661, 42.9343], [-112.7612, 42.9236], [-112.7792, 42.9138], [-112.7797, 42.8932], [-112.7946, 42.8775], [-112.8072, 42.8826], [-112.8166, 42.8632], [-113.0078, 42.8631], [-113.0077, 43.1109]]]}}, {"type": "Feature", "properties": {"osm_type": "relation", "osm_id": 480544276, "name": "Franklin", "admin_level": "6", "kind": "subdivision_2", "parent_osm_id": 162116, "parent_name": "Idaho", "parent_iso": "US-ID"}, "geometry": {"type": "Polygon", "coordinates": [[[-112.1095, 41.9976], [-111.5078, 41.9995], [-111.5153, 42.0685], [-111.5216, 42.0744], [-111.5666, 42.0831], [-111.5991, 42.099], [-111.5872, 42.142], [-111.608, 42.1541], [-111.6261, 42.2075], [-111.6136, 42.2278], [-111.6145, 42.2457], [-111.5996, 42.2485], [-111.5912, 42.2629], [-111.5622, 42.2768], [-111.5865, 42.2879], [-111.5821, 42.31], [-111.5883, 42.3257], [-111.5522, 42.3514], [-111.5587, 42.3629], [-111.5821, 42.3758], [-111.5842, 42.3942], [-111.5992, 42.3908], [-111.5992, 42.4154], [-111.7111, 42.4159], [-111.716, 42.4306], [-111.7338, 42.4306], [-111.7279, 42.4288], [-111.7384, 42.4162], [-111.8953, 42.4162], [-111.8967, 42.2563], [-111.9839, 42.2565], [-111.9839, 42.2856], [-112.1262, 42.2852], [-112.1133, 42.2694], [-112.0983, 42.2699], [-112.0834, 42.246], [-112.071, 42.2383], [-112.0703, 42.1697], [-112.1093, 42.1699], [-112.1095, 41.9976]]]}}, {"type": "Feature", "properties": {"osm_type": "relation", "osm_id": 265577999, "name": "Jerome", "admin_level": "6", "kind": "subdivision_2", "parent_osm_id": 162116, "parent_name": "Idaho", "parent_iso": "US-ID"}, "geometry": {"type": "Polygon", "coordinates": [[[-114.5944, 42.8509], [-114.6174, 42.8509], [-114.6165, 42.6493], [-114.6017, 42.6418], [-114.5394, 42.6333], [-114.4657, 42.5997], [-114.4408, 42.5959], [-114.3752, 42.5981], [-114.3505, 42.5886], [-114.3329, 42.5726], [-114.3073, 42.5718], [-114.2872, 42.5618], [-114.2447, 42.5593], [-114.1795, 42.5323], [-114.1727, 42.5167], [-114.15, 42.4978], [-114.1304, 42.4949], [-114.1144, 42.5066], [-114.0958, 42.5081], [-114.067, 42.5229], [-114.0425, 42.5288], [-114.029, 42.5242], [-114.0004, 42.5264], [-113.9861, 42.5338], [-113.9318, 42.5352], [-113.9317, 42.765], [-114.05, 42.765], [-114.0499, 42.8085], [-114.3457, 42.8091], [-114.3457, 42.8236], [-114.3653, 42.8236], [-114.3654, 42.8508], [-114.5944, 42.8509]]]}}, {"type": "Feature", "properties": {"osm_type": "relation", "osm_id": 276510938, "name": "Ada", "admin_level": "6", "kind": "subdivision_2", "parent_osm_id": 162116, "parent_name": "Idaho", "parent_iso": "US-ID"}, "geometry": {"type": "Polygon", "coordinates": [[[-116.5119, 43.2905], [-116.5012, 43.2821], [-116.4721, 43.2912], [-116.4253, 43.2935], [-116.4103, 43.2844], [-116.401, 43.2602], [-116.3886, 43.2532], [-116.3761, 43.2311], [-116.3844, 43.2171], [-116.386, 43.1936], [-116.3518, 43.1648], [-116.3361, 43.1614], [-116.3326, 43.1484], [-116.3194, 43.144], [-116.3, 43.1192], [-116.2694, 43.1172], [-116.2662, 43.1123], [-115.9787, 43.1134], [-115.9757, 43.5914], [-115.9802, 43.5859], [-116.282, 43.8074], [-116.5125, 43.8072], [-116.5131, 43.6342], [-116.4735, 43.6341], [-116.4736, 43.4592], [-116.5134, 43.4593], [-116.5119, 43.2905]]]}}, {"type": "Feature", "properties": {"osm_type": "relation", "osm_id": 183440271, "name": "Twin Falls", "admin_level": "6", "kind": "subdivision_2", "parent_osm_id": 162116, "parent_name": "Idaho", "parent_iso": "US-ID"}, "geometry": {"type": "Polygon", "coordinates": [[[-115.0378, 42.9119], [-115.0382, 41.996], [-114.8311, 42.0022], [-114.5983, 41.9945], [-114.2818, 41.9942], [-114.2855, 42.4173], [-114.0692, 42.4171], [-114.0671, 42.5145], [-114.0004, 42.5264], [-114.029, 42.5242], [-114.0425, 42.5288], [-114.067, 42.5229], [-114.0958, 42.5081], [-114.1144, 42.5066], [-114.1304, 42.4949], [-114.15, 42.4978], [-114.1727, 42.5167], [-114.1795, 42.5323], [-114.2447, 42.5593], [-114.2872, 42.5618], [-114.3073, 42.5718], [-114.3329, 42.5726], [-114.3505, 42.5886], [-114.3752, 42.5981], [-114.4408, 42.5959], [-114.4657, 42.5997], [-114.5394, 42.6333], [-114.6017, 42.6418], [-114.6518, 42.661], [-114.6823, 42.6596], [-114.7458, 42.6733], [-114.7777, 42.6644], [-114.8122, 42.6644], [-114.8258, 42.6861], [-114.8246, 42.704], [-114.8504, 42.7137], [-114.844, 42.7351], [-114.8578, 42.7553], [-114.877, 42.7569], [-114.9082, 42.7705], [-114.9336, 42.7669], [-114.9408, 42.7914], [-114.9314, 42.8059], [-114.9367, 42.8133], [-114.9144, 42.8263], [-114.9032, 42.8437], [-114.9016, 42.8591], [-114.9188, 42.8811], [-114.9548, 42.9051], [-114.9603, 42.9149], [-115.026, 42.9178], [-115.0378, 42.9119]]]}}, {"type": "Feature", "properties": {"osm_type": "relation", "osm_id": 756963204, "name": "Payette", "admin_level": "6", "kind": "subdivision_2", "parent_osm_id": 162116, "parent_name": "Idaho", "parent_iso": "US-ID"}, "geometry": {"type": "Polygon", "coordinates": [[[-116.9797, 43.8801], [-116.9544, 43.8802], [-116.9545, 43.8365], [-116.914, 43.8362], [-116.9138, 43.8217], [-116.8941, 43.8218], [-116.8938, 43.8074], [-116.8531, 43.8074], [-116.8532, 43.7927], [-116.7932, 43.7927], [-116.7932, 43.7999], [-116.7531, 43.7999], [-116.7532, 43.8072], [-116.7127, 43.8072], [-116.7125, 43.9813], [-116.5722, 43.9805], [-116.5722, 44.0092], [-116.5322, 44.0088], [-116.5321, 44.066], [-116.4526, 44.0654], [-116.4521, 44.1515], [-116.8971, 44.1526], [-116.9337, 44.1], [-116.9774, 44.0854], [-116.9732, 44.0494], [-116.9434, 44.0357], [-116.9345, 44.0213], [-116.9432, 44.0015], [-116.9364, 43.9916], [-116.9382, 43.9846], [-116.9599, 43.9829], [-116.9759, 43.9739], [-116.9699, 43.9676], [-116.9592, 43.9664], [-116.969, 43.9392], [-116.96, 43.9307], [-116.9601, 43.9212], [-116.9796, 43.9153], [-116.976, 43.8956], [-116.9797, 43.8801]]]}}, {"type": "Feature", "properties": {"osm_type": "relation", "osm_id": 552562303, "name": "Bannock", "admin_level": "6", "kind": "subdivision_2", "parent_osm_id": 162116, "parent_name": "Idaho", "parent_iso": "US-ID"}, "geometry": {"type": "Polygon", "coordinates": [[[-112.7506, 42.9515], [-112.7321, 42.9401], [-112.7475, 42.9127], [-112.7375, 42.9054], [-112.7274, 42.9158], [-112.7022, 42.926], [-112.7022, 42.9353], [-112.6439, 42.942], [-112.6195, 42.961], [-112.6026, 42.9596], [-112.5891, 42.9736], [-112.5593, 42.961], [-112.5207, 42.9128], [-112.5168, 42.7908], [-112.4972, 42.7907], [-112.4969, 42.733], [-112.4578, 42.733], [-112.4575, 42.6968], [-112.4379, 42.6968], [-112.4375, 42.6751], [-112.418, 42.6751], [-112.4181, 42.6462], [-112.3797, 42.6461], [-112.3894, 42.6244], [-112.3862, 42.5718], [-112.4156, 42.5682], [-112.4198, 42.503], [-112.3845, 42.5031], [-112.3802, 42.4815], [-112.3655, 42.467], [-112.346, 42.467], [-112.3429, 42.4477], [-112.2973, 42.4539], [-112.2908, 42.4271], [-112.2939, 42.3867], [-112.3048, 42.3797], [-112.3289, 42.3472], [-112.3271, 42.3238], [-112.3051, 42.3265], [-112.2913, 42.3168], [-112.2757, 42.3186], [-112.2593, 42.3507], [-112.1907, 42.3508], [-112.1859, 42.3374], [-112.161, 42.3085], [-112.156, 42.2945], [-112.1378, 42.2958], [-112.1262, 42.2852], [-111.9839, 42.2856], [-111.9839, 42.2565], [-111.8967, 42.2563], [-111.8953, 42.4162], [-111.8756, 42.4162], [-111.8755, 42.4453], [-111.8852, 42.4452], [-111.8854, 42.4888], [-111.8952, 42.4888], [-111.8967, 42.5241], [-111.9163, 42.5243], [-111.9169, 42.6173], [-111.9219, 42.632], [-111.9465, 42.6355], [-111.9464, 42.6747], [-111.9661, 42.6747], [-111.9569, 42.6905], [-111.9678, 42.6965], [-111.9695, 42.718], [-112.0573, 42.718], [-112.0849, 42.6982], [-112.1059, 42.6992], [-112.1142, 42.726], [-112.1374, 42.7513], [-112.141, 42.7631], [-112.1451, 42.7907], [-112.1389, 42.8104], [-112.1265, 42.8105], [-112.1203, 42.831], [-112.1351, 42.8491], [-112.1363, 42.8797], [-112.1497, 42.8981], [-112.1339, 42.9127], [-112.1436, 42.9177], [-112.1274, 42.9445], [-112.1028, 42.9516], [-112.0821, 42.9504], [-112.0887, 42.9735], [-112.0639, 42.9799], [-112.0529, 42.9911], [-112.063, 43.0224], [-112.6566, 43.022], [-112.6648, 43.0156], [-112.6784, 43.0217], [-112.6804, 43.0123], [-112.7076, 42.9906], [-112.7416, 42.9889], [-112.7357, 42.9732], [-112.7511, 42.9634], [-112.7506, 42.9515]]]}}, {"type": "Feature", "properties": {"osm_type": "relation", "osm_id": 313847869, "name": "Kootenai", "admin_level": "6", "kind": "subdivision_2", "parent_osm_id": 162116, "parent_name": "Idaho", "parent_iso": "US-ID"}, "geometry": {"type": "Polygon", "coordinates": [[[-117.0423, 47.9775], [-117.0401, 47.366], [-116.8108, 47.3663], [-116.8108, 47.3807], [-116.7496, 47.3859], [-116.7352, 47.3859], [-116.7354, 47.3715], [-116.6291, 47.3714], [-116.6291, 47.4003], [-116.5865, 47.4003], [-116.5866, 47.4147], [-116.3294, 47.414], [-116.3296, 47.8904], [-116.5051, 47.8901], [-116.5043, 47.9914], [-116.633, 47.9915], [-116.6334, 47.9772], [-117.0423, 47.9775]]]}}, {"type": "Feature", "properties": {"osm_type": "relation", "osm_id": 832730181, "name": "Camas", "admin_level": "6", "kind": "subdivision_2", "parent_osm_id": 162116, "parent_name": "Idaho", "parent_iso": "US-ID"}, "geometry": {"type": "Polygon", "coordinates": [[[-114.375, 43.1996], [-114.3748, 43.2575], [-114.3949, 43.2576], [-114.3946, 43.3265], [-114.4324, 43.3342], [-114.4631, 43.3251], [-114.4802, 43.3324], [-114.5031, 43.3291], [-114.5345, 43.3334], [-114.527, 43.3686], [-114.5265, 43.3984], [-114.5464, 43.3984], [-114.5466, 43.4355], [-114.5145, 43.4576], [-114.5061, 43.4779], [-114.5294, 43.4907], [-114.5619, 43.4989], [-114.5957, 43.5312], [-114.5868, 43.5588], [-114.6361, 43.5736], [-114.6517, 43.593], [-114.6824, 43.5904], [-114.6791, 43.6163], [-114.6687, 43.6295], [-114.6623, 43.6607], [-114.6792, 43.67], [-114.688, 43.6861], [-114.6762, 43.6981], [-114.6801, 43.7241], [-114.6662, 43.738], [-114.6902, 43.7504], [-114.6926, 43.7843], [-114.7021, 43.8054], [-114.7147, 43.8147], [-114.7404, 43.8068], [-114.7602, 43.7916], [-114.8005, 43.8027], [-114.8289, 43.788], [-114.8544, 43.7917], [-114.8478, 43.8164], [-114.931, 43.84], [-114.9519, 43.8543], [-114.9693, 43.8486], [-114.9893, 43.8586], [-115.0005, 43.8513], [-115.0042, 43.8288], [-115.0198, 43.823], [-115.0424, 43.7456], [-115.0289, 43.728], [-115.0182, 43.7283], [-115.0097, 43.7156], [-115.0089, 43.6969], [-115.0363, 43.673], [-115.0301, 43.6606], [-115.0369, 43.6468], [-115.0338, 43.6186], [-115.0437, 43.6191], [-115.0655, 43.5997], [-115.0831, 43.6044], [-115.0862, 43.1981], [-114.375, 43.1996]]]}}, {"type": "Feature", "properties": {"osm_type": "relation", "osm_id": 513849818, "name": "Adams", "admin_level": "6", "kind": "subdivision_2", "parent_osm_id": 162116, "parent_name": "Idaho", "parent_iso": "US-ID"}, "geometry": {"type": "Polygon", "coordinates": [[[-116.1444, 45.1077], [-116.3048, 45.1088], [-116.3042, 45.1192], [-116.286, 45.1287], [-116.2872, 45.1466], [-116.3038, 45.1721], [-116.3011, 45.1845], [-116.3429, 45.2679], [-116.6872, 45.2677], [-116.7036, 45.2398], [-116.7095, 45.203], [-116.7242, 45.1715], [-116.7296, 45.1421], [-116.7547, 45.114], [-116.7749, 45.1055], [-116.7836, 45.0936], [-116.7838, 45.0783], [-116.7973, 45.0603], [-116.848, 45.0226], [-116.8446, 45.0014], [-116.8583, 44.9788], [-116.8508, 44.9581], [-116.8322, 44.9314], [-116.8571, 44.8808], [-116.901, 44.8415], [-116.625, 44.839], [-116.6244, 44.6629], [-116.5993, 44.6369], [-116.6032, 44.6152], [-116.5292, 44.6152], [-116.5289, 44.4916], [-116.4077, 44.4444], [-116.2999, 44.4446], [-116.256, 44.4663], [-116.2361, 44.4647], [-116.2339, 44.4813], [-116.2133, 44.5108], [-116.1933, 44.4937], [-116.157, 44.4989], [-116.1774, 44.5795], [-116.1838, 44.5861], [-116.1702, 44.6205], [-116.1775, 44.6474], [-116.167, 44.6676], [-116.1574, 44.703], [-116.1828, 44.7251], [-116.1769, 44.7424], [-116.2071, 44.7688], [-116.2104, 44.7799], [-116.2025, 44.796], [-116.1974, 44.8615], [-116.1904, 44.868], [-116.1863, 44.886], [-116.1741, 44.8885], [-116.1732, 44.898], [-116.1609, 44.9033], [-116.1545, 44.9409], [-116.1329, 44.9407], [-116.1183, 44.96], [-116.1157, 44.9779], [-116.1349, 45.0022], [-116.1277, 45.0168], [-116.1031, 45.0357], [-116.1025, 45.052], [-116.092, 45.0611], [-116.0963, 45.0685], [-116.1413, 45.0821], [-116.1401, 45.098], [-116.1444, 45.1077]]]}}, {"type": "Feature", "properties": {"osm_type": "relation", "osm_id": 313918698, "name": "Nez Perce", "admin_level": "6", "kind": "subdivision_2", "parent_osm_id": 162116, "parent_name": "Idaho", "parent_iso": "US-ID"}, "geometry": {"type": "Polygon", "coordinates": [[[-117.0397, 46.5417], [-117.0398, 46.4259], [-117.0356, 46.41], [-117.0469, 46.3796], [-117.0628, 46.3653], [-117.0626, 46.3525], [-117.056, 46.3455], [-117.0239, 46.336], [-117.0207, 46.3148], [-116.9867, 46.2967], [-116.9849, 46.2897], [-116.9911, 46.2763], [-116.9668, 46.2569], [-116.9553, 46.2309], [-116.9659, 46.2034], [-116.9219, 46.1678], [-116.9227, 46.1608], [-116.9503, 46.1235], [-116.9553, 46.1022], [-116.9818, 46.0929], [-116.979, 46.08], [-116.9574, 46.0755], [-116.9427, 46.061], [-116.9187, 45.9999], [-116.8929, 45.9744], [-116.8573, 45.9042], [-116.8142, 45.8776], [-116.7945, 45.8561], [-116.7502, 45.8693], [-116.7304, 45.8941], [-116.7571, 45.9421], [-116.7491, 45.9612], [-116.7018, 45.9964], [-116.7026, 46.2378], [-116.6834, 46.243], [-116.7027, 46.2917], [-116.7103, 46.2974], [-116.7135, 46.3255], [-116.4897, 46.3256], [-116.4925, 46.3388], [-116.4689, 46.351], [-116.4221, 46.3428], [-116.402, 46.3468], [-116.3868, 46.3408], [-116.3688, 46.3432], [-116.3607, 46.3611], [-116.368, 46.4164], [-116.3986, 46.4379], [-116.4183, 46.468], [-116.3691, 46.4669], [-116.3693, 46.5005], [-116.4479, 46.498], [-116.4517, 46.4907], [-116.4561, 46.6291], [-116.621, 46.6297], [-116.6587, 46.6121], [-116.6879, 46.5886], [-116.6963, 46.5877], [-116.7191, 46.5429], [-117.0397, 46.5417]]]}}, {"type": "Feature", "properties": {"osm_type": "relation", "osm_id": 258875170, "name": "Bonneville", "admin_level": "6", "kind": "subdivision_2", "parent_osm_id": 162116, "parent_name": "Idaho", "parent_iso": "US-ID"}, "geometry": {"type": "Polygon", "coordinates": [[[-111.5895, 43.0201], [-111.0442, 43.0194], [-111.0452, 43.5011], [-111.0558, 43.5195], [-111.0732, 43.5274], [-111.0859, 43.5214], [-111.1261, 43.5319], [-111.1435, 43.5467], [-111.172, 43.547], [-111.1989, 43.5397], [-111.2076, 43.5439], [-111.2264, 43.5902], [-111.2261, 43.6064], [-111.2439, 43.6219], [-111.5318, 43.622], [-111.5661, 43.6268], [-112.5199, 43.6266], [-112.52, 43.4252], [-112.1033, 43.4251], [-112.1034, 43.4103], [-112.0437, 43.4101], [-112.0438, 43.3667], [-111.8225, 43.366], [-111.8225, 43.2823], [-111.5881, 43.2818], [-111.5895, 43.0201]]]}}, {"type": "Feature", "properties": {"osm_type": "relation", "osm_id": 689774649, "name": "Fremont", "admin_level": "6", "kind": "subdivision_2", "parent_osm_id": 162116, "parent_name": "Idaho", "parent_iso": "US-ID"}, "geometry": {"type": "Polygon", "coordinates": [[[-111.6173, 44.5493], [-111.6174, 44.4013], [-111.7916, 44.4016], [-111.7916, 44.317], [-111.8523, 44.317], [-111.8579, 44.1878], [-111.9138, 44.1878], [-111.9136, 44.1443], [-112.0337, 44.1441], [-112.0343, 44.0574], [-112.1559, 44.0578], [-112.1564, 43.9713], [-111.977, 43.9709], [-111.9769, 43.9274], [-111.8373, 43.9272], [-111.8376, 43.8983], [-111.6981, 43.8979], [-111.6978, 43.8834], [-111.5588, 43.8833], [-111.5588, 43.9011], [-111.5396, 43.9085], [-111.5317, 43.9193], [-111.5012, 43.9292], [-111.4787, 43.9279], [-111.4672, 43.9165], [-111.4252, 43.9104], [-111.3546, 43.9481], [-111.3359, 43.9401], [-111.328, 43.9254], [-111.3097, 43.9196], [-111.2801, 43.9268], [-111.2713, 43.9388], [-111.2541, 43.9386], [-111.2374, 43.9487], [-111.1873, 43.9321], [-111.1137, 43.9686], [-111.1029, 43.9684], [-111.0586, 43.9843], [-111.0471, 43.9835], [-111.049, 44.4741], [-111.0524, 44.4784], [-111.1087, 44.4879], [-111.1284, 44.4997], [-111.1386, 44.5169], [-111.1324, 44.5328], [-111.1738, 44.5493], [-111.1808, 44.5549], [-111.1807, 44.5643], [-111.1867, 44.571], [-111.2246, 44.5763], [-111.2376, 44.6088], [-111.2241, 44.6232], [-111.2526, 44.6509], [-111.2692, 44.647], [-111.2769, 44.6554], [-111.2687, 44.6681], [-111.3236, 44.7243], [-111.3357, 44.7327], [-111.3471, 44.7263], [-111.3557, 44.7274], [-111.3662, 44.742], [-111.3849, 44.7549], [-111.3977, 44.7465], [-111.3944, 44.7444], [-111.3985, 44.7231], [-111.4142, 44.7105], [-111.4295, 44.7199], [-111.4387, 44.7203], [-111.4892, 44.7047], [-111.4848, 44.6874], [-111.4696, 44.6779], [-111.4731, 44.6653], [-111.4949, 44.6448], [-111.5127, 44.6392], [-111.5055, 44.6252], [-111.5211, 44.6153], [-111.5243, 44.6041], [-111.5178, 44.5822], [-111.5047, 44.5748], [-111.5053, 44.562], [-111.4691, 44.5518], [-111.4676, 44.5443], [-111.4716, 44.5406], [-111.516, 44.5375], [-111.5239, 44.5482], [-111.5465, 44.5569], [-111.5627, 44.555], [-111.5857, 44.5626], [-111.6173, 44.5493]]]}}, {"type": "Feature", "properties": {"osm_type": "relation", "osm_id": 398352696, "name": "Bear Lake", "admin_level": "6", "kind": "subdivision_2", "parent_osm_id": 162116, "parent_name": "Idaho", "parent_iso": "US-ID"}, "geometry": {"type": "Polygon", "coordinates": [[[-111.0467, 42.0016], [-111.0467, 42.5139], [-111.0667, 42.5089], [-111.0629, 42.5008], [-111.0953, 42.4893], [-111.1098, 42.4916], [-111.1316, 42.4818], [-111.1594, 42.4906], [-111.1712, 42.4732], [-111.1893, 42.4794], [-111.2348, 42.4783], [-111.249, 42.4953], [-111.2367, 42.5091], [-111.2224, 42.5726], [-111.2408, 42.585], [-111.2411, 42.6025], [-111.2485, 42.6006], [-111.2612, 42.5746], [-111.2794, 42.5529], [-111.3187, 42.5613], [-111.3418, 42.571], [-111.3402, 42.5862], [-111.3681, 42.5903], [-111.6, 42.5904], [-111.6349, 42.57], [-111.6218, 42.5184], [-111.6102, 42.5098], [-111.6039, 42.4862], [-111.5828, 42.4464], [-111.5798, 42.4299], [-111.5992, 42.4154], [-111.5992, 42.3908], [-111.5842, 42.3942], [-111.5821, 42.3758], [-111.5587, 42.3629], [-111.5522, 42.3514], [-111.5883, 42.3257], [-111.5821, 42.31], [-111.5865, 42.2879], [-111.5622, 42.2768], [-111.5912, 42.2629], [-111.5996, 42.2485], [-111.6145, 42.2457], [-111.6136, 42.2278], [-111.6261, 42.2075], [-111.608, 42.1541], [-111.5872, 42.142], [-111.5991, 42.099], [-111.5666, 42.0831], [-111.5216, 42.0744], [-111.5153, 42.0685], [-111.5078, 41.9995], [-111.0467, 42.0016]]]}}, {"type": "Feature", "properties": {"osm_type": "relation", "osm_id": 367374953, "name": "Lewis", "admin_level": "6", "kind": "subdivision_2", "parent_osm_id": 162116, "parent_name": "Idaho", "parent_iso": "US-ID"}, "geometry": {"type": "Polygon", "coordinates": [[[-116.3691, 46.4669], [-116.4183, 46.468], [-116.3986, 46.4379], [-116.368, 46.4164], [-116.3607, 46.3611], [-116.3688, 46.3432], [-116.3868, 46.3408], [-116.402, 46.3468], [-116.4221, 46.3428], [-116.4689, 46.351], [-116.4925, 46.3388], [-116.4897, 46.3256], [-116.7135, 46.3255], [-116.7103, 46.2974], [-116.7027, 46.2917], [-116.6834, 46.243], [-116.7026, 46.2378], [-116.7018, 45.9964], [-116.6972, 45.9996], [-116.6635, 45.9926], [-116.6507, 45.9949], [-116.6431, 46.0046], [-116.6481, 46.0268], [-116.6407, 46.035], [-116.6297, 46.0368], [-116.5799, 46.0278], [-116.5564, 46.0075], [-116.5386, 45.9988], [-116.5299, 46.0007], [-116.5247, 46.0092], [-116.5266, 46.0219], [-116.5156, 46.0378], [-116.5146, 46.1287], [-116.478, 46.1225], [-116.4802, 46.1437], [-116.4475, 46.1969], [-116.4205, 46.2015], [-116.3912, 46.1885], [-116.3294, 46.1831], [-116.3016, 46.1668], [-116.2848, 46.1739], [-116.2675, 46.1681], [-116.2552, 46.1705], [-116.2346, 46.1598], [-116.2228, 46.1608], [-116.2005, 46.1528], [-116.1879, 46.1579], [-116.1846, 46.1786], [-116.1668, 46.189], [-116.1484, 46.2105], [-116.1271, 46.2149], [-116.0872, 46.2083], [-116.0561, 46.21], [-116.0162, 46.2245], [-116.0156, 46.2293], [-116.0404, 46.2433], [-116.0464, 46.2527], [-116.0864, 46.2628], [-116.1271, 46.2986], [-116.1533, 46.3481], [-116.1623, 46.3545], [-116.1842, 46.4034], [-116.1971, 46.4131], [-116.3086, 46.413], [-116.32, 46.4375], [-116.3691, 46.4669]]]}}, {"type": "Feature", "properties": {"osm_type": "relation", "osm_id": 845268021, "name": "Cassia", "admin_level": "6", "kind": "subdivision_2", "parent_osm_id": 162116, "parent_name": "Idaho", "parent_iso": "US-ID"}, "geometry": {"type": "Polygon", "coordinates": [[[-113.9318, 42.5352], [-113.9861, 42.5338], [-114.0004, 42.5264], [-114.0671, 42.5145], [-114.0692, 42.4171], [-114.2855, 42.4173], [-114.2818, 41.9942], [-114.0417, 41.9937], [-113.8933, 41.9881], [-113.0001, 41.9982], [-113.0028, 42.588], [-113.1757, 42.5895], [-113.1752, 42.6273], [-113.1957, 42.6339], [-113.2573, 42.6181], [-113.2622, 42.6283], [-113.3044, 42.6288], [-113.3607, 42.6721], [-113.3731, 42.6876], [-113.4116, 42.6745], [-113.4722, 42.6694], [-113.4937, 42.6736], [-113.5572, 42.6568], [-113.5753, 42.6456], [-113.5845, 42.6252], [-113.6071, 42.5963], [-113.6213, 42.5865], [-113.6442, 42.5455], [-113.6542, 42.5362], [-113.6991, 42.5192], [-113.7393, 42.5229], [-113.7583, 42.5341], [-113.7636, 42.5472], [-113.7802, 42.5569], [-113.8404, 42.536], [-113.8763, 42.5495], [-113.8898, 42.5494], [-113.9318, 42.5352]]]}}, {"type": "Feature", "properties": {"osm_type": "relation", "osm_id": 405181252, "name": "Benewah", "admin_level": "6", "kind": "subdivision_2", "parent_osm_id": 162116, "parent_name": "Idaho", "parent_iso": "US-ID"}, "geometry": {"type": "Polygon", "coordinates": [[[-116.3294, 47.0219], [-116.3294, 47.414], [-116.5866, 47.4147], [-116.5865, 47.4003], [-116.6291, 47.4003], [-116.6291, 47.3714], [-116.7354, 47.3715], [-116.7352, 47.3859], [-116.7496, 47.3859], [-116.8108, 47.3807], [-116.8108, 47.3663], [-117.0401, 47.366], [-117.0398, 47.1273], [-117.001, 47.1305], [-116.9677, 47.1152], [-116.9775, 47.0891], [-116.9575, 47.0709], [-116.9444, 47.0672], [-116.9252, 47.0816], [-116.8962, 47.0779], [-116.847, 47.0472], [-116.8351, 47.0455], [-116.8353, 47.0325], [-116.4581, 47.0366], [-116.4582, 47.0221], [-116.3294, 47.0219]]]}}, {"type": "Feature", "properties": {"osm_type": "relation", "osm_id": 331770303, "name": "Boise", "admin_level": "6", "kind": "subdivision_2", "parent_osm_id": 162116, "parent_name": "Idaho", "parent_iso": "US-ID"}, "geometry": {"type": "Polygon", "coordinates": [[[-115.2946, 44.3395], [-115.3182, 44.3479], [-115.3524, 44.3478], [-115.3524, 44.3053], [-115.3878, 44.2869], [-115.3934, 44.2674], [-115.4019, 44.2616], [-115.4225, 44.266], [-115.4509, 44.2467], [-115.4968, 44.2338], [-115.5108, 44.2428], [-115.5184, 44.2386], [-115.5652, 44.2356], [-116.0974, 44.2364], [-116.1059, 44.2236], [-116.12, 44.1715], [-116.114, 44.1515], [-116.1193, 44.1478], [-116.2731, 44.1512], [-116.282, 43.8074], [-115.9802, 43.5859], [-115.9757, 43.5914], [-115.9565, 43.5896], [-115.9558, 43.6017], [-115.9351, 43.6082], [-115.9299, 43.5956], [-115.9124, 43.5921], [-115.897, 43.5988], [-115.8759, 43.5913], [-115.8472, 43.608], [-115.8309, 43.6053], [-115.7971, 43.6386], [-115.77, 43.6503], [-115.7543, 43.643], [-115.7306, 43.6537], [-115.7264, 43.668], [-115.6975, 43.6654], [-115.6646, 43.6973], [-115.6458, 43.7003], [-115.6273, 43.7229], [-115.634, 43.7457], [-115.6166, 43.7635], [-115.6134, 43.7828], [-115.5928, 43.7983], [-115.5476, 43.7927], [-115.5301, 43.816], [-115.5391, 43.8474], [-115.5257, 43.8573], [-115.5131, 43.8815], [-115.5004, 43.8899], [-115.471, 43.894], [-115.3663, 43.9248], [-115.3558, 43.9194], [-115.2865, 43.9359], [-115.276, 43.9607], [-115.2519, 43.9957], [-115.2343, 44.0068], [-115.2159, 44.0326], [-115.2099, 44.0563], [-115.1971, 44.0686], [-115.2073, 44.0833], [-115.2305, 44.0988], [-115.1819, 44.0905], [-115.1644, 44.0759], [-115.1491, 44.0412], [-115.1479, 44.0028], [-115.1362, 43.9839], [-115.1095, 43.971], [-115.0855, 43.9766], [-115.0926, 43.9606], [-115.0675, 43.9408], [-115.0385, 43.9577], [-115.012, 43.9498], [-114.9908, 43.9497], [-114.9674, 43.9821], [-114.9849, 43.9889], [-114.9826, 44.0112], [-114.9986, 44.0207], [-115.0074, 44.0133], [-115.0324, 44.0195], [-115.0481, 44.0378], [-115.0436, 44.0588], [-115.0196, 44.08], [-114.9997, 44.0857], [-114.9981, 44.0982], [-115.0205, 44.0984], [-115.0467, 44.12], [-115.0281, 44.1274], [-115.0172, 44.1414], [-115.0242, 44.1555], [-115.0513, 44.1653], [-115.0617, 44.1601], [-115.0832, 44.1762], [-115.1079, 44.1701], [-115.1305, 44.1922], [-115.1437, 44.1903], [-115.1677, 44.2028], [-115.1628, 44.2137], [-115.1748, 44.2355], [-115.1606, 44.2396], [-115.1688, 44.2831], [-115.179, 44.2965], [-115.203, 44.2825], [-115.2127, 44.304], [-115.236, 44.3081], [-115.2479, 44.2967], [-115.2497, 44.3111], [-115.2877, 44.3247], [-115.2946, 44.3395]]]}}, {"type": "Feature", "properties": {"osm_type": "relation", "osm_id": 536733834, "name": "Elmore", "admin_level": "6", "kind": "subdivision_2", "parent_osm_id": 162116, "parent_name": "Idaho", "parent_iso": "US-ID"}, "geometry": {"type": "Polygon", "coordinates": [[[-114.9908, 43.9497], [-115.012, 43.9498], [-115.0385, 43.9577], [-115.0675, 43.9408], [-115.0926, 43.9606], [-115.0855, 43.9766], [-115.1095, 43.971], [-115.1362, 43.9839], [-115.1479, 44.0028], [-115.1491, 44.0412], [-115.1644, 44.0759], [-115.1819, 44.0905], [-115.2305, 44.0988], [-115.2073, 44.0833], [-115.1971, 44.0686], [-115.2099, 44.0563], [-115.2159, 44.0326], [-115.2343, 44.0068], [-115.2519, 43.9957], [-115.276, 43.9607], [-115.2865, 43.9359], [-115.3558, 43.9194], [-115.3663, 43.9248], [-115.471, 43.894], [-115.5004, 43.8899], [-115.5131, 43.8815], [-115.5257, 43.8573], [-115.5391, 43.8474], [-115.5301, 43.816], [-115.5476, 43.7927], [-115.5928, 43.7983], [-115.6134, 43.7828], [-115.6166, 43.7635], [-115.634, 43.7457], [-115.6273, 43.7229], [-115.6458, 43.7003], [-115.6646, 43.6973], [-115.6975, 43.6654], [-115.7264, 43.668], [-115.7306, 43.6537], [-115.7543, 43.643], [-115.77, 43.6503], [-115.7971, 43.6386], [-115.8309, 43.6053], [-115.8472, 43.608], [-115.8759, 43.5913], [-115.897, 43.5988], [-115.9124, 43.5921], [-115.9299, 43.5956], [-115.9351, 43.6082], [-115.9558, 43.6017], [-115.9565, 43.5896], [-115.9757, 43.5914], [-115.9787, 43.1134], [-116.2674, 43.1095], [-116.2452, 43.0982], [-116.207, 43.0934], [-116.1935, 43.0798], [-116.2051, 43.0716], [-116.2069, 43.0609], [-116.2, 43.0483], [-116.1709, 43.0378], [-116.1471, 43.0376], [-116.1397, 43.0305], [-116.1502, 43.0182], [-116.1421, 43.0131], [-116.1252, 43.0145], [-116.0915, 42.9888], [-116.0486, 42.9836], [-116.03, 42.9609], [-116.0142, 42.9509], [-115.964, 42.9461], [-115.9609, 42.9522], [-115.9711, 42.9693], [-115.9628, 42.9873], [-115.9357, 43.0017], [-115.9273, 43.0017], [-115.9051, 42.9821], [-115.8838, 42.9882], [-115.8736, 42.9865], [-115.864, 42.9747], [-115.8485, 42.97], [-115.7997, 42.9737], [-115.7886, 42.9693], [-115.7872, 42.959], [-115.7944, 42.9535], [-115.7863, 42.9442], [-115.7745, 42.9403], [-115.6922, 42.9398], [-115.6371, 42.9558], [-115.6229, 42.9557], [-115.5994, 42.9375], [-115.563, 42.9346], [-115.5304, 42.9427], [-115.5006, 42.9272], [-115.4536, 42.9286], [-115.4415, 42.9217], [-115.4414, 42.883], [-115.4438, 42.8511], [-115.4542, 42.8454], [-115.4541, 42.7766], [-115.4243, 42.7678], [-115.0377, 42.7684], [-115.0378, 42.9119], [-115.0869, 42.9146], [-115.0831, 43.6044], [-115.0655, 43.5997], [-115.0437, 43.6191], [-115.0338, 43.6186], [-115.0369, 43.6468], [-115.0301, 43.6606], [-115.0363, 43.673], [-115.0089, 43.6969], [-115.0097, 43.7156], [-115.0182, 43.7283], [-115.0289, 43.728], [-115.0424, 43.7456], [-115.0198, 43.823], [-115.0042, 43.8288], [-115.0005, 43.8513], [-114.9739, 43.8674], [-114.9967, 43.9144], [-114.9714, 43.9383], [-114.9789, 43.9468], [-114.9908, 43.9497]]]}}, {"type": "Feature", "properties": {"osm_type": "relation", "osm_id": 326485280, "name": "Owyhee", "admin_level": "6", "kind": "subdivision_2", "parent_osm_id": 162116, "parent_name": "Idaho", "parent_iso": "US-ID"}, "geometry": {"type": "Polygon", "coordinates": [[[-117.0262, 41.9999], [-115.0382, 41.996], [-115.0377, 42.7684], [-115.4243, 42.7678], [-115.4541, 42.7766], [-115.4542, 42.8454], [-115.4438, 42.8511], [-115.4414, 42.883], [-115.4415, 42.9217], [-115.4536, 42.9286], [-115.5006, 42.9272], [-115.5304, 42.9427], [-115.563, 42.9346], [-115.5994, 42.9375], [-115.6229, 42.9557], [-115.6371, 42.9558], [-115.6922, 42.9398], [-115.7745, 42.9403], [-115.7863, 42.9442], [-115.7944, 42.9535], [-115.7872, 42.959], [-115.7886, 42.9693], [-115.7997, 42.9737], [-115.8485, 42.97], [-115.864, 42.9747], [-115.8736, 42.9865], [-115.8838, 42.9882], [-115.9051, 42.9821], [-115.9273, 43.0017], [-115.9357, 43.0017], [-115.9628, 42.9873], [-115.9711, 42.9693], [-115.9609, 42.9522], [-115.964, 42.9461], [-116.0142, 42.9509], [-116.03, 42.9609], [-116.0486, 42.9836], [-116.0915, 42.9888], [-116.1252, 43.0145], [-116.1421, 43.0131], [-116.1502, 43.0182], [-116.1397, 43.0305], [-116.1471, 43.0376], [-116.1709, 43.0378], [-116.2, 43.0483], [-116.2069, 43.0609], [-116.2051, 43.0716], [-116.1935, 43.0798], [-116.207, 43.0934], [-116.258, 43.1019], [-116.2694, 43.1172], [-116.3, 43.1192], [-116.3194, 43.144], [-116.3326, 43.1484], [-116.3361, 43.1614], [-116.3518, 43.1648], [-116.386, 43.1936], [-116.3844, 43.2171], [-116.3761, 43.2311], [-116.3886, 43.2532], [-116.401, 43.2602], [-116.4103, 43.2844], [-116.4253, 43.2935], [-116.4721, 43.2912], [-116.5012, 43.2821], [-116.5218, 43.2979], [-116.5792, 43.3062], [-116.6003, 43.3317], [-116.6072, 43.3513], [-116.6226, 43.37], [-116.6674, 43.3866], [-116.6765, 43.4005], [-116.7287, 43.4365], [-116.7443, 43.4552], [-116.7813, 43.4786], [-116.7849, 43.515], [-116.7803, 43.5269], [-116.8, 43.548], [-116.8159, 43.5774], [-116.845, 43.5944], [-116.8715, 43.5921], [-116.9116, 43.6031], [-116.9241, 43.6198], [-116.9553, 43.6357], [-116.9682, 43.6674], [-117.0266, 43.6808], [-117.0262, 41.9999]]]}}, {"type": "Feature", "properties": {"osm_type": "relation", "osm_id": 958802286, "name": "Caribou", "admin_level": "6", "kind": "subdivision_2", "parent_osm_id": 162116, "parent_name": "Idaho", "parent_iso": "US-ID"}, "geometry": {"type": "Polygon", "coordinates": [[[-112.063, 43.0224], [-112.0529, 42.9911], [-112.0639, 42.9799], [-112.0887, 42.9735], [-112.0821, 42.9504], [-112.1028, 42.9516], [-112.1274, 42.9445], [-112.1436, 42.9177], [-112.1339, 42.9127], [-112.1497, 42.8981], [-112.1363, 42.8797], [-112.1351, 42.8491], [-112.1203, 42.831], [-112.1265, 42.8105], [-112.1389, 42.8104], [-112.1451, 42.7907], [-112.1374, 42.7513], [-112.1142, 42.726], [-112.1059, 42.6992], [-112.0849, 42.6982], [-112.0573, 42.718], [-111.9695, 42.718], [-111.9678, 42.6965], [-111.9569, 42.6905], [-111.9661, 42.6747], [-111.9464, 42.6747], [-111.9465, 42.6355], [-111.9219, 42.632], [-111.9169, 42.6173], [-111.9163, 42.5243], [-111.8967, 42.5241], [-111.8952, 42.4888], [-111.8854, 42.4888], [-111.8852, 42.4452], [-111.8755, 42.4453], [-111.8756, 42.4162], [-111.7384, 42.4162], [-111.7279, 42.4288], [-111.7338, 42.4306], [-111.716, 42.4306], [-111.7111, 42.4159], [-111.5992, 42.4154], [-111.5798, 42.4299], [-111.5828, 42.4464], [-111.6039, 42.4862], [-111.6102, 42.5098], [-111.6218, 42.5184], [-111.6349, 42.57], [-111.6, 42.5904], [-111.3681, 42.5903], [-111.3402, 42.5862], [-111.3418, 42.571], [-111.3187, 42.5613], [-111.2794, 42.5529], [-111.2612, 42.5746], [-111.2485, 42.6006], [-111.2411, 42.6025], [-111.2408, 42.585], [-111.2224, 42.5726], [-111.2367, 42.5091], [-111.249, 42.4953], [-111.2348, 42.4783], [-111.1893, 42.4794], [-111.1712, 42.4732], [-111.1594, 42.4906], [-111.1316, 42.4818], [-111.1098, 42.4916], [-111.0953, 42.4893], [-111.0629, 42.5008], [-111.0667, 42.5089], [-111.0467, 42.5139], [-111.0442, 43.0194], [-112.063, 43.0224]]]}}, {"type": "Feature", "properties": {"osm_type": "relation", "osm_id": 600914124, "name": "Madison", "admin_level": "6", "kind": "subdivision_2", "parent_osm_id": 162116, "parent_name": "Idaho", "parent_iso": "US-ID"}, "geometry": {"type": "Polygon", "coordinates": [[[-111.3988, 43.9229], [-111.4252, 43.9104], [-111.4672, 43.9165], [-111.4787, 43.9279], [-111.5012, 43.9292], [-111.5317, 43.9193], [-111.5396, 43.9085], [-111.5588, 43.9011], [-111.5588, 43.8833], [-111.6978, 43.8834], [-111.6981, 43.8979], [-111.8376, 43.8983], [-111.8373, 43.9272], [-111.9769, 43.9274], [-111.9775, 43.7972], [-111.9835, 43.7538], [-111.967, 43.7482], [-111.9468, 43.7507], [-111.9299, 43.7671], [-111.9193, 43.7561], [-111.9082, 43.7603], [-111.9021, 43.7472], [-111.8732, 43.737], [-111.8581, 43.7186], [-111.831, 43.7167], [-111.8203, 43.7042], [-111.8039, 43.702], [-111.7781, 43.676], [-111.7608, 43.6674], [-111.7437, 43.6682], [-111.7174, 43.6553], [-111.626, 43.6552], [-111.6261, 43.6268], [-111.3998, 43.622], [-111.3988, 43.9229]]]}}, {"type": "Feature", "properties": {"osm_type": "relation", "osm_id": 154952311, "name": "Washington", "admin_level": "6", "kind": "subdivision_2", "parent_osm_id": 162116, "parent_name": "Idaho", "parent_iso": "US-ID"}, "geometry": {"type": "Polygon", "coordinates": [[[-117.2201, 44.3014], [-117.2227, 44.2976], [-117.217, 44.2884], [-117.1704, 44.2589], [-117.1385, 44.2594], [-117.1211, 44.2776], [-117.1042, 44.2799], [-117.0895, 44.2582], [-117.053, 44.2291], [-117.0471, 44.2297], [-117.0423, 44.2428], [-117.0319, 44.2486], [-116.9759, 44.2428], [-116.972, 44.2357], [-116.9717, 44.1973], [-116.9254, 44.1915], [-116.9028, 44.1795], [-116.8958, 44.1713], [-116.8971, 44.1526], [-116.3585, 44.1512], [-116.3541, 44.1677], [-116.357, 44.2072], [-116.3433, 44.2178], [-116.3515, 44.2378], [-116.3418, 44.277], [-116.3512, 44.2878], [-116.3417, 44.3107], [-116.3474, 44.3221], [-116.3287, 44.3577], [-116.3339, 44.376], [-116.3223, 44.387], [-116.3194, 44.4212], [-116.2999, 44.4446], [-116.4077, 44.4444], [-116.5289, 44.4916], [-116.5292, 44.6152], [-116.6032, 44.6152], [-116.5993, 44.6369], [-116.6244, 44.6629], [-116.625, 44.839], [-116.901, 44.8415], [-116.9311, 44.8048], [-116.9347, 44.7839], [-116.9709, 44.7739], [-116.9989, 44.7564], [-117.0138, 44.7568], [-117.0383, 44.7482], [-117.0623, 44.7271], [-117.0618, 44.7067], [-117.0791, 44.6922], [-117.0959, 44.6647], [-117.0982, 44.6407], [-117.1205, 44.6147], [-117.1248, 44.5838], [-117.1483, 44.5644], [-117.1429, 44.5572], [-117.1493, 44.5362], [-117.161, 44.5252], [-117.1816, 44.523], [-117.2003, 44.492], [-117.2251, 44.4824], [-117.2156, 44.4538], [-117.2151, 44.4272], [-117.227, 44.4056], [-117.2427, 44.3966], [-117.243, 44.391], [-117.2351, 44.3739], [-117.1974, 44.3474], [-117.1898, 44.3366], [-117.2033, 44.313], [-117.2168, 44.3082], [-117.2201, 44.3014]]]}}, {"type": "Feature", "properties": {"osm_type": "relation", "osm_id": 884848797, "name": "Gem", "admin_level": "6", "kind": "subdivision_2", "parent_osm_id": 162116, "parent_name": "Idaho", "parent_iso": "US-ID"}, "geometry": {"type": "Polygon", "coordinates": [[[-116.157, 44.4989], [-116.1933, 44.4937], [-116.2133, 44.5108], [-116.2339, 44.4813], [-116.2361, 44.4647], [-116.256, 44.4663], [-116.2999, 44.4446], [-116.3194, 44.4212], [-116.3223, 44.387], [-116.3339, 44.376], [-116.3287, 44.3577], [-116.3474, 44.3221], [-116.3417, 44.3107], [-116.3512, 44.2878], [-116.3418, 44.277], [-116.3515, 44.2378], [-116.3433, 44.2178], [-116.357, 44.2072], [-116.3541, 44.1677], [-116.3585, 44.1512], [-116.4521, 44.1515], [-116.4526, 44.0654], [-116.5321, 44.066], [-116.5322, 44.0088], [-116.5722, 44.0092], [-116.5722, 43.9805], [-116.7125, 43.9813], [-116.7127, 43.8072], [-116.282, 43.8074], [-116.2731, 44.1512], [-116.2139, 44.1514], [-116.2129, 44.3244], [-116.1523, 44.3245], [-116.157, 44.4989]]]}}]}