{"type": "FeatureCollection", "parent": {"osm_id": 1685677, "name": "Lucerne", "admin_level": "4", "kind": "subdivision_1", "child_kind": "subdivision_2", "iso": "CH-LU"}, "features": [{"type": "Feature", "properties": {"osm_type": "relation", "osm_id": 159461489, "name": "Entlebuch", "admin_level": "6", "kind": "subdivision_2", "parent_osm_id": 1685677, "parent_name": "Lucerne", "parent_iso": "CH-LU"}, "geometry": {"type": "Polygon", "coordinates": [[[8.0549, 46.7882], [8.0595, 46.8001], [8.068, 46.8062], [8.0461, 46.8376], [8.0618, 46.8579], [8.0701, 46.862], [8.0724, 46.8964], [8.0842, 46.899], [8.0983, 46.9117], [8.1109, 46.9084], [8.1102, 46.897], [8.1156, 46.8948], [8.1359, 46.9219], [8.1656, 46.9391], [8.1538, 46.9547], [8.1634, 46.9639], [8.1466, 46.9731], [8.1463, 47.0026], [8.1295, 47.0131], [8.1428, 47.0246], [8.1499, 47.0383], [8.1193, 47.0469], [8.1033, 47.0569], [8.0832, 47.0547], [8.0725, 47.0586], [8.0675, 47.0507], [8.0684, 47.0324], [8.0582, 47.029], [8.0455, 47.0362], [8.0174, 47.0262], [7.9717, 47.0306], [7.9522, 47.0188], [7.9543, 47.0074], [7.9599, 47.0049], [7.9536, 46.9943], [7.9566, 46.9835], [7.9497, 46.9783], [7.9512, 46.9719], [7.9374, 46.9635], [7.9356, 46.9519], [7.9258, 46.9476], [7.9187, 46.9354], [7.9007, 46.9352], [7.8791, 46.927], [7.8734, 46.9162], [7.8884, 46.9077], [7.8773, 46.8906], [7.8604, 46.8821], [7.8621, 46.8723], [7.8729, 46.8647], [7.8741, 46.8478], [7.8799, 46.8396], [7.9525, 46.8045], [7.9587, 46.7898], [7.9759, 46.7789], [7.9882, 46.775], [8.0242, 46.7879], [8.0549, 46.7882]]]}}, {"type": "Feature", "properties": {"osm_type": "relation", "osm_id": 584658145, "name": "Hochdorf", "admin_level": "6", "kind": "subdivision_2", "parent_osm_id": 1685677, "parent_name": "Lucerne", "parent_iso": "CH-LU"}, "geometry": {"type": "Polygon", "coordinates": [[[8.225, 47.2497], [8.2205, 47.2465], [8.2218, 47.2234], [8.2264, 47.2167], [8.2269, 47.1983], [8.2344, 47.1874], [8.2357, 47.1669], [8.252, 47.1589], [8.2562, 47.1502], [8.2477, 47.1364], [8.234, 47.1348], [8.2441, 47.1257], [8.2339, 47.0985], [8.2375, 47.0945], [8.229, 47.0915], [8.2362, 47.0801], [8.2495, 47.075], [8.2505, 47.0693], [8.2675, 47.0686], [8.2766, 47.0739], [8.2949, 47.0684], [8.3407, 47.0979], [8.3402, 47.1107], [8.4024, 47.1291], [8.4106, 47.1443], [8.379, 47.1452], [8.3651, 47.1516], [8.3637, 47.1566], [8.3576, 47.1562], [8.3594, 47.1632], [8.3411, 47.1829], [8.3301, 47.2149], [8.3209, 47.2219], [8.3168, 47.2452], [8.2981, 47.2629], [8.2961, 47.2705], [8.3009, 47.2758], [8.2838, 47.2854], [8.2522, 47.29], [8.2441, 47.2821], [8.2442, 47.2761], [8.23, 47.2771], [8.2342, 47.2657], [8.2276, 47.2571], [8.2301, 47.2509], [8.225, 47.2497]]]}}, {"type": "Feature", "properties": {"osm_type": "relation", "osm_id": 541145129, "name": "Luzern", "admin_level": "6", "kind": "subdivision_2", "parent_osm_id": 1685677, "parent_name": "Lucerne", "parent_iso": "CH-LU"}, "geometry": {"type": "MultiPolygon", "coordinates": [[[[8.4985, 47.1036], [8.5001, 47.1172], [8.4867, 47.1286], [8.4736, 47.1212], [8.4837, 47.1093], [8.4985, 47.1036]]], [[[8.1634, 46.9639], [8.191, 46.9716], [8.2087, 46.9676], [8.2324, 46.97], [8.2353, 46.9728], [8.2232, 46.98], [8.2323, 46.9924], [8.2492, 46.9867], [8.2701, 46.9985], [8.2926, 46.9956], [8.3183, 46.9989], [8.3224, 46.9923], [8.3177, 46.9818], [8.3349, 46.9807], [8.3371, 46.9757], [8.3018, 46.9671], [8.2854, 46.956], [8.3049, 46.9507], [8.3414, 46.9653], [8.3434, 46.9738], [8.3383, 46.9789], [8.3554, 46.9851], [8.3752, 47.0046], [8.3908, 47.0048], [8.39, 46.9987], [8.4559, 47.0034], [8.4843, 46.9978], [8.518, 47.0077], [8.5214, 47.0204], [8.448, 47.0658], [8.3967, 47.0641], [8.395, 47.0721], [8.4138, 47.0831], [8.416, 47.0963], [8.4586, 47.1167], [8.4546, 47.133], [8.4206, 47.1228], [8.4192, 47.1364], [8.4108, 47.144], [8.3972, 47.1252], [8.3402, 47.1107], [8.3407, 47.0979], [8.2949, 47.0684], [8.2766, 47.0739], [8.2675, 47.0686], [8.2505, 47.0693], [8.2495, 47.075], [8.2313, 47.0854], [8.2102, 47.0716], [8.1836, 47.0639], [8.1775, 47.0529], [8.1404, 47.0503], [8.1373, 47.0442], [8.1499, 47.0383], [8.1428, 47.0246], [8.1295, 47.0131], [8.1463, 47.0026], [8.1466, 46.9731], [8.1634, 46.9639]]]]}}, {"type": "Feature", "properties": {"osm_type": "relation", "osm_id": 393737422, "name": "Sursee", "admin_level": "6", "kind": "subdivision_2", "parent_osm_id": 1685677, "parent_name": "Lucerne", "parent_iso": "CH-LU"}, "geometry": {"type": "Polygon", "coordinates": [[[8.089, 47.2664], [8.0718, 47.258], [8.056, 47.26], [8.0627, 47.2511], [8.0547, 47.2473], [8.0289, 47.2436], [8.0174, 47.2465], [8.0197, 47.2361], [8.0332, 47.234], [8.0443, 47.2212], [8.0575, 47.2155], [8.051, 47.1932], [8.0398, 47.1919], [8.0391, 47.1783], [8.0552, 47.1779], [8.0664, 47.1607], [8.0524, 47.1573], [8.0198, 47.1297], [8.0388, 47.1185], [8.0392, 47.1112], [8.0696, 47.1041], [8.0899, 47.0878], [8.0845, 47.0794], [8.069, 47.0818], [8.0718, 47.0735], [8.0648, 47.0621], [8.0348, 47.0583], [8.0221, 47.0495], [8.0214, 47.0429], [8.0582, 47.029], [8.0684, 47.0324], [8.0675, 47.0507], [8.0725, 47.0586], [8.0832, 47.0547], [8.1033, 47.0569], [8.1193, 47.0469], [8.1373, 47.0442], [8.1404, 47.0503], [8.1775, 47.0529], [8.1836, 47.0639], [8.2219, 47.0771], [8.2313, 47.0854], [8.229, 47.0915], [8.2375, 47.0945], [8.2339, 47.0985], [8.2441, 47.1257], [8.234, 47.1348], [8.2477, 47.1364], [8.2562, 47.1502], [8.252, 47.1589], [8.2357, 47.1669], [8.2344, 47.1874], [8.2269, 47.1983], [8.2264, 47.2167], [8.2218, 47.2234], [8.2205, 47.2465], [8.225, 47.2497], [8.2204, 47.2557], [8.2089, 47.2509], [8.2042, 47.2368], [8.2067, 47.2288], [8.1794, 47.2254], [8.1568, 47.2424], [8.1772, 47.2435], [8.182, 47.2483], [8.179, 47.2556], [8.1376, 47.25], [8.1257, 47.2444], [8.1096, 47.2481], [8.1006, 47.2623], [8.089, 47.2664]]]}}, {"type": "Feature", "properties": {"osm_type": "relation", "osm_id": 185467582, "name": "Willisau", "admin_level": "6", "kind": "subdivision_2", "parent_osm_id": 1685677, "parent_name": "Lucerne", "parent_iso": "CH-LU"}, "geometry": {"type": "Polygon", "coordinates": [[[7.8419, 47.2382], [7.8393, 47.2281], [7.8853, 47.1762], [7.8787, 47.1631], [7.893, 47.1382], [7.8884, 47.1302], [7.8696, 47.1202], [7.8766, 47.111], [7.8825, 47.0868], [7.8705, 47.0515], [7.8963, 47.0303], [7.9026, 47.0195], [7.9013, 47.0116], [7.9543, 47.0074], [7.9522, 47.0188], [7.9674, 47.0294], [8.0218, 47.0277], [8.037, 47.036], [8.0214, 47.0429], [8.0221, 47.0495], [8.0348, 47.0583], [8.0648, 47.0621], [8.0718, 47.0735], [8.069, 47.0818], [8.0845, 47.0794], [8.0899, 47.0878], [8.0696, 47.1041], [8.0392, 47.1112], [8.0388, 47.1185], [8.0198, 47.1297], [8.0524, 47.1573], [8.0664, 47.1607], [8.0552, 47.1779], [8.0391, 47.1783], [8.0398, 47.1919], [8.051, 47.1932], [8.0575, 47.2155], [8.0443, 47.2212], [8.0332, 47.234], [8.0197, 47.2361], [8.015, 47.2643], [7.9951, 47.2843], [7.985, 47.2793], [7.9495, 47.2775], [7.9605, 47.2568], [7.9326, 47.24], [7.9086, 47.2471], [7.8528, 47.2359], [7.8419, 47.2382]]]}}]}