{"type": "FeatureCollection", "parent": {"osm_id": 1693811, "name": "Thurgau", "admin_level": "4", "kind": "subdivision_1", "child_kind": "subdivision_2", "iso": "CH-TG"}, "features": [{"type": "Feature", "properties": {"osm_type": "relation", "osm_id": 170351235, "name": "Arbon", "admin_level": "6", "kind": "subdivision_2", "parent_osm_id": 1693811, "parent_name": "Thurgau", "parent_iso": "CH-TG"}, "geometry": {"type": "Polygon", "coordinates": [[[9.4364, 47.5086], [9.4408, 47.5185], [9.3891, 47.5476], [9.3803, 47.5681], [9.383, 47.5734], [9.3173, 47.6018], [9.3045, 47.5967], [9.3074, 47.5915], [9.2999, 47.5812], [9.2814, 47.5833], [9.2671, 47.5763], [9.2677, 47.5701], [9.3118, 47.5565], [9.3148, 47.5474], [9.3398, 47.5359], [9.3448, 47.5227], [9.3571, 47.5206], [9.3372, 47.5041], [9.3754, 47.5019], [9.3686, 47.487], [9.3815, 47.4878], [9.3946, 47.476], [9.4017, 47.4793], [9.4087, 47.4942], [9.4235, 47.4983], [9.4364, 47.5086]]]}}, {"type": "Feature", "properties": {"osm_type": "relation", "osm_id": 523613711, "name": "Bischofszell", "admin_level": "6", "kind": "subdivision_2", "parent_osm_id": 1693811, "parent_name": "Thurgau", "parent_iso": "CH-TG"}, "geometry": {"type": "Polygon", "coordinates": [[[9.3427, 47.531], [9.3148, 47.5474], [9.3118, 47.5565], [9.2677, 47.5701], [9.2648, 47.5779], [9.2489, 47.574], [9.2244, 47.5586], [9.2015, 47.5649], [9.1877, 47.552], [9.1706, 47.5494], [9.1752, 47.5324], [9.1668, 47.5393], [9.1548, 47.5327], [9.1577, 47.5195], [9.1647, 47.5159], [9.1503, 47.5029], [9.1691, 47.5041], [9.174, 47.4979], [9.2073, 47.4901], [9.2103, 47.4815], [9.2266, 47.486], [9.2585, 47.4758], [9.2845, 47.484], [9.3024, 47.4791], [9.3218, 47.4926], [9.3198, 47.5012], [9.3078, 47.5042], [9.3158, 47.5112], [9.3069, 47.5157], [9.2845, 47.5075], [9.2738, 47.5127], [9.2818, 47.5133], [9.2909, 47.524], [9.3061, 47.528], [9.3151, 47.5248], [9.32, 47.5327], [9.3427, 47.531]]]}}, {"type": "Feature", "properties": {"osm_type": "relation", "osm_id": 436113745, "name": "Bodensee", "admin_level": "6", "kind": "subdivision_2", "parent_osm_id": 1693811, "parent_name": "Thurgau", "parent_iso": "CH-TG"}, "geometry": {"type": "Polygon", "coordinates": [[[9.561, 47.4992], [9.5625, 47.5399], [9.5244, 47.5451], [9.4393, 47.5899], [9.2759, 47.6561], [9.1872, 47.6568], [9.2247, 47.6391], [9.3002, 47.6133], [9.334, 47.5918], [9.383, 47.5734], [9.3803, 47.5681], [9.3891, 47.5476], [9.4408, 47.5185], [9.4364, 47.5086], [9.4487, 47.5066], [9.4545, 47.4997], [9.4521, 47.4945], [9.4695, 47.4885], [9.4784, 47.4918], [9.4811, 47.4868], [9.4955, 47.4821], [9.5312, 47.4822], [9.546, 47.4868], [9.561, 47.4992]]]}}, {"type": "Feature", "properties": {"osm_type": "relation", "osm_id": 929942676, "name": "Frauenfeld", "admin_level": "6", "kind": "subdivision_2", "parent_osm_id": 1693811, "parent_name": "Thurgau", "parent_iso": "CH-TG"}, "geometry": {"type": "Polygon", "coordinates": [[[8.8064, 47.6051], [8.7515, 47.6255], [8.742, 47.6124], [8.7495, 47.5966], [8.8037, 47.5884], [8.8106, 47.5736], [8.84, 47.5757], [8.8415, 47.5706], [8.8521, 47.5678], [8.8301, 47.5592], [8.8439, 47.5363], [8.898, 47.5293], [8.8986, 47.5136], [8.894, 47.5067], [8.8979, 47.4899], [8.8873, 47.4855], [8.8849, 47.4785], [8.8952, 47.4664], [8.9114, 47.4697], [8.9299, 47.4641], [8.9382, 47.4772], [8.9245, 47.4936], [8.9432, 47.5023], [8.9314, 47.512], [8.9402, 47.5168], [8.9758, 47.5162], [8.9717, 47.5304], [9.0132, 47.5377], [9.0154, 47.5452], [9.002, 47.549], [9.007, 47.5561], [9.0029, 47.5632], [9.0127, 47.5645], [9.0124, 47.5721], [9.021, 47.5839], [8.9893, 47.5927], [8.9185, 47.59], [8.9134, 47.5969], [8.8906, 47.6014], [8.8739, 47.5988], [8.8695, 47.5895], [8.8594, 47.5889], [8.8634, 47.601], [8.8466, 47.6085], [8.8483, 47.614], [8.8414, 47.6166], [8.8125, 47.6024], [8.8064, 47.6051]]]}}, {"type": "Feature", "properties": {"osm_type": "relation", "osm_id": 823484213, "name": "Kreuzlingen", "admin_level": "6", "kind": "subdivision_2", "parent_osm_id": 1693811, "parent_name": "Thurgau", "parent_iso": "CH-TG"}, "geometry": {"type": "Polygon", "coordinates": [[[9.3173, 47.6018], [9.3002, 47.6133], [9.2247, 47.6391], [9.1872, 47.6568], [9.1705, 47.6549], [9.1577, 47.666], [9.1483, 47.6676], [9.1393, 47.664], [9.096, 47.666], [9.0833, 47.6749], [9.0774, 47.6703], [9.0673, 47.6745], [9.0817, 47.66], [9.0819, 47.6545], [9.0736, 47.649], [9.0791, 47.645], [9.076, 47.6397], [9.0621, 47.6362], [9.0633, 47.6307], [9.0501, 47.6161], [9.1006, 47.6138], [9.1054, 47.6062], [9.1023, 47.5979], [9.1087, 47.5954], [9.1116, 47.5876], [9.1274, 47.5858], [9.1526, 47.5923], [9.175, 47.5913], [9.1867, 47.6082], [9.1996, 47.597], [9.2345, 47.5919], [9.236, 47.584], [9.2489, 47.574], [9.2753, 47.5778], [9.2814, 47.5833], [9.2999, 47.5812], [9.3074, 47.5915], [9.3045, 47.5967], [9.3173, 47.6018]]]}}, {"type": "Feature", "properties": {"osm_type": "relation", "osm_id": 434123888, "name": "Steckborn", "admin_level": "6", "kind": "subdivision_2", "parent_osm_id": 1693811, "parent_name": "Thurgau", "parent_iso": "CH-TG"}, "geometry": {"type": "MultiPolygon", "coordinates": [[[[9.021, 47.5839], [9.0197, 47.5892], [9.0091, 47.5878], [9.021, 47.5839]]], [[[8.7934, 47.6793], [8.8009, 47.6693], [8.8058, 47.6699], [8.8079, 47.6558], [8.8272, 47.6508], [8.8298, 47.6444], [8.8141, 47.6271], [8.8151, 47.6211], [8.8224, 47.6176], [8.8077, 47.6167], [8.8064, 47.6051], [8.8125, 47.6024], [8.8414, 47.6166], [8.8483, 47.614], [8.8466, 47.6085], [8.8634, 47.601], [8.8594, 47.5889], [8.8695, 47.5895], [8.8739, 47.5988], [8.8906, 47.6014], [8.9134, 47.5969], [8.9185, 47.59], [8.9893, 47.5927], [9.0091, 47.5878], [9.0161, 47.5964], [9.0146, 47.6014], [9.0311, 47.6091], [9.025, 47.6224], [9.0593, 47.6262], [9.0621, 47.6362], [9.076, 47.6397], [9.0791, 47.645], [9.0736, 47.649], [9.0819, 47.6545], [9.0817, 47.66], [9.0673, 47.6745], [9.0774, 47.6703], [9.0873, 47.6746], [9.096, 47.666], [9.1277, 47.6667], [9.0978, 47.6787], [9.0143, 47.6858], [8.9435, 47.6565], [8.8985, 47.6484], [8.8644, 47.6571], [8.852, 47.6543], [8.8554, 47.6639], [8.8436, 47.6687], [8.8409, 47.6755], [8.8197, 47.6815], [8.7934, 47.6793]]]]}}, {"type": "Feature", "properties": {"osm_type": "relation", "osm_id": 755470155, "name": "Weinfelden", "admin_level": "6", "kind": "subdivision_2", "parent_osm_id": 1693811, "parent_name": "Thurgau", "parent_iso": "CH-TG"}, "geometry": {"type": "Polygon", "coordinates": [[[9.2489, 47.574], [9.236, 47.584], [9.2345, 47.5919], [9.1996, 47.597], [9.1867, 47.6082], [9.175, 47.5913], [9.1116, 47.5876], [9.1087, 47.5954], [9.1023, 47.5979], [9.1054, 47.6062], [9.1006, 47.6138], [9.051, 47.6135], [9.053, 47.6222], [9.0593, 47.6262], [9.0528, 47.6266], [9.025, 47.6224], [9.0311, 47.6091], [9.0146, 47.6014], [9.0161, 47.5964], [9.0097, 47.5924], [9.0091, 47.5878], [9.0219, 47.5874], [9.0124, 47.5721], [9.0127, 47.5645], [9.0029, 47.5632], [9.007, 47.5561], [9.002, 47.549], [9.0154, 47.5452], [9.0396, 47.5521], [9.0464, 47.5515], [9.0439, 47.5454], [9.0744, 47.5483], [9.0866, 47.5334], [9.0846, 47.5234], [9.0967, 47.5179], [9.0994, 47.5086], [9.1038, 47.5111], [9.1027, 47.5279], [9.1323, 47.5267], [9.1668, 47.5393], [9.1752, 47.5324], [9.1706, 47.5494], [9.1877, 47.552], [9.2015, 47.5649], [9.2244, 47.5586], [9.2489, 47.574]]]}}]}