{"type": "FeatureCollection", "parent": {"osm_id": 1707249, "name": "Afar Region", "admin_level": "4", "kind": "subdivision_1", "child_kind": "subdivision_2", "iso": "ET-AF"}, "features": [{"type": "Feature", "properties": {"osm_type": "relation", "osm_id": 732438250, "name": "Zone 1", "admin_level": "6", "kind": "subdivision_2", "parent_osm_id": 1707249, "parent_name": "Afar Region", "parent_iso": "ET-AF"}, "geometry": {"type": "Polygon", "coordinates": [[[39.9983, 11.613], [39.9942, 11.5846], [40.0618, 11.475], [40.0679, 11.4438], [40.0711, 11.3745], [40.0658, 11.3386], [40.0721, 11.3265], [40.1035, 11.3178], [40.1237, 11.2969], [40.1465, 11.2565], [40.1738, 11.2408], [40.2164, 11.2498], [40.2975, 11.2395], [40.351, 11.2409], [40.4429, 11.2165], [40.5179, 11.1882], [40.5667, 11.1184], [40.6171, 11.1234], [40.7286, 11.1443], [40.7813, 11.1842], [40.8089, 11.1989], [40.9083, 11.1608], [40.9729, 11.1265], [41.0106, 11.0907], [41.0256, 11.0648], [41.032, 11.0344], [41.0424, 11.0153], [41.0682, 11.002], [41.093, 10.9804], [41.1183, 10.9329], [41.149, 10.8277], [41.1673, 10.7806], [41.1918, 10.7973], [41.221, 10.8353], [41.2329, 10.8645], [41.2416, 10.9222], [41.2691, 10.9587], [41.3012, 10.9649], [41.3931, 10.9672], [41.411, 10.9593], [41.485, 10.9678], [41.5831, 10.9629], [41.7405, 10.9692], [41.7614, 10.9828], [41.7778, 11.2865], [41.7735, 11.3234], [41.7759, 11.5397], [41.7888, 11.5838], [41.8043, 11.6678], [41.8348, 11.7257], [41.8543, 11.7427], [41.8673, 11.7635], [41.9431, 11.8251], [41.9652, 11.857], [41.9811, 11.8709], [42.0906, 12.0652], [42.1813, 12.1774], [42.2, 12.2078], [42.2121, 12.2137], [42.2302, 12.2358], [42.2671, 12.29], [42.3202, 12.388], [42.3379, 12.4035], [42.3557, 12.4456], [42.3106, 12.5219], [42.2812, 12.5572], [42.2433, 12.6163], [42.1366, 12.7466], [42.0973, 12.7842], [42.0963, 12.7942], [42.0512, 12.8438], [41.9735, 12.9839], [41.8851, 13.0839], [41.9, 12.8384], [41.8066, 12.7949], [41.6076, 12.7451], [41.4668, 12.7333], [41.3899, 12.714], [41.2779, 12.7203], [41.2001, 12.7098], [41.1431, 12.7216], [41.0785, 12.7658], [41.0932, 12.8731], [41.0784, 12.998], [40.9108, 12.9871], [40.8098, 12.9942], [40.709, 12.9933], [40.6228, 12.9437], [40.6277, 12.8428], [40.6164, 12.7965], [40.6138, 12.7579], [40.6222, 12.7158], [40.6464, 12.6616], [40.6732, 12.646], [40.6834, 12.5041], [40.7088, 12.4692], [40.7499, 12.4492], [40.7259, 12.3824], [40.7269, 12.3546], [40.7161, 12.3166], [40.7142, 12.2447], [40.7267, 12.0528], [40.721, 12.0089], [40.7102, 11.9708], [40.6891, 11.9445], [40.5974, 11.9007], [40.5101, 11.8816], [40.3257, 11.8633], [40.3024, 11.8543], [40.1577, 11.8265], [40.0916, 11.7921], [40.0507, 11.7602], [40.016, 11.7182], [39.995, 11.682], [40.0162, 11.6464], [39.9983, 11.613]]]}}, {"type": "Feature", "properties": {"osm_type": "relation", "osm_id": 834132457, "name": "Zone 2", "admin_level": "6", "kind": "subdivision_2", "parent_osm_id": 1707249, "parent_name": "Afar Region", "parent_iso": "ET-AF"}, "geometry": {"type": "Polygon", "coordinates": [[[39.7454, 13.5715], [39.7403, 13.5638], [39.7348, 13.5293], [39.7243, 13.5098], [39.7204, 13.4763], [39.7286, 13.4229], [39.7444, 13.3896], [39.7422, 13.3829], [39.7466, 13.3748], [39.7304, 13.3795], [39.7409, 13.3639], [39.7426, 13.352], [39.7386, 13.3218], [39.7206, 13.2952], [39.7258, 13.289], [39.7595, 13.2796], [39.7682, 13.2859], [39.7866, 13.2634], [39.7881, 13.2463], [39.8015, 13.2198], [39.8094, 13.2178], [39.8046, 13.1904], [39.8128, 13.1558], [39.8321, 13.1132], [39.8359, 13.0837], [39.8639, 13.0204], [39.8632, 12.9627], [39.8736, 12.9429], [39.9051, 12.9225], [39.9261, 12.8945], [39.9302, 12.8751], [39.9664, 12.8226], [39.9735, 12.7981], [39.9894, 12.7771], [40.0626, 12.775], [40.1383, 12.8281], [40.1697, 12.8427], [40.1966, 12.8713], [40.2858, 12.9208], [40.4451, 12.9795], [40.4712, 12.9972], [40.525, 13.013], [40.5688, 13.0046], [40.5928, 12.9891], [40.6216, 12.9623], [40.6228, 12.9437], [40.709, 12.9933], [40.8098, 12.9942], [40.9108, 12.9871], [41.0784, 12.998], [41.0932, 12.8731], [41.0785, 12.7658], [41.1431, 12.7216], [41.2001, 12.7098], [41.2779, 12.7203], [41.3899, 12.714], [41.4668, 12.7333], [41.6076, 12.7451], [41.8066, 12.7949], [41.9, 12.8384], [41.8851, 13.0839], [41.7873, 13.176], [41.7382, 13.2319], [41.6126, 13.3482], [41.4825, 13.4814], [41.3146, 13.6309], [41.2513, 13.7133], [41.2168, 13.7482], [41.0782, 13.8792], [40.8376, 14.0847], [40.6514, 14.23], [40.5465, 14.302], [40.4454, 14.364], [40.3856, 14.3903], [40.3318, 14.4246], [40.2235, 14.4792], [40.1408, 14.4986], [40.0899, 14.4908], [40.0762, 14.4945], [40.0561, 14.4875], [40.0111, 14.4402], [39.9851, 14.4329], [39.9805, 14.4105], [39.9826, 14.3943], [39.9917, 14.3825], [39.9807, 14.3716], [39.9512, 14.361], [39.9171, 14.3708], [39.9092, 14.366], [39.8964, 14.3712], [39.854, 14.3677], [39.8555, 14.3737], [39.8389, 14.3811], [39.7969, 14.3866], [39.7729, 14.3744], [39.7806, 14.3364], [39.7722, 14.3204], [39.7271, 14.3035], [39.7277, 14.2946], [39.7346, 14.2885], [39.7585, 14.2778], [39.7582, 14.2404], [39.7431, 14.2355], [39.695, 14.2419], [39.6866, 14.2168], [39.6731, 14.2009], [39.6593, 14.1993], [39.6508, 14.1892], [39.6744, 14.1783], [39.6829, 14.1653], [39.7504, 14.1524], [39.768, 14.1406], [39.7987, 14.1431], [39.8104, 14.1522], [39.8385, 14.1548], [39.8428, 14.0976], [39.8491, 14.0786], [39.8449, 14.0509], [39.8556, 14.0316], [39.8868, 14.0128], [39.8694, 13.9929], [39.8699, 13.9835], [39.8595, 13.9738], [39.86, 13.9664], [39.8365, 13.9763], [39.8301, 13.9749], [39.8165, 13.9689], [39.8025, 13.9462], [39.8185, 13.9432], [39.8288, 13.9322], [39.827, 13.922], [39.8342, 13.919], [39.8299, 13.8691], [39.8387, 13.8648], [39.8372, 13.8548], [39.8431, 13.839], [39.8346, 13.822], [39.8424, 13.8041], [39.8532, 13.7955], [39.8541, 13.7671], [39.8646, 13.7557], [39.8849, 13.7489], [39.8769, 13.7388], [39.8785, 13.6894], [39.8683, 13.6589], [39.8704, 13.6101], [39.8658, 13.6033], [39.8648, 13.5488], [39.8443, 13.5572], [39.8171, 13.5584], [39.8047, 13.5544], [39.7639, 13.5719], [39.7454, 13.5715]]]}}, {"type": "Feature", "properties": {"osm_type": "relation", "osm_id": 428923913, "name": "Zone 3", "admin_level": "6", "kind": "subdivision_2", "parent_osm_id": 1707249, "parent_name": "Afar Region", "parent_iso": "ET-AF"}, "geometry": {"type": "Polygon", "coordinates": [[[40.0954, 8.8632], [40.1531, 8.933], [40.1708, 8.9655], [40.2387, 8.9984], [40.2469, 9.0364], [40.2464, 9.0759], [40.3279, 9.1557], [40.409, 9.2822], [40.4719, 9.3558], [40.4997, 9.3761], [40.5293, 9.3865], [40.6369, 9.397], [40.6604, 9.4053], [40.6764, 9.4185], [40.6944, 9.4454], [40.6939, 9.4999], [40.6999, 9.5338], [40.7496, 9.6523], [40.8482, 9.7913], [40.9974, 9.9297], [41.0148, 9.9402], [41.0205, 9.9498], [41.0142, 9.9609], [40.9998, 9.9688], [40.9667, 9.9726], [40.9469, 10.0023], [40.9374, 10.0362], [40.9756, 10.1576], [41.006, 10.3198], [41.0313, 10.4014], [41.0327, 10.4229], [41.0879, 10.6015], [41.0788, 10.6404], [41.0782, 10.682], [41.1673, 10.7806], [41.149, 10.8277], [41.1183, 10.9329], [41.093, 10.9804], [41.0682, 11.002], [41.0424, 11.0153], [41.032, 11.0344], [41.0256, 11.0648], [41.0106, 11.0907], [40.9729, 11.1265], [40.9083, 11.1608], [40.8089, 11.1989], [40.7813, 11.1842], [40.7286, 11.1443], [40.6171, 11.1234], [40.5667, 11.1184], [40.5693, 11.0954], [40.602, 11.0599], [40.6362, 10.996], [40.646, 10.9671], [40.6466, 10.9237], [40.6327, 10.9163], [40.6061, 10.9181], [40.5462, 10.9454], [40.5223, 10.9636], [40.4943, 10.9688], [40.4692, 10.9688], [40.4409, 10.944], [40.4326, 10.9196], [40.4221, 10.8353], [40.4237, 10.757], [40.4648, 10.671], [40.4667, 10.6421], [40.455, 10.631], [40.4539, 10.6178], [40.4389, 10.5871], [40.4152, 10.5613], [40.3804, 10.4922], [40.3781, 10.4203], [40.3938, 10.3722], [40.4078, 10.2623], [40.3722, 10.1774], [40.3724, 10.1594], [40.3631, 10.1284], [40.3644, 10.0367], [40.36, 10.0101], [40.3208, 9.9461], [40.2795, 9.9041], [40.2595, 9.8902], [40.2367, 9.8613], [40.2265, 9.822], [40.2325, 9.7683], [40.2487, 9.7235], [40.2443, 9.6857], [40.222, 9.6805], [40.1994, 9.6839], [40.1848, 9.6944], [40.1659, 9.6975], [40.1481, 9.6873], [40.1176, 9.6874], [40.08, 9.6956], [40.0335, 9.7139], [40.0065, 9.71], [39.9824, 9.7211], [39.9744, 9.7302], [39.9498, 9.7324], [39.8767, 9.7538], [39.863, 9.7549], [39.8506, 9.7493], [39.84, 9.7245], [39.8535, 9.6997], [39.8508, 9.6887], [39.8585, 9.6561], [39.8802, 9.6252], [39.8847, 9.6116], [39.878, 9.5776], [39.8484, 9.5653], [39.8576, 9.5575], [39.8582, 9.5481], [39.8488, 9.5262], [39.848, 9.5117], [39.8384, 9.5029], [39.8487, 9.4822], [39.8734, 9.4603], [39.8753, 9.4088], [39.8795, 9.4014], [39.8738, 9.3988], [39.8223, 9.4184], [39.8081, 9.4138], [39.8007, 9.4007], [39.7861, 9.3966], [39.7923, 9.3708], [39.7507, 9.3702], [39.7516, 9.3619], [39.79, 9.3052], [39.845, 9.3152], [39.8609, 9.3081], [39.8869, 9.2704], [39.8579, 9.2711], [39.8638, 9.2433], [39.8741, 9.2346], [39.8739, 9.2283], [39.837, 9.1893], [39.8139, 9.1721], [39.8183, 9.1373], [39.8785, 9.1458], [39.9099, 9.1328], [39.9196, 9.0694], [39.9293, 9.0552], [39.9433, 9.0487], [39.9527, 9.031], [39.9485, 9.0046], [40.0004, 9.0082], [40.0228, 9.0033], [40.0357, 8.9955], [40.0483, 8.9789], [40.052, 8.9624], [40.0375, 8.9076], [40.0201, 8.8902], [40.0118, 8.8718], [40.0113, 8.8571], [40.0251, 8.8461], [40.0521, 8.8417], [40.0678, 8.845], [40.0954, 8.8632]]]}}, {"type": "Feature", "properties": {"osm_type": "relation", "osm_id": 716411788, "name": "Zone 4", "admin_level": "6", "kind": "subdivision_2", "parent_osm_id": 1707249, "parent_name": "Afar Region", "parent_iso": "ET-AF"}, "geometry": {"type": "Polygon", "coordinates": [[[39.995, 11.682], [40.016, 11.7182], [40.0507, 11.7602], [40.0916, 11.7921], [40.1577, 11.8265], [40.3024, 11.8543], [40.3257, 11.8633], [40.5101, 11.8816], [40.5974, 11.9007], [40.6891, 11.9445], [40.7102, 11.9708], [40.721, 12.0089], [40.7267, 12.0528], [40.7142, 12.2447], [40.7161, 12.3166], [40.7269, 12.3546], [40.7259, 12.3824], [40.7499, 12.4492], [40.7088, 12.4692], [40.6834, 12.5041], [40.6732, 12.646], [40.6464, 12.6616], [40.6222, 12.7158], [40.6138, 12.7579], [40.6164, 12.7965], [40.6277, 12.8428], [40.6216, 12.9623], [40.5688, 13.0046], [40.525, 13.013], [40.4712, 12.9972], [40.4451, 12.9795], [40.2858, 12.9208], [40.1966, 12.8713], [40.1697, 12.8427], [40.1383, 12.8281], [40.0626, 12.775], [39.9894, 12.7771], [39.9789, 12.7929], [39.9436, 12.7722], [39.8999, 12.763], [39.8707, 12.7346], [39.8685, 12.7245], [39.8403, 12.714], [39.827, 12.6945], [39.821, 12.6596], [39.8242, 12.6464], [39.8334, 12.6351], [39.8076, 12.597], [39.8277, 12.5727], [39.8268, 12.5617], [39.8336, 12.5506], [39.8532, 12.5482], [39.8641, 12.5322], [39.8643, 12.507], [39.8691, 12.4951], [39.8819, 12.4852], [39.8672, 12.4734], [39.8829, 12.4677], [39.8834, 12.4584], [39.864, 12.4641], [39.8342, 12.4342], [39.8158, 12.4078], [39.8317, 12.3582], [39.8184, 12.3426], [39.8185, 12.3248], [39.8256, 12.3185], [39.8285, 12.2412], [39.8084, 12.2396], [39.8007, 12.1957], [39.8295, 12.1006], [39.8626, 12.0891], [39.8444, 12.0661], [39.8421, 12.0543], [39.8774, 11.9751], [39.888, 11.9065], [39.879, 11.8834], [39.8757, 11.7796], [39.9248, 11.7016], [39.9705, 11.6653], [39.995, 11.682]]]}}, {"type": "Feature", "properties": {"osm_type": "relation", "osm_id": 753576329, "name": "Zone 5", "admin_level": "6", "kind": "subdivision_2", "parent_osm_id": 1707249, "parent_name": "Afar Region", "parent_iso": "ET-AF"}, "geometry": {"type": "Polygon", "coordinates": [[[39.9744, 9.7302], [39.9824, 9.7211], [40.0065, 9.71], [40.0335, 9.7139], [40.08, 9.6956], [40.1176, 9.6874], [40.1481, 9.6873], [40.1659, 9.6975], [40.1848, 9.6944], [40.1994, 9.6839], [40.222, 9.6805], [40.2443, 9.6857], [40.2487, 9.7235], [40.2325, 9.7683], [40.2265, 9.822], [40.2367, 9.8613], [40.2595, 9.8902], [40.2795, 9.9041], [40.3208, 9.9461], [40.36, 10.0101], [40.3644, 10.0367], [40.3631, 10.1284], [40.3724, 10.1594], [40.3722, 10.1774], [40.4078, 10.2623], [40.3938, 10.3722], [40.3781, 10.4203], [40.3804, 10.4922], [40.4152, 10.5613], [40.4389, 10.5871], [40.4539, 10.6178], [40.455, 10.631], [40.4667, 10.6421], [40.4648, 10.671], [40.4237, 10.757], [40.4221, 10.8353], [40.4326, 10.9196], [40.4409, 10.944], [40.4692, 10.9688], [40.5223, 10.9636], [40.5462, 10.9454], [40.6061, 10.9181], [40.6327, 10.9163], [40.6466, 10.9237], [40.6491, 10.9369], [40.646, 10.9671], [40.6362, 10.996], [40.602, 11.0599], [40.5693, 11.0954], [40.5667, 11.1184], [40.5471, 11.1497], [40.5179, 11.1882], [40.4429, 11.2165], [40.351, 11.2409], [40.2975, 11.2395], [40.2164, 11.2498], [40.1738, 11.2408], [40.2133, 11.1098], [40.1947, 11.0972], [40.1964, 11.0691], [40.1878, 11.0262], [40.1699, 11.0024], [40.145, 10.953], [40.1246, 10.9385], [40.1338, 10.916], [40.1502, 10.8967], [40.1814, 10.8977], [40.1767, 10.8787], [40.1708, 10.8744], [40.165, 10.8295], [40.1676, 10.8059], [40.1229, 10.7691], [40.1093, 10.7647], [40.1035, 10.7559], [40.1294, 10.6184], [40.1538, 10.4402], [40.1625, 10.4363], [40.1645, 10.4133], [40.1613, 10.3017], [40.1584, 10.2863], [40.1475, 10.2781], [40.1565, 10.2583], [40.1299, 10.1745], [40.159, 10.0912], [40.1335, 10.072], [40.108, 10.0721], [40.0699, 10.08], [40.0249, 10.0753], [39.9944, 10.0778], [39.9898, 10.0893], [39.949, 10.0854], [39.9281, 10.0909], [39.9377, 10.0632], [39.9443, 10.0601], [39.9425, 10.044], [39.9236, 10.0117], [39.9482, 9.9943], [40.0107, 9.9921], [40.0328, 9.9954], [40.044, 9.992], [40.0598, 9.9781], [40.0681, 9.961], [40.0897, 9.9358], [40.0787, 9.9064], [40.0644, 9.9034], [40.0593, 9.8653], [40.0716, 9.8584], [40.0535, 9.8432], [40.0361, 9.8438], [40.0287, 9.8309], [40.0119, 9.8195], [40.0053, 9.7962], [40.0089, 9.7827], [39.992, 9.7577], [40.0146, 9.7385], [40.0102, 9.7338], [39.9744, 9.7302]]]}}]}