{"type": "FeatureCollection", "parent": {"osm_id": 1719443, "name": "Oriental", "admin_level": "4", "kind": "subdivision_1", "child_kind": "subdivision_2", "iso": "MA-02"}, "features": [{"type": "Feature", "properties": {"osm_type": "relation", "osm_id": 740232107, "name": "Province de Sidi Slimane إقليم سيدي سليمان", "admin_level": "6", "kind": "subdivision_2", "parent_osm_id": 1719443, "parent_name": "Oriental", "parent_iso": "MA-02"}, "geometry": {"type": "Polygon", "coordinates": [[[-5.8831, 34.1032], [-5.8799, 34.1202], [-5.856, 34.1427], [-5.8144, 34.1577], [-5.8295, 34.1886], [-5.7952, 34.1906], [-5.7907, 34.2552], [-5.8007, 34.2568], [-5.8043, 34.2645], [-5.796, 34.3023], [-5.789, 34.2966], [-5.7771, 34.3285], [-5.7758, 34.3412], [-5.7832, 34.3533], [-5.7604, 34.3541], [-5.7544, 34.3352], [-5.746, 34.3343], [-5.7469, 34.3413], [-5.7379, 34.3427], [-5.7298, 34.3326], [-5.7067, 34.3305], [-5.6988, 34.3353], [-5.6843, 34.3609], [-5.6946, 34.3644], [-5.704, 34.3772], [-5.6963, 34.3918], [-5.7038, 34.395], [-5.711, 34.3856], [-5.7182, 34.3884], [-5.7164, 34.3816], [-5.7244, 34.3824], [-5.7265, 34.3936], [-5.734, 34.3859], [-5.7372, 34.3905], [-5.7438, 34.3872], [-5.7575, 34.398], [-5.7617, 34.3953], [-5.7608, 34.401], [-5.7654, 34.4042], [-5.7569, 34.4054], [-5.7556, 34.3993], [-5.7433, 34.4001], [-5.7336, 34.4033], [-5.7355, 34.4087], [-5.749, 34.4066], [-5.752, 34.415], [-5.7665, 34.4225], [-5.7808, 34.4168], [-5.7979, 34.4182], [-5.7951, 34.4275], [-5.8005, 34.4354], [-5.7989, 34.4458], [-5.812, 34.4496], [-5.795, 34.4536], [-5.7936, 34.459], [-5.829, 34.4626], [-5.82, 34.4794], [-5.8388, 34.4889], [-5.8683, 34.4741], [-5.8585, 34.4667], [-5.8631, 34.462], [-5.8857, 34.4582], [-5.877, 34.4857], [-5.8819, 34.4842], [-5.8854, 34.469], [-5.9072, 34.4704], [-5.9123, 34.4471], [-5.9068, 34.4448], [-5.9069, 34.4394], [-5.9145, 34.4385], [-5.9025, 34.4307], [-5.9014, 34.4232], [-5.8843, 34.404], [-5.8577, 34.382], [-5.8609, 34.3729], [-5.8558, 34.3711], [-5.8636, 34.3449], [-5.8755, 34.3548], [-5.9436, 34.3316], [-5.95, 34.3365], [-5.9541, 34.35], [-5.9498, 34.3526], [-5.9614, 34.367], [-5.9685, 34.3585], [-5.9792, 34.3664], [-5.9952, 34.3673], [-5.9991, 34.3605], [-6.0312, 34.3561], [-6.0456, 34.38], [-6.0625, 34.387], [-6.0602, 34.3899], [-6.0677, 34.3945], [-6.0898, 34.3996], [-6.0974, 34.4089], [-6.0927, 34.4102], [-6.0927, 34.4154], [-6.1066, 34.4181], [-6.1216, 34.4291], [-6.126, 34.438], [-6.1362, 34.4399], [-6.1527, 34.4317], [-6.1657, 34.4374], [-6.1694, 34.4537], [-6.1764, 34.4609], [-6.1883, 34.4597], [-6.2055, 34.4665], [-6.2338, 34.4615], [-6.2569, 34.4481], [-6.2795, 34.4078], [-6.2928, 34.3964], [-6.2943, 34.374], [-6.3158, 34.3593], [-6.3109, 34.3503], [-6.3131, 34.3225], [-6.2899, 34.3236], [-6.2899, 34.315], [-6.2631, 34.3175], [-6.2654, 34.2987], [-6.2872, 34.304], [-6.2918, 34.2953], [-6.3094, 34.2926], [-6.3095, 34.2862], [-6.2455, 34.283], [-6.2481, 34.2654], [-6.2613, 34.25], [-6.2728, 34.2034], [-6.2827, 34.1858], [-6.279, 34.1782], [-6.2862, 34.1722], [-6.2786, 34.1627], [-6.2026, 34.1617], [-6.1369, 34.1416], [-6.0593, 34.1019], [-6.0553, 34.0938], [-6.0475, 34.0957], [-6.0079, 34.0843], [-5.9626, 34.0897], [-5.9612, 34.1036], [-5.9506, 34.1033], [-5.9522, 34.0981], [-5.9073, 34.0918], [-5.8831, 34.1032]]]}}, {"type": "Feature", "properties": {"osm_type": "relation", "osm_id": 134021963, "name": "Province de Kenitra إقليم القنيطرة", "admin_level": "6", "kind": "subdivision_2", "parent_osm_id": 1719443, "parent_name": "Oriental", "parent_iso": "MA-02"}, "geometry": {"type": "Polygon", "coordinates": [[[-6.2786, 34.1627], [-6.2862, 34.1722], [-6.279, 34.1782], [-6.2827, 34.1858], [-6.2728, 34.2034], [-6.2613, 34.25], [-6.2481, 34.2654], [-6.2455, 34.283], [-6.3095, 34.2862], [-6.3094, 34.2926], [-6.2918, 34.2953], [-6.2872, 34.304], [-6.2654, 34.2987], [-6.2631, 34.3175], [-6.2899, 34.315], [-6.2899, 34.3236], [-6.3131, 34.3225], [-6.3109, 34.3503], [-6.3158, 34.3593], [-6.2943, 34.374], [-6.2928, 34.3964], [-6.2627, 34.4321], [-6.2545, 34.4717], [-6.276, 34.485], [-6.2761, 34.4899], [-6.3001, 34.4901], [-6.3127, 34.4957], [-6.3207, 34.4913], [-6.321, 34.5], [-6.3069, 34.5038], [-6.306, 34.5212], [-6.3001, 34.5246], [-6.2938, 34.5231], [-6.2958, 34.5103], [-6.2804, 34.5046], [-6.2782, 34.5101], [-6.2859, 34.524], [-6.2752, 34.5316], [-6.2504, 34.5117], [-6.2427, 34.511], [-6.2537, 34.5325], [-6.2347, 34.5428], [-6.24, 34.5506], [-6.2389, 34.5584], [-6.222, 34.5539], [-6.2148, 34.5402], [-6.2068, 34.541], [-6.2023, 34.5482], [-6.2167, 34.553], [-6.2226, 34.5635], [-6.2213, 34.571], [-6.2128, 34.5722], [-6.208, 34.5584], [-6.2029, 34.5573], [-6.192, 34.5668], [-6.1931, 34.585], [-6.1861, 34.5851], [-6.1798, 34.5762], [-6.1698, 34.5982], [-6.1446, 34.5914], [-6.1434, 34.6104], [-6.1352, 34.617], [-6.1275, 34.6157], [-6.1341, 34.6037], [-6.132, 34.6001], [-6.1211, 34.6079], [-6.1059, 34.602], [-6.0915, 34.6089], [-6.0915, 34.597], [-6.0869, 34.593], [-6.0763, 34.6016], [-6.0566, 34.6023], [-6.0498, 34.6267], [-6.0363, 34.6145], [-6.0148, 34.6085], [-6.0212, 34.6201], [-6.0177, 34.63], [-6.0067, 34.6415], [-5.9952, 34.6384], [-5.9924, 34.6452], [-5.9728, 34.655], [-5.9717, 34.6514], [-5.9558, 34.6511], [-5.9332, 34.6432], [-5.9219, 34.632], [-5.9225, 34.6225], [-5.8897, 34.6194], [-5.8603, 34.6274], [-5.8482, 34.6258], [-5.8481, 34.6324], [-5.8616, 34.6456], [-5.8614, 34.6517], [-5.8736, 34.6432], [-5.8835, 34.6489], [-5.8761, 34.6544], [-5.8805, 34.6591], [-5.8716, 34.6885], [-5.8722, 34.7252], [-5.89, 34.7674], [-5.8826, 34.7937], [-5.9, 34.8293], [-5.8737, 34.826], [-5.8635, 34.8297], [-5.8595, 34.8428], [-5.8291, 34.8519], [-5.8244, 34.8348], [-5.8168, 34.8281], [-5.8087, 34.8343], [-5.7909, 34.8352], [-5.7864, 34.8406], [-5.791, 34.8507], [-5.7844, 34.8528], [-5.7745, 34.8741], [-5.7849, 34.8778], [-5.7912, 34.8875], [-5.7813, 34.9279], [-5.8332, 34.9436], [-5.8783, 34.934], [-5.9194, 34.941], [-5.962, 34.97], [-6.007, 34.9918], [-6.0264, 34.9765], [-6.0538, 34.9765], [-6.0668, 34.9905], [-6.058, 34.9982], [-6.1002, 35.0155], [-6.1268, 35.0105], [-6.1385, 34.997], [-6.1859, 34.9889], [-6.2434, 35.0014], [-6.3016, 34.871], [-6.289, 34.8757], [-6.2833, 34.8686], [-6.2686, 34.8663], [-6.2724, 34.8651], [-6.2588, 34.8574], [-6.2515, 34.8585], [-6.249, 34.8376], [-6.2566, 34.8362], [-6.2608, 34.8243], [-6.2803, 34.8116], [-6.2787, 34.8175], [-6.2664, 34.8248], [-6.2599, 34.8395], [-6.2732, 34.828], [-6.292, 34.8356], [-6.2966, 34.8432], [-6.2959, 34.8315], [-6.2888, 34.8313], [-6.2975, 34.8246], [-6.2982, 34.8436], [-6.2948, 34.8498], [-6.2967, 34.8441], [-6.2876, 34.8437], [-6.2863, 34.8639], [-6.2825, 34.8666], [-6.2936, 34.8732], [-6.3036, 34.868], [-6.3903, 34.6981], [-6.4981, 34.5138], [-6.5375, 34.4517], [-6.6755, 34.2652], [-6.684, 34.2672], [-6.6695, 34.2656], [-6.6538, 34.2743], [-6.648, 34.2705], [-6.6659, 34.2616], [-6.6866, 34.263], [-6.6789, 34.2607], [-6.6894, 34.2312], [-6.7307, 34.1588], [-6.7014, 34.1444], [-6.6836, 34.1616], [-6.6317, 34.1246], [-6.5754, 34.1244], [-6.5851, 34.1134], [-6.5585, 34.1059], [-6.5574, 34.0976], [-6.5368, 34.123], [-6.4712, 34.1219], [-6.421, 34.1799], [-6.4222, 34.1601], [-6.3871, 34.155], [-6.3624, 34.1698], [-6.3486, 34.1535], [-6.3108, 34.1521], [-6.2786, 34.1627]]]}}, {"type": "Feature", "properties": {"osm_type": "relation", "osm_id": 122997229, "name": "Province de Sidi Kacem إقليم سيدي قاسم", "admin_level": "6", "kind": "subdivision_2", "parent_osm_id": 1719443, "parent_name": "Oriental", "parent_iso": "MA-02"}, "geometry": {"type": "Polygon", "coordinates": [[[-5.7934, 34.211], [-5.768, 34.1629], [-5.751, 34.1671], [-5.7514, 34.1597], [-5.744, 34.1592], [-5.7013, 34.174], [-5.7066, 34.1449], [-5.7046, 34.1209], [-5.6483, 34.1194], [-5.6419, 34.1256], [-5.6113, 34.1228], [-5.5945, 34.1074], [-5.582, 34.1078], [-5.5421, 34.1292], [-5.5346, 34.1372], [-5.5315, 34.1599], [-5.5035, 34.1511], [-5.4909, 34.1572], [-5.469, 34.1474], [-5.4642, 34.1651], [-5.4565, 34.1651], [-5.4431, 34.1845], [-5.4641, 34.1913], [-5.4737, 34.2121], [-5.464, 34.2262], [-5.4509, 34.2347], [-5.4362, 34.2335], [-5.4296, 34.2503], [-5.4211, 34.25], [-5.4225, 34.2567], [-5.4299, 34.2617], [-5.4412, 34.2928], [-5.4461, 34.2933], [-5.443, 34.3008], [-5.4595, 34.3104], [-5.4629, 34.3191], [-5.4719, 34.3136], [-5.4824, 34.3259], [-5.488, 34.3219], [-5.4877, 34.3133], [-5.5003, 34.3186], [-5.5044, 34.3331], [-5.4924, 34.3404], [-5.4931, 34.3441], [-5.5171, 34.3565], [-5.5187, 34.3646], [-5.5327, 34.3623], [-5.5289, 34.3755], [-5.5154, 34.378], [-5.5067, 34.3714], [-5.4956, 34.3709], [-5.4556, 34.3942], [-5.4172, 34.4018], [-5.3939, 34.4135], [-5.3796, 34.44], [-5.3607, 34.4408], [-5.3436, 34.4557], [-5.3406, 34.4632], [-5.3455, 34.4686], [-5.3352, 34.4805], [-5.3446, 34.4828], [-5.3425, 34.4884], [-5.3152, 34.5159], [-5.3439, 34.5273], [-5.3894, 34.5371], [-5.3925, 34.5353], [-5.387, 34.5227], [-5.3949, 34.5219], [-5.4089, 34.5336], [-5.4277, 34.5367], [-5.4353, 34.5583], [-5.4294, 34.5736], [-5.4127, 34.5867], [-5.422, 34.6083], [-5.4448, 34.6236], [-5.4569, 34.6223], [-5.4615, 34.6284], [-5.4893, 34.6313], [-5.5057, 34.6446], [-5.5284, 34.6386], [-5.5408, 34.6681], [-5.5521, 34.6679], [-5.5518, 34.6936], [-5.5758, 34.6933], [-5.5796, 34.7078], [-5.5901, 34.7216], [-5.6035, 34.7166], [-5.6047, 34.7226], [-5.6343, 34.726], [-5.6293, 34.7363], [-5.6442, 34.7401], [-5.6666, 34.7344], [-5.6683, 34.7264], [-5.6825, 34.7127], [-5.7051, 34.7113], [-5.7146, 34.7047], [-5.7106, 34.7186], [-5.7171, 34.7204], [-5.7193, 34.7271], [-5.7285, 34.7305], [-5.7442, 34.7266], [-5.7606, 34.7369], [-5.7762, 34.7348], [-5.7949, 34.7508], [-5.7816, 34.7779], [-5.788, 34.7936], [-5.7841, 34.825], [-5.7909, 34.8352], [-5.8087, 34.8343], [-5.8168, 34.8281], [-5.8244, 34.8348], [-5.8291, 34.8519], [-5.8595, 34.8428], [-5.8635, 34.8297], [-5.8737, 34.826], [-5.9, 34.8293], [-5.8826, 34.7937], [-5.89, 34.7674], [-5.8722, 34.7252], [-5.8716, 34.6885], [-5.8805, 34.6591], [-5.8761, 34.6544], [-5.8835, 34.6489], [-5.8736, 34.6432], [-5.8614, 34.6517], [-5.8616, 34.6456], [-5.8481, 34.6324], [-5.8482, 34.6258], [-5.8603, 34.6274], [-5.8897, 34.6194], [-5.9225, 34.6225], [-5.9219, 34.632], [-5.9332, 34.6432], [-5.9558, 34.6511], [-5.9717, 34.6514], [-5.9728, 34.655], [-5.9924, 34.6452], [-5.9952, 34.6384], [-6.0067, 34.6415], [-6.0177, 34.63], [-6.0212, 34.6201], [-6.0148, 34.6085], [-6.0363, 34.6145], [-6.0498, 34.6267], [-6.0566, 34.6023], [-6.0763, 34.6016], [-6.0869, 34.593], [-6.0915, 34.597], [-6.0915, 34.6089], [-6.1059, 34.602], [-6.1211, 34.6079], [-6.132, 34.6001], [-6.1341, 34.6037], [-6.1275, 34.6157], [-6.1352, 34.617], [-6.1434, 34.6104], [-6.1446, 34.5914], [-6.1698, 34.5982], [-6.1798, 34.5762], [-6.1861, 34.5851], [-6.1931, 34.585], [-6.192, 34.5668], [-6.2029, 34.5573], [-6.208, 34.5584], [-6.2128, 34.5722], [-6.2213, 34.571], [-6.2226, 34.5635], [-6.2167, 34.553], [-6.2023, 34.5482], [-6.2068, 34.541], [-6.2148, 34.5402], [-6.222, 34.5539], [-6.2389, 34.5584], [-6.24, 34.5506], [-6.2347, 34.5428], [-6.2537, 34.5325], [-6.2427, 34.511], [-6.2504, 34.5117], [-6.2752, 34.5316], [-6.2859, 34.524], [-6.2782, 34.5101], [-6.2804, 34.5046], [-6.2958, 34.5103], [-6.2938, 34.5231], [-6.3001, 34.5246], [-6.306, 34.5212], [-6.3069, 34.5038], [-6.3158, 34.5037], [-6.3225, 34.497], [-6.3207, 34.4913], [-6.3127, 34.4957], [-6.3001, 34.4901], [-6.2761, 34.4899], [-6.276, 34.485], [-6.2612, 34.479], [-6.2545, 34.4717], [-6.2569, 34.4481], [-6.2338, 34.4615], [-6.2055, 34.4665], [-6.1883, 34.4597], [-6.1764, 34.4609], [-6.1694, 34.4537], [-6.1657, 34.4374], [-6.1527, 34.4317], [-6.1362, 34.4399], [-6.126, 34.438], [-6.1216, 34.4291], [-6.1066, 34.4181], [-6.0927, 34.4154], [-6.0927, 34.4102], [-6.0974, 34.4089], [-6.0898, 34.3996], [-6.0677, 34.3945], [-6.0602, 34.3899], [-6.0625, 34.387], [-6.0456, 34.38], [-6.0312, 34.3561], [-5.9991, 34.3605], [-5.9952, 34.3673], [-5.9792, 34.3664], [-5.9685, 34.3585], [-5.9614, 34.367], [-5.9498, 34.3526], [-5.9541, 34.35], [-5.95, 34.3365], [-5.9436, 34.3316], [-5.8755, 34.3548], [-5.8636, 34.3449], [-5.8558, 34.3711], [-5.8609, 34.3729], [-5.8577, 34.382], [-5.8843, 34.404], [-5.9014, 34.4232], [-5.9025, 34.4307], [-5.9145, 34.4385], [-5.9069, 34.4394], [-5.9068, 34.4448], [-5.9123, 34.4471], [-5.9072, 34.4704], [-5.8854, 34.469], [-5.8819, 34.4842], [-5.877, 34.4857], [-5.8858, 34.4605], [-5.8817, 34.4568], [-5.8631, 34.462], [-5.8585, 34.4667], [-5.8683, 34.4741], [-5.8449, 34.4871], [-5.8274, 34.4848], [-5.82, 34.4794], [-5.829, 34.4626], [-5.7936, 34.459], [-5.795, 34.4536], [-5.812, 34.4496], [-5.7989, 34.4458], [-5.8005, 34.4354], [-5.7951, 34.4275], [-5.7979, 34.4182], [-5.7808, 34.4168], [-5.7665, 34.4225], [-5.752, 34.415], [-5.749, 34.4066], [-5.7355, 34.4087], [-5.7336, 34.4033], [-5.7433, 34.4001], [-5.7556, 34.3993], [-5.7569, 34.4054], [-5.7654, 34.4042], [-5.7608, 34.401], [-5.7617, 34.3953], [-5.7575, 34.398], [-5.7438, 34.3872], [-5.7372, 34.3905], [-5.734, 34.3859], [-5.7265, 34.3936], [-5.7244, 34.3824], [-5.7164, 34.3816], [-5.7182, 34.3884], [-5.711, 34.3856], [-5.7038, 34.395], [-5.6963, 34.3918], [-5.704, 34.3772], [-5.6946, 34.3644], [-5.6843, 34.3609], [-5.6988, 34.3353], [-5.7067, 34.3305], [-5.7298, 34.3326], [-5.7379, 34.3427], [-5.7469, 34.3413], [-5.746, 34.3343], [-5.7544, 34.3352], [-5.7604, 34.3541], [-5.7832, 34.3533], [-5.7758, 34.3412], [-5.7771, 34.3285], [-5.789, 34.2966], [-5.796, 34.3023], [-5.8043, 34.2645], [-5.8007, 34.2568], [-5.7907, 34.2552], [-5.7934, 34.211]]]}}]}