{"type": "FeatureCollection", "parent": {"osm_id": 174742, "name": "Hakkâri", "admin_level": "4", "kind": "subdivision_1", "child_kind": "subdivision_2", "iso": "TR-30"}, "features": [{"type": "Feature", "properties": {"osm_type": "relation", "osm_id": 747034838, "name": "Derecik", "admin_level": "6", "kind": "subdivision_2", "parent_osm_id": 174742, "parent_name": "Hakkâri", "parent_iso": "TR-30"}, "geometry": {"type": "Polygon", "coordinates": [[[44.2756, 37.1967], [44.2816, 37.1873], [44.2765, 37.1649], [44.2507, 37.1576], [44.2227, 37.1589], [44.2141, 37.1378], [44.205, 37.1312], [44.1983, 37.1156], [44.1859, 37.1073], [44.1851, 37.0979], [44.1952, 37.0932], [44.1968, 37.0761], [44.2124, 37.0692], [44.2294, 37.053], [44.2329, 37.0386], [44.2183, 37.0354], [44.2274, 37.0292], [44.2361, 37.0103], [44.2435, 37.01], [44.2565, 36.9924], [44.2511, 36.9828], [44.2662, 36.9805], [44.2681, 36.9759], [44.2896, 36.9756], [44.3095, 36.9629], [44.3121, 36.9663], [44.3055, 36.9715], [44.3148, 36.9844], [44.3292, 36.9882], [44.3298, 36.998], [44.3514, 37.0202], [44.3673, 37.0246], [44.3495, 37.0402], [44.3586, 37.0523], [44.3832, 37.0591], [44.3934, 37.0499], [44.3995, 37.0565], [44.4002, 37.0517], [44.4144, 37.0524], [44.4197, 37.061], [44.4668, 37.0741], [44.4831, 37.0882], [44.4914, 37.0877], [44.517, 37.1023], [44.514, 37.1128], [44.5245, 37.1161], [44.5256, 37.1218], [44.5335, 37.1252], [44.5445, 37.1207], [44.5525, 37.1248], [44.5497, 37.1343], [44.5585, 37.1395], [44.5595, 37.1498], [44.5761, 37.1635], [44.6008, 37.1668], [44.6046, 37.1742], [44.6202, 37.1807], [44.6227, 37.188], [44.6017, 37.2043], [44.5581, 37.1974], [44.5366, 37.1846], [44.5235, 37.1663], [44.4503, 37.1712], [44.4361, 37.212], [44.4296, 37.2155], [44.4172, 37.2061], [44.383, 37.2024], [44.358, 37.1931], [44.3307, 37.198], [44.3123, 37.1795], [44.2756, 37.1967]]]}}, {"type": "Feature", "properties": {"osm_type": "relation", "osm_id": 320280638, "name": "Yüksekova", "admin_level": "6", "kind": "subdivision_2", "parent_osm_id": 174742, "parent_name": "Hakkâri", "parent_iso": "TR-30"}, "geometry": {"type": "Polygon", "coordinates": [[[43.9008, 37.3498], [43.9151, 37.3127], [43.9016, 37.2913], [43.8984, 37.2429], [43.913, 37.223], [43.9194, 37.2248], [43.9261, 37.238], [43.9384, 37.2424], [43.9309, 37.2463], [43.9428, 37.2498], [43.9471, 37.2583], [43.9442, 37.2685], [43.9578, 37.2715], [43.9554, 37.2929], [43.9931, 37.2988], [43.9981, 37.3089], [44.0204, 37.3286], [44.0236, 37.3176], [44.0318, 37.3262], [44.0404, 37.3257], [44.0413, 37.3222], [44.062, 37.3209], [44.0686, 37.3135], [44.1006, 37.3154], [44.1257, 37.3229], [44.1529, 37.3021], [44.1638, 37.3038], [44.1989, 37.2882], [44.2547, 37.3348], [44.2779, 37.3718], [44.2954, 37.382], [44.3582, 37.3929], [44.406, 37.4225], [44.5454, 37.4599], [44.5682, 37.4703], [44.5865, 37.4654], [44.5824, 37.484], [44.585, 37.5074], [44.6015, 37.5142], [44.6015, 37.5242], [44.6134, 37.5478], [44.6013, 37.5561], [44.6128, 37.5619], [44.6137, 37.5665], [44.6079, 37.57], [44.6128, 37.5714], [44.5989, 37.5808], [44.6107, 37.5883], [44.6144, 37.6022], [44.6001, 37.6168], [44.5932, 37.6177], [44.5809, 37.6374], [44.5716, 37.6383], [44.5682, 37.6448], [44.5743, 37.6659], [44.5896, 37.671], [44.6281, 37.7021], [44.6304, 37.7063], [44.6241, 37.7102], [44.6206, 37.727], [44.5948, 37.7478], [44.5871, 37.764], [44.5686, 37.7688], [44.555, 37.7805], [44.5274, 37.7828], [44.4939, 37.7705], [44.4803, 37.7717], [44.4727, 37.7638], [44.4525, 37.7667], [44.4431, 37.7747], [44.4499, 37.7858], [44.4484, 37.8066], [44.4298, 37.7987], [44.4216, 37.8044], [44.3507, 37.7787], [44.3111, 37.7773], [44.2119, 37.7299], [44.1321, 37.7335], [44.0953, 37.7201], [44.0864, 37.7335], [44.0689, 37.7121], [44.0545, 37.7121], [44.0405, 37.7049], [44.0203, 37.7105], [44.0116, 37.7066], [44.0077, 37.6976], [43.98, 37.6967], [43.9651, 37.6825], [43.9497, 37.6549], [43.9551, 37.6185], [43.9894, 37.5988], [43.9997, 37.5784], [43.9986, 37.5636], [43.9918, 37.5376], [43.9656, 37.4929], [43.9587, 37.4702], [43.9297, 37.4296], [43.9008, 37.3498]]]}}, {"type": "Feature", "properties": {"osm_type": "relation", "osm_id": 178472028, "name": "Şemdinli", "admin_level": "6", "kind": "subdivision_2", "parent_osm_id": 174742, "parent_name": "Hakkâri", "parent_iso": "TR-30"}, "geometry": {"type": "Polygon", "coordinates": [[[44.6227, 37.188], [44.6372, 37.1928], [44.6404, 37.1875], [44.6474, 37.1895], [44.6744, 37.1711], [44.6942, 37.1771], [44.7, 37.1719], [44.7179, 37.1756], [44.7533, 37.1631], [44.7596, 37.1669], [44.7693, 37.1636], [44.7729, 37.1512], [44.7843, 37.1438], [44.785, 37.1671], [44.7661, 37.1831], [44.7681, 37.1926], [44.7605, 37.2119], [44.7626, 37.2235], [44.7576, 37.2283], [44.7684, 37.2446], [44.7998, 37.2595], [44.803, 37.2698], [44.8152, 37.2805], [44.7985, 37.3107], [44.7706, 37.3284], [44.7517, 37.3314], [44.7324, 37.3422], [44.7241, 37.3559], [44.7215, 37.3757], [44.6927, 37.3843], [44.6574, 37.3859], [44.6534, 37.3928], [44.656, 37.4023], [44.6364, 37.4164], [44.6309, 37.4316], [44.619, 37.4371], [44.5873, 37.4396], [44.5798, 37.4476], [44.5863, 37.4519], [44.5865, 37.4654], [44.5806, 37.4644], [44.5764, 37.47], [44.406, 37.4225], [44.3582, 37.3929], [44.2954, 37.382], [44.2779, 37.3718], [44.2547, 37.3348], [44.1989, 37.2882], [44.2098, 37.2806], [44.229, 37.2824], [44.2419, 37.27], [44.2507, 37.2503], [44.2684, 37.2444], [44.2718, 37.2122], [44.2647, 37.2039], [44.2658, 37.1978], [44.2735, 37.1942], [44.2782, 37.197], [44.2951, 37.1849], [44.3123, 37.1795], [44.3307, 37.198], [44.358, 37.1931], [44.383, 37.2024], [44.4172, 37.2061], [44.4296, 37.2155], [44.4361, 37.212], [44.4503, 37.1712], [44.5235, 37.1663], [44.5466, 37.1931], [44.6017, 37.2043], [44.6227, 37.188]]]}}, {"type": "Feature", "properties": {"osm_type": "relation", "osm_id": 172965760, "name": "Hakkari merkez", "admin_level": "6", "kind": "subdivision_2", "parent_osm_id": 174742, "parent_name": "Hakkâri", "parent_iso": "TR-30"}, "geometry": {"type": "Polygon", "coordinates": [[[43.3071, 37.5104], [43.3875, 37.4678], [43.4252, 37.4626], [43.4805, 37.4666], [43.5033, 37.4531], [43.491, 37.427], [43.501, 37.4051], [43.4935, 37.3955], [43.5189, 37.376], [43.5042, 37.3558], [43.5164, 37.3493], [43.5394, 37.3491], [43.5968, 37.3794], [43.6235, 37.3864], [43.6799, 37.3914], [43.7601, 37.3764], [43.8094, 37.373], [43.8265, 37.376], [43.8355, 37.3693], [43.8514, 37.3713], [43.8739, 37.3662], [43.9008, 37.3498], [43.9297, 37.4296], [43.9587, 37.4702], [43.9656, 37.4929], [43.9918, 37.5376], [43.9986, 37.5636], [43.9997, 37.5784], [43.9894, 37.5988], [43.9551, 37.6185], [43.9497, 37.6549], [43.9651, 37.6825], [43.98, 37.6967], [44.0077, 37.6976], [44.0116, 37.7066], [44.0203, 37.7105], [44.0405, 37.7049], [44.0545, 37.7121], [44.0689, 37.7121], [44.0855, 37.7281], [44.0806, 37.7627], [44.0903, 37.7774], [44.0688, 37.7927], [44.0683, 37.7997], [44.0538, 37.8106], [44.013, 37.8033], [43.9951, 37.7941], [43.9034, 37.7722], [43.8454, 37.7517], [43.6782, 37.7728], [43.6247, 37.7668], [43.5345, 37.7423], [43.4992, 37.7418], [43.4755, 37.632], [43.4325, 37.5909], [43.3959, 37.5438], [43.316, 37.5422], [43.3079, 37.536], [43.3071, 37.5104]]]}}, {"type": "Feature", "properties": {"osm_type": "relation", "osm_id": 296891190, "name": "Çukurca", "admin_level": "6", "kind": "subdivision_2", "parent_osm_id": 174742, "parent_name": "Hakkâri", "parent_iso": "TR-30"}, "geometry": {"type": "Polygon", "coordinates": [[[43.3419, 37.4018], [43.333, 37.3675], [43.3314, 37.3271], [43.3611, 37.3276], [43.3711, 37.3177], [43.3717, 37.3081], [43.3894, 37.3058], [43.3894, 37.2985], [43.4081, 37.2929], [43.4145, 37.2833], [43.4762, 37.2631], [43.4746, 37.2531], [43.498, 37.2425], [43.5134, 37.2396], [43.5238, 37.2476], [43.556, 37.2514], [43.566, 37.2576], [43.5781, 37.25], [43.5845, 37.2384], [43.5958, 37.2326], [43.61, 37.2382], [43.6205, 37.2215], [43.6425, 37.2172], [43.6511, 37.2255], [43.6778, 37.227], [43.6891, 37.2353], [43.7033, 37.2312], [43.7211, 37.236], [43.7416, 37.2301], [43.7475, 37.2351], [43.7897, 37.2291], [43.8103, 37.2238], [43.8304, 37.1931], [43.8401, 37.2018], [43.8434, 37.2165], [43.8543, 37.2244], [43.8857, 37.2247], [43.8947, 37.2195], [43.913, 37.223], [43.8984, 37.2429], [43.9016, 37.2913], [43.9116, 37.3043], [43.9148, 37.3209], [43.9008, 37.3498], [43.8739, 37.3662], [43.8514, 37.3713], [43.8355, 37.3693], [43.8265, 37.376], [43.8094, 37.373], [43.7601, 37.3764], [43.6799, 37.3914], [43.6235, 37.3864], [43.5968, 37.3794], [43.5394, 37.3491], [43.5164, 37.3493], [43.5042, 37.3558], [43.5189, 37.376], [43.4935, 37.3955], [43.501, 37.4051], [43.491, 37.427], [43.5033, 37.4531], [43.4805, 37.4666], [43.4252, 37.4626], [43.3875, 37.4678], [43.3071, 37.5104], [43.3065, 37.4902], [43.3419, 37.4018]]]}}]}