{"type": "FeatureCollection", "parent": {"osm_id": 1842184, "name": "Miyazaki Prefecture", "admin_level": "4", "kind": "subdivision_1", "child_kind": "subdivision_2", "iso": "JP-45"}, "features": [{"type": "Feature", "properties": {"osm_type": "relation", "osm_id": 347437094, "name": "Ebino", "admin_level": "6", "kind": "subdivision_2", "parent_osm_id": 1842184, "parent_name": "Miyazaki Prefecture", "parent_iso": "JP-45"}, "geometry": {"type": "Polygon", "coordinates": [[[130.7034, 32.0585], [130.7379, 32.0472], [130.7463, 32.0419], [130.7477, 32.0349], [130.7585, 32.0333], [130.7626, 32.0239], [130.7769, 32.0165], [130.782, 31.9831], [130.7945, 31.9733], [130.8011, 31.9608], [130.7995, 31.9502], [130.8164, 31.9412], [130.8405, 31.9427], [130.8614, 31.9339], [130.8755, 31.9637], [130.8928, 31.9748], [130.889, 31.9906], [130.8782, 31.9919], [130.8838, 32.017], [130.878, 32.0249], [130.89, 32.0387], [130.9205, 32.0342], [130.9452, 32.0505], [130.9468, 32.062], [130.9543, 32.0717], [130.9732, 32.0827], [130.9732, 32.121], [130.9551, 32.1154], [130.9441, 32.1196], [130.9326, 32.1164], [130.906, 32.1336], [130.8694, 32.1151], [130.8624, 32.1018], [130.8571, 32.0997], [130.8367, 32.1069], [130.8208, 32.0949], [130.7754, 32.1019], [130.7595, 32.0968], [130.7511, 32.1041], [130.7421, 32.0979], [130.7336, 32.1084], [130.7206, 32.1008], [130.716, 32.0857], [130.7036, 32.0772], [130.7034, 32.0585]]]}}, {"type": "Feature", "properties": {"osm_type": "relation", "osm_id": 417041410, "name": "Aya", "admin_level": "6", "kind": "subdivision_2", "parent_osm_id": 1842184, "parent_name": "Miyazaki Prefecture", "parent_iso": "JP-45"}, "geometry": {"type": "Polygon", "coordinates": [[[131.1888, 32.1315], [131.1704, 32.1294], [131.1798, 32.1091], [131.1773, 32.0967], [131.1843, 32.085], [131.1603, 32.0736], [131.1664, 32.0649], [131.1671, 32.0535], [131.157, 32.0431], [131.1575, 32.0275], [131.1506, 32.0239], [131.1532, 32.0177], [131.1643, 32.0082], [131.1703, 31.9912], [131.1744, 31.99], [131.1749, 31.9947], [131.1973, 31.9885], [131.2138, 31.9958], [131.2248, 31.9725], [131.2696, 31.9815], [131.2785, 31.994], [131.2749, 31.9978], [131.2782, 31.9987], [131.2771, 32.0106], [131.2608, 32.0306], [131.253, 32.0356], [131.2443, 32.0343], [131.2188, 32.0558], [131.2051, 32.09], [131.1924, 32.1007], [131.1888, 32.1315]]]}}, {"type": "Feature", "properties": {"osm_type": "relation", "osm_id": 613569186, "name": "Nobeoka", "admin_level": "6", "kind": "subdivision_2", "parent_osm_id": 1842184, "parent_name": "Miyazaki Prefecture", "parent_iso": "JP-45"}, "geometry": {"type": "MultiPolygon", "coordinates": [[[[131.8184, 32.6743], [131.8124, 32.6703], [131.8137, 32.6661], [131.8068, 32.6652], [131.8122, 32.6583], [131.8267, 32.6556], [131.8308, 32.6641], [131.837, 32.6661], [131.8356, 32.6709], [131.8219, 32.6688], [131.8184, 32.6743]]], [[[131.8857, 32.7459], [131.847, 32.7359], [131.8441, 32.7477], [131.8494, 32.7627], [131.8443, 32.7769], [131.8601, 32.8061], [131.8588, 32.8214], [131.8345, 32.8197], [131.8245, 32.8299], [131.8067, 32.8222], [131.7939, 32.8219], [131.7873, 32.8336], [131.7683, 32.8386], [131.7357, 32.8311], [131.7295, 32.7997], [131.7159, 32.7881], [131.7111, 32.7724], [131.6963, 32.7747], [131.6689, 32.7666], [131.5925, 32.7753], [131.5689, 32.7542], [131.5363, 32.7589], [131.5085, 32.7742], [131.4897, 32.7736], [131.482, 32.7601], [131.4885, 32.7566], [131.49, 32.7479], [131.4814, 32.7379], [131.4844, 32.724], [131.4801, 32.7105], [131.4535, 32.692], [131.448, 32.6719], [131.4343, 32.6619], [131.4405, 32.655], [131.437, 32.6479], [131.4405, 32.6404], [131.435, 32.6336], [131.4487, 32.6266], [131.4521, 32.6136], [131.4469, 32.5802], [131.4288, 32.5599], [131.4304, 32.5562], [131.4611, 32.5578], [131.4728, 32.5669], [131.4814, 32.5663], [131.5049, 32.5571], [131.5267, 32.5404], [131.5289, 32.5434], [131.5484, 32.5358], [131.5627, 32.5391], [131.5659, 32.5455], [131.5821, 32.5464], [131.5812, 32.5378], [131.5919, 32.5257], [131.6047, 32.5335], [131.6134, 32.5267], [131.615, 32.5169], [131.63, 32.5224], [131.6425, 32.5192], [131.664, 32.5077], [131.6687, 32.4971], [131.6783, 32.4966], [131.684, 32.4899], [131.7076, 32.4982], [131.7282, 32.4967], [131.7103, 32.5024], [131.7126, 32.5175], [131.7037, 32.5186], [131.7007, 32.5077], [131.6925, 32.515], [131.6884, 32.5122], [131.6917, 32.5087], [131.6833, 32.5079], [131.6817, 32.5022], [131.6837, 32.5166], [131.6892, 32.5209], [131.6862, 32.52], [131.6821, 32.5418], [131.6936, 32.5675], [131.7123, 32.5895], [131.7424, 32.592], [131.7483, 32.6018], [131.754, 32.6016], [131.7532, 32.6112], [131.7596, 32.6103], [131.7645, 32.6163], [131.761, 32.6203], [131.7732, 32.6342], [131.7735, 32.6407], [131.7644, 32.6417], [131.7576, 32.636], [131.7506, 32.6453], [131.7636, 32.6416], [131.7645, 32.6521], [131.7694, 32.6531], [131.7629, 32.6541], [131.7629, 32.6587], [131.7715, 32.6597], [131.7772, 32.674], [131.7868, 32.6729], [131.7855, 32.6637], [131.7921, 32.6643], [131.7932, 32.6781], [131.8155, 32.6869], [131.8168, 32.7028], [131.8266, 32.7066], [131.8378, 32.6977], [131.838, 32.6924], [131.851, 32.6933], [131.8548, 32.6999], [131.8456, 32.7108], [131.85, 32.7219], [131.864, 32.7176], [131.8594, 32.7333], [131.8771, 32.7338], [131.8765, 32.7381], [131.8857, 32.7459]]]]}}, {"type": "Feature", "properties": {"osm_type": "relation", "osm_id": 820333859, "name": "Miyazaki", "admin_level": "6", "kind": "subdivision_2", "parent_osm_id": 1842184, "parent_name": "Miyazaki Prefecture", "parent_iso": "JP-45"}, "geometry": {"type": "Polygon", "coordinates": [[[131.1973, 31.9885], [131.2007, 31.981], [131.2092, 31.9802], [131.2044, 31.9753], [131.2084, 31.972], [131.205, 31.964], [131.2003, 31.9637], [131.1929, 31.9515], [131.1949, 31.9435], [131.2076, 31.9367], [131.2082, 31.9312], [131.2144, 31.931], [131.2204, 31.9194], [131.2089, 31.9126], [131.1999, 31.9182], [131.1909, 31.9099], [131.1901, 31.8809], [131.1957, 31.8699], [131.2068, 31.8634], [131.217, 31.8806], [131.2392, 31.8768], [131.2477, 31.8879], [131.2516, 31.8873], [131.2484, 31.8756], [131.2543, 31.8765], [131.2498, 31.8657], [131.2543, 31.8609], [131.2494, 31.8567], [131.2386, 31.858], [131.2414, 31.8414], [131.2217, 31.8272], [131.2392, 31.8079], [131.2378, 31.7826], [131.2413, 31.778], [131.2637, 31.7806], [131.2664, 31.7695], [131.2876, 31.7636], [131.3079, 31.766], [131.3118, 31.7814], [131.3369, 31.7819], [131.3579, 31.7712], [131.3732, 31.7725], [131.3799, 31.7791], [131.3854, 31.7702], [131.3961, 31.7678], [131.3969, 31.7511], [131.4102, 31.7493], [131.416, 31.7384], [131.4317, 31.73], [131.4598, 31.7289], [131.4682, 31.7209], [131.4638, 31.7346], [131.4706, 31.7413], [131.4706, 31.7376], [131.474, 31.7395], [131.4684, 31.7524], [131.4763, 31.7575], [131.4885, 31.7842], [131.4713, 31.7953], [131.4713, 31.8034], [131.4544, 31.8167], [131.4535, 31.8631], [131.4562, 31.8738], [131.4625, 31.8759], [131.4572, 31.8833], [131.4678, 31.9064], [131.469, 31.9126], [131.4643, 31.9135], [131.4668, 31.923], [131.4724, 31.9226], [131.4677, 31.927], [131.4694, 31.9344], [131.5067, 32.0464], [131.4868, 32.0414], [131.4438, 32.0569], [131.4261, 32.0522], [131.4165, 32.0615], [131.4027, 32.0656], [131.394, 32.0516], [131.3976, 32.0481], [131.3861, 32.0333], [131.389, 32.0152], [131.3786, 32.0031], [131.3799, 31.9922], [131.3714, 31.9681], [131.3481, 31.9813], [131.3319, 31.9783], [131.3245, 31.9652], [131.3121, 31.9664], [131.2928, 31.9818], [131.2766, 31.9833], [131.2248, 31.9725], [131.2138, 31.9958], [131.1973, 31.9885]]]}}, {"type": "Feature", "properties": {"osm_type": "relation", "osm_id": 738499235, "name": "Kushima", "admin_level": "6", "kind": "subdivision_2", "parent_osm_id": 1842184, "parent_name": "Miyazaki Prefecture", "parent_iso": "JP-45"}, "geometry": {"type": "Polygon", "coordinates": [[[131.1603, 31.4619], [131.1767, 31.4498], [131.1816, 31.4565], [131.2046, 31.4533], [131.2051, 31.448], [131.2083, 31.4501], [131.2092, 31.4438], [131.2188, 31.4401], [131.2288, 31.4244], [131.2348, 31.4304], [131.2431, 31.4262], [131.2451, 31.4209], [131.2368, 31.4151], [131.2357, 31.4051], [131.2427, 31.3902], [131.2541, 31.3808], [131.2831, 31.3817], [131.2921, 31.3898], [131.297, 31.3852], [131.3093, 31.3907], [131.3184, 31.3687], [131.3355, 31.3607], [131.3491, 31.3662], [131.35, 31.3712], [131.3339, 31.3824], [131.3337, 31.3985], [131.3458, 31.4004], [131.3412, 31.4061], [131.3439, 31.4125], [131.3657, 31.4207], [131.3709, 31.4281], [131.371, 31.448], [131.3638, 31.4566], [131.363, 31.4718], [131.3896, 31.4855], [131.3831, 31.4941], [131.3493, 31.4898], [131.3302, 31.4947], [131.327, 31.5021], [131.3169, 31.494], [131.3012, 31.4937], [131.2969, 31.5062], [131.2878, 31.5112], [131.2906, 31.5279], [131.2785, 31.536], [131.2816, 31.5413], [131.2787, 31.5505], [131.266, 31.5586], [131.2745, 31.568], [131.2551, 31.5865], [131.2578, 31.6129], [131.2383, 31.6259], [131.2245, 31.6217], [131.2162, 31.626], [131.2137, 31.6335], [131.2025, 31.637], [131.1937, 31.6199], [131.1894, 31.6222], [131.1852, 31.6101], [131.2054, 31.5799], [131.1997, 31.5641], [131.1893, 31.5572], [131.1969, 31.5495], [131.2008, 31.5177], [131.1968, 31.5116], [131.1697, 31.4993], [131.1603, 31.4619]]]}}, {"type": "Feature", "properties": {"osm_type": "relation", "osm_id": 147368650, "name": "Gokase", "admin_level": "6", "kind": "subdivision_2", "parent_osm_id": 1842184, "parent_name": "Miyazaki Prefecture", "parent_iso": "JP-45"}, "geometry": {"type": "Polygon", "coordinates": [[[131.235, 32.7443], [131.2119, 32.7287], [131.195, 32.7253], [131.1807, 32.7129], [131.1804, 32.7001], [131.1725, 32.6847], [131.1748, 32.6718], [131.1631, 32.6717], [131.1514, 32.6801], [131.1432, 32.6759], [131.1402, 32.6646], [131.1272, 32.6542], [131.1237, 32.6446], [131.1162, 32.6427], [131.1195, 32.5989], [131.1061, 32.5892], [131.105, 32.5796], [131.1114, 32.5625], [131.1266, 32.5575], [131.1353, 32.5632], [131.1621, 32.5646], [131.1719, 32.574], [131.1768, 32.5994], [131.1969, 32.6008], [131.2083, 32.5886], [131.2245, 32.5945], [131.2338, 32.5912], [131.2515, 32.6062], [131.2579, 32.6309], [131.2559, 32.6421], [131.2675, 32.6405], [131.2677, 32.6681], [131.2519, 32.6766], [131.2393, 32.6726], [131.2261, 32.6853], [131.2455, 32.6946], [131.2321, 32.705], [131.2507, 32.7169], [131.2578, 32.7343], [131.2472, 32.7436], [131.235, 32.7443]]]}}, {"type": "Feature", "properties": {"osm_type": "relation", "osm_id": 607208772, "name": "Takaharu", "admin_level": "6", "kind": "subdivision_2", "parent_osm_id": 1842184, "parent_name": "Miyazaki Prefecture", "parent_iso": "JP-45"}, "geometry": {"type": "Polygon", "coordinates": [[[130.914, 31.8858], [130.949, 31.8905], [130.9821, 31.8803], [130.9999, 31.8844], [131.0123, 31.9067], [131.02, 31.9153], [131.0264, 31.9145], [131.0229, 31.9192], [131.0356, 31.9303], [131.0566, 31.9164], [131.0833, 31.9094], [131.0962, 31.9102], [131.1037, 31.9207], [131.0875, 31.9306], [131.0887, 31.938], [131.0824, 31.9381], [131.0705, 31.9518], [131.057, 31.9587], [131.0419, 31.9561], [131.0402, 31.9514], [131.0337, 31.9558], [131.016, 31.9517], [131.0116, 31.9435], [130.9811, 31.9756], [130.9663, 31.9552], [130.9709, 31.9366], [130.9677, 31.9317], [130.949, 31.9349], [130.9437, 31.9275], [130.9167, 31.9157], [130.9128, 31.9088], [130.914, 31.8858]]]}}, {"type": "Feature", "properties": {"osm_type": "relation", "osm_id": 245564464, "name": "Takachiho", "admin_level": "6", "kind": "subdivision_2", "parent_osm_id": 1842184, "parent_name": "Miyazaki Prefecture", "parent_iso": "JP-45"}, "geometry": {"type": "Polygon", "coordinates": [[[131.2675, 32.6405], [131.3101, 32.6294], [131.3181, 32.6607], [131.3285, 32.6769], [131.3178, 32.6941], [131.323, 32.7065], [131.3345, 32.6978], [131.3578, 32.6979], [131.3678, 32.7142], [131.3801, 32.7158], [131.4005, 32.739], [131.4028, 32.7601], [131.4095, 32.7828], [131.42, 32.7979], [131.4212, 32.8119], [131.4002, 32.8135], [131.3592, 32.8041], [131.3486, 32.8107], [131.3498, 32.8244], [131.3403, 32.8334], [131.3229, 32.8287], [131.2916, 32.8278], [131.2861, 32.8314], [131.2726, 32.8242], [131.2654, 32.8265], [131.2651, 32.8207], [131.255, 32.8156], [131.2553, 32.8047], [131.2466, 32.799], [131.2454, 32.7866], [131.2346, 32.781], [131.2465, 32.7694], [131.2342, 32.7534], [131.235, 32.7443], [131.2472, 32.7436], [131.2578, 32.7343], [131.2507, 32.7169], [131.2321, 32.705], [131.2455, 32.6946], [131.2261, 32.6853], [131.2393, 32.6726], [131.2519, 32.6766], [131.2677, 32.6681], [131.2675, 32.6405]]]}}, {"type": "Feature", "properties": {"osm_type": "relation", "osm_id": 242672936, "name": "Takanabe", "admin_level": "6", "kind": "subdivision_2", "parent_osm_id": 1842184, "parent_name": "Miyazaki Prefecture", "parent_iso": "JP-45"}, "geometry": {"type": "Polygon", "coordinates": [[[131.5437, 32.1574], [131.5374, 32.1565], [131.5189, 32.1716], [131.5129, 32.1555], [131.4927, 32.1622], [131.486, 32.1533], [131.4779, 32.1556], [131.4751, 32.1476], [131.4606, 32.1391], [131.4575, 32.1323], [131.4446, 32.1348], [131.4431, 32.1279], [131.4597, 32.1237], [131.4644, 32.1139], [131.4753, 32.1066], [131.4976, 32.1096], [131.5041, 32.106], [131.508, 32.0944], [131.5204, 32.0873], [131.536, 32.1184], [131.5437, 32.1574]]]}}, {"type": "Feature", "properties": {"osm_type": "relation", "osm_id": 703775820, "name": "Kunitomi", "admin_level": "6", "kind": "subdivision_2", "parent_osm_id": 1842184, "parent_name": "Miyazaki Prefecture", "parent_iso": "JP-45"}, "geometry": {"type": "Polygon", "coordinates": [[[131.2696, 31.9815], [131.2928, 31.9818], [131.3121, 31.9664], [131.3245, 31.9652], [131.3319, 31.9783], [131.3481, 31.9813], [131.3714, 31.9681], [131.3799, 31.9922], [131.3786, 32.0031], [131.389, 32.0152], [131.3389, 32.0326], [131.3162, 32.0646], [131.3124, 32.0607], [131.2852, 32.0727], [131.2666, 32.0987], [131.246, 32.0982], [131.2345, 32.1031], [131.2178, 32.1242], [131.2046, 32.1217], [131.1976, 32.1305], [131.1888, 32.1315], [131.1924, 32.1007], [131.2051, 32.09], [131.2188, 32.0558], [131.2443, 32.0343], [131.253, 32.0356], [131.2608, 32.0306], [131.2771, 32.0106], [131.2782, 31.9987], [131.2749, 31.9978], [131.2785, 31.994], [131.2696, 31.9815]]]}}, {"type": "Feature", "properties": {"osm_type": "relation", "osm_id": 738268884, "name": "Mimata", "admin_level": "6", "kind": "subdivision_2", "parent_osm_id": 1842184, "parent_name": "Miyazaki Prefecture", "parent_iso": "JP-45"}, "geometry": {"type": "Polygon", "coordinates": [[[131.24, 31.7977], [131.2324, 31.7964], [131.2263, 31.7825], [131.22, 31.7835], [131.2144, 31.7717], [131.206, 31.7691], [131.2051, 31.7607], [131.1836, 31.755], [131.171, 31.7359], [131.1491, 31.7405], [131.1471, 31.7507], [131.137, 31.7564], [131.1266, 31.7745], [131.1114, 31.7719], [131.103, 31.7613], [131.1084, 31.7514], [131.1009, 31.7408], [131.104, 31.7283], [131.095, 31.727], [131.1004, 31.7273], [131.0956, 31.7106], [131.1155, 31.6988], [131.1266, 31.6774], [131.1453, 31.6681], [131.1581, 31.669], [131.1833, 31.698], [131.2033, 31.7042], [131.2135, 31.7105], [131.2108, 31.7149], [131.2294, 31.7142], [131.2395, 31.7334], [131.2602, 31.7364], [131.2689, 31.7553], [131.267, 31.7785], [131.2413, 31.778], [131.2378, 31.7826], [131.24, 31.7977]]]}}, {"type": "Feature", "properties": {"osm_type": "relation", "osm_id": 405139650, "name": "Morotsuka", "admin_level": "6", "kind": "subdivision_2", "parent_osm_id": 1842184, "parent_name": "Miyazaki Prefecture", "parent_iso": "JP-45"}, "geometry": {"type": "Polygon", "coordinates": [[[131.2083, 32.5886], [131.2076, 32.5776], [131.2184, 32.5667], [131.2136, 32.548], [131.2193, 32.5267], [131.2319, 32.5288], [131.2484, 32.5211], [131.2737, 32.5243], [131.2798, 32.5165], [131.2796, 32.5067], [131.2931, 32.5038], [131.2984, 32.5078], [131.3064, 32.4982], [131.3117, 32.4999], [131.3241, 32.491], [131.3269, 32.4944], [131.3207, 32.5015], [131.3256, 32.5099], [131.3423, 32.5084], [131.3434, 32.5021], [131.3568, 32.5042], [131.3716, 32.4949], [131.3699, 32.4892], [131.3835, 32.4899], [131.375, 32.4764], [131.3779, 32.4631], [131.3859, 32.4718], [131.4057, 32.4788], [131.4132, 32.4878], [131.4128, 32.4963], [131.4001, 32.5066], [131.3956, 32.5288], [131.3817, 32.5392], [131.3689, 32.5411], [131.3679, 32.5579], [131.3739, 32.5641], [131.3674, 32.5764], [131.362, 32.5777], [131.3642, 32.5841], [131.3563, 32.5952], [131.3572, 32.6085], [131.3408, 32.6129], [131.3291, 32.6095], [131.3162, 32.6286], [131.2559, 32.6421], [131.2535, 32.6107], [131.2433, 32.5963], [131.2083, 32.5886]]]}}, {"type": "Feature", "properties": {"osm_type": "relation", "osm_id": 103368948, "name": "Kobayashi", "admin_level": "6", "kind": "subdivision_2", "parent_osm_id": 1842184, "parent_name": "Miyazaki Prefecture", "parent_iso": "JP-45"}, "geometry": {"type": "Polygon", "coordinates": [[[130.9138, 31.886], [130.9128, 31.9088], [130.9223, 31.9213], [130.9387, 31.9248], [130.949, 31.9349], [130.9677, 31.9317], [130.9709, 31.9366], [130.9663, 31.9552], [130.9811, 31.9756], [131.0116, 31.9435], [131.016, 31.9517], [131.0337, 31.9558], [131.0402, 31.9514], [131.0519, 31.9591], [131.0705, 31.9518], [131.0824, 31.9381], [131.0984, 31.9377], [131.1012, 31.9309], [131.1324, 31.9447], [131.1496, 31.9439], [131.154, 31.9412], [131.1514, 31.9383], [131.1702, 31.939], [131.1759, 31.9448], [131.199, 31.9397], [131.1929, 31.9515], [131.2003, 31.9637], [131.205, 31.964], [131.2084, 31.972], [131.2044, 31.9753], [131.2092, 31.9802], [131.2007, 31.981], [131.1973, 31.9885], [131.185, 31.9929], [131.1749, 31.9947], [131.1744, 31.99], [131.1703, 31.9912], [131.1643, 32.0082], [131.1506, 32.0239], [131.1575, 32.0275], [131.157, 32.0431], [131.1671, 32.0535], [131.1664, 32.0649], [131.1603, 32.0736], [131.1843, 32.085], [131.1773, 32.0967], [131.1798, 32.1091], [131.1681, 32.1355], [131.1598, 32.1384], [131.1519, 32.1315], [131.1431, 32.1384], [131.1343, 32.1368], [131.1298, 32.1468], [131.1214, 32.1446], [131.109, 32.1601], [131.0962, 32.1524], [131.0719, 32.1602], [131.0585, 32.1549], [131.0381, 32.1699], [131.0187, 32.1699], [131.0132, 32.1744], [131.0022, 32.1694], [130.9924, 32.1579], [130.9958, 32.1559], [130.9926, 32.148], [130.9747, 32.1368], [130.9732, 32.0827], [130.9543, 32.0717], [130.9468, 32.062], [130.9452, 32.0505], [130.9205, 32.0342], [130.89, 32.0387], [130.878, 32.0249], [130.8838, 32.017], [130.8782, 31.9919], [130.889, 31.9906], [130.8928, 31.9748], [130.8755, 31.9637], [130.8614, 31.9339], [130.8823, 31.9212], [130.897, 31.8878], [130.9138, 31.886]]]}}, {"type": "Feature", "properties": {"osm_type": "relation", "osm_id": 784454806, "name": "Shintomi", "admin_level": "6", "kind": "subdivision_2", "parent_osm_id": 1842184, "parent_name": "Miyazaki Prefecture", "parent_iso": "JP-45"}, "geometry": {"type": "Polygon", "coordinates": [[[131.5067, 32.0464], [131.5204, 32.0873], [131.5054, 32.0969], [131.5041, 32.106], [131.4891, 32.1102], [131.4753, 32.1066], [131.4644, 32.1139], [131.4597, 32.1237], [131.4505, 32.1273], [131.4431, 32.1279], [131.4066, 32.0835], [131.4091, 32.0797], [131.4151, 32.0886], [131.4199, 32.0865], [131.422, 32.083], [131.4134, 32.0711], [131.4304, 32.0557], [131.4438, 32.0569], [131.4868, 32.0414], [131.5067, 32.0464]]]}}, {"type": "Feature", "properties": {"osm_type": "relation", "osm_id": 578323175, "name": "Saito", "admin_level": "6", "kind": "subdivision_2", "parent_osm_id": 1842184, "parent_name": "Miyazaki Prefecture", "parent_iso": "JP-45"}, "geometry": {"type": "Polygon", "coordinates": [[[131.4331, 32.0557], [131.4134, 32.0711], [131.422, 32.083], [131.4199, 32.0865], [131.4151, 32.0886], [131.4091, 32.0797], [131.4066, 32.0835], [131.4226, 32.1055], [131.4423, 32.1223], [131.4501, 32.141], [131.4333, 32.1458], [131.4146, 32.1635], [131.4132, 32.1773], [131.4006, 32.1875], [131.3911, 32.2128], [131.3575, 32.2432], [131.3502, 32.2583], [131.3501, 32.2631], [131.3581, 32.2656], [131.3527, 32.2751], [131.3367, 32.2796], [131.3278, 32.2755], [131.3113, 32.2864], [131.3055, 32.2975], [131.2874, 32.309], [131.263, 32.3161], [131.2492, 32.3289], [131.2237, 32.3239], [131.1988, 32.3399], [131.1901, 32.3407], [131.1765, 32.3247], [131.1751, 32.31], [131.1966, 32.3053], [131.203, 32.2917], [131.2264, 32.2752], [131.2213, 32.2596], [131.2304, 32.2511], [131.248, 32.2179], [131.256, 32.2124], [131.2791, 32.2125], [131.2752, 32.2026], [131.2677, 32.2009], [131.2821, 32.1822], [131.2683, 32.1796], [131.2556, 32.1659], [131.223, 32.1723], [131.2159, 32.1672], [131.2109, 32.15], [131.1973, 32.1511], [131.1908, 32.1464], [131.1892, 32.1404], [131.1995, 32.1247], [131.2178, 32.1242], [131.2345, 32.1031], [131.246, 32.0982], [131.2666, 32.0987], [131.2852, 32.0727], [131.3124, 32.0607], [131.3162, 32.0646], [131.3389, 32.0326], [131.3593, 32.0276], [131.3714, 32.0186], [131.3868, 32.0183], [131.3861, 32.0333], [131.3976, 32.0481], [131.394, 32.0516], [131.4027, 32.0656], [131.4165, 32.0615], [131.4261, 32.0522], [131.4331, 32.0557]]]}}, {"type": "Feature", "properties": {"osm_type": "relation", "osm_id": 767241500, "name": "Nishi Mera", "admin_level": "6", "kind": "subdivision_2", "parent_osm_id": 1842184, "parent_name": "Miyazaki Prefecture", "parent_iso": "JP-45"}, "geometry": {"type": "Polygon", "coordinates": [[[131.1888, 32.1315], [131.1934, 32.1321], [131.1908, 32.1464], [131.1973, 32.1511], [131.2109, 32.15], [131.2159, 32.1672], [131.223, 32.1723], [131.2556, 32.1659], [131.2683, 32.1796], [131.2821, 32.1822], [131.2677, 32.2009], [131.2752, 32.2026], [131.2791, 32.2125], [131.256, 32.2124], [131.248, 32.2179], [131.2304, 32.2511], [131.2213, 32.2596], [131.2264, 32.2752], [131.203, 32.2917], [131.2019, 32.2997], [131.1911, 32.3086], [131.1751, 32.31], [131.1691, 32.3017], [131.1559, 32.3124], [131.1285, 32.307], [131.1184, 32.317], [131.1012, 32.3117], [131.0786, 32.2812], [131.0511, 32.2864], [131.0542, 32.267], [131.0445, 32.263], [131.0427, 32.2482], [131.0471, 32.2443], [131.057, 32.2459], [131.0711, 32.2369], [131.0691, 32.2253], [131.0772, 32.2214], [131.0843, 32.2062], [131.1005, 32.2015], [131.1043, 32.192], [131.1014, 32.1731], [131.1142, 32.1512], [131.1214, 32.1446], [131.1298, 32.1468], [131.1343, 32.1368], [131.1431, 32.1384], [131.1519, 32.1315], [131.1598, 32.1384], [131.1681, 32.1355], [131.1681, 32.1289], [131.1888, 32.1315]]]}}, {"type": "Feature", "properties": {"osm_type": "relation", "osm_id": 203305503, "name": "Kawaminami", "admin_level": "6", "kind": "subdivision_2", "parent_osm_id": 1842184, "parent_name": "Miyazaki Prefecture", "parent_iso": "JP-45"}, "geometry": {"type": "Polygon", "coordinates": [[[131.5437, 32.1574], [131.5733, 32.2379], [131.5705, 32.2324], [131.5688, 32.2372], [131.5496, 32.2399], [131.5393, 32.2287], [131.5331, 32.2326], [131.5443, 32.2368], [131.5395, 32.243], [131.4823, 32.2505], [131.4679, 32.2639], [131.4613, 32.2603], [131.4669, 32.2571], [131.4665, 32.2503], [131.4383, 32.2426], [131.4444, 32.2307], [131.442, 32.2202], [131.4481, 32.1961], [131.4636, 32.1932], [131.476, 32.1813], [131.4806, 32.1673], [131.5129, 32.1555], [131.5189, 32.1716], [131.5374, 32.1565], [131.5437, 32.1574]]]}}, {"type": "Feature", "properties": {"osm_type": "relation", "osm_id": 133971968, "name": "Shiiba", "admin_level": "6", "kind": "subdivision_2", "parent_osm_id": 1842184, "parent_name": "Miyazaki Prefecture", "parent_iso": "JP-45"}, "geometry": {"type": "Polygon", "coordinates": [[[131.105, 32.5796], [131.0915, 32.5786], [131.0522, 32.5877], [131.0416, 32.5799], [131.039, 32.5544], [131.0195, 32.5492], [131.0255, 32.5232], [131.0094, 32.5154], [131.007, 32.4901], [131.0164, 32.4733], [131.0165, 32.4477], [131.0438, 32.4081], [131.0681, 32.4075], [131.0732, 32.3912], [131.0693, 32.3843], [131.0797, 32.3739], [131.0732, 32.3591], [131.0942, 32.3503], [131.1119, 32.3298], [131.1012, 32.3117], [131.1184, 32.317], [131.1285, 32.307], [131.1559, 32.3124], [131.1691, 32.3017], [131.1751, 32.31], [131.1765, 32.3247], [131.1901, 32.3407], [131.1973, 32.3379], [131.2038, 32.3481], [131.1947, 32.3574], [131.1958, 32.3738], [131.2162, 32.3708], [131.2225, 32.3802], [131.2493, 32.3892], [131.2579, 32.399], [131.2589, 32.4077], [131.2518, 32.4148], [131.2483, 32.4316], [131.2511, 32.4452], [131.2983, 32.4597], [131.2962, 32.4741], [131.2769, 32.4999], [131.2736, 32.5095], [131.2796, 32.5067], [131.2798, 32.5165], [131.2737, 32.5243], [131.2484, 32.5211], [131.2319, 32.5288], [131.2193, 32.5267], [131.2136, 32.548], [131.2184, 32.5667], [131.2076, 32.5776], [131.2083, 32.5886], [131.1999, 32.5998], [131.1768, 32.5994], [131.1719, 32.574], [131.1595, 32.5637], [131.1203, 32.5583], [131.1114, 32.5625], [131.105, 32.5796]]]}}, {"type": "Feature", "properties": {"osm_type": "relation", "osm_id": 579218959, "name": "Miyakonojo", "admin_level": "6", "kind": "subdivision_2", "parent_osm_id": 1842184, "parent_name": "Miyazaki Prefecture", "parent_iso": "JP-45"}, "geometry": {"type": "Polygon", "coordinates": [[[131.1894, 31.6222], [131.1937, 31.6199], [131.1975, 31.6326], [131.2025, 31.6351], [131.1975, 31.6445], [131.1808, 31.6508], [131.1679, 31.6688], [131.1453, 31.6681], [131.1266, 31.6774], [131.1155, 31.6988], [131.0956, 31.7106], [131.1004, 31.7273], [131.095, 31.727], [131.104, 31.7283], [131.1009, 31.7408], [131.1084, 31.7514], [131.103, 31.7613], [131.1114, 31.7719], [131.1266, 31.7745], [131.137, 31.7564], [131.1471, 31.7507], [131.1491, 31.7405], [131.171, 31.7359], [131.1836, 31.755], [131.2051, 31.7607], [131.206, 31.7691], [131.2144, 31.7717], [131.22, 31.7835], [131.2263, 31.7825], [131.2324, 31.7964], [131.24, 31.7977], [131.2392, 31.8079], [131.2217, 31.8272], [131.2414, 31.8414], [131.2386, 31.858], [131.2494, 31.8567], [131.2543, 31.8609], [131.2498, 31.8657], [131.2543, 31.8765], [131.2469, 31.8793], [131.2516, 31.8873], [131.2434, 31.8847], [131.2392, 31.8768], [131.217, 31.8806], [131.2068, 31.8634], [131.1957, 31.8699], [131.1901, 31.8809], [131.1909, 31.9099], [131.1999, 31.9182], [131.2089, 31.9126], [131.2204, 31.9194], [131.2144, 31.931], [131.2061, 31.9327], [131.2076, 31.9367], [131.1759, 31.9448], [131.1702, 31.939], [131.1514, 31.9383], [131.154, 31.9412], [131.1496, 31.9439], [131.1324, 31.9447], [131.1062, 31.9312], [131.1012, 31.9309], [131.0943, 31.9391], [131.0887, 31.938], [131.0875, 31.9306], [131.1037, 31.9207], [131.0962, 31.9102], [131.0833, 31.9094], [131.0566, 31.9164], [131.0356, 31.9303], [131.0229, 31.9192], [131.0264, 31.9145], [131.02, 31.9153], [131.0123, 31.9067], [130.9999, 31.8844], [130.9821, 31.8803], [130.949, 31.8905], [130.9024, 31.8844], [130.8946, 31.878], [130.8878, 31.8609], [130.8882, 31.8483], [130.875, 31.8427], [130.8817, 31.8335], [130.8769, 31.8157], [130.8845, 31.8054], [130.901, 31.801], [130.9179, 31.8035], [130.9315, 31.7856], [130.9611, 31.7816], [130.9714, 31.7846], [130.9898, 31.7781], [130.9917, 31.7712], [130.9884, 31.7655], [130.9828, 31.7674], [130.9785, 31.7516], [130.9907, 31.7512], [130.9979, 31.7459], [131.0152, 31.7488], [131.0179, 31.745], [131.0131, 31.7131], [131.0286, 31.6975], [131.0237, 31.6918], [131.0242, 31.6741], [131.029, 31.674], [131.0256, 31.6669], [131.0461, 31.6525], [131.0543, 31.6335], [131.0725, 31.6581], [131.0787, 31.6601], [131.1178, 31.6293], [131.1278, 31.6265], [131.1502, 31.63], [131.1644, 31.6395], [131.1894, 31.6222]]]}}, {"type": "Feature", "properties": {"osm_type": "relation", "osm_id": 329524035, "name": "Tsuno", "admin_level": "6", "kind": "subdivision_2", "parent_osm_id": 1842184, "parent_name": "Miyazaki Prefecture", "parent_iso": "JP-45"}, "geometry": {"type": "Polygon", "coordinates": [[[131.5733, 32.2379], [131.5759, 32.2468], [131.5719, 32.2534], [131.5926, 32.3067], [131.5879, 32.2995], [131.5885, 32.3052], [131.5799, 32.309], [131.572, 32.2962], [131.5583, 32.3037], [131.5567, 32.3211], [131.5489, 32.3233], [131.5292, 32.3193], [131.4993, 32.2956], [131.4863, 32.2984], [131.4844, 32.3087], [131.4714, 32.3189], [131.462, 32.31], [131.4463, 32.3136], [131.4253, 32.3061], [131.4253, 32.2874], [131.4348, 32.2558], [131.4292, 32.2518], [131.4383, 32.2426], [131.4665, 32.2503], [131.4669, 32.2571], [131.4613, 32.2603], [131.4679, 32.2639], [131.4823, 32.2505], [131.5395, 32.243], [131.5443, 32.2368], [131.5331, 32.2326], [131.5393, 32.2287], [131.5496, 32.2399], [131.5688, 32.2372], [131.5705, 32.2324], [131.5733, 32.2379]]]}}, {"type": "Feature", "properties": {"osm_type": "relation", "osm_id": 318358963, "name": "Hyuuga", "admin_level": "6", "kind": "subdivision_2", "parent_osm_id": 1842184, "parent_name": "Miyazaki Prefecture", "parent_iso": "JP-45"}, "geometry": {"type": "Polygon", "coordinates": [[[131.5926, 32.3067], [131.6156, 32.3362], [131.6119, 32.3387], [131.629, 32.3426], [131.6216, 32.357], [131.6359, 32.374], [131.6315, 32.379], [131.6431, 32.4081], [131.6522, 32.4139], [131.665, 32.4111], [131.6886, 32.4232], [131.6854, 32.4266], [131.6752, 32.4215], [131.669, 32.4288], [131.6549, 32.427], [131.682, 32.4339], [131.677, 32.4452], [131.6622, 32.4365], [131.667, 32.4481], [131.6637, 32.4493], [131.651, 32.4348], [131.6428, 32.4385], [131.6567, 32.4473], [131.6503, 32.4576], [131.6299, 32.457], [131.62, 32.4665], [131.6094, 32.4615], [131.6029, 32.4713], [131.5895, 32.4759], [131.567, 32.4454], [131.5513, 32.445], [131.5377, 32.4371], [131.5348, 32.4441], [131.5105, 32.4492], [131.5062, 32.4562], [131.4797, 32.4525], [131.4756, 32.4432], [131.4827, 32.4395], [131.4835, 32.4164], [131.4717, 32.4018], [131.4562, 32.4007], [131.4466, 32.3929], [131.4277, 32.3892], [131.406, 32.3897], [131.3967, 32.3648], [131.3782, 32.3548], [131.3507, 32.3665], [131.3481, 32.3576], [131.3442, 32.3587], [131.3383, 32.3362], [131.3415, 32.3295], [131.3491, 32.3322], [131.3698, 32.3218], [131.3628, 32.3092], [131.3834, 32.3168], [131.4253, 32.3061], [131.4463, 32.3136], [131.462, 32.31], [131.4714, 32.3189], [131.4844, 32.3087], [131.4863, 32.2984], [131.4993, 32.2956], [131.5292, 32.3193], [131.5489, 32.3233], [131.5567, 32.3211], [131.5583, 32.3037], [131.572, 32.2962], [131.5799, 32.309], [131.5885, 32.3052], [131.5879, 32.2995], [131.5926, 32.3067]]]}}, {"type": "Feature", "properties": {"osm_type": "relation", "osm_id": 808968567, "name": "Nichinan", "admin_level": "6", "kind": "subdivision_2", "parent_osm_id": 1842184, "parent_name": "Miyazaki Prefecture", "parent_iso": "JP-45"}, "geometry": {"type": "MultiPolygon", "coordinates": [[[[131.4106, 31.5423], [131.4033, 31.5304], [131.4168, 31.5125], [131.4132, 31.5274], [131.4164, 31.5317], [131.4106, 31.5423]]], [[[131.2696, 31.7686], [131.2689, 31.7553], [131.2602, 31.7364], [131.2395, 31.7334], [131.2294, 31.7142], [131.2108, 31.7149], [131.2135, 31.7105], [131.2033, 31.7042], [131.1833, 31.698], [131.1691, 31.6858], [131.1603, 31.6706], [131.1679, 31.6688], [131.1808, 31.6508], [131.2137, 31.6335], [131.2162, 31.626], [131.2245, 31.6217], [131.2383, 31.6259], [131.2578, 31.6129], [131.2551, 31.5865], [131.2745, 31.568], [131.266, 31.5586], [131.2787, 31.5505], [131.2816, 31.5413], [131.2785, 31.536], [131.2906, 31.5279], [131.2878, 31.5112], [131.2969, 31.5062], [131.3012, 31.4937], [131.3169, 31.494], [131.327, 31.5021], [131.3302, 31.4947], [131.3493, 31.4898], [131.3636, 31.4938], [131.3765, 31.4904], [131.3865, 31.4985], [131.373, 31.5067], [131.3767, 31.5121], [131.3725, 31.5178], [131.3783, 31.5197], [131.3835, 31.5121], [131.3822, 31.5181], [131.3868, 31.5226], [131.3809, 31.5263], [131.38, 31.5327], [131.3886, 31.5414], [131.3818, 31.545], [131.3815, 31.5548], [131.387, 31.5596], [131.3976, 31.5588], [131.3917, 31.5647], [131.3969, 31.566], [131.4025, 31.5818], [131.4096, 31.5767], [131.4065, 31.5674], [131.4122, 31.57], [131.4089, 31.5883], [131.4204, 31.6058], [131.4567, 31.6243], [131.4622, 31.6332], [131.4529, 31.6392], [131.458, 31.6465], [131.4693, 31.6453], [131.4577, 31.6585], [131.4626, 31.6608], [131.4621, 31.6685], [131.4521, 31.6696], [131.455, 31.6746], [131.4504, 31.6791], [131.4688, 31.6865], [131.4562, 31.6984], [131.4626, 31.7037], [131.4584, 31.7094], [131.46, 31.7184], [131.4682, 31.7209], [131.4598, 31.7289], [131.4317, 31.73], [131.416, 31.7384], [131.4102, 31.7493], [131.3969, 31.7511], [131.3961, 31.7678], [131.3854, 31.7702], [131.3799, 31.7791], [131.3732, 31.7725], [131.3579, 31.7712], [131.3369, 31.7819], [131.3118, 31.7814], [131.3079, 31.766], [131.2876, 31.7636], [131.2696, 31.7686]]]]}}, {"type": "Feature", "properties": {"osm_type": "relation", "osm_id": 480446434, "name": "Hinokage", "admin_level": "6", "kind": "subdivision_2", "parent_osm_id": 1842184, "parent_name": "Miyazaki Prefecture", "parent_iso": "JP-45"}, "geometry": {"type": "Polygon", "coordinates": [[[131.5085, 32.7742], [131.5175, 32.8008], [131.502, 32.8105], [131.5025, 32.8147], [131.4847, 32.8229], [131.4751, 32.8372], [131.4591, 32.83], [131.437, 32.8286], [131.4212, 32.8119], [131.42, 32.7979], [131.4095, 32.7828], [131.4028, 32.7601], [131.4005, 32.739], [131.3801, 32.7158], [131.3678, 32.7142], [131.3578, 32.6979], [131.3345, 32.6978], [131.323, 32.7065], [131.3178, 32.6941], [131.3285, 32.6769], [131.3181, 32.6607], [131.3101, 32.6294], [131.3162, 32.6286], [131.3291, 32.6095], [131.3408, 32.6129], [131.3572, 32.6085], [131.3563, 32.5952], [131.3642, 32.5841], [131.362, 32.5777], [131.3674, 32.5764], [131.3739, 32.5641], [131.3807, 32.5624], [131.3964, 32.5688], [131.4089, 32.5609], [131.4212, 32.5638], [131.4288, 32.5599], [131.4402, 32.5689], [131.4408, 32.5767], [131.4469, 32.5802], [131.4521, 32.6136], [131.4487, 32.6266], [131.435, 32.6336], [131.4405, 32.6404], [131.437, 32.6479], [131.4405, 32.655], [131.4343, 32.6619], [131.448, 32.6719], [131.4535, 32.692], [131.4801, 32.7105], [131.4844, 32.724], [131.4814, 32.7379], [131.49, 32.7479], [131.4826, 32.7635], [131.4897, 32.7736], [131.5085, 32.7742]]]}}, {"type": "Feature", "properties": {"osm_type": "relation", "osm_id": 153600063, "name": "Misato", "admin_level": "6", "kind": "subdivision_2", "parent_osm_id": 1842184, "parent_name": "Miyazaki Prefecture", "parent_iso": "JP-45"}, "geometry": {"type": "Polygon", "coordinates": [[[131.4288, 32.5599], [131.4212, 32.5638], [131.4089, 32.5609], [131.3964, 32.5688], [131.3689, 32.561], [131.3689, 32.5411], [131.3817, 32.5392], [131.3956, 32.5288], [131.4001, 32.5066], [131.4136, 32.4927], [131.4057, 32.4788], [131.3859, 32.4718], [131.3819, 32.4635], [131.3758, 32.4644], [131.375, 32.4764], [131.3835, 32.4899], [131.3699, 32.4892], [131.3716, 32.4949], [131.3568, 32.5042], [131.3434, 32.5021], [131.3423, 32.5084], [131.3256, 32.5099], [131.3207, 32.5015], [131.3269, 32.4944], [131.3241, 32.491], [131.3117, 32.4999], [131.3064, 32.4982], [131.2984, 32.5078], [131.2931, 32.5038], [131.2736, 32.5095], [131.2962, 32.4741], [131.2983, 32.4597], [131.2511, 32.4452], [131.2483, 32.4316], [131.2524, 32.4118], [131.2589, 32.4077], [131.2579, 32.399], [131.2399, 32.3837], [131.2225, 32.3802], [131.2162, 32.3708], [131.1958, 32.3738], [131.1947, 32.3574], [131.2038, 32.3481], [131.1988, 32.3399], [131.2237, 32.3239], [131.2492, 32.3289], [131.263, 32.3161], [131.2874, 32.309], [131.3053, 32.3153], [131.3097, 32.3218], [131.3415, 32.3295], [131.3383, 32.3362], [131.3418, 32.351], [131.3507, 32.3665], [131.3782, 32.3548], [131.3967, 32.3648], [131.406, 32.3897], [131.4466, 32.3929], [131.4521, 32.3993], [131.4766, 32.406], [131.4835, 32.4164], [131.4827, 32.4395], [131.4756, 32.4432], [131.4759, 32.4496], [131.512, 32.4595], [131.5107, 32.4874], [131.5297, 32.4941], [131.5235, 32.5055], [131.5327, 32.5204], [131.5227, 32.535], [131.5267, 32.5404], [131.5049, 32.5571], [131.4814, 32.5663], [131.4728, 32.5669], [131.4611, 32.5578], [131.4304, 32.5562], [131.4288, 32.5599]]]}}, {"type": "Feature", "properties": {"osm_type": "relation", "osm_id": 764886870, "name": "Kijo", "admin_level": "6", "kind": "subdivision_2", "parent_osm_id": 1842184, "parent_name": "Miyazaki Prefecture", "parent_iso": "JP-45"}, "geometry": {"type": "Polygon", "coordinates": [[[131.4927, 32.1622], [131.4806, 32.1673], [131.476, 32.1813], [131.4636, 32.1932], [131.4481, 32.1961], [131.4435, 32.2068], [131.443, 32.2373], [131.4292, 32.2518], [131.4348, 32.2558], [131.4253, 32.2874], [131.4253, 32.3061], [131.3834, 32.3168], [131.3628, 32.3092], [131.3698, 32.3218], [131.3491, 32.3322], [131.3227, 32.322], [131.3097, 32.3218], [131.3053, 32.3153], [131.2874, 32.309], [131.3278, 32.2755], [131.3367, 32.2796], [131.3527, 32.2751], [131.3581, 32.2656], [131.3501, 32.2631], [131.3502, 32.2583], [131.3575, 32.2432], [131.3911, 32.2128], [131.4006, 32.1875], [131.4132, 32.1773], [131.4146, 32.1635], [131.4333, 32.1458], [131.4501, 32.141], [131.4446, 32.1348], [131.4575, 32.1323], [131.4606, 32.1391], [131.4751, 32.1476], [131.4779, 32.1556], [131.486, 32.1533], [131.4927, 32.1622]]]}}, {"type": "Feature", "properties": {"osm_type": "relation", "osm_id": 628645988, "name": "Kadogawa", "admin_level": "6", "kind": "subdivision_2", "parent_osm_id": 1842184, "parent_name": "Miyazaki Prefecture", "parent_iso": "JP-45"}, "geometry": {"type": "Polygon", "coordinates": [[[131.5267, 32.5404], [131.5227, 32.535], [131.5327, 32.5204], [131.5235, 32.5055], [131.5297, 32.4941], [131.5107, 32.4874], [131.512, 32.4595], [131.5062, 32.4562], [131.5105, 32.4492], [131.5348, 32.4441], [131.5377, 32.4371], [131.5513, 32.445], [131.567, 32.4454], [131.5895, 32.4759], [131.6029, 32.4713], [131.6094, 32.4615], [131.62, 32.4665], [131.6299, 32.457], [131.6503, 32.4576], [131.6577, 32.4693], [131.6594, 32.483], [131.6679, 32.4835], [131.6719, 32.4779], [131.681, 32.4827], [131.6777, 32.4732], [131.6964, 32.4694], [131.6963, 32.4747], [131.7168, 32.4823], [131.7139, 32.4888], [131.7207, 32.4862], [131.7289, 32.4921], [131.7282, 32.4967], [131.7076, 32.4982], [131.684, 32.4899], [131.6783, 32.4966], [131.6687, 32.4971], [131.664, 32.5077], [131.6425, 32.5192], [131.63, 32.5224], [131.615, 32.5169], [131.6134, 32.5267], [131.6047, 32.5335], [131.5919, 32.5257], [131.5812, 32.5378], [131.5821, 32.5464], [131.5659, 32.5455], [131.5627, 32.5391], [131.5484, 32.5358], [131.5289, 32.5434], [131.5267, 32.5404]]]}}]}