{"type": "FeatureCollection", "parent": {"osm_id": 1891287, "name": "Madre de Dios", "admin_level": "4", "kind": "subdivision_1", "child_kind": "subdivision_2", "iso": "PE-MDD"}, "features": [{"type": "Feature", "properties": {"osm_type": "relation", "osm_id": 769706964, "name": "Manu", "admin_level": "6", "kind": "subdivision_2", "parent_osm_id": 1891287, "parent_name": "Madre de Dios", "parent_iso": "PE-MDD"}, "geometry": {"type": "Polygon", "coordinates": [[[-72.2393, -11.3451], [-72.2479, -11.385], [-72.2708, -11.4002], [-72.2926, -11.4333], [-72.2875, -11.4666], [-72.2896, -11.4829], [-72.3042, -11.4971], [-72.298, -11.5041], [-72.3053, -11.5131], [-72.3036, -11.5306], [-72.313, -11.5615], [-72.3062, -11.5724], [-72.3079, -11.5875], [-72.3288, -11.6084], [-72.348, -11.6179], [-72.3556, -11.635], [-72.3696, -11.6303], [-72.3756, -11.6332], [-72.3746, -11.643], [-72.3903, -11.6507], [-72.3877, -11.6605], [-72.4053, -11.6748], [-72.4101, -11.693], [-72.4282, -11.7052], [-72.4251, -11.7332], [-72.4131, -11.746], [-72.385, -11.7617], [-72.3822, -11.7749], [-72.3708, -11.785], [-72.3745, -11.7947], [-72.391, -11.8066], [-72.3908, -11.8276], [-72.3688, -11.8357], [-72.3597, -11.8465], [-72.3318, -11.8561], [-72.3348, -11.8658], [-72.3412, -11.8692], [-72.3475, -11.8913], [-72.3469, -11.9157], [-72.3383, -11.9242], [-72.3368, -11.9373], [-72.3405, -11.9658], [-72.3118, -11.9744], [-72.2862, -11.9753], [-72.2815, -11.9958], [-72.2592, -12.0057], [-72.2696, -12.0228], [-72.2725, -12.0474], [-72.2689, -12.0544], [-72.2304, -12.0618], [-72.1737, -12.0598], [-72.0944, -12.0852], [-72.0935, -12.1272], [-72.0876, -12.1427], [-72.1004, -12.1694], [-72.0922, -12.1944], [-72.1056, -12.2388], [-72.0964, -12.238], [-72.0872, -12.2462], [-72.0753, -12.2433], [-72.0564, -12.2573], [-72.0434, -12.2549], [-72.0332, -12.2663], [-72.0289, -12.2872], [-72.0101, -12.3], [-71.9909, -12.306], [-71.9774, -12.3188], [-71.9557, -12.3211], [-71.9459, -12.3302], [-71.9471, -12.3344], [-71.9619, -12.3382], [-71.9672, -12.3476], [-71.9706, -12.359], [-71.9633, -12.3769], [-71.9766, -12.3995], [-72.0091, -12.4037], [-72.0175, -12.4152], [-72.0475, -12.423], [-72.0499, -12.4344], [-72.0606, -12.4384], [-72.0647, -12.4702], [-72.079, -12.4986], [-72.0711, -12.5115], [-72.0653, -12.5067], [-72.0573, -12.508], [-72.0498, -12.5209], [-72.0288, -12.5264], [-72.0099, -12.5471], [-72.008, -12.5604], [-72.0005, -12.5696], [-71.9814, -12.5805], [-71.9842, -12.6082], [-71.9653, -12.6145], [-71.9651, -12.632], [-71.9572, -12.6389], [-71.9561, -12.6545], [-71.9701, -12.6621], [-71.9786, -12.6833], [-71.9649, -12.6936], [-71.9517, -12.6908], [-71.9178, -12.6989], [-71.9182, -12.7202], [-71.9004, -12.7334], [-71.8816, -12.7304], [-71.8122, -12.7439], [-71.7995, -12.7656], [-71.7647, -12.7675], [-71.7602, -12.7879], [-71.7472, -12.7962], [-71.723, -12.7865], [-71.7081, -12.7729], [-71.6947, -12.7537], [-71.695, -12.7388], [-71.6605, -12.7289], [-71.639, -12.7094], [-71.6003, -12.7001], [-71.5657, -12.7054], [-71.5601, -12.7109], [-71.5527, -12.7087], [-71.5488, -12.714], [-71.5527, -12.7247], [-71.5466, -12.7354], [-71.5334, -12.7386], [-71.5235, -12.7472], [-71.5131, -12.7444], [-71.5026, -12.7562], [-71.4957, -12.782], [-71.4648, -12.8097], [-71.4594, -12.8252], [-71.4465, -12.8272], [-71.4561, -12.8403], [-71.4451, -12.8407], [-71.4425, -12.8544], [-71.4498, -12.8583], [-71.4489, -12.8633], [-71.4374, -12.8763], [-71.424, -12.8733], [-71.4272, -12.882], [-71.4179, -12.8826], [-71.4164, -12.8941], [-71.3968, -12.8826], [-71.3751, -12.9005], [-71.3617, -12.8921], [-71.359, -12.8808], [-71.3158, -12.9245], [-71.3147, -12.9315], [-71.3022, -12.9344], [-71.2961, -12.9464], [-71.2926, -12.9444], [-71.2723, -12.9541], [-71.271, -12.9625], [-71.2521, -12.964], [-71.2309, -12.9725], [-71.2209, -12.9577], [-71.1959, -12.9596], [-71.1865, -12.9688], [-71.1764, -12.9709], [-71.1716, -12.965], [-71.1621, -12.9668], [-71.159, -12.9787], [-71.1719, -12.982], [-71.1794, -12.9983], [-71.1665, -13.0177], [-71.1738, -13.055], [-71.1616, -13.0665], [-71.1669, -13.1021], [-71.1612, -13.1204], [-71.1511, -13.1241], [-71.144, -13.1372], [-71.1465, -13.1475], [-71.1349, -13.211], [-71.122, -13.2335], [-71.0916, -13.24], [-71.0363, -13.2705], [-71.012, -13.265], [-71.008, -13.2548], [-71.0112, -13.2387], [-71.0079, -13.231], [-70.9909, -13.2215], [-70.9942, -13.2022], [-70.9772, -13.1697], [-70.9635, -13.1697], [-70.9422, -13.1565], [-70.9376, -13.1441], [-70.9423, -13.1355], [-70.9276, -13.1288], [-70.9214, -13.1108], [-70.8873, -13.1034], [-70.8988, -13.0814], [-70.8993, -13.0697], [-70.8822, -13.0707], [-70.8631, -13.0803], [-70.8524, -13.0791], [-70.843, -13.067], [-70.8174, -13.0699], [-70.7994, -13.0904], [-70.7599, -13.1081], [-70.746, -13.1035], [-70.7117, -13.1095], [-70.7041, -13.1046], [-70.6852, -13.1068], [-70.6829, -13.0976], [-70.6603, -13.0883], [-70.6501, -13.0938], [-70.6278, -13.0923], [-70.6064, -13.1017], [-70.5995, -13.0991], [-70.5861, -13.1041], [-70.5713, -13.1296], [-70.558, -13.1367], [-70.5494, -13.1532], [-70.4642, -13.1597], [-70.4465, -13.1704], [-70.4137, -13.1768], [-70.4096, -13.1828], [-70.3955, -13.1831], [-70.3885, -13.1924], [-70.3831, -13.1831], [-70.3856, -13.167], [-70.4012, -13.1532], [-70.3897, -13.1315], [-70.409, -13.1389], [-70.4177, -13.1331], [-70.4044, -13.1261], [-70.3795, -13.0416], [-70.3601, -13.0123], [-70.3577, -12.9616], [-70.3527, -12.9449], [-70.3548, -12.9165], [-70.3378, -12.878], [-70.3244, -12.8599], [-70.2915, -12.8441], [-70.2814, -12.8142], [-70.2569, -12.7828], [-70.2525, -12.7496], [-70.2471, -12.7395], [-70.2309, -12.7304], [-70.1959, -12.7209], [-70.1687, -12.6922], [-70.1615, -12.6787], [-70.1424, -12.6704], [-70.1334, -12.6591], [-70.103, -12.6533], [-70.0769, -12.6407], [-70.0628, -12.6192], [-70.0384, -12.6087], [-70.0374, -12.5958], [-70.0564, -12.5801], [-70.0721, -12.5762], [-70.0718, -12.5691], [-70.0818, -12.5662], [-70.0783, -12.5599], [-70.0817, -12.5544], [-70.0928, -12.5574], [-70.0919, -12.5491], [-70.0816, -12.5524], [-70.0789, -12.5491], [-70.0909, -12.5451], [-70.0968, -12.5493], [-70.091, -12.5367], [-70.0988, -12.5337], [-70.1026, -12.5246], [-70.0996, -12.5195], [-70.1063, -12.5161], [-70.1045, -12.5073], [-70.1209, -12.5047], [-70.1193, -12.5117], [-70.1256, -12.5136], [-70.1256, -12.506], [-70.1319, -12.5109], [-70.13, -12.5019], [-70.1347, -12.5025], [-70.1363, -12.4979], [-70.1424, -12.5003], [-70.1609, -12.4876], [-70.1733, -12.492], [-70.1738, -12.4833], [-70.1908, -12.4798], [-70.1902, -12.4717], [-70.2015, -12.4712], [-70.2076, -12.4785], [-70.2104, -12.4653], [-70.2177, -12.4638], [-70.219, -12.4726], [-70.2305, -12.4657], [-70.2325, -12.4522], [-70.2364, -12.4581], [-70.25, -12.4482], [-70.2468, -12.4394], [-70.2503, -12.4285], [-70.2637, -12.4236], [-70.2559, -12.4204], [-70.2524, -12.412], [-70.2572, -12.4071], [-70.2519, -12.4059], [-70.2549, -12.4], [-70.2477, -12.3956], [-70.2516, -12.3897], [-70.247, -12.3853], [-70.2532, -12.3826], [-70.2481, -12.3764], [-70.2576, -12.3715], [-70.2509, -12.369], [-70.2485, -12.3617], [-70.2568, -12.3606], [-70.2629, -12.343], [-70.2741, -12.3444], [-70.2677, -12.3395], [-70.2693, -12.3314], [-70.2779, -12.3305], [-70.274, -12.3286], [-70.2797, -12.32], [-70.2756, -12.3122], [-70.284, -12.3029], [-70.2804, -12.2933], [-70.2937, -12.2968], [-70.3058, -12.2583], [-70.3111, -12.2633], [-70.3114, -12.2528], [-70.3199, -12.2529], [-70.3159, -12.251], [-70.3203, -12.2446], [-70.3162, -12.2289], [-70.3261, -12.2292], [-70.3345, -12.2201], [-70.3338, -12.2272], [-70.3387, -12.2307], [-70.347, -12.1983], [-70.3545, -12.2015], [-70.3581, -12.191], [-70.3626, -12.196], [-70.3741, -12.1928], [-70.3719, -12.1811], [-70.3809, -12.1791], [-70.3753, -12.1666], [-70.3821, -12.1722], [-70.3881, -12.1622], [-70.3944, -12.1668], [-70.3958, -12.1541], [-70.4099, -12.1474], [-70.422, -12.1527], [-70.4256, -12.1465], [-70.4302, -12.1544], [-70.4368, -12.154], [-70.4371, -12.1432], [-70.4425, -12.1387], [-70.439, -12.1451], [-70.4459, -12.1449], [-70.4486, -12.1359], [-70.461, -12.142], [-70.4593, -12.1351], [-70.4655, -12.127], [-70.4764, -12.1322], [-70.4718, -12.1288], [-70.4734, -12.1176], [-70.4861, -12.1229], [-70.4846, -12.1187], [-70.4888, -12.112], [-70.4937, -12.1127], [-70.4936, -12.1071], [-70.5055, -12.1102], [-70.5098, -12.1161], [-70.508, -12.1115], [-70.5142, -12.1051], [-70.5171, -12.1075], [-70.5123, -12.1092], [-70.5135, -12.1141], [-70.5228, -12.1109], [-70.5242, -12.1156], [-70.5345, -12.1191], [-70.5328, -12.1136], [-70.5405, -12.113], [-70.5424, -12.1029], [-70.5462, -12.1047], [-70.5496, -12.0992], [-70.549, -12.103], [-70.5556, -12.104], [-70.5546, -12.0968], [-70.5606, -12.0998], [-70.5616, -12.0925], [-70.5682, -12.0926], [-70.5654, -12.0809], [-70.5718, -12.0836], [-70.5765, -12.0727], [-70.5867, -12.0786], [-70.5904, -12.0662], [-70.5982, -12.0694], [-70.5932, -12.0658], [-70.6022, -12.0621], [-70.5967, -12.0584], [-70.6, -12.0516], [-70.6109, -12.0511], [-70.6046, -12.0438], [-70.6052, -12.0373], [-70.621, -12.0519], [-70.6276, -12.0442], [-70.6271, -12.0356], [-70.6299, -12.0422], [-70.6402, -12.0375], [-70.6337, -12.0334], [-70.6404, -12.025], [-70.6356, -12.0237], [-70.6393, -12.0215], [-70.6371, -12.017], [-70.6477, -12.0126], [-70.6456, -12.0018], [-70.6564, -12.0036], [-70.6621, -11.9951], [-70.6657, -11.9994], [-70.6741, -11.9937], [-70.6808, -11.997], [-70.6835, -12.0074], [-70.6853, -11.9983], [-70.6948, -12.0025], [-70.6985, -11.9967], [-70.7061, -11.9991], [-70.7056, -11.9895], [-70.7094, -11.9942], [-70.7164, -11.9868], [-70.7261, -11.991], [-70.7271, -11.985], [-70.7336, -11.9836], [-70.7381, -11.9915], [-70.7424, -11.9875], [-70.7478, -11.9907], [-70.7458, -11.9979], [-70.7569, -11.9946], [-70.7541, -11.9993], [-70.7624, -11.9995], [-70.7603, -11.9961], [-70.7686, -11.996], [-70.773, -11.9877], [-70.7792, -11.9984], [-70.7805, -11.9896], [-70.7966, -11.9886], [-70.7973, -11.9822], [-70.8075, -11.9865], [-70.8104, -11.9772], [-70.8115, -11.9817], [-70.8175, -11.9809], [-70.8204, -11.97], [-70.8269, -11.9703], [-70.8258, -11.9658], [-70.836, -11.9624], [-70.8385, -11.9664], [-70.8471, -11.9612], [-70.8521, -11.967], [-70.8604, -11.9652], [-70.8585, -11.956], [-70.8675, -11.9551], [-70.8666, -11.9484], [-70.872, -11.948], [-70.876, -11.9391], [-70.884, -11.9428], [-70.8823, -11.939], [-70.8912, -11.9328], [-70.8861, -11.9258], [-70.891, -11.9292], [-70.8897, -11.9246], [-70.8981, -11.923], [-70.897, -11.9157], [-70.9089, -11.916], [-70.9105, -11.9226], [-70.9168, -11.9246], [-70.9279, -11.9167], [-70.9271, -11.9232], [-70.9337, -11.9204], [-70.9348, -11.9272], [-70.9477, -11.9186], [-70.9465, -11.9236], [-70.952, -11.9291], [-70.9563, -11.9159], [-70.9605, -11.9203], [-70.9637, -11.9159], [-70.9718, -11.9239], [-70.9741, -11.9148], [-70.9824, -11.9183], [-70.9827, -11.9139], [-70.9913, -11.914], [-70.9904, -11.9086], [-71.0007, -11.9059], [-70.9986, -11.9019], [-71.004, -11.897], [-71.0116, -11.9004], [-71.0084, -11.8932], [-71.015, -11.8929], [-71.0164, -11.8977], [-71.0202, -11.8889], [-71.0256, -11.889], [-71.0214, -11.865], [-71.031, -11.8631], [-71.0362, -11.8657], [-71.0363, -11.874], [-71.0448, -11.8729], [-71.0424, -11.8697], [-71.0499, -11.8587], [-71.0444, -11.8529], [-71.0516, -11.8459], [-71.0474, -11.8397], [-71.0573, -11.839], [-71.0529, -11.8354], [-71.0599, -11.8271], [-71.0586, -11.8149], [-71.0632, -11.8162], [-71.0591, -11.8116], [-71.0644, -11.8094], [-71.0598, -11.8059], [-71.0675, -11.798], [-71.062, -11.7975], [-71.0715, -11.7873], [-71.0752, -11.7898], [-71.0777, -11.7754], [-71.1041, -11.7654], [-71.1076, -11.7713], [-71.1099, -11.7626], [-71.1263, -11.7533], [-71.1377, -11.7567], [-71.1464, -11.7502], [-71.1514, -11.7524], [-71.152, -11.7481], [-71.1646, -11.7495], [-71.1659, -11.7549], [-71.1714, -11.7548], [-71.1707, -11.7602], [-71.1834, -11.7624], [-71.1854, -11.767], [-71.1874, -11.7623], [-71.1972, -11.7636], [-71.2092, -11.7566], [-71.2099, -11.7499], [-71.2226, -11.7381], [-71.2327, -11.7347], [-71.2486, -11.7136], [-71.2472, -11.7086], [-71.2735, -11.6941], [-71.2941, -11.6873], [-71.2985, -11.6913], [-71.3033, -11.6845], [-71.3176, -11.6847], [-71.3208, -11.6783], [-71.3128, -11.6597], [-71.3165, -11.6531], [-71.3308, -11.6556], [-71.342, -11.6474], [-71.3386, -11.6297], [-71.3455, -11.6302], [-71.358, -11.6154], [-71.3675, -11.614], [-71.3768, -11.6011], [-71.369, -11.5969], [-71.3852, -11.5764], [-71.411, -11.5795], [-71.4, -11.5649], [-71.3987, -11.5531], [-71.4149, -11.5307], [-71.4242, -11.5035], [-71.4435, -11.5021], [-71.4504, -11.5105], [-71.4602, -11.5125], [-71.4944, -11.4886], [-71.5037, -11.4914], [-71.5263, -11.4805], [-71.5543, -11.4871], [-71.5638, -11.4759], [-71.5787, -11.4696], [-71.5911, -11.4311], [-71.6179, -11.4353], [-71.6282, -11.4239], [-71.646, -11.4294], [-71.6628, -11.4211], [-71.6652, -11.4052], [-71.6535, -11.3979], [-71.6474, -11.3848], [-71.66, -11.3525], [-71.6899, -11.3745], [-71.6992, -11.3552], [-71.7216, -11.3391], [-71.7337, -11.343], [-71.7502, -11.3299], [-71.7562, -11.3406], [-71.7638, -11.3408], [-71.7745, -11.3257], [-71.7902, -11.3162], [-71.7989, -11.321], [-71.8261, -11.3151], [-71.8459, -11.3433], [-71.8439, -11.3513], [-71.8539, -11.3682], [-71.8717, -11.3669], [-71.8909, -11.3538], [-71.9053, -11.3512], [-71.9397, -11.3834], [-71.9769, -11.3892], [-71.9835, -11.3879], [-72.0012, -11.369], [-72.009, -11.3745], [-72.0242, -11.3696], [-72.036, -11.383], [-72.0543, -11.3737], [-72.0672, -11.3829], [-72.0969, -11.3776], [-72.1128, -11.3661], [-72.1143, -11.3557], [-72.103, -11.3443], [-72.1104, -11.3326], [-72.1319, -11.3309], [-72.1593, -11.32], [-72.182, -11.3269], [-72.1847, -11.351], [-72.1905, -11.3552], [-72.2137, -11.3442], [-72.2393, -11.3451]]]}}, {"type": "Feature", "properties": {"osm_type": "relation", "osm_id": 986052413, "name": "Tahuamanu", "admin_level": "6", "kind": "subdivision_2", "parent_osm_id": 1891287, "parent_name": "Madre de Dios", "parent_iso": "PE-MDD"}, "geometry": {"type": "Polygon", "coordinates": [[[-72.1776, -11.0407], [-72.1698, -11.049], [-72.1603, -11.0511], [-72.1599, -11.0648], [-72.1385, -11.0836], [-72.1114, -11.0831], [-72.1072, -11.0786], [-72.0969, -11.0836], [-72.0897, -11.0774], [-72.0917, -11.0715], [-72.0811, -11.0651], [-72.0829, -11.058], [-72.0788, -11.0548], [-72.0671, -11.0661], [-72.0548, -11.0616], [-72.0528, -11.0713], [-72.0518, -11.0669], [-72.0443, -11.0654], [-72.0445, -11.0605], [-72.0333, -11.0585], [-72.036, -11.065], [-72.018, -11.0637], [-72.012, -11.0607], [-72.0137, -11.0567], [-71.9997, -11.0541], [-71.9976, -11.0583], [-71.9817, -11.0547], [-71.9817, -11.0612], [-71.9783, -11.0525], [-71.9703, -11.0536], [-71.9713, -11.0585], [-71.9613, -11.0591], [-71.9551, -11.0521], [-71.9411, -11.0618], [-71.9406, -11.0522], [-71.9328, -11.053], [-71.9233, -11.0464], [-71.9168, -11.0504], [-71.9125, -11.0408], [-71.9111, -11.05], [-71.9054, -11.0434], [-71.8997, -11.0467], [-71.9045, -11.0594], [-71.8966, -11.0614], [-71.902, -11.0641], [-71.8981, -11.0668], [-71.8916, -11.06], [-71.8756, -11.0586], [-71.8754, -11.0502], [-71.8618, -11.0534], [-71.8596, -11.0472], [-71.8702, -11.0385], [-71.8692, -11.0335], [-71.855, -11.0421], [-71.8553, -11.0481], [-71.8511, -11.043], [-71.843, -11.0533], [-71.834, -11.0474], [-71.836, -11.053], [-71.8317, -11.0588], [-71.8233, -11.0593], [-71.82, -11.0666], [-71.8102, -11.0642], [-71.812, -11.0703], [-71.8075, -11.0719], [-71.7967, -11.0691], [-71.7912, -11.0782], [-71.7561, -11.073], [-71.7505, -11.0813], [-71.7526, -11.0866], [-71.7241, -11.0645], [-71.7224, -11.072], [-71.7128, -11.0701], [-71.715, -11.0813], [-71.708, -11.0892], [-71.6935, -11.0926], [-71.6876, -11.1018], [-71.6805, -11.1002], [-71.6833, -11.1052], [-71.6799, -11.1072], [-71.6714, -11.0938], [-71.653, -11.0925], [-71.6461, -11.0984], [-71.6378, -11.089], [-71.6304, -11.0951], [-71.6339, -11.0993], [-71.63, -11.1056], [-71.6227, -11.0924], [-71.61, -11.0975], [-71.5953, -11.0903], [-71.5888, -11.0925], [-71.5898, -11.1022], [-71.584, -11.1041], [-71.5791, -11.0897], [-71.5694, -11.0835], [-71.558, -11.0933], [-71.5461, -11.0816], [-71.5395, -11.1], [-71.5358, -11.0871], [-71.5277, -11.0856], [-71.5111, -11.1008], [-71.4968, -11.1067], [-71.4934, -11.1023], [-71.4985, -11.0916], [-71.4923, -11.0903], [-71.4802, -11.0968], [-71.4746, -11.1063], [-71.4588, -11.1048], [-71.4493, -11.1107], [-71.4424, -11.1032], [-71.436, -11.1121], [-71.4456, -11.1158], [-71.4437, -11.1258], [-71.4519, -11.1262], [-71.4511, -11.1323], [-71.4451, -11.1324], [-71.4396, -11.1231], [-71.4339, -11.1301], [-71.4399, -11.1358], [-71.4375, -11.1394], [-71.4197, -11.137], [-71.3977, -11.1518], [-71.3839, -11.1486], [-71.3749, -11.162], [-71.3813, -11.1719], [-71.3747, -11.1785], [-71.3694, -11.1749], [-71.3757, -11.1692], [-71.3721, -11.1647], [-71.3475, -11.1644], [-71.336, -11.155], [-71.3314, -11.1712], [-71.3099, -11.169], [-71.3154, -11.1811], [-71.3111, -11.1859], [-71.3008, -11.18], [-71.2864, -11.1868], [-71.2784, -11.1798], [-71.2622, -11.1933], [-71.253, -11.1914], [-71.247, -11.1804], [-71.2438, -11.1957], [-71.2329, -11.2003], [-71.2363, -11.2187], [-71.2277, -11.2135], [-71.2263, -11.2034], [-71.2202, -11.2003], [-71.2179, -11.2101], [-71.1915, -11.2124], [-71.1771, -11.2292], [-71.1738, -11.215], [-71.1613, -11.2097], [-71.1559, -11.2267], [-71.1333, -11.2211], [-71.1208, -11.2394], [-71.1155, -11.2372], [-71.1124, -11.2261], [-71.1008, -11.2203], [-71.0991, -11.225], [-71.1056, -11.2319], [-71.0954, -11.241], [-71.0917, -11.2394], [-71.0963, -11.2329], [-71.0914, -11.23], [-71.0817, -11.2364], [-71.0755, -11.2327], [-71.0687, -11.2355], [-71.0683, -11.2516], [-71.063, -11.2502], [-71.0586, -11.2379], [-71.0484, -11.2502], [-71.0341, -11.2453], [-71.0369, -11.2602], [-71.0297, -11.2571], [-71.0273, -11.2439], [-71.0184, -11.2457], [-71.0149, -11.2642], [-71.0073, -11.2638], [-71.0055, -11.2541], [-71.0013, -11.2537], [-70.9972, -11.2617], [-70.9866, -11.2624], [-70.98, -11.2689], [-70.9645, -11.2681], [-70.9603, -11.2759], [-70.947, -11.28], [-70.9423, -11.291], [-70.9316, -11.2756], [-70.924, -11.2785], [-70.927, -11.2878], [-70.9239, -11.2904], [-70.9134, -11.2775], [-70.9074, -11.2768], [-70.9111, -11.2942], [-70.9031, -11.2837], [-70.8955, -11.2889], [-70.887, -11.2823], [-70.8782, -11.2877], [-70.8748, -11.2838], [-70.8794, -11.2741], [-70.8649, -11.2738], [-70.8608, -11.2781], [-70.8629, -11.2923], [-70.876, -11.3124], [-70.8528, -11.3184], [-70.8464, -11.327], [-70.8399, -11.3233], [-70.832, -11.3276], [-70.8238, -11.3187], [-70.8127, -11.3243], [-70.8186, -11.3477], [-70.804, -11.3482], [-70.7936, -11.361], [-70.7932, -11.349], [-70.8005, -11.3427], [-70.7942, -11.3412], [-70.7827, -11.3615], [-70.7737, -11.3665], [-70.7757, -11.3727], [-70.7688, -11.3843], [-70.7566, -11.3792], [-70.7478, -11.3837], [-70.7501, -11.3747], [-70.7441, -11.3816], [-70.4764, -11.3523], [-70.4539, -11.3732], [-70.4519, -11.3962], [-70.4351, -11.4035], [-70.4309, -11.4137], [-70.4131, -11.4309], [-70.401, -11.435], [-70.3773, -11.434], [-70.3578, -11.4538], [-70.3416, -11.4456], [-70.3293, -11.4526], [-70.3044, -11.4521], [-70.2899, -11.4612], [-70.2875, -11.4704], [-70.2793, -11.4749], [-70.2743, -11.4961], [-70.2613, -11.5105], [-70.2567, -11.5309], [-70.2411, -11.5429], [-70.2401, -11.5584], [-70.2179, -11.5716], [-70.2144, -11.5853], [-70.1917, -11.6022], [-70.1873, -11.6165], [-70.1781, -11.6265], [-70.1495, -11.6382], [-70.1444, -11.6445], [-70.1352, -11.6442], [-70.1326, -11.6558], [-70.1293, -11.6536], [-70.1158, -11.6666], [-70.0903, -11.6756], [-70.0774, -11.6702], [-70.0721, -11.681], [-70.0558, -11.6851], [-70.031, -11.71], [-69.9957, -11.7014], [-69.9839, -11.7129], [-69.9608, -11.7096], [-69.9365, -11.7352], [-69.9275, -11.7259], [-69.9229, -11.727], [-69.921, -11.7394], [-69.9081, -11.7373], [-69.9089, -11.7456], [-69.8982, -11.7598], [-69.8797, -11.7692], [-69.8733, -11.7666], [-69.8607, -11.7793], [-69.8412, -11.7811], [-69.8285, -11.7901], [-69.814, -11.7829], [-69.8074, -11.786], [-69.8088, -11.7912], [-69.8032, -11.7957], [-69.7882, -11.7941], [-69.7786, -11.7992], [-69.7732, -11.7961], [-69.7588, -11.8072], [-69.7396, -11.7963], [-69.725, -11.8062], [-69.7225, -11.8032], [-69.7267, -11.8004], [-69.7209, -11.7905], [-69.7105, -11.7948], [-69.7073, -11.7839], [-69.6964, -11.7807], [-69.6942, -11.7697], [-69.6779, -11.7651], [-69.6762, -11.77], [-69.6667, -11.7635], [-69.6677, -11.7584], [-69.6552, -11.7588], [-69.6476, -11.7705], [-69.6443, -11.7654], [-69.6369, -11.762], [-69.6322, -11.7663], [-69.6266, -11.7602], [-69.6121, -11.7675], [-69.6121, -11.7741], [-69.5878, -11.7773], [-69.582, -11.7868], [-69.5843, -11.7956], [-69.5581, -11.8002], [-69.5532, -11.8118], [-69.5468, -11.8138], [-69.5489, -11.8203], [-69.5365, -11.8204], [-69.5376, -11.8243], [-69.5269, -11.8273], [-69.5272, -11.8418], [-69.5143, -11.8405], [-69.5049, -11.8473], [-69.495, -11.8449], [-69.4841, -11.8573], [-69.4731, -11.8617], [-69.4674, -11.8723], [-69.4516, -11.8754], [-69.4406, -11.868], [-69.4332, -11.8725], [-69.425, -11.866], [-69.414, -11.8668], [-69.4099, -11.874], [-69.375, -11.8857], [-69.3568, -11.9024], [-69.3506, -11.8995], [-69.3361, -11.908], [-69.3331, -11.9021], [-69.3239, -11.9008], [-69.3114, -11.9104], [-69.2903, -11.8982], [-69.2818, -11.9049], [-69.2683, -11.8958], [-69.2602, -11.8976], [-69.2586, -11.8929], [-69.2525, -11.8966], [-69.2445, -11.8827], [-69.2358, -11.8826], [-69.2285, -11.8901], [-69.2222, -11.8897], [-69.2174, -11.899], [-69.2131, -11.893], [-69.1932, -11.9017], [-69.1904, -11.9113], [-69.1767, -11.9144], [-69.1711, -11.9105], [-69.1617, -11.9149], [-69.149, -11.9116], [-69.1491, -11.9167], [-69.1404, -11.9183], [-69.1338, -11.9155], [-69.1255, -11.9213], [-69.125, -11.928], [-69.1158, -11.9318], [-69.1042, -11.922], [-69.0976, -11.9243], [-69.1001, -11.9202], [-69.0957, -11.9212], [-69.0917, -11.9094], [-69.082, -11.9061], [-69.0657, -11.9101], [-69.0605, -11.907], [-69.056, -11.9147], [-69.0403, -11.9179], [-69.0267, -11.9134], [-69.0188, -11.9199], [-69.0123, -11.9125], [-68.994, -11.9149], [-68.9817, -11.9079], [-68.9703, -11.9131], [-69.1034, -11.6813], [-69.2283, -11.4998], [-69.5629, -10.9668], [-69.5687, -10.9479], [-69.5742, -10.9502], [-69.577, -10.9412], [-69.5881, -10.9406], [-69.5835, -10.9479], [-69.5976, -10.9417], [-69.6092, -10.9457], [-69.6105, -10.9576], [-69.6203, -10.9501], [-69.6336, -10.9574], [-69.6587, -10.9526], [-69.668, -10.962], [-69.6906, -10.9636], [-69.6973, -10.9725], [-69.7005, -10.9655], [-69.7169, -10.9759], [-69.7223, -10.9647], [-69.7376, -10.975], [-69.739, -10.9654], [-69.7599, -10.9395], [-69.7731, -10.94], [-69.7695, -10.9299], [-69.7793, -10.9355], [-69.7882, -10.9296], [-69.7943, -10.9341], [-69.8002, -10.9268], [-69.8111, -10.926], [-69.8316, -10.9339], [-69.8324, -10.9285], [-69.8511, -10.9246], [-69.8583, -10.9343], [-69.8627, -10.9268], [-69.8734, -10.9311], [-69.8784, -10.9246], [-69.9012, -10.9206], [-69.9166, -10.9255], [-69.9207, -10.9338], [-69.9239, -10.925], [-69.9333, -10.9222], [-69.954, -10.9286], [-69.9551, -10.9372], [-69.9615, -10.9359], [-69.958, -10.9409], [-69.9639, -10.9403], [-69.9742, -10.9493], [-69.982, -10.9431], [-69.9845, -10.9557], [-69.9944, -10.9507], [-69.9988, -10.9652], [-70.0075, -10.9627], [-70.0153, -10.9707], [-70.0252, -10.9716], [-70.0274, -10.9778], [-70.0369, -10.971], [-70.0371, -10.98], [-70.0633, -10.9876], [-70.0646, -10.9939], [-70.0796, -10.992], [-70.0809, -10.9849], [-70.0853, -10.9898], [-70.0928, -10.9871], [-70.0948, -10.9962], [-70.1047, -10.9969], [-70.1074, -11.0079], [-70.1157, -11.0059], [-70.1139, -11.0092], [-70.1222, -11.011], [-70.1299, -11.0221], [-70.1388, -11.0227], [-70.1405, -11.0297], [-70.1561, -11.0335], [-70.1583, -11.0419], [-70.1761, -11.0401], [-70.1991, -11.054], [-70.2312, -11.052], [-70.2415, -11.0471], [-70.2639, -11.0517], [-70.2713, -11.0594], [-70.2826, -11.0566], [-70.3084, -11.0706], [-70.3497, -11.0655], [-70.354, -11.0594], [-70.3738, -11.0605], [-70.3858, -11.0478], [-70.4075, -11.0472], [-70.4246, -11.038], [-70.4378, -11.0388], [-70.4408, -11.0335], [-70.4377, -11.0263], [-70.4517, -10.9968], [-70.4684, -10.9872], [-70.4817, -10.9681], [-70.4948, -10.9624], [-70.5044, -10.9502], [-70.5154, -10.9472], [-70.5217, -10.9342], [-70.5278, -10.9343], [-70.6138, -11.0002], [-70.6138, -9.8734], [-70.6395, -9.8844], [-70.6335, -9.899], [-70.6509, -9.932], [-70.6485, -9.9516], [-70.6676, -9.9707], [-70.6569, -9.9997], [-70.6659, -10.0056], [-70.6723, -10.0231], [-70.6521, -10.0401], [-70.66, -10.0515], [-70.6445, -10.0687], [-70.6531, -10.0755], [-70.6499, -10.0795], [-70.661, -10.085], [-70.6708, -10.0998], [-70.681, -10.1026], [-70.6839, -10.1126], [-70.6982, -10.118], [-70.7082, -10.1368], [-70.7064, -10.1614], [-70.7344, -10.1854], [-70.7507, -10.191], [-70.7616, -10.2092], [-70.7803, -10.2199], [-70.7904, -10.241], [-70.8032, -10.2512], [-70.8149, -10.2547], [-70.8416, -10.2507], [-70.8669, -10.253], [-70.8808, -10.262], [-70.8826, -10.2759], [-70.874, -10.3007], [-70.8895, -10.3351], [-70.8974, -10.3374], [-70.9201, -10.3307], [-70.968, -10.3356], [-70.9707, -10.346], [-70.9581, -10.3778], [-70.9584, -10.3896], [-70.9933, -10.4162], [-70.9969, -10.4272], [-71.005, -10.4308], [-71.0006, -10.4422], [-71.0245, -10.4782], [-71.0409, -10.4887], [-71.0671, -10.4936], [-71.0785, -10.5014], [-71.0998, -10.5016], [-71.1084, -10.5078], [-71.1167, -10.5013], [-71.1285, -10.5047], [-71.1468, -10.531], [-71.1646, -10.5313], [-71.1653, -10.5696], [-71.1962, -10.5799], [-71.2052, -10.5915], [-71.2109, -10.6192], [-71.2208, -10.6367], [-71.2063, -10.6522], [-71.2128, -10.6683], [-71.229, -10.6785], [-71.2313, -10.6852], [-71.2278, -10.7028], [-71.2155, -10.7149], [-71.2246, -10.7307], [-71.2187, -10.7602], [-71.2289, -10.765], [-71.2216, -10.7767], [-71.2331, -10.7801], [-71.2451, -10.7765], [-71.2587, -10.7849], [-71.2715, -10.819], [-71.2727, -10.8528], [-71.2947, -10.8763], [-71.3083, -10.8778], [-71.3173, -10.9096], [-71.3361, -10.9168], [-71.354, -10.9498], [-71.362, -10.9516], [-71.3697, -10.9472], [-71.378, -10.9535], [-71.3935, -10.9473], [-71.4129, -10.9581], [-71.4543, -10.9587], [-71.4725, -10.9537], [-71.486, -10.9638], [-71.5081, -10.9661], [-71.5271, -10.9617], [-71.532, -10.9521], [-71.5589, -10.9648], [-71.5725, -10.9631], [-71.5943, -10.9728], [-71.6091, -10.9705], [-71.6513, -10.977], [-71.6617, -10.9832], [-71.6807, -10.9716], [-71.6936, -10.9797], [-71.7017, -10.9738], [-71.7137, -10.9849], [-71.716, -10.9979], [-71.7293, -10.9837], [-71.7511, -10.9938], [-71.7802, -10.9878], [-71.7876, -10.9926], [-71.809, -10.9938], [-71.8228, -11.0022], [-71.8285, -11.0119], [-71.847, -10.9957], [-71.8774, -10.9999], [-71.8951, -10.9945], [-71.9166, -10.9992], [-71.9233, -10.9961], [-71.9256, -11.0025], [-71.9384, -11.0039], [-71.9446, -10.9974], [-71.9694, -10.9963], [-71.9768, -10.9902], [-71.9866, -10.9955], [-72.0108, -10.9877], [-72.0298, -10.9979], [-72.0437, -10.9969], [-72.0544, -11.0111], [-72.0928, -11.0017], [-72.1047, -10.9929], [-72.125, -10.9956], [-72.1279, -10.9798], [-72.1529, -10.9942], [-72.1583, -11.0053], [-72.1735, -10.9955], [-72.1785, -10.9994], [-72.1852, -11.0089], [-72.1746, -11.0277], [-72.1776, -11.0407]]]}}, {"type": "Feature", "properties": {"osm_type": "relation", "osm_id": 393973465, "name": "Tambopata", "admin_level": "6", "kind": "subdivision_2", "parent_osm_id": 1891287, "parent_name": "Madre de Dios", "parent_iso": "PE-MDD"}, "geometry": {"type": "Polygon", "coordinates": [[[-72.2046, -11.3474], [-72.2039, -11.3517], [-72.1905, -11.3552], [-72.1847, -11.351], [-72.182, -11.3269], [-72.1593, -11.32], [-72.1319, -11.3309], [-72.1104, -11.3326], [-72.103, -11.3443], [-72.1143, -11.3557], [-72.1128, -11.3661], [-72.0969, -11.3776], [-72.0672, -11.3829], [-72.0543, -11.3737], [-72.036, -11.383], [-72.0242, -11.3696], [-72.009, -11.3745], [-72.0012, -11.369], [-71.9835, -11.3879], [-71.9769, -11.3892], [-71.9397, -11.3834], [-71.9053, -11.3512], [-71.8909, -11.3538], [-71.8717, -11.3669], [-71.8539, -11.3682], [-71.8439, -11.3513], [-71.8459, -11.3433], [-71.8261, -11.3151], [-71.7989, -11.321], [-71.7902, -11.3162], [-71.7745, -11.3257], [-71.7638, -11.3408], [-71.7562, -11.3406], [-71.7502, -11.3299], [-71.7337, -11.343], [-71.7216, -11.3391], [-71.6992, -11.3552], [-71.6899, -11.3745], [-71.66, -11.3525], [-71.6474, -11.3848], [-71.6535, -11.3979], [-71.6652, -11.4052], [-71.6628, -11.4211], [-71.646, -11.4294], [-71.6282, -11.4239], [-71.6179, -11.4353], [-71.5911, -11.4311], [-71.5787, -11.4696], [-71.5638, -11.4759], [-71.5543, -11.4871], [-71.5263, -11.4805], [-71.5037, -11.4914], [-71.4944, -11.4886], [-71.4602, -11.5125], [-71.4504, -11.5105], [-71.4435, -11.5021], [-71.4242, -11.5035], [-71.4149, -11.5307], [-71.3987, -11.5531], [-71.4, -11.5649], [-71.411, -11.5795], [-71.3852, -11.5764], [-71.369, -11.5969], [-71.3768, -11.6011], [-71.3675, -11.614], [-71.358, -11.6154], [-71.3455, -11.6302], [-71.3386, -11.6297], [-71.342, -11.6474], [-71.3308, -11.6556], [-71.3165, -11.6531], [-71.3128, -11.6597], [-71.3208, -11.6783], [-71.3176, -11.6847], [-71.3033, -11.6845], [-71.2985, -11.6913], [-71.2941, -11.6873], [-71.2735, -11.6941], [-71.2472, -11.7086], [-71.2486, -11.7136], [-71.2327, -11.7347], [-71.2226, -11.7381], [-71.2099, -11.7499], [-71.2092, -11.7566], [-71.1972, -11.7636], [-71.1874, -11.7623], [-71.1854, -11.767], [-71.1834, -11.7624], [-71.1707, -11.7602], [-71.1714, -11.7548], [-71.1659, -11.7549], [-71.1646, -11.7495], [-71.152, -11.7481], [-71.1514, -11.7524], [-71.1464, -11.7502], [-71.1377, -11.7567], [-71.1263, -11.7533], [-71.1099, -11.7626], [-71.1076, -11.7713], [-71.1041, -11.7654], [-71.0777, -11.7754], [-71.0752, -11.7898], [-71.0715, -11.7873], [-71.062, -11.7975], [-71.0675, -11.798], [-71.0598, -11.8059], [-71.0644, -11.8094], [-71.0591, -11.8116], [-71.0632, -11.8162], [-71.0586, -11.8149], [-71.0599, -11.8271], [-71.0529, -11.8354], [-71.0573, -11.839], [-71.0474, -11.8397], [-71.0516, -11.8459], [-71.0444, -11.8529], [-71.0499, -11.8587], [-71.0424, -11.8697], [-71.0448, -11.8729], [-71.0363, -11.874], [-71.0362, -11.8657], [-71.031, -11.8631], [-71.0214, -11.865], [-71.0256, -11.889], [-71.0202, -11.8889], [-71.0164, -11.8977], [-71.015, -11.8929], [-71.0084, -11.8932], [-71.0116, -11.9004], [-71.004, -11.897], [-70.9986, -11.9019], [-71.0007, -11.9059], [-70.9904, -11.9086], [-70.9913, -11.914], [-70.9827, -11.9139], [-70.9824, -11.9183], [-70.9741, -11.9148], [-70.9718, -11.9239], [-70.9637, -11.9159], [-70.9605, -11.9203], [-70.9563, -11.9159], [-70.952, -11.9291], [-70.9465, -11.9236], [-70.9477, -11.9186], [-70.9348, -11.9272], [-70.9337, -11.9204], [-70.9271, -11.9232], [-70.9279, -11.9167], [-70.9168, -11.9246], [-70.9105, -11.9226], [-70.9089, -11.916], [-70.897, -11.9157], [-70.8981, -11.923], [-70.8897, -11.9246], [-70.891, -11.9292], [-70.8861, -11.9258], [-70.8912, -11.9328], [-70.8823, -11.939], [-70.884, -11.9428], [-70.876, -11.9391], [-70.872, -11.948], [-70.8666, -11.9484], [-70.8675, -11.9551], [-70.8585, -11.956], [-70.8604, -11.9652], [-70.8521, -11.967], [-70.8471, -11.9612], [-70.8385, -11.9664], [-70.836, -11.9624], [-70.8258, -11.9658], [-70.8269, -11.9703], [-70.8204, -11.97], [-70.8175, -11.9809], [-70.8115, -11.9817], [-70.8104, -11.9772], [-70.8075, -11.9865], [-70.7973, -11.9822], [-70.7966, -11.9886], [-70.7805, -11.9896], [-70.7792, -11.9984], [-70.773, -11.9877], [-70.7686, -11.996], [-70.7603, -11.9961], [-70.7624, -11.9995], [-70.7541, -11.9993], [-70.7569, -11.9946], [-70.7458, -11.9979], [-70.7478, -11.9907], [-70.7424, -11.9875], [-70.7381, -11.9915], [-70.7336, -11.9836], [-70.7271, -11.985], [-70.7261, -11.991], [-70.7164, -11.9868], [-70.7094, -11.9942], [-70.7056, -11.9895], [-70.7061, -11.9991], [-70.6985, -11.9967], [-70.6948, -12.0025], [-70.6853, -11.9983], [-70.6835, -12.0074], [-70.6808, -11.997], [-70.6741, -11.9937], [-70.6657, -11.9994], [-70.6621, -11.9951], [-70.6564, -12.0036], [-70.6456, -12.0018], [-70.6477, -12.0126], [-70.6371, -12.017], [-70.6393, -12.0215], [-70.6356, -12.0237], [-70.6404, -12.025], [-70.6337, -12.0334], [-70.6402, -12.0375], [-70.6299, -12.0422], [-70.6271, -12.0356], [-70.6276, -12.0442], [-70.621, -12.0519], [-70.6052, -12.0373], [-70.6046, -12.0438], [-70.6109, -12.0511], [-70.6, -12.0516], [-70.5967, -12.0584], [-70.6022, -12.0621], [-70.5932, -12.0658], [-70.5982, -12.0694], [-70.5904, -12.0662], [-70.5867, -12.0786], [-70.5765, -12.0727], [-70.5718, -12.0836], [-70.5654, -12.0809], [-70.5682, -12.0926], [-70.5616, -12.0925], [-70.5606, -12.0998], [-70.5546, -12.0968], [-70.5556, -12.104], [-70.549, -12.103], [-70.5496, -12.0992], [-70.5462, -12.1047], [-70.5424, -12.1029], [-70.5405, -12.113], [-70.5328, -12.1136], [-70.5345, -12.1191], [-70.5242, -12.1156], [-70.5228, -12.1109], [-70.5135, -12.1141], [-70.5123, -12.1092], [-70.5171, -12.1075], [-70.5142, -12.1051], [-70.508, -12.1115], [-70.5098, -12.1161], [-70.5055, -12.1102], [-70.4936, -12.1071], [-70.4937, -12.1127], [-70.4888, -12.112], [-70.4846, -12.1187], [-70.4861, -12.1229], [-70.4734, -12.1176], [-70.4718, -12.1288], [-70.4764, -12.1322], [-70.4655, -12.127], [-70.4593, -12.1351], [-70.461, -12.142], [-70.4486, -12.1359], [-70.4459, -12.1449], [-70.439, -12.1451], [-70.4425, -12.1387], [-70.4371, -12.1432], [-70.4368, -12.154], [-70.4302, -12.1544], [-70.4256, -12.1465], [-70.422, -12.1527], [-70.4099, -12.1474], [-70.3958, -12.1541], [-70.3944, -12.1668], [-70.3881, -12.1622], [-70.3821, -12.1722], [-70.3753, -12.1666], [-70.3809, -12.1791], [-70.3719, -12.1811], [-70.3741, -12.1928], [-70.3626, -12.196], [-70.3581, -12.191], [-70.3545, -12.2015], [-70.347, -12.1983], [-70.3387, -12.2307], [-70.3338, -12.2272], [-70.3345, -12.2201], [-70.3261, -12.2292], [-70.3162, -12.2289], [-70.3203, -12.2446], [-70.3159, -12.251], [-70.3199, -12.2529], [-70.3114, -12.2528], [-70.3111, -12.2633], [-70.3058, -12.2583], [-70.2937, -12.2968], [-70.2804, -12.2933], [-70.284, -12.3029], [-70.2756, -12.3122], [-70.2797, -12.32], [-70.274, -12.3286], [-70.2779, -12.3305], [-70.2693, -12.3314], [-70.2677, -12.3395], [-70.2741, -12.3444], [-70.2629, -12.343], [-70.2568, -12.3606], [-70.2485, -12.3617], [-70.2509, -12.369], [-70.2576, -12.3715], [-70.2481, -12.3764], [-70.2532, -12.3826], [-70.247, -12.3853], [-70.2516, -12.3897], [-70.2477, -12.3956], [-70.2549, -12.4], [-70.2519, -12.4059], [-70.2572, -12.4071], [-70.2524, -12.412], [-70.2559, -12.4204], [-70.2637, -12.4236], [-70.2503, -12.4285], [-70.2468, -12.4394], [-70.25, -12.4482], [-70.2364, -12.4581], [-70.2325, -12.4522], [-70.2305, -12.4657], [-70.219, -12.4726], [-70.2177, -12.4638], [-70.2104, -12.4653], [-70.2076, -12.4785], [-70.2015, -12.4712], [-70.1902, -12.4717], [-70.1908, -12.4798], [-70.1738, -12.4833], [-70.1733, -12.492], [-70.1609, -12.4876], [-70.1424, -12.5003], [-70.1363, -12.4979], [-70.1347, -12.5025], [-70.13, -12.5019], [-70.1319, -12.5109], [-70.1256, -12.506], [-70.1256, -12.5136], [-70.1193, -12.5117], [-70.1209, -12.5047], [-70.1045, -12.5073], [-70.1063, -12.5161], [-70.0996, -12.5195], [-70.1026, -12.5246], [-70.0988, -12.5337], [-70.091, -12.5367], [-70.0968, -12.5493], [-70.0909, -12.5451], [-70.0789, -12.5491], [-70.0816, -12.5524], [-70.0919, -12.5491], [-70.0928, -12.5574], [-70.0817, -12.5544], [-70.0783, -12.5599], [-70.0818, -12.5662], [-70.0718, -12.5691], [-70.0721, -12.5762], [-70.0564, -12.5801], [-70.0374, -12.5958], [-70.0384, -12.6087], [-70.0628, -12.6192], [-70.0769, -12.6407], [-70.103, -12.6533], [-70.1334, -12.6591], [-70.1424, -12.6704], [-70.1615, -12.6787], [-70.1687, -12.6922], [-70.1959, -12.7209], [-70.2309, -12.7304], [-70.2471, -12.7395], [-70.2525, -12.7496], [-70.2569, -12.7828], [-70.2814, -12.8142], [-70.2915, -12.8441], [-70.3244, -12.8599], [-70.3378, -12.878], [-70.3548, -12.9165], [-70.3527, -12.9449], [-70.3577, -12.9616], [-70.3601, -13.0123], [-70.3795, -13.0416], [-70.4029, -13.1144], [-69.6499, -13.3417], [-68.8719, -13.0039], [-68.8684, -12.9903], [-68.8768, -12.9872], [-68.8623, -12.9813], [-68.865, -12.972], [-68.8711, -12.9736], [-68.8716, -12.98], [-68.876, -12.978], [-68.876, -12.9602], [-68.8822, -12.9576], [-68.8746, -12.9485], [-68.8792, -12.9418], [-68.8602, -12.9478], [-68.8734, -12.9398], [-68.8661, -12.9313], [-68.8766, -12.9287], [-68.8613, -12.9266], [-68.8749, -12.9192], [-68.8678, -12.9039], [-68.8726, -12.8998], [-68.8661, -12.8955], [-68.8725, -12.8875], [-68.8641, -12.8748], [-68.8705, -12.8701], [-68.8597, -12.8649], [-68.8585, -12.8589], [-68.851, -12.8664], [-68.8443, -12.8577], [-68.8348, -12.8578], [-68.8418, -12.8435], [-68.8309, -12.8417], [-68.8393, -12.8296], [-68.8291, -12.8285], [-68.8394, -12.8239], [-68.8327, -12.8102], [-68.825, -12.813], [-68.8244, -12.8048], [-68.8076, -12.8086], [-68.818, -12.7908], [-68.8047, -12.7836], [-68.8088, -12.7773], [-68.8041, -12.771], [-68.8085, -12.7666], [-68.8037, -12.7643], [-68.804, -12.7566], [-68.789, -12.7578], [-68.7805, -12.7321], [-68.7669, -12.7422], [-68.7454, -12.7291], [-68.7406, -12.7176], [-68.7279, -12.7134], [-68.7339, -12.7095], [-68.7398, -12.7134], [-68.7424, -12.708], [-68.7251, -12.6973], [-68.7262, -12.691], [-68.7321, -12.6967], [-68.7345, -12.6921], [-68.7119, -12.6801], [-68.7199, -12.667], [-68.7256, -12.6735], [-68.7283, -12.6713], [-68.7195, -12.6612], [-68.7287, -12.6613], [-68.7303, -12.6683], [-68.7338, -12.6674], [-68.7364, -12.6563], [-68.731, -12.6509], [-68.7406, -12.6328], [-68.7341, -12.6244], [-68.7318, -12.6099], [-68.7242, -12.602], [-68.7138, -12.6041], [-68.7014, -12.5791], [-68.6978, -12.5879], [-68.6939, -12.5866], [-68.6993, -12.5721], [-68.6915, -12.5573], [-68.6745, -12.553], [-68.6741, -12.5325], [-68.6814, -12.5254], [-68.6647, -12.5242], [-68.6582, -12.5362], [-68.6542, -12.5313], [-68.6604, -12.5194], [-68.6523, -12.5027], [-68.9728, -11.9094], [-68.9817, -11.9079], [-68.994, -11.9149], [-69.0123, -11.9125], [-69.0188, -11.9199], [-69.0267, -11.9134], [-69.0403, -11.9179], [-69.056, -11.9147], [-69.0605, -11.907], [-69.0657, -11.9101], [-69.082, -11.9061], [-69.0917, -11.9094], [-69.0957, -11.9212], [-69.1001, -11.9202], [-69.0976, -11.9243], [-69.1042, -11.922], [-69.1158, -11.9318], [-69.125, -11.928], [-69.1255, -11.9213], [-69.1338, -11.9155], [-69.1404, -11.9183], [-69.1491, -11.9167], [-69.149, -11.9116], [-69.1617, -11.9149], [-69.1711, -11.9105], [-69.1767, -11.9144], [-69.1904, -11.9113], [-69.1932, -11.9017], [-69.2131, -11.893], [-69.2174, -11.899], [-69.2222, -11.8897], [-69.2285, -11.8901], [-69.2358, -11.8826], [-69.2445, -11.8827], [-69.2525, -11.8966], [-69.2586, -11.8929], [-69.2602, -11.8976], [-69.2683, -11.8958], [-69.2818, -11.9049], [-69.2903, -11.8982], [-69.3114, -11.9104], [-69.3239, -11.9008], [-69.3331, -11.9021], [-69.3361, -11.908], [-69.3506, -11.8995], [-69.3568, -11.9024], [-69.375, -11.8857], [-69.4099, -11.874], [-69.414, -11.8668], [-69.425, -11.866], [-69.4332, -11.8725], [-69.4406, -11.868], [-69.4516, -11.8754], [-69.4674, -11.8723], [-69.4731, -11.8617], [-69.4841, -11.8573], [-69.495, -11.8449], [-69.5049, -11.8473], [-69.5143, -11.8405], [-69.5272, -11.8418], [-69.5269, -11.8273], [-69.5376, -11.8243], [-69.5365, -11.8204], [-69.5489, -11.8203], [-69.5468, -11.8138], [-69.5532, -11.8118], [-69.5581, -11.8002], [-69.5843, -11.7956], [-69.582, -11.7868], [-69.5878, -11.7773], [-69.6121, -11.7741], [-69.6121, -11.7675], [-69.6266, -11.7602], [-69.6322, -11.7663], [-69.6369, -11.762], [-69.6443, -11.7654], [-69.6476, -11.7705], [-69.6552, -11.7588], [-69.6677, -11.7584], [-69.6667, -11.7635], [-69.6762, -11.77], [-69.6779, -11.7651], [-69.6942, -11.7697], [-69.6964, -11.7807], [-69.7073, -11.7839], [-69.7105, -11.7948], [-69.7209, -11.7905], [-69.7267, -11.8004], [-69.7225, -11.8032], [-69.725, -11.8062], [-69.7396, -11.7963], [-69.7588, -11.8072], [-69.7732, -11.7961], [-69.7786, -11.7992], [-69.7882, -11.7941], [-69.8032, -11.7957], [-69.8088, -11.7912], [-69.8074, -11.786], [-69.814, -11.7829], [-69.8285, -11.7901], [-69.8412, -11.7811], [-69.8607, -11.7793], [-69.8733, -11.7666], [-69.8797, -11.7692], [-69.8982, -11.7598], [-69.9089, -11.7456], [-69.9081, -11.7373], [-69.921, -11.7394], [-69.9229, -11.727], [-69.9275, -11.7259], [-69.9365, -11.7352], [-69.9608, -11.7096], [-69.9839, -11.7129], [-69.9957, -11.7014], [-70.031, -11.71], [-70.0558, -11.6851], [-70.0721, -11.681], [-70.0774, -11.6702], [-70.0903, -11.6756], [-70.1158, -11.6666], [-70.1293, -11.6536], [-70.1326, -11.6558], [-70.1352, -11.6442], [-70.1444, -11.6445], [-70.1495, -11.6382], [-70.1781, -11.6265], [-70.1873, -11.6165], [-70.1917, -11.6022], [-70.2144, -11.5853], [-70.2179, -11.5716], [-70.2401, -11.5584], [-70.2411, -11.5429], [-70.2567, -11.5309], [-70.2613, -11.5105], [-70.2743, -11.4961], [-70.2793, -11.4749], [-70.2875, -11.4704], [-70.2899, -11.4612], [-70.3044, -11.4521], [-70.3293, -11.4526], [-70.3416, -11.4456], [-70.3578, -11.4538], [-70.3773, -11.434], [-70.401, -11.435], [-70.4131, -11.4309], [-70.4309, -11.4137], [-70.4351, -11.4035], [-70.4519, -11.3962], [-70.4539, -11.3732], [-70.4764, -11.3523], [-70.7441, -11.3816], [-70.7501, -11.3747], [-70.7478, -11.3837], [-70.7566, -11.3792], [-70.7688, -11.3843], [-70.7757, -11.3727], [-70.7737, -11.3665], [-70.7827, -11.3615], [-70.7942, -11.3412], [-70.8005, -11.3427], [-70.7932, -11.349], [-70.7936, -11.361], [-70.804, -11.3482], [-70.8186, -11.3477], [-70.8127, -11.3243], [-70.8238, -11.3187], [-70.832, -11.3276], [-70.8399, -11.3233], [-70.8464, -11.327], [-70.8528, -11.3184], [-70.876, -11.3124], [-70.8629, -11.2923], [-70.8608, -11.2781], [-70.8649, -11.2738], [-70.8794, -11.2741], [-70.8748, -11.2838], [-70.8782, -11.2877], [-70.887, -11.2823], [-70.8955, -11.2889], [-70.9031, -11.2837], [-70.9111, -11.2942], [-70.9074, -11.2768], [-70.9134, -11.2775], [-70.9239, -11.2904], [-70.927, -11.2878], [-70.924, -11.2785], [-70.9316, -11.2756], [-70.9423, -11.291], [-70.947, -11.28], [-70.9603, -11.2759], [-70.9645, -11.2681], [-70.98, -11.2689], [-70.9866, -11.2624], [-70.9972, -11.2617], [-71.0013, -11.2537], [-71.0055, -11.2541], [-71.0073, -11.2638], [-71.0149, -11.2642], [-71.0184, -11.2457], [-71.0273, -11.2439], [-71.0297, -11.2571], [-71.0369, -11.2602], [-71.0341, -11.2453], [-71.0484, -11.2502], [-71.0586, -11.2379], [-71.063, -11.2502], [-71.0683, -11.2516], [-71.0687, -11.2355], [-71.0755, -11.2327], [-71.0817, -11.2364], [-71.0914, -11.23], [-71.0963, -11.2329], [-71.0917, -11.2394], [-71.0954, -11.241], [-71.1056, -11.2319], [-71.0991, -11.225], [-71.1008, -11.2203], [-71.1124, -11.2261], [-71.1155, -11.2372], [-71.1208, -11.2394], [-71.1333, -11.2211], [-71.1559, -11.2267], [-71.1613, -11.2097], [-71.1738, -11.215], [-71.1771, -11.2292], [-71.1915, -11.2124], [-71.2179, -11.2101], [-71.2202, -11.2003], [-71.2263, -11.2034], [-71.2277, -11.2135], [-71.2363, -11.2187], [-71.2329, -11.2003], [-71.2438, -11.1957], [-71.247, -11.1804], [-71.253, -11.1914], [-71.2622, -11.1933], [-71.2784, -11.1798], [-71.2864, -11.1868], [-71.3008, -11.18], [-71.3111, -11.1859], [-71.3154, -11.1811], [-71.3099, -11.169], [-71.3314, -11.1712], [-71.336, -11.155], [-71.3475, -11.1644], [-71.3721, -11.1647], [-71.3757, -11.1692], [-71.3694, -11.1749], [-71.3747, -11.1785], [-71.3813, -11.1719], [-71.3749, -11.162], [-71.3839, -11.1486], [-71.3977, -11.1518], [-71.4197, -11.137], [-71.4375, -11.1394], [-71.4399, -11.1358], [-71.4339, -11.1301], [-71.4396, -11.1231], [-71.4451, -11.1324], [-71.4511, -11.1323], [-71.4519, -11.1262], [-71.4437, -11.1258], [-71.4456, -11.1158], [-71.436, -11.1121], [-71.4424, -11.1032], [-71.4493, -11.1107], [-71.4588, -11.1048], [-71.4746, -11.1063], [-71.485, -11.0931], [-71.4969, -11.0903], [-71.4934, -11.1023], [-71.4968, -11.1067], [-71.5111, -11.1008], [-71.5277, -11.0856], [-71.5358, -11.0871], [-71.5395, -11.1], [-71.5461, -11.0816], [-71.558, -11.0933], [-71.5694, -11.0835], [-71.5791, -11.0897], [-71.584, -11.1041], [-71.5898, -11.1022], [-71.5888, -11.0925], [-71.5953, -11.0903], [-71.61, -11.0975], [-71.6227, -11.0924], [-71.63, -11.1056], [-71.6339, -11.0993], [-71.6304, -11.0951], [-71.6378, -11.089], [-71.6461, -11.0984], [-71.653, -11.0925], [-71.6714, -11.0938], [-71.6799, -11.1072], [-71.6833, -11.1052], [-71.6805, -11.1002], [-71.6876, -11.1018], [-71.6935, -11.0926], [-71.708, -11.0892], [-71.715, -11.0813], [-71.7128, -11.0701], [-71.7224, -11.072], [-71.7241, -11.0645], [-71.7526, -11.0866], [-71.7505, -11.0813], [-71.7561, -11.073], [-71.7912, -11.0782], [-71.7967, -11.0691], [-71.8075, -11.0719], [-71.812, -11.0703], [-71.8102, -11.0642], [-71.82, -11.0666], [-71.8233, -11.0593], [-71.8317, -11.0588], [-71.836, -11.053], [-71.834, -11.0474], [-71.843, -11.0533], [-71.8511, -11.043], [-71.8553, -11.0481], [-71.855, -11.0421], [-71.8692, -11.0335], [-71.8702, -11.0385], [-71.8596, -11.0472], [-71.8618, -11.0534], [-71.8754, -11.0502], [-71.8756, -11.0586], [-71.8916, -11.06], [-71.8981, -11.0668], [-71.902, -11.0641], [-71.8966, -11.0614], [-71.9045, -11.0594], [-71.8997, -11.0467], [-71.9054, -11.0434], [-71.9111, -11.05], [-71.9125, -11.0408], [-71.9168, -11.0504], [-71.9233, -11.0464], [-71.9328, -11.053], [-71.9406, -11.0522], [-71.9411, -11.0618], [-71.9551, -11.0521], [-71.9613, -11.0591], [-71.9713, -11.0585], [-71.9703, -11.0536], [-71.9783, -11.0525], [-71.9817, -11.0612], [-71.9817, -11.0547], [-71.9976, -11.0583], [-71.9997, -11.0541], [-72.0137, -11.0567], [-72.012, -11.0607], [-72.018, -11.0637], [-72.036, -11.065], [-72.0333, -11.0585], [-72.0445, -11.0605], [-72.0443, -11.0654], [-72.0518, -11.0669], [-72.0528, -11.0713], [-72.0548, -11.0616], [-72.0671, -11.0661], [-72.0788, -11.0548], [-72.0829, -11.058], [-72.0811, -11.0651], [-72.0917, -11.0715], [-72.0897, -11.0774], [-72.0969, -11.0836], [-72.1072, -11.0786], [-72.1114, -11.0831], [-72.1385, -11.0836], [-72.1599, -11.0648], [-72.1603, -11.0511], [-72.1698, -11.049], [-72.1776, -11.0407], [-72.1905, -11.0436], [-72.1931, -11.0497], [-72.1825, -11.0578], [-72.187, -11.0686], [-72.1833, -11.0926], [-72.1788, -11.0976], [-72.1732, -11.0919], [-72.1518, -11.0864], [-72.131, -11.0987], [-72.1308, -11.1036], [-72.1232, -11.1036], [-72.1202, -11.1181], [-72.135, -11.1356], [-72.167, -11.1422], [-72.1765, -11.1591], [-72.1843, -11.1555], [-72.1879, -11.1637], [-72.1939, -11.1567], [-72.1992, -11.1683], [-72.2068, -11.1723], [-72.1959, -11.174], [-72.1865, -11.1849], [-72.1994, -11.1978], [-72.1971, -11.2279], [-72.2052, -11.2399], [-72.1994, -11.2642], [-72.2063, -11.2674], [-72.2189, -11.2969], [-72.2046, -11.3474]]]}}]}