{"type": "FeatureCollection", "parent": {"osm_id": 1898458, "name": "Hà Tĩnh Province", "admin_level": "4", "kind": "subdivision_1", "child_kind": "subdivision_2", "iso": "VN-23"}, "features": [{"type": "Feature", "properties": {"osm_type": "relation", "osm_id": 796498494, "name": "Cam Xuyen", "admin_level": "6", "kind": "subdivision_2", "parent_osm_id": 1898458, "parent_name": "Hà Tĩnh Province", "parent_iso": "VN-23"}, "geometry": {"type": "MultiPolygon", "coordinates": [[[[106.1161, 18.2816], [106.1159, 18.2805], [106.1185, 18.2799], [106.1161, 18.2816]]], [[[106.1213, 18.2819], [106.1203, 18.2803], [106.1226, 18.2807], [106.1213, 18.2819]]], [[[106.1516, 18.2683], [106.1221, 18.266], [106.1001, 18.2757], [106.0255, 18.3462], [105.9835, 18.3032], [105.9693, 18.3174], [105.9572, 18.32], [105.9517, 18.316], [105.9434, 18.3178], [105.9379, 18.3092], [105.9052, 18.3088], [105.906, 18.3025], [105.9114, 18.3061], [105.922, 18.3019], [105.9122, 18.2727], [105.9161, 18.2683], [105.9098, 18.2615], [105.8975, 18.2593], [105.8969, 18.2489], [105.8869, 18.2443], [105.8924, 18.2301], [105.8779, 18.2185], [105.8763, 18.2053], [105.8836, 18.1895], [105.8593, 18.1712], [105.8646, 18.1551], [105.8545, 18.1474], [105.8561, 18.1405], [105.8676, 18.1366], [105.8787, 18.1406], [105.8877, 18.136], [105.8939, 18.1251], [105.9134, 18.1144], [105.9179, 18.1035], [105.9457, 18.0737], [105.9511, 18.0582], [105.9674, 18.0556], [105.986, 18.0642], [106.0161, 18.0343], [106.0184, 18.0401], [106.0147, 18.0443], [106.0233, 18.0466], [106.0256, 18.0555], [106.0224, 18.0643], [106.0365, 18.0779], [106.0417, 18.0898], [106.0531, 18.0905], [106.0626, 18.1006], [106.073, 18.0987], [106.0862, 18.1209], [106.0979, 18.1169], [106.1081, 18.1237], [106.1148, 18.1179], [106.1332, 18.1213], [106.143, 18.1494], [106.1383, 18.1903], [106.132, 18.1982], [106.1373, 18.2003], [106.1333, 18.2078], [106.1254, 18.2091], [106.1328, 18.2179], [106.126, 18.2301], [106.146, 18.2441], [106.1516, 18.2683]]]]}}, {"type": "Feature", "properties": {"osm_type": "relation", "osm_id": 207391924, "name": "Can Loc", "admin_level": "6", "kind": "subdivision_2", "parent_osm_id": 1898458, "parent_name": "Hà Tĩnh Province", "parent_iso": "VN-23"}, "geometry": {"type": "Polygon", "coordinates": [[[105.815, 18.5418], [105.8037, 18.5487], [105.7597, 18.5455], [105.7478, 18.5333], [105.7489, 18.516], [105.7426, 18.4987], [105.727, 18.49], [105.7131, 18.4909], [105.7068, 18.4967], [105.7005, 18.4877], [105.6944, 18.4889], [105.6881, 18.4981], [105.6811, 18.4954], [105.6828, 18.5039], [105.6782, 18.5107], [105.6739, 18.5097], [105.6612, 18.491], [105.6617, 18.48], [105.6456, 18.4817], [105.6461, 18.4615], [105.6377, 18.4594], [105.6347, 18.4513], [105.6385, 18.4289], [105.6307, 18.4186], [105.6452, 18.4107], [105.6437, 18.3989], [105.6366, 18.3934], [105.6496, 18.387], [105.6663, 18.3684], [105.6917, 18.3566], [105.7217, 18.3501], [105.7364, 18.3376], [105.7499, 18.3466], [105.7536, 18.3568], [105.7691, 18.3533], [105.7732, 18.3611], [105.7778, 18.3594], [105.7766, 18.3685], [105.7823, 18.3689], [105.788, 18.3825], [105.792, 18.3804], [105.7962, 18.3851], [105.7884, 18.3938], [105.7957, 18.3944], [105.7948, 18.4012], [105.7875, 18.4002], [105.7881, 18.408], [105.777, 18.4123], [105.7828, 18.4169], [105.7801, 18.4203], [105.7847, 18.4219], [105.7844, 18.4303], [105.8039, 18.4175], [105.8091, 18.4245], [105.8035, 18.4277], [105.8062, 18.4372], [105.8216, 18.4375], [105.8319, 18.4468], [105.8306, 18.4535], [105.8202, 18.4539], [105.8268, 18.4738], [105.8186, 18.4823], [105.8114, 18.4826], [105.8108, 18.4954], [105.8163, 18.5052], [105.815, 18.5418]]]}}, {"type": "Feature", "properties": {"osm_type": "relation", "osm_id": 921447330, "name": "Duc Tho", "admin_level": "6", "kind": "subdivision_2", "parent_osm_id": 1898458, "parent_name": "Hà Tĩnh Province", "parent_iso": "VN-23"}, "geometry": {"type": "Polygon", "coordinates": [[[105.6767, 18.5116], [105.6798, 18.5223], [105.6876, 18.5271], [105.6789, 18.5339], [105.6758, 18.5293], [105.6746, 18.5341], [105.6644, 18.538], [105.6738, 18.5476], [105.6731, 18.5545], [105.6606, 18.5573], [105.6707, 18.5784], [105.6652, 18.5828], [105.6576, 18.5825], [105.6289, 18.5639], [105.6231, 18.5655], [105.6164, 18.5772], [105.5994, 18.5771], [105.5898, 18.5727], [105.5836, 18.5587], [105.5521, 18.5571], [105.5462, 18.5521], [105.5514, 18.5435], [105.5478, 18.5387], [105.55, 18.5276], [105.5542, 18.5262], [105.5535, 18.5122], [105.5385, 18.4956], [105.5531, 18.4844], [105.5488, 18.474], [105.5404, 18.4696], [105.5426, 18.4504], [105.5392, 18.4423], [105.5449, 18.4247], [105.5635, 18.4287], [105.5923, 18.4055], [105.5968, 18.4072], [105.5987, 18.4175], [105.6064, 18.4087], [105.6366, 18.3934], [105.6437, 18.3989], [105.6452, 18.4107], [105.6307, 18.4186], [105.6385, 18.4289], [105.6347, 18.4513], [105.6377, 18.4594], [105.6461, 18.4615], [105.6456, 18.4817], [105.6617, 18.48], [105.6612, 18.491], [105.6767, 18.5116]]]}}, {"type": "Feature", "properties": {"osm_type": "relation", "osm_id": 309076189, "name": "Ha Tinh", "admin_level": "6", "kind": "subdivision_2", "parent_osm_id": 1898458, "parent_name": "Hà Tĩnh Province", "parent_iso": "VN-23"}, "geometry": {"type": "Polygon", "coordinates": [[[105.9418, 18.3168], [105.943, 18.3266], [105.9316, 18.33], [105.934, 18.335], [105.924, 18.3349], [105.9191, 18.3414], [105.9259, 18.3459], [105.9253, 18.3545], [105.9388, 18.3529], [105.9309, 18.3596], [105.9351, 18.3676], [105.9294, 18.3755], [105.9312, 18.3893], [105.9201, 18.3963], [105.9083, 18.3937], [105.9028, 18.4014], [105.8856, 18.3966], [105.8783, 18.3878], [105.8739, 18.3895], [105.8711, 18.3824], [105.8756, 18.3763], [105.8665, 18.369], [105.8717, 18.3526], [105.8612, 18.3454], [105.8616, 18.3381], [105.8722, 18.3281], [105.886, 18.3294], [105.9042, 18.323], [105.9052, 18.3088], [105.9379, 18.3092], [105.9418, 18.3168]]]}}, {"type": "Feature", "properties": {"osm_type": "relation", "osm_id": 826275286, "name": "Hong Linh", "admin_level": "6", "kind": "subdivision_2", "parent_osm_id": 1898458, "parent_name": "Hà Tĩnh Province", "parent_iso": "VN-23"}, "geometry": {"type": "Polygon", "coordinates": [[[105.7656, 18.5487], [105.7492, 18.5565], [105.7302, 18.545], [105.7216, 18.5461], [105.7166, 18.5534], [105.7202, 18.5682], [105.7147, 18.5678], [105.7111, 18.5604], [105.6934, 18.5688], [105.6807, 18.5673], [105.6726, 18.5802], [105.6606, 18.5573], [105.6731, 18.5545], [105.6738, 18.5476], [105.6644, 18.538], [105.6746, 18.5341], [105.6758, 18.5293], [105.6789, 18.5339], [105.6876, 18.5271], [105.6768, 18.5153], [105.6828, 18.5039], [105.6811, 18.4954], [105.6881, 18.4981], [105.6944, 18.4889], [105.7005, 18.4877], [105.7068, 18.4967], [105.7131, 18.4909], [105.727, 18.49], [105.7426, 18.4987], [105.7489, 18.516], [105.7478, 18.5333], [105.7656, 18.5487]]]}}, {"type": "Feature", "properties": {"osm_type": "relation", "osm_id": 860219390, "name": "Huong Khe", "admin_level": "6", "kind": "subdivision_2", "parent_osm_id": 1898458, "parent_name": "Hà Tĩnh Province", "parent_iso": "VN-23"}, "geometry": {"type": "Polygon", "coordinates": [[[105.8593, 18.1712], [105.8694, 18.1946], [105.8599, 18.2102], [105.8414, 18.221], [105.8398, 18.2313], [105.8323, 18.236], [105.8388, 18.2552], [105.8296, 18.2566], [105.8001, 18.2798], [105.7905, 18.2973], [105.7664, 18.2992], [105.7568, 18.294], [105.7511, 18.2975], [105.761, 18.3145], [105.7339, 18.3281], [105.7364, 18.3376], [105.732, 18.3433], [105.6663, 18.3684], [105.6496, 18.387], [105.6366, 18.3934], [105.6254, 18.3817], [105.6103, 18.3476], [105.6193, 18.3397], [105.6156, 18.3308], [105.6045, 18.3263], [105.6031, 18.3323], [105.5946, 18.3325], [105.5918, 18.3142], [105.5833, 18.3149], [105.5739, 18.3065], [105.5644, 18.3081], [105.5599, 18.298], [105.5493, 18.2944], [105.5329, 18.3066], [105.5075, 18.3076], [105.5025, 18.3028], [105.5018, 18.3075], [105.4938, 18.307], [105.4791, 18.2679], [105.4659, 18.2588], [105.4516, 18.2067], [105.4805, 18.196], [105.4911, 18.2029], [105.4937, 18.2004], [105.4869, 18.1857], [105.4884, 18.1767], [105.4938, 18.1767], [105.5001, 18.1897], [105.5125, 18.1496], [105.5041, 18.1408], [105.5058, 18.1245], [105.5113, 18.1198], [105.5132, 18.1245], [105.5222, 18.1258], [105.5352, 18.1159], [105.5401, 18.082], [105.5711, 18.084], [105.5765, 18.0698], [105.5729, 18.0642], [105.5804, 18.0618], [105.5851, 18.0433], [105.5794, 18.0266], [105.5842, 18.0105], [105.5933, 18.009], [105.5981, 18.0023], [105.6132, 18.0119], [105.6338, 17.9919], [105.7064, 17.9928], [105.7221, 18.008], [105.7206, 18.0214], [105.7309, 18.0342], [105.7385, 18.0368], [105.7774, 18.0171], [105.7885, 18.0253], [105.81, 18.0261], [105.8078, 18.0318], [105.8168, 18.038], [105.8286, 18.0319], [105.8351, 18.042], [105.813, 18.0528], [105.8197, 18.0609], [105.8514, 18.0676], [105.8708, 18.0664], [105.8954, 18.09], [105.9121, 18.087], [105.9189, 18.0807], [105.9318, 18.089], [105.9134, 18.1144], [105.8939, 18.1251], [105.8877, 18.136], [105.8787, 18.1406], [105.8676, 18.1366], [105.8561, 18.1405], [105.8545, 18.1474], [105.8646, 18.1551], [105.8593, 18.1712]]]}}, {"type": "Feature", "properties": {"osm_type": "relation", "osm_id": 230373821, "name": "Huong Son", "admin_level": "6", "kind": "subdivision_2", "parent_osm_id": 1898458, "parent_name": "Hà Tĩnh Province", "parent_iso": "VN-23"}, "geometry": {"type": "Polygon", "coordinates": [[[105.5462, 18.5521], [105.5309, 18.5609], [105.5151, 18.5992], [105.5019, 18.6109], [105.4765, 18.6141], [105.4766, 18.6076], [105.4408, 18.5985], [105.4348, 18.5875], [105.4214, 18.5855], [105.4181, 18.5908], [105.3975, 18.5798], [105.3772, 18.5784], [105.3387, 18.5904], [105.3302, 18.6018], [105.3049, 18.6073], [105.2944, 18.6223], [105.2882, 18.6197], [105.2816, 18.6237], [105.2582, 18.6156], [105.2409, 18.6045], [105.2288, 18.5879], [105.2179, 18.5976], [105.1811, 18.6025], [105.1599, 18.6136], [105.135, 18.5918], [105.1387, 18.5838], [105.1339, 18.5702], [105.1401, 18.5621], [105.1285, 18.5561], [105.1287, 18.5482], [105.1151, 18.5388], [105.1154, 18.5276], [105.1203, 18.523], [105.111, 18.5123], [105.1136, 18.4912], [105.1035, 18.4474], [105.1099, 18.4347], [105.1186, 18.4323], [105.1207, 18.4192], [105.1303, 18.4153], [105.1402, 18.4196], [105.1374, 18.4097], [105.1473, 18.4036], [105.1506, 18.3886], [105.1653, 18.3871], [105.1672, 18.392], [105.1728, 18.3921], [105.1846, 18.3863], [105.1785, 18.3712], [105.1903, 18.3462], [105.1843, 18.3248], [105.2085, 18.3143], [105.2176, 18.3029], [105.2309, 18.3028], [105.2431, 18.2964], [105.2581, 18.2678], [105.2739, 18.2689], [105.2995, 18.2791], [105.3011, 18.2936], [105.308, 18.2953], [105.3074, 18.313], [105.3187, 18.3242], [105.332, 18.3509], [105.3329, 18.3626], [105.3419, 18.3752], [105.3498, 18.3796], [105.3695, 18.3698], [105.3856, 18.3737], [105.3955, 18.4024], [105.3774, 18.4154], [105.3934, 18.4486], [105.4007, 18.4379], [105.4174, 18.4453], [105.4363, 18.4289], [105.4539, 18.4326], [105.4822, 18.4075], [105.4874, 18.4217], [105.4806, 18.432], [105.5048, 18.4533], [105.5042, 18.4705], [105.5112, 18.4788], [105.5076, 18.4863], [105.511, 18.4901], [105.5231, 18.4818], [105.5403, 18.4914], [105.5391, 18.4978], [105.5535, 18.5122], [105.5542, 18.5262], [105.55, 18.5276], [105.5478, 18.5387], [105.5514, 18.5435], [105.5462, 18.5521]]]}}, {"type": "Feature", "properties": {"osm_type": "relation", "osm_id": 942926177, "name": "Ky Anh", "admin_level": "6", "kind": "subdivision_2", "parent_osm_id": 1898458, "parent_name": "Hà Tĩnh Province", "parent_iso": "VN-23"}, "geometry": {"type": "MultiPolygon", "coordinates": [[[[106.4574, 18.1004], [106.4642, 18.1018], [106.4636, 18.1074], [106.4545, 18.1026], [106.4523, 18.1], [106.4574, 18.1004]]], [[[106.4896, 18.1167], [106.4893, 18.1177], [106.4877, 18.1169], [106.4896, 18.1167]]], [[[106.0161, 18.0343], [106.02, 18.0256], [106.0327, 18.0214], [106.0462, 18.0288], [106.0712, 17.9952], [106.0475, 17.9638], [106.0455, 17.9464], [106.077, 17.9333], [106.1187, 17.9278], [106.1393, 17.9189], [106.1689, 17.9145], [106.1909, 17.9233], [106.1998, 17.9165], [106.2092, 17.926], [106.2407, 17.9303], [106.2636, 17.9142], [106.2754, 17.9194], [106.2842, 17.9084], [106.2912, 17.9215], [106.2843, 17.9348], [106.2873, 17.942], [106.2961, 17.9452], [106.3059, 17.9629], [106.3248, 17.9631], [106.3298, 17.9798], [106.3401, 17.9918], [106.3996, 17.9815], [106.4102, 17.9728], [106.4176, 17.9742], [106.4231, 17.9696], [106.4357, 17.9727], [106.4441, 17.969], [106.4444, 17.952], [106.4503, 17.9495], [106.4693, 17.9562], [106.4793, 17.9533], [106.4943, 17.9606], [106.5106, 17.96], [106.4931, 17.967], [106.4826, 17.9894], [106.4695, 17.998], [106.457, 18.0159], [106.4382, 18.0517], [106.4208, 18.0916], [106.4207, 18.1027], [106.4351, 18.1223], [106.4157, 18.1242], [106.4059, 18.1112], [106.4074, 18.1014], [106.4015, 18.099], [106.3635, 18.1085], [106.3044, 18.158], [106.2527, 18.2151], [106.2353, 18.2164], [106.1608, 18.2677], [106.1516, 18.2683], [106.146, 18.2441], [106.126, 18.2301], [106.1328, 18.2179], [106.1254, 18.2091], [106.1333, 18.2078], [106.1373, 18.2003], [106.132, 18.1982], [106.1383, 18.1903], [106.143, 18.1494], [106.1332, 18.1213], [106.1148, 18.1179], [106.1081, 18.1237], [106.0979, 18.1169], [106.0862, 18.1209], [106.073, 18.0987], [106.0626, 18.1006], [106.0531, 18.0905], [106.0417, 18.0898], [106.0365, 18.0779], [106.0224, 18.0643], [106.0256, 18.0555], [106.0233, 18.0466], [106.0147, 18.0443], [106.0184, 18.0401], [106.0161, 18.0343]]]]}}, {"type": "Feature", "properties": {"osm_type": "relation", "osm_id": 543226146, "name": "Loc Ha", "admin_level": "6", "kind": "subdivision_2", "parent_osm_id": 1898458, "parent_name": "Hà Tĩnh Province", "parent_iso": "VN-23"}, "geometry": {"type": "Polygon", "coordinates": [[[105.8216, 18.4375], [105.8255, 18.4292], [105.8349, 18.4301], [105.8352, 18.4235], [105.8443, 18.4154], [105.8485, 18.419], [105.842, 18.4284], [105.8455, 18.432], [105.8552, 18.4328], [105.8573, 18.4243], [105.8668, 18.4226], [105.8637, 18.4099], [105.8806, 18.3987], [105.8739, 18.3895], [105.8783, 18.3878], [105.9147, 18.4132], [105.9122, 18.4405], [105.9248, 18.4512], [105.8672, 18.5296], [105.8601, 18.5241], [105.8527, 18.525], [105.8427, 18.5332], [105.838, 18.5456], [105.815, 18.5418], [105.8137, 18.5344], [105.8163, 18.5052], [105.8108, 18.4954], [105.8114, 18.4826], [105.8186, 18.4823], [105.8268, 18.4738], [105.8202, 18.4539], [105.8306, 18.4535], [105.8319, 18.4468], [105.8216, 18.4375]]]}}, {"type": "Feature", "properties": {"osm_type": "relation", "osm_id": 816434398, "name": "Nghi Xuan", "admin_level": "6", "kind": "subdivision_2", "parent_osm_id": 1898458, "parent_name": "Hà Tĩnh Province", "parent_iso": "VN-23"}, "geometry": {"type": "MultiPolygon", "coordinates": [[[[105.815, 18.5418], [105.838, 18.5456], [105.8427, 18.5332], [105.8527, 18.525], [105.8601, 18.5241], [105.8672, 18.5296], [105.8137, 18.6267], [105.799, 18.6691], [105.7772, 18.7605], [105.7618, 18.764], [105.7419, 18.7455], [105.7667, 18.6877], [105.7676, 18.6732], [105.7511, 18.6676], [105.7276, 18.6725], [105.7188, 18.6695], [105.7023, 18.6326], [105.6904, 18.6278], [105.6878, 18.5912], [105.6726, 18.5802], [105.6807, 18.5673], [105.6934, 18.5688], [105.7111, 18.5604], [105.7147, 18.5678], [105.7202, 18.5682], [105.7166, 18.5534], [105.7216, 18.5461], [105.7302, 18.545], [105.7492, 18.5565], [105.7898, 18.5447], [105.8037, 18.5487], [105.815, 18.5418]]], [[[105.9653, 18.791], [105.9644, 18.7967], [105.9532, 18.8048], [105.9653, 18.791]]]]}}, {"type": "Feature", "properties": {"osm_type": "relation", "osm_id": 557507644, "name": "Thach Ha", "admin_level": "6", "kind": "subdivision_2", "parent_osm_id": 1898458, "parent_name": "Hà Tĩnh Province", "parent_iso": "VN-23"}, "geometry": {"type": "MultiPolygon", "coordinates": [[[[105.9052, 18.3088], [105.9042, 18.323], [105.886, 18.3294], [105.8722, 18.3281], [105.8607, 18.3398], [105.8612, 18.3454], [105.8717, 18.3526], [105.8665, 18.369], [105.8756, 18.3763], [105.8714, 18.3862], [105.8806, 18.3987], [105.8637, 18.4099], [105.8668, 18.4226], [105.8573, 18.4243], [105.8552, 18.4328], [105.8455, 18.432], [105.842, 18.4284], [105.8485, 18.419], [105.8443, 18.4154], [105.8352, 18.4235], [105.8349, 18.4301], [105.8255, 18.4292], [105.8216, 18.4375], [105.8062, 18.4372], [105.8035, 18.4277], [105.8091, 18.4245], [105.8039, 18.4175], [105.7844, 18.4303], [105.7847, 18.4219], [105.7801, 18.4203], [105.7828, 18.4169], [105.777, 18.4123], [105.7881, 18.408], [105.7875, 18.4002], [105.797, 18.3977], [105.7884, 18.3938], [105.795, 18.3816], [105.788, 18.3825], [105.7877, 18.3745], [105.7827, 18.3754], [105.7823, 18.3689], [105.7766, 18.3685], [105.7786, 18.3606], [105.7732, 18.3611], [105.7691, 18.3533], [105.7536, 18.3568], [105.7499, 18.3466], [105.7364, 18.3376], [105.7339, 18.3281], [105.761, 18.3145], [105.7511, 18.2975], [105.7568, 18.294], [105.7664, 18.2992], [105.7905, 18.2973], [105.8001, 18.2798], [105.8296, 18.2566], [105.8388, 18.2552], [105.8323, 18.236], [105.8398, 18.2313], [105.8414, 18.221], [105.8599, 18.2102], [105.8694, 18.1946], [105.8593, 18.1712], [105.8836, 18.1895], [105.8763, 18.2053], [105.8779, 18.2185], [105.8924, 18.2301], [105.8869, 18.2443], [105.8969, 18.2489], [105.8975, 18.2593], [105.9098, 18.2615], [105.9161, 18.2683], [105.9122, 18.2727], [105.922, 18.3019], [105.9114, 18.3061], [105.906, 18.3025], [105.9052, 18.3088]]], [[[106.0255, 18.3462], [105.9597, 18.4281], [105.9399, 18.4614], [105.9424, 18.4718], [105.9392, 18.4699], [105.9297, 18.4516], [105.9176, 18.4486], [105.9122, 18.4405], [105.9164, 18.4169], [105.9028, 18.4014], [105.9083, 18.3937], [105.9201, 18.3963], [105.9312, 18.3893], [105.9294, 18.3755], [105.9351, 18.3676], [105.9309, 18.3596], [105.9388, 18.3529], [105.9253, 18.3545], [105.9259, 18.3459], [105.9191, 18.3414], [105.924, 18.3349], [105.934, 18.335], [105.9316, 18.33], [105.943, 18.3266], [105.9418, 18.3168], [105.9693, 18.3174], [105.9835, 18.3032], [106.0255, 18.3462]]]]}}, {"type": "Feature", "properties": {"osm_type": "relation", "osm_id": 874196395, "name": "Vu Quang", "admin_level": "6", "kind": "subdivision_2", "parent_osm_id": 1898458, "parent_name": "Hà Tĩnh Province", "parent_iso": "VN-23"}, "geometry": {"type": "Polygon", "coordinates": [[[105.5414, 18.4943], [105.5231, 18.4818], [105.511, 18.4901], [105.5076, 18.4863], [105.5112, 18.4788], [105.5042, 18.4705], [105.5048, 18.4533], [105.4806, 18.432], [105.4874, 18.4217], [105.4822, 18.4075], [105.4539, 18.4326], [105.4363, 18.4289], [105.4174, 18.4453], [105.4007, 18.4379], [105.3934, 18.4486], [105.3774, 18.4154], [105.3955, 18.4024], [105.3856, 18.3737], [105.3695, 18.3698], [105.3498, 18.3796], [105.3419, 18.3752], [105.3329, 18.3626], [105.332, 18.3509], [105.3187, 18.3242], [105.3074, 18.313], [105.308, 18.2953], [105.3011, 18.2936], [105.2995, 18.2791], [105.256, 18.2645], [105.2554, 18.2549], [105.2707, 18.2598], [105.2771, 18.254], [105.2817, 18.2608], [105.2881, 18.2548], [105.2993, 18.2548], [105.2957, 18.2441], [105.2999, 18.2362], [105.3104, 18.2661], [105.3286, 18.2646], [105.3313, 18.2527], [105.3232, 18.228], [105.3259, 18.2098], [105.3199, 18.2004], [105.3288, 18.1919], [105.3376, 18.1912], [105.3362, 18.1824], [105.3519, 18.1842], [105.3679, 18.1609], [105.3764, 18.1603], [105.3763, 18.1655], [105.3835, 18.17], [105.3922, 18.1596], [105.4005, 18.1605], [105.4093, 18.1541], [105.4205, 18.1836], [105.4382, 18.1804], [105.4466, 18.1943], [105.4425, 18.2042], [105.4523, 18.205], [105.4561, 18.2149], [105.4659, 18.2588], [105.4791, 18.2679], [105.4938, 18.307], [105.5018, 18.3075], [105.5025, 18.3028], [105.5075, 18.3076], [105.5329, 18.3066], [105.5493, 18.2944], [105.5599, 18.298], [105.5644, 18.3081], [105.5739, 18.3065], [105.5833, 18.3149], [105.5918, 18.3142], [105.5946, 18.3325], [105.6031, 18.3323], [105.6045, 18.3263], [105.6156, 18.3308], [105.6193, 18.3397], [105.6103, 18.3476], [105.6254, 18.3817], [105.6366, 18.3934], [105.6064, 18.4087], [105.5987, 18.4175], [105.5968, 18.4072], [105.5923, 18.4055], [105.5635, 18.4287], [105.5449, 18.4247], [105.5392, 18.4423], [105.5426, 18.4504], [105.5404, 18.4696], [105.5488, 18.474], [105.5531, 18.4844], [105.5414, 18.4943]]]}}]}