{"type": "FeatureCollection", "parent": {"osm_id": 1902930, "name": "Phú Thọ Province", "admin_level": "4", "kind": "subdivision_1", "child_kind": "subdivision_2", "iso": "VN-68"}, "features": [{"type": "Feature", "properties": {"osm_type": "relation", "osm_id": 390120483, "name": "Cam Khe", "admin_level": "6", "kind": "subdivision_2", "parent_osm_id": 1902930, "parent_name": "Phú Thọ Province", "parent_iso": "VN-68"}, "geometry": {"type": "Polygon", "coordinates": [[[105.0791, 21.481], [105.045, 21.4982], [105.0488, 21.488], [105.0424, 21.4876], [105.0305, 21.4954], [105.0211, 21.4918], [105.0125, 21.4987], [105.0018, 21.4933], [104.9851, 21.4999], [104.9789, 21.4935], [104.9802, 21.4861], [104.9839, 21.4736], [104.9971, 21.4664], [104.9959, 21.4362], [105.0215, 21.4158], [105.0315, 21.4015], [105.0787, 21.3651], [105.0847, 21.3535], [105.1007, 21.3588], [105.1121, 21.3471], [105.1197, 21.3487], [105.1236, 21.3428], [105.1193, 21.335], [105.1322, 21.3216], [105.1325, 21.3064], [105.1375, 21.302], [105.1346, 21.2959], [105.1402, 21.2896], [105.1496, 21.2894], [105.1468, 21.2702], [105.1648, 21.2724], [105.1706, 21.2896], [105.1855, 21.2931], [105.1877, 21.316], [105.1936, 21.3178], [105.2001, 21.3105], [105.2053, 21.3246], [105.1888, 21.3301], [105.1853, 21.361], [105.1664, 21.3767], [105.1569, 21.3931], [105.1523, 21.4275], [105.1369, 21.4312], [105.1284, 21.4425], [105.1018, 21.4568], [105.0791, 21.481]]]}}, {"type": "Feature", "properties": {"osm_type": "relation", "osm_id": 752202085, "name": "Doan Hung", "admin_level": "6", "kind": "subdivision_2", "parent_osm_id": 1902930, "parent_name": "Phú Thọ Province", "parent_iso": "VN-68"}, "geometry": {"type": "Polygon", "coordinates": [[[105.2355, 21.6587], [105.2051, 21.6625], [105.1777, 21.6872], [105.1655, 21.6884], [105.1555, 21.6813], [105.1565, 21.6874], [105.1481, 21.6997], [105.133, 21.6968], [105.1236, 21.7046], [105.1092, 21.7061], [105.1018, 21.7176], [105.0916, 21.7196], [105.0863, 21.7183], [105.0919, 21.7123], [105.0867, 21.7022], [105.0964, 21.7002], [105.1, 21.6896], [105.0947, 21.6781], [105.0874, 21.6831], [105.0725, 21.6821], [105.0615, 21.6897], [105.0581, 21.6855], [105.0497, 21.6881], [105.032, 21.7012], [105.0207, 21.6961], [105.0195, 21.6903], [105.0256, 21.6909], [105.0358, 21.68], [105.0262, 21.6692], [105.0174, 21.6425], [105.0359, 21.6355], [105.0343, 21.6263], [105.0411, 21.6266], [105.0439, 21.616], [105.0504, 21.6123], [105.0633, 21.6168], [105.088, 21.5993], [105.102, 21.5991], [105.1025, 21.5851], [105.1103, 21.5854], [105.1071, 21.5723], [105.1166, 21.5722], [105.1318, 21.5829], [105.1449, 21.5784], [105.1567, 21.5674], [105.1521, 21.5578], [105.1594, 21.5405], [105.1672, 21.5428], [105.1997, 21.5348], [105.2086, 21.5287], [105.1979, 21.5214], [105.1999, 21.5145], [105.2302, 21.5097], [105.2424, 21.512], [105.2467, 21.523], [105.2686, 21.5334], [105.2726, 21.5424], [105.2682, 21.5476], [105.2766, 21.5589], [105.2504, 21.5844], [105.2458, 21.598], [105.2535, 21.6025], [105.2512, 21.6112], [105.2343, 21.6174], [105.2262, 21.6296], [105.2394, 21.6444], [105.2355, 21.6587]]]}}, {"type": "Feature", "properties": {"osm_type": "relation", "osm_id": 634455512, "name": "Ha Hoa", "admin_level": "6", "kind": "subdivision_2", "parent_osm_id": 1902930, "parent_name": "Phú Thọ Province", "parent_iso": "VN-68"}, "geometry": {"type": "Polygon", "coordinates": [[[105.0791, 21.481], [105.0851, 21.4925], [105.0774, 21.5008], [105.0938, 21.5193], [105.1027, 21.5417], [105.1277, 21.5485], [105.1348, 21.5566], [105.1358, 21.5683], [105.1481, 21.5762], [105.1318, 21.5829], [105.1166, 21.5722], [105.1071, 21.5723], [105.1103, 21.5854], [105.1025, 21.5851], [105.102, 21.5991], [105.088, 21.5993], [105.0633, 21.6168], [105.0504, 21.6123], [105.0439, 21.616], [105.0411, 21.6266], [105.0343, 21.6263], [105.0359, 21.6355], [105.0174, 21.6425], [105.0262, 21.6692], [105.0358, 21.68], [105.0256, 21.6909], [104.9996, 21.6876], [105.0007, 21.6796], [104.9801, 21.6725], [104.9864, 21.6681], [104.9857, 21.6619], [104.973, 21.6568], [104.9718, 21.6462], [104.955, 21.6605], [104.9382, 21.6519], [104.9346, 21.6422], [104.918, 21.6398], [104.9043, 21.624], [104.9062, 21.6086], [104.8875, 21.6122], [104.8936, 21.6044], [104.8987, 21.5646], [104.8868, 21.5573], [104.8729, 21.5561], [104.8685, 21.5421], [104.8791, 21.5344], [104.8873, 21.5344], [104.9146, 21.543], [104.9358, 21.5171], [104.9373, 21.4945], [104.9511, 21.4987], [104.9682, 21.4838], [104.9802, 21.4861], [104.9789, 21.4935], [104.9851, 21.4999], [105.0018, 21.4933], [105.0125, 21.4987], [105.0211, 21.4918], [105.0305, 21.4954], [105.0424, 21.4876], [105.0488, 21.488], [105.045, 21.4982], [105.0791, 21.481]]]}}, {"type": "Feature", "properties": {"osm_type": "relation", "osm_id": 489916301, "name": "Lam Thao", "admin_level": "6", "kind": "subdivision_2", "parent_osm_id": 1902930, "parent_name": "Phú Thọ Province", "parent_iso": "VN-68"}, "geometry": {"type": "Polygon", "coordinates": [[[105.3563, 21.2915], [105.3566, 21.3081], [105.3182, 21.3145], [105.2926, 21.3343], [105.2991, 21.3473], [105.3172, 21.3541], [105.3124, 21.3608], [105.3146, 21.3676], [105.3071, 21.3681], [105.3184, 21.3837], [105.3149, 21.3932], [105.2828, 21.4065], [105.2708, 21.384], [105.2669, 21.3868], [105.2504, 21.3812], [105.2756, 21.3336], [105.2727, 21.3073], [105.2592, 21.2899], [105.2634, 21.2821], [105.3206, 21.2465], [105.3409, 21.2473], [105.3562, 21.2603], [105.3563, 21.2915]]]}}, {"type": "Feature", "properties": {"osm_type": "relation", "osm_id": 859647128, "name": "Phu Ninh", "admin_level": "6", "kind": "subdivision_2", "parent_osm_id": 1902930, "parent_name": "Phú Thọ Province", "parent_iso": "VN-68"}, "geometry": {"type": "Polygon", "coordinates": [[[105.2137, 21.5094], [105.217, 21.4993], [105.2128, 21.4873], [105.2263, 21.4809], [105.2313, 21.4642], [105.238, 21.4645], [105.2418, 21.4553], [105.2576, 21.4598], [105.2857, 21.4435], [105.2765, 21.4187], [105.2828, 21.4065], [105.3149, 21.3932], [105.3184, 21.3837], [105.3371, 21.3705], [105.3443, 21.3734], [105.3571, 21.3965], [105.3686, 21.4004], [105.3765, 21.3971], [105.3692, 21.3844], [105.3745, 21.3777], [105.3719, 21.3738], [105.3918, 21.3693], [105.3973, 21.4154], [105.3887, 21.428], [105.3775, 21.434], [105.3632, 21.4284], [105.3531, 21.4184], [105.3437, 21.4205], [105.3431, 21.4438], [105.3333, 21.4825], [105.3226, 21.4968], [105.324, 21.5102], [105.3014, 21.5092], [105.2973, 21.5344], [105.2726, 21.5424], [105.2636, 21.529], [105.2467, 21.523], [105.2424, 21.512], [105.2155, 21.5127], [105.2137, 21.5094]]]}}, {"type": "Feature", "properties": {"osm_type": "relation", "osm_id": 431402646, "name": "Phu Tho", "admin_level": "6", "kind": "subdivision_2", "parent_osm_id": 1902930, "parent_name": "Phú Thọ Province", "parent_iso": "VN-68"}, "geometry": {"type": "Polygon", "coordinates": [[[105.2828, 21.4065], [105.2765, 21.4187], [105.2857, 21.4435], [105.2825, 21.4482], [105.2723, 21.449], [105.2576, 21.4598], [105.2418, 21.4553], [105.238, 21.4645], [105.2313, 21.4642], [105.2222, 21.4495], [105.2214, 21.4384], [105.2035, 21.4301], [105.1986, 21.4188], [105.1862, 21.4173], [105.1772, 21.4068], [105.1894, 21.4006], [105.185, 21.4001], [105.1861, 21.3942], [105.1947, 21.3947], [105.2029, 21.3781], [105.2017, 21.3636], [105.2161, 21.3669], [105.2193, 21.3835], [105.2313, 21.3954], [105.2431, 21.3929], [105.2504, 21.3812], [105.2669, 21.3868], [105.2708, 21.384], [105.2828, 21.4065]]]}}, {"type": "Feature", "properties": {"osm_type": "relation", "osm_id": 558964739, "name": "Tam Nong", "admin_level": "6", "kind": "subdivision_2", "parent_osm_id": 1902930, "parent_name": "Phú Thọ Province", "parent_iso": "VN-68"}, "geometry": {"type": "Polygon", "coordinates": [[[105.3562, 21.2603], [105.3409, 21.2473], [105.3206, 21.2465], [105.2634, 21.2821], [105.2592, 21.2899], [105.2727, 21.3073], [105.2756, 21.3336], [105.2485, 21.3864], [105.237, 21.3957], [105.2219, 21.3879], [105.2163, 21.3768], [105.2168, 21.3369], [105.2053, 21.3246], [105.2001, 21.3105], [105.1893, 21.3176], [105.1855, 21.2931], [105.1706, 21.2896], [105.1648, 21.2724], [105.1489, 21.2676], [105.1621, 21.2479], [105.181, 21.2531], [105.191, 21.2457], [105.2181, 21.2562], [105.2202, 21.2397], [105.2339, 21.2159], [105.2635, 21.2272], [105.2635, 21.2318], [105.2824, 21.2445], [105.3068, 21.2311], [105.3093, 21.2221], [105.3191, 21.2203], [105.3261, 21.2308], [105.3341, 21.2328], [105.3472, 21.2261], [105.3562, 21.2603]]]}}, {"type": "Feature", "properties": {"osm_type": "relation", "osm_id": 668939364, "name": "Tan Son", "admin_level": "6", "kind": "subdivision_2", "parent_osm_id": 1902930, "parent_name": "Phú Thọ Province", "parent_iso": "VN-68"}, "geometry": {"type": "Polygon", "coordinates": [[[105.0372, 21.0144], [105.0464, 21.022], [105.0427, 21.0407], [105.0681, 21.0415], [105.0737, 21.0507], [105.084, 21.0539], [105.1095, 21.05], [105.1086, 21.0573], [105.1169, 21.0598], [105.1189, 21.0706], [105.1119, 21.0844], [105.1155, 21.1009], [105.1088, 21.1091], [105.103, 21.1062], [105.0841, 21.1096], [105.0956, 21.121], [105.0915, 21.1342], [105.1069, 21.1334], [105.1152, 21.1381], [105.1122, 21.1457], [105.1168, 21.1627], [105.1121, 21.164], [105.1162, 21.1702], [105.1095, 21.1767], [105.1154, 21.1781], [105.1153, 21.1829], [105.1029, 21.183], [105.113, 21.1904], [105.0934, 21.2169], [105.0996, 21.2275], [105.0916, 21.2298], [105.0667, 21.2658], [105.034, 21.2856], [105.0102, 21.293], [105.0015, 21.2874], [104.9892, 21.2901], [104.9733, 21.2966], [104.9649, 21.3062], [104.9414, 21.3029], [104.9264, 21.3266], [104.9105, 21.327], [104.8974, 21.3447], [104.883, 21.3419], [104.8687, 21.3534], [104.8638, 21.3646], [104.8567, 21.3644], [104.8541, 21.3517], [104.8448, 21.3514], [104.8495, 21.3388], [104.8198, 21.3381], [104.8154, 21.3304], [104.8193, 21.3219], [104.8437, 21.3084], [104.8419, 21.2615], [104.8507, 21.2548], [104.85, 21.2449], [104.8563, 21.2316], [104.8506, 21.2316], [104.8455, 21.2238], [104.8571, 21.2178], [104.865, 21.206], [104.8526, 21.1785], [104.8601, 21.1722], [104.8537, 21.1504], [104.9127, 21.1167], [104.9151, 21.0981], [104.9262, 21.0843], [104.9221, 21.0752], [104.9105, 21.0672], [104.9307, 21.0649], [104.9384, 21.0559], [104.9632, 21.0602], [104.9691, 21.053], [104.9895, 21.049], [105.0109, 21.0372], [105.0204, 21.0254], [105.0186, 21.015], [105.0301, 21.0221], [105.0372, 21.0144]]]}}, {"type": "Feature", "properties": {"osm_type": "relation", "osm_id": 500202578, "name": "Thanh Ba", "admin_level": "6", "kind": "subdivision_2", "parent_osm_id": 1902930, "parent_name": "Phú Thọ Province", "parent_iso": "VN-68"}, "geometry": {"type": "Polygon", "coordinates": [[[105.2053, 21.3246], [105.2168, 21.3369], [105.2161, 21.3669], [105.2017, 21.3636], [105.2029, 21.3781], [105.1947, 21.3947], [105.1861, 21.3942], [105.185, 21.4001], [105.1894, 21.4006], [105.1772, 21.4068], [105.1862, 21.4173], [105.1986, 21.4188], [105.2035, 21.4301], [105.2214, 21.4384], [105.2222, 21.4495], [105.2313, 21.4642], [105.2263, 21.4809], [105.2128, 21.4873], [105.217, 21.4993], [105.2137, 21.5094], [105.1973, 21.517], [105.2086, 21.5287], [105.1672, 21.5428], [105.1594, 21.5405], [105.1521, 21.5578], [105.1567, 21.5674], [105.1481, 21.5762], [105.1358, 21.5683], [105.1348, 21.5566], [105.1277, 21.5485], [105.1027, 21.5417], [105.0938, 21.5193], [105.0774, 21.5008], [105.0851, 21.4925], [105.0791, 21.481], [105.1018, 21.4568], [105.1284, 21.4425], [105.1369, 21.4312], [105.1523, 21.4275], [105.1569, 21.3931], [105.1664, 21.3767], [105.1853, 21.361], [105.1888, 21.3301], [105.2053, 21.3246]]]}}, {"type": "Feature", "properties": {"osm_type": "relation", "osm_id": 595375215, "name": "Thanh Son", "admin_level": "6", "kind": "subdivision_2", "parent_osm_id": 1902930, "parent_name": "Phú Thọ Province", "parent_iso": "VN-68"}, "geometry": {"type": "Polygon", "coordinates": [[[105.3127, 20.9241], [105.3172, 20.935], [105.3448, 20.9409], [105.3428, 20.9514], [105.3186, 21.0106], [105.3064, 21.0016], [105.299, 21.0075], [105.2925, 21.0063], [105.2539, 21.0668], [105.252, 21.0726], [105.2779, 21.0829], [105.294, 21.1014], [105.2872, 21.1025], [105.2717, 21.0944], [105.2623, 21.114], [105.2668, 21.116], [105.2634, 21.1228], [105.2414, 21.1399], [105.2424, 21.1542], [105.2352, 21.1627], [105.2549, 21.1683], [105.2685, 21.1665], [105.2673, 21.1721], [105.2758, 21.1739], [105.2742, 21.1853], [105.2378, 21.2054], [105.2202, 21.2397], [105.2181, 21.2562], [105.191, 21.2457], [105.181, 21.2531], [105.1621, 21.2479], [105.1718, 21.2279], [105.1673, 21.2105], [105.1716, 21.2048], [105.1651, 21.2004], [105.1562, 21.2078], [105.1554, 21.2021], [105.1403, 21.2023], [105.1374, 21.2073], [105.1236, 21.2111], [105.1083, 21.2278], [105.0996, 21.2275], [105.0934, 21.2169], [105.113, 21.1904], [105.1029, 21.183], [105.1153, 21.1829], [105.1154, 21.1781], [105.1095, 21.1767], [105.1162, 21.1702], [105.1121, 21.164], [105.1168, 21.1627], [105.1122, 21.1457], [105.1152, 21.1381], [105.1069, 21.1334], [105.0915, 21.1342], [105.0956, 21.121], [105.0841, 21.1096], [105.103, 21.1062], [105.1088, 21.1091], [105.1155, 21.1009], [105.1119, 21.0844], [105.1189, 21.0706], [105.1169, 21.0598], [105.1086, 21.0573], [105.1095, 21.05], [105.084, 21.0539], [105.0737, 21.0507], [105.0681, 21.0415], [105.0427, 21.0407], [105.0464, 21.022], [105.0372, 21.0144], [105.0501, 21.008], [105.0552, 21.0103], [105.0679, 21.0012], [105.0914, 20.9611], [105.1095, 20.9553], [105.1316, 20.9379], [105.1607, 20.9391], [105.1619, 20.9438], [105.1775, 20.9451], [105.1894, 20.9518], [105.1921, 20.9585], [105.2063, 20.9508], [105.1938, 20.9295], [105.1983, 20.9247], [105.1962, 20.9207], [105.203, 20.9172], [105.2245, 20.9264], [105.2189, 20.9325], [105.2225, 20.9362], [105.23, 20.9356], [105.2469, 20.9457], [105.2599, 20.9356], [105.2714, 20.9407], [105.2754, 20.9247], [105.2894, 20.9314], [105.2966, 20.9242], [105.3127, 20.9241]]]}}, {"type": "Feature", "properties": {"osm_type": "relation", "osm_id": 149330719, "name": "Thanh Thuy", "admin_level": "6", "kind": "subdivision_2", "parent_osm_id": 1902930, "parent_name": "Phú Thọ Province", "parent_iso": "VN-68"}, "geometry": {"type": "Polygon", "coordinates": [[[105.3472, 21.2261], [105.3341, 21.2328], [105.3261, 21.2308], [105.3191, 21.2203], [105.3093, 21.2221], [105.3068, 21.2311], [105.2824, 21.2445], [105.2635, 21.2318], [105.2635, 21.2272], [105.2339, 21.2159], [105.2406, 21.2028], [105.2578, 21.1963], [105.2773, 21.1803], [105.2758, 21.1739], [105.2673, 21.1721], [105.2685, 21.1665], [105.2549, 21.1683], [105.2352, 21.1627], [105.2424, 21.1542], [105.2414, 21.1399], [105.2634, 21.1228], [105.2668, 21.116], [105.2623, 21.114], [105.2717, 21.0944], [105.2872, 21.1025], [105.294, 21.1014], [105.2779, 21.0829], [105.252, 21.0726], [105.2925, 21.0063], [105.299, 21.0075], [105.3064, 21.0016], [105.3186, 21.0106], [105.3048, 21.0221], [105.2942, 21.0534], [105.3168, 21.0935], [105.3199, 21.1136], [105.285, 21.1663], [105.2908, 21.1659], [105.3037, 21.1916], [105.341, 21.2081], [105.3472, 21.2261]]]}}, {"type": "Feature", "properties": {"osm_type": "relation", "osm_id": 481194053, "name": "Viet Tri", "admin_level": "6", "kind": "subdivision_2", "parent_osm_id": 1902930, "parent_name": "Phú Thọ Province", "parent_iso": "VN-68"}, "geometry": {"type": "Polygon", "coordinates": [[[105.4435, 21.2649], [105.4485, 21.2647], [105.4537, 21.293], [105.4492, 21.2956], [105.4566, 21.3096], [105.4444, 21.3268], [105.4022, 21.3502], [105.3891, 21.3725], [105.3719, 21.3738], [105.3745, 21.3777], [105.3692, 21.3844], [105.3765, 21.3971], [105.3686, 21.4004], [105.3571, 21.3965], [105.34, 21.3708], [105.3156, 21.3824], [105.3071, 21.3681], [105.3146, 21.3676], [105.3124, 21.3608], [105.3172, 21.3541], [105.2991, 21.3473], [105.2926, 21.3343], [105.3182, 21.3145], [105.3566, 21.3081], [105.355, 21.2945], [105.3612, 21.2845], [105.3893, 21.3022], [105.4004, 21.3032], [105.4366, 21.2865], [105.4435, 21.2649]]]}}, {"type": "Feature", "properties": {"osm_type": "relation", "osm_id": 176190422, "name": "Yen Lap", "admin_level": "6", "kind": "subdivision_2", "parent_osm_id": 1902930, "parent_name": "Phú Thọ Province", "parent_iso": "VN-68"}, "geometry": {"type": "Polygon", "coordinates": [[[104.9802, 21.4861], [104.9682, 21.4838], [104.9511, 21.4987], [104.9373, 21.4945], [104.9358, 21.5171], [104.9146, 21.543], [104.8791, 21.5344], [104.8853, 21.5227], [104.8849, 21.5002], [104.8972, 21.4687], [104.9119, 21.446], [104.9121, 21.4337], [104.9058, 21.4277], [104.9075, 21.4133], [104.8951, 21.3929], [104.8856, 21.3925], [104.8821, 21.384], [104.8844, 21.3718], [104.8998, 21.3546], [104.8974, 21.3447], [104.9105, 21.327], [104.9264, 21.3266], [104.9414, 21.3029], [104.9649, 21.3062], [104.9733, 21.2966], [104.9958, 21.2882], [105.0102, 21.293], [105.0153, 21.2885], [105.0237, 21.291], [105.0667, 21.2658], [105.0916, 21.2298], [105.1083, 21.2278], [105.1236, 21.2111], [105.1374, 21.2073], [105.1403, 21.2023], [105.1554, 21.2021], [105.1562, 21.2078], [105.1651, 21.2004], [105.1716, 21.2048], [105.1673, 21.2105], [105.1718, 21.2279], [105.1616, 21.2518], [105.1552, 21.2548], [105.1468, 21.2702], [105.1496, 21.2894], [105.1402, 21.2896], [105.1346, 21.2959], [105.1375, 21.302], [105.1325, 21.3064], [105.1322, 21.3216], [105.1193, 21.335], [105.1232, 21.345], [105.1121, 21.3471], [105.1007, 21.3588], [105.0847, 21.3535], [105.0787, 21.3651], [105.0315, 21.4015], [105.0127, 21.4235], [105.0065, 21.4246], [104.9959, 21.4362], [104.9971, 21.4664], [104.9839, 21.4736], [104.9802, 21.4861]]]}}]}