{"type": "FeatureCollection", "parent": {"osm_id": 1903291, "name": "Sơn La Province", "admin_level": "4", "kind": "subdivision_1", "child_kind": "subdivision_2", "iso": "VN-05"}, "features": [{"type": "Feature", "properties": {"osm_type": "relation", "osm_id": 454584410, "name": "Bac Yen", "admin_level": "6", "kind": "subdivision_2", "parent_osm_id": 1903291, "parent_name": "Sơn La Province", "parent_iso": "VN-05"}, "geometry": {"type": "Polygon", "coordinates": [[[104.5516, 21.4093], [104.5289, 21.4131], [104.5039, 21.3765], [104.4762, 21.3528], [104.4442, 21.3577], [104.4314, 21.3537], [104.4196, 21.3628], [104.4177, 21.3807], [104.3912, 21.4], [104.367, 21.3996], [104.3476, 21.4183], [104.3419, 21.4156], [104.3435, 21.41], [104.3313, 21.408], [104.3194, 21.4285], [104.2997, 21.4386], [104.264, 21.417], [104.2443, 21.3872], [104.2269, 21.3862], [104.2254, 21.3796], [104.2138, 21.3804], [104.2066, 21.3699], [104.2054, 21.3778], [104.1991, 21.3795], [104.1727, 21.3616], [104.1774, 21.3551], [104.1692, 21.3418], [104.1738, 21.3225], [104.2057, 21.304], [104.2098, 21.2956], [104.247, 21.263], [104.2655, 21.2596], [104.2928, 21.2392], [104.2801, 21.2281], [104.276, 21.2136], [104.2668, 21.2143], [104.258, 21.2218], [104.2536, 21.2121], [104.2262, 21.1966], [104.2221, 21.1909], [104.2405, 21.1706], [104.2645, 21.157], [104.2747, 21.1448], [104.2902, 21.1391], [104.2959, 21.131], [104.309, 21.1279], [104.3219, 21.1316], [104.3505, 21.1161], [104.3811, 21.0918], [104.3817, 21.0761], [104.4083, 21.0685], [104.4187, 21.0566], [104.4521, 21.052], [104.4771, 21.033], [104.5168, 21.0216], [104.5411, 21.0059], [104.5537, 21.0177], [104.5516, 21.0255], [104.5407, 21.0278], [104.5429, 21.05], [104.5556, 21.0651], [104.5731, 21.0527], [104.5711, 21.0778], [104.5658, 21.0826], [104.554, 21.0801], [104.5443, 21.071], [104.5273, 21.069], [104.5197, 21.0747], [104.5161, 21.097], [104.5337, 21.1204], [104.535, 21.1375], [104.508, 21.1698], [104.5164, 21.185], [104.493, 21.2054], [104.4867, 21.2049], [104.4982, 21.228], [104.5116, 21.2315], [104.5278, 21.2554], [104.5433, 21.2568], [104.5431, 21.266], [104.5519, 21.2683], [104.5546, 21.2853], [104.5679, 21.3057], [104.5671, 21.3208], [104.5617, 21.3274], [104.5662, 21.3314], [104.5584, 21.3416], [104.5682, 21.3575], [104.5649, 21.3638], [104.5715, 21.3656], [104.5654, 21.3773], [104.5451, 21.3848], [104.5416, 21.3974], [104.5516, 21.4093]]]}}, {"type": "Feature", "properties": {"osm_type": "relation", "osm_id": 174823369, "name": "Mai Son", "admin_level": "6", "kind": "subdivision_2", "parent_osm_id": 1903291, "parent_name": "Sơn La Province", "parent_iso": "VN-05"}, "geometry": {"type": "Polygon", "coordinates": [[[104.1727, 21.3616], [104.1709, 21.3641], [104.1642, 21.357], [104.1546, 21.3595], [104.137, 21.3494], [104.1282, 21.3341], [104.1364, 21.318], [104.1344, 21.3091], [104.1155, 21.3171], [104.1139, 21.323], [104.1013, 21.3192], [104.0905, 21.3244], [104.0478, 21.3784], [104.0453, 21.3726], [104.0183, 21.364], [104.0129, 21.3542], [104.0024, 21.3543], [104.008, 21.3408], [103.9923, 21.3307], [104.0007, 21.3185], [103.9954, 21.3154], [103.9997, 21.3057], [104.0107, 21.3004], [104.0032, 21.2902], [104.0048, 21.2858], [104.0296, 21.2584], [104.0196, 21.2485], [104.0134, 21.2479], [104.003, 21.2624], [103.9907, 21.2527], [103.9795, 21.2623], [103.9663, 21.2597], [103.965, 21.2664], [103.9458, 21.278], [103.9196, 21.2721], [103.9171, 21.2619], [103.9022, 21.2555], [103.9002, 21.248], [103.8812, 21.2444], [103.854, 21.2704], [103.836, 21.2743], [103.8275, 21.2603], [103.8159, 21.2527], [103.8218, 21.2147], [103.8164, 21.2], [103.7954, 21.2132], [103.7778, 21.2093], [103.7671, 21.2299], [103.751, 21.2375], [103.7475, 21.2554], [103.7336, 21.2341], [103.7215, 21.2274], [103.7179, 21.2086], [103.698, 21.1949], [103.6974, 21.1854], [103.7458, 21.1566], [103.757, 21.1344], [103.7709, 21.1258], [103.7769, 21.1086], [103.8014, 21.0911], [103.8025, 21.0815], [103.8108, 21.0724], [103.8378, 21.0708], [103.8479, 21.0609], [103.8908, 21.0502], [103.8898, 21.0436], [103.8968, 21.0416], [103.9063, 21.0509], [103.9258, 21.038], [103.9378, 21.0404], [103.9506, 21.05], [103.9633, 21.0468], [103.9688, 21.0426], [103.9643, 21.0097], [103.9867, 21.0159], [104.003, 21.0267], [104.0135, 21.0065], [104.012, 21.0003], [104.0225, 20.9939], [104.0302, 20.9978], [104.0713, 20.9582], [104.0926, 20.9636], [104.1055, 20.9766], [104.1203, 20.9709], [104.1259, 20.9962], [104.1177, 21.0035], [104.1333, 21.0163], [104.1553, 21.0169], [104.1626, 21.0301], [104.1746, 21.0388], [104.1694, 21.0434], [104.1806, 21.0589], [104.2081, 21.0728], [104.2064, 21.0952], [104.2123, 21.1079], [104.1976, 21.1267], [104.2064, 21.1435], [104.1998, 21.1551], [104.2279, 21.1858], [104.2221, 21.1909], [104.2444, 21.2102], [104.2536, 21.2121], [104.258, 21.2218], [104.2668, 21.2143], [104.276, 21.2136], [104.2801, 21.2281], [104.2928, 21.2392], [104.2655, 21.2596], [104.247, 21.263], [104.2098, 21.2956], [104.2057, 21.304], [104.1738, 21.3225], [104.1692, 21.3418], [104.1774, 21.3551], [104.1727, 21.3616]]]}}, {"type": "Feature", "properties": {"osm_type": "relation", "osm_id": 752554767, "name": "Moc Chau", "admin_level": "6", "kind": "subdivision_2", "parent_osm_id": 1903291, "parent_name": "Sơn La Province", "parent_iso": "VN-05"}, "geometry": {"type": "Polygon", "coordinates": [[[104.5411, 21.0059], [104.5479, 21.0004], [104.5347, 20.9797], [104.5217, 20.9842], [104.5139, 20.9733], [104.4994, 20.9698], [104.5077, 20.9377], [104.4833, 20.9139], [104.4685, 20.9111], [104.4722, 20.884], [104.4537, 20.8844], [104.4377, 20.875], [104.4363, 20.8575], [104.4275, 20.8455], [104.4229, 20.8269], [104.4329, 20.8121], [104.4177, 20.7972], [104.4281, 20.7898], [104.4333, 20.7955], [104.4491, 20.797], [104.4534, 20.7802], [104.4709, 20.7783], [104.4732, 20.7718], [104.4838, 20.7663], [104.4894, 20.7282], [104.4994, 20.7123], [104.5095, 20.7123], [104.5084, 20.7083], [104.5244, 20.6986], [104.5356, 20.7119], [104.5573, 20.7184], [104.5834, 20.6996], [104.5875, 20.6914], [104.5857, 20.6805], [104.5937, 20.674], [104.6065, 20.6701], [104.6375, 20.6714], [104.6564, 20.692], [104.6501, 20.696], [104.6476, 20.7057], [104.6582, 20.7245], [104.6591, 20.7486], [104.6711, 20.7537], [104.6833, 20.7703], [104.7019, 20.7656], [104.6646, 20.8099], [104.714, 20.8026], [104.7627, 20.8135], [104.7659, 20.8194], [104.7612, 20.8249], [104.7658, 20.8357], [104.7871, 20.8458], [104.7764, 20.8644], [104.8154, 20.8643], [104.8143, 20.8821], [104.8205, 20.8882], [104.8058, 20.9025], [104.8136, 20.9074], [104.816, 20.9167], [104.8111, 20.9243], [104.8128, 20.9317], [104.8081, 20.9321], [104.8136, 20.938], [104.7843, 20.9435], [104.7959, 20.9657], [104.785, 20.9975], [104.763, 21.027], [104.7661, 21.0446], [104.731, 21.0558], [104.7153, 21.0701], [104.7044, 21.0479], [104.6881, 21.0421], [104.6758, 21.0313], [104.6642, 21.0331], [104.6492, 21.0435], [104.6461, 21.0289], [104.6407, 21.027], [104.6202, 21.0421], [104.609, 21.0423], [104.5947, 21.0549], [104.5846, 21.0453], [104.5556, 21.0651], [104.5429, 21.05], [104.5399, 21.0327], [104.5429, 21.0262], [104.5516, 21.0255], [104.5537, 21.0177], [104.5411, 21.0059]]]}}, {"type": "Feature", "properties": {"osm_type": "relation", "osm_id": 864293139, "name": "Muong La", "admin_level": "6", "kind": "subdivision_2", "parent_osm_id": 1903291, "parent_name": "Sơn La Province", "parent_iso": "VN-05"}, "geometry": {"type": "Polygon", "coordinates": [[[104.2997, 21.4386], [104.302, 21.4548], [104.2875, 21.4635], [104.2827, 21.4719], [104.2846, 21.4919], [104.2948, 21.5108], [104.2935, 21.525], [104.2768, 21.5512], [104.2888, 21.5685], [104.2978, 21.5713], [104.2876, 21.6], [104.3057, 21.6082], [104.3306, 21.6375], [104.3401, 21.6415], [104.3389, 21.6531], [104.3153, 21.6564], [104.2968, 21.653], [104.2881, 21.6616], [104.2605, 21.6633], [104.2542, 21.6707], [104.2196, 21.6728], [104.1932, 21.6475], [104.1568, 21.6555], [104.0897, 21.6427], [104.0773, 21.6507], [104.0488, 21.6575], [104.0276, 21.6723], [104.0079, 21.6659], [104.0056, 21.6722], [103.9875, 21.6738], [103.9845, 21.678], [103.9689, 21.6638], [103.9618, 21.6696], [103.9375, 21.6695], [103.938, 21.6907], [103.9233, 21.6992], [103.9062, 21.6933], [103.8835, 21.7082], [103.8807, 21.6854], [103.8557, 21.6902], [103.84, 21.7048], [103.8337, 21.7425], [103.8283, 21.734], [103.8147, 21.7392], [103.8093, 21.7362], [103.812, 21.7317], [103.8074, 21.7204], [103.7865, 21.6965], [103.7575, 21.676], [103.7552, 21.6646], [103.7818, 21.649], [103.7931, 21.6486], [103.8044, 21.6377], [103.7986, 21.6244], [103.8075, 21.6184], [103.804, 21.6094], [103.8103, 21.6071], [103.8142, 21.5979], [103.8099, 21.5661], [103.8161, 21.5584], [103.8572, 21.5386], [103.8747, 21.5448], [103.8972, 21.5417], [103.9274, 21.5284], [103.9345, 21.5167], [103.9566, 21.5212], [103.9674, 21.516], [103.9757, 21.5005], [103.9949, 21.495], [103.9849, 21.4847], [103.9854, 21.4743], [103.9758, 21.4658], [103.955, 21.4649], [103.9471, 21.4387], [103.9325, 21.4245], [103.951, 21.4132], [103.9577, 21.4147], [103.958, 21.404], [103.9718, 21.4022], [103.9819, 21.3701], [103.9877, 21.3637], [103.9984, 21.3628], [104.0024, 21.3543], [104.0129, 21.3542], [104.0183, 21.364], [104.0453, 21.3726], [104.0478, 21.3784], [104.0905, 21.3244], [104.1013, 21.3192], [104.1139, 21.323], [104.1155, 21.3171], [104.1344, 21.3091], [104.1364, 21.318], [104.1282, 21.3341], [104.1405, 21.3531], [104.1818, 21.3649], [104.1991, 21.3795], [104.2054, 21.3778], [104.2066, 21.3699], [104.2138, 21.3804], [104.2254, 21.3796], [104.2269, 21.3862], [104.2443, 21.3872], [104.264, 21.417], [104.2997, 21.4386]]]}}, {"type": "Feature", "properties": {"osm_type": "relation", "osm_id": 594028994, "name": "Phu Yen", "admin_level": "6", "kind": "subdivision_2", "parent_osm_id": 1903291, "parent_name": "Sơn La Province", "parent_iso": "VN-05"}, "geometry": {"type": "Polygon", "coordinates": [[[104.5731, 21.0527], [104.5846, 21.0453], [104.5947, 21.0549], [104.609, 21.0423], [104.6202, 21.0421], [104.6316, 21.0312], [104.6446, 21.0274], [104.6492, 21.0435], [104.6642, 21.0331], [104.6758, 21.0313], [104.6881, 21.0421], [104.7044, 21.0479], [104.7153, 21.0701], [104.731, 21.0558], [104.7547, 21.0471], [104.7929, 21.0413], [104.8036, 21.0317], [104.824, 21.0359], [104.8652, 21.0279], [104.8687, 21.0296], [104.8527, 21.0763], [104.8574, 21.0793], [104.8678, 21.0756], [104.8766, 21.0984], [104.8924, 21.1072], [104.9144, 21.1113], [104.8961, 21.1282], [104.8813, 21.1326], [104.8537, 21.1504], [104.8601, 21.1722], [104.8526, 21.1785], [104.865, 21.206], [104.8571, 21.2178], [104.8455, 21.2238], [104.8506, 21.2316], [104.8563, 21.2316], [104.85, 21.2449], [104.8507, 21.2548], [104.8419, 21.2615], [104.8437, 21.3084], [104.8193, 21.3219], [104.8164, 21.3347], [104.8033, 21.3307], [104.7937, 21.3347], [104.7787, 21.3259], [104.7688, 21.3303], [104.7684, 21.3459], [104.757, 21.3479], [104.7569, 21.3528], [104.7495, 21.3515], [104.7478, 21.3673], [104.7345, 21.3818], [104.7348, 21.4059], [104.7207, 21.3996], [104.7102, 21.3997], [104.7047, 21.4055], [104.6902, 21.4002], [104.6877, 21.3816], [104.6773, 21.3752], [104.6525, 21.3853], [104.6449, 21.3837], [104.6155, 21.402], [104.6045, 21.4167], [104.5904, 21.4226], [104.5822, 21.4182], [104.5789, 21.4086], [104.5695, 21.413], [104.5516, 21.4093], [104.5416, 21.3974], [104.5479, 21.3806], [104.5654, 21.3773], [104.5715, 21.3656], [104.5649, 21.3638], [104.5682, 21.3575], [104.5584, 21.3416], [104.5662, 21.3314], [104.5617, 21.3274], [104.5691, 21.3099], [104.5546, 21.2853], [104.5519, 21.2683], [104.5431, 21.266], [104.5433, 21.2568], [104.5278, 21.2554], [104.5116, 21.2315], [104.4982, 21.228], [104.4867, 21.2049], [104.493, 21.2054], [104.5164, 21.185], [104.508, 21.1698], [104.535, 21.1375], [104.5337, 21.1204], [104.5161, 21.097], [104.5197, 21.0747], [104.5273, 21.069], [104.5401, 21.0697], [104.554, 21.0801], [104.5658, 21.0826], [104.5711, 21.0778], [104.5731, 21.0527]]]}}, {"type": "Feature", "properties": {"osm_type": "relation", "osm_id": 370253369, "name": "Quynh Nhai", "admin_level": "6", "kind": "subdivision_2", "parent_osm_id": 1903291, "parent_name": "Sơn La Province", "parent_iso": "VN-05"}, "geometry": {"type": "Polygon", "coordinates": [[[103.8093, 21.7362], [103.7911, 21.762], [103.7842, 21.7619], [103.7801, 21.7776], [103.7565, 21.7774], [103.7609, 21.8069], [103.7327, 21.8093], [103.7262, 21.8049], [103.7132, 21.8196], [103.6979, 21.8242], [103.6978, 21.8369], [103.7068, 21.8407], [103.724, 21.8767], [103.7165, 21.8838], [103.7074, 21.8834], [103.7078, 21.9022], [103.6853, 21.9201], [103.6903, 21.9393], [103.6673, 21.9492], [103.6618, 21.9755], [103.6533, 21.9879], [103.6314, 21.9887], [103.6139, 22.0009], [103.6083, 22.0109], [103.5564, 22.0215], [103.5472, 22.0284], [103.5264, 22.023], [103.5139, 22.0097], [103.5158, 21.9916], [103.4984, 21.9692], [103.5057, 21.9554], [103.4965, 21.9432], [103.4847, 21.9386], [103.4892, 21.9326], [103.4836, 21.9291], [103.4846, 21.9203], [103.4799, 21.9152], [103.4881, 21.904], [103.4843, 21.8946], [103.4907, 21.89], [103.4891, 21.8832], [103.4955, 21.8802], [103.4931, 21.8759], [103.5081, 21.8736], [103.5223, 21.8619], [103.528, 21.8349], [103.5399, 21.8276], [103.5365, 21.8141], [103.5478, 21.7976], [103.5415, 21.7758], [103.5584, 21.7622], [103.5621, 21.749], [103.5736, 21.7397], [103.5843, 21.7046], [103.5988, 21.6833], [103.5938, 21.6747], [103.5836, 21.6852], [103.5741, 21.6819], [103.5602, 21.6677], [103.5593, 21.6558], [103.5421, 21.6469], [103.5587, 21.6249], [103.5871, 21.629], [103.5916, 21.6251], [103.5858, 21.6187], [103.6003, 21.6178], [103.6147, 21.6077], [103.6315, 21.6127], [103.6357, 21.6217], [103.6494, 21.6096], [103.6607, 21.5929], [103.633, 21.5828], [103.6298, 21.5649], [103.6515, 21.538], [103.6676, 21.5375], [103.6717, 21.5313], [103.6931, 21.5398], [103.7026, 21.5363], [103.7056, 21.5226], [103.7094, 21.5218], [103.7143, 21.5277], [103.7287, 21.5294], [103.7474, 21.541], [103.7684, 21.5439], [103.7985, 21.5285], [103.8009, 21.5406], [103.8236, 21.5539], [103.8099, 21.5661], [103.8142, 21.5979], [103.8103, 21.6071], [103.804, 21.6094], [103.8075, 21.6184], [103.7986, 21.6244], [103.8044, 21.6377], [103.7931, 21.6486], [103.7818, 21.649], [103.7552, 21.6646], [103.7609, 21.6815], [103.7865, 21.6965], [103.8074, 21.7204], [103.812, 21.7317], [103.8093, 21.7362]]]}}, {"type": "Feature", "properties": {"osm_type": "relation", "osm_id": 881047096, "name": "Son La", "admin_level": "6", "kind": "subdivision_2", "parent_osm_id": 1903291, "parent_name": "Sơn La Province", "parent_iso": "VN-05"}, "geometry": {"type": "Polygon", "coordinates": [[[104.0024, 21.3543], [103.9984, 21.3628], [103.9877, 21.3637], [103.9819, 21.3701], [103.9718, 21.4022], [103.958, 21.404], [103.9577, 21.4147], [103.951, 21.4132], [103.9325, 21.4245], [103.9058, 21.4234], [103.902, 21.4309], [103.8796, 21.431], [103.8795, 21.4385], [103.8434, 21.4415], [103.8348, 21.4363], [103.833, 21.413], [103.8184, 21.4044], [103.8091, 21.3921], [103.8103, 21.384], [103.8217, 21.3748], [103.8154, 21.3674], [103.8141, 21.3556], [103.8402, 21.3599], [103.8392, 21.3356], [103.8293, 21.316], [103.8289, 21.2993], [103.8097, 21.3037], [103.8038, 21.3008], [103.836, 21.2743], [103.854, 21.2704], [103.8812, 21.2444], [103.9002, 21.248], [103.9022, 21.2555], [103.9171, 21.2619], [103.9196, 21.2721], [103.9458, 21.278], [103.965, 21.2664], [103.9663, 21.2597], [103.9795, 21.2623], [103.9907, 21.2527], [104.003, 21.2624], [104.0134, 21.2479], [104.0196, 21.2485], [104.0296, 21.2584], [104.0048, 21.2858], [104.0032, 21.2902], [104.0107, 21.3004], [103.9997, 21.3057], [103.9954, 21.3154], [104.0007, 21.3185], [103.9923, 21.3307], [104.008, 21.3408], [104.0024, 21.3543]]]}}, {"type": "Feature", "properties": {"osm_type": "relation", "osm_id": 839720889, "name": "Song Ma", "admin_level": "6", "kind": "subdivision_2", "parent_osm_id": 1903291, "parent_name": "Sơn La Province", "parent_iso": "VN-05"}, "geometry": {"type": "Polygon", "coordinates": [[[103.4242, 21.0684], [103.4444, 21.0626], [103.436, 21.0488], [103.4546, 21.0434], [103.465, 21.0478], [103.4638, 21.0607], [103.4811, 21.068], [103.4901, 21.0666], [103.494, 21.0554], [103.5118, 21.0482], [103.5233, 21.0348], [103.5419, 21.0298], [103.551, 21.0194], [103.5669, 21.0157], [103.5771, 21.0043], [103.6064, 20.9887], [103.6614, 20.9844], [103.6698, 20.956], [103.6601, 20.9399], [103.6869, 20.9161], [103.6943, 20.8962], [103.7058, 20.8883], [103.7072, 20.8755], [103.7391, 20.8508], [103.7461, 20.8563], [103.7513, 20.8526], [103.7579, 20.8551], [103.7653, 20.8483], [103.7876, 20.8526], [103.8017, 20.8479], [103.8155, 20.8535], [103.8137, 20.8639], [103.829, 20.8696], [103.8525, 20.8589], [103.8747, 20.8841], [103.8998, 20.903], [103.9381, 20.9009], [103.9477, 20.8933], [103.9614, 20.8973], [103.9775, 20.9133], [103.98, 20.9078], [103.9903, 20.9091], [103.9977, 20.9031], [104.0319, 20.9019], [104.0505, 20.9146], [104.0497, 20.9273], [104.0587, 20.9391], [104.0529, 20.9495], [104.0713, 20.9582], [104.0302, 20.9978], [104.0225, 20.9939], [104.012, 21.0003], [104.0135, 21.0065], [104.003, 21.0267], [103.9867, 21.0159], [103.9643, 21.0097], [103.9688, 21.0426], [103.9633, 21.0468], [103.9506, 21.05], [103.9378, 21.0404], [103.9258, 21.038], [103.9063, 21.0509], [103.8968, 21.0416], [103.8898, 21.0436], [103.8908, 21.0502], [103.8479, 21.0609], [103.8378, 21.0708], [103.8108, 21.0724], [103.8025, 21.0815], [103.8014, 21.0911], [103.7769, 21.1086], [103.7709, 21.1258], [103.757, 21.1344], [103.7458, 21.1566], [103.6974, 21.1854], [103.698, 21.1949], [103.7179, 21.2086], [103.7215, 21.2274], [103.7336, 21.2341], [103.7475, 21.2554], [103.743, 21.2604], [103.7305, 21.2637], [103.7179, 21.2576], [103.6942, 21.2589], [103.6667, 21.2656], [103.656, 21.2813], [103.5934, 21.3098], [103.5741, 21.2796], [103.5545, 21.2901], [103.5466, 21.2851], [103.5608, 21.2718], [103.5547, 21.2624], [103.5581, 21.2553], [103.5742, 21.2415], [103.5836, 21.2409], [103.5886, 21.2229], [103.5791, 21.2216], [103.5799, 21.2167], [103.5466, 21.2232], [103.5433, 21.2269], [103.5471, 21.2384], [103.5322, 21.2408], [103.5228, 21.2544], [103.5169, 21.2519], [103.5037, 21.2582], [103.4967, 21.2806], [103.4774, 21.314], [103.4757, 21.3274], [103.4845, 21.3378], [103.4665, 21.3498], [103.4558, 21.3513], [103.4448, 21.3428], [103.4361, 21.3206], [103.4222, 21.3255], [103.4176, 21.3186], [103.4308, 21.3113], [103.4393, 21.2883], [103.4393, 21.2637], [103.4307, 21.2511], [103.4363, 21.2407], [103.4323, 21.2079], [103.438, 21.1891], [103.4291, 21.1629], [103.4223, 21.1598], [103.4132, 21.1655], [103.3964, 21.1512], [103.4076, 21.1246], [103.4041, 21.1112], [103.4126, 21.0998], [103.4133, 21.089], [103.4214, 21.0815], [103.4242, 21.0684]]]}}, {"type": "Feature", "properties": {"osm_type": "relation", "osm_id": 617333586, "name": "Sop Cop", "admin_level": "6", "kind": "subdivision_2", "parent_osm_id": 1903291, "parent_name": "Sơn La Province", "parent_iso": "VN-05"}, "geometry": {"type": "Polygon", "coordinates": [[[103.2164, 20.8955], [103.2125, 20.8903], [103.2239, 20.8859], [103.2353, 20.8734], [103.2268, 20.8515], [103.2373, 20.8337], [103.2688, 20.8228], [103.2907, 20.8376], [103.3008, 20.8214], [103.323, 20.8183], [103.351, 20.8025], [103.3657, 20.8062], [103.3902, 20.7841], [103.4026, 20.7835], [103.4142, 20.796], [103.4409, 20.7935], [103.4522, 20.821], [103.4673, 20.8261], [103.485, 20.8104], [103.4833, 20.7944], [103.5017, 20.7737], [103.5096, 20.7531], [103.5225, 20.7481], [103.5375, 20.7522], [103.5515, 20.7434], [103.564, 20.7483], [103.6017, 20.7426], [103.61, 20.7296], [103.6379, 20.7181], [103.65, 20.6985], [103.6565, 20.6943], [103.6677, 20.6984], [103.6755, 20.6667], [103.6827, 20.6602], [103.7167, 20.6672], [103.7251, 20.665], [103.7449, 20.6756], [103.7422, 20.6877], [103.7355, 20.6927], [103.7364, 20.7109], [103.7298, 20.7201], [103.7309, 20.7262], [103.7401, 20.7328], [103.7566, 20.7305], [103.764, 20.7372], [103.7716, 20.7337], [103.791, 20.7466], [103.7837, 20.7646], [103.7905, 20.7793], [103.7812, 20.7892], [103.7805, 20.8016], [103.8093, 20.8227], [103.8103, 20.8289], [103.8017, 20.8479], [103.7876, 20.8526], [103.7653, 20.8483], [103.7579, 20.8551], [103.7513, 20.8526], [103.7461, 20.8563], [103.7391, 20.8508], [103.7072, 20.8755], [103.7058, 20.8883], [103.6943, 20.8962], [103.6869, 20.9161], [103.6601, 20.9399], [103.6698, 20.956], [103.6614, 20.9844], [103.6064, 20.9887], [103.5771, 21.0043], [103.5669, 21.0157], [103.551, 21.0194], [103.5419, 21.0298], [103.5233, 21.0348], [103.5118, 21.0482], [103.494, 21.0554], [103.4901, 21.0666], [103.4811, 21.068], [103.4638, 21.0607], [103.465, 21.0478], [103.4546, 21.0434], [103.442, 21.0449], [103.436, 21.0488], [103.4444, 21.0626], [103.4242, 21.0684], [103.3846, 21.0601], [103.3581, 21.0725], [103.3333, 21.091], [103.316, 21.0958], [103.3132, 21.0919], [103.2912, 21.098], [103.2856, 21.0933], [103.292, 21.0845], [103.287, 21.0789], [103.304, 21.0682], [103.3047, 21.0624], [103.2981, 21.0597], [103.2832, 21.0658], [103.2811, 21.0604], [103.2761, 21.0624], [103.279, 21.0591], [103.2743, 21.0534], [103.2764, 21.0443], [103.2867, 21.035], [103.2874, 21.0257], [103.2921, 21.0247], [103.2891, 21.0207], [103.2923, 21.0169], [103.2836, 21.0139], [103.287, 21.0093], [103.2801, 21.0053], [103.2793, 20.9995], [103.2862, 20.9998], [103.2836, 20.9975], [103.292, 20.9922], [103.299, 20.9649], [103.2953, 20.958], [103.2982, 20.9477], [103.2859, 20.948], [103.2752, 20.9389], [103.2746, 20.9267], [103.2873, 20.9057], [103.2811, 20.9026], [103.2817, 20.897], [103.2679, 20.9032], [103.2456, 20.8927], [103.2164, 20.8955]]]}}, {"type": "Feature", "properties": {"osm_type": "relation", "osm_id": 132908260, "name": "Thuan Chau", "admin_level": "6", "kind": "subdivision_2", "parent_osm_id": 1903291, "parent_name": "Sơn La Province", "parent_iso": "VN-05"}, "geometry": {"type": "Polygon", "coordinates": [[[103.4176, 21.3186], [103.4222, 21.3255], [103.4361, 21.3206], [103.4448, 21.3428], [103.4558, 21.3513], [103.4665, 21.3498], [103.4845, 21.3378], [103.4757, 21.3274], [103.4774, 21.314], [103.4967, 21.2806], [103.4971, 21.2697], [103.5031, 21.2668], [103.5037, 21.2582], [103.5169, 21.2519], [103.5228, 21.2544], [103.5322, 21.2408], [103.5471, 21.2384], [103.5433, 21.2269], [103.5466, 21.2232], [103.5799, 21.2167], [103.5791, 21.2216], [103.5886, 21.2229], [103.5836, 21.2409], [103.5742, 21.2415], [103.5581, 21.2553], [103.5547, 21.2624], [103.5608, 21.2718], [103.5466, 21.2851], [103.5545, 21.2901], [103.5741, 21.2796], [103.5934, 21.3098], [103.656, 21.2813], [103.6667, 21.2656], [103.6942, 21.2589], [103.7179, 21.2576], [103.7305, 21.2637], [103.743, 21.2604], [103.751, 21.2375], [103.7671, 21.2299], [103.7778, 21.2093], [103.7954, 21.2132], [103.8164, 21.2], [103.8218, 21.2147], [103.8159, 21.2527], [103.8275, 21.2603], [103.836, 21.2743], [103.8038, 21.3008], [103.8097, 21.3037], [103.8289, 21.2993], [103.8293, 21.316], [103.8392, 21.3356], [103.8402, 21.3599], [103.8141, 21.3556], [103.8154, 21.3674], [103.8217, 21.3748], [103.8103, 21.384], [103.8103, 21.3961], [103.833, 21.413], [103.8348, 21.4363], [103.8434, 21.4415], [103.8795, 21.4385], [103.8796, 21.431], [103.902, 21.4309], [103.9058, 21.4234], [103.9325, 21.4245], [103.9471, 21.4387], [103.955, 21.4649], [103.9758, 21.4658], [103.9854, 21.4743], [103.9849, 21.4847], [103.9949, 21.495], [103.9757, 21.5005], [103.9626, 21.519], [103.9472, 21.5214], [103.9345, 21.5167], [103.9274, 21.5284], [103.8972, 21.5417], [103.8747, 21.5448], [103.8572, 21.5386], [103.8236, 21.5539], [103.8009, 21.5406], [103.7985, 21.5285], [103.7684, 21.5439], [103.7474, 21.541], [103.7287, 21.5294], [103.7143, 21.5277], [103.7094, 21.5218], [103.7056, 21.5226], [103.7026, 21.5363], [103.6931, 21.5398], [103.6717, 21.5313], [103.6676, 21.5375], [103.6493, 21.5395], [103.6298, 21.5649], [103.633, 21.5828], [103.6607, 21.5929], [103.6357, 21.6217], [103.6315, 21.6127], [103.6147, 21.6077], [103.6003, 21.6178], [103.5858, 21.6187], [103.5916, 21.6251], [103.5871, 21.629], [103.5587, 21.6249], [103.5482, 21.6028], [103.5391, 21.6007], [103.5381, 21.5895], [103.5296, 21.5854], [103.5336, 21.5691], [103.5198, 21.5644], [103.5216, 21.5445], [103.5177, 21.5338], [103.5047, 21.535], [103.483, 21.5203], [103.4587, 21.5183], [103.4614, 21.5124], [103.4518, 21.5019], [103.4474, 21.4872], [103.4533, 21.4801], [103.4565, 21.4579], [103.4455, 21.4429], [103.4494, 21.438], [103.4418, 21.4312], [103.4183, 21.4264], [103.3923, 21.4369], [103.378, 21.4358], [103.3794, 21.4308], [103.3749, 21.4275], [103.3532, 21.4249], [103.3444, 21.4296], [103.3303, 21.4151], [103.3398, 21.3998], [103.3574, 21.3903], [103.3618, 21.3717], [103.3878, 21.367], [103.3696, 21.3314], [103.3976, 21.3172], [103.4176, 21.3186]]]}}, {"type": "Feature", "properties": {"osm_type": "relation", "osm_id": 219742844, "name": "Van Ho", "admin_level": "6", "kind": "subdivision_2", "parent_osm_id": 1903291, "parent_name": "Sơn La Province", "parent_iso": "VN-05"}, "geometry": {"type": "Polygon", "coordinates": [[[104.8687, 21.0296], [104.8508, 21.0282], [104.824, 21.0359], [104.8036, 21.0317], [104.7929, 21.0413], [104.7661, 21.0446], [104.763, 21.027], [104.785, 20.9975], [104.7959, 20.9657], [104.7843, 20.9435], [104.8136, 20.938], [104.8081, 20.9321], [104.8128, 20.9317], [104.8111, 20.9243], [104.816, 20.9167], [104.8136, 20.9074], [104.8058, 20.9025], [104.8205, 20.8882], [104.8143, 20.8821], [104.8154, 20.8643], [104.7764, 20.8644], [104.7871, 20.8458], [104.7658, 20.8357], [104.7612, 20.8249], [104.7659, 20.8194], [104.7627, 20.8135], [104.714, 20.8026], [104.6646, 20.8099], [104.7019, 20.7656], [104.6833, 20.7703], [104.6711, 20.7537], [104.6591, 20.7486], [104.6582, 20.7245], [104.6476, 20.7057], [104.6501, 20.696], [104.6564, 20.692], [104.6375, 20.6714], [104.6402, 20.6526], [104.6584, 20.6365], [104.6644, 20.6232], [104.6855, 20.611], [104.6871, 20.5943], [104.6958, 20.5963], [104.6986, 20.6019], [104.7237, 20.6026], [104.7298, 20.5866], [104.7431, 20.573], [104.756, 20.575], [104.7634, 20.5823], [104.7767, 20.5731], [104.7819, 20.5812], [104.8024, 20.583], [104.7994, 20.6183], [104.813, 20.6326], [104.8168, 20.6301], [104.8475, 20.6496], [104.837, 20.6602], [104.8416, 20.6857], [104.8365, 20.697], [104.8493, 20.7032], [104.8387, 20.7155], [104.8448, 20.731], [104.8367, 20.7346], [104.8369, 20.7454], [104.8429, 20.7523], [104.8593, 20.7537], [104.8743, 20.7676], [104.8822, 20.7675], [104.9035, 20.7537], [104.9169, 20.7531], [104.9237, 20.7437], [104.9392, 20.7441], [104.9463, 20.7361], [104.954, 20.7398], [104.973, 20.7268], [104.9796, 20.7305], [104.9996, 20.7281], [105.0133, 20.7335], [105.0134, 20.7411], [104.9906, 20.755], [105.0058, 20.7819], [105.0053, 20.7892], [105.0125, 20.7851], [105.0253, 20.8022], [105.0018, 20.814], [104.9861, 20.8141], [105.0006, 20.822], [105.0063, 20.8449], [104.9971, 20.8465], [105.0014, 20.8561], [104.9797, 20.8922], [104.9784, 20.9054], [104.9396, 20.9325], [104.9217, 20.965], [104.8952, 20.9874], [104.8912, 21.0069], [104.8818, 21.0219], [104.8687, 21.0296]]]}}, {"type": "Feature", "properties": {"osm_type": "relation", "osm_id": 195410188, "name": "Yen Chau", "admin_level": "6", "kind": "subdivision_2", "parent_osm_id": 1903291, "parent_name": "Sơn La Province", "parent_iso": "VN-05"}, "geometry": {"type": "Polygon", "coordinates": [[[104.2279, 21.1858], [104.1998, 21.1551], [104.2064, 21.1435], [104.1976, 21.1267], [104.2123, 21.1079], [104.2064, 21.0952], [104.2081, 21.0728], [104.1806, 21.0589], [104.1694, 21.0434], [104.1746, 21.0388], [104.1626, 21.0301], [104.1553, 21.0169], [104.1333, 21.0163], [104.1177, 21.0035], [104.1259, 20.9962], [104.1203, 20.9709], [104.1316, 20.9481], [104.1911, 20.9561], [104.1969, 20.945], [104.2426, 20.933], [104.2377, 20.9187], [104.2402, 20.911], [104.2576, 20.8982], [104.2667, 20.9173], [104.2813, 20.9249], [104.2923, 20.9227], [104.2964, 20.9097], [104.3126, 20.9039], [104.3336, 20.8808], [104.3356, 20.8709], [104.3293, 20.8561], [104.3373, 20.8592], [104.3743, 20.8212], [104.3809, 20.8191], [104.3842, 20.827], [104.3941, 20.8215], [104.4177, 20.7972], [104.4329, 20.8121], [104.4229, 20.8269], [104.4275, 20.8455], [104.4363, 20.8575], [104.4377, 20.875], [104.4537, 20.8844], [104.4722, 20.884], [104.4685, 20.9111], [104.4833, 20.9139], [104.5077, 20.9377], [104.4994, 20.9698], [104.5139, 20.9733], [104.5217, 20.9842], [104.5347, 20.9797], [104.5479, 21.0004], [104.5168, 21.0216], [104.4771, 21.033], [104.4521, 21.052], [104.4187, 21.0566], [104.4083, 21.0685], [104.3817, 21.0761], [104.3811, 21.0918], [104.3505, 21.1161], [104.3219, 21.1316], [104.309, 21.1279], [104.2959, 21.131], [104.2902, 21.1391], [104.2747, 21.1448], [104.2645, 21.157], [104.2405, 21.1706], [104.2279, 21.1858]]]}}]}