{"type": "FeatureCollection", "parent": {"osm_id": 1907899, "name": "Puno", "admin_level": "4", "kind": "subdivision_1", "child_kind": "subdivision_2", "iso": "PE-PUN"}, "features": [{"type": "Feature", "properties": {"osm_type": "relation", "osm_id": 729642788, "name": "Azangaro", "admin_level": "6", "kind": "subdivision_2", "parent_osm_id": 1907899, "parent_name": "Puno", "parent_iso": "PE-PUN"}, "geometry": {"type": "Polygon", "coordinates": [[[-69.8899, -14.4343], [-69.9083, -14.4103], [-69.9398, -14.3987], [-69.9582, -14.3761], [-69.9728, -14.3683], [-69.9985, -14.3711], [-70.0413, -14.3653], [-70.0529, -14.3703], [-70.1113, -14.3587], [-70.1186, -14.3516], [-70.1211, -14.3556], [-70.132, -14.3494], [-70.1364, -14.3552], [-70.1356, -14.3482], [-70.1445, -14.3372], [-70.1495, -14.3407], [-70.1561, -14.331], [-70.1588, -14.333], [-70.1581, -14.3241], [-70.1671, -14.3239], [-70.1685, -14.3176], [-70.1702, -14.3236], [-70.1725, -14.3188], [-70.1833, -14.3193], [-70.1797, -14.2928], [-70.196, -14.2854], [-70.2094, -14.2684], [-70.2219, -14.2797], [-70.2237, -14.2975], [-70.2301, -14.3087], [-70.2513, -14.3054], [-70.2578, -14.2874], [-70.2682, -14.283], [-70.2681, -14.3009], [-70.2811, -14.3294], [-70.3043, -14.3456], [-70.3147, -14.3402], [-70.3278, -14.3528], [-70.3235, -14.372], [-70.3152, -14.38], [-70.3201, -14.3948], [-70.318, -14.406], [-70.3272, -14.4193], [-70.334, -14.4526], [-70.3296, -14.4681], [-70.3415, -14.4944], [-70.3528, -14.5077], [-70.3526, -14.5304], [-70.3692, -14.5411], [-70.3666, -14.5507], [-70.3454, -14.5658], [-70.3426, -14.5793], [-70.3655, -14.5974], [-70.3891, -14.5715], [-70.404, -14.5623], [-70.4308, -14.5791], [-70.4124, -14.601], [-70.4172, -14.6149], [-70.3877, -14.6367], [-70.3818, -14.6664], [-70.3979, -14.7005], [-70.4002, -14.7167], [-70.4171, -14.7313], [-70.4268, -14.7702], [-70.4455, -14.788], [-70.4542, -14.8249], [-70.4422, -14.8328], [-70.4439, -14.8457], [-70.4364, -14.8579], [-70.461, -14.8911], [-70.4682, -14.9264], [-70.4625, -14.928], [-70.4654, -14.9332], [-70.4456, -14.9426], [-70.4482, -14.9486], [-70.4424, -14.9535], [-70.4309, -14.9517], [-70.4188, -14.9661], [-70.41, -14.9654], [-70.405, -14.958], [-70.3973, -14.9745], [-70.3865, -14.972], [-70.3908, -14.9812], [-70.3763, -14.9822], [-70.381, -14.9918], [-70.3708, -14.9939], [-70.3834, -14.9949], [-70.3836, -14.9997], [-70.3721, -15.0031], [-70.3686, -14.9973], [-70.3618, -14.9978], [-70.3654, -15.0119], [-70.3626, -15.0193], [-70.3451, -15.0316], [-70.3494, -15.0348], [-70.3611, -15.0311], [-70.364, -15.0356], [-70.3537, -15.0406], [-70.3605, -15.0497], [-70.3446, -15.0727], [-70.348, -15.0819], [-70.3444, -15.0841], [-70.3516, -15.0857], [-70.3602, -15.1144], [-70.3584, -15.1186], [-70.3496, -15.1151], [-70.3471, -15.1192], [-70.3592, -15.1234], [-70.3576, -15.1304], [-70.3472, -15.1366], [-70.3502, -15.141], [-70.3609, -15.1404], [-70.3495, -15.1497], [-70.3563, -15.1637], [-70.3497, -15.1677], [-70.2735, -15.1656], [-70.2297, -15.2013], [-70.2274, -15.252], [-70.209, -15.2519], [-70.2044, -15.299], [-70.1738, -15.303], [-70.1605, -15.2926], [-70.1546, -15.2977], [-70.1481, -15.3126], [-70.1565, -15.3255], [-70.1628, -15.3245], [-70.1592, -15.3548], [-70.132, -15.3338], [-70.1235, -15.3373], [-70.1071, -15.3453], [-70.0947, -15.3837], [-70.0695, -15.3564], [-70.051, -15.3543], [-70.047, -15.3702], [-70.0255, -15.3984], [-70.0061, -15.4028], [-69.9976, -15.3938], [-69.9839, -15.3932], [-69.9754, -15.3834], [-69.9857, -15.3701], [-69.9888, -15.346], [-70.006, -15.3271], [-70.0026, -15.2977], [-70.0061, -15.2916], [-69.9954, -15.2741], [-69.9409, -15.2383], [-69.9302, -15.2427], [-69.9239, -15.2335], [-69.9032, -15.2356], [-69.8989, -15.2308], [-69.8959, -15.2119], [-69.8801, -15.198], [-69.8993, -15.1749], [-69.8966, -15.1468], [-69.8766, -15.1088], [-69.8843, -15.1026], [-69.8999, -15.1104], [-69.9099, -15.0946], [-69.9173, -15.0979], [-69.9223, -15.0886], [-69.9158, -15.078], [-69.9246, -15.0681], [-69.9219, -15.0594], [-69.9473, -15.055], [-69.9669, -15.0296], [-69.9625, -14.9973], [-69.967, -14.9924], [-69.9615, -14.9867], [-69.9623, -14.9711], [-69.9582, -14.9644], [-69.9761, -14.944], [-69.9659, -14.9254], [-69.9766, -14.9066], [-69.9773, -14.8869], [-69.9886, -14.8731], [-69.9701, -14.8608], [-69.9695, -14.852], [-69.9515, -14.8512], [-69.9382, -14.8429], [-69.9222, -14.8624], [-69.9116, -14.8653], [-69.8977, -14.8518], [-69.9042, -14.8355], [-69.9008, -14.8273], [-69.8496, -14.7901], [-69.8583, -14.7776], [-69.853, -14.7717], [-69.8542, -14.7608], [-69.8362, -14.7384], [-69.8412, -14.7227], [-69.8485, -14.7195], [-69.8587, -14.6863], [-69.8507, -14.6776], [-69.8486, -14.6558], [-69.857, -14.647], [-69.8599, -14.6201], [-69.855, -14.6122], [-69.8651, -14.5853], [-69.8774, -14.6025], [-69.8896, -14.5857], [-69.8868, -14.5777], [-69.8994, -14.5662], [-69.9139, -14.5797], [-69.9343, -14.5687], [-69.9663, -14.5736], [-69.9858, -14.5838], [-69.9974, -14.5775], [-70.0042, -14.563], [-70.0118, -14.5589], [-70.0049, -14.5549], [-70.004, -14.5451], [-69.9861, -14.5238], [-69.9794, -14.5249], [-69.9745, -14.5149], [-69.9674, -14.5146], [-69.9542, -14.5041], [-69.9498, -14.4916], [-69.935, -14.4896], [-69.9254, -14.4824], [-69.9124, -14.4845], [-69.8949, -14.4783], [-69.8902, -14.4683], [-69.8899, -14.4343]]]}}, {"type": "Feature", "properties": {"osm_type": "relation", "osm_id": 689851314, "name": "Carabaya", "admin_level": "6", "kind": "subdivision_2", "parent_osm_id": 1907899, "parent_name": "Puno", "parent_iso": "PE-PUN"}, "geometry": {"type": "Polygon", "coordinates": [[[-69.8899, -14.4343], [-69.8846, -14.4408], [-69.8767, -14.4378], [-69.8701, -14.4447], [-69.843, -14.4429], [-69.8241, -14.4505], [-69.817, -14.4487], [-69.8103, -14.4594], [-69.7997, -14.4539], [-69.7961, -14.4566], [-69.7951, -14.4464], [-69.7852, -14.4511], [-69.7777, -14.4486], [-69.7692, -14.4537], [-69.7657, -14.4725], [-69.7559, -14.4734], [-69.757, -14.4782], [-69.7319, -14.4928], [-69.7274, -14.5087], [-69.7092, -14.5081], [-69.691, -14.5178], [-69.6826, -14.4901], [-69.6594, -14.4578], [-69.6688, -14.4431], [-69.6816, -14.4413], [-69.689, -14.4208], [-69.7018, -14.4159], [-69.7145, -14.4234], [-69.7222, -14.4209], [-69.7289, -14.3964], [-69.7278, -14.3707], [-69.7331, -14.3651], [-69.7283, -14.3482], [-69.7363, -14.3338], [-69.7574, -14.3356], [-69.7671, -14.328], [-69.7694, -14.3179], [-69.7832, -14.312], [-69.7808, -14.2952], [-69.7853, -14.2759], [-69.8005, -14.2682], [-69.8319, -14.2693], [-69.8401, -14.2746], [-69.8536, -14.2554], [-69.8492, -14.2484], [-69.8511, -14.2317], [-69.8433, -14.2212], [-69.8504, -14.2122], [-69.8412, -14.2066], [-69.8403, -14.1921], [-69.8233, -14.1619], [-69.8253, -14.1468], [-69.8325, -14.1439], [-69.8329, -14.1382], [-69.8211, -14.1311], [-69.7975, -14.0667], [-69.7796, -14.0542], [-69.7782, -14.0458], [-69.7648, -14.0369], [-69.7647, -14.0308], [-69.7527, -14.0349], [-69.7254, -14.0192], [-69.7232, -13.977], [-69.7049, -13.9521], [-69.7022, -13.9358], [-69.6802, -13.9234], [-69.665, -13.9054], [-69.6645, -13.8824], [-69.6777, -13.8704], [-69.6978, -13.867], [-69.72, -13.8417], [-69.7285, -13.8411], [-69.7346, -13.8314], [-69.7325, -13.8117], [-69.7494, -13.8057], [-69.7531, -13.7961], [-69.7617, -13.7922], [-69.7636, -13.7847], [-69.7759, -13.7742], [-69.7778, -13.7589], [-69.7858, -13.7497], [-69.7787, -13.7389], [-69.7691, -13.7456], [-69.762, -13.7381], [-69.7537, -13.7379], [-69.746, -13.6906], [-69.7524, -13.6765], [-69.7263, -13.6347], [-69.7236, -13.6107], [-69.7185, -13.6043], [-69.7261, -13.592], [-69.7204, -13.5874], [-69.7125, -13.5516], [-69.707, -13.5493], [-69.7109, -13.5373], [-69.7019, -13.5341], [-69.6962, -13.5217], [-69.7146, -13.521], [-69.7192, -13.5133], [-69.7371, -13.5057], [-69.7238, -13.4922], [-69.7131, -13.5056], [-69.7044, -13.4997], [-69.6898, -13.5045], [-69.6827, -13.5008], [-69.669, -13.4752], [-69.6792, -13.4577], [-69.6655, -13.4549], [-69.6547, -13.459], [-69.6512, -13.4267], [-69.6418, -13.4084], [-69.6323, -13.4083], [-69.6541, -13.3798], [-69.6499, -13.3417], [-70.4029, -13.1144], [-70.4044, -13.1261], [-70.4177, -13.1331], [-70.409, -13.1389], [-70.3897, -13.1315], [-70.4012, -13.1532], [-70.3856, -13.167], [-70.3831, -13.1831], [-70.3885, -13.1924], [-70.3843, -13.2029], [-70.3911, -13.2191], [-70.3892, -13.2299], [-70.4163, -13.2426], [-70.4227, -13.2555], [-70.4079, -13.263], [-70.4054, -13.2694], [-70.3708, -13.2764], [-70.3466, -13.2952], [-70.3458, -13.3127], [-70.3681, -13.3071], [-70.3719, -13.3133], [-70.3839, -13.3109], [-70.3956, -13.3167], [-70.4025, -13.3294], [-70.3927, -13.3448], [-70.3995, -13.3716], [-70.4198, -13.3586], [-70.4313, -13.3577], [-70.434, -13.3621], [-70.4511, -13.3652], [-70.4426, -13.3954], [-70.4487, -13.3978], [-70.4511, -13.4119], [-70.4718, -13.4399], [-70.4526, -13.4479], [-70.4888, -13.5004], [-70.5199, -13.514], [-70.5389, -13.5313], [-70.5466, -13.5498], [-70.5422, -13.5598], [-70.5436, -13.5776], [-70.5503, -13.5768], [-70.5604, -13.5866], [-70.5779, -13.5858], [-70.5886, -13.5986], [-70.6007, -13.5991], [-70.6162, -13.6091], [-70.6253, -13.6259], [-70.6628, -13.6606], [-70.6707, -13.6621], [-70.6895, -13.6526], [-70.6995, -13.6598], [-70.7151, -13.6623], [-70.7143, -13.6772], [-70.7209, -13.683], [-70.7212, -13.7002], [-70.7359, -13.7125], [-70.7354, -13.7353], [-70.7187, -13.7649], [-70.7221, -13.7706], [-70.7139, -13.7728], [-70.6989, -13.8032], [-70.7086, -13.8281], [-70.7092, -13.8431], [-70.7322, -13.8234], [-70.7677, -13.8144], [-70.793, -13.817], [-70.7967, -13.8224], [-70.8179, -13.8205], [-70.8284, -13.8276], [-70.8491, -13.8153], [-70.8533, -13.7989], [-70.8625, -13.8003], [-70.8793, -13.8157], [-70.8812, -13.8328], [-70.8723, -13.8409], [-70.8613, -13.8433], [-70.8542, -13.8535], [-70.8334, -13.8558], [-70.8256, -13.8781], [-70.8309, -13.8951], [-70.8142, -13.9011], [-70.8097, -13.9123], [-70.8199, -13.9294], [-70.833, -13.9381], [-70.8468, -13.9651], [-70.8439, -13.9761], [-70.8526, -13.9982], [-70.8407, -14.009], [-70.8535, -14.0129], [-70.8612, -14.0232], [-70.8588, -14.0344], [-70.8495, -14.0542], [-70.8317, -14.0615], [-70.8295, -14.0763], [-70.8179, -14.0676], [-70.7959, -14.0721], [-70.7857, -14.0823], [-70.7181, -14.0757], [-70.7034, -14.0856], [-70.7022, -14.1007], [-70.6946, -14.1102], [-70.692, -14.1239], [-70.6682, -14.1263], [-70.6524, -14.1209], [-70.6401, -14.131], [-70.6352, -14.1466], [-70.6193, -14.1594], [-70.6124, -14.1539], [-70.6072, -14.1615], [-70.599, -14.155], [-70.5894, -14.1579], [-70.5826, -14.1487], [-70.57, -14.1446], [-70.5671, -14.1526], [-70.551, -14.1553], [-70.5412, -14.1897], [-70.522, -14.2022], [-70.5136, -14.1986], [-70.5026, -14.2042], [-70.4962, -14.2202], [-70.4815, -14.2234], [-70.4736, -14.2202], [-70.4418, -14.1876], [-70.4252, -14.1781], [-70.4139, -14.1824], [-70.4083, -14.1906], [-70.3877, -14.1962], [-70.3782, -14.1897], [-70.3635, -14.1882], [-70.3566, -14.1706], [-70.3295, -14.1752], [-70.3163, -14.2058], [-70.3022, -14.2185], [-70.2894, -14.2183], [-70.2904, -14.2583], [-70.2859, -14.2677], [-70.2728, -14.2672], [-70.2753, -14.2768], [-70.2578, -14.2874], [-70.2513, -14.3054], [-70.2273, -14.3077], [-70.2219, -14.2797], [-70.2094, -14.2684], [-70.196, -14.2854], [-70.1797, -14.2928], [-70.1833, -14.3193], [-70.1725, -14.3188], [-70.1702, -14.3236], [-70.1685, -14.3176], [-70.1671, -14.3239], [-70.1581, -14.3241], [-70.1588, -14.333], [-70.1561, -14.331], [-70.1495, -14.3407], [-70.1445, -14.3372], [-70.1356, -14.3482], [-70.1364, -14.3552], [-70.132, -14.3494], [-70.1211, -14.3556], [-70.1186, -14.3516], [-70.1113, -14.3587], [-70.0529, -14.3703], [-70.0413, -14.3653], [-69.9985, -14.3711], [-69.9728, -14.3683], [-69.9582, -14.3761], [-69.9398, -14.3987], [-69.9083, -14.4103], [-69.8899, -14.4343]]]}}, {"type": "Feature", "properties": {"osm_type": "relation", "osm_id": 228449552, "name": "Chucuito", "admin_level": "6", "kind": "subdivision_2", "parent_osm_id": 1907899, "parent_name": "Puno", "parent_iso": "PE-PUN"}, "geometry": {"type": "Polygon", "coordinates": [[[-69.5139, -16.18], [-69.5395, -16.1757], [-69.5557, -16.1843], [-69.5726, -16.1743], [-69.5855, -16.2262], [-69.5856, -16.2458], [-69.5803, -16.2518], [-69.592, -16.2862], [-69.5951, -16.2909], [-69.6052, -16.2918], [-69.609, -16.3007], [-69.6214, -16.3039], [-69.6322, -16.3009], [-69.6551, -16.3151], [-69.6574, -16.3226], [-69.6521, -16.3392], [-69.6657, -16.3319], [-69.6724, -16.337], [-69.6762, -16.3478], [-69.668, -16.3646], [-69.6867, -16.378], [-69.6837, -16.3892], [-69.6699, -16.4058], [-69.6679, -16.4201], [-69.6607, -16.4259], [-69.6235, -16.4286], [-69.5829, -16.443], [-69.563, -16.4313], [-69.5544, -16.4464], [-69.5361, -16.418], [-69.5169, -16.4351], [-69.5032, -16.4342], [-69.501, -16.4272], [-69.4838, -16.4287], [-69.4716, -16.4587], [-69.4709, -16.4746], [-69.4801, -16.4873], [-69.4746, -16.4957], [-69.4746, -16.5092], [-69.4883, -16.5264], [-69.4851, -16.5549], [-69.4992, -16.5655], [-69.4889, -16.5888], [-69.4922, -16.6081], [-69.4876, -16.6239], [-69.4985, -16.6373], [-69.4976, -16.6557], [-69.5069, -16.6611], [-69.5257, -16.6552], [-69.5425, -16.6712], [-69.5366, -16.6848], [-69.5368, -16.6985], [-69.5196, -16.7183], [-69.5116, -16.7469], [-69.5179, -16.7528], [-69.5199, -16.7723], [-69.5342, -16.7867], [-69.5401, -16.7872], [-69.5469, -16.8104], [-69.5574, -16.8152], [-69.5658, -16.8332], [-69.5551, -16.8493], [-69.566, -16.8764], [-69.5566, -16.8952], [-69.566, -16.9024], [-69.5685, -16.9169], [-69.5341, -16.9653], [-69.546, -16.9719], [-69.5466, -16.9794], [-69.5363, -17.0138], [-69.5375, -17.028], [-69.5452, -17.0397], [-69.5361, -17.0508], [-69.5348, -17.0609], [-69.549, -17.0649], [-69.5497, -17.0713], [-69.56, -17.0727], [-69.5713, -17.0846], [-69.586, -17.079], [-69.603, -17.0958], [-69.5874, -17.1129], [-69.5895, -17.141], [-69.5628, -17.175], [-69.5569, -17.1593], [-69.5118, -17.1462], [-69.4491, -17.0978], [-69.4329, -17.1099], [-69.4063, -17.1003], [-69.3737, -17.0731], [-69.3731, -17.0483], [-69.3936, -17.0206], [-69.369, -16.9904], [-69.3436, -16.9869], [-69.3354, -16.9803], [-69.3201, -16.9608], [-69.3246, -16.9515], [-69.3047, -16.9158], [-69.2534, -16.861], [-69.2192, -16.8361], [-69.1975, -16.7992], [-69.1862, -16.7976], [-69.1817, -16.7575], [-69.17, -16.7275], [-69.153, -16.7246], [-69.1364, -16.7135], [-69.1239, -16.7162], [-69.1045, -16.7125], [-69.0585, -16.6929], [-69.0552, -16.6867], [-69.0435, -16.6878], [-68.9961, -16.6566], [-69.0171, -16.6382], [-69.0212, -16.6171], [-69.0313, -16.6058], [-69.0391, -16.5729], [-69.0368, -16.5599], [-69.0553, -16.5384], [-69.0677, -16.5312], [-69.0813, -16.4987], [-69.098, -16.4978], [-69.0985, -16.4905], [-69.0911, -16.4822], [-69.0918, -16.4702], [-69.0858, -16.4697], [-69.083, -16.4616], [-69.066, -16.4524], [-69.0553, -16.4325], [-69.0466, -16.4347], [-69.0425, -16.4301], [-69.0435, -16.4164], [-69.0601, -16.4043], [-69.0542, -16.3926], [-69.0667, -16.3929], [-69.0744, -16.3827], [-69.0949, -16.3709], [-69.1243, -16.3655], [-69.1246, -16.3947], [-69.1363, -16.3972], [-69.1451, -16.374], [-69.1365, -16.3546], [-69.1413, -16.3316], [-69.1661, -16.325], [-69.1782, -16.314], [-69.1898, -16.3155], [-69.2033, -16.3006], [-69.2002, -16.2642], [-69.2284, -16.2682], [-69.235, -16.262], [-69.2464, -16.2708], [-69.2375, -16.2733], [-69.246, -16.2848], [-69.2578, -16.2858], [-69.2547, -16.2918], [-69.2581, -16.3001], [-69.2679, -16.2904], [-69.2821, -16.2869], [-69.2902, -16.2714], [-69.2867, -16.2593], [-69.2951, -16.2604], [-69.2947, -16.2541], [-69.3123, -16.2571], [-69.3552, -16.2511], [-69.3756, -16.2356], [-69.3994, -16.2069], [-69.4004, -16.1994], [-69.3908, -16.1991], [-69.3836, -16.191], [-69.3883, -16.1804], [-69.404, -16.1904], [-69.4241, -16.1789], [-69.4339, -16.1805], [-69.46, -16.2021], [-69.4727, -16.1982], [-69.4928, -16.2084], [-69.509, -16.1951], [-69.5139, -16.18]]]}}, {"type": "Feature", "properties": {"osm_type": "relation", "osm_id": 127984855, "name": "El Collao", "admin_level": "6", "kind": "subdivision_2", "parent_osm_id": 1907899, "parent_name": "Puno", "parent_iso": "PE-PUN"}, "geometry": {"type": "Polygon", "coordinates": [[[-70.0732, -17.0349], [-70.0423, -17.0587], [-70.0468, -17.0994], [-70.0403, -17.1277], [-70.0251, -17.1222], [-70.0139, -17.141], [-69.9876, -17.1514], [-69.9814, -17.1686], [-69.9723, -17.166], [-69.968, -17.1785], [-69.9428, -17.1978], [-69.9235, -17.2037], [-69.8986, -17.2209], [-69.8755, -17.2223], [-69.8508, -17.2441], [-69.8199, -17.2414], [-69.7987, -17.232], [-69.7906, -17.2353], [-69.7653, -17.2634], [-69.7618, -17.2804], [-69.7311, -17.2955], [-69.715, -17.2914], [-69.7115, -17.2821], [-69.6952, -17.2744], [-69.6829, -17.2787], [-69.6554, -17.2708], [-69.6413, -17.2874], [-69.6443, -17.281], [-69.6363, -17.2712], [-69.6283, -17.2735], [-69.616, -17.2613], [-69.6011, -17.2165], [-69.5781, -17.2065], [-69.569, -17.194], [-69.5732, -17.1852], [-69.5628, -17.175], [-69.5895, -17.141], [-69.5874, -17.1129], [-69.603, -17.0958], [-69.586, -17.079], [-69.5713, -17.0846], [-69.56, -17.0727], [-69.5497, -17.0713], [-69.549, -17.0649], [-69.5348, -17.0609], [-69.5361, -17.0508], [-69.5452, -17.0397], [-69.5375, -17.028], [-69.5363, -17.0138], [-69.5466, -16.9794], [-69.546, -16.9719], [-69.5341, -16.9653], [-69.5685, -16.9169], [-69.566, -16.9024], [-69.5566, -16.8952], [-69.566, -16.8764], [-69.5551, -16.8493], [-69.5658, -16.8332], [-69.5574, -16.8152], [-69.5469, -16.8104], [-69.5401, -16.7872], [-69.5342, -16.7867], [-69.5199, -16.7723], [-69.5179, -16.7528], [-69.5116, -16.7469], [-69.5196, -16.7183], [-69.5368, -16.6985], [-69.5366, -16.6848], [-69.5425, -16.6712], [-69.5257, -16.6552], [-69.5069, -16.6611], [-69.4976, -16.6557], [-69.4985, -16.6373], [-69.4876, -16.6239], [-69.4922, -16.6081], [-69.4889, -16.5888], [-69.4992, -16.5655], [-69.4851, -16.5549], [-69.4883, -16.5264], [-69.4746, -16.5092], [-69.4746, -16.4957], [-69.4801, -16.4873], [-69.4709, -16.4746], [-69.4716, -16.4587], [-69.4838, -16.4287], [-69.501, -16.4272], [-69.5032, -16.4342], [-69.5169, -16.4351], [-69.5361, -16.418], [-69.5544, -16.4464], [-69.563, -16.4313], [-69.5829, -16.443], [-69.6235, -16.4286], [-69.6607, -16.4259], [-69.6679, -16.4201], [-69.6699, -16.4058], [-69.6837, -16.3892], [-69.6867, -16.378], [-69.668, -16.3646], [-69.6762, -16.3478], [-69.6724, -16.337], [-69.6657, -16.3319], [-69.6521, -16.3392], [-69.6574, -16.3226], [-69.6551, -16.3151], [-69.6322, -16.3009], [-69.6214, -16.3039], [-69.609, -16.3007], [-69.6052, -16.2918], [-69.5951, -16.2909], [-69.592, -16.2862], [-69.5803, -16.2518], [-69.5856, -16.2458], [-69.5855, -16.2262], [-69.5726, -16.1743], [-69.5557, -16.1843], [-69.5395, -16.1757], [-69.5139, -16.18], [-69.511, -16.1691], [-69.5166, -16.1607], [-69.5123, -16.1628], [-69.5107, -16.1579], [-69.505, -16.1749], [-69.5024, -16.1734], [-69.4919, -16.1603], [-69.5055, -16.1437], [-69.4931, -16.1302], [-69.4895, -16.1323], [-69.4918, -16.1242], [-69.4896, -16.1271], [-69.4739, -16.1161], [-69.4763, -16.111], [-69.4695, -16.1126], [-69.4728, -16.1069], [-69.4672, -16.1087], [-69.4687, -16.0943], [-69.4639, -16.0968], [-69.4561, -16.0907], [-69.4595, -16.087], [-69.4506, -16.0776], [-69.457, -16.0689], [-69.4556, -16.0607], [-69.4469, -16.0627], [-69.439, -16.0544], [-69.4555, -16.0459], [-69.4375, -16.0539], [-69.4369, -16.0498], [-69.4318, -16.0804], [-69.4457, -16.1102], [-69.4525, -16.1145], [-69.4451, -16.1125], [-69.4294, -16.0926], [-69.4239, -16.0453], [-69.4439, -16.0162], [-69.4443, -16.0028], [-69.4517, -15.9936], [-69.4814, -15.9942], [-69.5311, -15.9693], [-69.5627, -15.9595], [-69.6102, -15.9568], [-69.5574, -15.9625], [-69.5347, -15.9701], [-69.5036, -15.9849], [-69.4622, -16.0175], [-69.4762, -16.0181], [-69.4789, -16.0041], [-69.4858, -16.0044], [-69.4884, -16.0135], [-69.4963, -16.0148], [-69.4985, -15.9997], [-69.5172, -15.9891], [-69.5182, -15.9826], [-69.5236, -15.9862], [-69.5371, -15.9761], [-69.5388, -15.981], [-69.5405, -15.9757], [-69.5452, -15.9817], [-69.5574, -15.9754], [-69.5723, -15.9831], [-69.5798, -15.9819], [-69.5802, -15.9878], [-69.592, -15.9854], [-69.5983, -15.9902], [-69.6097, -15.9834], [-69.6098, -15.9977], [-69.6212, -16.0137], [-69.6285, -16.019], [-69.6454, -16.0123], [-69.6512, -16.0154], [-69.6553, -16.0599], [-69.6689, -16.0693], [-69.6817, -16.0691], [-69.6882, -16.0844], [-69.7027, -16.0866], [-69.6974, -16.097], [-69.6689, -16.1149], [-69.6801, -16.1276], [-69.6889, -16.1287], [-69.6914, -16.1399], [-69.6869, -16.1487], [-69.6936, -16.1487], [-69.6916, -16.1603], [-69.7031, -16.1689], [-69.7066, -16.1945], [-69.7255, -16.2084], [-69.7436, -16.2044], [-69.7552, -16.2179], [-69.7605, -16.2153], [-69.7663, -16.2446], [-69.7756, -16.2599], [-69.8069, -16.2768], [-69.7982, -16.3214], [-69.8029, -16.3444], [-69.785, -16.3622], [-69.7971, -16.3722], [-69.7997, -16.3855], [-69.8135, -16.3936], [-69.838, -16.3922], [-69.852, -16.401], [-69.8553, -16.4237], [-69.8647, -16.4453], [-69.8841, -16.4635], [-69.8785, -16.4737], [-69.8947, -16.4995], [-69.8953, -16.509], [-69.9058, -16.5193], [-69.9266, -16.5143], [-69.9414, -16.5292], [-69.9635, -16.5384], [-69.9653, -16.5485], [-69.9907, -16.5788], [-70.0104, -16.5948], [-70.0242, -16.5968], [-70.0283, -16.6054], [-70.0246, -16.6312], [-70.0015, -16.6566], [-69.9984, -16.6751], [-70.0118, -16.6885], [-70.0101, -16.7004], [-69.9969, -16.7103], [-69.9956, -16.7298], [-70.0102, -16.7413], [-70.0355, -16.7429], [-70.0322, -16.7529], [-70.0571, -16.7702], [-70.0539, -16.7747], [-70.0578, -16.7878], [-70.0903, -16.8109], [-70.0943, -16.8909], [-70.1056, -16.8973], [-70.1181, -16.9238], [-70.1323, -16.9348], [-70.1466, -16.9387], [-70.1191, -16.9595], [-70.1171, -16.9726], [-70.0953, -16.9858], [-70.0998, -17.0057], [-70.0732, -17.0349]]]}}, {"type": "Feature", "properties": {"osm_type": "relation", "osm_id": 240050779, "name": "Huancane", "admin_level": "6", "kind": "subdivision_2", "parent_osm_id": 1907899, "parent_name": "Puno", "parent_iso": "PE-PUN"}, "geometry": {"type": "Polygon", "coordinates": [[[-70.0947, -15.3837], [-70.0908, -15.39], [-70.0788, -15.3876], [-70.0706, -15.3974], [-70.0813, -15.3988], [-70.0711, -15.4252], [-70.0782, -15.4388], [-70.0752, -15.4447], [-70.084, -15.4552], [-70.0532, -15.4458], [-70.0421, -15.4469], [-70.0254, -15.4379], [-70.0282, -15.4582], [-70.0038, -15.4704], [-70.0006, -15.481], [-69.9902, -15.4887], [-69.9971, -15.4953], [-69.9966, -15.5061], [-69.9718, -15.5364], [-69.9603, -15.5321], [-69.9471, -15.5144], [-69.932, -15.508], [-69.9069, -15.5078], [-69.8969, -15.4946], [-69.9221, -15.4549], [-69.9172, -15.439], [-69.9358, -15.4188], [-69.9327, -15.4099], [-69.943, -15.3972], [-69.928, -15.3849], [-69.9331, -15.3813], [-69.9295, -15.3769], [-69.9331, -15.3612], [-69.9271, -15.3748], [-69.9287, -15.3664], [-69.9262, -15.3627], [-69.9232, -15.366], [-69.9227, -15.372], [-69.9288, -15.3778], [-69.9255, -15.3843], [-69.9248, -15.379], [-69.9216, -15.3813], [-69.9236, -15.3745], [-69.9143, -15.3708], [-69.921, -15.3664], [-69.9065, -15.3674], [-69.9048, -15.3557], [-69.8875, -15.3615], [-69.8761, -15.3599], [-69.8739, -15.3772], [-69.8605, -15.3616], [-69.8526, -15.3603], [-69.8521, -15.3666], [-69.8451, -15.3634], [-69.8395, -15.3677], [-69.8237, -15.3554], [-69.8089, -15.3524], [-69.8073, -15.3569], [-69.7997, -15.358], [-69.7911, -15.3519], [-69.8069, -15.3451], [-69.8116, -15.3504], [-69.8219, -15.347], [-69.8265, -15.3523], [-69.8288, -15.3473], [-69.8293, -15.3531], [-69.8394, -15.3496], [-69.8465, -15.3449], [-69.8366, -15.3389], [-69.8449, -15.3303], [-69.8389, -15.3396], [-69.8495, -15.346], [-69.8442, -15.353], [-69.871, -15.3621], [-69.8717, -15.3669], [-69.874, -15.3565], [-69.8741, -15.3611], [-69.8801, -15.3557], [-69.8739, -15.3513], [-69.8808, -15.3454], [-69.89, -15.3476], [-69.8927, -15.341], [-69.8845, -15.3453], [-69.8804, -15.3417], [-69.8773, -15.3486], [-69.8709, -15.3486], [-69.8747, -15.3464], [-69.8662, -15.3426], [-69.8618, -15.3497], [-69.8569, -15.3474], [-69.8683, -15.341], [-69.8638, -15.3368], [-69.8692, -15.3401], [-69.8715, -15.3346], [-69.8856, -15.3291], [-69.8896, -15.3316], [-69.8898, -15.3212], [-69.8932, -15.3192], [-69.8954, -15.3246], [-69.9012, -15.3155], [-69.8958, -15.3098], [-69.8973, -15.304], [-69.9027, -15.3031], [-69.8896, -15.3024], [-69.8764, -15.3103], [-69.898, -15.2977], [-69.8945, -15.295], [-69.8801, -15.3014], [-69.8799, -15.2967], [-69.8748, -15.2986], [-69.876, -15.2944], [-69.8692, -15.2902], [-69.8671, -15.3026], [-69.8642, -15.2983], [-69.8561, -15.3027], [-69.8573, -15.2919], [-69.853, -15.2918], [-69.8535, -15.2956], [-69.8444, -15.2937], [-69.8417, -15.2865], [-69.8471, -15.2835], [-69.8441, -15.2807], [-69.8386, -15.2856], [-69.8368, -15.2789], [-69.8184, -15.3068], [-69.8204, -15.2927], [-69.8306, -15.2821], [-69.8294, -15.2771], [-69.815, -15.2741], [-69.8116, -15.2785], [-69.8163, -15.2876], [-69.794, -15.299], [-69.7812, -15.3199], [-69.7737, -15.3191], [-69.7739, -15.3061], [-69.7594, -15.3084], [-69.7517, -15.3027], [-69.7584, -15.2977], [-69.7509, -15.2832], [-69.7244, -15.2965], [-69.7225, -15.3075], [-69.7163, -15.3056], [-69.7169, -15.3096], [-69.7103, -15.3109], [-69.7122, -15.3072], [-69.7069, -15.3059], [-69.6992, -15.3099], [-69.709, -15.2986], [-69.7022, -15.2956], [-69.7145, -15.2779], [-69.7267, -15.2729], [-69.724, -15.2781], [-69.7369, -15.2756], [-69.7406, -15.2792], [-69.7345, -15.2709], [-69.749, -15.2717], [-69.7444, -15.2645], [-69.7467, -15.2604], [-69.7524, -15.2551], [-69.7593, -15.2579], [-69.7498, -15.2498], [-69.74, -15.2573], [-69.7356, -15.2413], [-69.7311, -15.246], [-69.7283, -15.2391], [-69.7181, -15.2439], [-69.7126, -15.2346], [-69.6992, -15.2336], [-69.6862, -15.2383], [-69.6834, -15.2436], [-69.6887, -15.255], [-69.6774, -15.243], [-69.6747, -15.2514], [-69.6695, -15.2513], [-69.6551, -15.2714], [-69.6469, -15.262], [-69.6381, -15.2615], [-69.5431, -15.3085], [-69.5475, -15.285], [-69.5269, -15.2706], [-69.5195, -15.2486], [-69.5082, -15.2488], [-69.4861, -15.2716], [-69.4473, -15.2668], [-69.4434, -15.2444], [-69.4115, -15.2292], [-69.4011, -15.2128], [-69.3719, -15.2169], [-69.362, -15.2141], [-69.3506, -15.1872], [-69.3302, -15.1771], [-69.3132, -15.1762], [-69.2928, -15.1622], [-69.2729, -15.1818], [-69.2406, -15.1868], [-69.2315, -15.1961], [-69.2325, -15.2075], [-69.2269, -15.2153], [-69.1894, -15.2312], [-69.1849, -15.244], [-69.1735, -15.2545], [-69.1763, -15.2614], [-69.1522, -15.2689], [-69.1373, -15.2552], [-69.1196, -15.2586], [-69.1318, -15.2459], [-69.1318, -15.2334], [-69.154, -15.2151], [-69.1753, -15.1794], [-69.1913, -15.1649], [-69.1905, -15.1588], [-69.1959, -15.1583], [-69.2175, -15.1361], [-69.2296, -15.1322], [-69.2362, -15.1197], [-69.2439, -15.1218], [-69.2435, -15.1122], [-69.2483, -15.115], [-69.2626, -15.1097], [-69.2656, -15.1172], [-69.2684, -15.1043], [-69.2728, -15.1117], [-69.2773, -15.1099], [-69.2727, -15.1035], [-69.2795, -15.103], [-69.2811, -15.0941], [-69.2846, -15.0965], [-69.2859, -15.0831], [-69.2924, -15.0837], [-69.2901, -15.0747], [-69.2953, -15.0739], [-69.3041, -15.0536], [-69.2995, -15.0474], [-69.3048, -15.0458], [-69.3054, -15.0397], [-69.3144, -15.0412], [-69.3232, -15.0046], [-69.3489, -14.9796], [-69.3606, -14.9611], [-69.3596, -14.9371], [-69.3646, -14.931], [-69.3538, -14.9244], [-69.3439, -14.8827], [-69.3568, -14.852], [-69.3538, -14.8017], [-69.4038, -14.8257], [-69.4135, -14.855], [-69.4156, -14.8458], [-69.438, -14.8341], [-69.4514, -14.7853], [-69.4589, -14.7824], [-69.4669, -14.7702], [-69.4794, -14.7725], [-69.4943, -14.7628], [-69.5117, -14.7735], [-69.5122, -14.7806], [-69.4995, -14.8024], [-69.5101, -14.8203], [-69.5189, -14.8224], [-69.5297, -14.843], [-69.5296, -14.858], [-69.5177, -14.8762], [-69.5418, -14.9294], [-69.5601, -14.9247], [-69.568, -14.9157], [-69.6121, -14.9132], [-69.6145, -14.9284], [-69.6233, -14.9359], [-69.6217, -14.9496], [-69.6277, -14.9485], [-69.6365, -14.955], [-69.6588, -14.9432], [-69.6749, -14.9515], [-69.692, -14.9519], [-69.7051, -14.958], [-69.7124, -14.9542], [-69.713, -14.9611], [-69.7294, -14.9759], [-69.7252, -14.9841], [-69.7309, -14.9977], [-69.7459, -14.9945], [-69.7649, -14.9634], [-69.7824, -14.9546], [-69.8002, -14.9581], [-69.8037, -14.9659], [-69.7985, -14.9788], [-69.8158, -14.9872], [-69.8275, -14.9818], [-69.8334, -14.9877], [-69.8334, -14.9972], [-69.8473, -15.0049], [-69.8491, -15.0143], [-69.8432, -15.0187], [-69.8525, -15.0321], [-69.8514, -15.0428], [-69.8673, -15.0519], [-69.8688, -15.0648], [-69.8857, -15.0813], [-69.8746, -15.0878], [-69.8766, -15.1088], [-69.8911, -15.13], [-69.8901, -15.1382], [-69.8966, -15.1468], [-69.9001, -15.1662], [-69.8969, -15.1808], [-69.8801, -15.198], [-69.8825, -15.2028], [-69.8959, -15.2119], [-69.8961, -15.2245], [-69.9032, -15.2356], [-69.9239, -15.2335], [-69.9302, -15.2427], [-69.9409, -15.2383], [-69.9954, -15.2741], [-70.0061, -15.2916], [-70.0026, -15.2977], [-70.006, -15.3271], [-69.9888, -15.346], [-69.9904, -15.3556], [-69.9759, -15.3872], [-69.9839, -15.3932], [-69.9976, -15.3938], [-70.0061, -15.4028], [-70.0255, -15.3984], [-70.047, -15.3702], [-70.051, -15.3543], [-70.0644, -15.3529], [-70.0947, -15.3837]]]}}, {"type": "Feature", "properties": {"osm_type": "relation", "osm_id": 783070482, "name": "Lampa", "admin_level": "6", "kind": "subdivision_2", "parent_osm_id": 1907899, "parent_name": "Puno", "parent_iso": "PE-PUN"}, "geometry": {"type": "Polygon", "coordinates": [[[-70.4655, -14.9282], [-70.4767, -14.9381], [-70.475, -14.9326], [-70.4816, -14.9282], [-70.4869, -14.9311], [-70.4952, -14.9244], [-70.4919, -14.9134], [-70.5007, -14.9139], [-70.5089, -14.9258], [-70.505, -14.9324], [-70.5077, -14.9467], [-70.4995, -14.9515], [-70.5148, -14.9722], [-70.5424, -14.9926], [-70.54, -15.0057], [-70.5324, -15.0136], [-70.5318, -15.0279], [-70.5503, -15.0549], [-70.5503, -15.0838], [-70.5432, -15.0848], [-70.5333, -15.0949], [-70.5326, -15.1357], [-70.5126, -15.146], [-70.521, -15.1528], [-70.5232, -15.1649], [-70.5401, -15.1759], [-70.5384, -15.1884], [-70.5469, -15.1947], [-70.5538, -15.1895], [-70.5625, -15.1916], [-70.5626, -15.184], [-70.5779, -15.1607], [-70.5791, -15.1464], [-70.5959, -15.1268], [-70.6117, -15.1192], [-70.6222, -15.1284], [-70.6341, -15.1183], [-70.6573, -15.134], [-70.6712, -15.1321], [-70.6829, -15.1152], [-70.7079, -15.1266], [-70.7114, -15.1128], [-70.7071, -15.1005], [-70.7094, -15.0848], [-70.7174, -15.0756], [-70.7275, -15.0733], [-70.7474, -15.0474], [-70.7578, -15.0452], [-70.7618, -15.0299], [-70.7738, -15.0336], [-70.7974, -15.0245], [-70.8344, -15.0013], [-70.845, -15.0184], [-70.8629, -15.0287], [-70.8668, -15.0392], [-70.8809, -15.0454], [-70.9043, -15.0383], [-70.9362, -15.0518], [-70.9408, -15.0598], [-70.9611, -15.0612], [-70.9936, -15.0846], [-70.9941, -15.0948], [-70.9786, -15.1114], [-70.9766, -15.1423], [-70.982, -15.1495], [-70.9715, -15.1807], [-70.9729, -15.1965], [-70.9625, -15.2156], [-70.9699, -15.2326], [-70.9853, -15.249], [-70.9768, -15.261], [-70.9744, -15.2742], [-70.9523, -15.2898], [-70.9502, -15.302], [-70.9591, -15.3191], [-70.9776, -15.3204], [-70.9851, -15.3167], [-71.0061, -15.3352], [-71.0199, -15.3733], [-71.0364, -15.392], [-71.039, -15.4052], [-71.0271, -15.432], [-71.0059, -15.4417], [-70.9929, -15.4589], [-70.9955, -15.4723], [-71.0152, -15.4892], [-71.0184, -15.5], [-71.008, -15.5192], [-71.0184, -15.5294], [-71.0141, -15.5396], [-71.0072, -15.5429], [-71.0062, -15.569], [-70.9824, -15.598], [-70.9392, -15.618], [-70.918, -15.6438], [-70.9179, -15.6863], [-70.8999, -15.7176], [-70.9048, -15.7373], [-70.9226, -15.7462], [-70.9332, -15.7707], [-70.9423, -15.7749], [-70.9198, -15.8], [-70.9062, -15.8333], [-70.8905, -15.8513], [-70.8875, -15.8407], [-70.8692, -15.8373], [-70.8448, -15.8059], [-70.8245, -15.8073], [-70.8139, -15.8144], [-70.8136, -15.7933], [-70.7973, -15.7803], [-70.7699, -15.7874], [-70.7461, -15.7761], [-70.7191, -15.7908], [-70.7128, -15.782], [-70.7092, -15.788], [-70.6872, -15.7945], [-70.6625, -15.7794], [-70.6578, -15.7608], [-70.6382, -15.7464], [-70.6338, -15.7449], [-70.6086, -15.7588], [-70.6033, -15.7461], [-70.5863, -15.7409], [-70.5724, -15.7197], [-70.5582, -15.7388], [-70.5459, -15.7386], [-70.5466, -15.7242], [-70.5399, -15.7178], [-70.5284, -15.6882], [-70.516, -15.6866], [-70.5158, -15.6809], [-70.5024, -15.6797], [-70.4985, -15.6735], [-70.4941, -15.6778], [-70.4915, -15.6681], [-70.476, -15.6615], [-70.4748, -15.657], [-70.4654, -15.6542], [-70.4338, -15.677], [-70.4154, -15.6733], [-70.3989, -15.6759], [-70.3666, -15.6643], [-70.3555, -15.64], [-70.3359, -15.6279], [-70.3191, -15.603], [-70.312, -15.6038], [-70.3018, -15.5887], [-70.2883, -15.5834], [-70.2816, -15.5681], [-70.2573, -15.5516], [-70.273, -15.522], [-70.2708, -15.5109], [-70.2967, -15.4887], [-70.2888, -15.4644], [-70.2939, -15.4698], [-70.3011, -15.4681], [-70.3071, -15.4587], [-70.3122, -15.461], [-70.31, -15.4571], [-70.3206, -15.4533], [-70.3225, -15.4438], [-70.3283, -15.445], [-70.3245, -15.4384], [-70.3394, -15.4265], [-70.3417, -15.4115], [-70.3318, -15.4063], [-70.3336, -15.4002], [-70.3282, -15.3931], [-70.3154, -15.3958], [-70.3063, -15.386], [-70.2791, -15.4021], [-70.2687, -15.3955], [-70.2669, -15.3749], [-70.2829, -15.3575], [-70.2924, -15.3542], [-70.2858, -15.3374], [-70.2764, -15.3349], [-70.2757, -15.3139], [-70.254, -15.3302], [-70.2301, -15.3376], [-70.2213, -15.35], [-70.215, -15.3515], [-70.2117, -15.3605], [-70.1997, -15.3617], [-70.1807, -15.377], [-70.1592, -15.3548], [-70.1628, -15.3245], [-70.1565, -15.3255], [-70.1481, -15.3126], [-70.1546, -15.2977], [-70.1605, -15.2926], [-70.1738, -15.303], [-70.2044, -15.299], [-70.209, -15.2519], [-70.2274, -15.252], [-70.2297, -15.2013], [-70.2735, -15.1656], [-70.3497, -15.1677], [-70.3563, -15.1637], [-70.3495, -15.1497], [-70.3609, -15.1404], [-70.3502, -15.141], [-70.3472, -15.1366], [-70.3576, -15.1304], [-70.3592, -15.1234], [-70.3471, -15.1192], [-70.3496, -15.1151], [-70.3584, -15.1186], [-70.3602, -15.1144], [-70.3516, -15.0857], [-70.3444, -15.0841], [-70.348, -15.0819], [-70.3446, -15.0727], [-70.3605, -15.0497], [-70.3537, -15.0406], [-70.364, -15.0356], [-70.3611, -15.0311], [-70.3494, -15.0348], [-70.3451, -15.0316], [-70.3626, -15.0193], [-70.3654, -15.0119], [-70.3618, -14.9978], [-70.3686, -14.9973], [-70.3721, -15.0031], [-70.3836, -14.9997], [-70.3834, -14.9949], [-70.3708, -14.9939], [-70.381, -14.9918], [-70.3763, -14.9822], [-70.3908, -14.9812], [-70.3865, -14.972], [-70.3973, -14.9745], [-70.405, -14.958], [-70.41, -14.9654], [-70.4188, -14.9661], [-70.4309, -14.9517], [-70.4424, -14.9535], [-70.4482, -14.9486], [-70.4456, -14.9426], [-70.4654, -14.9332], [-70.4655, -14.9282]]]}}, {"type": "Feature", "properties": {"osm_type": "relation", "osm_id": 357675935, "name": "Melgar", "admin_level": "6", "kind": "subdivision_2", "parent_osm_id": 1907899, "parent_name": "Puno", "parent_iso": "PE-PUN"}, "geometry": {"type": "Polygon", "coordinates": [[[-70.2682, -14.283], [-70.2753, -14.2768], [-70.2728, -14.2672], [-70.2859, -14.2677], [-70.2904, -14.2583], [-70.2894, -14.2183], [-70.3022, -14.2185], [-70.3163, -14.2058], [-70.3295, -14.1752], [-70.3566, -14.1706], [-70.3635, -14.1882], [-70.3782, -14.1897], [-70.3877, -14.1962], [-70.4083, -14.1906], [-70.4139, -14.1824], [-70.4252, -14.1781], [-70.4418, -14.1876], [-70.4736, -14.2202], [-70.4815, -14.2234], [-70.4962, -14.2202], [-70.5026, -14.2042], [-70.5136, -14.1986], [-70.522, -14.2022], [-70.5412, -14.1897], [-70.551, -14.1553], [-70.5671, -14.1526], [-70.57, -14.1446], [-70.5826, -14.1487], [-70.5894, -14.1579], [-70.599, -14.155], [-70.6072, -14.1615], [-70.6124, -14.1539], [-70.6193, -14.1594], [-70.6352, -14.1466], [-70.6401, -14.131], [-70.6524, -14.1209], [-70.6682, -14.1263], [-70.692, -14.1239], [-70.6946, -14.1102], [-70.7022, -14.1007], [-70.7034, -14.0856], [-70.7229, -14.0747], [-70.7345, -14.0796], [-70.7499, -14.0759], [-70.7702, -14.0827], [-70.7898, -14.0788], [-70.8056, -14.0993], [-70.8061, -14.1203], [-70.8217, -14.1338], [-70.8211, -14.1411], [-70.8463, -14.1489], [-70.8544, -14.1592], [-70.8627, -14.16], [-70.8673, -14.1696], [-70.8862, -14.1714], [-70.8894, -14.187], [-70.8821, -14.1988], [-70.8946, -14.2091], [-70.8998, -14.233], [-70.8822, -14.2535], [-70.8799, -14.2704], [-70.891, -14.2727], [-70.8928, -14.2867], [-70.9135, -14.3033], [-70.9139, -14.3243], [-70.9078, -14.334], [-70.9129, -14.3424], [-70.9298, -14.3409], [-70.9621, -14.3612], [-70.9705, -14.3783], [-70.986, -14.3798], [-70.9787, -14.3945], [-70.9858, -14.4067], [-70.9721, -14.4204], [-70.974, -14.429], [-70.9624, -14.4445], [-70.982, -14.4493], [-70.988, -14.4553], [-70.9826, -14.4753], [-70.9892, -14.4872], [-70.9866, -14.4987], [-70.9993, -14.5026], [-70.9789, -14.5391], [-70.9816, -14.5485], [-70.9661, -14.5683], [-70.9732, -14.5705], [-70.9777, -14.583], [-70.9995, -14.5723], [-71.0147, -14.578], [-71.0204, -14.5853], [-71.0101, -14.5975], [-71.031, -14.5933], [-71.0739, -14.6314], [-71.1091, -14.634], [-71.1179, -14.6489], [-71.1101, -14.6735], [-71.088, -14.6957], [-71.0895, -14.7132], [-71.0649, -14.7344], [-71.0532, -14.7543], [-71.0357, -14.7521], [-71.0278, -14.7601], [-71.0131, -14.7397], [-70.9815, -14.7555], [-70.9751, -14.765], [-70.9837, -14.786], [-70.9774, -14.8065], [-70.9783, -14.8242], [-70.9947, -14.8299], [-70.9915, -14.8412], [-70.9966, -14.8439], [-70.9914, -14.8613], [-70.996, -14.8939], [-70.9863, -14.9155], [-70.9906, -14.9269], [-70.9847, -14.9461], [-70.9966, -14.9539], [-70.9963, -14.9637], [-71.0044, -14.9752], [-71.0039, -15.0014], [-70.9934, -15.0358], [-70.9965, -15.0543], [-70.9919, -15.0706], [-70.9936, -15.0846], [-70.9611, -15.0612], [-70.9408, -15.0598], [-70.9362, -15.0518], [-70.9043, -15.0383], [-70.8809, -15.0454], [-70.8668, -15.0392], [-70.8629, -15.0287], [-70.845, -15.0184], [-70.8344, -15.0013], [-70.7974, -15.0245], [-70.7738, -15.0336], [-70.7618, -15.0299], [-70.7578, -15.0452], [-70.7474, -15.0474], [-70.7275, -15.0733], [-70.7174, -15.0756], [-70.7094, -15.0848], [-70.7071, -15.1005], [-70.7114, -15.1128], [-70.7079, -15.1266], [-70.6829, -15.1152], [-70.6712, -15.1321], [-70.6573, -15.134], [-70.6341, -15.1183], [-70.6222, -15.1284], [-70.6117, -15.1192], [-70.5959, -15.1268], [-70.5791, -15.1464], [-70.5779, -15.1607], [-70.5626, -15.184], [-70.5625, -15.1916], [-70.5538, -15.1895], [-70.5469, -15.1947], [-70.5405, -15.1912], [-70.5401, -15.1759], [-70.5232, -15.1649], [-70.521, -15.1528], [-70.5126, -15.146], [-70.5326, -15.1357], [-70.5333, -15.0949], [-70.5432, -15.0848], [-70.5503, -15.0838], [-70.5503, -15.0549], [-70.5318, -15.0279], [-70.5324, -15.0136], [-70.54, -15.0057], [-70.5424, -14.9926], [-70.5148, -14.9722], [-70.4995, -14.9515], [-70.5077, -14.9467], [-70.505, -14.9324], [-70.5089, -14.9258], [-70.5007, -14.9139], [-70.4919, -14.9134], [-70.4952, -14.9244], [-70.4869, -14.9311], [-70.4816, -14.9282], [-70.475, -14.9326], [-70.4767, -14.9381], [-70.4655, -14.9282], [-70.467, -14.9154], [-70.461, -14.8911], [-70.4364, -14.8579], [-70.4439, -14.8457], [-70.4422, -14.8328], [-70.4542, -14.8249], [-70.4455, -14.788], [-70.4268, -14.7702], [-70.4171, -14.7313], [-70.4002, -14.7167], [-70.3979, -14.7005], [-70.3818, -14.6664], [-70.3877, -14.6367], [-70.4172, -14.6149], [-70.4124, -14.601], [-70.4308, -14.5791], [-70.404, -14.5623], [-70.3891, -14.5715], [-70.3655, -14.5974], [-70.3426, -14.5793], [-70.3454, -14.5658], [-70.3666, -14.5507], [-70.3692, -14.5411], [-70.3526, -14.5304], [-70.3528, -14.5077], [-70.3415, -14.4944], [-70.3296, -14.4681], [-70.334, -14.4526], [-70.3272, -14.4193], [-70.318, -14.406], [-70.3201, -14.3948], [-70.3152, -14.38], [-70.3235, -14.372], [-70.3278, -14.3528], [-70.3147, -14.3402], [-70.3043, -14.3456], [-70.2811, -14.3294], [-70.2681, -14.3009], [-70.2682, -14.283]]]}}, {"type": "Feature", "properties": {"osm_type": "relation", "osm_id": 491106136, "name": "Moho", "admin_level": "6", "kind": "subdivision_2", "parent_osm_id": 1907899, "parent_name": "Puno", "parent_iso": "PE-PUN"}, "geometry": {"type": "Polygon", "coordinates": [[[-69.6551, -15.2714], [-69.6676, -15.2682], [-69.6683, -15.2748], [-69.6571, -15.2826], [-69.6425, -15.2822], [-69.6403, -15.286], [-69.6439, -15.2959], [-69.6334, -15.313], [-69.6539, -15.2979], [-69.6422, -15.3199], [-69.6301, -15.3307], [-69.6309, -15.337], [-69.6405, -15.3342], [-69.6298, -15.3437], [-69.6343, -15.3532], [-69.6284, -15.3565], [-69.6233, -15.3535], [-69.6294, -15.3463], [-69.6223, -15.3444], [-69.615, -15.355], [-69.6039, -15.3556], [-69.6015, -15.3609], [-69.6059, -15.3618], [-69.5891, -15.373], [-69.5894, -15.3683], [-69.578, -15.3667], [-69.5786, -15.3619], [-69.5682, -15.3623], [-69.5732, -15.3509], [-69.5666, -15.3476], [-69.5623, -15.3585], [-69.5556, -15.3594], [-69.5591, -15.3632], [-69.5527, -15.3672], [-69.5521, -15.371], [-69.5567, -15.3705], [-69.5532, -15.376], [-69.5404, -15.3796], [-69.5329, -15.3764], [-69.5319, -15.3706], [-69.5221, -15.37], [-69.5161, -15.3787], [-69.5317, -15.3868], [-69.5124, -15.4074], [-69.4974, -15.4049], [-69.4991, -15.4138], [-69.4774, -15.4262], [-69.4598, -15.4533], [-69.4403, -15.4626], [-69.4357, -15.4773], [-69.4418, -15.4911], [-69.4325, -15.4992], [-69.4321, -15.5056], [-69.4171, -15.5041], [-69.415, -15.498], [-69.4322, -15.4867], [-69.4331, -15.4783], [-69.3982, -15.4827], [-69.3902, -15.4733], [-69.3761, -15.4715], [-69.3584, -15.4829], [-69.3543, -15.4961], [-69.3591, -15.5027], [-69.35, -15.5108], [-69.3557, -15.5088], [-69.3592, -15.5152], [-69.3631, -15.5141], [-69.3594, -15.5074], [-69.3618, -15.4992], [-69.3726, -15.5025], [-69.3679, -15.4962], [-69.3771, -15.482], [-69.3748, -15.4915], [-69.3846, -15.5029], [-69.3884, -15.4997], [-69.3911, -15.5073], [-69.3676, -15.5221], [-69.3587, -15.5217], [-69.3571, -15.5297], [-69.3315, -15.538], [-69.3089, -15.5051], [-69.3134, -15.4925], [-69.3006, -15.4863], [-69.3117, -15.473], [-69.2901, -15.4369], [-69.2535, -15.4692], [-69.2408, -15.4604], [-69.2323, -15.4418], [-69.2498, -15.4267], [-69.2603, -15.374], [-69.2486, -15.3708], [-69.231, -15.3355], [-69.2156, -15.3172], [-69.2066, -15.3243], [-69.1948, -15.315], [-69.1935, -15.2958], [-69.178, -15.2792], [-69.1735, -15.2545], [-69.1849, -15.244], [-69.1894, -15.2312], [-69.2269, -15.2153], [-69.2325, -15.2075], [-69.2315, -15.1961], [-69.2406, -15.1868], [-69.2729, -15.1818], [-69.2928, -15.1622], [-69.3132, -15.1762], [-69.3302, -15.1771], [-69.3506, -15.1872], [-69.362, -15.2141], [-69.3719, -15.2169], [-69.4011, -15.2128], [-69.4115, -15.2292], [-69.4434, -15.2444], [-69.4473, -15.2668], [-69.4861, -15.2716], [-69.5082, -15.2488], [-69.5195, -15.2486], [-69.5269, -15.2706], [-69.5475, -15.285], [-69.5431, -15.3085], [-69.6381, -15.2615], [-69.6469, -15.262], [-69.6551, -15.2714]]]}}, {"type": "Feature", "properties": {"osm_type": "relation", "osm_id": 297813327, "name": "Puno", "admin_level": "6", "kind": "subdivision_2", "parent_osm_id": 1907899, "parent_name": "Puno", "parent_iso": "PE-PUN"}, "geometry": {"type": "MultiPolygon", "coordinates": [[[[-69.6102, -15.9568], [-69.6722, -15.9564], [-69.6854, -15.9365], [-69.6856, -15.9132], [-69.6887, -15.9136], [-69.6872, -15.9361], [-69.672, -15.96], [-69.6327, -15.9589], [-69.6293, -15.9679], [-69.6233, -15.9597], [-69.6102, -15.9568]]], [[[-69.6943, -15.8924], [-69.697, -15.8898], [-69.7048, -15.8964], [-69.7031, -15.8998], [-69.6983, -15.8931], [-69.7, -15.9074], [-69.7108, -15.9163], [-69.7054, -15.9193], [-69.6978, -15.9105], [-69.6877, -15.9083], [-69.6857, -15.9123], [-69.6667, -15.9151], [-69.6943, -15.8924]]], [[[-69.8259, -15.8939], [-69.8252, -15.8783], [-69.8337, -15.8882], [-69.8322, -15.8947], [-69.8259, -15.8939]]], [[[-69.6849, -15.7508], [-69.6962, -15.7542], [-69.6829, -15.7839], [-69.6824, -15.7981], [-69.6755, -15.7906], [-69.6762, -15.7683], [-69.6849, -15.7508]]], [[[-69.7066, -15.6493], [-69.7157, -15.6507], [-69.7273, -15.663], [-69.7172, -15.6804], [-69.7022, -15.6763], [-69.6928, -15.6628], [-69.6952, -15.6559], [-69.7066, -15.6493]]], [[[-69.6097, -15.9834], [-69.6229, -15.988], [-69.6334, -15.9773], [-69.6739, -15.9635], [-69.6842, -15.9518], [-69.6886, -15.9383], [-69.6926, -15.9395], [-69.6925, -15.9307], [-69.6973, -15.9314], [-69.7008, -15.9202], [-69.7253, -15.9145], [-69.7308, -15.9035], [-69.7395, -15.9048], [-69.7415, -15.9091], [-69.7368, -15.9134], [-69.7406, -15.9192], [-69.7431, -15.91], [-69.7576, -15.9004], [-69.7603, -15.912], [-69.7639, -15.9043], [-69.7598, -15.9032], [-69.7693, -15.895], [-69.7717, -15.8718], [-69.7761, -15.8705], [-69.7795, -15.856], [-69.7729, -15.8373], [-69.7659, -15.8331], [-69.7835, -15.8143], [-69.7962, -15.8083], [-69.8056, -15.7834], [-69.8289, -15.7871], [-69.8251, -15.7874], [-69.8428, -15.8082], [-69.8414, -15.8238], [-69.8507, -15.8443], [-69.8506, -15.8547], [-69.848, -15.8676], [-69.8365, -15.8687], [-69.8345, -15.8601], [-69.8273, -15.8593], [-69.8266, -15.8685], [-69.8154, -15.8683], [-69.8225, -15.8771], [-69.8189, -15.8815], [-69.8112, -15.8816], [-69.8145, -15.8728], [-69.8102, -15.8677], [-69.7987, -15.8786], [-69.8046, -15.8859], [-69.7946, -15.8863], [-69.7977, -15.8937], [-69.7899, -15.8884], [-69.7834, -15.8912], [-69.7776, -15.9167], [-69.7841, -15.9281], [-69.7878, -15.9213], [-69.8083, -15.9221], [-69.8156, -15.9107], [-69.837, -15.911], [-69.836, -15.9234], [-69.8462, -15.9095], [-69.8429, -15.9189], [-69.8494, -15.926], [-69.8454, -15.9332], [-69.8534, -15.9279], [-69.8604, -15.9316], [-69.8658, -15.9278], [-69.8684, -15.9159], [-69.8825, -15.9057], [-69.8828, -15.8906], [-69.8918, -15.8822], [-69.8989, -15.8847], [-69.9195, -15.88], [-69.9222, -15.8732], [-69.952, -15.8618], [-69.9637, -15.8506], [-69.995, -15.864], [-70.0029, -15.8534], [-70.0151, -15.8507], [-70.0184, -15.8384], [-70.0136, -15.8365], [-70.0188, -15.8347], [-70.0183, -15.8297], [-69.9887, -15.8191], [-69.9934, -15.8033], [-70.0053, -15.7894], [-70.0131, -15.7895], [-70.0122, -15.7941], [-70.0187, -15.7919], [-70.0352, -15.7687], [-70.0358, -15.7538], [-70.0239, -15.7422], [-70.0342, -15.7226], [-70.0294, -15.7173], [-70.0304, -15.7094], [-70.0235, -15.7072], [-70.0186, -15.6921], [-70.0116, -15.6867], [-69.9902, -15.6903], [-69.984, -15.7008], [-69.9749, -15.7053], [-69.9649, -15.7015], [-69.9644, -15.6917], [-69.956, -15.6883], [-69.9635, -15.6876], [-69.9551, -15.6874], [-69.9681, -15.6781], [-69.9617, -15.6792], [-69.9614, -15.6702], [-69.9674, -15.6654], [-69.9627, -15.6695], [-69.9586, -15.6637], [-69.957, -15.6705], [-69.9482, -15.675], [-69.9506, -15.6702], [-69.9468, -15.6716], [-69.9396, -15.6636], [-69.9409, -15.6574], [-69.9354, -15.6557], [-69.94, -15.6566], [-69.9393, -15.6528], [-69.9263, -15.6445], [-69.9256, -15.6304], [-69.9163, -15.6284], [-69.9135, -15.6184], [-69.9183, -15.6126], [-69.9276, -15.613], [-69.9311, -15.6178], [-69.9274, -15.6095], [-69.9308, -15.6069], [-69.9259, -15.6086], [-69.9247, -15.6047], [-69.924, -15.6082], [-69.9176, -15.5914], [-69.9243, -15.5904], [-69.9272, -15.5829], [-69.9282, -15.5897], [-69.9332, -15.5889], [-69.9247, -15.5766], [-69.9279, -15.5714], [-69.9304, -15.5751], [-69.9296, -15.5709], [-69.9151, -15.5688], [-69.9252, -15.5665], [-69.9273, -15.5607], [-69.9391, -15.566], [-69.9454, -15.5598], [-69.9432, -15.5565], [-69.933, -15.5606], [-69.9262, -15.5578], [-69.9168, -15.5664], [-69.9064, -15.5652], [-69.8929, -15.5934], [-69.8828, -15.6001], [-69.8809, -15.6075], [-69.8549, -15.625], [-69.8448, -15.6396], [-69.8498, -15.6501], [-69.8505, -15.6757], [-69.8207, -15.7076], [-69.7901, -15.7261], [-69.7528, -15.7297], [-69.7438, -15.7228], [-69.7848, -15.6938], [-69.803, -15.6748], [-69.798, -15.6672], [-69.7652, -15.6845], [-69.7611, -15.6818], [-69.7709, -15.6582], [-69.7806, -15.6532], [-69.7823, -15.6613], [-69.7925, -15.6629], [-69.8046, -15.654], [-69.8071, -15.641], [-69.8135, -15.6344], [-69.8074, -15.6251], [-69.8161, -15.6193], [-69.8085, -15.6134], [-69.8112, -15.6068], [-69.8253, -15.5881], [-69.8418, -15.5764], [-69.8493, -15.5608], [-69.8604, -15.5576], [-69.8644, -15.5349], [-69.8889, -15.5105], [-69.8958, -15.4955], [-69.8934, -15.4786], [-69.8969, -15.4946], [-69.9069, -15.5078], [-69.932, -15.508], [-69.9471, -15.5144], [-69.9509, -15.523], [-69.9683, -15.5357], [-69.9621, -15.5389], [-69.9618, -15.5468], [-69.9804, -15.5467], [-69.9885, -15.5537], [-69.9879, -15.544], [-69.995, -15.5421], [-70.0016, -15.5521], [-70.0099, -15.5519], [-70.0148, -15.5581], [-69.9986, -15.5601], [-70.0257, -15.5655], [-70.0589, -15.6019], [-70.0712, -15.6251], [-70.0857, -15.6344], [-70.0837, -15.6425], [-70.1234, -15.6375], [-70.1458, -15.6698], [-70.1504, -15.6671], [-70.1481, -15.6571], [-70.1602, -15.6534], [-70.157, -15.6478], [-70.1696, -15.6397], [-70.168, -15.6322], [-70.1712, -15.6343], [-70.1735, -15.6275], [-70.1838, -15.6293], [-70.1908, -15.619], [-70.2012, -15.6169], [-70.2051, -15.6423], [-70.2209, -15.6506], [-70.2333, -15.6659], [-70.2406, -15.6661], [-70.2462, -15.6755], [-70.2613, -15.6737], [-70.269, -15.6921], [-70.2837, -15.6954], [-70.3128, -15.7369], [-70.3237, -15.7279], [-70.3414, -15.7261], [-70.3743, -15.741], [-70.3959, -15.7298], [-70.4158, -15.7366], [-70.4245, -15.7447], [-70.4197, -15.7567], [-70.435, -15.774], [-70.4384, -15.7871], [-70.4191, -15.8194], [-70.4315, -15.8335], [-70.4277, -15.8489], [-70.4453, -15.8676], [-70.4496, -15.8818], [-70.4462, -15.8957], [-70.4793, -15.9112], [-70.4845, -15.9216], [-70.4795, -15.9321], [-70.4808, -15.9465], [-70.5041, -15.959], [-70.5166, -15.9762], [-70.5515, -15.9769], [-70.5629, -15.9825], [-70.5374, -16.0121], [-70.53, -16.0145], [-70.5261, -16.0267], [-70.5177, -16.0334], [-70.5103, -16.03], [-70.5073, -16.0381], [-70.4826, -16.0395], [-70.4658, -16.0504], [-70.4475, -16.0345], [-70.4401, -16.0368], [-70.4343, -16.0619], [-70.4163, -16.0758], [-70.4109, -16.0754], [-70.4032, -16.0872], [-70.4067, -16.1017], [-70.4011, -16.105], [-70.4083, -16.1208], [-70.4019, -16.149], [-70.3883, -16.1573], [-70.3738, -16.1759], [-70.3672, -16.1893], [-70.3688, -16.199], [-70.3606, -16.2078], [-70.3403, -16.2009], [-70.3286, -16.2054], [-70.324, -16.2179], [-70.3265, -16.2321], [-70.3451, -16.2561], [-70.3403, -16.2701], [-70.3478, -16.2908], [-70.3438, -16.2976], [-70.3466, -16.3056], [-70.3388, -16.3228], [-70.3464, -16.3395], [-70.3456, -16.3481], [-70.3566, -16.3677], [-70.3706, -16.3687], [-70.3824, -16.3854], [-70.3566, -16.4003], [-70.3609, -16.4108], [-70.3487, -16.4158], [-70.3328, -16.4115], [-70.3251, -16.4175], [-70.3159, -16.4316], [-70.3167, -16.4444], [-70.3063, -16.4472], [-70.3134, -16.4682], [-70.3012, -16.4787], [-70.2435, -16.5045], [-70.2287, -16.5061], [-70.2005, -16.5396], [-70.1848, -16.5376], [-70.1805, -16.5569], [-70.1755, -16.5615], [-70.1762, -16.5942], [-70.1692, -16.6007], [-70.1657, -16.6133], [-70.1488, -16.6153], [-70.1378, -16.6286], [-70.0878, -16.6552], [-70.0695, -16.6392], [-70.056, -16.6386], [-70.0499, -16.6281], [-70.0315, -16.6346], [-70.0246, -16.6312], [-70.0283, -16.6054], [-70.0242, -16.5968], [-70.0104, -16.5948], [-69.9907, -16.5788], [-69.9653, -16.5485], [-69.9635, -16.5384], [-69.9414, -16.5292], [-69.9266, -16.5143], [-69.9058, -16.5193], [-69.8953, -16.509], [-69.8947, -16.4995], [-69.8785, -16.4737], [-69.8841, -16.4635], [-69.8647, -16.4453], [-69.8553, -16.4237], [-69.852, -16.401], [-69.838, -16.3922], [-69.8135, -16.3936], [-69.7997, -16.3855], [-69.7971, -16.3722], [-69.785, -16.3622], [-69.8029, -16.3444], [-69.7982, -16.3214], [-69.8069, -16.2768], [-69.7756, -16.2599], [-69.7663, -16.2446], [-69.7605, -16.2153], [-69.7552, -16.2179], [-69.7436, -16.2044], [-69.7255, -16.2084], [-69.7066, -16.1945], [-69.7031, -16.1689], [-69.6916, -16.1603], [-69.6936, -16.1487], [-69.6869, -16.1487], [-69.6914, -16.1399], [-69.6889, -16.1287], [-69.6801, -16.1276], [-69.6689, -16.1149], [-69.6974, -16.097], [-69.7027, -16.0866], [-69.6882, -16.0844], [-69.6817, -16.0691], [-69.6689, -16.0693], [-69.6553, -16.0599], [-69.6512, -16.0154], [-69.6454, -16.0123], [-69.6285, -16.019], [-69.6212, -16.0137], [-69.6098, -15.9977], [-69.6097, -15.9834]]]]}}, {"type": "Feature", "properties": {"osm_type": "relation", "osm_id": 912830034, "name": "San Antonio de Putina", "admin_level": "6", "kind": "subdivision_2", "parent_osm_id": 1907899, "parent_name": "Puno", "parent_iso": "PE-PUN"}, "geometry": {"type": "Polygon", "coordinates": [[[-69.8766, -15.1088], [-69.8746, -15.0878], [-69.8857, -15.0813], [-69.8688, -15.0648], [-69.8673, -15.0519], [-69.8514, -15.0428], [-69.8525, -15.0321], [-69.8432, -15.0187], [-69.8491, -15.0143], [-69.8473, -15.0049], [-69.8334, -14.9972], [-69.8334, -14.9877], [-69.8275, -14.9818], [-69.8158, -14.9872], [-69.7985, -14.9788], [-69.8037, -14.9659], [-69.8002, -14.9581], [-69.7824, -14.9546], [-69.7649, -14.9634], [-69.7459, -14.9945], [-69.7309, -14.9977], [-69.7252, -14.9841], [-69.7294, -14.9759], [-69.713, -14.9611], [-69.7124, -14.9542], [-69.7051, -14.958], [-69.692, -14.9519], [-69.6749, -14.9515], [-69.6588, -14.9432], [-69.6365, -14.955], [-69.6277, -14.9485], [-69.6217, -14.9496], [-69.6233, -14.9359], [-69.6145, -14.9284], [-69.6121, -14.9132], [-69.568, -14.9157], [-69.5601, -14.9247], [-69.5418, -14.9294], [-69.5177, -14.8762], [-69.5296, -14.858], [-69.5297, -14.843], [-69.5189, -14.8224], [-69.5101, -14.8203], [-69.4995, -14.8024], [-69.5122, -14.7806], [-69.5055, -14.7682], [-69.4943, -14.7628], [-69.4794, -14.7725], [-69.4636, -14.772], [-69.4589, -14.7824], [-69.4494, -14.788], [-69.438, -14.8341], [-69.4156, -14.8458], [-69.4135, -14.855], [-69.4038, -14.8257], [-69.3538, -14.8017], [-69.3456, -14.7933], [-69.3399, -14.7956], [-69.3295, -14.7827], [-69.3027, -14.7658], [-69.2802, -14.765], [-69.2709, -14.7696], [-69.2399, -14.7595], [-69.2285, -14.7458], [-69.2259, -14.7364], [-69.2358, -14.718], [-69.243, -14.7157], [-69.2545, -14.6998], [-69.252, -14.6922], [-69.2584, -14.684], [-69.2449, -14.6613], [-69.2279, -14.6542], [-69.2254, -14.6279], [-69.2305, -14.6147], [-69.2296, -14.5997], [-69.2222, -14.5932], [-69.2209, -14.5815], [-69.1792, -14.5905], [-69.1619, -14.5878], [-69.15, -14.5803], [-69.1435, -14.5303], [-69.1542, -14.5221], [-69.1421, -14.5135], [-69.1279, -14.5136], [-69.1183, -14.5079], [-69.1127, -14.4917], [-69.1488, -14.4513], [-69.1721, -14.4457], [-69.1817, -14.4384], [-69.2205, -14.4393], [-69.2257, -14.4261], [-69.2185, -14.3925], [-69.232, -14.3829], [-69.2312, -14.3586], [-69.235, -14.357], [-69.2284, -14.3426], [-69.2458, -14.3163], [-69.2623, -14.3065], [-69.2741, -14.3113], [-69.2703, -14.3163], [-69.2708, -14.3474], [-69.3031, -14.3991], [-69.2892, -14.425], [-69.2964, -14.4855], [-69.3038, -14.4871], [-69.3091, -14.5041], [-69.307, -14.5175], [-69.3153, -14.5225], [-69.3133, -14.5521], [-69.3241, -14.5595], [-69.3238, -14.5712], [-69.3332, -14.5764], [-69.3248, -14.6014], [-69.3283, -14.6136], [-69.3478, -14.6235], [-69.373, -14.6102], [-69.4127, -14.6211], [-69.4262, -14.6128], [-69.4447, -14.6116], [-69.447, -14.5974], [-69.4606, -14.5874], [-69.4738, -14.5887], [-69.4928, -14.5927], [-69.5061, -14.6076], [-69.5131, -14.6022], [-69.5251, -14.604], [-69.5299, -14.6115], [-69.5389, -14.6114], [-69.5489, -14.6269], [-69.5818, -14.6272], [-69.6135, -14.6618], [-69.6226, -14.6549], [-69.6354, -14.6259], [-69.6535, -14.6154], [-69.6571, -14.6086], [-69.6595, -14.5496], [-69.6735, -14.5225], [-69.7092, -14.5081], [-69.7274, -14.5087], [-69.7319, -14.4928], [-69.757, -14.4782], [-69.7559, -14.4734], [-69.7657, -14.4725], [-69.7692, -14.4537], [-69.7777, -14.4486], [-69.7852, -14.4511], [-69.7951, -14.4464], [-69.7961, -14.4566], [-69.7997, -14.4539], [-69.8103, -14.4594], [-69.817, -14.4487], [-69.8241, -14.4505], [-69.843, -14.4429], [-69.8701, -14.4447], [-69.8767, -14.4378], [-69.8846, -14.4408], [-69.8899, -14.4343], [-69.8902, -14.4683], [-69.8949, -14.4783], [-69.9124, -14.4845], [-69.9254, -14.4824], [-69.935, -14.4896], [-69.9498, -14.4916], [-69.9542, -14.5041], [-69.9674, -14.5146], [-69.9745, -14.5149], [-69.9794, -14.5249], [-69.9861, -14.5238], [-70.004, -14.5451], [-70.0049, -14.5549], [-70.0118, -14.5589], [-69.99, -14.5821], [-69.9343, -14.5687], [-69.9139, -14.5797], [-69.8994, -14.5662], [-69.8868, -14.5777], [-69.8896, -14.5857], [-69.8774, -14.6025], [-69.8651, -14.5853], [-69.855, -14.6122], [-69.8599, -14.6201], [-69.857, -14.647], [-69.8486, -14.6558], [-69.8507, -14.6776], [-69.8587, -14.6863], [-69.8485, -14.7195], [-69.8412, -14.7227], [-69.8362, -14.7384], [-69.8542, -14.7608], [-69.853, -14.7717], [-69.8583, -14.7776], [-69.8496, -14.7901], [-69.9008, -14.8273], [-69.9042, -14.8355], [-69.8977, -14.8518], [-69.9116, -14.8653], [-69.9222, -14.8624], [-69.9382, -14.8429], [-69.9515, -14.8512], [-69.9695, -14.852], [-69.9701, -14.8608], [-69.9886, -14.8731], [-69.9773, -14.8869], [-69.9766, -14.9066], [-69.9659, -14.9254], [-69.9761, -14.944], [-69.9582, -14.9644], [-69.9623, -14.9711], [-69.9615, -14.9867], [-69.967, -14.9924], [-69.9625, -14.9973], [-69.9669, -15.0296], [-69.9473, -15.055], [-69.9219, -15.0594], [-69.9246, -15.0681], [-69.9158, -15.078], [-69.9223, -15.0886], [-69.9173, -15.0979], [-69.9099, -15.0946], [-69.8999, -15.1104], [-69.8843, -15.1026], [-69.8766, -15.1088]]]}}, {"type": "Feature", "properties": {"osm_type": "relation", "osm_id": 770993494, "name": "San Roman", "admin_level": "6", "kind": "subdivision_2", "parent_osm_id": 1907899, "parent_name": "Puno", "parent_iso": "PE-PUN"}, "geometry": {"type": "Polygon", "coordinates": [[[-70.8202, -15.9785], [-70.8075, -15.988], [-70.8, -15.976], [-70.7937, -15.9833], [-70.7954, -15.9924], [-70.776, -16.0134], [-70.7651, -16.0177], [-70.7564, -16.0135], [-70.7412, -16.0162], [-70.7221, -16.0342], [-70.7054, -16.0318], [-70.6819, -16.0211], [-70.6731, -16.012], [-70.6683, -16.0134], [-70.6408, -15.9876], [-70.6248, -16.003], [-70.604, -15.9922], [-70.57, -15.989], [-70.5515, -15.9769], [-70.5166, -15.9762], [-70.5041, -15.959], [-70.4808, -15.9465], [-70.4795, -15.9321], [-70.4845, -15.9216], [-70.4793, -15.9112], [-70.4462, -15.8957], [-70.4496, -15.8818], [-70.4453, -15.8676], [-70.4277, -15.8489], [-70.4315, -15.8335], [-70.4191, -15.8194], [-70.4384, -15.7871], [-70.435, -15.774], [-70.4197, -15.7567], [-70.4245, -15.7447], [-70.4158, -15.7366], [-70.3959, -15.7298], [-70.3743, -15.741], [-70.3414, -15.7261], [-70.3237, -15.7279], [-70.3128, -15.7369], [-70.2837, -15.6954], [-70.269, -15.6921], [-70.2613, -15.6737], [-70.2462, -15.6755], [-70.2406, -15.6661], [-70.2333, -15.6659], [-70.2209, -15.6506], [-70.2051, -15.6423], [-70.2012, -15.6169], [-70.1908, -15.619], [-70.1838, -15.6293], [-70.1735, -15.6275], [-70.1712, -15.6343], [-70.168, -15.6322], [-70.1696, -15.6397], [-70.157, -15.6478], [-70.1602, -15.6534], [-70.1481, -15.6571], [-70.1504, -15.6671], [-70.1458, -15.6698], [-70.1234, -15.6375], [-70.0837, -15.6425], [-70.0857, -15.6344], [-70.0712, -15.6251], [-70.0589, -15.6019], [-70.0257, -15.5655], [-69.9986, -15.5601], [-70.0148, -15.5581], [-70.0099, -15.5519], [-70.0016, -15.5521], [-69.995, -15.5421], [-69.9879, -15.544], [-69.9885, -15.5537], [-69.9804, -15.5467], [-69.97, -15.5497], [-69.9618, -15.5468], [-69.9621, -15.5389], [-69.974, -15.5348], [-69.9966, -15.5061], [-69.9971, -15.4953], [-69.9902, -15.4887], [-70.0006, -15.481], [-70.0038, -15.4704], [-70.0282, -15.4582], [-70.0254, -15.4379], [-70.0421, -15.4469], [-70.0532, -15.4458], [-70.084, -15.4552], [-70.0752, -15.4447], [-70.0782, -15.4388], [-70.0711, -15.4252], [-70.0813, -15.3988], [-70.0706, -15.3974], [-70.0788, -15.3876], [-70.0908, -15.39], [-70.1071, -15.3453], [-70.132, -15.3338], [-70.1706, -15.364], [-70.1807, -15.377], [-70.1997, -15.3617], [-70.2117, -15.3605], [-70.215, -15.3515], [-70.2213, -15.35], [-70.2301, -15.3376], [-70.254, -15.3302], [-70.2757, -15.3139], [-70.2764, -15.3349], [-70.2858, -15.3374], [-70.2924, -15.3542], [-70.2829, -15.3575], [-70.2669, -15.3749], [-70.2687, -15.3955], [-70.2791, -15.4021], [-70.3063, -15.386], [-70.3154, -15.3958], [-70.3282, -15.3931], [-70.3336, -15.4002], [-70.3318, -15.4063], [-70.3429, -15.4167], [-70.3394, -15.4265], [-70.3245, -15.4384], [-70.3283, -15.445], [-70.3225, -15.4438], [-70.3206, -15.4533], [-70.31, -15.4571], [-70.3122, -15.461], [-70.3071, -15.4587], [-70.3011, -15.4681], [-70.2939, -15.4698], [-70.2888, -15.4644], [-70.2967, -15.4887], [-70.2708, -15.5109], [-70.273, -15.522], [-70.2573, -15.5516], [-70.2627, -15.5584], [-70.2816, -15.5681], [-70.2883, -15.5834], [-70.3018, -15.5887], [-70.312, -15.6038], [-70.3191, -15.603], [-70.3226, -15.6134], [-70.3492, -15.639], [-70.3555, -15.64], [-70.3666, -15.6643], [-70.3763, -15.6701], [-70.3989, -15.6759], [-70.4154, -15.6733], [-70.4338, -15.677], [-70.4654, -15.6542], [-70.4915, -15.6681], [-70.4941, -15.6778], [-70.4985, -15.6735], [-70.5024, -15.6797], [-70.5158, -15.6809], [-70.516, -15.6866], [-70.5284, -15.6882], [-70.5399, -15.7178], [-70.5466, -15.7242], [-70.5459, -15.7386], [-70.5582, -15.7388], [-70.5724, -15.7197], [-70.5863, -15.7409], [-70.6033, -15.7461], [-70.6086, -15.7588], [-70.6338, -15.7449], [-70.6382, -15.7464], [-70.6578, -15.7608], [-70.6625, -15.7794], [-70.6872, -15.7945], [-70.7092, -15.788], [-70.7128, -15.782], [-70.7191, -15.7908], [-70.7461, -15.7761], [-70.7699, -15.7874], [-70.8003, -15.7816], [-70.8136, -15.7933], [-70.8139, -15.8144], [-70.8245, -15.8073], [-70.8448, -15.8059], [-70.8692, -15.8373], [-70.8875, -15.8407], [-70.8954, -15.8599], [-70.8963, -15.8774], [-70.8929, -15.8884], [-70.8859, -15.8935], [-70.875, -15.8876], [-70.8658, -15.8894], [-70.8489, -15.9212], [-70.8433, -15.9233], [-70.8367, -15.9403], [-70.8391, -15.9451], [-70.8322, -15.9491], [-70.8409, -15.9588], [-70.8419, -15.971], [-70.8202, -15.9785]]]}}, {"type": "Feature", "properties": {"osm_type": "relation", "osm_id": 465633590, "name": "Sandia", "admin_level": "6", "kind": "subdivision_2", "parent_osm_id": 1907899, "parent_name": "Puno", "parent_iso": "PE-PUN"}, "geometry": {"type": "Polygon", "coordinates": [[[-69.691, -14.5178], [-69.6735, -14.5225], [-69.6666, -14.531], [-69.6595, -14.5496], [-69.6571, -14.6086], [-69.6535, -14.6154], [-69.6354, -14.6259], [-69.6226, -14.6549], [-69.6135, -14.6618], [-69.5818, -14.6272], [-69.5489, -14.6269], [-69.5389, -14.6114], [-69.5299, -14.6115], [-69.5251, -14.604], [-69.5131, -14.6022], [-69.5061, -14.6076], [-69.4928, -14.5927], [-69.4738, -14.5887], [-69.4606, -14.5874], [-69.447, -14.5974], [-69.4447, -14.6116], [-69.4262, -14.6128], [-69.4127, -14.6211], [-69.373, -14.6102], [-69.3478, -14.6235], [-69.3283, -14.6136], [-69.3248, -14.6014], [-69.3332, -14.5764], [-69.3238, -14.5712], [-69.3241, -14.5595], [-69.3133, -14.5521], [-69.3153, -14.5225], [-69.307, -14.5175], [-69.3091, -14.5041], [-69.3038, -14.4871], [-69.2964, -14.4855], [-69.2892, -14.425], [-69.3031, -14.3991], [-69.2708, -14.3474], [-69.2703, -14.3163], [-69.2741, -14.3113], [-69.2623, -14.3065], [-69.2458, -14.3163], [-69.2284, -14.3426], [-69.235, -14.357], [-69.2312, -14.3586], [-69.232, -14.3829], [-69.2185, -14.3925], [-69.2257, -14.4261], [-69.2205, -14.4393], [-69.1817, -14.4384], [-69.1422, -14.4556], [-69.1181, -14.4861], [-69.0975, -14.4857], [-69.0819, -14.4444], [-69.0612, -14.4425], [-69.0504, -14.4291], [-69.0284, -14.4248], [-69.0248, -14.4068], [-69.0053, -14.4043], [-69.004, -14.3912], [-68.9854, -14.3747], [-68.9981, -14.3468], [-69.0038, -14.3459], [-69.0152, -14.3147], [-69.0071, -14.3039], [-69.0052, -14.2909], [-68.99, -14.2818], [-68.9792, -14.2656], [-68.9884, -14.2504], [-68.985, -14.2371], [-68.9763, -14.2329], [-68.9689, -14.2352], [-68.9696, -14.2254], [-68.9624, -14.2201], [-68.8278, -14.2194], [-68.8313, -14.2051], [-68.8463, -14.1969], [-68.8562, -14.1627], [-68.8463, -14.153], [-68.8337, -14.1539], [-68.8333, -14.1449], [-68.8493, -14.1383], [-68.8711, -14.1111], [-68.8753, -14.0868], [-68.8795, -14.0887], [-68.8841, -14.0839], [-68.8794, -14.0647], [-68.8929, -14.0517], [-68.8903, -14.0466], [-68.9027, -14.0387], [-68.909, -14.0404], [-68.9179, -14.0274], [-68.9286, -14.0307], [-68.9363, -14.0263], [-68.9424, -14.0205], [-68.9388, -14.0149], [-68.9463, -14.0132], [-68.9463, -14.0045], [-68.954, -14.0053], [-68.9658, -13.9868], [-68.9789, -13.9765], [-68.9708, -13.9554], [-68.9633, -13.9487], [-68.9704, -13.9483], [-68.9828, -13.9301], [-68.9825, -13.8947], [-68.9728, -13.8822], [-68.9647, -13.8848], [-68.951, -13.8787], [-68.9447, -13.8675], [-68.9411, -13.8395], [-68.9231, -13.828], [-68.9172, -13.8142], [-68.9506, -13.8002], [-68.9527, -13.7929], [-68.9586, -13.7905], [-68.9743, -13.7962], [-68.9942, -13.7875], [-68.9924, -13.778], [-68.9875, -13.7841], [-68.9804, -13.783], [-68.9745, -13.7606], [-69.0078, -13.7385], [-69.0259, -13.7393], [-69.0337, -13.7288], [-69.0355, -13.7162], [-69.0393, -13.7182], [-69.0483, -13.7104], [-69.0557, -13.7022], [-69.0548, -13.6937], [-69.0672, -13.6868], [-69.0632, -13.6594], [-69.053, -13.6553], [-69.0468, -13.645], [-69.0356, -13.6405], [-69.033, -13.6539], [-69.025, -13.6507], [-69.0203, -13.6576], [-69.0096, -13.652], [-68.9958, -13.6524], [-68.9929, -13.6489], [-68.9967, -13.6397], [-68.9902, -13.6349], [-69.005, -13.6241], [-68.9869, -13.6116], [-68.9724, -13.6111], [-68.9722, -13.6014], [-68.9525, -13.6044], [-68.9581, -13.5898], [-68.9458, -13.5686], [-68.9495, -13.5515], [-68.9426, -13.5382], [-68.9356, -13.5347], [-68.9421, -13.5287], [-68.9408, -13.5223], [-68.9352, -13.5291], [-68.932, -13.5215], [-68.9221, -13.5173], [-68.9193, -13.5253], [-68.9145, -13.5125], [-68.9219, -13.5101], [-68.9127, -13.5048], [-68.9142, -13.4994], [-68.9093, -13.4961], [-68.9138, -13.4917], [-68.9074, -13.4891], [-68.911, -13.4854], [-68.9158, -13.4884], [-68.9168, -13.4843], [-68.9055, -13.4754], [-68.9083, -13.4695], [-68.9014, -13.4704], [-68.906, -13.4567], [-68.8999, -13.4633], [-68.8961, -13.4613], [-68.9058, -13.4482], [-68.906, -13.4371], [-68.8988, -13.4467], [-68.9005, -13.4352], [-68.8954, -13.4317], [-68.8895, -13.4354], [-68.8977, -13.4133], [-68.8853, -13.4044], [-68.8947, -13.4017], [-68.8846, -13.3931], [-68.8854, -13.3843], [-68.8917, -13.3832], [-68.8832, -13.3814], [-68.8885, -13.3719], [-68.8791, -13.3718], [-68.8804, -13.3646], [-68.8688, -13.3592], [-68.8754, -13.3539], [-68.867, -13.3508], [-68.879, -13.3444], [-68.868, -13.3335], [-68.8788, -13.3294], [-68.8698, -13.3187], [-68.8628, -13.3199], [-68.8594, -13.3123], [-68.8613, -13.3029], [-68.8684, -13.2998], [-68.8569, -13.294], [-68.8609, -13.2866], [-68.8546, -13.2825], [-68.8619, -13.2713], [-68.8529, -13.274], [-68.849, -13.2696], [-68.8593, -13.2672], [-68.8529, -13.2614], [-68.8595, -13.256], [-68.8563, -13.2502], [-68.8453, -13.2467], [-68.85, -13.2366], [-68.8575, -13.235], [-68.8538, -13.2221], [-68.8627, -13.225], [-68.8614, -13.2124], [-68.8547, -13.2169], [-68.8522, -13.2107], [-68.8603, -13.1926], [-68.8721, -13.1814], [-68.8611, -13.1835], [-68.8635, -13.1771], [-68.8568, -13.17], [-68.8709, -13.168], [-68.8581, -13.1505], [-68.8699, -13.1489], [-68.8677, -13.1344], [-68.8722, -13.1346], [-68.8738, -13.1404], [-68.878, -13.1362], [-68.866, -13.1193], [-68.8732, -13.1182], [-68.8731, -13.1131], [-68.8592, -13.1133], [-68.8664, -13.111], [-68.8598, -13.0957], [-68.8691, -13.0815], [-68.8542, -13.0599], [-68.8611, -13.057], [-68.863, -13.0474], [-68.8501, -13.048], [-68.8544, -13.0421], [-68.8517, -13.0324], [-68.8614, -13.0349], [-68.8668, -13.0309], [-68.8532, -13.0159], [-68.8579, -13.0131], [-68.8712, -13.0186], [-68.8748, -13.0132], [-68.867, -13.0091], [-68.8719, -13.0039], [-69.6499, -13.3417], [-69.6541, -13.3798], [-69.6323, -13.4083], [-69.6418, -13.4084], [-69.6512, -13.4267], [-69.6547, -13.459], [-69.6655, -13.4549], [-69.6792, -13.4577], [-69.669, -13.4752], [-69.6827, -13.5008], [-69.6898, -13.5045], [-69.7044, -13.4997], [-69.7131, -13.5056], [-69.7238, -13.4922], [-69.7371, -13.5057], [-69.7192, -13.5133], [-69.7146, -13.521], [-69.6962, -13.5217], [-69.7019, -13.5341], [-69.7109, -13.5373], [-69.707, -13.5493], [-69.7125, -13.5516], [-69.7204, -13.5874], [-69.7261, -13.592], [-69.7185, -13.6043], [-69.7236, -13.6107], [-69.7263, -13.6347], [-69.7524, -13.6765], [-69.746, -13.6906], [-69.7537, -13.7379], [-69.762, -13.7381], [-69.7691, -13.7456], [-69.7787, -13.7389], [-69.7858, -13.7497], [-69.7778, -13.7589], [-69.7759, -13.7742], [-69.7636, -13.7847], [-69.7617, -13.7922], [-69.7531, -13.7961], [-69.7494, -13.8057], [-69.7325, -13.8117], [-69.7346, -13.8314], [-69.7285, -13.8411], [-69.72, -13.8417], [-69.6978, -13.867], [-69.6777, -13.8704], [-69.6645, -13.8824], [-69.665, -13.9054], [-69.6802, -13.9234], [-69.7022, -13.9358], [-69.7049, -13.9521], [-69.7232, -13.977], [-69.7254, -14.0192], [-69.7527, -14.0349], [-69.7647, -14.0308], [-69.7648, -14.0369], [-69.7782, -14.0458], [-69.7796, -14.0542], [-69.7975, -14.0667], [-69.8211, -14.1311], [-69.8329, -14.1382], [-69.8325, -14.1439], [-69.8253, -14.1468], [-69.8233, -14.1619], [-69.8403, -14.1921], [-69.8412, -14.2066], [-69.8504, -14.2122], [-69.8433, -14.2212], [-69.8511, -14.2317], [-69.8492, -14.2484], [-69.8536, -14.2554], [-69.8401, -14.2746], [-69.8319, -14.2693], [-69.8005, -14.2682], [-69.7853, -14.2759], [-69.7808, -14.2952], [-69.7832, -14.312], [-69.7694, -14.3179], [-69.7671, -14.328], [-69.7574, -14.3356], [-69.7363, -14.3338], [-69.7283, -14.3482], [-69.7331, -14.3651], [-69.7278, -14.3707], [-69.7289, -14.3964], [-69.7222, -14.4209], [-69.7145, -14.4234], [-69.7018, -14.4159], [-69.689, -14.4208], [-69.6816, -14.4413], [-69.6688, -14.4431], [-69.6605, -14.4519], [-69.6604, -14.4605], [-69.6826, -14.4901], [-69.691, -14.5178]]]}}, {"type": "Feature", "properties": {"osm_type": "relation", "osm_id": 606495098, "name": "Yunguyo", "admin_level": "6", "kind": "subdivision_2", "parent_osm_id": 1907899, "parent_name": "Puno", "parent_iso": "PE-PUN"}, "geometry": {"type": "MultiPolygon", "coordinates": [[[[-68.8142, -16.348], [-68.8142, -16.3198], [-68.8847, -16.2657], [-68.9184, -16.2333], [-68.9184, -16.4037], [-68.8142, -16.348]]], [[[-68.9387, -16.2338], [-68.9533, -16.2265], [-68.9449, -16.2448], [-68.9421, -16.238], [-68.9365, -16.2388], [-68.9387, -16.2338]]], [[[-69.043, -16.4204], [-69.0339, -16.4134], [-69.0351, -16.4083], [-69.0231, -16.4039], [-69.0308, -16.3758], [-69.0244, -16.3606], [-69.0222, -16.349], [-69.0265, -16.3426], [-69.022, -16.3319], [-69.0378, -16.3085], [-69.0379, -16.2962], [-69.05, -16.2831], [-69.0561, -16.2775], [-69.0667, -16.2823], [-69.0781, -16.2759], [-69.0767, -16.2595], [-69.0631, -16.2563], [-69.0631, -16.2507], [-69.0551, -16.2491], [-69.0532, -16.2557], [-69.0431, -16.2593], [-69.0442, -16.2665], [-69.0331, -16.2689], [-69.0314, -16.2747], [-69.0286, -16.2674], [-69.025, -16.2686], [-69.0266, -16.2638], [-69.0192, -16.261], [-69.014, -16.2646], [-69.0068, -16.2601], [-69.0042, -16.2497], [-68.9905, -16.2363], [-69.0065, -16.2714], [-68.9959, -16.2737], [-68.9881, -16.2584], [-68.9839, -16.2654], [-68.9805, -16.2572], [-68.9784, -16.2616], [-68.9696, -16.2408], [-68.9719, -16.2361], [-68.966, -16.2398], [-68.9701, -16.2302], [-68.9587, -16.2268], [-68.9654, -16.2188], [-68.9567, -16.1965], [-68.9624, -16.1917], [-68.9843, -16.1901], [-69.007, -16.2054], [-69.0073, -16.2164], [-69.0128, -16.2198], [-69.0288, -16.2076], [-69.0553, -16.1974], [-69.0815, -16.2214], [-69.1025, -16.2241], [-69.0949, -16.2356], [-69.0989, -16.2379], [-69.0973, -16.2438], [-69.117, -16.2398], [-69.107, -16.2403], [-69.1147, -16.2373], [-69.1483, -16.2543], [-69.2002, -16.2642], [-69.2033, -16.3006], [-69.1898, -16.3155], [-69.1782, -16.314], [-69.1661, -16.325], [-69.1413, -16.3316], [-69.1365, -16.3546], [-69.1451, -16.374], [-69.1363, -16.3972], [-69.1246, -16.3947], [-69.1243, -16.3655], [-69.113, -16.3659], [-69.0829, -16.3762], [-69.0667, -16.3929], [-69.0542, -16.3926], [-69.0601, -16.4043], [-69.043, -16.4204]]]]}}]}