{"type": "FeatureCollection", "parent": {"osm_id": 1908786, "name": "Maha Sarakham Province", "admin_level": "4", "kind": "subdivision_1", "child_kind": "subdivision_2", "iso": "TH-44"}, "features": [{"type": "Feature", "properties": {"osm_type": "relation", "osm_id": 652008733, "name": "Borabue", "admin_level": "6", "kind": "subdivision_2", "parent_osm_id": 1908786, "parent_name": "Maha Sarakham Province", "parent_iso": "TH-44"}, "geometry": {"type": "Polygon", "coordinates": [[[103.2488, 15.976], [103.2367, 15.9885], [103.2191, 15.9949], [103.2214, 16.0015], [103.2057, 16.0159], [103.2102, 16.0456], [103.2478, 16.0731], [103.2538, 16.0723], [103.2477, 16.0861], [103.2356, 16.0926], [103.2165, 16.0847], [103.2078, 16.0883], [103.2238, 16.1217], [103.2188, 16.1353], [103.1843, 16.1525], [103.1764, 16.1446], [103.1685, 16.1439], [103.1636, 16.1359], [103.146, 16.1294], [103.1269, 16.1341], [103.1313, 16.1465], [103.1236, 16.1512], [103.1196, 16.1709], [103.0912, 16.1555], [103.0789, 16.1431], [103.0696, 16.1471], [103.0799, 16.1289], [103.079, 16.101], [103.0723, 16.0984], [103.0702, 16.0892], [103.0476, 16.0851], [103.0412, 16.0787], [103.0337, 16.0536], [103.0262, 16.0512], [103.0325, 16.0452], [103.0278, 16.0406], [103.0106, 16.0469], [103.0009, 16.0402], [102.9991, 16.0284], [103.0035, 16.026], [102.9986, 16.024], [103.0011, 16.0156], [102.9969, 16.0014], [103.0031, 15.9923], [102.993, 15.9764], [102.993, 15.9668], [102.9864, 15.9671], [102.9842, 15.9554], [102.9676, 15.9417], [102.9548, 15.9444], [102.9581, 15.9328], [102.9525, 15.9305], [102.9421, 15.9091], [102.9628, 15.916], [102.996, 15.9182], [103.003, 15.914], [102.9999, 15.9102], [103.0037, 15.9034], [103.0224, 15.9024], [103.0223, 15.9072], [103.0283, 15.9064], [103.0464, 15.8991], [103.0608, 15.878], [103.0805, 15.8629], [103.0826, 15.8667], [103.0884, 15.8637], [103.1065, 15.8452], [103.1161, 15.8415], [103.1288, 15.8526], [103.1614, 15.868], [103.1711, 15.8669], [103.1749, 15.8719], [103.1959, 15.8751], [103.2209, 15.8741], [103.2302, 15.8914], [103.2392, 15.8877], [103.2507, 15.8952], [103.2484, 15.9068], [103.2581, 15.9092], [103.2651, 15.92], [103.2591, 15.9255], [103.2628, 15.934], [103.25, 15.9487], [103.2488, 15.976]]]}}, {"type": "Feature", "properties": {"osm_type": "relation", "osm_id": 742715429, "name": "Chiang Yuen", "admin_level": "6", "kind": "subdivision_2", "parent_osm_id": 1908786, "parent_name": "Maha Sarakham Province", "parent_iso": "TH-44"}, "geometry": {"type": "Polygon", "coordinates": [[[103.1744, 16.4587], [103.1621, 16.458], [103.1523, 16.4653], [103.1332, 16.4533], [103.0944, 16.4896], [103.098, 16.5004], [103.0852, 16.5157], [103.0626, 16.4994], [103.0468, 16.497], [103.0426, 16.4907], [103.038, 16.4907], [103.0326, 16.5013], [103.0192, 16.4734], [102.9827, 16.4634], [102.976, 16.4564], [102.967, 16.4571], [102.9612, 16.449], [102.9533, 16.4513], [102.9549, 16.4423], [102.949, 16.445], [102.9474, 16.4415], [102.9555, 16.4364], [102.9551, 16.4317], [102.9606, 16.4334], [102.9751, 16.4251], [102.9726, 16.4133], [102.9773, 16.4171], [102.9853, 16.4098], [102.9855, 16.4014], [102.976, 16.387], [102.9846, 16.3828], [102.9795, 16.3681], [102.9848, 16.3533], [103.0039, 16.3467], [103.0194, 16.3533], [103.0293, 16.3495], [103.0709, 16.3704], [103.0891, 16.3642], [103.1082, 16.3337], [103.1229, 16.3256], [103.1732, 16.3174], [103.1771, 16.3211], [103.1751, 16.3352], [103.184, 16.3357], [103.1755, 16.3451], [103.1751, 16.3691], [103.1684, 16.3745], [103.1635, 16.3891], [103.1857, 16.4356], [103.1839, 16.4506], [103.1744, 16.4587]]]}}, {"type": "Feature", "properties": {"osm_type": "relation", "osm_id": 108820043, "name": "Chuen Chom", "admin_level": "6", "kind": "subdivision_2", "parent_osm_id": 1908786, "parent_name": "Maha Sarakham Province", "parent_iso": "TH-44"}, "geometry": {"type": "Polygon", "coordinates": [[[103.1744, 16.4587], [103.1672, 16.4669], [103.1628, 16.4979], [103.1871, 16.5516], [103.1812, 16.577], [103.1675, 16.6029], [103.1961, 16.6309], [103.1903, 16.6403], [103.1524, 16.6436], [103.1526, 16.6104], [103.1405, 16.5996], [103.12, 16.5922], [103.1188, 16.5667], [103.1044, 16.5541], [103.1013, 16.5418], [103.0872, 16.5283], [103.0852, 16.5157], [103.098, 16.5004], [103.0944, 16.4896], [103.1332, 16.4533], [103.1523, 16.4653], [103.1621, 16.458], [103.1744, 16.4587]]]}}, {"type": "Feature", "properties": {"osm_type": "relation", "osm_id": 194751034, "name": "Kae Dam", "admin_level": "6", "kind": "subdivision_2", "parent_osm_id": 1908786, "parent_name": "Maha Sarakham Province", "parent_iso": "TH-44"}, "geometry": {"type": "Polygon", "coordinates": [[[103.4581, 16.1112], [103.4307, 16.1091], [103.4027, 16.1168], [103.4016, 16.1261], [103.3885, 16.1237], [103.3862, 16.128], [103.3737, 16.1192], [103.3619, 16.1193], [103.3483, 16.1083], [103.3494, 16.0962], [103.3348, 16.0925], [103.329, 16.0863], [103.3412, 16.0647], [103.3312, 16.0579], [103.3268, 16.0453], [103.3301, 16.0307], [103.3361, 16.0303], [103.3416, 16.0143], [103.3306, 15.9817], [103.3579, 15.9802], [103.3858, 15.9873], [103.3931, 15.9992], [103.3905, 16.0079], [103.4101, 16.0088], [103.4193, 16.0163], [103.4429, 16.0051], [103.4633, 16.0088], [103.4604, 16.0243], [103.4706, 16.0461], [103.4647, 16.0669], [103.4536, 16.0835], [103.4581, 16.1112]]]}}, {"type": "Feature", "properties": {"osm_type": "relation", "osm_id": 367367622, "name": "Kantharawichai", "admin_level": "6", "kind": "subdivision_2", "parent_osm_id": 1908786, "parent_name": "Maha Sarakham Province", "parent_iso": "TH-44"}, "geometry": {"type": "Polygon", "coordinates": [[[103.1732, 16.3174], [103.1727, 16.3081], [103.1639, 16.2925], [103.1601, 16.2937], [103.1622, 16.2833], [103.1546, 16.2745], [103.1592, 16.2685], [103.159, 16.2567], [103.1513, 16.2374], [103.1576, 16.224], [103.1531, 16.2177], [103.1449, 16.2161], [103.1427, 16.2089], [103.1508, 16.1958], [103.1662, 16.195], [103.1668, 16.1898], [103.186, 16.1892], [103.1997, 16.2022], [103.2088, 16.1947], [103.2212, 16.1994], [103.2333, 16.1942], [103.2404, 16.1992], [103.2397, 16.2046], [103.2569, 16.2095], [103.2528, 16.2166], [103.2599, 16.2128], [103.2676, 16.2192], [103.2643, 16.2304], [103.2676, 16.2324], [103.2778, 16.2311], [103.2779, 16.2176], [103.2891, 16.2194], [103.3007, 16.2286], [103.3037, 16.2188], [103.3183, 16.2128], [103.3216, 16.2188], [103.3149, 16.2188], [103.3099, 16.2253], [103.315, 16.2303], [103.3338, 16.2238], [103.3359, 16.2175], [103.3607, 16.2161], [103.3625, 16.2263], [103.37, 16.2236], [103.3729, 16.2302], [103.3813, 16.2285], [103.3856, 16.2328], [103.3832, 16.2379], [103.3885, 16.2366], [103.3914, 16.2412], [103.3952, 16.2348], [103.4019, 16.2446], [103.4064, 16.2325], [103.4181, 16.2263], [103.4044, 16.2567], [103.4127, 16.2789], [103.4078, 16.2948], [103.3957, 16.2927], [103.3538, 16.3084], [103.3436, 16.3602], [103.3254, 16.3675], [103.3073, 16.3652], [103.3004, 16.3695], [103.2904, 16.3954], [103.2838, 16.3956], [103.26, 16.3762], [103.2479, 16.3796], [103.1754, 16.3634], [103.1755, 16.3451], [103.184, 16.3357], [103.1751, 16.3352], [103.1771, 16.3211], [103.1732, 16.3174]]]}}, {"type": "Feature", "properties": {"osm_type": "relation", "osm_id": 510016323, "name": "Kosum Phisai", "admin_level": "6", "kind": "subdivision_2", "parent_osm_id": 1908786, "parent_name": "Maha Sarakham Province", "parent_iso": "TH-44"}, "geometry": {"type": "Polygon", "coordinates": [[[102.8439, 16.1509], [102.8545, 16.126], [102.8745, 16.1245], [102.8774, 16.1283], [102.8884, 16.119], [102.9003, 16.1208], [102.8998, 16.1247], [102.9088, 16.119], [102.9198, 16.1202], [102.9269, 16.1064], [102.9419, 16.1013], [102.9682, 16.1117], [103.0077, 16.1043], [103.0162, 16.117], [103.0161, 16.1272], [103.0361, 16.1529], [103.0428, 16.1721], [103.052, 16.1631], [103.054, 16.1537], [103.0789, 16.1431], [103.0912, 16.1555], [103.1196, 16.1709], [103.1221, 16.1817], [103.1325, 16.1884], [103.1294, 16.1976], [103.1508, 16.1958], [103.1427, 16.2089], [103.1449, 16.2161], [103.1531, 16.2177], [103.1576, 16.224], [103.1513, 16.2374], [103.159, 16.2567], [103.1592, 16.2685], [103.1546, 16.2745], [103.1622, 16.2833], [103.1601, 16.2937], [103.1639, 16.2925], [103.1727, 16.3081], [103.1732, 16.3174], [103.1229, 16.3256], [103.1082, 16.3337], [103.0891, 16.3642], [103.0709, 16.3704], [103.0293, 16.3495], [103.0194, 16.3533], [103.0039, 16.3467], [102.9848, 16.3533], [102.9795, 16.3681], [102.9846, 16.3828], [102.976, 16.387], [102.9855, 16.4014], [102.9853, 16.4098], [102.9773, 16.4171], [102.9726, 16.4133], [102.9751, 16.4251], [102.9606, 16.4334], [102.9551, 16.4317], [102.9533, 16.4389], [102.9475, 16.4294], [102.9487, 16.4215], [102.9592, 16.4266], [102.9534, 16.415], [102.9565, 16.4129], [102.9468, 16.4097], [102.9458, 16.4027], [102.9555, 16.4023], [102.9565, 16.3987], [102.9494, 16.3892], [102.941, 16.3932], [102.9395, 16.3855], [102.9357, 16.3887], [102.9379, 16.377], [102.9207, 16.3775], [102.9192, 16.3728], [102.9275, 16.367], [102.9187, 16.365], [102.9175, 16.3694], [102.9145, 16.3617], [102.9051, 16.3579], [102.9088, 16.3497], [102.8985, 16.3489], [102.8945, 16.3157], [102.8674, 16.2994], [102.8456, 16.2728], [102.8448, 16.2641], [102.8506, 16.2566], [102.8446, 16.2332], [102.8515, 16.2225], [102.8433, 16.2112], [102.8482, 16.199], [102.845, 16.1726], [102.8551, 16.1663], [102.8572, 16.1586], [102.8439, 16.1509]]]}}, {"type": "Feature", "properties": {"osm_type": "relation", "osm_id": 540866346, "name": "Kut Rang", "admin_level": "6", "kind": "subdivision_2", "parent_osm_id": 1908786, "parent_name": "Maha Sarakham Province", "parent_iso": "TH-44"}, "geometry": {"type": "Polygon", "coordinates": [[[102.9013, 15.97], [102.902, 15.9648], [102.8948, 15.9576], [102.8963, 15.9456], [102.8899, 15.9406], [102.8996, 15.9119], [102.9258, 15.9148], [102.9345, 15.9059], [102.9405, 15.9065], [102.9525, 15.9305], [102.9581, 15.9328], [102.9548, 15.9444], [102.9676, 15.9417], [102.9842, 15.9554], [102.9864, 15.9671], [102.993, 15.9668], [102.993, 15.9764], [103.0031, 15.9923], [102.9969, 16.0014], [103.0011, 16.0156], [102.9986, 16.024], [103.0035, 16.026], [102.9991, 16.0284], [103.0009, 16.0402], [103.0106, 16.0469], [103.0278, 16.0406], [103.0325, 16.0452], [103.0262, 16.0512], [103.0337, 16.0536], [103.0412, 16.0787], [103.0476, 16.0851], [103.0702, 16.0892], [103.0723, 16.0984], [103.079, 16.101], [103.0782, 16.134], [103.0696, 16.1471], [103.054, 16.1537], [103.0468, 16.1705], [103.0428, 16.1721], [103.0361, 16.1529], [103.0161, 16.1272], [103.0162, 16.117], [103.0077, 16.1043], [102.9682, 16.1117], [102.9419, 16.1013], [102.9269, 16.1064], [102.9198, 16.1202], [102.9088, 16.119], [102.8998, 16.1247], [102.9003, 16.1208], [102.8884, 16.119], [102.8774, 16.1283], [102.8676, 16.1254], [102.8608, 16.0947], [102.8556, 16.0922], [102.856, 16.082], [102.8481, 16.0723], [102.8614, 16.059], [102.859, 16.039], [102.8762, 16.038], [102.8939, 16.0254], [102.8948, 16.0212], [102.8844, 16.0137], [102.9093, 15.9853], [102.9013, 15.97]]]}}, {"type": "Feature", "properties": {"osm_type": "relation", "osm_id": 323770586, "name": "Mueang Maha Sarakham", "admin_level": "6", "kind": "subdivision_2", "parent_osm_id": 1908786, "parent_name": "Maha Sarakham Province", "parent_iso": "TH-44"}, "geometry": {"type": "Polygon", "coordinates": [[[103.2488, 15.976], [103.2612, 15.9769], [103.2751, 15.9656], [103.2844, 15.9647], [103.2849, 15.9681], [103.2986, 15.9674], [103.3111, 15.9782], [103.3261, 15.9774], [103.3378, 15.9951], [103.3416, 16.0143], [103.3361, 16.0303], [103.3281, 16.0351], [103.3287, 16.0544], [103.3412, 16.0647], [103.329, 16.0863], [103.3348, 16.0925], [103.3494, 16.0962], [103.3483, 16.1083], [103.3619, 16.1193], [103.3737, 16.1192], [103.3862, 16.128], [103.3885, 16.1237], [103.4016, 16.1261], [103.4027, 16.1168], [103.4307, 16.1091], [103.4581, 16.1112], [103.4599, 16.1265], [103.4712, 16.135], [103.4738, 16.144], [103.4804, 16.1458], [103.4834, 16.1634], [103.4904, 16.1715], [103.4853, 16.1848], [103.5012, 16.1937], [103.5036, 16.2086], [103.4958, 16.208], [103.4927, 16.2027], [103.4797, 16.2083], [103.4717, 16.1923], [103.4666, 16.1939], [103.4525, 16.1819], [103.4482, 16.1917], [103.4559, 16.1917], [103.4442, 16.1983], [103.4506, 16.2048], [103.4402, 16.2061], [103.4485, 16.2127], [103.443, 16.2164], [103.4482, 16.2176], [103.447, 16.2276], [103.4442, 16.2293], [103.439, 16.22], [103.4323, 16.2333], [103.4149, 16.239], [103.4184, 16.229], [103.4151, 16.2272], [103.4064, 16.2325], [103.4019, 16.2446], [103.3952, 16.2348], [103.3914, 16.2412], [103.3885, 16.2366], [103.3832, 16.2379], [103.3856, 16.2328], [103.3813, 16.2285], [103.3729, 16.2302], [103.37, 16.2236], [103.3625, 16.2263], [103.3607, 16.2161], [103.3359, 16.2175], [103.3338, 16.2238], [103.315, 16.2303], [103.3099, 16.2253], [103.3149, 16.2188], [103.3216, 16.2188], [103.3183, 16.2128], [103.3037, 16.2188], [103.3007, 16.2286], [103.2891, 16.2194], [103.2779, 16.2176], [103.2778, 16.2311], [103.2676, 16.2324], [103.2643, 16.2304], [103.2676, 16.2192], [103.2599, 16.2128], [103.2528, 16.2166], [103.2569, 16.2095], [103.2397, 16.2046], [103.2404, 16.1992], [103.2333, 16.1942], [103.2212, 16.1994], [103.2088, 16.1947], [103.1997, 16.2022], [103.1787, 16.1872], [103.1668, 16.1898], [103.1662, 16.195], [103.1294, 16.1976], [103.1325, 16.1884], [103.1221, 16.1817], [103.1177, 16.1668], [103.1236, 16.1512], [103.1313, 16.1465], [103.1269, 16.1341], [103.146, 16.1294], [103.1636, 16.1359], [103.1685, 16.1439], [103.1764, 16.1446], [103.1843, 16.1525], [103.1978, 16.1478], [103.2188, 16.1353], [103.2231, 16.1267], [103.2215, 16.114], [103.2149, 16.1083], [103.2155, 16.0994], [103.2078, 16.0883], [103.2165, 16.0847], [103.2356, 16.0926], [103.2477, 16.0861], [103.2538, 16.0723], [103.2478, 16.0731], [103.2102, 16.0456], [103.2057, 16.0159], [103.2214, 16.0015], [103.2191, 15.9949], [103.2367, 15.9885], [103.2488, 15.976]]]}}, {"type": "Feature", "properties": {"osm_type": "relation", "osm_id": 908753189, "name": "Na Chueak", "admin_level": "6", "kind": "subdivision_2", "parent_osm_id": 1908786, "parent_name": "Maha Sarakham Province", "parent_iso": "TH-44"}, "geometry": {"type": "Polygon", "coordinates": [[[102.9421, 15.9091], [102.9345, 15.9059], [102.9258, 15.9148], [102.9012, 15.9108], [102.9157, 15.8814], [102.9253, 15.8802], [102.9193, 15.8238], [102.9311, 15.8157], [102.9289, 15.7926], [102.9333, 15.7949], [102.9326, 15.7897], [102.9398, 15.7843], [102.9413, 15.7661], [102.9675, 15.755], [102.971, 15.7573], [102.9794, 15.7507], [102.9778, 15.7464], [102.9861, 15.7343], [103.0052, 15.7289], [103.0026, 15.7179], [103.0122, 15.6986], [103.0214, 15.6993], [103.0229, 15.7043], [103.0427, 15.7007], [103.0711, 15.7044], [103.0824, 15.7126], [103.1014, 15.7038], [103.1236, 15.7041], [103.136, 15.7104], [103.1361, 15.7222], [103.1445, 15.7388], [103.1573, 15.7376], [103.1611, 15.7488], [103.1726, 15.756], [103.174, 15.7755], [103.1906, 15.7795], [103.169, 15.8168], [103.158, 15.8119], [103.153, 15.8287], [103.1537, 15.8335], [103.1739, 15.8453], [103.1761, 15.852], [103.1654, 15.8501], [103.1495, 15.8637], [103.1161, 15.8415], [103.1065, 15.8452], [103.0884, 15.8637], [103.0826, 15.8667], [103.0805, 15.8629], [103.0608, 15.878], [103.0464, 15.8991], [103.0283, 15.9064], [103.0223, 15.9072], [103.0224, 15.9024], [103.0037, 15.9034], [102.9999, 15.9102], [103.003, 15.914], [102.996, 15.9182], [102.9628, 15.916], [102.9421, 15.9091]]]}}, {"type": "Feature", "properties": {"osm_type": "relation", "osm_id": 718632081, "name": "Na Dun", "admin_level": "6", "kind": "subdivision_2", "parent_osm_id": 1908786, "parent_name": "Maha Sarakham Province", "parent_iso": "TH-44"}, "geometry": {"type": "Polygon", "coordinates": [[[103.1236, 15.7041], [103.1285, 15.6989], [103.1558, 15.71], [103.1551, 15.6937], [103.1768, 15.6855], [103.1974, 15.6593], [103.2287, 15.6512], [103.2408, 15.653], [103.2559, 15.6442], [103.2612, 15.6303], [103.2668, 15.6346], [103.2675, 15.6521], [103.2768, 15.6542], [103.2842, 15.6635], [103.2854, 15.6743], [103.2985, 15.6845], [103.2919, 15.6926], [103.3084, 15.6936], [103.3082, 15.7028], [103.301, 15.7064], [103.3169, 15.7084], [103.3211, 15.6996], [103.3273, 15.6984], [103.3424, 15.7101], [103.3446, 15.7171], [103.3201, 15.7663], [103.2892, 15.7918], [103.2901, 15.797], [103.2576, 15.7989], [103.2413, 15.7849], [103.2341, 15.7855], [103.2278, 15.7892], [103.2317, 15.8064], [103.227, 15.8068], [103.2195, 15.7935], [103.1957, 15.7996], [103.1884, 15.7958], [103.1795, 15.8012], [103.1906, 15.7795], [103.174, 15.7755], [103.1726, 15.756], [103.1611, 15.7488], [103.1573, 15.7376], [103.1445, 15.7388], [103.1361, 15.7222], [103.136, 15.7104], [103.1236, 15.7041]]]}}, {"type": "Feature", "properties": {"osm_type": "relation", "osm_id": 539829774, "name": "Phayakkhaphum Phisai", "admin_level": "6", "kind": "subdivision_2", "parent_osm_id": 1908786, "parent_name": "Maha Sarakham Province", "parent_iso": "TH-44"}, "geometry": {"type": "Polygon", "coordinates": [[[103.4033, 15.4365], [103.4008, 15.445], [103.4209, 15.5059], [103.421, 15.5242], [103.4267, 15.5249], [103.4243, 15.5329], [103.4111, 15.5402], [103.4036, 15.5359], [103.3841, 15.5386], [103.3603, 15.5262], [103.3547, 15.5414], [103.3306, 15.5472], [103.3208, 15.5555], [103.3137, 15.5549], [103.3091, 15.5622], [103.3027, 15.5622], [103.3034, 15.5736], [103.2944, 15.5776], [103.2972, 15.5872], [103.2939, 15.5932], [103.2888, 15.5968], [103.2822, 15.593], [103.2737, 15.6017], [103.2756, 15.6112], [103.2892, 15.6208], [103.299, 15.6489], [103.2671, 15.6496], [103.2668, 15.6346], [103.2612, 15.6303], [103.2519, 15.6469], [103.2408, 15.653], [103.2287, 15.6512], [103.2154, 15.6566], [103.2034, 15.6273], [103.2057, 15.6222], [103.1959, 15.6139], [103.18, 15.6171], [103.1615, 15.6043], [103.1367, 15.5967], [103.1234, 15.6007], [103.1167, 15.5953], [103.1049, 15.6122], [103.0906, 15.6182], [103.0898, 15.6273], [103.0838, 15.6317], [103.0753, 15.633], [103.0558, 15.6246], [103.0628, 15.6011], [103.0478, 15.5821], [103.0463, 15.5772], [103.0501, 15.5758], [103.0451, 15.5736], [103.0487, 15.5677], [103.0459, 15.5641], [103.0543, 15.5609], [103.0529, 15.5571], [103.0607, 15.5579], [103.0774, 15.5425], [103.0813, 15.5467], [103.0906, 15.5331], [103.0888, 15.5256], [103.0831, 15.5277], [103.0839, 15.5173], [103.0748, 15.5128], [103.0724, 15.4991], [103.078, 15.4991], [103.0787, 15.4932], [103.1114, 15.4813], [103.2038, 15.4602], [103.2154, 15.4612], [103.2144, 15.458], [103.2248, 15.4536], [103.2244, 15.4485], [103.2508, 15.4483], [103.2631, 15.4382], [103.2619, 15.43], [103.2695, 15.4233], [103.3141, 15.4131], [103.3272, 15.4142], [103.3414, 15.4059], [103.3625, 15.4127], [103.378, 15.4274], [103.4033, 15.4365]]]}}, {"type": "Feature", "properties": {"osm_type": "relation", "osm_id": 201223692, "name": "Wapi Pathum", "admin_level": "6", "kind": "subdivision_2", "parent_osm_id": 1908786, "parent_name": "Maha Sarakham Province", "parent_iso": "TH-44"}, "geometry": {"type": "Polygon", "coordinates": [[[103.1495, 15.8637], [103.1654, 15.8501], [103.1761, 15.852], [103.1739, 15.8453], [103.1537, 15.8335], [103.158, 15.8119], [103.169, 15.8168], [103.1884, 15.7958], [103.1957, 15.7996], [103.2195, 15.7935], [103.227, 15.8068], [103.2317, 15.8064], [103.2278, 15.7892], [103.2341, 15.7855], [103.2413, 15.7849], [103.2576, 15.7989], [103.2901, 15.797], [103.2892, 15.7918], [103.3201, 15.7663], [103.3446, 15.7171], [103.3517, 15.7258], [103.3906, 15.7092], [103.4131, 15.7125], [103.4238, 15.7342], [103.4101, 15.7447], [103.4064, 15.757], [103.4003, 15.76], [103.4256, 15.7732], [103.4396, 15.7995], [103.4341, 15.8085], [103.4403, 15.8158], [103.4374, 15.8387], [103.4427, 15.848], [103.4441, 15.8688], [103.4577, 15.8944], [103.4572, 15.9081], [103.4882, 15.9313], [103.4814, 15.9365], [103.4781, 15.9476], [103.4742, 15.9474], [103.4631, 15.9717], [103.4598, 15.9971], [103.4633, 16.0088], [103.4429, 16.0051], [103.4193, 16.0163], [103.4101, 16.0088], [103.3905, 16.0079], [103.3931, 15.9992], [103.3858, 15.9873], [103.3579, 15.9802], [103.3378, 15.9839], [103.3261, 15.9774], [103.3111, 15.9782], [103.2986, 15.9674], [103.2849, 15.9681], [103.2844, 15.9647], [103.2751, 15.9656], [103.2612, 15.9769], [103.2488, 15.976], [103.25, 15.9487], [103.2628, 15.934], [103.2591, 15.9255], [103.2651, 15.92], [103.2581, 15.9092], [103.2484, 15.9068], [103.2507, 15.8952], [103.2392, 15.8877], [103.2302, 15.8914], [103.2209, 15.8741], [103.1959, 15.8751], [103.1495, 15.8637]]]}}, {"type": "Feature", "properties": {"osm_type": "relation", "osm_id": 916164216, "name": "Yang Sisurat", "admin_level": "6", "kind": "subdivision_2", "parent_osm_id": 1908786, "parent_name": "Maha Sarakham Province", "parent_iso": "TH-44"}, "geometry": {"type": "Polygon", "coordinates": [[[103.008, 15.7012], [103.0049, 15.6847], [102.9726, 15.6678], [102.9768, 15.6569], [102.982, 15.6572], [102.9888, 15.6472], [102.9948, 15.6481], [102.9927, 15.6398], [103.0124, 15.6283], [103.0127, 15.6153], [103.0274, 15.6039], [103.0268, 15.5998], [103.0451, 15.598], [103.0456, 15.5933], [103.0572, 15.5948], [103.0628, 15.6011], [103.0558, 15.6246], [103.0753, 15.633], [103.0898, 15.6273], [103.0906, 15.6182], [103.1049, 15.6122], [103.1167, 15.5953], [103.1234, 15.6007], [103.1413, 15.5972], [103.18, 15.6171], [103.1959, 15.6139], [103.2057, 15.6222], [103.2034, 15.6273], [103.2152, 15.6545], [103.1995, 15.6579], [103.1768, 15.6855], [103.1551, 15.6937], [103.1558, 15.71], [103.1285, 15.6989], [103.1236, 15.7041], [103.1014, 15.7038], [103.0824, 15.7126], [103.0711, 15.7044], [103.0427, 15.7007], [103.0229, 15.7043], [103.0175, 15.6981], [103.008, 15.7012]]]}}]}