{"type": "FeatureCollection", "parent": {"osm_id": 1908769, "name": "Chaiyaphum Province", "admin_level": "4", "kind": "subdivision_1", "child_kind": "subdivision_2", "iso": "TH-36"}, "features": [{"type": "Feature", "properties": {"osm_type": "relation", "osm_id": 179758566, "name": "Bamnet Narong", "admin_level": "6", "kind": "subdivision_2", "parent_osm_id": 1908769, "parent_name": "Chaiyaphum Province", "parent_iso": "TH-36"}, "geometry": {"type": "Polygon", "coordinates": [[[101.7305, 15.5373], [101.726, 15.5426], [101.7127, 15.5395], [101.7049, 15.5435], [101.6995, 15.5397], [101.6813, 15.5437], [101.6748, 15.538], [101.6693, 15.542], [101.6653, 15.5368], [101.6362, 15.5549], [101.6228, 15.5503], [101.6161, 15.5587], [101.6094, 15.5544], [101.6041, 15.5627], [101.5988, 15.56], [101.5946, 15.5663], [101.587, 15.5629], [101.5688, 15.5701], [101.553, 15.5622], [101.5417, 15.5674], [101.5174, 15.5624], [101.5231, 15.5385], [101.5037, 15.517], [101.5315, 15.5005], [101.5363, 15.4907], [101.5311, 15.4755], [101.5401, 15.4711], [101.5374, 15.4647], [101.5442, 15.463], [101.5427, 15.4567], [101.5521, 15.4587], [101.5563, 15.4485], [101.5891, 15.4202], [101.5827, 15.4152], [101.583, 15.4076], [101.5603, 15.4059], [101.5567, 15.4091], [101.5556, 15.405], [101.5432, 15.4024], [101.5513, 15.3857], [101.5661, 15.372], [101.5883, 15.3735], [101.5911, 15.3783], [101.6058, 15.3807], [101.6191, 15.3704], [101.6568, 15.4017], [101.6863, 15.3921], [101.7025, 15.3944], [101.7203, 15.3848], [101.7617, 15.3814], [101.7835, 15.3867], [101.8018, 15.4033], [101.8057, 15.4126], [101.7995, 15.4242], [101.8082, 15.4385], [101.8003, 15.4423], [101.7946, 15.4561], [101.7786, 15.4653], [101.7755, 15.4842], [101.7647, 15.4847], [101.7491, 15.5053], [101.7361, 15.5129], [101.7289, 15.5299], [101.7305, 15.5373]]]}}, {"type": "Feature", "properties": {"osm_type": "relation", "osm_id": 212660825, "name": "Ban Khwao", "admin_level": "6", "kind": "subdivision_2", "parent_osm_id": 1908769, "parent_name": "Chaiyaphum Province", "parent_iso": "TH-36"}, "geometry": {"type": "Polygon", "coordinates": [[[101.7527, 15.9748], [101.7124, 15.9728], [101.6979, 15.9667], [101.6916, 15.9529], [101.7029, 15.9425], [101.6987, 15.9279], [101.7015, 15.9168], [101.7072, 15.9186], [101.71, 15.9086], [101.6999, 15.9014], [101.7189, 15.8974], [101.706, 15.8937], [101.7035, 15.8971], [101.6984, 15.8913], [101.7092, 15.8838], [101.7126, 15.8674], [101.7202, 15.866], [101.7166, 15.8565], [101.7223, 15.8502], [101.7278, 15.8594], [101.7356, 15.8577], [101.7303, 15.8532], [101.7338, 15.8422], [101.7415, 15.8485], [101.7464, 15.8401], [101.7412, 15.8412], [101.7345, 15.8336], [101.745, 15.8334], [101.7388, 15.8255], [101.7461, 15.8086], [101.7591, 15.8045], [101.7606, 15.7942], [101.7695, 15.803], [101.7841, 15.7996], [101.7955, 15.7693], [101.8075, 15.7761], [101.8175, 15.7698], [101.8134, 15.7606], [101.8154, 15.7487], [101.8224, 15.7443], [101.8162, 15.7403], [101.8235, 15.7407], [101.8299, 15.7327], [101.838, 15.7406], [101.8433, 15.73], [101.8433, 15.738], [101.8467, 15.7379], [101.8439, 15.7258], [101.8573, 15.7255], [101.8534, 15.72], [101.8616, 15.7185], [101.8533, 15.7169], [101.8585, 15.711], [101.8677, 15.7111], [101.8679, 15.7053], [101.8734, 15.7078], [101.8834, 15.6951], [101.8921, 15.6947], [101.8937, 15.6867], [101.8988, 15.6886], [101.8996, 15.6788], [101.9072, 15.6778], [101.9048, 15.6684], [101.9148, 15.6644], [101.9188, 15.6671], [101.9216, 15.6585], [101.9303, 15.6566], [101.9362, 15.6643], [101.9399, 15.6625], [101.9406, 15.6676], [101.9466, 15.6666], [101.9512, 15.6717], [101.9458, 15.6748], [101.9471, 15.6785], [101.9595, 15.6756], [101.9653, 15.687], [101.9689, 15.6875], [101.9692, 15.6827], [101.9735, 15.6883], [101.9745, 15.6839], [101.9927, 15.7027], [101.9887, 15.7064], [101.9809, 15.7018], [101.9784, 15.7228], [101.9736, 15.7216], [101.9751, 15.7261], [101.9652, 15.7311], [101.9652, 15.7361], [101.9419, 15.7412], [101.9383, 15.7488], [101.9369, 15.7688], [101.942, 15.7738], [101.939, 15.7851], [101.9448, 15.8071], [101.9345, 15.8165], [101.9306, 15.8405], [101.9182, 15.8534], [101.9181, 15.8622], [101.9045, 15.8675], [101.8893, 15.8652], [101.8837, 15.879], [101.8668, 15.8968], [101.8648, 15.9082], [101.8417, 15.919], [101.8393, 15.9359], [101.814, 15.9438], [101.8009, 15.9335], [101.7852, 15.9361], [101.7821, 15.9494], [101.7527, 15.9748]]]}}, {"type": "Feature", "properties": {"osm_type": "relation", "osm_id": 168538123, "name": "Ban Thaen", "admin_level": "6", "kind": "subdivision_2", "parent_osm_id": 1908769, "parent_name": "Chaiyaphum Province", "parent_iso": "TH-36"}, "geometry": {"type": "Polygon", "coordinates": [[[102.4589, 16.3947], [102.4493, 16.3972], [102.4433, 16.4078], [102.4157, 16.4225], [102.4055, 16.4395], [102.4098, 16.4473], [102.4007, 16.4676], [102.3953, 16.4631], [102.3989, 16.459], [102.3942, 16.4589], [102.3991, 16.4466], [102.3839, 16.4419], [102.3825, 16.4453], [102.3762, 16.4348], [102.3654, 16.4382], [102.3684, 16.4475], [102.3651, 16.453], [102.3579, 16.4478], [102.3501, 16.4521], [102.3434, 16.4463], [102.3234, 16.4453], [102.3191, 16.4459], [102.3177, 16.456], [102.3007, 16.4451], [102.293, 16.4464], [102.2895, 16.454], [102.2783, 16.4567], [102.2772, 16.4609], [102.2765, 16.4559], [102.2693, 16.4556], [102.2644, 16.462], [102.2553, 16.4611], [102.2406, 16.4497], [102.2398, 16.4366], [102.2203, 16.4112], [102.2238, 16.3841], [102.2335, 16.3753], [102.2649, 16.3778], [102.2959, 16.368], [102.3083, 16.3725], [102.3074, 16.3607], [102.3149, 16.3552], [102.3183, 16.3198], [102.3233, 16.3098], [102.3369, 16.3035], [102.3381, 16.2897], [102.3723, 16.2825], [102.3826, 16.276], [102.3884, 16.264], [102.4129, 16.2537], [102.418, 16.2542], [102.4108, 16.2712], [102.4172, 16.2925], [102.43, 16.3222], [102.4373, 16.3278], [102.4359, 16.3351], [102.4467, 16.3582], [102.447, 16.3787], [102.4589, 16.3947]]]}}, {"type": "Feature", "properties": {"osm_type": "relation", "osm_id": 185550141, "name": "Chatturat", "admin_level": "6", "kind": "subdivision_2", "parent_osm_id": 1908769, "parent_name": "Chaiyaphum Province", "parent_iso": "TH-36"}, "geometry": {"type": "Polygon", "coordinates": [[[101.8023, 15.4205], [101.8387, 15.4146], [101.8785, 15.3893], [101.9107, 15.4217], [101.9124, 15.4356], [101.9317, 15.4362], [101.9387, 15.4583], [101.9328, 15.4575], [101.9176, 15.473], [101.9119, 15.4871], [101.9149, 15.5117], [101.9251, 15.5308], [101.9219, 15.5381], [101.9265, 15.5436], [101.9266, 15.5572], [101.9092, 15.5815], [101.9297, 15.5728], [101.9369, 15.5965], [101.981, 15.6146], [101.977, 15.6241], [101.9936, 15.6499], [101.9892, 15.6732], [101.9922, 15.6889], [101.9893, 15.6844], [101.9807, 15.6842], [101.9793, 15.6903], [101.9725, 15.6824], [101.9735, 15.6883], [101.9692, 15.6827], [101.9689, 15.6875], [101.9653, 15.687], [101.9595, 15.6756], [101.9471, 15.6785], [101.9458, 15.6748], [101.9512, 15.6717], [101.9466, 15.6666], [101.9434, 15.6693], [101.9399, 15.6625], [101.924, 15.6574], [101.9188, 15.6671], [101.9148, 15.6644], [101.9048, 15.6684], [101.9072, 15.6778], [101.8996, 15.6788], [101.8988, 15.6886], [101.8937, 15.6867], [101.8921, 15.6947], [101.8834, 15.6951], [101.8734, 15.7078], [101.8679, 15.7053], [101.8677, 15.7111], [101.8585, 15.711], [101.8533, 15.7169], [101.8616, 15.7185], [101.8534, 15.72], [101.8573, 15.7255], [101.8439, 15.7258], [101.8467, 15.7379], [101.8433, 15.738], [101.8433, 15.73], [101.838, 15.7406], [101.8299, 15.7327], [101.8276, 15.738], [101.8145, 15.743], [101.799, 15.7396], [101.7859, 15.7246], [101.7784, 15.7237], [101.7684, 15.7118], [101.7552, 15.706], [101.7414, 15.6881], [101.7416, 15.6747], [101.7356, 15.6679], [101.7371, 15.6572], [101.7466, 15.6447], [101.7325, 15.6332], [101.7348, 15.6048], [101.7245, 15.5959], [101.7283, 15.5889], [101.7115, 15.5757], [101.7086, 15.5677], [101.7334, 15.5368], [101.7289, 15.5299], [101.7361, 15.5129], [101.7491, 15.5053], [101.7647, 15.4847], [101.7755, 15.4842], [101.7786, 15.4653], [101.7946, 15.4561], [101.8003, 15.4423], [101.8082, 15.4385], [101.7995, 15.4242], [101.8023, 15.4205]]]}}, {"type": "Feature", "properties": {"osm_type": "relation", "osm_id": 501891180, "name": "Kaeng Khro", "admin_level": "6", "kind": "subdivision_2", "parent_osm_id": 1908769, "parent_name": "Chaiyaphum Province", "parent_iso": "TH-36"}, "geometry": {"type": "Polygon", "coordinates": [[[102.3532, 16.2872], [102.3424, 16.2662], [102.3084, 16.2567], [102.295, 16.2577], [102.2957, 16.2406], [102.29, 16.2377], [102.25, 16.2376], [102.2376, 16.2337], [102.2303, 16.222], [102.219, 16.2208], [102.1972, 16.185], [102.1961, 16.1728], [102.1774, 16.1745], [102.1613, 16.1999], [102.1273, 16.2145], [102.1106, 16.2132], [102.108, 16.2032], [102.091, 16.1956], [102.0794, 16.1818], [102.0684, 16.189], [102.0683, 16.1729], [102.064, 16.1709], [102.0672, 16.1547], [102.0857, 16.1342], [102.0856, 16.1133], [102.077, 16.1091], [102.073, 16.0999], [102.0832, 16.0813], [102.0752, 16.074], [102.0556, 16.0757], [102.0408, 16.067], [102.0523, 16.0506], [102.0371, 16.0278], [102.0399, 16.0198], [102.0774, 16.0211], [102.0912, 16.0291], [102.098, 16.0411], [102.0954, 16.0105], [102.0726, 15.9926], [102.0933, 15.9987], [102.1033, 15.9921], [102.1146, 15.9924], [102.1264, 15.9836], [102.1635, 15.9806], [102.193, 15.9971], [102.25, 16.0603], [102.2687, 16.0731], [102.2799, 16.072], [102.2831, 16.0859], [102.3151, 16.1151], [102.4031, 16.2429], [102.418, 16.2542], [102.3884, 16.264], [102.3826, 16.276], [102.3532, 16.2872]]]}}, {"type": "Feature", "properties": {"osm_type": "relation", "osm_id": 667148328, "name": "Kaset Sombun", "admin_level": "6", "kind": "subdivision_2", "parent_osm_id": 1908769, "parent_name": "Chaiyaphum Province", "parent_iso": "TH-36"}, "geometry": {"type": "Polygon", "coordinates": [[[101.9669, 16.4667], [101.9571, 16.4828], [101.9284, 16.4809], [101.9059, 16.4937], [101.8914, 16.4962], [101.8607, 16.4931], [101.8575, 16.489], [101.8528, 16.493], [101.8367, 16.4795], [101.8131, 16.4762], [101.8086, 16.4659], [101.8105, 16.4448], [101.8049, 16.4415], [101.7975, 16.4441], [101.7964, 16.4534], [101.7824, 16.4574], [101.7487, 16.4842], [101.7486, 16.4584], [101.7331, 16.4606], [101.7324, 16.4644], [101.7263, 16.4542], [101.7241, 16.4674], [101.7044, 16.4684], [101.7064, 16.4612], [101.7016, 16.4559], [101.681, 16.4509], [101.6749, 16.4407], [101.6759, 16.4229], [101.6881, 16.4318], [101.7108, 16.4192], [101.7568, 16.3626], [101.8149, 16.3227], [101.8416, 16.2937], [101.8501, 16.2768], [101.8508, 16.2576], [101.8587, 16.2448], [101.8549, 16.2371], [101.859, 16.2224], [101.8512, 16.1972], [101.8171, 16.1627], [101.8373, 16.1554], [101.846, 16.1461], [101.8244, 16.0869], [101.8434, 16.0521], [101.87, 16.0527], [101.8793, 16.0466], [101.8872, 16.0473], [101.915, 16.027], [101.9453, 16.0387], [101.9487, 16.0586], [101.9655, 16.095], [101.973, 16.1037], [101.9907, 16.1098], [101.9775, 16.1271], [101.9838, 16.1374], [101.9999, 16.1465], [102.0057, 16.1574], [101.994, 16.1872], [101.9951, 16.2054], [102.0287, 16.1931], [102.0334, 16.2193], [102.0255, 16.2515], [102.0468, 16.245], [102.0557, 16.2526], [102.0793, 16.2514], [102.0916, 16.2566], [102.0781, 16.2704], [102.077, 16.279], [102.0629, 16.2885], [102.0651, 16.3155], [102.0579, 16.3332], [102.0474, 16.3389], [102.0308, 16.331], [102.0342, 16.3577], [102.0431, 16.3688], [102.0348, 16.3665], [102.0367, 16.3747], [102.0294, 16.3724], [102.0269, 16.3782], [102.0206, 16.3716], [102.0144, 16.3751], [102.0082, 16.3698], [102.0053, 16.3789], [101.9991, 16.3814], [101.9941, 16.4053], [101.9699, 16.4515], [101.9773, 16.4572], [101.9669, 16.4667]]]}}, {"type": "Feature", "properties": {"osm_type": "relation", "osm_id": 365513261, "name": "Khon San", "admin_level": "6", "kind": "subdivision_2", "parent_osm_id": 1908769, "parent_name": "Chaiyaphum Province", "parent_iso": "TH-36"}, "geometry": {"type": "Polygon", "coordinates": [[[101.9549, 16.6303], [101.9384, 16.6362], [101.9362, 16.6319], [101.92, 16.6314], [101.9198, 16.6272], [101.9099, 16.6336], [101.9113, 16.63], [101.9054, 16.628], [101.9057, 16.6349], [101.8932, 16.6392], [101.8897, 16.645], [101.8738, 16.6425], [101.8689, 16.6496], [101.8643, 16.6466], [101.8538, 16.6504], [101.8529, 16.6578], [101.8433, 16.6543], [101.8326, 16.6585], [101.8257, 16.6574], [101.8225, 16.6501], [101.82, 16.6548], [101.8054, 16.6529], [101.8042, 16.6472], [101.8002, 16.6495], [101.7997, 16.6451], [101.7863, 16.6402], [101.7742, 16.6287], [101.779, 16.6469], [101.7649, 16.6554], [101.7537, 16.6523], [101.7508, 16.6678], [101.744, 16.6696], [101.7413, 16.6607], [101.7246, 16.652], [101.7068, 16.6704], [101.7027, 16.6689], [101.7014, 16.6796], [101.6979, 16.6775], [101.6886, 16.6867], [101.6552, 16.6888], [101.636, 16.6805], [101.6202, 16.6849], [101.6038, 16.707], [101.5904, 16.7084], [101.5914, 16.7171], [101.5855, 16.7227], [101.5532, 16.7276], [101.5531, 16.7114], [101.5608, 16.6979], [101.5709, 16.6912], [101.5788, 16.6697], [101.5771, 16.661], [101.5717, 16.6483], [101.5649, 16.6479], [101.546, 16.6681], [101.5375, 16.6662], [101.526, 16.68], [101.5134, 16.6811], [101.5105, 16.677], [101.5141, 16.6718], [101.5088, 16.6559], [101.5107, 16.647], [101.5231, 16.6329], [101.5263, 16.6208], [101.5071, 16.6166], [101.5001, 16.6095], [101.5018, 16.5989], [101.4942, 16.571], [101.4996, 16.5718], [101.497, 16.5609], [101.5083, 16.5554], [101.5102, 16.5593], [101.5195, 16.5496], [101.5153, 16.5427], [101.5032, 16.5457], [101.5051, 16.5391], [101.496, 16.5396], [101.4939, 16.5324], [101.4895, 16.5331], [101.4831, 16.5243], [101.4721, 16.529], [101.466, 16.5192], [101.4637, 16.5007], [101.4749, 16.4806], [101.4495, 16.4521], [101.4562, 16.4539], [101.4798, 16.4368], [101.4926, 16.4351], [101.4934, 16.4304], [101.5072, 16.4315], [101.5063, 16.4257], [101.5216, 16.4017], [101.5414, 16.3979], [101.5454, 16.3897], [101.5687, 16.3796], [101.5831, 16.3941], [101.6564, 16.427], [101.666, 16.4285], [101.6759, 16.4229], [101.6749, 16.4407], [101.681, 16.4509], [101.7016, 16.4559], [101.7064, 16.4612], [101.7044, 16.4684], [101.7241, 16.4674], [101.7263, 16.4542], [101.7324, 16.4644], [101.7331, 16.4606], [101.7486, 16.4584], [101.7487, 16.4842], [101.7824, 16.4574], [101.7964, 16.4534], [101.7975, 16.4441], [101.8049, 16.4415], [101.8105, 16.4448], [101.8086, 16.4659], [101.8155, 16.4782], [101.8367, 16.4795], [101.8528, 16.493], [101.8575, 16.489], [101.8607, 16.4931], [101.8914, 16.4962], [101.9059, 16.4937], [101.9284, 16.4809], [101.9571, 16.4828], [101.9669, 16.4667], [101.9774, 16.4697], [102.0149, 16.4581], [102.044, 16.4608], [102.074, 16.5014], [102.0379, 16.5123], [102.03, 16.5247], [102.0324, 16.541], [102.0239, 16.5484], [102.0234, 16.5585], [102.0062, 16.5575], [101.9979, 16.5655], [101.9943, 16.5615], [101.9882, 16.566], [101.991, 16.5699], [101.9866, 16.5776], [101.9921, 16.5784], [101.9879, 16.5819], [101.992, 16.5847], [101.9834, 16.5831], [101.9771, 16.5872], [101.9833, 16.5899], [101.9792, 16.592], [101.9831, 16.5953], [101.9798, 16.6029], [101.9751, 16.6037], [101.9774, 16.61], [101.972, 16.6151], [101.969, 16.6115], [101.969, 16.618], [101.9547, 16.6174], [101.955, 16.6225], [101.9505, 16.6228], [101.9549, 16.6303]]]}}, {"type": "Feature", "properties": {"osm_type": "relation", "osm_id": 527549563, "name": "Khon Sawan", "admin_level": "6", "kind": "subdivision_2", "parent_osm_id": 1908769, "parent_name": "Chaiyaphum Province", "parent_iso": "TH-36"}, "geometry": {"type": "Polygon", "coordinates": [[[102.1412, 15.9817], [102.169, 15.9373], [102.1735, 15.9366], [102.1845, 15.9024], [102.19, 15.9023], [102.1895, 15.8974], [102.2084, 15.8806], [102.2088, 15.8597], [102.2163, 15.8489], [102.2206, 15.8271], [102.2309, 15.8213], [102.2341, 15.8111], [102.2303, 15.7991], [102.2445, 15.7977], [102.2399, 15.7807], [102.243, 15.7821], [102.2525, 15.7703], [102.2583, 15.7723], [102.2568, 15.7817], [102.2696, 15.7852], [102.2765, 15.7809], [102.3069, 15.7924], [102.3123, 15.8081], [102.3276, 15.8034], [102.3261, 15.8213], [102.3194, 15.826], [102.3245, 15.8288], [102.324, 15.8343], [102.3156, 15.8469], [102.3208, 15.8479], [102.3172, 15.8511], [102.3221, 15.8568], [102.3203, 15.8654], [102.3382, 15.8738], [102.3381, 15.88], [102.3434, 15.8819], [102.3406, 15.8873], [102.3534, 15.9008], [102.353, 15.908], [102.3615, 15.9204], [102.3583, 15.9268], [102.3622, 15.9286], [102.355, 15.9308], [102.3637, 15.9325], [102.3689, 15.9484], [102.3747, 15.9463], [102.3707, 15.9492], [102.3742, 15.9544], [102.3691, 15.9532], [102.3708, 15.9585], [102.3671, 15.9551], [102.3655, 15.9654], [102.3724, 15.9678], [102.3719, 15.9753], [102.3858, 15.9807], [102.3845, 15.9973], [102.378, 15.9943], [102.3748, 16.0], [102.3732, 15.996], [102.3683, 16.0069], [102.3641, 16.0013], [102.3551, 16.0051], [102.3496, 16.023], [102.3522, 16.0262], [102.3447, 16.0302], [102.3441, 16.0354], [102.3367, 16.0388], [102.3267, 16.0301], [102.3126, 16.0424], [102.3024, 16.0383], [102.287, 16.0609], [102.2864, 16.0701], [102.2687, 16.0731], [102.25, 16.0603], [102.1826, 15.989], [102.1635, 15.9806], [102.1412, 15.9817]]]}}, {"type": "Feature", "properties": {"osm_type": "relation", "osm_id": 457068319, "name": "Mueang Chaiyaphum", "admin_level": "6", "kind": "subdivision_2", "parent_osm_id": 1908769, "parent_name": "Chaiyaphum Province", "parent_iso": "TH-36"}, "geometry": {"type": "Polygon", "coordinates": [[[101.9793, 15.6903], [101.9807, 15.6842], [101.9893, 15.6844], [101.9987, 15.6932], [102.0044, 15.6841], [102.0158, 15.6828], [102.023, 15.673], [102.0277, 15.6753], [102.0364, 15.6659], [102.0318, 15.6649], [102.0358, 15.6592], [102.0301, 15.6548], [102.0335, 15.6502], [102.0361, 15.6524], [102.0447, 15.6334], [102.0577, 15.6382], [102.0678, 15.6365], [102.0682, 15.6318], [102.075, 15.6301], [102.07, 15.6256], [102.0734, 15.6203], [102.0748, 15.6242], [102.0817, 15.6225], [102.0802, 15.626], [102.0851, 15.6244], [102.083, 15.6213], [102.0869, 15.6259], [102.0831, 15.6266], [102.0896, 15.6268], [102.0859, 15.6302], [102.0888, 15.6344], [102.0918, 15.6274], [102.0953, 15.634], [102.0955, 15.6295], [102.0997, 15.6302], [102.0994, 15.6361], [102.106, 15.6332], [102.1064, 15.6385], [102.1019, 15.6384], [102.1082, 15.6442], [102.1117, 15.6457], [102.1129, 15.6394], [102.1147, 15.6474], [102.1213, 15.6462], [102.119, 15.6531], [102.1281, 15.6512], [102.1287, 15.6594], [102.1242, 15.6632], [102.1322, 15.6671], [102.1277, 15.6708], [102.1324, 15.675], [102.1363, 15.671], [102.1469, 15.685], [102.1431, 15.7063], [102.1499, 15.7073], [102.1469, 15.7101], [102.1512, 15.71], [102.1509, 15.7219], [102.1563, 15.7197], [102.1535, 15.7262], [102.1622, 15.7262], [102.1554, 15.7306], [102.156, 15.7412], [102.1631, 15.7372], [102.1644, 15.7445], [102.1862, 15.7475], [102.185, 15.7401], [102.2015, 15.7391], [102.2053, 15.7492], [102.2002, 15.7498], [102.205, 15.7573], [102.2324, 15.7434], [102.2438, 15.752], [102.253, 15.7529], [102.2467, 15.7572], [102.2524, 15.7598], [102.2513, 15.7742], [102.2399, 15.7807], [102.2445, 15.7977], [102.2303, 15.7991], [102.2341, 15.8111], [102.2309, 15.8213], [102.2206, 15.8271], [102.2163, 15.8489], [102.2088, 15.8597], [102.2084, 15.8806], [102.1895, 15.8974], [102.19, 15.9023], [102.1845, 15.9024], [102.1735, 15.9366], [102.169, 15.9373], [102.1412, 15.9817], [102.1264, 15.9836], [102.1146, 15.9924], [102.1033, 15.9921], [102.0933, 15.9987], [102.0726, 15.9926], [102.0954, 16.0105], [102.098, 16.0411], [102.0912, 16.0291], [102.0774, 16.0211], [102.0543, 16.0185], [102.0382, 16.0219], [102.0371, 16.0278], [102.0523, 16.0506], [102.0408, 16.067], [102.0556, 16.0757], [102.0803, 16.077], [102.0826, 16.084], [102.073, 16.0999], [102.077, 16.1091], [102.0856, 16.1133], [102.0866, 16.1235], [102.085, 16.1368], [102.0672, 16.1547], [102.064, 16.1709], [102.0683, 16.1729], [102.0684, 16.189], [102.0794, 16.1818], [102.0869, 16.1907], [102.0846, 16.2096], [102.0599, 16.2375], [102.0531, 16.2515], [102.0468, 16.245], [102.0255, 16.2515], [102.0334, 16.2193], [102.0287, 16.1931], [101.9951, 16.2054], [101.994, 16.1872], [102.0057, 16.1574], [101.9999, 16.1465], [101.9838, 16.1374], [101.9775, 16.1271], [101.9907, 16.1098], [101.973, 16.1037], [101.9655, 16.095], [101.9487, 16.0586], [101.9453, 16.0387], [101.9222, 16.0301], [101.9055, 16.0115], [101.9031, 16.0018], [101.8797, 16.0026], [101.7929, 15.9747], [101.7527, 15.9748], [101.7821, 15.9494], [101.7852, 15.9361], [101.8009, 15.9335], [101.814, 15.9438], [101.8393, 15.9359], [101.8417, 15.919], [101.8648, 15.9082], [101.8668, 15.8968], [101.8837, 15.879], [101.8893, 15.8652], [101.9045, 15.8675], [101.9181, 15.8622], [101.9182, 15.8534], [101.9306, 15.8405], [101.9345, 15.8165], [101.9448, 15.8071], [101.939, 15.7851], [101.942, 15.7738], [101.9369, 15.7688], [101.9383, 15.7488], [101.9419, 15.7412], [101.9652, 15.7361], [101.9652, 15.7311], [101.9751, 15.7261], [101.9736, 15.7216], [101.9784, 15.7228], [101.9809, 15.7018], [101.9887, 15.7064], [101.9927, 15.7027], [101.9793, 15.6903]]]}}, {"type": "Feature", "properties": {"osm_type": "relation", "osm_id": 118350507, "name": "Noen Sa-Nga", "admin_level": "6", "kind": "subdivision_2", "parent_osm_id": 1908769, "parent_name": "Chaiyaphum Province", "parent_iso": "TH-36"}, "geometry": {"type": "Polygon", "coordinates": [[[102.0734, 15.6203], [102.07, 15.6256], [102.075, 15.6301], [102.0682, 15.6318], [102.0678, 15.6365], [102.0577, 15.6382], [102.0447, 15.6334], [102.0361, 15.6524], [102.0335, 15.6502], [102.0301, 15.6548], [102.0358, 15.6592], [102.0318, 15.6649], [102.0364, 15.6659], [102.0277, 15.6753], [102.023, 15.673], [102.0158, 15.6828], [102.0044, 15.6841], [101.9987, 15.6932], [101.9922, 15.6889], [101.9892, 15.6732], [101.9936, 15.6499], [101.977, 15.6241], [101.981, 15.6146], [101.9369, 15.5965], [101.9297, 15.5728], [101.9092, 15.5815], [101.9163, 15.5758], [101.9274, 15.5517], [101.9119, 15.4871], [101.9176, 15.473], [101.9328, 15.4575], [101.9533, 15.4547], [101.9891, 15.4646], [102.01, 15.4582], [102.035, 15.478], [102.0331, 15.5018], [102.0426, 15.5287], [102.038, 15.5488], [102.0621, 15.5819], [102.0605, 15.5884], [102.0721, 15.6037], [102.0734, 15.6203]]]}}, {"type": "Feature", "properties": {"osm_type": "relation", "osm_id": 480056761, "name": "Nong Bua Daeng", "admin_level": "6", "kind": "subdivision_2", "parent_osm_id": 1908769, "parent_name": "Chaiyaphum Province", "parent_iso": "TH-36"}, "geometry": {"type": "Polygon", "coordinates": [[[101.7527, 15.9748], [101.7929, 15.9747], [101.8797, 16.0026], [101.9031, 16.0018], [101.9055, 16.0115], [101.9199, 16.0268], [101.8872, 16.0473], [101.8793, 16.0466], [101.87, 16.0527], [101.8434, 16.0521], [101.8244, 16.0869], [101.846, 16.1461], [101.8373, 16.1554], [101.8171, 16.1627], [101.8512, 16.1972], [101.859, 16.2224], [101.8549, 16.2371], [101.8587, 16.2448], [101.8508, 16.2576], [101.8501, 16.2768], [101.8416, 16.2937], [101.8149, 16.3227], [101.7568, 16.3626], [101.7255, 16.4047], [101.6938, 16.4297], [101.6881, 16.4318], [101.6728, 16.4222], [101.666, 16.4285], [101.6564, 16.427], [101.5831, 16.3941], [101.5687, 16.3796], [101.5596, 16.3804], [101.5454, 16.3897], [101.5414, 16.3979], [101.5216, 16.4017], [101.5063, 16.4257], [101.5072, 16.4315], [101.4934, 16.4304], [101.4926, 16.4351], [101.4798, 16.4368], [101.4524, 16.4548], [101.4442, 16.4382], [101.4312, 16.4344], [101.419, 16.4238], [101.4171, 16.4087], [101.407, 16.4079], [101.4009, 16.4016], [101.4084, 16.3933], [101.4091, 16.3831], [101.3929, 16.3728], [101.3933, 16.3668], [101.3816, 16.3583], [101.3773, 16.3474], [101.3793, 16.3184], [101.3678, 16.2939], [101.3717, 16.2745], [101.3581, 16.2685], [101.3547, 16.2599], [101.3646, 16.2459], [101.3736, 16.2415], [101.3669, 16.227], [101.3751, 16.2144], [101.3726, 16.2065], [101.38, 16.1896], [101.3758, 16.184], [101.3779, 16.1789], [101.384, 16.1795], [101.3843, 16.171], [101.4046, 16.1558], [101.3965, 16.1437], [101.4024, 16.1381], [101.4108, 16.1412], [101.4104, 16.1364], [101.4159, 16.1334], [101.4128, 16.1272], [101.4202, 16.1198], [101.4321, 16.1184], [101.4354, 16.1315], [101.4432, 16.1258], [101.4707, 16.1217], [101.4666, 16.1156], [101.4837, 16.0941], [101.4855, 16.0821], [101.4966, 16.075], [101.4947, 16.0694], [101.5059, 16.0649], [101.5019, 16.0582], [101.5065, 16.0535], [101.5039, 16.0372], [101.4984, 16.032], [101.5009, 16.0202], [101.5059, 16.0176], [101.5027, 16.0132], [101.5075, 16.0061], [101.524, 16.0079], [101.5212, 16.0016], [101.533, 15.9938], [101.5288, 15.9886], [101.5293, 15.9718], [101.5413, 15.9541], [101.5502, 15.9508], [101.5528, 15.9584], [101.5463, 15.9686], [101.556, 15.977], [101.6499, 15.9797], [101.6738, 15.9719], [101.6916, 15.9529], [101.6979, 15.9667], [101.7124, 15.9728], [101.7527, 15.9748]]]}}, {"type": "Feature", "properties": {"osm_type": "relation", "osm_id": 547037019, "name": "Nong Bua Rawe", "admin_level": "6", "kind": "subdivision_2", "parent_osm_id": 1908769, "parent_name": "Chaiyaphum Province", "parent_iso": "TH-36"}, "geometry": {"type": "Polygon", "coordinates": [[[101.6916, 15.9529], [101.6738, 15.9719], [101.6499, 15.9797], [101.556, 15.977], [101.5463, 15.9686], [101.5528, 15.9584], [101.5502, 15.9508], [101.5395, 15.9469], [101.4926, 15.9692], [101.4783, 15.96], [101.4591, 15.9278], [101.4535, 15.9062], [101.4543, 15.8881], [101.4841, 15.8488], [101.4842, 15.8402], [101.5039, 15.8347], [101.5048, 15.8303], [101.4987, 15.83], [101.5008, 15.8175], [101.508, 15.8152], [101.5131, 15.7899], [101.5335, 15.785], [101.5304, 15.7798], [101.5432, 15.7701], [101.5562, 15.7722], [101.5629, 15.7652], [101.5741, 15.7714], [101.5842, 15.7686], [101.5836, 15.7622], [101.5902, 15.7539], [101.5954, 15.7565], [101.6034, 15.7456], [101.609, 15.7483], [101.6201, 15.7365], [101.6308, 15.7363], [101.6322, 15.7211], [101.6595, 15.7109], [101.6489, 15.7054], [101.6536, 15.6937], [101.6412, 15.6848], [101.6653, 15.6808], [101.6885, 15.6915], [101.6957, 15.6854], [101.7042, 15.6877], [101.7168, 15.6691], [101.7229, 15.6686], [101.7416, 15.6747], [101.7414, 15.6881], [101.7552, 15.706], [101.7684, 15.7118], [101.7784, 15.7237], [101.7859, 15.7246], [101.799, 15.7396], [101.8224, 15.7443], [101.8154, 15.7487], [101.8134, 15.7606], [101.8175, 15.7698], [101.8075, 15.7761], [101.7955, 15.7693], [101.7841, 15.7996], [101.7695, 15.803], [101.7606, 15.7942], [101.7591, 15.8045], [101.7461, 15.8086], [101.7388, 15.8255], [101.745, 15.8334], [101.7345, 15.8336], [101.7412, 15.8412], [101.7464, 15.8401], [101.7415, 15.8485], [101.7338, 15.8422], [101.7303, 15.8532], [101.7356, 15.8577], [101.7278, 15.8594], [101.7223, 15.8502], [101.7166, 15.8565], [101.7202, 15.866], [101.7126, 15.8674], [101.7092, 15.8838], [101.6984, 15.8913], [101.7035, 15.8971], [101.706, 15.8937], [101.7189, 15.8974], [101.6999, 15.9014], [101.71, 15.9086], [101.7072, 15.9186], [101.7015, 15.9168], [101.6987, 15.9279], [101.7029, 15.9425], [101.6916, 15.9529]]]}}, {"type": "Feature", "properties": {"osm_type": "relation", "osm_id": 440894536, "name": "Phakdi Chumphon", "admin_level": "6", "kind": "subdivision_2", "parent_osm_id": 1908769, "parent_name": "Chaiyaphum Province", "parent_iso": "TH-36"}, "geometry": {"type": "Polygon", "coordinates": [[[101.3267, 15.8514], [101.3325, 15.8491], [101.3245, 15.8371], [101.3251, 15.8313], [101.3305, 15.8301], [101.3231, 15.8112], [101.3314, 15.8046], [101.3176, 15.7918], [101.3295, 15.7841], [101.339, 15.7671], [101.3363, 15.753], [101.3409, 15.7561], [101.3814, 15.7368], [101.391, 15.7456], [101.4044, 15.7393], [101.418, 15.7552], [101.4295, 15.8426], [101.4507, 15.873], [101.4547, 15.9161], [101.4783, 15.96], [101.4972, 15.9696], [101.5302, 15.9491], [101.5502, 15.9508], [101.5413, 15.9541], [101.5293, 15.9718], [101.5288, 15.9886], [101.533, 15.9938], [101.5212, 16.0016], [101.524, 16.0079], [101.5052, 16.0077], [101.5059, 16.0176], [101.5009, 16.0202], [101.4984, 16.032], [101.5039, 16.0372], [101.5065, 16.0535], [101.5019, 16.0582], [101.5059, 16.0649], [101.4947, 16.0694], [101.4966, 16.075], [101.4855, 16.0821], [101.4837, 16.0941], [101.4666, 16.1156], [101.4707, 16.1217], [101.4432, 16.1258], [101.4354, 16.1315], [101.4321, 16.1184], [101.4202, 16.1198], [101.4128, 16.1272], [101.4159, 16.1334], [101.4104, 16.1364], [101.4108, 16.1412], [101.4024, 16.1381], [101.3965, 16.1437], [101.4046, 16.1558], [101.3843, 16.171], [101.3857, 16.1778], [101.3779, 16.1789], [101.3772, 16.1854], [101.3623, 16.1828], [101.3534, 16.1634], [101.3445, 16.1571], [101.3367, 16.117], [101.3392, 16.1049], [101.3347, 16.1026], [101.3336, 16.0935], [101.346, 16.0692], [101.3531, 16.0674], [101.365, 16.075], [101.3778, 15.9907], [101.3709, 15.9395], [101.3607, 15.9232], [101.3746, 15.9184], [101.3698, 15.9097], [101.3624, 15.9074], [101.3522, 15.8886], [101.3325, 15.8817], [101.3267, 15.8514]]]}}, {"type": "Feature", "properties": {"osm_type": "relation", "osm_id": 764405392, "name": "Phu Khiao", "admin_level": "6", "kind": "subdivision_2", "parent_osm_id": 1908769, "parent_name": "Chaiyaphum Province", "parent_iso": "TH-36"}, "geometry": {"type": "Polygon", "coordinates": [[[102.2553, 16.4611], [102.2569, 16.4668], [102.2438, 16.4696], [102.2422, 16.4801], [102.2346, 16.4865], [102.2282, 16.4841], [102.2143, 16.5013], [102.2067, 16.4982], [102.2038, 16.5044], [102.1984, 16.5044], [102.1924, 16.4987], [102.1824, 16.5063], [102.1727, 16.4917], [102.1705, 16.4974], [102.1634, 16.4976], [102.165, 16.5017], [102.1574, 16.4983], [102.1585, 16.5033], [102.1486, 16.4987], [102.141, 16.503], [102.134, 16.4958], [102.1224, 16.4943], [102.1057, 16.4979], [102.0995, 16.4942], [102.0943, 16.4986], [102.0849, 16.4922], [102.0789, 16.4967], [102.0755, 16.4927], [102.0673, 16.4946], [102.044, 16.4608], [102.0277, 16.4573], [101.9774, 16.4697], [101.9669, 16.4667], [101.9773, 16.4572], [101.9699, 16.4515], [101.9941, 16.4053], [101.9991, 16.3814], [102.0053, 16.3789], [102.0082, 16.3698], [102.0144, 16.3751], [102.0206, 16.3716], [102.0269, 16.3782], [102.0294, 16.3724], [102.0367, 16.3747], [102.0348, 16.3665], [102.0431, 16.3688], [102.0342, 16.3577], [102.0308, 16.331], [102.0474, 16.3389], [102.0606, 16.3287], [102.0658, 16.3084], [102.0629, 16.2885], [102.077, 16.279], [102.0781, 16.2704], [102.0916, 16.2566], [102.0793, 16.2514], [102.0531, 16.2515], [102.0599, 16.2375], [102.0846, 16.2096], [102.0869, 16.1907], [102.108, 16.2032], [102.1106, 16.2132], [102.1273, 16.2145], [102.1613, 16.1999], [102.1774, 16.1745], [102.1961, 16.1728], [102.1972, 16.185], [102.219, 16.2208], [102.2303, 16.222], [102.2376, 16.2337], [102.25, 16.2376], [102.29, 16.2377], [102.2957, 16.2406], [102.295, 16.2577], [102.3328, 16.2616], [102.3424, 16.2662], [102.3499, 16.2778], [102.3532, 16.2872], [102.3381, 16.2897], [102.3369, 16.3035], [102.3233, 16.3098], [102.3183, 16.3198], [102.3149, 16.3552], [102.3074, 16.3607], [102.3083, 16.3725], [102.2959, 16.368], [102.2649, 16.3778], [102.2398, 16.3737], [102.2238, 16.3841], [102.2203, 16.4112], [102.2398, 16.4366], [102.2406, 16.4497], [102.2553, 16.4611]]]}}, {"type": "Feature", "properties": {"osm_type": "relation", "osm_id": 562461171, "name": "Sap Yai", "admin_level": "6", "kind": "subdivision_2", "parent_osm_id": 1908769, "parent_name": "Chaiyaphum Province", "parent_iso": "TH-36"}, "geometry": {"type": "Polygon", "coordinates": [[[101.7305, 15.5373], [101.7086, 15.5677], [101.7115, 15.5757], [101.7283, 15.5889], [101.7245, 15.5959], [101.7348, 15.6048], [101.7325, 15.6332], [101.7468, 15.6469], [101.7371, 15.6572], [101.7379, 15.6721], [101.7168, 15.6691], [101.7042, 15.6877], [101.6957, 15.6854], [101.6885, 15.6915], [101.6653, 15.6808], [101.6382, 15.6856], [101.6189, 15.6766], [101.6123, 15.6813], [101.6069, 15.6789], [101.6077, 15.6746], [101.5952, 15.6756], [101.5988, 15.6725], [101.5942, 15.6724], [101.59, 15.6644], [101.5924, 15.6552], [101.5801, 15.6533], [101.5862, 15.6481], [101.5856, 15.6377], [101.5708, 15.627], [101.5433, 15.6222], [101.536, 15.6261], [101.5255, 15.6206], [101.5006, 15.6341], [101.4827, 15.6334], [101.4768, 15.6316], [101.4717, 15.6179], [101.4803, 15.6162], [101.5047, 15.5973], [101.5267, 15.5989], [101.5323, 15.5921], [101.5304, 15.5819], [101.5437, 15.5651], [101.5492, 15.5671], [101.553, 15.5622], [101.5688, 15.5701], [101.587, 15.5629], [101.5946, 15.5663], [101.5988, 15.56], [101.6041, 15.5627], [101.6094, 15.5544], [101.6161, 15.5587], [101.6228, 15.5503], [101.6362, 15.5549], [101.6421, 15.5489], [101.647, 15.5505], [101.6653, 15.5368], [101.6693, 15.542], [101.6748, 15.538], [101.6813, 15.5437], [101.6995, 15.5397], [101.7049, 15.5435], [101.7127, 15.5395], [101.726, 15.5426], [101.7305, 15.5373]]]}}, {"type": "Feature", "properties": {"osm_type": "relation", "osm_id": 111965271, "name": "Thep Sathit", "admin_level": "6", "kind": "subdivision_2", "parent_osm_id": 1908769, "parent_name": "Chaiyaphum Province", "parent_iso": "TH-36"}, "geometry": {"type": "Polygon", "coordinates": [[[101.5388, 15.567], [101.5267, 15.5989], [101.5141, 15.5959], [101.498, 15.6003], [101.4803, 15.6162], [101.4717, 15.6179], [101.4768, 15.6316], [101.5006, 15.6341], [101.5255, 15.6206], [101.536, 15.6261], [101.5433, 15.6222], [101.5708, 15.627], [101.5856, 15.6377], [101.5862, 15.6481], [101.5801, 15.6533], [101.5924, 15.6552], [101.59, 15.6644], [101.5942, 15.6724], [101.5988, 15.6725], [101.5952, 15.6756], [101.6077, 15.6746], [101.6069, 15.6789], [101.6123, 15.6813], [101.6189, 15.6766], [101.624, 15.6821], [101.6412, 15.6848], [101.6536, 15.6937], [101.6489, 15.7054], [101.6595, 15.7109], [101.6322, 15.7211], [101.6308, 15.7363], [101.6201, 15.7365], [101.609, 15.7483], [101.6034, 15.7456], [101.5954, 15.7565], [101.5902, 15.7539], [101.5836, 15.7622], [101.5842, 15.7686], [101.5741, 15.7714], [101.5629, 15.7652], [101.5562, 15.7722], [101.5432, 15.7701], [101.5304, 15.7798], [101.5335, 15.785], [101.5131, 15.7899], [101.508, 15.8152], [101.5008, 15.8175], [101.4987, 15.83], [101.5048, 15.8303], [101.5039, 15.8347], [101.4842, 15.8402], [101.4841, 15.8488], [101.4543, 15.8881], [101.4507, 15.873], [101.4295, 15.8426], [101.418, 15.7552], [101.4044, 15.7393], [101.3969, 15.7212], [101.4006, 15.7058], [101.37, 15.5932], [101.3737, 15.5276], [101.3857, 15.4865], [101.3777, 15.4305], [101.3776, 15.3904], [101.3822, 15.3878], [101.3758, 15.3767], [101.3793, 15.3461], [101.3858, 15.3462], [101.382, 15.3314], [101.4169, 15.3321], [101.4286, 15.3415], [101.4315, 15.3377], [101.4354, 15.3481], [101.4438, 15.3508], [101.5007, 15.3564], [101.4957, 15.3756], [101.5166, 15.3953], [101.5158, 15.3995], [101.5288, 15.3987], [101.5368, 15.4039], [101.5396, 15.4009], [101.5556, 15.405], [101.5567, 15.4091], [101.5603, 15.4059], [101.583, 15.4076], [101.5827, 15.4152], [101.5891, 15.4202], [101.5563, 15.4485], [101.5521, 15.4587], [101.5427, 15.4567], [101.5442, 15.463], [101.5377, 15.4631], [101.5401, 15.4711], [101.5311, 15.4755], [101.5363, 15.4907], [101.5315, 15.5005], [101.5037, 15.517], [101.5231, 15.5385], [101.5174, 15.5624], [101.5388, 15.567]]]}}, {"type": "Feature", "properties": {"osm_type": "relation", "osm_id": 659162548, "name": "Thepharak", "admin_level": "6", "kind": "subdivision_2", "parent_osm_id": 1908769, "parent_name": "Chaiyaphum Province", "parent_iso": "TH-36"}, "geometry": {"type": "Polygon", "coordinates": [[[101.5432, 15.4024], [101.5158, 15.3995], [101.5166, 15.3953], [101.4957, 15.3756], [101.5007, 15.3564], [101.4438, 15.3508], [101.4354, 15.3481], [101.4315, 15.3377], [101.4286, 15.3415], [101.4169, 15.3321], [101.382, 15.3314], [101.3804, 15.2897], [101.3852, 15.248], [101.3904, 15.2407], [101.3876, 15.2285], [101.4646, 15.2371], [101.4791, 15.2322], [101.4873, 15.2106], [101.4959, 15.2022], [101.5302, 15.2009], [101.6005, 15.2153], [101.5974, 15.2319], [101.5922, 15.236], [101.5934, 15.2547], [101.6141, 15.2509], [101.6199, 15.2437], [101.634, 15.2392], [101.641, 15.2634], [101.6336, 15.2915], [101.6236, 15.3052], [101.5999, 15.3081], [101.5888, 15.3182], [101.5775, 15.3335], [101.5764, 15.3478], [101.5639, 15.3536], [101.5661, 15.372], [101.5513, 15.3857], [101.5432, 15.4024]]]}}]}