{"type": "FeatureCollection", "parent": {"osm_id": 1908815, "name": "Samut Prakan Province", "admin_level": "4", "kind": "subdivision_1", "child_kind": "subdivision_2", "iso": "TH-11"}, "features": [{"type": "Feature", "properties": {"osm_type": "relation", "osm_id": 165071325, "name": "Bang Bo", "admin_level": "6", "kind": "subdivision_2", "parent_osm_id": 1908815, "parent_name": "Samut Prakan Province", "parent_iso": "TH-11"}, "geometry": {"type": "Polygon", "coordinates": [[[100.9376, 13.6687], [100.8608, 13.6969], [100.8592, 13.6704], [100.8469, 13.6531], [100.8517, 13.6414], [100.8469, 13.6413], [100.8367, 13.6219], [100.8426, 13.6148], [100.8417, 13.6018], [100.8325, 13.5786], [100.8216, 13.574], [100.8284, 13.5721], [100.8293, 13.5665], [100.8096, 13.5704], [100.8036, 13.5619], [100.7962, 13.5669], [100.7902, 13.5486], [100.7722, 13.5537], [100.7641, 13.5276], [100.7659, 13.5218], [100.777, 13.5205], [100.7868, 13.5131], [100.7804, 13.492], [100.8128, 13.4891], [100.8484, 13.4784], [100.8631, 13.4896], [100.8696, 13.4882], [100.8722, 13.5241], [100.8795, 13.5481], [100.8896, 13.5581], [100.8897, 13.5641], [100.904, 13.5541], [100.915, 13.5709], [100.907, 13.5806], [100.9071, 13.592], [100.9235, 13.5937], [100.961, 13.636], [100.9639, 13.6445], [100.9534, 13.6488], [100.9558, 13.6624], [100.9376, 13.6687]]]}}, {"type": "Feature", "properties": {"osm_type": "relation", "osm_id": 372303825, "name": "Bang Phli", "admin_level": "6", "kind": "subdivision_2", "parent_osm_id": 1908815, "parent_name": "Samut Prakan Province", "parent_iso": "TH-11"}, "geometry": {"type": "Polygon", "coordinates": [[[100.7722, 13.5537], [100.7623, 13.5589], [100.7702, 13.5886], [100.7748, 13.5963], [100.7794, 13.595], [100.7863, 13.6149], [100.782, 13.6474], [100.7935, 13.665], [100.7907, 13.6772], [100.7632, 13.6748], [100.7855, 13.7065], [100.7811, 13.7099], [100.7834, 13.7166], [100.71, 13.7168], [100.7124, 13.7012], [100.6983, 13.6563], [100.6554, 13.6723], [100.6497, 13.6525], [100.6448, 13.6536], [100.6291, 13.6288], [100.6706, 13.6139], [100.6677, 13.6046], [100.6781, 13.586], [100.699, 13.5848], [100.7076, 13.5449], [100.6956, 13.5234], [100.7644, 13.5114], [100.7644, 13.5302], [100.7722, 13.5537]]]}}, {"type": "Feature", "properties": {"osm_type": "relation", "osm_id": 243407017, "name": "Bang Sao Thong", "admin_level": "6", "kind": "subdivision_2", "parent_osm_id": 1908815, "parent_name": "Samut Prakan Province", "parent_iso": "TH-11"}, "geometry": {"type": "Polygon", "coordinates": [[[100.8593, 13.6896], [100.7834, 13.7166], [100.7811, 13.7099], [100.7855, 13.7065], [100.7632, 13.6748], [100.7907, 13.6772], [100.7935, 13.665], [100.782, 13.6474], [100.7863, 13.6149], [100.7794, 13.595], [100.7748, 13.5963], [100.7702, 13.5886], [100.7631, 13.5559], [100.7902, 13.5486], [100.7962, 13.5669], [100.8036, 13.5619], [100.8096, 13.5704], [100.8293, 13.5665], [100.8284, 13.5721], [100.8216, 13.574], [100.8325, 13.5786], [100.8417, 13.6018], [100.8426, 13.6148], [100.8367, 13.6219], [100.8469, 13.6413], [100.8517, 13.6414], [100.8469, 13.6531], [100.8592, 13.6704], [100.8593, 13.6896]]]}}, {"type": "Feature", "properties": {"osm_type": "relation", "osm_id": 541015750, "name": "Mueang Samut Prakan", "admin_level": "6", "kind": "subdivision_2", "parent_osm_id": 1908815, "parent_name": "Samut Prakan Province", "parent_iso": "TH-11"}, "geometry": {"type": "Polygon", "coordinates": [[[100.7659, 13.5218], [100.7644, 13.5114], [100.753, 13.5117], [100.6956, 13.5234], [100.7076, 13.5449], [100.699, 13.5848], [100.6781, 13.586], [100.6677, 13.6046], [100.6706, 13.6139], [100.6291, 13.6288], [100.6448, 13.6536], [100.6329, 13.6488], [100.6178, 13.6561], [100.6164, 13.6527], [100.6013, 13.657], [100.5921, 13.6638], [100.5934, 13.6497], [100.587, 13.6288], [100.5688, 13.6373], [100.5525, 13.621], [100.5623, 13.6124], [100.591, 13.6064], [100.5919, 13.5943], [100.5777, 13.572], [100.5802, 13.5537], [100.5973, 13.539], [100.6119, 13.5389], [100.6312, 13.5206], [100.6812, 13.5062], [100.7057, 13.5053], [100.7078, 13.5016], [100.7766, 13.4905], [100.7868, 13.5131], [100.777, 13.5205], [100.7659, 13.5218]]]}}, {"type": "Feature", "properties": {"osm_type": "relation", "osm_id": 540778397, "name": "Phra Pradaeng", "admin_level": "6", "kind": "subdivision_2", "parent_osm_id": 1908815, "parent_name": "Samut Prakan Province", "parent_iso": "TH-11"}, "geometry": {"type": "Polygon", "coordinates": [[[100.5888, 13.683], [100.5839, 13.6961], [100.5598, 13.7062], [100.5514, 13.7001], [100.5516, 13.6798], [100.5474, 13.6726], [100.5365, 13.6693], [100.5234, 13.6779], [100.5204, 13.6756], [100.5142, 13.6284], [100.5164, 13.6127], [100.5263, 13.5988], [100.5578, 13.6231], [100.5688, 13.6373], [100.587, 13.6288], [100.5934, 13.6497], [100.5921, 13.6638], [100.5795, 13.6692], [100.5888, 13.683]]]}}, {"type": "Feature", "properties": {"osm_type": "relation", "osm_id": 739993296, "name": "Phra Samut Chedi", "admin_level": "6", "kind": "subdivision_2", "parent_osm_id": 1908815, "parent_name": "Samut Prakan Province", "parent_iso": "TH-11"}, "geometry": {"type": "Polygon", "coordinates": [[[100.4537, 13.502], [100.4604, 13.4993], [100.4715, 13.5052], [100.4885, 13.5011], [100.4909, 13.5051], [100.5202, 13.5109], [100.5309, 13.5061], [100.5378, 13.5107], [100.5724, 13.5149], [100.5867, 13.5299], [100.5845, 13.5393], [100.5973, 13.539], [100.5802, 13.5537], [100.5761, 13.5632], [100.5919, 13.5943], [100.591, 13.6064], [100.5514, 13.6186], [100.5263, 13.5988], [100.524, 13.6056], [100.5137, 13.6026], [100.5115, 13.5969], [100.4996, 13.5956], [100.4912, 13.5862], [100.4769, 13.603], [100.4697, 13.5927], [100.4639, 13.6058], [100.454, 13.606], [100.4466, 13.587], [100.4445, 13.5532], [100.4537, 13.502]]]}}]}