{"type": "FeatureCollection", "parent": {"osm_id": 1908799, "name": "Phang-nga Province", "admin_level": "4", "kind": "subdivision_1", "child_kind": "subdivision_2", "iso": "TH-82"}, "features": [{"type": "Feature", "properties": {"osm_type": "relation", "osm_id": 569153202, "name": "Kapong", "admin_level": "6", "kind": "subdivision_2", "parent_osm_id": 1908799, "parent_name": "Phang-nga Province", "parent_iso": "TH-82"}, "geometry": {"type": "Polygon", "coordinates": [[[98.5369, 8.6608], [98.5463, 8.674], [98.5594, 8.6749], [98.5703, 8.6817], [98.5823, 8.7029], [98.5947, 8.7122], [98.5939, 8.7438], [98.6015, 8.7823], [98.5987, 8.7968], [98.5855, 8.806], [98.5747, 8.8041], [98.5548, 8.8141], [98.5529, 8.8295], [98.5327, 8.8449], [98.5357, 8.8584], [98.5144, 8.8605], [98.5054, 8.881], [98.446, 8.8953], [98.4368, 8.8743], [98.4009, 8.8389], [98.4078, 8.7905], [98.4021, 8.7679], [98.3905, 8.7668], [98.3793, 8.7557], [98.3643, 8.76], [98.3535, 8.7349], [98.3337, 8.7344], [98.3225, 8.7149], [98.3267, 8.704], [98.311, 8.6739], [98.3265, 8.665], [98.3258, 8.6549], [98.3361, 8.6485], [98.3364, 8.6423], [98.3416, 8.6387], [98.3516, 8.641], [98.3567, 8.6292], [98.3685, 8.639], [98.3854, 8.6415], [98.3962, 8.6305], [98.4111, 8.6287], [98.4188, 8.6343], [98.431, 8.6265], [98.4394, 8.6316], [98.4452, 8.6255], [98.4634, 8.6234], [98.4701, 8.608], [98.4855, 8.6078], [98.4939, 8.6025], [98.515, 8.6239], [98.5299, 8.6543], [98.5271, 8.662], [98.5369, 8.6608]]]}}, {"type": "Feature", "properties": {"osm_type": "relation", "osm_id": 706800434, "name": "Mueang Phangnga", "admin_level": "6", "kind": "subdivision_2", "parent_osm_id": 1908799, "parent_name": "Phang-nga Province", "parent_iso": "TH-82"}, "geometry": {"type": "MultiPolygon", "coordinates": [[[[98.5949, 8.2911], [98.5875, 8.2932], [98.5779, 8.2888], [98.5743, 8.2803], [98.5991, 8.2857], [98.5949, 8.2911]]], [[[98.5037, 8.3375], [98.5037, 8.3332], [98.5037, 8.3375]]], [[[98.6188, 8.3503], [98.6167, 8.353], [98.6188, 8.3503]]], [[[98.6129, 8.3523], [98.6133, 8.3552], [98.6107, 8.3536], [98.6129, 8.3523]]], [[[98.578, 8.3562], [98.5767, 8.3592], [98.578, 8.3562]]], [[[98.6084, 8.3606], [98.6069, 8.3576], [98.6084, 8.3606]]], [[[98.4111, 8.6287], [98.419, 8.6146], [98.4122, 8.5939], [98.4254, 8.5796], [98.4211, 8.575], [98.423, 8.5695], [98.4067, 8.555], [98.3946, 8.5325], [98.3789, 8.5213], [98.378, 8.5078], [98.3679, 8.4897], [98.3693, 8.4824], [98.375, 8.4764], [98.3882, 8.4745], [98.3969, 8.4556], [98.4044, 8.462], [98.4273, 8.4644], [98.4365, 8.4561], [98.453, 8.4531], [98.4603, 8.458], [98.4746, 8.4524], [98.4791, 8.4385], [98.4694, 8.4263], [98.472, 8.4213], [98.4602, 8.4135], [98.4666, 8.3978], [98.4606, 8.3911], [98.4656, 8.3872], [98.4637, 8.374], [98.4781, 8.3592], [98.4769, 8.3488], [98.4936, 8.3398], [98.5072, 8.3429], [98.5137, 8.3257], [98.5362, 8.336], [98.5387, 8.3427], [98.5493, 8.3402], [98.5521, 8.3479], [98.5754, 8.3626], [98.5833, 8.3584], [98.6034, 8.3704], [98.6071, 8.3654], [98.6092, 8.382], [98.6156, 8.382], [98.6125, 8.4074], [98.6092, 8.4178], [98.5885, 8.4331], [98.5949, 8.4448], [98.5874, 8.4593], [98.5792, 8.4646], [98.5793, 8.4806], [98.5884, 8.4923], [98.5831, 8.5035], [98.5653, 8.5021], [98.5628, 8.513], [98.5487, 8.5181], [98.5549, 8.5255], [98.5493, 8.535], [98.5542, 8.5472], [98.5699, 8.5538], [98.5728, 8.5773], [98.5859, 8.5899], [98.5898, 8.6061], [98.6034, 8.6185], [98.6032, 8.6289], [98.5868, 8.6281], [98.5644, 8.6381], [98.5503, 8.6548], [98.5312, 8.6626], [98.5271, 8.662], [98.5299, 8.6543], [98.515, 8.6239], [98.4939, 8.6025], [98.4855, 8.6078], [98.4701, 8.608], [98.4634, 8.6234], [98.4564, 8.6265], [98.4452, 8.6255], [98.4394, 8.6316], [98.431, 8.6265], [98.4188, 8.6343], [98.4111, 8.6287]]]]}}, {"type": "Feature", "properties": {"osm_type": "relation", "osm_id": 424469708, "name": "Takua Pa", "admin_level": "6", "kind": "subdivision_2", "parent_osm_id": 1908799, "parent_name": "Phang-nga Province", "parent_iso": "TH-82"}, "geometry": {"type": "MultiPolygon", "coordinates": [[[[97.8037, 8.817], [97.8084, 8.8229], [97.8025, 8.8284], [97.7982, 8.8199], [97.8037, 8.817]]], [[[98.325, 8.9777], [98.327, 8.9834], [98.325, 8.9777]]], [[[98.446, 8.8953], [98.4571, 8.9336], [98.4431, 8.9452], [98.4325, 8.9415], [98.4176, 8.9509], [98.4098, 8.964], [98.4004, 8.9642], [98.3846, 8.9773], [98.3772, 8.9916], [98.3604, 8.9944], [98.3588, 8.9834], [98.3417, 8.9738], [98.3288, 8.9782], [98.3217, 8.9702], [98.3096, 8.944], [98.2995, 8.9386], [98.2978, 8.9261], [98.2884, 8.9166], [98.2796, 8.8732], [98.2637, 8.859], [98.2647, 8.8197], [98.2528, 8.8099], [98.2588, 8.802], [98.2627, 8.7772], [98.2564, 8.7506], [98.2329, 8.7334], [98.2207, 8.7388], [98.2224, 8.7286], [98.2347, 8.7204], [98.2469, 8.6538], [98.2432, 8.6297], [98.2322, 8.6251], [98.2314, 8.6177], [98.2358, 8.6166], [98.2574, 8.6347], [98.2628, 8.6347], [98.2682, 8.6462], [98.2729, 8.6447], [98.2787, 8.6282], [98.3268, 8.6528], [98.3265, 8.665], [98.311, 8.6739], [98.3267, 8.704], [98.3225, 8.7149], [98.3292, 8.7293], [98.3337, 8.7344], [98.3535, 8.7349], [98.3643, 8.76], [98.3793, 8.7557], [98.3905, 8.7668], [98.4021, 8.7679], [98.4078, 8.7905], [98.4009, 8.8389], [98.4368, 8.8743], [98.446, 8.8953]]], [[[98.2647, 9.0151], [98.2475, 9.0071], [98.2591, 8.9841], [98.2628, 8.9544], [98.261, 8.9386], [98.2482, 8.9144], [98.2637, 8.8886], [98.2668, 8.8634], [98.2828, 8.8943], [98.2862, 8.9195], [98.296, 8.9276], [98.2962, 8.9396], [98.3091, 8.9468], [98.3238, 8.9841], [98.3223, 8.99], [98.3087, 8.9984], [98.2647, 9.0151]]]]}}, {"type": "Feature", "properties": {"osm_type": "relation", "osm_id": 923216828, "name": "Takua Thung", "admin_level": "6", "kind": "subdivision_2", "parent_osm_id": 1908799, "parent_name": "Phang-nga Province", "parent_iso": "TH-82"}, "geometry": {"type": "MultiPolygon", "coordinates": [[[[98.4546, 8.1161], [98.4513, 8.1177], [98.4546, 8.1161]]], [[[98.445, 8.1293], [98.4415, 8.1311], [98.4419, 8.1258], [98.4465, 8.1209], [98.445, 8.1293]]], [[[98.4102, 8.1438], [98.4106, 8.1451], [98.4094, 8.1447], [98.4102, 8.1438]]], [[[98.4099, 8.1588], [98.4121, 8.1493], [98.4099, 8.1588]]], [[[98.4094, 8.1592], [98.41, 8.1624], [98.4094, 8.1592]]], [[[98.4771, 8.228], [98.4772, 8.2318], [98.4771, 8.228]]], [[[98.4768, 8.2327], [98.4778, 8.2376], [98.4768, 8.2327]]], [[[98.4942, 8.2427], [98.4919, 8.2459], [98.4942, 8.2427]]], [[[98.4791, 8.2458], [98.4779, 8.2484], [98.4779, 8.2461], [98.4791, 8.2458]]], [[[98.4945, 8.2504], [98.4934, 8.2524], [98.4945, 8.2504]]], [[[98.4732, 8.2527], [98.4645, 8.2426], [98.4741, 8.2484], [98.4732, 8.2527]]], [[[98.5119, 8.2565], [98.5108, 8.2568], [98.5105, 8.2544], [98.5119, 8.2565]]], [[[98.5052, 8.2593], [98.5052, 8.2621], [98.5043, 8.2608], [98.5052, 8.2593]]], [[[98.4905, 8.2687], [98.4868, 8.2662], [98.4918, 8.2657], [98.4905, 8.2687]]], [[[98.459, 8.2696], [98.4573, 8.2734], [98.459, 8.2696]]], [[[98.5023, 8.2748], [98.4995, 8.2736], [98.5023, 8.2748]]], [[[98.4575, 8.2771], [98.4558, 8.2777], [98.4571, 8.2762], [98.4575, 8.2771]]], [[[98.4849, 8.2712], [98.4808, 8.2809], [98.4799, 8.2706], [98.4827, 8.2673], [98.4849, 8.2712]]], [[[98.4975, 8.277], [98.4995, 8.2952], [98.4899, 8.3063], [98.4853, 8.2866], [98.4975, 8.277]]], [[[98.5003, 8.3028], [98.4997, 8.307], [98.4956, 8.3054], [98.4971, 8.2994], [98.5003, 8.3028]]], [[[98.4807, 8.2954], [98.4788, 8.3091], [98.4807, 8.2954]]], [[[98.4914, 8.3096], [98.4945, 8.3128], [98.4879, 8.3133], [98.4914, 8.3096]]], [[[98.3969, 8.4556], [98.3939, 8.442], [98.3987, 8.4367], [98.3941, 8.4149], [98.3775, 8.3993], [98.3813, 8.3878], [98.3747, 8.3725], [98.3673, 8.3674], [98.3701, 8.3569], [98.3641, 8.3426], [98.3514, 8.339], [98.351, 8.3232], [98.3379, 8.3231], [98.3006, 8.3017], [98.2885, 8.3026], [98.2849, 8.3098], [98.2691, 8.3081], [98.2818, 8.2465], [98.2821, 8.2049], [98.2916, 8.2081], [98.3177, 8.1997], [98.3352, 8.1802], [98.3519, 8.1905], [98.3601, 8.1882], [98.3737, 8.1392], [98.387, 8.1266], [98.3974, 8.1382], [98.4041, 8.1367], [98.4014, 8.1452], [98.4074, 8.1528], [98.4065, 8.1625], [98.4208, 8.1582], [98.4273, 8.1352], [98.4413, 8.1459], [98.4424, 8.1558], [98.4358, 8.1635], [98.4441, 8.1915], [98.4691, 8.2032], [98.4622, 8.214], [98.4641, 8.2199], [98.4683, 8.2194], [98.4648, 8.2393], [98.4548, 8.2415], [98.4617, 8.2517], [98.4537, 8.2783], [98.4592, 8.2852], [98.4664, 8.282], [98.4654, 8.2986], [98.4735, 8.3167], [98.4961, 8.3185], [98.4985, 8.3256], [98.4898, 8.3439], [98.4769, 8.3488], [98.4781, 8.3592], [98.4637, 8.374], [98.4656, 8.3872], [98.4606, 8.3911], [98.4666, 8.3978], [98.4602, 8.4135], [98.472, 8.4213], [98.4694, 8.4263], [98.4773, 8.434], [98.4794, 8.447], [98.4603, 8.458], [98.453, 8.4531], [98.4365, 8.4561], [98.4273, 8.4644], [98.4044, 8.462], [98.3969, 8.4556]]]]}}, {"type": "Feature", "properties": {"osm_type": "relation", "osm_id": 207911311, "name": "Thai Mueang", "admin_level": "6", "kind": "subdivision_2", "parent_osm_id": 1908799, "parent_name": "Phang-nga Province", "parent_iso": "TH-82"}, "geometry": {"type": "Polygon", "coordinates": [[[98.3268, 8.6528], [98.2787, 8.6282], [98.2729, 8.6447], [98.2682, 8.6462], [98.2628, 8.6347], [98.236, 8.6202], [98.2418, 8.5983], [98.2383, 8.5864], [98.2234, 8.5793], [98.2202, 8.5873], [98.2162, 8.5869], [98.205, 8.5534], [98.2649, 8.3188], [98.2691, 8.3081], [98.2849, 8.3098], [98.2885, 8.3026], [98.3083, 8.3038], [98.3137, 8.3112], [98.3379, 8.3231], [98.351, 8.3232], [98.3514, 8.339], [98.3641, 8.3426], [98.3701, 8.3569], [98.3673, 8.3674], [98.3747, 8.3725], [98.3813, 8.3878], [98.3775, 8.3993], [98.3919, 8.4106], [98.3987, 8.4367], [98.3939, 8.442], [98.3975, 8.4583], [98.3897, 8.4727], [98.375, 8.4764], [98.3679, 8.4897], [98.378, 8.5078], [98.3789, 8.5213], [98.3946, 8.5325], [98.3955, 8.5394], [98.423, 8.5695], [98.4211, 8.575], [98.4253, 8.5778], [98.4122, 8.5939], [98.419, 8.6146], [98.4111, 8.6287], [98.3962, 8.6305], [98.3854, 8.6415], [98.3685, 8.639], [98.3567, 8.6292], [98.3516, 8.641], [98.3416, 8.6387], [98.3361, 8.6485], [98.3268, 8.6528]]]}}, {"type": "Feature", "properties": {"osm_type": "relation", "osm_id": 797677019, "name": "Thap Put", "admin_level": "6", "kind": "subdivision_2", "parent_osm_id": 1908799, "parent_name": "Phang-nga Province", "parent_iso": "TH-82"}, "geometry": {"type": "Polygon", "coordinates": [[[98.6822, 8.5509], [98.6911, 8.576], [98.7077, 8.5971], [98.703, 8.6051], [98.7034, 8.632], [98.6989, 8.633], [98.6982, 8.6427], [98.6749, 8.6617], [98.663, 8.6564], [98.6483, 8.6593], [98.6381, 8.6437], [98.6093, 8.6352], [98.6034, 8.6185], [98.5898, 8.6061], [98.5859, 8.5899], [98.5728, 8.5773], [98.5699, 8.5538], [98.5558, 8.5489], [98.5493, 8.535], [98.5549, 8.5255], [98.5487, 8.5181], [98.5628, 8.513], [98.5653, 8.5021], [98.5831, 8.5035], [98.5884, 8.4923], [98.5793, 8.4806], [98.5792, 8.4646], [98.5874, 8.4593], [98.5949, 8.4448], [98.5885, 8.4331], [98.6092, 8.4178], [98.6156, 8.382], [98.6341, 8.3793], [98.6354, 8.3754], [98.6624, 8.3848], [98.6584, 8.3959], [98.6441, 8.4113], [98.6491, 8.4206], [98.6647, 8.4269], [98.6649, 8.4546], [98.6713, 8.4592], [98.6655, 8.4591], [98.6653, 8.4662], [98.6492, 8.4827], [98.6621, 8.4904], [98.6732, 8.5197], [98.6775, 8.5205], [98.6822, 8.5509]]]}}]}