{"type": "FeatureCollection", "parent": {"osm_id": 1908790, "name": "Nakhon Ratchasima Province", "admin_level": "4", "kind": "subdivision_1", "child_kind": "subdivision_2", "iso": "TH-30"}, "features": [{"type": "Feature", "properties": {"osm_type": "relation", "osm_id": 826930840, "name": "Ban Lueam", "admin_level": "6", "kind": "subdivision_2", "parent_osm_id": 1908790, "parent_name": "Nakhon Ratchasima Province", "parent_iso": "TH-30"}, "geometry": {"type": "Polygon", "coordinates": [[[102.1213, 15.6462], [102.1147, 15.6474], [102.1129, 15.6394], [102.1117, 15.6457], [102.1082, 15.6442], [102.1019, 15.6384], [102.1064, 15.6385], [102.106, 15.6332], [102.0994, 15.6361], [102.0997, 15.6302], [102.0955, 15.6295], [102.0953, 15.634], [102.0918, 15.6274], [102.0888, 15.6344], [102.0859, 15.6302], [102.0896, 15.6268], [102.0831, 15.6266], [102.0855, 15.6223], [102.0748, 15.6242], [102.0721, 15.6037], [102.0605, 15.5884], [102.0621, 15.5819], [102.038, 15.5488], [102.0426, 15.5287], [102.0331, 15.5018], [102.0473, 15.5027], [102.0719, 15.5192], [102.0834, 15.5186], [102.1033, 15.5265], [102.1088, 15.534], [102.1027, 15.5396], [102.1096, 15.5421], [102.1327, 15.5411], [102.1492, 15.5349], [102.1555, 15.5409], [102.1649, 15.5261], [102.1792, 15.5304], [102.1913, 15.5192], [102.2208, 15.5202], [102.245, 15.5392], [102.2484, 15.5748], [102.2311, 15.5983], [102.2302, 15.6139], [102.2023, 15.6182], [102.1858, 15.6142], [102.1438, 15.6406], [102.1213, 15.6462]]]}}, {"type": "Feature", "properties": {"osm_type": "relation", "osm_id": 790538100, "name": "Bua Lai", "admin_level": "6", "kind": "subdivision_2", "parent_osm_id": 1908790, "parent_name": "Nakhon Ratchasima Province", "parent_iso": "TH-30"}, "geometry": {"type": "Polygon", "coordinates": [[[102.5978, 15.7125], [102.5559, 15.7035], [102.5319, 15.7106], [102.5125, 15.7283], [102.4792, 15.7176], [102.4491, 15.716], [102.4411, 15.7052], [102.4273, 15.7016], [102.4189, 15.6871], [102.4233, 15.6718], [102.4357, 15.6693], [102.4433, 15.673], [102.4415, 15.6516], [102.4476, 15.6386], [102.4735, 15.6319], [102.4687, 15.6242], [102.4705, 15.6127], [102.5064, 15.6107], [102.5142, 15.6231], [102.5167, 15.6145], [102.5396, 15.6182], [102.5493, 15.6259], [102.5778, 15.623], [102.6005, 15.6626], [102.6048, 15.6785], [102.5978, 15.7125]]]}}, {"type": "Feature", "properties": {"osm_type": "relation", "osm_id": 322782310, "name": "Bua Yai", "admin_level": "6", "kind": "subdivision_2", "parent_osm_id": 1908790, "parent_name": "Nakhon Ratchasima Province", "parent_iso": "TH-30"}, "geometry": {"type": "Polygon", "coordinates": [[[102.247, 15.5474], [102.2896, 15.5303], [102.3181, 15.5259], [102.3323, 15.5021], [102.3492, 15.504], [102.3653, 15.4927], [102.3782, 15.5001], [102.4352, 15.4685], [102.4605, 15.4669], [102.4701, 15.4588], [102.4799, 15.4698], [102.4881, 15.4713], [102.5027, 15.473], [102.5206, 15.4654], [102.5026, 15.4807], [102.4732, 15.4885], [102.47, 15.513], [102.4627, 15.5186], [102.4665, 15.5296], [102.4611, 15.5336], [102.4663, 15.5413], [102.4605, 15.5528], [102.4841, 15.5535], [102.5072, 15.5448], [102.5074, 15.5508], [102.5218, 15.5506], [102.5238, 15.5772], [102.5194, 15.587], [102.5043, 15.5971], [102.5064, 15.6107], [102.4705, 15.6127], [102.4687, 15.6242], [102.4735, 15.6319], [102.4614, 15.6336], [102.4581, 15.6386], [102.4497, 15.6371], [102.4424, 15.6487], [102.4433, 15.673], [102.4357, 15.6693], [102.4233, 15.6718], [102.4207, 15.6951], [102.4044, 15.7003], [102.4008, 15.7102], [102.3746, 15.7339], [102.3628, 15.7298], [102.3563, 15.7066], [102.3011, 15.6808], [102.3095, 15.6696], [102.3068, 15.6653], [102.2411, 15.609], [102.2331, 15.6073], [102.2311, 15.5983], [102.2484, 15.5748], [102.247, 15.5474]]]}}, {"type": "Feature", "properties": {"osm_type": "relation", "osm_id": 402963551, "name": "Chakkarat", "admin_level": "6", "kind": "subdivision_2", "parent_osm_id": 1908790, "parent_name": "Nakhon Ratchasima Province", "parent_iso": "TH-30"}, "geometry": {"type": "Polygon", "coordinates": [[[102.4841, 15.0813], [102.4662, 15.0689], [102.4505, 15.0678], [102.4266, 15.0816], [102.4025, 15.0821], [102.4041, 15.0913], [102.3964, 15.101], [102.3997, 15.1071], [102.3909, 15.1091], [102.397, 15.1195], [102.3788, 15.1338], [102.3734, 15.1298], [102.3745, 15.1253], [102.3669, 15.1262], [102.3689, 15.1232], [102.3632, 15.1192], [102.3661, 15.1167], [102.3558, 15.1164], [102.3559, 15.1128], [102.3534, 15.1159], [102.3498, 15.1079], [102.3634, 15.0855], [102.3467, 15.0902], [102.3481, 15.0797], [102.3398, 15.0801], [102.3375, 15.0741], [102.32, 15.068], [102.3182, 15.0603], [102.3287, 15.0504], [102.3315, 15.0398], [102.3419, 15.0339], [102.3327, 15.0251], [102.3369, 15.0112], [102.3597, 15.0157], [102.3932, 15.0137], [102.3976, 14.995], [102.3865, 14.9536], [102.3864, 14.9336], [102.3765, 14.9306], [102.3768, 14.9137], [102.3665, 14.917], [102.3575, 14.9274], [102.3424, 14.9274], [102.3333, 14.9389], [102.3297, 14.9374], [102.3405, 14.896], [102.3123, 14.8798], [102.3222, 14.8493], [102.3356, 14.833], [102.3485, 14.8264], [102.3594, 14.8399], [102.3884, 14.8553], [102.4011, 14.8449], [102.4195, 14.855], [102.431, 14.8403], [102.453, 14.8446], [102.4707, 14.8167], [102.5038, 14.8024], [102.5337, 14.8139], [102.5413, 14.8255], [102.5528, 14.8658], [102.5455, 14.8703], [102.5509, 14.8805], [102.5407, 14.8889], [102.5439, 14.9044], [102.5573, 14.9108], [102.5676, 14.9273], [102.5635, 14.9377], [102.5403, 14.9497], [102.5376, 14.9634], [102.5223, 14.9789], [102.5219, 14.9869], [102.5158, 14.992], [102.5179, 15.0047], [102.5114, 15.0149], [102.5106, 15.0394], [102.5002, 15.0608], [102.4894, 15.0588], [102.4935, 15.0695], [102.4841, 15.0813]]]}}, {"type": "Feature", "properties": {"osm_type": "relation", "osm_id": 175200093, "name": "Chaloem Phra Kiat", "admin_level": "6", "kind": "subdivision_2", "parent_osm_id": 1908790, "parent_name": "Nakhon Ratchasima Province", "parent_iso": "TH-30"}, "geometry": {"type": "Polygon", "coordinates": [[[102.3182, 15.0603], [102.3047, 15.0542], [102.3065, 15.0511], [102.2969, 15.0413], [102.2905, 15.0448], [102.2836, 15.0324], [102.2739, 15.0302], [102.2695, 15.0372], [102.2578, 15.0372], [102.2501, 15.0433], [102.2519, 15.0566], [102.2459, 15.0724], [102.2333, 15.0827], [102.2346, 15.0913], [102.2222, 15.1161], [102.2107, 15.12], [102.2057, 15.1012], [102.2095, 15.0911], [102.2064, 15.0778], [102.2152, 15.0541], [102.2189, 15.0257], [102.2158, 15.0064], [102.2188, 14.9935], [102.2142, 14.9921], [102.2233, 14.9782], [102.2209, 14.9537], [102.2305, 14.9368], [102.2283, 14.9183], [102.2455, 14.9075], [102.2532, 14.9115], [102.2712, 14.9064], [102.2701, 14.8992], [102.2959, 14.8907], [102.3145, 14.8673], [102.3123, 14.8798], [102.3405, 14.896], [102.3297, 14.9374], [102.3333, 14.9389], [102.3424, 14.9274], [102.3575, 14.9274], [102.3665, 14.917], [102.3786, 14.9159], [102.3765, 14.9306], [102.3864, 14.9336], [102.3865, 14.9536], [102.3976, 14.995], [102.3932, 15.0137], [102.3597, 15.0157], [102.3369, 15.0112], [102.3327, 15.0251], [102.3419, 15.0339], [102.3315, 15.0398], [102.3287, 15.0504], [102.3182, 15.0603]]]}}, {"type": "Feature", "properties": {"osm_type": "relation", "osm_id": 332331173, "name": "Chok Chai", "admin_level": "6", "kind": "subdivision_2", "parent_osm_id": 1908790, "parent_name": "Nakhon Ratchasima Province", "parent_iso": "TH-30"}, "geometry": {"type": "Polygon", "coordinates": [[[102.3145, 14.8673], [102.2959, 14.8907], [102.2701, 14.8992], [102.2712, 14.9064], [102.2532, 14.9115], [102.2455, 14.9075], [102.2283, 14.9183], [102.2082, 14.9061], [102.2033, 14.8962], [102.1878, 14.8947], [102.1822, 14.8753], [102.1561, 14.8617], [102.153, 14.8551], [102.1306, 14.859], [102.1072, 14.8426], [102.1033, 14.8083], [102.1167, 14.7515], [102.114, 14.7131], [102.1238, 14.7125], [102.1361, 14.6978], [102.1364, 14.6806], [102.128, 14.6783], [102.131, 14.6629], [102.1244, 14.654], [102.1252, 14.6466], [102.1311, 14.6399], [102.1528, 14.6501], [102.1503, 14.6151], [102.1572, 14.6152], [102.1599, 14.6072], [102.166, 14.6129], [102.1703, 14.5919], [102.1895, 14.5908], [102.2257, 14.5976], [102.2409, 14.6147], [102.2701, 14.6134], [102.2702, 14.6384], [102.2635, 14.6547], [102.2672, 14.6774], [102.2615, 14.7034], [102.2647, 14.7151], [102.2733, 14.7225], [102.2896, 14.7276], [102.289, 14.7425], [102.2787, 14.7618], [102.2789, 14.7937], [102.2873, 14.8031], [102.2857, 14.8087], [102.2949, 14.8237], [102.2939, 14.8345], [102.3023, 14.851], [102.3208, 14.8563], [102.3145, 14.8673]]]}}, {"type": "Feature", "properties": {"osm_type": "relation", "osm_id": 968373882, "name": "Chum Phuang", "admin_level": "6", "kind": "subdivision_2", "parent_osm_id": 1908790, "parent_name": "Nakhon Ratchasima Province", "parent_iso": "TH-30"}, "geometry": {"type": "Polygon", "coordinates": [[[102.7544, 15.4313], [102.7327, 15.4352], [102.7002, 15.4528], [102.6988, 15.4316], [102.6848, 15.3882], [102.6891, 15.3737], [102.6854, 15.3753], [102.6828, 15.3679], [102.6793, 15.3699], [102.6803, 15.3654], [102.6712, 15.3613], [102.6734, 15.3576], [102.6665, 15.3566], [102.6635, 15.3636], [102.6522, 15.3594], [102.6486, 15.3655], [102.6429, 15.3621], [102.6443, 15.3544], [102.6372, 15.3613], [102.6314, 15.3584], [102.6282, 15.3451], [102.6243, 15.3471], [102.6185, 15.3422], [102.6244, 15.3407], [102.619, 15.3384], [102.6236, 15.3223], [102.6123, 15.314], [102.6197, 15.301], [102.6273, 15.2978], [102.6575, 15.3016], [102.6604, 15.313], [102.678, 15.3146], [102.6955, 15.31], [102.6921, 15.2935], [102.6821, 15.2917], [102.6845, 15.2862], [102.6772, 15.2804], [102.6814, 15.2771], [102.6707, 15.2632], [102.6744, 15.2572], [102.6609, 15.2561], [102.6666, 15.2458], [102.6569, 15.2407], [102.6559, 15.2316], [102.6615, 15.2245], [102.6525, 15.2163], [102.656, 15.2147], [102.6516, 15.2021], [102.6559, 15.1949], [102.6614, 15.1957], [102.6635, 15.189], [102.6687, 15.1896], [102.6644, 15.1853], [102.6741, 15.1702], [102.6714, 15.1663], [102.6764, 15.1677], [102.6791, 15.1626], [102.6836, 15.1667], [102.682, 15.1628], [102.6953, 15.1492], [102.6918, 15.1447], [102.695, 15.1402], [102.7076, 15.1404], [102.7038, 15.1351], [102.71, 15.1296], [102.7091, 15.1236], [102.7179, 15.1225], [102.7163, 15.1164], [102.7256, 15.1106], [102.7233, 15.106], [102.7284, 15.105], [102.7251, 15.103], [102.7284, 15.097], [102.7358, 15.0947], [102.7393, 15.0991], [102.7493, 15.0857], [102.7535, 15.0872], [102.7551, 15.0824], [102.7616, 15.0856], [102.7641, 15.0803], [102.78, 15.0902], [102.7866, 15.1043], [102.8082, 15.1274], [102.8095, 15.1349], [102.816, 15.1373], [102.8237, 15.155], [102.8362, 15.157], [102.847, 15.1689], [102.8682, 15.1659], [102.8597, 15.2071], [102.8743, 15.2243], [102.8739, 15.2423], [102.8572, 15.249], [102.8489, 15.2454], [102.8438, 15.2598], [102.8252, 15.2639], [102.8315, 15.2821], [102.8467, 15.2942], [102.8419, 15.3134], [102.8464, 15.3186], [102.8448, 15.4054], [102.8386, 15.4048], [102.8334, 15.3857], [102.8252, 15.3873], [102.8106, 15.3778], [102.808, 15.3826], [102.803, 15.3768], [102.7916, 15.3883], [102.7916, 15.3818], [102.7834, 15.386], [102.7802, 15.3805], [102.7714, 15.4231], [102.7544, 15.4313]]]}}, {"type": "Feature", "properties": {"osm_type": "relation", "osm_id": 294888083, "name": "Dan Khun Thot", "admin_level": "6", "kind": "subdivision_2", "parent_osm_id": 1908790, "parent_name": "Nakhon Ratchasima Province", "parent_iso": "TH-30"}, "geometry": {"type": "Polygon", "coordinates": [[[101.5661, 15.372], [101.5639, 15.3536], [101.5764, 15.3478], [101.5775, 15.3335], [101.5888, 15.3182], [101.5999, 15.3081], [101.6236, 15.3052], [101.6336, 15.2915], [101.641, 15.2634], [101.634, 15.2392], [101.6199, 15.2437], [101.6141, 15.2509], [101.5934, 15.2547], [101.5922, 15.236], [101.5974, 15.2319], [101.6005, 15.2153], [101.5302, 15.2009], [101.4959, 15.2022], [101.4873, 15.2106], [101.4791, 15.2322], [101.4646, 15.2371], [101.3876, 15.2285], [101.4019, 15.1526], [101.3997, 15.1018], [101.4183, 15.0961], [101.4344, 15.106], [101.4498, 15.1056], [101.4741, 15.1158], [101.5001, 15.1111], [101.511, 15.0978], [101.5505, 15.1053], [101.567, 15.0931], [101.5921, 15.0989], [101.6315, 15.098], [101.6346, 15.0781], [101.6555, 15.0698], [101.6852, 15.0707], [101.7, 15.0615], [101.7136, 15.0752], [101.7387, 15.0652], [101.7577, 15.0766], [101.7752, 15.0666], [101.787, 15.0513], [101.8093, 15.0704], [101.8355, 15.074], [101.8607, 15.1053], [101.8888, 15.1106], [101.9029, 15.1497], [101.9011, 15.1568], [101.8841, 15.1612], [101.8778, 15.1867], [101.8679, 15.19], [101.8741, 15.2033], [101.8714, 15.2238], [101.8814, 15.2242], [101.8818, 15.2209], [101.8902, 15.2263], [101.9056, 15.2256], [101.9005, 15.2369], [101.9135, 15.2579], [101.9237, 15.293], [101.9196, 15.3166], [101.9337, 15.3309], [101.9239, 15.3343], [101.9235, 15.3453], [101.9165, 15.353], [101.8831, 15.3726], [101.8763, 15.3837], [101.8785, 15.3893], [101.8387, 15.4146], [101.8085, 15.4211], [101.8023, 15.4205], [101.8057, 15.4126], [101.8018, 15.4033], [101.7786, 15.384], [101.7203, 15.3848], [101.7025, 15.3944], [101.6863, 15.3921], [101.6568, 15.4017], [101.6191, 15.3704], [101.6058, 15.3807], [101.5911, 15.3783], [101.5883, 15.3735], [101.5661, 15.372]]]}}, {"type": "Feature", "properties": {"osm_type": "relation", "osm_id": 905029330, "name": "Huai Thalaeng", "admin_level": "6", "kind": "subdivision_2", "parent_osm_id": 1908790, "parent_name": "Nakhon Ratchasima Province", "parent_iso": "TH-30"}, "geometry": {"type": "Polygon", "coordinates": [[[102.5458, 14.9469], [102.5583, 14.9567], [102.5704, 14.9579], [102.6008, 14.9354], [102.6966, 14.9337], [102.7095, 14.9566], [102.714, 14.9852], [102.7369, 15.0011], [102.7813, 15.0123], [102.7798, 15.0255], [102.8048, 15.0401], [102.7898, 15.0558], [102.7868, 15.0525], [102.7878, 15.0597], [102.7817, 15.0662], [102.785, 15.0691], [102.7751, 15.0657], [102.7715, 15.0756], [102.7639, 15.0722], [102.7616, 15.0856], [102.7551, 15.0824], [102.7535, 15.0872], [102.7493, 15.0857], [102.7393, 15.0991], [102.7358, 15.0947], [102.7284, 15.097], [102.7251, 15.103], [102.7284, 15.105], [102.7233, 15.106], [102.7256, 15.1106], [102.7163, 15.1164], [102.7179, 15.1225], [102.7091, 15.1236], [102.71, 15.1296], [102.7038, 15.1351], [102.7076, 15.1404], [102.695, 15.1402], [102.6918, 15.1447], [102.6953, 15.1492], [102.682, 15.1628], [102.6836, 15.1667], [102.6791, 15.1626], [102.6764, 15.1677], [102.6672, 15.1623], [102.654, 15.1633], [102.6434, 15.1475], [102.6202, 15.1405], [102.6138, 15.1427], [102.6094, 15.1528], [102.5848, 15.1567], [102.5709, 15.0944], [102.5615, 15.0885], [102.5333, 15.0973], [102.4969, 15.0984], [102.4912, 15.096], [102.4912, 15.0879], [102.4841, 15.0813], [102.4935, 15.0695], [102.4894, 15.0588], [102.5002, 15.0608], [102.5106, 15.0394], [102.5114, 15.0149], [102.5179, 15.0047], [102.5158, 14.992], [102.5458, 14.9469]]]}}, {"type": "Feature", "properties": {"osm_type": "relation", "osm_id": 496599802, "name": "Kaeng Sanam Nang", "admin_level": "6", "kind": "subdivision_2", "parent_osm_id": 1908790, "parent_name": "Nakhon Ratchasima Province", "parent_iso": "TH-30"}, "geometry": {"type": "Polygon", "coordinates": [[[102.2331, 15.6073], [102.2411, 15.609], [102.3068, 15.6653], [102.3095, 15.6696], [102.3011, 15.6808], [102.323, 15.6885], [102.3356, 15.7001], [102.3462, 15.7013], [102.3597, 15.7111], [102.3628, 15.7298], [102.357, 15.7401], [102.3632, 15.7674], [102.3499, 15.7748], [102.325, 15.8049], [102.3123, 15.8081], [102.3069, 15.7924], [102.2928, 15.7851], [102.2568, 15.7817], [102.2583, 15.7723], [102.2525, 15.7703], [102.2524, 15.7598], [102.2467, 15.7572], [102.253, 15.7529], [102.2438, 15.752], [102.2324, 15.7434], [102.205, 15.7573], [102.2002, 15.7498], [102.2053, 15.7492], [102.2015, 15.7391], [102.185, 15.7401], [102.1862, 15.7475], [102.1644, 15.7445], [102.1631, 15.7372], [102.156, 15.7412], [102.1554, 15.7306], [102.1622, 15.7262], [102.1535, 15.7262], [102.1548, 15.7187], [102.1509, 15.7219], [102.1512, 15.71], [102.1469, 15.7101], [102.1499, 15.7073], [102.1431, 15.7063], [102.1448, 15.6793], [102.1363, 15.671], [102.1324, 15.675], [102.1277, 15.6708], [102.1322, 15.6671], [102.1252, 15.666], [102.1281, 15.6512], [102.119, 15.6531], [102.1213, 15.6462], [102.1438, 15.6406], [102.1858, 15.6142], [102.2023, 15.6182], [102.2244, 15.6154], [102.2331, 15.6073]]]}}, {"type": "Feature", "properties": {"osm_type": "relation", "osm_id": 271344184, "name": "Kham Sakaesaeng", "admin_level": "6", "kind": "subdivision_2", "parent_osm_id": 1908790, "parent_name": "Nakhon Ratchasima Province", "parent_iso": "TH-30"}, "geometry": {"type": "Polygon", "coordinates": [[[102.2909, 15.3711], [102.2889, 15.3878], [102.2962, 15.4007], [102.2938, 15.4067], [102.2621, 15.4272], [102.2546, 15.4471], [102.2268, 15.4662], [102.1748, 15.463], [102.0876, 15.4317], [102.061, 15.4131], [102.044, 15.415], [102.0486, 15.3866], [102.0708, 15.3766], [102.0681, 15.3626], [102.061, 15.3546], [102.0716, 15.3384], [102.0804, 15.3343], [102.0862, 15.3178], [102.1185, 15.3078], [102.1395, 15.3094], [102.1445, 15.2913], [102.1555, 15.2871], [102.1589, 15.2794], [102.1846, 15.2804], [102.1839, 15.2961], [102.1907, 15.3214], [102.2394, 15.3345], [102.2909, 15.3711]]]}}, {"type": "Feature", "properties": {"osm_type": "relation", "osm_id": 756043754, "name": "Kham Thale So", "admin_level": "6", "kind": "subdivision_2", "parent_osm_id": 1908790, "parent_name": "Nakhon Ratchasima Province", "parent_iso": "TH-30"}, "geometry": {"type": "Polygon", "coordinates": [[[101.8355, 15.074], [101.8509, 15.0711], [101.8844, 15.0462], [101.8905, 15.0132], [101.8877, 14.9941], [101.9012, 14.9652], [101.9041, 14.9542], [101.8997, 14.9409], [101.9047, 14.9324], [101.9146, 14.9378], [101.9315, 14.9296], [101.9391, 14.934], [101.9419, 14.9312], [101.9495, 14.939], [101.9573, 14.9363], [101.9638, 14.9418], [101.9697, 14.9401], [101.9696, 14.944], [101.976, 14.9423], [101.9775, 14.9485], [101.9841, 14.9467], [101.9929, 14.9563], [101.9921, 14.9728], [101.9851, 14.978], [101.974, 15.0053], [101.9933, 15.0346], [101.9928, 15.0886], [101.9733, 15.0871], [101.9722, 15.0912], [101.9515, 15.095], [101.9463, 15.1024], [101.928, 15.1083], [101.9107, 15.1056], [101.8888, 15.1106], [101.8607, 15.1053], [101.8355, 15.074]]]}}, {"type": "Feature", "properties": {"osm_type": "relation", "osm_id": 783381681, "name": "Khon Buri", "admin_level": "6", "kind": "subdivision_2", "parent_osm_id": 1908790, "parent_name": "Nakhon Ratchasima Province", "parent_iso": "TH-30"}, "geometry": {"type": "Polygon", "coordinates": [[[102.1311, 14.6399], [102.1005, 14.6258], [102.1004, 14.612], [102.0944, 14.6018], [102.098, 14.5954], [102.0873, 14.5902], [102.0826, 14.5751], [102.0722, 14.573], [102.0701, 14.5641], [102.042, 14.5393], [102.0449, 14.5306], [102.0313, 14.5225], [102.051, 14.5128], [102.0404, 14.4788], [102.0463, 14.4696], [102.045, 14.4521], [102.0582, 14.439], [102.0632, 14.4248], [102.0538, 14.4078], [102.0686, 14.4057], [102.0667, 14.3987], [102.0549, 14.391], [102.0703, 14.3574], [102.0651, 14.348], [102.0491, 14.3435], [102.0439, 14.3357], [102.045, 14.3248], [102.0255, 14.3181], [102.0228, 14.3025], [102.0181, 14.3008], [102.0212, 14.2986], [102.0108, 14.2965], [102.0106, 14.2873], [102.0012, 14.2819], [102.0181, 14.2549], [102.0152, 14.2426], [101.9952, 14.2309], [101.9666, 14.2278], [102.0075, 14.2031], [102.0346, 14.1983], [102.0407, 14.1883], [102.0693, 14.1657], [102.1204, 14.1488], [102.1326, 14.1379], [102.1504, 14.137], [102.1678, 14.1435], [102.1716, 14.16], [102.1663, 14.1724], [102.1748, 14.1899], [102.1867, 14.1966], [102.1961, 14.1915], [102.2026, 14.1774], [102.2119, 14.1739], [102.2105, 14.1542], [102.2172, 14.1447], [102.2395, 14.1448], [102.2485, 14.1401], [102.2686, 14.1473], [102.2719, 14.1288], [102.289, 14.1352], [102.3073, 14.1202], [102.326, 14.1284], [102.3347, 14.1206], [102.3389, 14.1259], [102.3478, 14.1248], [102.3581, 14.1347], [102.3593, 14.1659], [102.3651, 14.1761], [102.3668, 14.2067], [102.3622, 14.2231], [102.3762, 14.2392], [102.3594, 14.2592], [102.3555, 14.273], [102.3636, 14.2921], [102.3795, 14.2996], [102.3667, 14.3148], [102.38, 14.3396], [102.3649, 14.3542], [102.3657, 14.374], [102.3734, 14.3754], [102.3794, 14.3988], [102.3769, 14.4457], [102.3803, 14.4685], [102.3925, 14.5014], [102.4131, 14.5237], [102.415, 14.5621], [102.4314, 14.5919], [102.3754, 14.6045], [102.3665, 14.62], [102.3538, 14.6074], [102.3309, 14.5994], [102.2808, 14.6129], [102.2409, 14.6147], [102.2257, 14.5976], [102.1895, 14.5908], [102.1703, 14.5919], [102.166, 14.6129], [102.1599, 14.6072], [102.1572, 14.6152], [102.1503, 14.6151], [102.1528, 14.6501], [102.1311, 14.6399]]]}}, {"type": "Feature", "properties": {"osm_type": "relation", "osm_id": 331645579, "name": "Khong", "admin_level": "6", "kind": "subdivision_2", "parent_osm_id": 1908790, "parent_name": "Nakhon Ratchasima Province", "parent_iso": "TH-30"}, "geometry": {"type": "Polygon", "coordinates": [[[102.0331, 15.5018], [102.035, 15.478], [102.01, 15.4582], [102.0172, 15.4476], [102.0476, 15.4333], [102.044, 15.415], [102.061, 15.4131], [102.0876, 15.4317], [102.1748, 15.463], [102.2268, 15.4662], [102.2546, 15.4471], [102.2621, 15.4272], [102.2938, 15.4067], [102.2962, 15.4007], [102.2889, 15.3878], [102.2909, 15.3711], [102.3118, 15.3841], [102.3205, 15.3844], [102.3698, 15.3691], [102.3757, 15.3612], [102.3401, 15.32], [102.3399, 15.2922], [102.3475, 15.2791], [102.387, 15.2808], [102.3871, 15.2863], [102.3933, 15.2871], [102.3917, 15.2909], [102.3998, 15.2979], [102.4046, 15.2939], [102.4101, 15.2716], [102.4207, 15.2739], [102.4282, 15.2831], [102.4304, 15.2961], [102.4423, 15.3001], [102.4422, 15.3112], [102.4566, 15.3187], [102.4535, 15.3254], [102.4665, 15.3295], [102.4672, 15.3363], [102.4697, 15.3326], [102.4769, 15.3344], [102.4759, 15.3413], [102.4845, 15.337], [102.4844, 15.3429], [102.4888, 15.3425], [102.4852, 15.3462], [102.4997, 15.347], [102.4961, 15.3559], [102.5084, 15.358], [102.5082, 15.3679], [102.5291, 15.3703], [102.5259, 15.379], [102.5053, 15.3935], [102.4611, 15.4124], [102.4327, 15.3985], [102.4331, 15.4058], [102.4701, 15.4588], [102.4605, 15.4669], [102.4352, 15.4685], [102.3782, 15.5001], [102.3653, 15.4927], [102.3492, 15.504], [102.3323, 15.5021], [102.3181, 15.5259], [102.2896, 15.5303], [102.2533, 15.5464], [102.247, 15.5474], [102.245, 15.5392], [102.2167, 15.519], [102.1913, 15.5192], [102.1792, 15.5304], [102.1649, 15.5261], [102.1555, 15.5409], [102.1492, 15.5349], [102.1327, 15.5411], [102.1096, 15.5421], [102.1027, 15.5396], [102.1088, 15.534], [102.1033, 15.5265], [102.0834, 15.5186], [102.0719, 15.5192], [102.0473, 15.5027], [102.0331, 15.5018]]]}}, {"type": "Feature", "properties": {"osm_type": "relation", "osm_id": 750267219, "name": "Lam Thamenchai", "admin_level": "6", "kind": "subdivision_2", "parent_osm_id": 1908790, "parent_name": "Nakhon Ratchasima Province", "parent_iso": "TH-30"}, "geometry": {"type": "Polygon", "coordinates": [[[102.8682, 15.1659], [102.8872, 15.1847], [102.8989, 15.1754], [102.9173, 15.1883], [102.9174, 15.1824], [102.9376, 15.1832], [102.9658, 15.1923], [102.9745, 15.2068], [102.959, 15.2195], [102.9609, 15.2382], [102.9567, 15.2522], [102.9609, 15.2636], [102.9551, 15.2723], [102.9679, 15.2909], [102.9521, 15.313], [102.9848, 15.3216], [102.9774, 15.3441], [102.9857, 15.361], [102.9864, 15.3739], [102.943, 15.3841], [102.9395, 15.3805], [102.9418, 15.3745], [102.9351, 15.3684], [102.9232, 15.3681], [102.9235, 15.3618], [102.9185, 15.3685], [102.9167, 15.3624], [102.9119, 15.3646], [102.9109, 15.3743], [102.9054, 15.3739], [102.9011, 15.3808], [102.9025, 15.3761], [102.8956, 15.3761], [102.8969, 15.3683], [102.8858, 15.375], [102.8805, 15.3687], [102.8743, 15.375], [102.8782, 15.3838], [102.8612, 15.3959], [102.8558, 15.391], [102.8553, 15.3984], [102.8448, 15.4054], [102.8464, 15.3186], [102.8419, 15.3134], [102.8467, 15.2942], [102.8363, 15.2888], [102.8248, 15.2662], [102.8438, 15.2598], [102.8489, 15.2454], [102.8572, 15.249], [102.8739, 15.2423], [102.8743, 15.2243], [102.8597, 15.2071], [102.8682, 15.1659]]]}}, {"type": "Feature", "properties": {"osm_type": "relation", "osm_id": 391260175, "name": "Mueang Nakhon Ratchasima", "admin_level": "6", "kind": "subdivision_2", "parent_osm_id": 1908790, "parent_name": "Nakhon Ratchasima Province", "parent_iso": "TH-30"}, "geometry": {"type": "Polygon", "coordinates": [[[102.2107, 15.12], [102.2014, 15.1192], [102.183, 15.1288], [102.1811, 15.1406], [102.1576, 15.1362], [102.1501, 15.1258], [102.1368, 15.124], [102.1303, 15.1331], [102.1244, 15.1315], [102.1138, 15.1401], [102.1116, 15.135], [102.1006, 15.136], [102.1014, 15.1309], [102.0925, 15.1319], [102.0799, 15.0983], [102.0819, 15.0873], [102.0882, 15.0816], [102.0812, 15.0765], [102.0203, 15.073], [102.0118, 15.0862], [101.995, 15.0853], [101.9933, 15.0346], [101.974, 15.0053], [101.9851, 14.978], [101.9921, 14.9728], [101.9942, 14.9592], [101.9841, 14.9467], [101.9775, 14.9485], [101.976, 14.9423], [101.9458, 14.9373], [101.9345, 14.9185], [101.9369, 14.911], [101.9324, 14.9054], [101.942, 14.8796], [101.9602, 14.8661], [101.9603, 14.8444], [101.9698, 14.8187], [101.969, 14.8088], [101.9797, 14.8164], [101.9904, 14.8391], [102.0117, 14.8413], [102.0275, 14.8368], [102.0306, 14.8432], [102.0438, 14.8447], [102.0509, 14.8416], [102.0554, 14.8314], [102.0628, 14.8296], [102.0648, 14.8194], [102.0858, 14.8072], [102.0931, 14.7946], [102.1065, 14.7914], [102.1033, 14.8083], [102.1072, 14.8426], [102.1306, 14.859], [102.153, 14.8551], [102.1561, 14.8617], [102.1822, 14.8753], [102.1878, 14.8947], [102.2033, 14.8962], [102.2082, 14.9061], [102.2283, 14.9183], [102.2305, 14.9368], [102.2209, 14.9537], [102.2233, 14.9782], [102.2142, 14.9921], [102.2188, 14.9935], [102.2169, 15.0448], [102.2064, 15.0778], [102.2095, 15.0911], [102.2057, 15.1012], [102.2107, 15.12]]]}}, {"type": "Feature", "properties": {"osm_type": "relation", "osm_id": 363619699, "name": "Mueang Yang", "admin_level": "6", "kind": "subdivision_2", "parent_osm_id": 1908790, "parent_name": "Nakhon Ratchasima Province", "parent_iso": "TH-30"}, "geometry": {"type": "Polygon", "coordinates": [[[102.8335, 15.5108], [102.841, 15.4997], [102.793, 15.4457], [102.7741, 15.433], [102.7544, 15.4313], [102.7714, 15.4231], [102.7802, 15.3805], [102.7834, 15.386], [102.7916, 15.3818], [102.7916, 15.3883], [102.803, 15.3768], [102.808, 15.3826], [102.8106, 15.3778], [102.8252, 15.3873], [102.8334, 15.3857], [102.8386, 15.4048], [102.8448, 15.4054], [102.8553, 15.3984], [102.8558, 15.391], [102.8612, 15.3959], [102.8782, 15.3838], [102.8743, 15.375], [102.8805, 15.3687], [102.8858, 15.375], [102.8969, 15.3683], [102.8956, 15.3761], [102.9025, 15.3761], [102.9011, 15.3808], [102.9054, 15.3739], [102.9109, 15.3743], [102.9119, 15.3646], [102.9167, 15.3624], [102.9185, 15.3685], [102.9235, 15.3618], [102.9232, 15.3681], [102.9351, 15.3684], [102.9418, 15.3745], [102.9404, 15.3838], [102.9551, 15.3827], [102.9518, 15.4038], [102.9572, 15.4105], [102.9618, 15.4067], [102.9581, 15.4035], [102.9671, 15.4075], [102.9647, 15.419], [102.9709, 15.4201], [102.9702, 15.4266], [102.9788, 15.429], [102.9764, 15.4202], [102.9822, 15.4159], [102.98, 15.4242], [102.9845, 15.4265], [102.9889, 15.4226], [102.986, 15.4182], [102.9929, 15.4142], [103.0014, 15.4279], [103.0124, 15.4297], [102.9959, 15.4527], [102.9932, 15.4689], [102.9851, 15.4669], [102.9786, 15.482], [102.9677, 15.4777], [102.9664, 15.4851], [102.9612, 15.4848], [102.9609, 15.4791], [102.9505, 15.4771], [102.9465, 15.4828], [102.9421, 15.4754], [102.9374, 15.476], [102.9443, 15.4903], [102.9389, 15.497], [102.934, 15.4887], [102.9278, 15.491], [102.9222, 15.4989], [102.9264, 15.5045], [102.9311, 15.5025], [102.9315, 15.5068], [102.9237, 15.5109], [102.9128, 15.5076], [102.9108, 15.5156], [102.8959, 15.5215], [102.8903, 15.5136], [102.883, 15.523], [102.8717, 15.5203], [102.8734, 15.5121], [102.8666, 15.5128], [102.8644, 15.5081], [102.8584, 15.5141], [102.8526, 15.5109], [102.8365, 15.517], [102.8311, 15.516], [102.8335, 15.5108]]]}}, {"type": "Feature", "properties": {"osm_type": "relation", "osm_id": 522313681, "name": "Non Daeng", "admin_level": "6", "kind": "subdivision_2", "parent_osm_id": 1908790, "parent_name": "Nakhon Ratchasima Province", "parent_iso": "TH-30"}, "geometry": {"type": "Polygon", "coordinates": [[[102.4701, 15.4588], [102.4331, 15.4058], [102.4327, 15.3985], [102.4611, 15.4124], [102.5053, 15.3935], [102.5259, 15.379], [102.5277, 15.3721], [102.5415, 15.3739], [102.5499, 15.3913], [102.5764, 15.4208], [102.5896, 15.4164], [102.6069, 15.4263], [102.6044, 15.433], [102.6107, 15.4399], [102.6076, 15.4457], [102.6, 15.4423], [102.5934, 15.4569], [102.5986, 15.4748], [102.5924, 15.4799], [102.5913, 15.491], [102.5978, 15.499], [102.5936, 15.5179], [102.6083, 15.5309], [102.5363, 15.5343], [102.541, 15.5116], [102.534, 15.5037], [102.5372, 15.4958], [102.5324, 15.4836], [102.5224, 15.4779], [102.5244, 15.4621], [102.5027, 15.473], [102.4799, 15.4698], [102.4701, 15.4588]]]}}, {"type": "Feature", "properties": {"osm_type": "relation", "osm_id": 290048330, "name": "Non Sung", "admin_level": "6", "kind": "subdivision_2", "parent_osm_id": 1908790, "parent_name": "Nakhon Ratchasima Province", "parent_iso": "TH-30"}, "geometry": {"type": "Polygon", "coordinates": [[[102.3788, 15.1338], [102.3699, 15.1504], [102.3685, 15.1619], [102.3741, 15.1645], [102.3682, 15.1735], [102.3734, 15.1751], [102.3785, 15.1874], [102.3668, 15.2125], [102.3789, 15.2189], [102.3768, 15.223], [102.383, 15.2288], [102.4053, 15.2414], [102.4355, 15.25], [102.4184, 15.273], [102.4101, 15.2716], [102.4046, 15.2939], [102.3998, 15.2979], [102.3917, 15.2909], [102.3933, 15.2871], [102.3871, 15.2863], [102.387, 15.2808], [102.3654, 15.2772], [102.3427, 15.2826], [102.3401, 15.32], [102.3757, 15.3612], [102.3698, 15.3691], [102.33, 15.3783], [102.3279, 15.3836], [102.3118, 15.3841], [102.2394, 15.3345], [102.1907, 15.3214], [102.1839, 15.2961], [102.1846, 15.2804], [102.1589, 15.2794], [102.1597, 15.2641], [102.1744, 15.2439], [102.1778, 15.2199], [102.1723, 15.2141], [102.1422, 15.2105], [102.1369, 15.2062], [102.1335, 15.1685], [102.1212, 15.1418], [102.1244, 15.1315], [102.1303, 15.1331], [102.1368, 15.124], [102.1475, 15.1253], [102.1576, 15.1362], [102.1811, 15.1406], [102.183, 15.1288], [102.1934, 15.1226], [102.2222, 15.1161], [102.2346, 15.0913], [102.2333, 15.0827], [102.2459, 15.0724], [102.2519, 15.0566], [102.2501, 15.0433], [102.2578, 15.0372], [102.2695, 15.0372], [102.277, 15.0293], [102.2905, 15.0448], [102.2969, 15.0413], [102.3065, 15.0511], [102.3047, 15.0542], [102.317, 15.0574], [102.32, 15.068], [102.3272, 15.0689], [102.3247, 15.0725], [102.3481, 15.0797], [102.3467, 15.0902], [102.3634, 15.0855], [102.3498, 15.1079], [102.3534, 15.1159], [102.3559, 15.1128], [102.3558, 15.1164], [102.3661, 15.1167], [102.3632, 15.1192], [102.3689, 15.1232], [102.3669, 15.1262], [102.3745, 15.1253], [102.3734, 15.1298], [102.3788, 15.1338]]]}}, {"type": "Feature", "properties": {"osm_type": "relation", "osm_id": 546358801, "name": "Non Thai", "admin_level": "6", "kind": "subdivision_2", "parent_osm_id": 1908790, "parent_name": "Nakhon Ratchasima Province", "parent_iso": "TH-30"}, "geometry": {"type": "Polygon", "coordinates": [[[101.8888, 15.1106], [101.9107, 15.1056], [101.928, 15.1083], [101.9463, 15.1024], [101.9515, 15.095], [101.9722, 15.0912], [101.9733, 15.0871], [101.9849, 15.0902], [101.995, 15.0853], [102.0118, 15.0862], [102.0203, 15.073], [102.0723, 15.0734], [102.0882, 15.0816], [102.0819, 15.0873], [102.0799, 15.0983], [102.0925, 15.1319], [102.1014, 15.1309], [102.1006, 15.136], [102.1116, 15.135], [102.1138, 15.1401], [102.1206, 15.1378], [102.1335, 15.1685], [102.1369, 15.2062], [102.1422, 15.2105], [102.1723, 15.2141], [102.1778, 15.2199], [102.1744, 15.2439], [102.1597, 15.2641], [102.1555, 15.2871], [102.1445, 15.2913], [102.1414, 15.3083], [102.1106, 15.3116], [102.091, 15.307], [102.0772, 15.2971], [102.0749, 15.2851], [102.0614, 15.2776], [102.0358, 15.3044], [102.035, 15.294], [102.0257, 15.2932], [102.0255, 15.2757], [102.0106, 15.2725], [102.0051, 15.2662], [102.005, 15.2618], [102.0149, 15.2636], [102.0182, 15.2527], [102.0035, 15.2383], [101.976, 15.2288], [101.9784, 15.2209], [101.9737, 15.2218], [101.9693, 15.241], [101.9476, 15.2455], [101.94, 15.2516], [101.94, 15.2606], [101.9507, 15.2802], [101.9324, 15.2906], [101.9235, 15.3055], [101.9135, 15.2579], [101.9005, 15.2369], [101.9056, 15.2256], [101.8902, 15.2263], [101.8818, 15.2209], [101.8814, 15.2242], [101.8714, 15.2238], [101.8741, 15.2033], [101.8679, 15.19], [101.8778, 15.1867], [101.8841, 15.1612], [101.9011, 15.1568], [101.9029, 15.1497], [101.8888, 15.1106]]]}}, {"type": "Feature", "properties": {"osm_type": "relation", "osm_id": 474978057, "name": "Nong Bun Mak", "admin_level": "6", "kind": "subdivision_2", "parent_osm_id": 1908790, "parent_name": "Nakhon Ratchasima Province", "parent_iso": "TH-30"}, "geometry": {"type": "Polygon", "coordinates": [[[102.3208, 14.8563], [102.3023, 14.851], [102.2939, 14.8345], [102.2949, 14.8237], [102.2857, 14.8087], [102.2873, 14.8031], [102.2789, 14.7937], [102.2787, 14.7618], [102.289, 14.7425], [102.2902, 14.7302], [102.2647, 14.7151], [102.2615, 14.7034], [102.2672, 14.6774], [102.2635, 14.6547], [102.2702, 14.6384], [102.2701, 14.6134], [102.3309, 14.5994], [102.3538, 14.6074], [102.3665, 14.62], [102.3754, 14.6045], [102.4314, 14.5919], [102.4356, 14.5976], [102.4581, 14.6042], [102.4712, 14.6145], [102.4747, 14.6317], [102.4755, 14.6554], [102.4604, 14.6967], [102.4601, 14.7086], [102.4765, 14.7307], [102.4764, 14.7492], [102.4724, 14.7633], [102.4562, 14.7666], [102.4439, 14.7792], [102.4459, 14.7856], [102.4397, 14.802], [102.4452, 14.8014], [102.4474, 14.8205], [102.4579, 14.8351], [102.453, 14.8446], [102.431, 14.8403], [102.4195, 14.855], [102.4011, 14.8449], [102.3884, 14.8553], [102.3594, 14.8399], [102.3485, 14.8264], [102.3302, 14.8379], [102.3208, 14.8563]]]}}, {"type": "Feature", "properties": {"osm_type": "relation", "osm_id": 680765655, "name": "Pak Chong", "admin_level": "6", "kind": "subdivision_2", "parent_osm_id": 1908790, "parent_name": "Nakhon Ratchasima Province", "parent_iso": "TH-30"}, "geometry": {"type": "Polygon", "coordinates": [[[101.2428, 14.4711], [101.2441, 14.4887], [101.2661, 14.5024], [101.2726, 14.5125], [101.2777, 14.5122], [101.2842, 14.5021], [101.2838, 14.4892], [101.3064, 14.4983], [101.3055, 14.4869], [101.3123, 14.4714], [101.3321, 14.466], [101.3579, 14.4493], [101.3661, 14.4492], [101.3703, 14.4378], [101.3821, 14.4341], [101.3805, 14.4235], [101.396, 14.4187], [101.3972, 14.4082], [101.4067, 14.4042], [101.4222, 14.3837], [101.4261, 14.3897], [101.4323, 14.3895], [101.4475, 14.4212], [101.4373, 14.4362], [101.4364, 14.446], [101.4816, 14.4623], [101.4876, 14.4618], [101.5027, 14.4397], [101.5294, 14.4263], [101.5408, 14.4255], [101.547, 14.4361], [101.5752, 14.4358], [101.5949, 14.4418], [101.6103, 14.438], [101.6287, 14.4217], [101.6433, 14.4205], [101.647, 14.4336], [101.6398, 14.4735], [101.6469, 14.4864], [101.664, 14.4797], [101.6639, 14.4841], [101.6767, 14.4898], [101.6769, 14.4732], [101.6873, 14.4713], [101.69, 14.4776], [101.6962, 14.4708], [101.6933, 14.4657], [101.7165, 14.4553], [101.7346, 14.4722], [101.7288, 14.4784], [101.744, 14.5008], [101.739, 14.5043], [101.7342, 14.5012], [101.7324, 14.5061], [101.7249, 14.5017], [101.7164, 14.5045], [101.7225, 14.5104], [101.7238, 14.5276], [101.7308, 14.5318], [101.7138, 14.5318], [101.7004, 14.5557], [101.6902, 14.5643], [101.6891, 14.5729], [101.6735, 14.5757], [101.6838, 14.5825], [101.6804, 14.5922], [101.6886, 14.615], [101.6835, 14.6193], [101.6848, 14.626], [101.6935, 14.6291], [101.7044, 14.6242], [101.7093, 14.6356], [101.723, 14.6331], [101.7323, 14.6443], [101.725, 14.6511], [101.7269, 14.6628], [101.7196, 14.6748], [101.7106, 14.6753], [101.7079, 14.6854], [101.6928, 14.6829], [101.6547, 14.7024], [101.6418, 14.7172], [101.6166, 14.714], [101.6115, 14.7414], [101.6017, 14.7524], [101.578, 14.7567], [101.5705, 14.7682], [101.547, 14.7773], [101.5519, 14.8114], [101.5623, 14.8279], [101.5589, 14.8452], [101.5478, 14.8503], [101.516, 14.832], [101.4917, 14.8417], [101.4853, 14.8577], [101.4752, 14.8637], [101.4752, 14.8716], [101.464, 14.8791], [101.4563, 14.9012], [101.4486, 14.9022], [101.4546, 14.8769], [101.4503, 14.8573], [101.4152, 14.8444], [101.3891, 14.8125], [101.358, 14.7999], [101.3475, 14.7935], [101.3476, 14.7878], [101.3376, 14.7872], [101.3388, 14.7743], [101.3341, 14.766], [101.3278, 14.7587], [101.3204, 14.762], [101.305, 14.7569], [101.2991, 14.7374], [101.2919, 14.7362], [101.2871, 14.746], [101.2825, 14.7451], [101.2809, 14.7262], [101.2713, 14.7263], [101.2632, 14.7335], [101.2591, 14.7301], [101.2491, 14.7351], [101.2465, 14.7312], [101.2317, 14.732], [101.211, 14.7569], [101.2084, 14.751], [101.1986, 14.7559], [101.1975, 14.7491], [101.1887, 14.7493], [101.1941, 14.7313], [101.1913, 14.7241], [101.1851, 14.722], [101.1893, 14.7148], [101.1864, 14.7114], [101.1951, 14.7054], [101.2038, 14.6833], [101.1991, 14.6639], [101.2048, 14.6561], [101.2083, 14.6333], [101.2044, 14.6066], [101.2105, 14.5994], [101.2085, 14.595], [101.2158, 14.5905], [101.2052, 14.5802], [101.201, 14.5649], [101.1939, 14.5615], [101.1948, 14.5536], [101.1849, 14.5516], [101.181, 14.5439], [101.1902, 14.5282], [101.1951, 14.5312], [101.1972, 14.5252], [101.2105, 14.5201], [101.2428, 14.4711]]]}}, {"type": "Feature", "properties": {"osm_type": "relation", "osm_id": 509828937, "name": "Pak Thong Chai", "admin_level": "6", "kind": "subdivision_2", "parent_osm_id": 1908790, "parent_name": "Nakhon Ratchasima Province", "parent_iso": "TH-30"}, "geometry": {"type": "Polygon", "coordinates": [[[102.1065, 14.7914], [102.0931, 14.7946], [102.0858, 14.8072], [102.0648, 14.8194], [102.0628, 14.8296], [102.0554, 14.8314], [102.0509, 14.8416], [102.0438, 14.8447], [102.0306, 14.8432], [102.0275, 14.8368], [102.0117, 14.8413], [101.9904, 14.8391], [101.9797, 14.8164], [101.969, 14.8088], [101.9684, 14.823], [101.9623, 14.8216], [101.9576, 14.807], [101.9223, 14.7703], [101.8919, 14.7618], [101.8915, 14.7567], [101.9055, 14.7423], [101.9151, 14.7407], [101.9144, 14.7339], [101.9002, 14.7271], [101.8972, 14.7176], [101.8875, 14.7229], [101.8785, 14.7197], [101.8818, 14.7116], [101.8716, 14.7018], [101.8576, 14.7042], [101.8518, 14.6961], [101.8539, 14.6898], [101.8446, 14.6938], [101.8361, 14.6873], [101.8153, 14.686], [101.8079, 14.697], [101.7898, 14.7029], [101.7792, 14.7012], [101.7718, 14.7192], [101.7486, 14.7315], [101.7372, 14.7333], [101.7129, 14.7221], [101.7032, 14.7072], [101.7106, 14.6753], [101.7232, 14.6717], [101.725, 14.6511], [101.7438, 14.6402], [101.7489, 14.6277], [101.757, 14.6216], [101.7541, 14.6054], [101.7678, 14.6028], [101.7872, 14.6085], [101.7565, 14.5462], [101.7653, 14.5376], [101.7644, 14.5182], [101.7725, 14.5173], [101.78, 14.5062], [101.7809, 14.5165], [101.7843, 14.5164], [101.8025, 14.5051], [101.8132, 14.5109], [101.8212, 14.5058], [101.8311, 14.5068], [101.8356, 14.5093], [101.8353, 14.5159], [101.857, 14.4992], [101.8729, 14.4994], [101.8933, 14.5357], [101.9149, 14.548], [101.9475, 14.5477], [101.95, 14.5559], [101.9705, 14.5694], [101.9897, 14.566], [101.9956, 14.5834], [102.013, 14.579], [102.0104, 14.5727], [102.0156, 14.5635], [102.0473, 14.5453], [102.0664, 14.5605], [102.0722, 14.573], [102.0826, 14.5751], [102.0873, 14.5902], [102.098, 14.5954], [102.0944, 14.6018], [102.1004, 14.612], [102.1005, 14.6258], [102.1311, 14.6399], [102.1244, 14.654], [102.131, 14.6629], [102.128, 14.6783], [102.1364, 14.6806], [102.1361, 14.6978], [102.1238, 14.7125], [102.114, 14.7131], [102.1167, 14.7515], [102.1065, 14.7914]]]}}, {"type": "Feature", "properties": {"osm_type": "relation", "osm_id": 803481783, "name": "Phimai", "admin_level": "6", "kind": "subdivision_2", "parent_osm_id": 1908790, "parent_name": "Nakhon Ratchasima Province", "parent_iso": "TH-30"}, "geometry": {"type": "Polygon", "coordinates": [[[102.4841, 15.0813], [102.4912, 15.0879], [102.4912, 15.096], [102.4969, 15.0984], [102.5333, 15.0973], [102.5615, 15.0885], [102.5709, 15.0944], [102.5848, 15.1567], [102.6094, 15.1528], [102.6138, 15.1427], [102.6202, 15.1405], [102.6434, 15.1475], [102.654, 15.1633], [102.6672, 15.1623], [102.6742, 15.1685], [102.6698, 15.1813], [102.665, 15.182], [102.6687, 15.1896], [102.6635, 15.189], [102.6614, 15.1957], [102.6559, 15.1949], [102.6516, 15.2021], [102.656, 15.2147], [102.6525, 15.2163], [102.6615, 15.2245], [102.6559, 15.2316], [102.6569, 15.2407], [102.6666, 15.2458], [102.6609, 15.2561], [102.6744, 15.2572], [102.6707, 15.2632], [102.6814, 15.2771], [102.6772, 15.2804], [102.6845, 15.2862], [102.6821, 15.2917], [102.6921, 15.2935], [102.6955, 15.31], [102.678, 15.3146], [102.6604, 15.313], [102.6575, 15.3016], [102.6273, 15.2978], [102.6197, 15.301], [102.6123, 15.314], [102.6236, 15.3223], [102.619, 15.3384], [102.6244, 15.3407], [102.6185, 15.3422], [102.6243, 15.3471], [102.6282, 15.3451], [102.6314, 15.3584], [102.6372, 15.3613], [102.6443, 15.3544], [102.6429, 15.3621], [102.6486, 15.3655], [102.6522, 15.3594], [102.6635, 15.3636], [102.6665, 15.3566], [102.6734, 15.3576], [102.6712, 15.3613], [102.6803, 15.3654], [102.6793, 15.3699], [102.6828, 15.3679], [102.6854, 15.3753], [102.6891, 15.3737], [102.6848, 15.3882], [102.6988, 15.4316], [102.6998, 15.4573], [102.7122, 15.4716], [102.7074, 15.4861], [102.7028, 15.4829], [102.705, 15.4785], [102.6916, 15.4769], [102.6909, 15.4729], [102.679, 15.4725], [102.6732, 15.4771], [102.663, 15.469], [102.6492, 15.4699], [102.6529, 15.4634], [102.6386, 15.4634], [102.6392, 15.4678], [102.6333, 15.4698], [102.6342, 15.4659], [102.6238, 15.4626], [102.6252, 15.4586], [102.6167, 15.4565], [102.6139, 15.4452], [102.6089, 15.4479], [102.6107, 15.4399], [102.6044, 15.433], [102.6069, 15.4263], [102.5972, 15.4179], [102.5764, 15.4208], [102.5499, 15.3913], [102.5415, 15.3739], [102.5082, 15.3679], [102.5084, 15.358], [102.4961, 15.3559], [102.4997, 15.347], [102.4852, 15.3462], [102.4888, 15.3425], [102.4844, 15.3429], [102.4845, 15.337], [102.4759, 15.3413], [102.4769, 15.3344], [102.4641, 15.3345], [102.4665, 15.3295], [102.4535, 15.3254], [102.4566, 15.3187], [102.4422, 15.3112], [102.4423, 15.3001], [102.4304, 15.2961], [102.4282, 15.2831], [102.4184, 15.273], [102.4355, 15.25], [102.4053, 15.2414], [102.383, 15.2288], [102.3768, 15.223], [102.3789, 15.2189], [102.3668, 15.2125], [102.3785, 15.1874], [102.3734, 15.1751], [102.3682, 15.1735], [102.3741, 15.1645], [102.3685, 15.1619], [102.3699, 15.1504], [102.3762, 15.1334], [102.3815, 15.1336], [102.397, 15.1195], [102.3909, 15.1091], [102.3997, 15.1071], [102.3964, 15.101], [102.4041, 15.0913], [102.4025, 15.0821], [102.4266, 15.0816], [102.4505, 15.0678], [102.4662, 15.0689], [102.4841, 15.0813]]]}}, {"type": "Feature", "properties": {"osm_type": "relation", "osm_id": 796339926, "name": "Phra Thong Kham", "admin_level": "6", "kind": "subdivision_2", "parent_osm_id": 1908790, "parent_name": "Nakhon Ratchasima Province", "parent_iso": "TH-30"}, "geometry": {"type": "Polygon", "coordinates": [[[101.8785, 15.3893], [101.8763, 15.3837], [101.8831, 15.3726], [101.9165, 15.353], [101.9235, 15.3453], [101.9239, 15.3343], [101.9337, 15.3309], [101.9196, 15.3166], [101.9324, 15.2906], [101.9507, 15.2802], [101.94, 15.2606], [101.94, 15.2516], [101.9476, 15.2455], [101.9693, 15.241], [101.9737, 15.2218], [101.9784, 15.2209], [101.976, 15.2288], [101.9853, 15.235], [102.0035, 15.2383], [102.0138, 15.2468], [102.0182, 15.2527], [102.0149, 15.2636], [102.005, 15.2618], [102.0051, 15.2662], [102.0106, 15.2725], [102.0255, 15.2757], [102.0257, 15.2932], [102.035, 15.294], [102.0358, 15.3044], [102.0614, 15.2776], [102.0749, 15.2851], [102.0791, 15.2994], [102.1106, 15.3116], [102.0862, 15.3178], [102.0804, 15.3343], [102.0716, 15.3384], [102.061, 15.3546], [102.0681, 15.3626], [102.0708, 15.3766], [102.0486, 15.3866], [102.044, 15.415], [102.0476, 15.4333], [102.0172, 15.4476], [102.01, 15.4582], [101.9996, 15.4625], [101.9891, 15.4646], [101.9533, 15.4547], [101.9374, 15.4564], [101.9317, 15.4362], [101.9124, 15.4356], [101.9107, 15.4217], [101.8785, 15.3893]]]}}, {"type": "Feature", "properties": {"osm_type": "relation", "osm_id": 389724794, "name": "Prathai", "admin_level": "6", "kind": "subdivision_2", "parent_osm_id": 1908790, "parent_name": "Nakhon Ratchasima Province", "parent_iso": "TH-30"}, "geometry": {"type": "Polygon", "coordinates": [[[102.7766, 15.6336], [102.7806, 15.639], [102.7763, 15.6431], [102.7784, 15.6491], [102.7709, 15.6543], [102.7614, 15.6529], [102.748, 15.662], [102.7476, 15.6702], [102.7165, 15.6661], [102.7125, 15.6815], [102.6896, 15.7026], [102.6941, 15.7198], [102.6824, 15.7285], [102.6681, 15.7156], [102.6385, 15.7149], [102.6134, 15.7276], [102.6021, 15.723], [102.5975, 15.7071], [102.6048, 15.6785], [102.6028, 15.6698], [102.6169, 15.6439], [102.6168, 15.6032], [102.6237, 15.5741], [102.6156, 15.534], [102.5936, 15.5179], [102.5978, 15.499], [102.5913, 15.491], [102.5924, 15.4799], [102.5986, 15.4748], [102.5934, 15.4569], [102.6, 15.4423], [102.6089, 15.4479], [102.6139, 15.4452], [102.6167, 15.4565], [102.6252, 15.4586], [102.6238, 15.4626], [102.6342, 15.4659], [102.6333, 15.4698], [102.6392, 15.4678], [102.6386, 15.4634], [102.6529, 15.4634], [102.6492, 15.4699], [102.663, 15.469], [102.6732, 15.4771], [102.679, 15.4725], [102.6909, 15.4729], [102.6916, 15.4769], [102.705, 15.4785], [102.7028, 15.4829], [102.7074, 15.4861], [102.7122, 15.4716], [102.7002, 15.4528], [102.7327, 15.4352], [102.7458, 15.4307], [102.7741, 15.433], [102.793, 15.4457], [102.8412, 15.5027], [102.8315, 15.5115], [102.8296, 15.5053], [102.8254, 15.5141], [102.8149, 15.5129], [102.8121, 15.5246], [102.7966, 15.5313], [102.799, 15.5397], [102.7926, 15.5424], [102.7962, 15.5461], [102.7894, 15.5468], [102.7924, 15.5565], [102.7861, 15.5558], [102.7805, 15.5636], [102.7853, 15.5708], [102.7803, 15.5738], [102.7846, 15.5752], [102.7813, 15.5805], [102.7844, 15.5848], [102.7827, 15.5915], [102.777, 15.5923], [102.78, 15.6029], [102.7671, 15.6263], [102.7766, 15.6336]]]}}, {"type": "Feature", "properties": {"osm_type": "relation", "osm_id": 795777940, "name": "Sida", "admin_level": "6", "kind": "subdivision_2", "parent_osm_id": 1908790, "parent_name": "Nakhon Ratchasima Province", "parent_iso": "TH-30"}, "geometry": {"type": "Polygon", "coordinates": [[[102.5064, 15.6107], [102.5043, 15.5971], [102.5194, 15.587], [102.5238, 15.5772], [102.5218, 15.5506], [102.5074, 15.5508], [102.5072, 15.5448], [102.4841, 15.5535], [102.4605, 15.5528], [102.4663, 15.5413], [102.4611, 15.5336], [102.4665, 15.5296], [102.4627, 15.5186], [102.47, 15.513], [102.4732, 15.4885], [102.5026, 15.4807], [102.5244, 15.4621], [102.5224, 15.4779], [102.5324, 15.4836], [102.5372, 15.4958], [102.534, 15.5037], [102.541, 15.5116], [102.5363, 15.5343], [102.6083, 15.5309], [102.618, 15.5386], [102.6237, 15.5741], [102.6168, 15.6032], [102.6169, 15.6439], [102.6028, 15.6698], [102.5778, 15.623], [102.5493, 15.6259], [102.5396, 15.6182], [102.5167, 15.6145], [102.5142, 15.6231], [102.5064, 15.6107]]]}}, {"type": "Feature", "properties": {"osm_type": "relation", "osm_id": 465292803, "name": "Sikhio", "admin_level": "6", "kind": "subdivision_2", "parent_osm_id": 1908790, "parent_name": "Nakhon Ratchasima Province", "parent_iso": "TH-30"}, "geometry": {"type": "Polygon", "coordinates": [[[101.3997, 15.1018], [101.396, 15.0991], [101.4029, 15.0623], [101.415, 15.0449], [101.4181, 15.0219], [101.4255, 15.0133], [101.4205, 14.9964], [101.4325, 14.972], [101.4308, 14.9501], [101.4393, 14.9273], [101.4448, 14.9238], [101.4486, 14.9022], [101.4563, 14.9012], [101.464, 14.8791], [101.4752, 14.8716], [101.4752, 14.8637], [101.4853, 14.8577], [101.4917, 14.8417], [101.516, 14.832], [101.5478, 14.8503], [101.5589, 14.8452], [101.5623, 14.8279], [101.5519, 14.8114], [101.547, 14.7773], [101.5705, 14.7682], [101.578, 14.7567], [101.6017, 14.7524], [101.6115, 14.7414], [101.6166, 14.714], [101.6418, 14.7172], [101.6547, 14.7024], [101.6787, 14.6931], [101.6879, 14.7127], [101.6803, 14.7185], [101.6751, 14.7366], [101.6905, 14.7551], [101.7046, 14.7569], [101.7158, 14.7756], [101.7116, 14.7834], [101.7157, 14.7936], [101.7113, 14.7957], [101.7126, 14.8056], [101.7037, 14.8198], [101.6957, 14.8221], [101.6928, 14.8427], [101.7081, 14.8579], [101.7148, 14.8553], [101.7213, 14.8591], [101.726, 14.8675], [101.7325, 14.8657], [101.7393, 14.8732], [101.7569, 14.8724], [101.7598, 14.8807], [101.7667, 14.8801], [101.77, 14.8862], [101.7859, 14.8837], [101.7797, 14.9108], [101.7843, 14.9221], [101.7588, 14.966], [101.7644, 15.0053], [101.787, 15.0513], [101.7752, 15.0666], [101.7577, 15.0766], [101.7387, 15.0652], [101.7136, 15.0752], [101.7, 15.0615], [101.6852, 15.0707], [101.6555, 15.0698], [101.6346, 15.0781], [101.6315, 15.098], [101.5921, 15.0989], [101.567, 15.0931], [101.5505, 15.1053], [101.511, 15.0978], [101.5001, 15.1111], [101.4741, 15.1158], [101.4498, 15.1056], [101.4344, 15.106], [101.4183, 15.0961], [101.3997, 15.1018]]]}}, {"type": "Feature", "properties": {"osm_type": "relation", "osm_id": 417045183, "name": "Soeng Sang", "admin_level": "6", "kind": "subdivision_2", "parent_osm_id": 1908790, "parent_name": "Nakhon Ratchasima Province", "parent_iso": "TH-30"}, "geometry": {"type": "Polygon", "coordinates": [[[102.3593, 14.1659], [102.3886, 14.1445], [102.4005, 14.1458], [102.4093, 14.1566], [102.4345, 14.1546], [102.4532, 14.1937], [102.4688, 14.1919], [102.4769, 14.2], [102.4863, 14.1893], [102.4988, 14.1861], [102.5122, 14.2012], [102.5383, 14.2022], [102.5487, 14.2166], [102.5779, 14.2267], [102.6265, 14.2662], [102.6863, 14.2992], [102.6773, 14.3022], [102.6659, 14.3167], [102.6428, 14.3266], [102.6208, 14.3198], [102.6027, 14.3225], [102.5873, 14.3351], [102.5883, 14.3484], [102.5835, 14.358], [102.5691, 14.3625], [102.5629, 14.3751], [102.5646, 14.4037], [102.5695, 14.4267], [102.5834, 14.4457], [102.5994, 14.4476], [102.6071, 14.465], [102.6106, 14.4941], [102.5307, 14.5063], [102.4933, 14.5047], [102.4813, 14.512], [102.4914, 14.5325], [102.4955, 14.5648], [102.4667, 14.5861], [102.4711, 14.5914], [102.4712, 14.6145], [102.4314, 14.5919], [102.415, 14.5621], [102.4131, 14.5237], [102.3925, 14.5014], [102.3803, 14.4685], [102.3769, 14.4457], [102.3794, 14.3988], [102.3734, 14.3754], [102.3657, 14.374], [102.3649, 14.3542], [102.38, 14.3396], [102.3667, 14.3148], [102.3795, 14.2996], [102.3636, 14.2921], [102.3555, 14.273], [102.3594, 14.2592], [102.3762, 14.2392], [102.3622, 14.2231], [102.3671, 14.201], [102.3651, 14.1761], [102.3593, 14.1659]]]}}, {"type": "Feature", "properties": {"osm_type": "relation", "osm_id": 532435198, "name": "Sung Noen", "admin_level": "6", "kind": "subdivision_2", "parent_osm_id": 1908790, "parent_name": "Nakhon Ratchasima Province", "parent_iso": "TH-30"}, "geometry": {"type": "Polygon", "coordinates": [[[101.787, 15.0513], [101.7644, 15.0053], [101.7588, 14.966], [101.7843, 14.9221], [101.7797, 14.9108], [101.7859, 14.8837], [101.77, 14.8862], [101.7667, 14.8801], [101.7598, 14.8807], [101.7569, 14.8724], [101.7393, 14.8732], [101.7325, 14.8657], [101.726, 14.8675], [101.7213, 14.8591], [101.7148, 14.8553], [101.7081, 14.8579], [101.6928, 14.8427], [101.6957, 14.8221], [101.7037, 14.8198], [101.7126, 14.8056], [101.7113, 14.7957], [101.7157, 14.7936], [101.7116, 14.7834], [101.7158, 14.7756], [101.7046, 14.7569], [101.6905, 14.7551], [101.6751, 14.7366], [101.6803, 14.7185], [101.6879, 14.7127], [101.6787, 14.6931], [101.6928, 14.6829], [101.7079, 14.6854], [101.7032, 14.7072], [101.7129, 14.7221], [101.7372, 14.7333], [101.7718, 14.7192], [101.7792, 14.7012], [101.7898, 14.7029], [101.8079, 14.697], [101.8153, 14.686], [101.8361, 14.6873], [101.8446, 14.6938], [101.8539, 14.6898], [101.8518, 14.6961], [101.8576, 14.7042], [101.8716, 14.7018], [101.8818, 14.7116], [101.8785, 14.7197], [101.8875, 14.7229], [101.8972, 14.7176], [101.9002, 14.7271], [101.9144, 14.7339], [101.9151, 14.7407], [101.9055, 14.7423], [101.8915, 14.7567], [101.8919, 14.7618], [101.9223, 14.7703], [101.9576, 14.807], [101.9623, 14.8216], [101.9684, 14.823], [101.9603, 14.8444], [101.9602, 14.8661], [101.9434, 14.8778], [101.9352, 14.8932], [101.9345, 14.9185], [101.9419, 14.9312], [101.9391, 14.934], [101.9315, 14.9296], [101.9146, 14.9378], [101.9047, 14.9324], [101.8997, 14.9409], [101.9041, 14.9542], [101.8877, 14.9941], [101.8905, 15.0132], [101.8844, 15.0462], [101.8509, 15.0711], [101.8317, 15.0756], [101.8093, 15.0704], [101.787, 15.0513]]]}}, {"type": "Feature", "properties": {"osm_type": "relation", "osm_id": 158434737, "name": "Wang Nam Khiao", "admin_level": "6", "kind": "subdivision_2", "parent_osm_id": 1908790, "parent_name": "Nakhon Ratchasima Province", "parent_iso": "TH-30"}, "geometry": {"type": "Polygon", "coordinates": [[[102.0473, 14.5453], [102.0156, 14.5635], [102.0104, 14.5727], [102.013, 14.579], [101.9956, 14.5834], [101.9897, 14.566], [101.9705, 14.5694], [101.95, 14.5559], [101.9475, 14.5477], [101.9149, 14.548], [101.8933, 14.5357], [101.8729, 14.4994], [101.857, 14.4992], [101.8353, 14.5159], [101.8356, 14.5093], [101.8311, 14.5068], [101.8212, 14.5058], [101.8132, 14.5109], [101.8025, 14.5051], [101.7809, 14.5165], [101.78, 14.5062], [101.7725, 14.5173], [101.7644, 14.5182], [101.7653, 14.5376], [101.7565, 14.5462], [101.7872, 14.6085], [101.7678, 14.6028], [101.7541, 14.6054], [101.757, 14.6216], [101.7489, 14.6277], [101.7438, 14.6402], [101.7323, 14.6443], [101.7198, 14.6315], [101.7093, 14.6356], [101.7044, 14.6242], [101.6935, 14.6291], [101.6848, 14.626], [101.6835, 14.6193], [101.6886, 14.615], [101.6804, 14.5922], [101.6838, 14.5825], [101.6735, 14.5757], [101.6891, 14.5729], [101.6902, 14.5643], [101.7004, 14.5557], [101.7138, 14.5318], [101.7308, 14.5318], [101.7238, 14.5276], [101.7225, 14.5104], [101.7164, 14.5045], [101.7249, 14.5017], [101.7324, 14.5061], [101.7342, 14.5012], [101.739, 14.5043], [101.744, 14.5008], [101.7288, 14.4784], [101.7346, 14.4722], [101.732, 14.466], [101.7165, 14.4553], [101.7071, 14.4569], [101.7053, 14.4617], [101.6933, 14.4657], [101.6962, 14.4708], [101.69, 14.4776], [101.6873, 14.4713], [101.6769, 14.4732], [101.6767, 14.4898], [101.6639, 14.4841], [101.664, 14.4797], [101.6469, 14.4864], [101.6398, 14.4735], [101.6467, 14.4241], [101.6318, 14.4205], [101.6228, 14.4277], [101.6189, 14.4166], [101.6272, 14.4134], [101.6306, 14.4062], [101.6488, 14.4039], [101.649, 14.3925], [101.6584, 14.3903], [101.7089, 14.3346], [101.7415, 14.3084], [101.7505, 14.3246], [101.7467, 14.3323], [101.7486, 14.3488], [101.7582, 14.3434], [101.7715, 14.345], [101.7733, 14.3506], [101.7809, 14.3525], [101.7797, 14.3572], [101.7885, 14.3597], [101.8122, 14.3477], [101.8237, 14.3503], [101.8299, 14.3619], [101.8401, 14.3652], [101.8385, 14.3525], [101.8594, 14.3419], [101.8777, 14.3226], [101.8922, 14.3211], [101.8943, 14.3306], [101.9104, 14.3258], [101.9172, 14.3322], [101.9291, 14.3271], [101.9434, 14.3024], [101.9284, 14.2877], [101.9444, 14.2477], [101.9821, 14.2381], [101.9666, 14.2278], [101.9952, 14.2309], [102.0195, 14.249], [102.0012, 14.2819], [102.0106, 14.2873], [102.0108, 14.2965], [102.0212, 14.2986], [102.0181, 14.3008], [102.0228, 14.3025], [102.0255, 14.3181], [102.045, 14.3248], [102.0439, 14.3357], [102.0491, 14.3435], [102.0651, 14.348], [102.0703, 14.3574], [102.0549, 14.391], [102.0667, 14.3987], [102.0686, 14.4057], [102.0538, 14.4078], [102.0632, 14.4248], [102.0582, 14.439], [102.045, 14.4521], [102.0463, 14.4696], [102.0404, 14.4788], [102.051, 14.5128], [102.0313, 14.5225], [102.0449, 14.5306], [102.042, 14.5393], [102.0473, 14.5453]]]}}]}