{"type": "FeatureCollection", "parent": {"osm_id": 1908801, "name": "Phayao Province", "admin_level": "4", "kind": "subdivision_1", "child_kind": "subdivision_2", "iso": "TH-56"}, "features": [{"type": "Feature", "properties": {"osm_type": "relation", "osm_id": 728269315, "name": "Chiang Kham", "admin_level": "6", "kind": "subdivision_2", "parent_osm_id": 1908801, "parent_name": "Phayao Province", "parent_iso": "TH-56"}, "geometry": {"type": "Polygon", "coordinates": [[[100.4899, 19.5699], [100.4454, 19.5715], [100.4256, 19.58], [100.3843, 19.5703], [100.3718, 19.574], [100.356, 19.569], [100.3407, 19.5709], [100.3202, 19.5497], [100.3068, 19.5512], [100.3023, 19.5469], [100.294, 19.5588], [100.289, 19.5517], [100.2765, 19.5509], [100.2565, 19.5568], [100.2527, 19.5649], [100.2492, 19.5991], [100.2559, 19.6077], [100.256, 19.622], [100.2545, 19.6329], [100.247, 19.6344], [100.2299, 19.6058], [100.219, 19.611], [100.2077, 19.6073], [100.1871, 19.6097], [100.184, 19.6138], [100.1789, 19.6093], [100.1744, 19.6112], [100.1761, 19.6083], [100.1678, 19.6019], [100.1735, 19.5982], [100.1667, 19.5912], [100.1701, 19.587], [100.1646, 19.5848], [100.1689, 19.5756], [100.1623, 19.5739], [100.162, 19.5685], [100.1687, 19.5656], [100.1622, 19.5564], [100.1658, 19.5517], [100.1622, 19.5512], [100.1621, 19.5426], [100.1536, 19.5457], [100.1574, 19.5395], [100.152, 19.5392], [100.1607, 19.529], [100.1554, 19.5266], [100.1564, 19.5196], [100.1476, 19.5202], [100.1488, 19.5121], [100.1435, 19.5126], [100.1466, 19.5087], [100.1422, 19.5046], [100.1635, 19.4949], [100.16, 19.4865], [100.1703, 19.4796], [100.1628, 19.4733], [100.1676, 19.4687], [100.1805, 19.4678], [100.1841, 19.4731], [100.2097, 19.4545], [100.2027, 19.4344], [100.2125, 19.43], [100.2135, 19.4175], [100.202, 19.4139], [100.2172, 19.3761], [100.2355, 19.3456], [100.2524, 19.3497], [100.2546, 19.3443], [100.276, 19.3329], [100.2861, 19.338], [100.2857, 19.3427], [100.3091, 19.3397], [100.3126, 19.3626], [100.333, 19.3718], [100.3468, 19.3579], [100.3539, 19.3633], [100.3582, 19.3928], [100.3684, 19.3789], [100.3852, 19.3703], [100.3954, 19.3969], [100.421, 19.4023], [100.4476, 19.3935], [100.467, 19.4003], [100.4924, 19.3988], [100.5262, 19.4089], [100.5643, 19.4357], [100.5654, 19.4539], [100.5712, 19.4636], [100.5831, 19.4755], [100.6025, 19.4792], [100.5986, 19.5101], [100.5745, 19.4996], [100.5488, 19.52], [100.5338, 19.5247], [100.5238, 19.5193], [100.5127, 19.5239], [100.5016, 19.5385], [100.4831, 19.5487], [100.4814, 19.5595], [100.4899, 19.5699]]]}}, {"type": "Feature", "properties": {"osm_type": "relation", "osm_id": 678939916, "name": "Chiang Muan", "admin_level": "6", "kind": "subdivision_2", "parent_osm_id": 1908801, "parent_name": "Phayao Province", "parent_iso": "TH-56"}, "geometry": {"type": "Polygon", "coordinates": [[[100.5009, 18.9861], [100.5041, 18.9958], [100.4819, 19.0027], [100.4595, 19.0029], [100.4449, 19.0179], [100.4469, 19.0328], [100.4339, 19.0313], [100.4262, 19.0368], [100.4005, 19.0347], [100.3848, 19.04], [100.3712, 19.0367], [100.3619, 19.0422], [100.3469, 19.043], [100.3454, 19.0588], [100.3212, 19.0701], [100.3112, 19.0687], [100.3082, 19.0532], [100.2918, 19.0487], [100.2876, 19.0391], [100.277, 19.0343], [100.2712, 19.0215], [100.2503, 19.0135], [100.2487, 19.0273], [100.2337, 19.0232], [100.2316, 19.0276], [100.2244, 19.0255], [100.2219, 19.0312], [100.1549, 19.0076], [100.1283, 19.0117], [100.1114, 19.0254], [100.1054, 19.0149], [100.1083, 19.002], [100.1168, 18.9956], [100.1148, 18.979], [100.1269, 18.9725], [100.1225, 18.9567], [100.1298, 18.9474], [100.1488, 18.9397], [100.1573, 18.9018], [100.1516, 18.8971], [100.1518, 18.883], [100.1412, 18.8778], [100.1493, 18.8716], [100.1509, 18.8411], [100.1736, 18.8134], [100.1875, 18.8191], [100.199, 18.8145], [100.2263, 18.8255], [100.2414, 18.8195], [100.2494, 18.8227], [100.2555, 18.819], [100.302, 18.8185], [100.3125, 18.8101], [100.3384, 18.8132], [100.3404, 18.806], [100.3451, 18.8139], [100.3361, 18.8194], [100.364, 18.8485], [100.3662, 18.8701], [100.3885, 18.8938], [100.391, 18.9257], [100.4067, 18.9357], [100.4051, 18.9447], [100.4239, 18.9485], [100.4419, 18.9442], [100.4542, 18.9347], [100.4586, 18.9425], [100.4822, 18.9518], [100.4814, 18.9661], [100.4895, 18.9689], [100.5009, 18.9861]]]}}, {"type": "Feature", "properties": {"osm_type": "relation", "osm_id": 514767280, "name": "Chun", "admin_level": "6", "kind": "subdivision_2", "parent_osm_id": 1908801, "parent_name": "Phayao Province", "parent_iso": "TH-56"}, "geometry": {"type": "Polygon", "coordinates": [[[100.1536, 19.5457], [100.0984, 19.5545], [100.0837, 19.5522], [100.0678, 19.5403], [100.0653, 19.5001], [100.07, 19.4837], [100.0656, 19.4701], [100.0705, 19.4576], [100.0649, 19.4424], [100.072, 19.4342], [100.0678, 19.4313], [100.0562, 19.4354], [100.0538, 19.4314], [100.0571, 19.4144], [100.0506, 19.3908], [100.0583, 19.3633], [100.051, 19.3535], [100.0703, 19.3457], [100.073, 19.3373], [100.0814, 19.3348], [100.0733, 19.3196], [100.078, 19.3171], [100.0694, 19.2974], [100.0987, 19.2998], [100.105, 19.2856], [100.107, 19.2782], [100.0966, 19.2689], [100.106, 19.2555], [100.1051, 19.2282], [100.1149, 19.2042], [100.115, 19.1919], [100.1208, 19.1911], [100.1148, 19.1571], [100.1253, 19.1551], [100.136, 19.1912], [100.1444, 19.2037], [100.1739, 19.2175], [100.1912, 19.2318], [100.2062, 19.2256], [100.2128, 19.2276], [100.2257, 19.2654], [100.2437, 19.2586], [100.2645, 19.2629], [100.2605, 19.2879], [100.2502, 19.2938], [100.2441, 19.3041], [100.2463, 19.3123], [100.2329, 19.32], [100.2276, 19.3336], [100.2374, 19.3408], [100.202, 19.4139], [100.2135, 19.4175], [100.2125, 19.43], [100.2027, 19.4344], [100.2097, 19.4545], [100.1841, 19.4731], [100.1805, 19.4678], [100.1676, 19.4687], [100.1628, 19.4733], [100.1703, 19.4796], [100.16, 19.4865], [100.1635, 19.4949], [100.1422, 19.5046], [100.1466, 19.5087], [100.1435, 19.5126], [100.1488, 19.5121], [100.1476, 19.5202], [100.1564, 19.5196], [100.1554, 19.5266], [100.1607, 19.529], [100.1537, 19.5331], [100.152, 19.5392], [100.1574, 19.5395], [100.1536, 19.5457]]]}}, {"type": "Feature", "properties": {"osm_type": "relation", "osm_id": 733670928, "name": "Dok Khamtai", "admin_level": "6", "kind": "subdivision_2", "parent_osm_id": 1908801, "parent_name": "Phayao Province", "parent_iso": "TH-56"}, "geometry": {"type": "Polygon", "coordinates": [[[100.1114, 19.0254], [100.1112, 19.0334], [100.1156, 19.0389], [100.1192, 19.0369], [100.125, 19.0587], [100.1139, 19.0656], [100.107, 19.0772], [100.1089, 19.1173], [100.1143, 19.123], [100.1122, 19.1457], [100.1208, 19.1911], [100.115, 19.1919], [100.1149, 19.2042], [100.1051, 19.2282], [100.106, 19.2555], [100.0966, 19.2689], [100.107, 19.2782], [100.0987, 19.2998], [100.0694, 19.2974], [100.078, 19.3171], [100.0733, 19.3196], [100.0814, 19.3348], [100.073, 19.3373], [100.0703, 19.3457], [100.051, 19.3535], [100.0583, 19.3633], [100.0506, 19.3908], [100.0571, 19.4144], [100.0552, 19.4295], [100.0494, 19.4351], [100.0512, 19.4406], [100.0395, 19.4451], [100.0309, 19.4426], [100.0274, 19.4361], [100.0102, 19.4389], [100.0133, 19.4282], [100.005, 19.4291], [100.0083, 19.4192], [100.0046, 19.4215], [99.9996, 19.4139], [100.0056, 19.4031], [100.0139, 19.4028], [100.0265, 19.3874], [100.0126, 19.3894], [100.0096, 19.3869], [100.013, 19.385], [100.0021, 19.3811], [100.0052, 19.3769], [99.9976, 19.3677], [99.9974, 19.3605], [100.0035, 19.3588], [100.0028, 19.3458], [100.0085, 19.3492], [100.0149, 19.3436], [100.0085, 19.3382], [100.012, 19.33], [100.0149, 19.3325], [100.0185, 19.3283], [100.0135, 19.3142], [100.0255, 19.3056], [100.0227, 19.2963], [100.0158, 19.2924], [100.02, 19.2816], [100.0155, 19.2811], [100.0175, 19.2769], [100.011, 19.2692], [100.0159, 19.2623], [99.9953, 19.2316], [99.9921, 19.2181], [99.9776, 19.2115], [99.9748, 19.2139], [99.9736, 19.2074], [99.9648, 19.205], [99.9652, 19.1987], [99.9595, 19.1994], [99.9576, 19.194], [99.9496, 19.194], [99.9493, 19.1894], [99.9394, 19.1862], [99.9341, 19.1655], [99.9203, 19.1614], [99.9777, 19.1142], [99.9827, 19.0937], [100.016, 19.0436], [100.0195, 19.031], [100.0123, 19.0165], [100.0173, 19.0008], [100.008, 18.9912], [100.0071, 18.982], [100.0115, 18.9769], [100.002, 18.964], [100.0086, 18.9611], [100.0143, 18.9515], [100.011, 18.9472], [100.0204, 18.9374], [100.0163, 18.9244], [100.0271, 18.8975], [100.0338, 18.9023], [100.0396, 18.8906], [100.0612, 18.88], [100.0703, 18.8653], [100.0688, 18.8444], [100.0609, 18.8296], [100.0661, 18.8275], [100.0663, 18.8167], [100.0859, 18.8278], [100.1005, 18.8142], [100.114, 18.8086], [100.1173, 18.8196], [100.1334, 18.8171], [100.1559, 18.8355], [100.1509, 18.8411], [100.1493, 18.8716], [100.1412, 18.8778], [100.1518, 18.883], [100.1562, 18.9128], [100.1488, 18.9397], [100.1298, 18.9474], [100.1225, 18.9567], [100.1269, 18.9725], [100.1148, 18.979], [100.1168, 18.9956], [100.1083, 19.002], [100.1054, 19.0149], [100.1114, 19.0254]]]}}, {"type": "Feature", "properties": {"osm_type": "relation", "osm_id": 406792279, "name": "Mae Chai", "admin_level": "6", "kind": "subdivision_2", "parent_osm_id": 1908801, "parent_name": "Phayao Province", "parent_iso": "TH-56"}, "geometry": {"type": "Polygon", "coordinates": [[[99.9144, 19.4325], [99.8991, 19.4257], [99.8944, 19.4376], [99.875, 19.4552], [99.8639, 19.4459], [99.8438, 19.4446], [99.7869, 19.451], [99.7751, 19.4417], [99.7553, 19.4411], [99.7314, 19.4242], [99.7141, 19.4196], [99.7065, 19.4254], [99.6993, 19.4196], [99.6829, 19.4223], [99.6886, 19.393], [99.6957, 19.3808], [99.6914, 19.3598], [99.7076, 19.3443], [99.7043, 19.3223], [99.7404, 19.316], [99.7734, 19.2902], [99.816, 19.2982], [99.8198, 19.3116], [99.8271, 19.3111], [99.8229, 19.3202], [99.8259, 19.3259], [99.8291, 19.3282], [99.8391, 19.3201], [99.8511, 19.3211], [99.8647, 19.3308], [99.8691, 19.3557], [99.8902, 19.3521], [99.8947, 19.3624], [99.8878, 19.3781], [99.8917, 19.3823], [99.8989, 19.3804], [99.8954, 19.3853], [99.8978, 19.3932], [99.92, 19.4064], [99.9144, 19.4325]]]}}, {"type": "Feature", "properties": {"osm_type": "relation", "osm_id": 455408255, "name": "Mueang Phayao", "admin_level": "6", "kind": "subdivision_2", "parent_osm_id": 1908801, "parent_name": "Phayao Province", "parent_iso": "TH-56"}, "geometry": {"type": "Polygon", "coordinates": [[[99.9648, 19.205], [99.9594, 19.2123], [99.9518, 19.2078], [99.9448, 19.2122], [99.9286, 19.2304], [99.9287, 19.2414], [99.9132, 19.2512], [99.9264, 19.3054], [99.93, 19.3624], [99.92, 19.4064], [99.8978, 19.3932], [99.8954, 19.3853], [99.8989, 19.3804], [99.8917, 19.3823], [99.8878, 19.3781], [99.8947, 19.3624], [99.8902, 19.3521], [99.8691, 19.3557], [99.8647, 19.3308], [99.8511, 19.3211], [99.8391, 19.3201], [99.8291, 19.3282], [99.8259, 19.3259], [99.8229, 19.3202], [99.8271, 19.3111], [99.8198, 19.3116], [99.812, 19.2964], [99.7734, 19.2902], [99.7404, 19.316], [99.7043, 19.3223], [99.698, 19.3054], [99.7053, 19.2761], [99.7031, 19.2445], [99.7099, 19.2374], [99.7141, 19.2115], [99.7286, 19.1815], [99.7261, 19.1699], [99.7391, 19.1591], [99.7436, 19.1422], [99.7586, 19.134], [99.7635, 19.09], [99.7743, 19.076], [99.7733, 19.0642], [99.7822, 19.0556], [99.7955, 19.0531], [99.8193, 19.0614], [99.8215, 19.0482], [99.8337, 19.0391], [99.83, 19.0319], [99.8351, 19.0264], [99.8341, 19.0171], [99.8292, 19.0114], [99.8381, 19.002], [99.8541, 19.0029], [99.8715, 18.9963], [99.8811, 19.0003], [99.8891, 18.988], [99.9058, 18.9828], [99.9116, 18.988], [99.9272, 18.9779], [99.9543, 18.934], [99.9966, 18.9049], [100.0018, 18.9076], [100.0215, 18.8953], [100.0271, 18.8975], [100.0163, 18.9244], [100.0204, 18.9374], [100.011, 18.9472], [100.0143, 18.9515], [100.0086, 18.9611], [100.002, 18.964], [100.0115, 18.9769], [100.0071, 18.982], [100.008, 18.9912], [100.0173, 19.0008], [100.0123, 19.0165], [100.0195, 19.031], [100.016, 19.0436], [99.9827, 19.0937], [99.9777, 19.1142], [99.9203, 19.1614], [99.9341, 19.1655], [99.9394, 19.1862], [99.9493, 19.1894], [99.9496, 19.194], [99.9576, 19.194], [99.9595, 19.1994], [99.9652, 19.1987], [99.9648, 19.205]]]}}, {"type": "Feature", "properties": {"osm_type": "relation", "osm_id": 718277374, "name": "Phu Kamyao", "admin_level": "6", "kind": "subdivision_2", "parent_osm_id": 1908801, "parent_name": "Phayao Province", "parent_iso": "TH-56"}, "geometry": {"type": "Polygon", "coordinates": [[[100.005, 19.4291], [99.9981, 19.4357], [99.992, 19.429], [99.9862, 19.4328], [99.9736, 19.4276], [99.9478, 19.4285], [99.9423, 19.4196], [99.92, 19.4064], [99.93, 19.3624], [99.9264, 19.3054], [99.9132, 19.2512], [99.9287, 19.2414], [99.9286, 19.2304], [99.9448, 19.2122], [99.9518, 19.2078], [99.9594, 19.2123], [99.9648, 19.205], [99.9736, 19.2074], [99.9748, 19.2139], [99.9852, 19.2136], [99.9935, 19.2201], [99.9953, 19.2316], [100.0159, 19.2623], [100.011, 19.2692], [100.0175, 19.2769], [100.0155, 19.2811], [100.02, 19.2816], [100.0158, 19.2924], [100.0256, 19.3022], [100.0248, 19.309], [100.0135, 19.3142], [100.0185, 19.3283], [100.0149, 19.3325], [100.012, 19.33], [100.0085, 19.3382], [100.0149, 19.3436], [100.0085, 19.3492], [100.0028, 19.3458], [100.0035, 19.3588], [99.9974, 19.3605], [100.0008, 19.3749], [100.0052, 19.3769], [100.0021, 19.3811], [100.013, 19.385], [100.0096, 19.3869], [100.0126, 19.3894], [100.0265, 19.3874], [100.0215, 19.3968], [100.0022, 19.4071], [99.9996, 19.4139], [100.0046, 19.4215], [100.0083, 19.4192], [100.005, 19.4291]]]}}, {"type": "Feature", "properties": {"osm_type": "relation", "osm_id": 569453740, "name": "Phu Sang", "admin_level": "6", "kind": "subdivision_2", "parent_osm_id": 1908801, "parent_name": "Phayao Province", "parent_iso": "TH-56"}, "geometry": {"type": "Polygon", "coordinates": [[[100.4899, 19.5699], [100.4919, 19.5786], [100.4843, 19.5873], [100.487, 19.5941], [100.4832, 19.61], [100.4602, 19.619], [100.4567, 19.6282], [100.4465, 19.6295], [100.4423, 19.6428], [100.4439, 19.6624], [100.4277, 19.6731], [100.4348, 19.693], [100.4458, 19.7071], [100.4377, 19.7195], [100.4066, 19.7361], [100.3961, 19.7288], [100.3852, 19.7102], [100.3738, 19.708], [100.3608, 19.7159], [100.337, 19.7086], [100.3337, 19.7026], [100.3416, 19.6878], [100.3315, 19.6794], [100.3178, 19.6498], [100.2904, 19.6427], [100.2835, 19.6436], [100.2803, 19.652], [100.2737, 19.6456], [100.2691, 19.6468], [100.2695, 19.6416], [100.2613, 19.6489], [100.253, 19.6417], [100.2559, 19.6077], [100.2492, 19.5991], [100.2565, 19.5568], [100.2765, 19.5509], [100.289, 19.5517], [100.294, 19.5588], [100.3044, 19.5471], [100.3068, 19.5512], [100.3262, 19.5534], [100.3407, 19.5709], [100.356, 19.569], [100.3718, 19.574], [100.3843, 19.5703], [100.4256, 19.58], [100.4454, 19.5715], [100.4899, 19.5699]]]}}, {"type": "Feature", "properties": {"osm_type": "relation", "osm_id": 783942329, "name": "Pong", "admin_level": "6", "kind": "subdivision_2", "parent_osm_id": 1908801, "parent_name": "Phayao Province", "parent_iso": "TH-56"}, "geometry": {"type": "Polygon", "coordinates": [[[100.2355, 19.3456], [100.2374, 19.3408], [100.2276, 19.3336], [100.2329, 19.32], [100.2463, 19.3123], [100.2441, 19.3041], [100.2502, 19.2938], [100.2605, 19.2879], [100.2645, 19.2629], [100.2437, 19.2586], [100.2257, 19.2654], [100.2128, 19.2276], [100.2062, 19.2256], [100.1912, 19.2318], [100.1739, 19.2175], [100.1444, 19.2037], [100.136, 19.1912], [100.1253, 19.1551], [100.1148, 19.1571], [100.1122, 19.1457], [100.1143, 19.123], [100.1089, 19.1173], [100.107, 19.0772], [100.1139, 19.0656], [100.125, 19.0587], [100.1192, 19.0369], [100.1156, 19.0389], [100.1112, 19.0334], [100.1114, 19.0254], [100.1422, 19.0068], [100.18, 19.0134], [100.2056, 19.0275], [100.2219, 19.0312], [100.2244, 19.0255], [100.2316, 19.0276], [100.2337, 19.0232], [100.2487, 19.0273], [100.2503, 19.0135], [100.2712, 19.0215], [100.277, 19.0343], [100.2876, 19.0391], [100.2918, 19.0487], [100.3082, 19.0532], [100.3146, 19.0703], [100.3402, 19.0633], [100.3454, 19.0588], [100.3469, 19.043], [100.3619, 19.0422], [100.3712, 19.0367], [100.3848, 19.04], [100.4005, 19.0347], [100.4262, 19.0368], [100.4339, 19.0313], [100.4469, 19.0328], [100.4449, 19.0179], [100.457, 19.0094], [100.4777, 19.0243], [100.4822, 19.0317], [100.4799, 19.0365], [100.4932, 19.0427], [100.4938, 19.0524], [100.5314, 19.0413], [100.5383, 19.0469], [100.5487, 19.0403], [100.5568, 19.0447], [100.5658, 19.0314], [100.5831, 19.0312], [100.6042, 19.0204], [100.6192, 19.0335], [100.6098, 19.0459], [100.5659, 19.0727], [100.564, 19.0764], [100.5682, 19.0787], [100.5635, 19.0796], [100.5723, 19.0917], [100.5685, 19.0987], [100.5729, 19.1043], [100.5854, 19.0953], [100.6019, 19.1048], [100.6096, 19.1015], [100.6233, 19.1114], [100.6259, 19.1229], [100.6226, 19.1385], [100.629, 19.1546], [100.6257, 19.172], [100.618, 19.1823], [100.6217, 19.1995], [100.6167, 19.227], [100.6001, 19.2522], [100.6049, 19.257], [100.6127, 19.317], [100.6163, 19.32], [100.6089, 19.3342], [100.5912, 19.3266], [100.5863, 19.314], [100.5697, 19.3048], [100.5612, 19.3116], [100.558, 19.3213], [100.5582, 19.3345], [100.5629, 19.3395], [100.53, 19.3532], [100.5339, 19.3673], [100.5212, 19.3807], [100.5057, 19.3713], [100.496, 19.3714], [100.4945, 19.3801], [100.4848, 19.383], [100.4893, 19.3877], [100.4881, 19.3996], [100.467, 19.4003], [100.4476, 19.3935], [100.421, 19.4023], [100.3954, 19.3969], [100.3852, 19.3703], [100.3684, 19.3789], [100.3582, 19.3928], [100.3539, 19.3633], [100.3468, 19.3579], [100.333, 19.3718], [100.3143, 19.3647], [100.3091, 19.3397], [100.2857, 19.3427], [100.2861, 19.338], [100.276, 19.3329], [100.2546, 19.3443], [100.2524, 19.3497], [100.2355, 19.3456]]]}}]}