{"type": "FeatureCollection", "parent": {"osm_id": 1908802, "name": "Phetchabun Province", "admin_level": "4", "kind": "subdivision_1", "child_kind": "subdivision_2", "iso": "TH-67"}, "features": [{"type": "Feature", "properties": {"osm_type": "relation", "osm_id": 102390247, "name": "Bueng Sam Phan", "admin_level": "6", "kind": "subdivision_2", "parent_osm_id": 1908802, "parent_name": "Phetchabun Province", "parent_iso": "TH-67"}, "geometry": {"type": "Polygon", "coordinates": [[[101.3643, 15.931], [101.3499, 15.9358], [101.3278, 15.9345], [101.3116, 15.9447], [101.3023, 15.9424], [101.2993, 15.9206], [101.2894, 15.9079], [101.2767, 15.914], [101.2824, 15.9193], [101.2792, 15.9228], [101.2825, 15.9283], [101.2782, 15.9315], [101.2611, 15.9241], [101.2532, 15.9137], [101.2406, 15.9123], [101.2377, 15.8967], [101.2324, 15.8923], [101.2103, 15.8927], [101.1635, 15.8664], [101.1369, 15.8666], [101.0782, 15.8805], [101.072, 15.8768], [101.0736, 15.8729], [101.067, 15.875], [101.0638, 15.8711], [101.0591, 15.875], [101.0589, 15.8866], [101.0432, 15.882], [101.04, 15.8917], [101.0011, 15.9095], [100.9897, 15.9014], [100.9688, 15.9042], [100.9576, 15.9111], [100.9411, 15.9087], [100.9398, 15.9001], [100.9252, 15.9074], [100.9257, 15.8917], [100.9123, 15.8992], [100.8997, 15.8961], [100.8919, 15.8999], [100.8812, 15.9219], [100.8715, 15.9259], [100.856, 15.9295], [100.8447, 15.9253], [100.8477, 15.9187], [100.8427, 15.9092], [100.8275, 15.9132], [100.8224, 15.9104], [100.8135, 15.9152], [100.8087, 15.925], [100.7979, 15.9264], [100.7916, 15.9009], [100.7961, 15.8927], [100.8098, 15.8854], [100.8045, 15.8684], [100.8115, 15.8581], [100.808, 15.8348], [100.8034, 15.8348], [100.7984, 15.8259], [100.8248, 15.7502], [100.8192, 15.7355], [100.8185, 15.713], [100.8319, 15.7073], [100.8333, 15.7105], [100.8474, 15.7077], [100.8737, 15.7212], [100.8767, 15.7274], [100.8873, 15.728], [100.9022, 15.738], [100.9513, 15.7279], [100.9541, 15.7344], [100.9627, 15.7326], [100.9777, 15.7413], [101.0014, 15.7411], [101.0211, 15.7548], [101.0269, 15.7538], [101.0429, 15.7727], [101.0599, 15.7595], [101.0567, 15.7701], [101.0717, 15.7667], [101.0877, 15.7785], [101.0903, 15.7998], [101.0984, 15.8078], [101.1263, 15.8113], [101.1455, 15.8047], [101.1884, 15.8035], [101.198, 15.8098], [101.1963, 15.8321], [101.2041, 15.8363], [101.2079, 15.8454], [101.2178, 15.8515], [101.2415, 15.8477], [101.246, 15.8642], [101.2615, 15.8658], [101.2691, 15.8569], [101.2754, 15.8598], [101.2729, 15.8651], [101.278, 15.8687], [101.2966, 15.87], [101.3026, 15.8661], [101.307, 15.8501], [101.3194, 15.8436], [101.3267, 15.8514], [101.3325, 15.8817], [101.3522, 15.8886], [101.3624, 15.9074], [101.3698, 15.9097], [101.3746, 15.9184], [101.3607, 15.9232], [101.3643, 15.931]]]}}, {"type": "Feature", "properties": {"osm_type": "relation", "osm_id": 656232619, "name": "Chon Daen", "admin_level": "6", "kind": "subdivision_2", "parent_osm_id": 1908802, "parent_name": "Phetchabun Province", "parent_iso": "TH-67"}, "geometry": {"type": "Polygon", "coordinates": [[[100.9014, 15.8969], [100.8958, 15.9041], [100.8982, 15.9153], [100.8861, 15.9394], [100.8877, 15.9471], [100.9016, 15.9532], [100.894, 15.9668], [100.9022, 15.9892], [100.9134, 15.9885], [100.9281, 15.9786], [100.9418, 15.9805], [100.9307, 15.9858], [100.9412, 15.9884], [100.9561, 16.0014], [100.9733, 15.9961], [100.9852, 16.0047], [100.9838, 16.023], [100.9892, 16.0318], [100.9887, 16.0424], [100.9805, 16.0486], [100.982, 16.0662], [100.9696, 16.0596], [100.9465, 16.0718], [100.9403, 16.0639], [100.9327, 16.0638], [100.9324, 16.0733], [100.9152, 16.0909], [100.9072, 16.1071], [100.9255, 16.1329], [100.9385, 16.1244], [100.9437, 16.1284], [100.9438, 16.1366], [100.9524, 16.1341], [100.9726, 16.1456], [100.9789, 16.1336], [100.986, 16.1373], [100.9815, 16.1561], [100.9868, 16.1829], [100.9802, 16.1859], [100.9834, 16.198], [100.9938, 16.2091], [100.9935, 16.2256], [100.9826, 16.2259], [100.982, 16.2536], [100.9658, 16.2629], [100.9604, 16.2736], [100.9626, 16.285], [100.9421, 16.3086], [100.9214, 16.3025], [100.9127, 16.3194], [100.9032, 16.3191], [100.8846, 16.3306], [100.8643, 16.3315], [100.8456, 16.3144], [100.8435, 16.2997], [100.848, 16.29], [100.841, 16.2827], [100.8392, 16.2677], [100.8301, 16.2703], [100.8233, 16.2845], [100.8128, 16.2846], [100.7945, 16.2718], [100.788, 16.274], [100.7795, 16.2672], [100.772, 16.2687], [100.7628, 16.26], [100.7545, 16.2639], [100.7398, 16.2563], [100.7189, 16.258], [100.7198, 16.2508], [100.7086, 16.2437], [100.6442, 16.1393], [100.6548, 16.1264], [100.6562, 16.1079], [100.6374, 16.0469], [100.633, 16.0436], [100.6447, 16.0433], [100.6557, 16.0527], [100.6653, 16.0317], [100.6773, 16.0312], [100.6824, 16.0245], [100.6879, 16.0282], [100.6984, 16.023], [100.726, 16.0243], [100.7462, 16.0108], [100.7594, 16.0113], [100.769, 15.9986], [100.7847, 15.9924], [100.784, 15.9805], [100.7771, 15.9702], [100.7911, 15.9578], [100.7991, 15.9362], [100.7946, 15.9313], [100.7819, 15.9348], [100.7661, 15.9311], [100.7641, 15.9109], [100.7766, 15.8974], [100.7961, 15.8927], [100.7916, 15.9009], [100.7979, 15.9264], [100.8087, 15.925], [100.8135, 15.9152], [100.8224, 15.9104], [100.8275, 15.9132], [100.8427, 15.9092], [100.8477, 15.9187], [100.8447, 15.9253], [100.856, 15.9295], [100.8812, 15.9219], [100.8919, 15.8999], [100.9014, 15.8969]]]}}, {"type": "Feature", "properties": {"osm_type": "relation", "osm_id": 736642756, "name": "Khao Kho", "admin_level": "6", "kind": "subdivision_2", "parent_osm_id": 1908802, "parent_name": "Phetchabun Province", "parent_iso": "TH-67"}, "geometry": {"type": "Polygon", "coordinates": [[[101.067, 16.9028], [101.0569, 16.9076], [101.0433, 16.9042], [101.0308, 16.8931], [101.0263, 16.8728], [101.0134, 16.8637], [101.0127, 16.8584], [100.9927, 16.8556], [100.9802, 16.8484], [100.9828, 16.8448], [100.9766, 16.8403], [100.9727, 16.8422], [100.9815, 16.8349], [100.9801, 16.8302], [100.9768, 16.8315], [100.9788, 16.8265], [100.9745, 16.8297], [100.9719, 16.8244], [100.9724, 16.8296], [100.9616, 16.8311], [100.9592, 16.8251], [100.9543, 16.826], [100.9587, 16.8097], [100.9535, 16.8045], [100.9571, 16.8008], [100.9528, 16.7933], [100.9368, 16.7959], [100.9177, 16.7918], [100.903, 16.8018], [100.9061, 16.7829], [100.8954, 16.7712], [100.901, 16.7604], [100.9197, 16.7589], [100.9226, 16.7465], [100.9136, 16.7312], [100.9311, 16.7172], [100.931, 16.7107], [100.9228, 16.7117], [100.9241, 16.702], [100.9339, 16.6957], [100.9287, 16.6857], [100.9375, 16.6872], [100.9426, 16.6811], [100.9326, 16.6809], [100.9234, 16.6633], [100.9152, 16.6697], [100.8862, 16.6665], [100.8835, 16.6558], [100.8687, 16.6483], [100.8622, 16.6389], [100.8619, 16.624], [100.8655, 16.6217], [100.861, 16.6144], [100.8526, 16.6144], [100.8547, 16.5977], [100.8476, 16.5929], [100.8507, 16.5838], [100.8457, 16.5777], [100.8508, 16.5766], [100.8586, 16.5478], [100.8462, 16.5422], [100.8491, 16.5226], [100.8343, 16.5201], [100.8338, 16.504], [100.8482, 16.5026], [100.8502, 16.5087], [100.857, 16.511], [100.8713, 16.5088], [100.8804, 16.503], [100.8802, 16.4902], [100.8907, 16.4942], [100.9028, 16.4846], [100.9274, 16.5073], [100.9386, 16.5051], [100.9427, 16.5151], [100.9617, 16.5133], [100.9599, 16.5061], [100.9661, 16.4935], [100.9827, 16.4913], [101.0004, 16.4716], [101.0201, 16.4814], [101.0307, 16.4729], [101.0467, 16.4792], [101.0654, 16.4663], [101.0719, 16.4681], [101.0814, 16.4818], [101.0906, 16.4841], [101.1148, 16.4763], [101.1156, 16.4801], [101.0999, 16.4921], [101.1002, 16.4989], [101.0926, 16.5016], [101.0956, 16.5067], [101.0924, 16.5127], [101.103, 16.5144], [101.106, 16.5277], [101.1125, 16.5315], [101.1077, 16.5454], [101.0858, 16.5472], [101.0747, 16.5574], [101.0655, 16.5594], [101.0601, 16.5554], [101.0513, 16.5616], [101.058, 16.5767], [101.0572, 16.5867], [101.0709, 16.5865], [101.0672, 16.5954], [101.0719, 16.6062], [101.0517, 16.628], [101.0543, 16.6355], [101.0506, 16.6436], [101.0589, 16.653], [101.0484, 16.6575], [101.049, 16.673], [101.0695, 16.6809], [101.0982, 16.6797], [101.1055, 16.6872], [101.0884, 16.6967], [101.0882, 16.7032], [101.0906, 16.7156], [101.0994, 16.7228], [101.0992, 16.7323], [101.1038, 16.7366], [101.0995, 16.755], [101.1048, 16.7603], [101.1087, 16.7824], [101.0907, 16.7883], [101.0765, 16.8224], [101.0557, 16.8229], [101.0612, 16.882], [101.0748, 16.89], [101.079, 16.8996], [101.067, 16.9028]]]}}, {"type": "Feature", "properties": {"osm_type": "relation", "osm_id": 536546625, "name": "Lam Sonthi", "admin_level": "6", "kind": "subdivision_2", "parent_osm_id": 1908802, "parent_name": "Phetchabun Province", "parent_iso": "TH-67"}, "geometry": {"type": "Polygon", "coordinates": [[[101.3631, 15.047], [101.3714, 15.0461], [101.3816, 15.0681], [101.4002, 15.0738], [101.396, 15.0991], [101.4007, 15.1023], [101.4019, 15.1526], [101.3804, 15.2897], [101.3858, 15.3462], [101.3793, 15.3461], [101.3758, 15.3767], [101.3822, 15.3878], [101.3776, 15.3904], [101.3777, 15.4305], [101.3857, 15.4865], [101.3737, 15.5276], [101.3698, 15.573], [101.37, 15.5932], [101.3793, 15.6371], [101.3948, 15.6784], [101.4006, 15.7058], [101.3969, 15.7212], [101.4044, 15.7393], [101.391, 15.7456], [101.3814, 15.7368], [101.3409, 15.7561], [101.3363, 15.753], [101.3353, 15.728], [101.3381, 15.7187], [101.3532, 15.704], [101.3531, 15.695], [101.36, 15.686], [101.351, 15.6738], [101.3516, 15.6678], [101.3408, 15.6589], [101.3432, 15.6356], [101.3325, 15.6221], [101.3322, 15.6109], [101.3291, 15.6055], [101.3171, 15.6025], [101.3073, 15.551], [101.2875, 15.5301], [101.2886, 15.5247], [101.2969, 15.5287], [101.3044, 15.5197], [101.301, 15.5059], [101.3073, 15.4719], [101.2976, 15.4558], [101.3014, 15.4377], [101.3073, 15.4344], [101.302, 15.4259], [101.3052, 15.3915], [101.299, 15.3802], [101.312, 15.3663], [101.3108, 15.3538], [101.2927, 15.329], [101.3055, 15.3243], [101.2996, 15.3122], [101.3028, 15.3068], [101.2981, 15.2872], [101.3082, 15.2669], [101.3098, 15.2458], [101.3016, 15.2261], [101.3149, 15.2228], [101.3196, 15.2265], [101.3305, 15.2082], [101.337, 15.1769], [101.3526, 15.1641], [101.3504, 15.1407], [101.3628, 15.1082], [101.3457, 15.0995], [101.354, 15.075], [101.3522, 15.0649], [101.3631, 15.047]]]}}, {"type": "Feature", "properties": {"osm_type": "relation", "osm_id": 523081913, "name": "Lom Kao", "admin_level": "6", "kind": "subdivision_2", "parent_osm_id": 1908802, "parent_name": "Phetchabun Province", "parent_iso": "TH-67"}, "geometry": {"type": "Polygon", "coordinates": [[[101.079, 16.8996], [101.0748, 16.89], [101.0612, 16.882], [101.0557, 16.8229], [101.0716, 16.8246], [101.0956, 16.8123], [101.1121, 16.8189], [101.1323, 16.8066], [101.1801, 16.8217], [101.1932, 16.8213], [101.1985, 16.8355], [101.2131, 16.8462], [101.258, 16.8495], [101.262, 16.8528], [101.2625, 16.8677], [101.2687, 16.8747], [101.2703, 16.9025], [101.29, 16.9257], [101.3108, 16.9193], [101.3248, 16.9253], [101.327, 16.9366], [101.3346, 16.9392], [101.344, 16.9343], [101.3521, 16.9379], [101.3614, 16.9321], [101.3768, 16.9357], [101.3872, 16.9292], [101.4018, 16.9365], [101.4084, 16.9307], [101.4169, 16.9317], [101.4258, 16.9413], [101.4228, 16.9561], [101.4347, 16.9826], [101.4301, 16.9901], [101.4324, 17.0075], [101.4267, 17.0113], [101.4431, 17.013], [101.4558, 17.0062], [101.4876, 17.0047], [101.5043, 17.0101], [101.4919, 17.0331], [101.4893, 17.0589], [101.4793, 17.0823], [101.4717, 17.0925], [101.4586, 17.0988], [101.4617, 17.1056], [101.4521, 17.1216], [101.4568, 17.126], [101.4525, 17.1409], [101.4117, 17.1667], [101.4107, 17.1727], [101.3955, 17.178], [101.3824, 17.1702], [101.3509, 17.1676], [101.351, 17.1632], [101.3078, 17.1302], [101.3072, 17.1197], [101.2948, 17.1071], [101.288, 17.1074], [101.2727, 17.0962], [101.2562, 17.1099], [101.2439, 17.1088], [101.2252, 17.0854], [101.229, 17.0671], [101.2227, 17.0606], [101.2058, 17.0687], [101.1884, 17.066], [101.1727, 17.0537], [101.1688, 17.0382], [101.1402, 17.0326], [101.1149, 17.0206], [101.1147, 17.0072], [101.1094, 17.0033], [101.1149, 17.0015], [101.1107, 17.0005], [101.1147, 16.9982], [101.1133, 16.9423], [101.1034, 16.9317], [101.1008, 16.9119], [101.079, 16.8996]]]}}, {"type": "Feature", "properties": {"osm_type": "relation", "osm_id": 893828577, "name": "Lom Sak", "admin_level": "6", "kind": "subdivision_2", "parent_osm_id": 1908802, "parent_name": "Phetchabun Province", "parent_iso": "TH-67"}, "geometry": {"type": "Polygon", "coordinates": [[[101.0516, 16.6452], [101.0633, 16.6358], [101.0951, 16.6336], [101.1014, 16.6291], [101.1184, 16.6334], [101.1422, 16.6312], [101.1508, 16.6388], [101.1569, 16.6266], [101.1519, 16.6197], [101.1552, 16.6131], [101.1706, 16.6005], [101.176, 16.601], [101.1839, 16.5839], [101.1903, 16.5803], [101.1951, 16.5859], [101.2131, 16.5702], [101.2172, 16.5608], [101.2131, 16.5507], [101.234, 16.5465], [101.2416, 16.5505], [101.2509, 16.5476], [101.2686, 16.5563], [101.2999, 16.5457], [101.3059, 16.5495], [101.3231, 16.5482], [101.3432, 16.5611], [101.3577, 16.5611], [101.3542, 16.5691], [101.3683, 16.5925], [101.4065, 16.5948], [101.4277, 16.6098], [101.4497, 16.6061], [101.4531, 16.5961], [101.4658, 16.5998], [101.4882, 16.5851], [101.4935, 16.5868], [101.4941, 16.5796], [101.4987, 16.5792], [101.5001, 16.6095], [101.5071, 16.6166], [101.5263, 16.6208], [101.5088, 16.6559], [101.5153, 16.6863], [101.5107, 16.7127], [101.5148, 16.7259], [101.5087, 16.7372], [101.5106, 16.7574], [101.5163, 16.7605], [101.5245, 16.7904], [101.5075, 16.8518], [101.5035, 16.8578], [101.4829, 16.8593], [101.4808, 16.8455], [101.4748, 16.84], [101.461, 16.828], [101.4566, 16.8312], [101.4421, 16.8234], [101.4427, 16.8375], [101.438, 16.8368], [101.4337, 16.85], [101.4001, 16.8548], [101.4015, 16.8637], [101.4088, 16.868], [101.4075, 16.886], [101.424, 16.8942], [101.4234, 16.9324], [101.4084, 16.9307], [101.4018, 16.9365], [101.3872, 16.9292], [101.3768, 16.9357], [101.3614, 16.9321], [101.3521, 16.9379], [101.344, 16.9343], [101.3346, 16.9392], [101.327, 16.9366], [101.3248, 16.9253], [101.3108, 16.9193], [101.29, 16.9257], [101.2703, 16.9025], [101.2687, 16.8747], [101.2625, 16.8677], [101.262, 16.8528], [101.258, 16.8495], [101.2131, 16.8462], [101.1985, 16.8355], [101.1932, 16.8213], [101.1801, 16.8217], [101.1323, 16.8066], [101.1121, 16.8189], [101.0956, 16.8123], [101.0799, 16.8194], [101.0794, 16.8119], [101.0907, 16.7883], [101.1087, 16.7824], [101.1048, 16.7603], [101.0995, 16.755], [101.1038, 16.7366], [101.0992, 16.7323], [101.0994, 16.7228], [101.0906, 16.7156], [101.0882, 16.7032], [101.0884, 16.6967], [101.1054, 16.6853], [101.0982, 16.6797], [101.0846, 16.6824], [101.0515, 16.6758], [101.0472, 16.6612], [101.0589, 16.653], [101.0516, 16.6452]]]}}, {"type": "Feature", "properties": {"osm_type": "relation", "osm_id": 736409007, "name": "Mueang Phetchabun", "admin_level": "6", "kind": "subdivision_2", "parent_osm_id": 1908802, "parent_name": "Phetchabun Province", "parent_iso": "TH-67"}, "geometry": {"type": "Polygon", "coordinates": [[[100.9846, 16.1661], [100.9954, 16.1689], [100.998, 16.1606], [101.0077, 16.1559], [101.0173, 16.1608], [101.021, 16.1697], [101.0309, 16.1714], [101.0839, 16.1509], [101.0866, 16.1401], [101.0931, 16.1395], [101.0931, 16.1258], [101.0994, 16.1235], [101.0952, 16.1179], [101.1068, 16.1002], [101.1316, 16.1036], [101.1421, 16.0905], [101.1613, 16.1076], [101.1717, 16.1095], [101.1651, 16.1417], [101.1925, 16.1481], [101.1957, 16.1787], [101.2033, 16.18], [101.2068, 16.1711], [101.2195, 16.1702], [101.2205, 16.1666], [101.2266, 16.172], [101.2421, 16.1657], [101.2494, 16.1799], [101.2678, 16.1808], [101.2708, 16.1759], [101.2849, 16.1803], [101.2931, 16.1899], [101.306, 16.187], [101.3116, 16.1912], [101.3194, 16.1836], [101.3241, 16.1873], [101.3354, 16.1719], [101.3431, 16.1832], [101.3517, 16.1792], [101.3583, 16.183], [101.3581, 16.1917], [101.3789, 16.1876], [101.3726, 16.2065], [101.3751, 16.2144], [101.3669, 16.227], [101.3736, 16.2415], [101.3646, 16.2459], [101.3547, 16.2599], [101.3581, 16.2685], [101.3717, 16.2745], [101.3678, 16.2939], [101.3793, 16.3184], [101.3773, 16.3474], [101.3828, 16.3602], [101.3933, 16.3668], [101.3929, 16.3728], [101.4091, 16.3831], [101.4084, 16.3933], [101.4009, 16.4016], [101.407, 16.4079], [101.4171, 16.4087], [101.419, 16.4238], [101.4312, 16.4344], [101.4442, 16.4382], [101.4516, 16.4571], [101.4733, 16.4769], [101.4733, 16.489], [101.4637, 16.5007], [101.466, 16.5192], [101.4721, 16.529], [101.4831, 16.5243], [101.4895, 16.5331], [101.4939, 16.5324], [101.496, 16.5396], [101.5051, 16.5391], [101.5032, 16.5457], [101.5153, 16.5427], [101.5195, 16.5496], [101.5102, 16.5593], [101.5083, 16.5554], [101.497, 16.5609], [101.4996, 16.5718], [101.4942, 16.571], [101.4987, 16.5792], [101.4941, 16.5796], [101.4935, 16.5868], [101.4882, 16.5851], [101.4658, 16.5998], [101.4531, 16.5961], [101.4497, 16.6061], [101.4277, 16.6098], [101.4065, 16.5948], [101.3683, 16.5925], [101.3542, 16.5691], [101.3577, 16.5611], [101.3432, 16.5611], [101.3231, 16.5482], [101.3059, 16.5495], [101.2999, 16.5457], [101.2686, 16.5563], [101.2509, 16.5476], [101.2416, 16.5505], [101.234, 16.5465], [101.2131, 16.5507], [101.2172, 16.5608], [101.2131, 16.5702], [101.1951, 16.5859], [101.1903, 16.5803], [101.1839, 16.5839], [101.176, 16.601], [101.1706, 16.6005], [101.1552, 16.6131], [101.1519, 16.6197], [101.1569, 16.6266], [101.1508, 16.6388], [101.1422, 16.6312], [101.1184, 16.6334], [101.1014, 16.6291], [101.0951, 16.6336], [101.0633, 16.6358], [101.0516, 16.6452], [101.0542, 16.6224], [101.0719, 16.6062], [101.0672, 16.5954], [101.0709, 16.5865], [101.0572, 16.5867], [101.058, 16.5767], [101.0513, 16.5616], [101.0601, 16.5554], [101.0655, 16.5594], [101.0747, 16.5574], [101.0858, 16.5472], [101.1077, 16.5454], [101.1125, 16.5315], [101.106, 16.5277], [101.103, 16.5144], [101.0924, 16.5127], [101.0956, 16.5067], [101.0926, 16.5016], [101.1002, 16.4989], [101.0999, 16.4921], [101.1156, 16.4801], [101.1148, 16.4763], [101.0906, 16.4841], [101.0814, 16.4818], [101.0719, 16.4681], [101.0654, 16.4663], [101.0467, 16.4792], [101.0307, 16.4729], [101.0201, 16.4814], [101.0004, 16.4716], [100.9827, 16.4913], [100.9661, 16.4935], [100.9599, 16.5061], [100.9617, 16.5133], [100.9427, 16.5151], [100.9386, 16.5051], [100.9274, 16.5073], [100.9028, 16.4846], [100.8907, 16.4942], [100.8802, 16.4902], [100.8804, 16.503], [100.857, 16.511], [100.8502, 16.5087], [100.8482, 16.5026], [100.8338, 16.504], [100.8151, 16.4965], [100.8175, 16.4833], [100.8045, 16.4814], [100.793, 16.4693], [100.7985, 16.4584], [100.8047, 16.4569], [100.8054, 16.4484], [100.817, 16.4432], [100.8203, 16.4346], [100.8367, 16.4303], [100.8429, 16.4366], [100.8668, 16.4376], [100.8844, 16.4436], [100.9046, 16.4224], [100.909, 16.4111], [100.9232, 16.4118], [100.9412, 16.3944], [100.9794, 16.3825], [100.9937, 16.3658], [100.9938, 16.3524], [100.9733, 16.3289], [100.971, 16.319], [100.9421, 16.3086], [100.9626, 16.285], [100.9604, 16.2736], [100.9658, 16.2629], [100.982, 16.2536], [100.9826, 16.2259], [100.9935, 16.2256], [100.9938, 16.2091], [100.9834, 16.198], [100.9802, 16.1859], [100.9868, 16.1829], [100.9846, 16.1661]]]}}, {"type": "Feature", "properties": {"osm_type": "relation", "osm_id": 525673677, "name": "Nam Nao", "admin_level": "6", "kind": "subdivision_2", "parent_osm_id": 1908802, "parent_name": "Phetchabun Province", "parent_iso": "TH-67"}, "geometry": {"type": "Polygon", "coordinates": [[[101.7508, 16.6678], [101.7503, 16.6767], [101.7655, 16.6794], [101.7719, 16.6859], [101.7715, 16.7024], [101.7753, 16.703], [101.7761, 16.7122], [101.7916, 16.7272], [101.7861, 16.7425], [101.7933, 16.7501], [101.7972, 16.769], [101.7639, 16.7565], [101.7269, 16.7539], [101.7181, 16.7599], [101.7042, 16.7843], [101.6864, 16.7985], [101.6999, 16.8094], [101.7195, 16.7995], [101.7219, 16.8071], [101.7068, 16.83], [101.7007, 16.8285], [101.6984, 16.835], [101.6931, 16.8354], [101.6907, 16.8487], [101.6855, 16.8465], [101.6846, 16.8552], [101.6886, 16.8579], [101.6788, 16.8612], [101.6771, 16.8675], [101.6843, 16.869], [101.6799, 16.8718], [101.6837, 16.877], [101.6787, 16.8837], [101.685, 16.8996], [101.6829, 16.9126], [101.6857, 16.9232], [101.6921, 16.9227], [101.6872, 16.931], [101.6923, 16.9362], [101.6788, 16.9405], [101.6727, 16.9522], [101.6697, 16.9608], [101.6752, 16.9758], [101.6597, 16.9954], [101.6468, 17.024], [101.6496, 17.0424], [101.6446, 17.0392], [101.6287, 17.0452], [101.6166, 17.0224], [101.613, 17.0043], [101.6074, 16.9988], [101.5879, 16.9964], [101.5752, 16.9837], [101.5516, 16.9947], [101.545, 17.0151], [101.536, 17.0227], [101.4876, 17.0047], [101.4558, 17.0062], [101.4431, 17.013], [101.4267, 17.0113], [101.4324, 17.0075], [101.4301, 16.9901], [101.4347, 16.9826], [101.4228, 16.9561], [101.4258, 16.9413], [101.4169, 16.9317], [101.4258, 16.9283], [101.4254, 16.9153], [101.4209, 16.9108], [101.424, 16.8942], [101.4075, 16.886], [101.4088, 16.868], [101.3989, 16.8589], [101.4001, 16.8548], [101.4337, 16.85], [101.438, 16.8368], [101.4427, 16.8375], [101.4421, 16.8234], [101.4566, 16.8312], [101.461, 16.828], [101.4748, 16.84], [101.4808, 16.8455], [101.4829, 16.8593], [101.5058, 16.855], [101.5245, 16.7904], [101.5163, 16.7605], [101.5106, 16.7574], [101.5134, 16.6811], [101.526, 16.68], [101.5375, 16.6662], [101.546, 16.6681], [101.5625, 16.6495], [101.5717, 16.6483], [101.5788, 16.6697], [101.5709, 16.6912], [101.5608, 16.6979], [101.5531, 16.7114], [101.5532, 16.7276], [101.5599, 16.7288], [101.5701, 16.7229], [101.5855, 16.7227], [101.5914, 16.7171], [101.5904, 16.7084], [101.6038, 16.707], [101.6202, 16.6849], [101.636, 16.6805], [101.6552, 16.6888], [101.6886, 16.6867], [101.6979, 16.6775], [101.7014, 16.6796], [101.7027, 16.6689], [101.7068, 16.6704], [101.7246, 16.652], [101.7413, 16.6607], [101.744, 16.6696], [101.7508, 16.6678]]]}}, {"type": "Feature", "properties": {"osm_type": "relation", "osm_id": 522408945, "name": "Nong Phai", "admin_level": "6", "kind": "subdivision_2", "parent_osm_id": 1908802, "parent_name": "Phetchabun Province", "parent_iso": "TH-67"}, "geometry": {"type": "Polygon", "coordinates": [[[101.3643, 15.931], [101.3709, 15.9395], [101.3758, 15.9611], [101.3778, 15.9907], [101.365, 16.075], [101.3531, 16.0674], [101.346, 16.0692], [101.3336, 16.0935], [101.3347, 16.1026], [101.3392, 16.1049], [101.3367, 16.117], [101.3445, 16.1571], [101.3534, 16.1634], [101.3623, 16.1828], [101.3772, 16.1854], [101.3743, 16.1915], [101.3581, 16.1917], [101.3583, 16.183], [101.3517, 16.1792], [101.3431, 16.1832], [101.3354, 16.1719], [101.3241, 16.1873], [101.3194, 16.1836], [101.3116, 16.1912], [101.306, 16.187], [101.2931, 16.1899], [101.2849, 16.1803], [101.2708, 16.1759], [101.2678, 16.1808], [101.2494, 16.1799], [101.2421, 16.1657], [101.2266, 16.172], [101.2205, 16.1666], [101.2195, 16.1702], [101.2068, 16.1711], [101.2033, 16.18], [101.1957, 16.1787], [101.1925, 16.1481], [101.1651, 16.1417], [101.1717, 16.1095], [101.1613, 16.1076], [101.1421, 16.0905], [101.1316, 16.1036], [101.1068, 16.1002], [101.0952, 16.1179], [101.0994, 16.1235], [101.0931, 16.1258], [101.0931, 16.1395], [101.0866, 16.1401], [101.0839, 16.1509], [101.0309, 16.1714], [101.021, 16.1697], [101.0173, 16.1608], [101.0077, 16.1559], [100.9898, 16.1698], [100.9815, 16.1561], [100.9864, 16.1427], [100.982, 16.1335], [100.9752, 16.137], [100.9726, 16.1456], [100.9524, 16.1341], [100.9438, 16.1366], [100.9418, 16.1252], [100.9255, 16.1329], [100.9072, 16.1071], [100.9152, 16.0909], [100.9324, 16.0733], [100.9327, 16.0638], [100.9403, 16.0639], [100.9465, 16.0718], [100.9696, 16.0596], [100.982, 16.0662], [100.9805, 16.0486], [100.9887, 16.0424], [100.9892, 16.0318], [100.9838, 16.023], [100.9852, 16.0047], [100.9733, 15.9961], [100.9561, 16.0014], [100.9412, 15.9884], [100.9307, 15.9858], [100.9418, 15.9805], [100.9281, 15.9786], [100.9134, 15.9885], [100.9022, 15.9892], [100.894, 15.9668], [100.9016, 15.9532], [100.8877, 15.9471], [100.8861, 15.9394], [100.8982, 15.9153], [100.8958, 15.9041], [100.9014, 15.8969], [100.9123, 15.8992], [100.9257, 15.8917], [100.9252, 15.9074], [100.9398, 15.9001], [100.9411, 15.9087], [100.9576, 15.9111], [100.9688, 15.9042], [100.9897, 15.9014], [101.0011, 15.9095], [101.04, 15.8917], [101.0432, 15.882], [101.0589, 15.8866], [101.0591, 15.875], [101.0638, 15.8711], [101.067, 15.875], [101.0736, 15.8729], [101.072, 15.8768], [101.0782, 15.8805], [101.1369, 15.8666], [101.1635, 15.8664], [101.2103, 15.8927], [101.2324, 15.8923], [101.2377, 15.8967], [101.2406, 15.9123], [101.2532, 15.9137], [101.2611, 15.9241], [101.2782, 15.9315], [101.2825, 15.9283], [101.2792, 15.9228], [101.2824, 15.9193], [101.2767, 15.914], [101.2894, 15.9079], [101.2993, 15.9206], [101.3023, 15.9424], [101.3116, 15.9447], [101.3278, 15.9345], [101.3499, 15.9358], [101.3643, 15.931]]]}}, {"type": "Feature", "properties": {"osm_type": "relation", "osm_id": 578245401, "name": "Si Thep", "admin_level": "6", "kind": "subdivision_2", "parent_osm_id": 1908802, "parent_name": "Phetchabun Province", "parent_iso": "TH-67"}, "geometry": {"type": "Polygon", "coordinates": [[[101.299, 15.3802], [101.3052, 15.3915], [101.302, 15.4259], [101.3073, 15.4344], [101.3014, 15.4377], [101.2976, 15.4558], [101.3073, 15.4719], [101.301, 15.5059], [101.3044, 15.5197], [101.2969, 15.5287], [101.2886, 15.5247], [101.2875, 15.5301], [101.3073, 15.551], [101.3108, 15.5755], [101.2995, 15.5683], [101.2818, 15.5705], [101.268, 15.5631], [101.252, 15.5619], [101.2501, 15.5653], [101.1996, 15.5572], [101.1627, 15.5599], [101.1538, 15.5683], [101.1422, 15.5698], [101.1091, 15.5442], [101.1084, 15.5521], [101.0934, 15.5614], [101.0923, 15.5526], [101.0902, 15.5573], [101.0836, 15.5497], [101.0778, 15.5508], [101.0815, 15.5413], [101.0882, 15.5389], [101.0895, 15.5273], [101.0837, 15.5242], [101.0825, 15.5172], [101.0904, 15.5178], [101.0963, 15.5123], [101.0909, 15.5095], [101.0908, 15.5009], [101.0834, 15.501], [101.0872, 15.4973], [101.0835, 15.4889], [101.09, 15.4871], [101.0868, 15.4823], [101.0549, 15.488], [101.045, 15.4849], [101.0411, 15.4901], [101.0141, 15.4981], [100.9986, 15.5105], [100.9811, 15.5016], [100.9709, 15.5039], [100.9663, 15.4981], [100.9581, 15.4993], [100.947, 15.4907], [100.9295, 15.4917], [100.9261, 15.4792], [100.9322, 15.4662], [100.9272, 15.4618], [100.9242, 15.4327], [100.931, 15.427], [100.9309, 15.4157], [100.9425, 15.4088], [100.977, 15.4146], [100.9728, 15.4055], [100.9772, 15.401], [100.9771, 15.3592], [100.9841, 15.3465], [100.9771, 15.3365], [100.9959, 15.3184], [101.0019, 15.3187], [101.0128, 15.334], [101.0252, 15.338], [101.0337, 15.3273], [101.0553, 15.3199], [101.0662, 15.328], [101.0823, 15.3564], [101.0894, 15.3389], [101.1101, 15.3253], [101.1226, 15.3261], [101.1299, 15.3376], [101.1376, 15.3396], [101.1559, 15.3363], [101.1683, 15.3273], [101.1972, 15.3277], [101.2054, 15.3194], [101.2124, 15.3339], [101.2207, 15.3394], [101.2471, 15.3537], [101.2532, 15.3516], [101.2749, 15.3607], [101.2852, 15.3744], [101.299, 15.3802]]]}}, {"type": "Feature", "properties": {"osm_type": "relation", "osm_id": 930876250, "name": "Wang Pong", "admin_level": "6", "kind": "subdivision_2", "parent_osm_id": 1908802, "parent_name": "Phetchabun Province", "parent_iso": "TH-67"}, "geometry": {"type": "Polygon", "coordinates": [[[100.9421, 16.3086], [100.971, 16.319], [100.9733, 16.3289], [100.9938, 16.3524], [100.9937, 16.3658], [100.9829, 16.3806], [100.9712, 16.3827], [100.9617, 16.3911], [100.9412, 16.3944], [100.9232, 16.4118], [100.909, 16.4111], [100.9046, 16.4224], [100.8844, 16.4436], [100.8668, 16.4376], [100.8429, 16.4366], [100.8367, 16.4303], [100.8203, 16.4346], [100.817, 16.4432], [100.7967, 16.451], [100.7865, 16.4501], [100.776, 16.4412], [100.7718, 16.4263], [100.7627, 16.4315], [100.7426, 16.4192], [100.7271, 16.423], [100.7087, 16.4191], [100.701, 16.404], [100.7066, 16.3847], [100.6717, 16.3561], [100.6536, 16.3279], [100.6493, 16.3095], [100.6581, 16.2823], [100.6785, 16.271], [100.6764, 16.2592], [100.6667, 16.2485], [100.6786, 16.2475], [100.6848, 16.2512], [100.6938, 16.2481], [100.7091, 16.2651], [100.7181, 16.2566], [100.729, 16.2596], [100.7398, 16.2563], [100.7545, 16.2639], [100.7628, 16.26], [100.772, 16.2687], [100.7795, 16.2672], [100.788, 16.274], [100.7945, 16.2718], [100.8128, 16.2846], [100.8233, 16.2845], [100.8301, 16.2703], [100.8392, 16.2677], [100.841, 16.2827], [100.848, 16.29], [100.8435, 16.2997], [100.8456, 16.3144], [100.8643, 16.3315], [100.8846, 16.3306], [100.9032, 16.3191], [100.9127, 16.3194], [100.9214, 16.3025], [100.9421, 16.3086]]]}}, {"type": "Feature", "properties": {"osm_type": "relation", "osm_id": 940070546, "name": "Wichian Buri", "admin_level": "6", "kind": "subdivision_2", "parent_osm_id": 1908802, "parent_name": "Phetchabun Province", "parent_iso": "TH-67"}, "geometry": {"type": "Polygon", "coordinates": [[[100.8185, 15.713], [100.8255, 15.6848], [100.8335, 15.6807], [100.8258, 15.6757], [100.8281, 15.6666], [100.8231, 15.662], [100.8274, 15.6447], [100.8195, 15.6276], [100.8256, 15.6151], [100.8169, 15.6014], [100.8111, 15.6018], [100.8078, 15.5928], [100.8183, 15.5858], [100.8134, 15.578], [100.8325, 15.5614], [100.8392, 15.5628], [100.8544, 15.5478], [100.8565, 15.5328], [100.8529, 15.5254], [100.8851, 15.5288], [100.8897, 15.5244], [100.8878, 15.518], [100.9003, 15.5128], [100.8989, 15.5039], [100.904, 15.4964], [100.9287, 15.4877], [100.9337, 15.4939], [100.947, 15.4907], [100.9581, 15.4993], [100.9663, 15.4981], [100.9709, 15.5039], [100.9811, 15.5016], [100.9986, 15.5105], [101.0141, 15.4981], [101.0411, 15.4901], [101.045, 15.4849], [101.0549, 15.488], [101.0868, 15.4823], [101.09, 15.4871], [101.0835, 15.4889], [101.0872, 15.4973], [101.0834, 15.501], [101.0908, 15.5009], [101.0909, 15.5095], [101.0963, 15.5123], [101.0904, 15.5178], [101.0825, 15.5172], [101.0837, 15.5242], [101.0895, 15.5273], [101.0882, 15.5389], [101.0815, 15.5413], [101.0778, 15.5508], [101.0836, 15.5497], [101.0902, 15.5573], [101.0923, 15.5526], [101.0934, 15.5614], [101.1084, 15.5521], [101.1091, 15.5442], [101.1422, 15.5698], [101.1538, 15.5683], [101.1627, 15.5599], [101.1996, 15.5572], [101.2501, 15.5653], [101.252, 15.5619], [101.268, 15.5631], [101.2818, 15.5705], [101.3022, 15.5694], [101.3102, 15.5731], [101.3171, 15.6025], [101.3291, 15.6055], [101.3322, 15.6109], [101.3325, 15.6221], [101.3432, 15.6356], [101.3408, 15.6589], [101.3516, 15.6678], [101.351, 15.6738], [101.36, 15.686], [101.3531, 15.695], [101.3532, 15.704], [101.3381, 15.7187], [101.3353, 15.728], [101.339, 15.7671], [101.3295, 15.7841], [101.3176, 15.7918], [101.3314, 15.8046], [101.3231, 15.8112], [101.3305, 15.8301], [101.3251, 15.8313], [101.3245, 15.8371], [101.3325, 15.8491], [101.3267, 15.8514], [101.3166, 15.8438], [101.307, 15.8501], [101.3026, 15.8661], [101.2866, 15.8711], [101.2729, 15.8651], [101.2724, 15.8574], [101.2651, 15.8585], [101.2615, 15.8658], [101.246, 15.8642], [101.2415, 15.8477], [101.2178, 15.8515], [101.2079, 15.8454], [101.2041, 15.8363], [101.1963, 15.8321], [101.198, 15.8098], [101.1884, 15.8035], [101.1455, 15.8047], [101.1263, 15.8113], [101.0984, 15.8078], [101.0903, 15.7998], [101.0877, 15.7785], [101.0717, 15.7667], [101.0567, 15.7701], [101.0599, 15.7595], [101.0429, 15.7727], [101.0269, 15.7538], [101.0211, 15.7548], [101.0014, 15.7411], [100.9777, 15.7413], [100.9627, 15.7326], [100.9541, 15.7344], [100.9513, 15.7279], [100.9022, 15.738], [100.8873, 15.728], [100.8767, 15.7274], [100.8737, 15.7212], [100.8474, 15.7077], [100.8333, 15.7105], [100.8319, 15.7073], [100.8185, 15.713]]]}}]}