{"type": "FeatureCollection", "parent": {"osm_id": 1908804, "name": "Phichit Province", "admin_level": "4", "kind": "subdivision_1", "child_kind": "subdivision_2", "iso": "TH-66"}, "features": [{"type": "Feature", "properties": {"osm_type": "relation", "osm_id": 261730675, "name": "Bang Mun Nak", "admin_level": "6", "kind": "subdivision_2", "parent_osm_id": 1908804, "parent_name": "Phichit Province", "parent_iso": "TH-66"}, "geometry": {"type": "Polygon", "coordinates": [[[100.5229, 16.0956], [100.5169, 16.0889], [100.4753, 16.0948], [100.4713, 16.1159], [100.4526, 16.1204], [100.4347, 16.1164], [100.433, 16.1228], [100.4493, 16.1259], [100.4367, 16.141], [100.4316, 16.1403], [100.4371, 16.1528], [100.4245, 16.1591], [100.3937, 16.1549], [100.3772, 16.1359], [100.3754, 16.1256], [100.3577, 16.1198], [100.3667, 16.1077], [100.3723, 16.1069], [100.3651, 16.0978], [100.3686, 16.0913], [100.3542, 16.065], [100.3395, 16.0494], [100.3424, 16.0346], [100.3384, 16.0242], [100.3313, 16.0206], [100.3325, 16.0138], [100.3257, 16.0054], [100.3289, 16.0013], [100.3178, 16.0005], [100.3025, 15.9872], [100.3025, 15.976], [100.3235, 15.9744], [100.322, 15.9879], [100.3462, 15.9744], [100.3312, 15.9407], [100.3473, 15.9353], [100.3784, 15.9409], [100.4127, 15.9299], [100.4269, 15.9346], [100.4267, 15.9385], [100.4454, 15.9302], [100.4485, 15.9361], [100.4607, 15.9384], [100.4789, 15.9345], [100.515, 15.9378], [100.5192, 15.9402], [100.5005, 15.9579], [100.4999, 15.9784], [100.493, 15.9978], [100.5029, 16.0032], [100.5108, 15.9992], [100.5337, 16.0103], [100.5331, 16.0157], [100.5224, 16.015], [100.5205, 16.0199], [100.5255, 16.0222], [100.5307, 16.0417], [100.5385, 16.0495], [100.5425, 16.0801], [100.5294, 16.0944], [100.5229, 16.0956]]]}}, {"type": "Feature", "properties": {"osm_type": "relation", "osm_id": 764247295, "name": "Bueng Na Rang", "admin_level": "6", "kind": "subdivision_2", "parent_osm_id": 1908804, "parent_name": "Phichit Province", "parent_iso": "TH-66"}, "geometry": {"type": "Polygon", "coordinates": [[[100.1135, 16.0796], [100.1289, 16.0706], [100.132, 16.0872], [100.1413, 16.0985], [100.1646, 16.1101], [100.17, 16.1215], [100.171, 16.1478], [100.1735, 16.1517], [100.1762, 16.1466], [100.1821, 16.1555], [100.1859, 16.1822], [100.1971, 16.1899], [100.2238, 16.192], [100.2288, 16.1691], [100.2408, 16.1593], [100.2554, 16.1574], [100.258, 16.1883], [100.253, 16.1941], [100.2589, 16.2103], [100.252, 16.2234], [100.2628, 16.2283], [100.2606, 16.2423], [100.2531, 16.2362], [100.2463, 16.2367], [100.2402, 16.2451], [100.1974, 16.2457], [100.1889, 16.2496], [100.17, 16.2447], [100.1505, 16.2434], [100.1297, 16.2489], [100.1269, 16.2453], [100.1179, 16.2544], [100.1027, 16.2554], [100.0839, 16.2649], [100.0598, 16.2628], [100.04, 16.2757], [100.0357, 16.2692], [100.0289, 16.2706], [100.0213, 16.2506], [100.0357, 16.2221], [100.0471, 16.2103], [100.0383, 16.1963], [100.0249, 16.1912], [100.0375, 16.1827], [100.0382, 16.173], [100.0442, 16.1682], [100.057, 16.1665], [100.0631, 16.1593], [100.0764, 16.1617], [100.0767, 16.1473], [100.0853, 16.1461], [100.0863, 16.1415], [100.0769, 16.1244], [100.0946, 16.1107], [100.096, 16.0944], [100.1135, 16.0796]]]}}, {"type": "Feature", "properties": {"osm_type": "relation", "osm_id": 424175972, "name": "Dong Charoen", "admin_level": "6", "kind": "subdivision_2", "parent_osm_id": 1908804, "parent_name": "Phichit Province", "parent_iso": "TH-66"}, "geometry": {"type": "Polygon", "coordinates": [[[100.5192, 15.9402], [100.5301, 15.9373], [100.5217, 15.9317], [100.5228, 15.919], [100.5402, 15.9276], [100.5453, 15.9253], [100.5632, 15.9443], [100.5805, 15.9452], [100.5884, 15.9634], [100.6169, 15.9834], [100.6255, 16.0025], [100.6373, 16.006], [100.6393, 16.0139], [100.6541, 16.0269], [100.6638, 16.013], [100.69, 15.9934], [100.738, 15.9899], [100.7504, 15.9691], [100.7549, 15.9431], [100.7658, 15.9377], [100.7661, 15.9311], [100.7819, 15.9348], [100.7946, 15.9313], [100.7991, 15.9362], [100.7911, 15.9578], [100.7771, 15.9702], [100.784, 15.9805], [100.7847, 15.9924], [100.769, 15.9986], [100.7594, 16.0113], [100.7462, 16.0108], [100.726, 16.0243], [100.6984, 16.023], [100.6879, 16.0282], [100.6824, 16.0245], [100.6773, 16.0312], [100.6653, 16.0317], [100.6557, 16.0527], [100.6447, 16.0433], [100.6369, 16.0427], [100.633, 16.0436], [100.6386, 16.0567], [100.6313, 16.0603], [100.6178, 16.061], [100.6126, 16.0667], [100.5884, 16.0644], [100.58, 16.0711], [100.5708, 16.0702], [100.5425, 16.0801], [100.5385, 16.0495], [100.5307, 16.0417], [100.5255, 16.0222], [100.5205, 16.0199], [100.5224, 16.015], [100.5331, 16.0157], [100.5337, 16.0103], [100.5108, 15.9992], [100.5029, 16.0032], [100.493, 15.9978], [100.4999, 15.9784], [100.5005, 15.9579], [100.5192, 15.9402]]]}}, {"type": "Feature", "properties": {"osm_type": "relation", "osm_id": 613360398, "name": "Mueang Phichit", "admin_level": "6", "kind": "subdivision_2", "parent_osm_id": 1908804, "parent_name": "Phichit Province", "parent_iso": "TH-66"}, "geometry": {"type": "Polygon", "coordinates": [[[100.2359, 16.5294], [100.2356, 16.5171], [100.2523, 16.4981], [100.2539, 16.4909], [100.2498, 16.4897], [100.2467, 16.4733], [100.2538, 16.4673], [100.2565, 16.4566], [100.2511, 16.4436], [100.2443, 16.4447], [100.24, 16.4364], [100.2264, 16.4318], [100.2352, 16.417], [100.2259, 16.4054], [100.254, 16.3884], [100.2687, 16.3941], [100.2721, 16.384], [100.268, 16.3697], [100.2721, 16.3609], [100.2791, 16.3641], [100.3181, 16.3604], [100.333, 16.3139], [100.3176, 16.3048], [100.3195, 16.3005], [100.3111, 16.2896], [100.3128, 16.275], [100.349, 16.2719], [100.3463, 16.2582], [100.363, 16.2517], [100.361, 16.2595], [100.3685, 16.2632], [100.3698, 16.2706], [100.3965, 16.2706], [100.4087, 16.2894], [100.4044, 16.2948], [100.4132, 16.3096], [100.4302, 16.3072], [100.4522, 16.2915], [100.4812, 16.2952], [100.4811, 16.3195], [100.4728, 16.323], [100.4776, 16.3395], [100.4685, 16.341], [100.4668, 16.3642], [100.4714, 16.3653], [100.4788, 16.3809], [100.4942, 16.3841], [100.5141, 16.3754], [100.5244, 16.3764], [100.53, 16.3881], [100.5207, 16.3948], [100.5209, 16.4021], [100.5163, 16.4018], [100.5152, 16.4108], [100.508, 16.4173], [100.4792, 16.4262], [100.4786, 16.4336], [100.4404, 16.4344], [100.4137, 16.4207], [100.4022, 16.4273], [100.4141, 16.4423], [100.4098, 16.448], [100.415, 16.453], [100.4083, 16.4717], [100.412, 16.4967], [100.4345, 16.519], [100.4292, 16.5207], [100.4251, 16.5361], [100.3885, 16.5543], [100.3722, 16.5521], [100.3694, 16.5487], [100.3765, 16.546], [100.3328, 16.5261], [100.3139, 16.5255], [100.265, 16.5376], [100.2552, 16.5303], [100.2359, 16.5294]]]}}, {"type": "Feature", "properties": {"osm_type": "relation", "osm_id": 405909822, "name": "Pho Prathap Chang", "admin_level": "6", "kind": "subdivision_2", "parent_osm_id": 1908804, "parent_name": "Phichit Province", "parent_iso": "TH-66"}, "geometry": {"type": "Polygon", "coordinates": [[[100.2606, 16.2423], [100.2597, 16.2537], [100.2681, 16.2616], [100.2634, 16.2798], [100.2716, 16.2931], [100.2827, 16.2922], [100.287, 16.2961], [100.2901, 16.2937], [100.2865, 16.2814], [100.3104, 16.2779], [100.3176, 16.3048], [100.333, 16.3139], [100.3181, 16.3604], [100.2791, 16.3641], [100.2721, 16.3609], [100.268, 16.3697], [100.2721, 16.384], [100.2687, 16.3941], [100.254, 16.3884], [100.2259, 16.4054], [100.2177, 16.4], [100.219, 16.3884], [100.2129, 16.3833], [100.1875, 16.3826], [100.1705, 16.3726], [100.1598, 16.3849], [100.1318, 16.3811], [100.1273, 16.3762], [100.1199, 16.3803], [100.1047, 16.3747], [100.1019, 16.363], [100.0948, 16.3616], [100.0854, 16.3671], [100.0661, 16.3551], [100.0609, 16.3503], [100.0588, 16.326], [100.0277, 16.3198], [100.0281, 16.3149], [100.0213, 16.3129], [100.0191, 16.297], [100.0308, 16.2807], [100.0289, 16.2706], [100.0357, 16.2692], [100.04, 16.2757], [100.0598, 16.2628], [100.0839, 16.2649], [100.1027, 16.2554], [100.1179, 16.2544], [100.1269, 16.2453], [100.1297, 16.2489], [100.1505, 16.2434], [100.17, 16.2447], [100.1889, 16.2496], [100.1974, 16.2457], [100.2402, 16.2451], [100.2463, 16.2367], [100.2531, 16.2362], [100.2606, 16.2423]]]}}, {"type": "Feature", "properties": {"osm_type": "relation", "osm_id": 183461933, "name": "Pho Thale", "admin_level": "6", "kind": "subdivision_2", "parent_osm_id": 1908804, "parent_name": "Phichit Province", "parent_iso": "TH-66"}, "geometry": {"type": "Polygon", "coordinates": [[[100.3582, 16.1184], [100.3491, 16.1241], [100.3515, 16.1302], [100.3445, 16.1447], [100.3335, 16.145], [100.336, 16.1523], [100.3303, 16.1598], [100.3318, 16.1679], [100.3006, 16.1763], [100.2995, 16.1822], [100.2873, 16.1879], [100.264, 16.1853], [100.2604, 16.1906], [100.2589, 16.1717], [100.2536, 16.1699], [100.2554, 16.1574], [100.2496, 16.1566], [100.2288, 16.1691], [100.2238, 16.192], [100.1971, 16.1899], [100.1859, 16.1822], [100.1821, 16.1555], [100.1762, 16.1466], [100.1735, 16.1517], [100.171, 16.1478], [100.17, 16.1215], [100.1646, 16.1101], [100.1413, 16.0985], [100.132, 16.0872], [100.1289, 16.0706], [100.1174, 16.0802], [100.1086, 16.0761], [100.1183, 16.0589], [100.1153, 16.0468], [100.1304, 16.0355], [100.1273, 16.0284], [100.1311, 16.0181], [100.1476, 15.9892], [100.162, 15.9781], [100.1607, 15.9592], [100.1681, 15.9575], [100.1751, 15.9333], [100.1818, 15.929], [100.1844, 15.9338], [100.2009, 15.9349], [100.229, 15.927], [100.2475, 15.9384], [100.2414, 15.9457], [100.2485, 15.959], [100.2609, 15.9591], [100.2647, 15.9506], [100.2625, 15.942], [100.2686, 15.9396], [100.3099, 15.9611], [100.3107, 15.967], [100.3004, 15.9828], [100.3178, 16.0005], [100.3289, 16.0013], [100.3257, 16.0054], [100.3325, 16.0138], [100.3313, 16.0206], [100.3384, 16.0242], [100.3424, 16.0346], [100.3395, 16.0494], [100.3542, 16.065], [100.3686, 16.0913], [100.3651, 16.0978], [100.3723, 16.1069], [100.3582, 16.1184]]]}}, {"type": "Feature", "properties": {"osm_type": "relation", "osm_id": 210544826, "name": "Sak Lek", "admin_level": "6", "kind": "subdivision_2", "parent_osm_id": 1908804, "parent_name": "Phichit Province", "parent_iso": "TH-66"}, "geometry": {"type": "Polygon", "coordinates": [[[100.4345, 16.519], [100.412, 16.4967], [100.4097, 16.4872], [100.4098, 16.4621], [100.4213, 16.4329], [100.4269, 16.4354], [100.4362, 16.4538], [100.4745, 16.4672], [100.5049, 16.4638], [100.5045, 16.4607], [100.5195, 16.4628], [100.5271, 16.4584], [100.534, 16.4636], [100.5477, 16.4603], [100.554, 16.466], [100.5647, 16.4577], [100.5851, 16.4686], [100.5834, 16.5067], [100.5874, 16.5209], [100.577, 16.5243], [100.5804, 16.5793], [100.5751, 16.5859], [100.5591, 16.5722], [100.5264, 16.5656], [100.523, 16.5703], [100.5162, 16.5696], [100.4976, 16.5633], [100.4948, 16.5568], [100.4824, 16.5504], [100.4842, 16.5403], [100.4726, 16.5329], [100.4759, 16.5265], [100.4721, 16.5212], [100.4345, 16.519]]]}}, {"type": "Feature", "properties": {"osm_type": "relation", "osm_id": 538605774, "name": "Sam Ngam", "admin_level": "6", "kind": "subdivision_2", "parent_osm_id": 1908804, "parent_name": "Phichit Province", "parent_iso": "TH-66"}, "geometry": {"type": "Polygon", "coordinates": [[[100.2165, 16.6484], [100.2027, 16.642], [100.1922, 16.6479], [100.1951, 16.6336], [100.1902, 16.6318], [100.1919, 16.6266], [100.2028, 16.6236], [100.2011, 16.6176], [100.1948, 16.6201], [100.1964, 16.6078], [100.1859, 16.6075], [100.1786, 16.6017], [100.1859, 16.5894], [100.1705, 16.5905], [100.1669, 16.5827], [100.1917, 16.57], [100.196, 16.5566], [100.1881, 16.512], [100.1702, 16.5005], [100.169, 16.4857], [100.1643, 16.4813], [100.1673, 16.4752], [100.1636, 16.471], [100.1758, 16.4553], [100.1736, 16.4484], [100.1156, 16.4492], [100.0894, 16.4405], [100.0646, 16.4466], [100.0632, 16.4532], [100.057, 16.4542], [100.036, 16.4421], [99.9938, 16.435], [99.9946, 16.4053], [99.9837, 16.3791], [99.9949, 16.3637], [100.0055, 16.335], [100.0136, 16.3317], [100.0129, 16.3204], [100.0213, 16.3129], [100.0281, 16.3149], [100.0277, 16.3198], [100.0588, 16.326], [100.0609, 16.3503], [100.0854, 16.3671], [100.0948, 16.3616], [100.1019, 16.363], [100.1047, 16.3747], [100.1598, 16.3849], [100.1705, 16.3726], [100.1875, 16.3826], [100.2129, 16.3833], [100.219, 16.3884], [100.2177, 16.4], [100.2352, 16.417], [100.2264, 16.4318], [100.2535, 16.4471], [100.2538, 16.4673], [100.2467, 16.4733], [100.2498, 16.4897], [100.2539, 16.4909], [100.2523, 16.4981], [100.2356, 16.5171], [100.2359, 16.5294], [100.2299, 16.5379], [100.2351, 16.5512], [100.2313, 16.5681], [100.233, 16.6125], [100.2306, 16.618], [100.2258, 16.6171], [100.2256, 16.6261], [100.2175, 16.63], [100.2165, 16.6484]]]}}, {"type": "Feature", "properties": {"osm_type": "relation", "osm_id": 192794597, "name": "Tap Khlo", "admin_level": "6", "kind": "subdivision_2", "parent_osm_id": 1908804, "parent_name": "Phichit Province", "parent_iso": "TH-66"}, "geometry": {"type": "Polygon", "coordinates": [[[100.5425, 16.0801], [100.5708, 16.0702], [100.58, 16.0711], [100.5884, 16.0644], [100.6126, 16.0667], [100.6178, 16.061], [100.6386, 16.0567], [100.6562, 16.1079], [100.6548, 16.1264], [100.6442, 16.1393], [100.7086, 16.2437], [100.7198, 16.2508], [100.7091, 16.2651], [100.6938, 16.2481], [100.6667, 16.2485], [100.6764, 16.2592], [100.6785, 16.271], [100.6704, 16.2724], [100.6701, 16.2789], [100.6581, 16.2823], [100.6527, 16.2897], [100.6489, 16.3273], [100.6459, 16.3233], [100.6323, 16.3245], [100.6253, 16.3171], [100.6115, 16.317], [100.6046, 16.3094], [100.5837, 16.3072], [100.5622, 16.2938], [100.5415, 16.2941], [100.5225, 16.3027], [100.5141, 16.2908], [100.486, 16.273], [100.489, 16.2555], [100.5561, 16.2553], [100.5606, 16.2532], [100.5604, 16.2467], [100.5767, 16.2492], [100.5825, 16.2389], [100.5666, 16.2222], [100.5415, 16.2143], [100.5302, 16.2025], [100.5322, 16.1979], [100.5395, 16.2005], [100.5326, 16.1897], [100.5352, 16.1792], [100.5224, 16.1511], [100.5184, 16.1528], [100.5138, 16.1456], [100.513, 16.1033], [100.5294, 16.0944], [100.5425, 16.0801]]]}}, {"type": "Feature", "properties": {"osm_type": "relation", "osm_id": 690237042, "name": "Taphan Hin", "admin_level": "6", "kind": "subdivision_2", "parent_osm_id": 1908804, "parent_name": "Phichit Province", "parent_iso": "TH-66"}, "geometry": {"type": "Polygon", "coordinates": [[[100.5229, 16.0956], [100.515, 16.1004], [100.5107, 16.1117], [100.5138, 16.1456], [100.5184, 16.1528], [100.5224, 16.1511], [100.5352, 16.1792], [100.5326, 16.1897], [100.5395, 16.2005], [100.5322, 16.1979], [100.5302, 16.2025], [100.5415, 16.2143], [100.5666, 16.2222], [100.5825, 16.2389], [100.5767, 16.2492], [100.5604, 16.2467], [100.5606, 16.2532], [100.5561, 16.2553], [100.489, 16.2555], [100.487, 16.2744], [100.4978, 16.2784], [100.5204, 16.2992], [100.4555, 16.2908], [100.4302, 16.3072], [100.4132, 16.3096], [100.4044, 16.2948], [100.4087, 16.2894], [100.3965, 16.2706], [100.3698, 16.2706], [100.3685, 16.2632], [100.361, 16.2595], [100.363, 16.2517], [100.3463, 16.2582], [100.347, 16.2728], [100.2865, 16.2814], [100.2901, 16.2937], [100.287, 16.2961], [100.2827, 16.2922], [100.2716, 16.2931], [100.2634, 16.2798], [100.2681, 16.2616], [100.2597, 16.2537], [100.2628, 16.2283], [100.252, 16.2234], [100.2589, 16.2103], [100.253, 16.1941], [100.2556, 16.1896], [100.2604, 16.1906], [100.264, 16.1853], [100.2873, 16.1879], [100.2995, 16.1822], [100.3006, 16.1763], [100.3318, 16.1679], [100.3303, 16.1598], [100.336, 16.1523], [100.3335, 16.145], [100.3445, 16.1447], [100.3528, 16.1188], [100.3754, 16.1256], [100.3772, 16.1359], [100.3937, 16.1549], [100.4245, 16.1591], [100.4371, 16.1528], [100.4316, 16.1403], [100.4367, 16.141], [100.4493, 16.1259], [100.433, 16.1228], [100.4347, 16.1164], [100.4526, 16.1204], [100.4713, 16.1159], [100.4753, 16.0948], [100.5169, 16.0889], [100.5229, 16.0956]]]}}, {"type": "Feature", "properties": {"osm_type": "relation", "osm_id": 865732806, "name": "Wang Sai Phun", "admin_level": "6", "kind": "subdivision_2", "parent_osm_id": 1908804, "parent_name": "Phichit Province", "parent_iso": "TH-66"}, "geometry": {"type": "Polygon", "coordinates": [[[100.4812, 16.2952], [100.5204, 16.2992], [100.5225, 16.3027], [100.5415, 16.2941], [100.5622, 16.2938], [100.5837, 16.3072], [100.6046, 16.3094], [100.6115, 16.317], [100.6253, 16.3171], [100.6251, 16.3398], [100.6197, 16.3467], [100.623, 16.3619], [100.6358, 16.3748], [100.6335, 16.3953], [100.6057, 16.4123], [100.607, 16.4174], [100.601, 16.4138], [100.5932, 16.4173], [100.5729, 16.4546], [100.5578, 16.4651], [100.5477, 16.4603], [100.5314, 16.4632], [100.5271, 16.4584], [100.5195, 16.4628], [100.5045, 16.4607], [100.5049, 16.4638], [100.4745, 16.4672], [100.4362, 16.4538], [100.4269, 16.4354], [100.4213, 16.4329], [100.415, 16.453], [100.4101, 16.4495], [100.4141, 16.4423], [100.4022, 16.4273], [100.4084, 16.4216], [100.4182, 16.4216], [100.4404, 16.4344], [100.4786, 16.4336], [100.4792, 16.4262], [100.508, 16.4173], [100.5152, 16.4108], [100.5163, 16.4018], [100.5209, 16.4021], [100.5207, 16.3948], [100.5285, 16.3925], [100.5286, 16.3795], [100.5244, 16.3764], [100.5141, 16.3754], [100.4891, 16.3846], [100.4788, 16.3809], [100.4714, 16.3653], [100.4668, 16.3642], [100.4685, 16.341], [100.4776, 16.3395], [100.4728, 16.323], [100.4811, 16.3195], [100.4812, 16.2952]]]}}]}