{"type": "FeatureCollection", "parent": {"osm_id": 1908821, "name": "Si Sa Ket Province", "admin_level": "4", "kind": "subdivision_1", "child_kind": "subdivision_2", "iso": "TH-33"}, "features": [{"type": "Feature", "properties": {"osm_type": "relation", "osm_id": 315847822, "name": "Benchalak", "admin_level": "6", "kind": "subdivision_2", "parent_osm_id": 1908821, "parent_name": "Si Sa Ket Province", "parent_iso": "TH-33"}, "geometry": {"type": "Polygon", "coordinates": [[[104.7976, 14.8103], [104.7605, 14.817], [104.7571, 14.8252], [104.7169, 14.8594], [104.696, 14.8546], [104.6584, 14.8589], [104.6298, 14.8565], [104.6129, 14.8679], [104.6038, 14.84], [104.6083, 14.8033], [104.6007, 14.7893], [104.5849, 14.7879], [104.5849, 14.7812], [104.5771, 14.7768], [104.6129, 14.7668], [104.6125, 14.7823], [104.6352, 14.7821], [104.6461, 14.7887], [104.6508, 14.7807], [104.6566, 14.7824], [104.662, 14.7743], [104.674, 14.771], [104.6717, 14.7607], [104.6766, 14.757], [104.6744, 14.7483], [104.679, 14.7361], [104.7062, 14.7329], [104.7253, 14.7194], [104.7314, 14.7078], [104.7398, 14.7057], [104.7749, 14.7288], [104.7824, 14.7254], [104.7898, 14.7293], [104.8103, 14.7221], [104.8195, 14.7336], [104.8186, 14.7417], [104.8354, 14.7325], [104.838, 14.7396], [104.8203, 14.753], [104.8145, 14.7909], [104.799, 14.8032], [104.7976, 14.8103]]]}}, {"type": "Feature", "properties": {"osm_type": "relation", "osm_id": 953948020, "name": "Bueng Bun", "admin_level": "6", "kind": "subdivision_2", "parent_osm_id": 1908821, "parent_name": "Si Sa Ket Province", "parent_iso": "TH-33"}, "geometry": {"type": "Polygon", "coordinates": [[[104.1144, 15.2819], [104.1052, 15.2985], [104.0889, 15.3088], [104.0886, 15.3195], [104.0815, 15.32], [104.064, 15.3495], [104.0611, 15.3432], [104.057, 15.3472], [104.0532, 15.3406], [104.0447, 15.342], [104.044, 15.3328], [104.0386, 15.3346], [104.0362, 15.3276], [104.0228, 15.3319], [104.0302, 15.3252], [104.0265, 15.3215], [104.029, 15.318], [104.0221, 15.3137], [104.0107, 15.3163], [104.0152, 15.2895], [104.0322, 15.2873], [104.0503, 15.2769], [104.0583, 15.2665], [104.1144, 15.2819]]]}}, {"type": "Feature", "properties": {"osm_type": "relation", "osm_id": 525479748, "name": "Kantharalak", "admin_level": "6", "kind": "subdivision_2", "parent_osm_id": 1908821, "parent_name": "Si Sa Ket Province", "parent_iso": "TH-33"}, "geometry": {"type": "Polygon", "coordinates": [[[104.5849, 14.7879], [104.5477, 14.7813], [104.5331, 14.754], [104.5074, 14.7584], [104.4885, 14.7499], [104.4971, 14.7391], [104.5054, 14.7369], [104.5425, 14.681], [104.5297, 14.6557], [104.5171, 14.6488], [104.527, 14.6312], [104.5517, 14.6169], [104.5343, 14.5856], [104.539, 14.5692], [104.5371, 14.5425], [104.5166, 14.5249], [104.4927, 14.4822], [104.4959, 14.4658], [104.507, 14.4544], [104.4997, 14.423], [104.5024, 14.4111], [104.4982, 14.3734], [104.5157, 14.3695], [104.5353, 14.3537], [104.5629, 14.352], [104.5711, 14.3593], [104.5817, 14.3564], [104.5829, 14.3769], [104.603, 14.3951], [104.6282, 14.4058], [104.6447, 14.4223], [104.6512, 14.422], [104.6582, 14.401], [104.6709, 14.3983], [104.6796, 14.3906], [104.6928, 14.4149], [104.711, 14.432], [104.7234, 14.423], [104.7211, 14.409], [104.7258, 14.4015], [104.7348, 14.4131], [104.753, 14.4028], [104.7572, 14.4151], [104.7664, 14.4235], [104.8051, 14.4373], [104.8159, 14.4294], [104.8179, 14.4179], [104.8381, 14.4133], [104.8413, 14.4031], [104.8561, 14.4119], [104.8621, 14.409], [104.8711, 14.4173], [104.9071, 14.3992], [104.9067, 14.4117], [104.8762, 14.4371], [104.8518, 14.424], [104.8379, 14.4273], [104.8291, 14.4411], [104.8327, 14.4493], [104.8452, 14.4536], [104.8511, 14.4665], [104.8598, 14.472], [104.862, 14.4991], [104.8277, 14.5308], [104.822, 14.5468], [104.8155, 14.5513], [104.8289, 14.5805], [104.8271, 14.608], [104.8378, 14.617], [104.8364, 14.6369], [104.8474, 14.6476], [104.8484, 14.6591], [104.8667, 14.6634], [104.8905, 14.6514], [104.8765, 14.6722], [104.8765, 14.7002], [104.85, 14.7187], [104.8433, 14.736], [104.838, 14.7396], [104.8354, 14.7325], [104.8186, 14.7417], [104.8195, 14.7336], [104.8103, 14.7221], [104.7898, 14.7293], [104.7824, 14.7254], [104.7749, 14.7288], [104.7398, 14.7057], [104.7314, 14.7078], [104.7253, 14.7194], [104.7062, 14.7329], [104.679, 14.7361], [104.6744, 14.7483], [104.6766, 14.757], [104.6717, 14.7607], [104.674, 14.771], [104.662, 14.7743], [104.6566, 14.7824], [104.6508, 14.7807], [104.6461, 14.7887], [104.6352, 14.7821], [104.6125, 14.7823], [104.6129, 14.7668], [104.5801, 14.7744], [104.5771, 14.7768], [104.5849, 14.7812], [104.5849, 14.7879]]]}}, {"type": "Feature", "properties": {"osm_type": "relation", "osm_id": 245372280, "name": "Kanthararom", "admin_level": "6", "kind": "subdivision_2", "parent_osm_id": 1908821, "parent_name": "Si Sa Ket Province", "parent_iso": "TH-33"}, "geometry": {"type": "Polygon", "coordinates": [[[104.6904, 15.2252], [104.6793, 15.2264], [104.6773, 15.2389], [104.6652, 15.2577], [104.658, 15.2584], [104.6589, 15.2519], [104.6521, 15.2465], [104.6625, 15.2407], [104.6654, 15.2319], [104.6583, 15.2387], [104.6466, 15.239], [104.6425, 15.2725], [104.6329, 15.2697], [104.6211, 15.2753], [104.6155, 15.2636], [104.6091, 15.2821], [104.6016, 15.2689], [104.5904, 15.2686], [104.582, 15.2574], [104.5754, 15.257], [104.5766, 15.2519], [104.5226, 15.2527], [104.5042, 15.2677], [104.4828, 15.2679], [104.4668, 15.235], [104.4555, 15.1787], [104.4324, 15.1671], [104.4269, 15.1565], [104.4386, 15.1478], [104.4446, 15.1351], [104.4749, 15.1333], [104.4772, 15.1264], [104.4755, 15.1038], [104.4842, 15.098], [104.4709, 15.094], [104.4624, 15.0839], [104.4677, 15.0658], [104.4602, 15.0493], [104.4562, 15.0087], [104.4739, 15.0071], [104.4764, 14.9905], [104.497, 14.9675], [104.496, 14.9503], [104.5162, 14.961], [104.5146, 14.9737], [104.5269, 14.9738], [104.5254, 14.9798], [104.5387, 14.9743], [104.5464, 14.9807], [104.5582, 14.9773], [104.5552, 14.9825], [104.5601, 14.9855], [104.5582, 14.9942], [104.5656, 14.9974], [104.5638, 15.0085], [104.572, 15.0131], [104.5729, 15.0071], [104.581, 15.0027], [104.5933, 15.0032], [104.6003, 15.0158], [104.6042, 15.0098], [104.6105, 15.013], [104.6122, 15.0043], [104.6327, 15.0069], [104.6318, 15.001], [104.6367, 14.9989], [104.6341, 15.0026], [104.6383, 15.0063], [104.6469, 15.0049], [104.6444, 15.0113], [104.6554, 14.9997], [104.661, 15.0056], [104.6583, 15.0143], [104.672, 15.0219], [104.6739, 15.0299], [104.6694, 15.0324], [104.6754, 15.0338], [104.6732, 15.0393], [104.6829, 15.037], [104.6863, 15.0431], [104.6802, 15.0483], [104.6893, 15.0591], [104.6864, 15.074], [104.693, 15.0833], [104.6762, 15.0856], [104.6895, 15.099], [104.6802, 15.1006], [104.6765, 15.093], [104.6702, 15.0982], [104.6808, 15.1085], [104.6761, 15.1135], [104.6811, 15.1189], [104.6792, 15.123], [104.7036, 15.1304], [104.7363, 15.1613], [104.7344, 15.1673], [104.7259, 15.1711], [104.6985, 15.1578], [104.7, 15.1745], [104.7185, 15.1895], [104.7115, 15.1941], [104.7025, 15.1856], [104.6987, 15.1906], [104.7038, 15.2007], [104.6811, 15.2021], [104.6893, 15.2071], [104.6825, 15.2181], [104.6961, 15.2211], [104.6904, 15.2252]]]}}, {"type": "Feature", "properties": {"osm_type": "relation", "osm_id": 987784291, "name": "Khukhan", "admin_level": "6", "kind": "subdivision_2", "parent_osm_id": 1908821, "parent_name": "Si Sa Ket Province", "parent_iso": "TH-33"}, "geometry": {"type": "Polygon", "coordinates": [[[104.0573, 14.6219], [104.0851, 14.6263], [104.0929, 14.6154], [104.1198, 14.6133], [104.1211, 14.6281], [104.1347, 14.6306], [104.1356, 14.6373], [104.1545, 14.631], [104.1669, 14.6392], [104.1919, 14.6306], [104.1981, 14.5831], [104.211, 14.577], [104.2478, 14.5794], [104.2487, 14.5547], [104.2414, 14.5438], [104.2597, 14.529], [104.2557, 14.5017], [104.2617, 14.5093], [104.2881, 14.5161], [104.2863, 14.5318], [104.2951, 14.5397], [104.287, 14.5469], [104.2845, 14.6042], [104.3133, 14.6485], [104.2888, 14.6676], [104.2852, 14.6758], [104.2957, 14.7037], [104.3114, 14.7174], [104.3071, 14.7272], [104.2958, 14.7343], [104.3105, 14.7488], [104.3046, 14.7901], [104.2902, 14.7968], [104.2753, 14.8306], [104.2934, 14.8873], [104.2722, 14.8968], [104.2292, 14.8917], [104.2182, 14.895], [104.1934, 14.8821], [104.134, 14.8985], [104.1313, 14.8727], [104.1371, 14.8556], [104.1266, 14.8472], [104.1278, 14.8257], [104.12, 14.8135], [104.1233, 14.8119], [104.1203, 14.7902], [104.1282, 14.7739], [104.1243, 14.7687], [104.0675, 14.7666], [104.041, 14.7593], [104.0374, 14.7493], [103.9994, 14.7479], [103.9988, 14.7337], [104.0041, 14.721], [104.0492, 14.6737], [104.053, 14.6515], [104.0562, 14.6516], [104.0513, 14.6329], [104.0573, 14.6219]]]}}, {"type": "Feature", "properties": {"osm_type": "relation", "osm_id": 624452752, "name": "Khun Han", "admin_level": "6", "kind": "subdivision_2", "parent_osm_id": 1908821, "parent_name": "Si Sa Ket Province", "parent_iso": "TH-33"}, "geometry": {"type": "Polygon", "coordinates": [[[104.4885, 14.7499], [104.439, 14.7296], [104.4258, 14.7399], [104.4147, 14.7361], [104.417, 14.7233], [104.4233, 14.7177], [104.422, 14.707], [104.4021, 14.697], [104.3957, 14.6829], [104.347, 14.6686], [104.3133, 14.6485], [104.2865, 14.6096], [104.287, 14.5469], [104.2951, 14.5397], [104.2863, 14.5318], [104.2881, 14.5161], [104.2584, 14.5067], [104.2512, 14.4705], [104.2637, 14.4379], [104.2617, 14.4202], [104.2778, 14.4129], [104.2768, 14.4085], [104.286, 14.3992], [104.2912, 14.4004], [104.3229, 14.3723], [104.3492, 14.3681], [104.3576, 14.3723], [104.3824, 14.3693], [104.3968, 14.3744], [104.4069, 14.3658], [104.4159, 14.3717], [104.4365, 14.3571], [104.4618, 14.3595], [104.4631, 14.3449], [104.474, 14.3473], [104.4797, 14.3526], [104.48, 14.3638], [104.4982, 14.3734], [104.5024, 14.4111], [104.4997, 14.423], [104.507, 14.4544], [104.4959, 14.4658], [104.4927, 14.4822], [104.5166, 14.5249], [104.5371, 14.5425], [104.539, 14.5692], [104.5343, 14.5856], [104.5517, 14.6169], [104.527, 14.6312], [104.5171, 14.6488], [104.5297, 14.6557], [104.5425, 14.681], [104.5054, 14.7369], [104.4971, 14.7391], [104.4885, 14.7499]]]}}, {"type": "Feature", "properties": {"osm_type": "relation", "osm_id": 248501990, "name": "Mueang Chan", "admin_level": "6", "kind": "subdivision_2", "parent_osm_id": 1908821, "parent_name": "Si Sa Ket Province", "parent_iso": "TH-33"}, "geometry": {"type": "Polygon", "coordinates": [[[104.0518, 15.1318], [104.0672, 15.1328], [104.0939, 15.1632], [104.0697, 15.1759], [104.065, 15.1912], [104.0498, 15.2055], [104.0451, 15.2215], [104.0207, 15.242], [103.9968, 15.2522], [103.9857, 15.2473], [103.9922, 15.2368], [103.9894, 15.2312], [103.985, 15.2329], [103.9877, 15.2253], [103.9763, 15.2263], [103.9704, 15.2201], [103.9794, 15.2127], [103.9764, 15.2054], [103.9839, 15.2016], [103.9764, 15.1999], [103.9776, 15.1903], [103.9663, 15.1853], [103.9714, 15.1801], [103.9673, 15.1646], [103.9784, 15.1588], [103.9828, 15.1628], [103.9839, 15.1552], [104.0001, 15.1498], [103.9996, 15.1373], [104.0424, 15.1407], [104.0518, 15.1318]]]}}, {"type": "Feature", "properties": {"osm_type": "relation", "osm_id": 347838008, "name": "Mueang Si Sa Ket", "admin_level": "6", "kind": "subdivision_2", "parent_osm_id": 1908821, "parent_name": "Si Sa Ket Province", "parent_iso": "TH-33"}, "geometry": {"type": "Polygon", "coordinates": [[[104.4317, 15.1507], [104.4177, 15.1463], [104.3823, 15.1595], [104.3873, 15.1925], [104.3785, 15.1946], [104.3639, 15.1844], [104.3539, 15.1846], [104.3348, 15.2066], [104.3247, 15.2046], [104.2902, 15.2476], [104.2749, 15.2526], [104.2698, 15.2463], [104.2703, 15.227], [104.2453, 15.2265], [104.2464, 15.2022], [104.2588, 15.194], [104.2457, 15.1814], [104.2458, 15.1619], [104.2684, 15.1072], [104.2638, 15.0981], [104.2565, 15.1012], [104.2592, 15.0905], [104.2518, 15.0917], [104.2509, 15.0842], [104.2443, 15.0848], [104.2457, 15.077], [104.2345, 15.0761], [104.2382, 15.0714], [104.2171, 15.0492], [104.2291, 15.0424], [104.229, 15.0364], [104.2492, 15.0258], [104.2497, 15.013], [104.2731, 15.0118], [104.2882, 15.0337], [104.2995, 15.0258], [104.3007, 14.963], [104.3475, 14.9465], [104.3604, 14.9521], [104.3759, 14.9685], [104.3938, 14.9659], [104.4246, 14.9775], [104.4502, 15.0048], [104.4571, 15.0064], [104.4602, 15.0493], [104.4677, 15.0658], [104.4624, 15.0839], [104.4709, 15.094], [104.4842, 15.098], [104.4755, 15.1038], [104.4738, 15.111], [104.4788, 15.1202], [104.4749, 15.1333], [104.4446, 15.1351], [104.4386, 15.1478], [104.4317, 15.1507]]]}}, {"type": "Feature", "properties": {"osm_type": "relation", "osm_id": 418919206, "name": "Nam Kliang", "admin_level": "6", "kind": "subdivision_2", "parent_osm_id": 1908821, "parent_name": "Si Sa Ket Province", "parent_iso": "TH-33"}, "geometry": {"type": "Polygon", "coordinates": [[[104.6129, 14.8679], [104.6116, 14.8756], [104.601, 14.8869], [104.6063, 14.8883], [104.6059, 14.8934], [104.5972, 14.8979], [104.6012, 14.898], [104.6014, 14.906], [104.5928, 14.9041], [104.5975, 14.9159], [104.592, 14.9324], [104.6006, 14.941], [104.591, 14.9509], [104.5967, 14.9515], [104.6008, 14.961], [104.5948, 14.9643], [104.5971, 14.9758], [104.6059, 14.9766], [104.6029, 14.9882], [104.6251, 14.9951], [104.6281, 15.0003], [104.623, 15.0055], [104.6122, 15.0043], [104.6105, 15.013], [104.6042, 15.0098], [104.6003, 15.0158], [104.5933, 15.0032], [104.581, 15.0027], [104.5729, 15.0071], [104.572, 15.0131], [104.5638, 15.0085], [104.5656, 14.9974], [104.5582, 14.9942], [104.5601, 14.9855], [104.5552, 14.9825], [104.5582, 14.9773], [104.5464, 14.9807], [104.5387, 14.9743], [104.5254, 14.9798], [104.5269, 14.9738], [104.5146, 14.9737], [104.5162, 14.961], [104.499, 14.9497], [104.4945, 14.9521], [104.497, 14.9675], [104.4764, 14.9905], [104.4739, 15.0071], [104.4562, 15.0087], [104.4272, 14.9825], [104.422, 14.9722], [104.4336, 14.9555], [104.4331, 14.9112], [104.4467, 14.9007], [104.4341, 14.8796], [104.4462, 14.8608], [104.4791, 14.8855], [104.4879, 14.8874], [104.5376, 14.8506], [104.5537, 14.8302], [104.5491, 14.8251], [104.5782, 14.8185], [104.5775, 14.8056], [104.5822, 14.8119], [104.6057, 14.817], [104.6044, 14.8449], [104.6098, 14.8497], [104.6065, 14.8522], [104.6129, 14.8679]]]}}, {"type": "Feature", "properties": {"osm_type": "relation", "osm_id": 415176480, "name": "Non Khun", "admin_level": "6", "kind": "subdivision_2", "parent_osm_id": 1908821, "parent_name": "Si Sa Ket Province", "parent_iso": "TH-33"}, "geometry": {"type": "Polygon", "coordinates": [[[104.7976, 14.8103], [104.8018, 14.824], [104.8145, 14.8346], [104.8104, 14.848], [104.8166, 14.8556], [104.8047, 14.8984], [104.7779, 14.8988], [104.7716, 14.9114], [104.7617, 14.9139], [104.7626, 14.9207], [104.7544, 14.9203], [104.7349, 14.9382], [104.7205, 14.9256], [104.719, 14.9321], [104.7002, 14.9357], [104.6879, 14.9459], [104.6839, 14.9552], [104.6884, 14.9695], [104.6822, 14.9772], [104.6844, 15.0048], [104.6775, 15.0181], [104.6683, 15.0215], [104.6583, 15.0143], [104.661, 15.0056], [104.6554, 14.9997], [104.6444, 15.0113], [104.6469, 15.0049], [104.6383, 15.0063], [104.6341, 15.0026], [104.6367, 14.9989], [104.6318, 15.001], [104.6327, 15.0069], [104.623, 15.0055], [104.6281, 15.0003], [104.6251, 14.9951], [104.6029, 14.9882], [104.6059, 14.9766], [104.5971, 14.9758], [104.5948, 14.9643], [104.6008, 14.961], [104.5967, 14.9515], [104.591, 14.9509], [104.6006, 14.941], [104.592, 14.9324], [104.5975, 14.9159], [104.5928, 14.9041], [104.6014, 14.906], [104.6012, 14.898], [104.5972, 14.8979], [104.6059, 14.8934], [104.6063, 14.8883], [104.601, 14.8869], [104.6116, 14.8756], [104.6142, 14.8656], [104.6298, 14.8565], [104.6584, 14.8589], [104.696, 14.8546], [104.7169, 14.8594], [104.7571, 14.8252], [104.7605, 14.817], [104.7976, 14.8103]]]}}, {"type": "Feature", "properties": {"osm_type": "relation", "osm_id": 399698855, "name": "Phayu", "admin_level": "6", "kind": "subdivision_2", "parent_osm_id": 1908821, "parent_name": "Si Sa Ket Province", "parent_iso": "TH-33"}, "geometry": {"type": "Polygon", "coordinates": [[[104.3007, 14.963], [104.3006, 14.8871], [104.3503, 14.8781], [104.3835, 14.8553], [104.3982, 14.8554], [104.4041, 14.8411], [104.3987, 14.8393], [104.3994, 14.8312], [104.4212, 14.8375], [104.4283, 14.8239], [104.4502, 14.8287], [104.4462, 14.8608], [104.4341, 14.8796], [104.4467, 14.9007], [104.4331, 14.9112], [104.4336, 14.9555], [104.422, 14.9722], [104.4246, 14.9775], [104.3938, 14.9659], [104.3759, 14.9685], [104.3514, 14.9459], [104.3007, 14.963]]]}}, {"type": "Feature", "properties": {"osm_type": "relation", "osm_id": 658451727, "name": "Pho Si Suwan", "admin_level": "6", "kind": "subdivision_2", "parent_osm_id": 1908821, "parent_name": "Si Sa Ket Province", "parent_iso": "TH-33"}, "geometry": {"type": "Polygon", "coordinates": [[[104.0152, 15.2895], [104.0026, 15.2893], [103.9965, 15.2955], [103.9987, 15.2732], [103.9908, 15.2683], [103.9737, 15.2817], [103.9777, 15.2636], [104.0207, 15.242], [104.0451, 15.2215], [104.0498, 15.2055], [104.065, 15.1912], [104.0697, 15.1759], [104.0939, 15.1632], [104.1112, 15.1607], [104.1099, 15.1891], [104.1205, 15.2044], [104.1186, 15.2153], [104.1253, 15.2338], [104.1215, 15.2482], [104.1278, 15.2631], [104.0965, 15.2689], [104.0962, 15.2764], [104.0898, 15.2721], [104.075, 15.2741], [104.0583, 15.2665], [104.0503, 15.2769], [104.0322, 15.2873], [104.0152, 15.2895]]]}}, {"type": "Feature", "properties": {"osm_type": "relation", "osm_id": 809147476, "name": "Phrai Bueng", "admin_level": "6", "kind": "subdivision_2", "parent_osm_id": 1908821, "parent_name": "Si Sa Ket Province", "parent_iso": "TH-33"}, "geometry": {"type": "Polygon", "coordinates": [[[104.3133, 14.6485], [104.347, 14.6686], [104.3957, 14.6829], [104.4021, 14.697], [104.422, 14.707], [104.4233, 14.7177], [104.4121, 14.7386], [104.4215, 14.7524], [104.4149, 14.7632], [104.4033, 14.7661], [104.398, 14.7753], [104.4003, 14.7848], [104.3853, 14.7952], [104.3912, 14.803], [104.3841, 14.8181], [104.3859, 14.8273], [104.3989, 14.83], [104.3987, 14.8393], [104.4041, 14.8411], [104.4002, 14.854], [104.3835, 14.8553], [104.3503, 14.8781], [104.2934, 14.8873], [104.2753, 14.8306], [104.2902, 14.7968], [104.3046, 14.7901], [104.3105, 14.7488], [104.2958, 14.7343], [104.3071, 14.7272], [104.3114, 14.7174], [104.2957, 14.7037], [104.2852, 14.6758], [104.2888, 14.6676], [104.3133, 14.6485]]]}}, {"type": "Feature", "properties": {"osm_type": "relation", "osm_id": 740175627, "name": "Phu Sing", "admin_level": "6", "kind": "subdivision_2", "parent_osm_id": 1908821, "parent_name": "Si Sa Ket Province", "parent_iso": "TH-33"}, "geometry": {"type": "Polygon", "coordinates": [[[104.0571, 14.3434], [104.0895, 14.3479], [104.1017, 14.3683], [104.1304, 14.3756], [104.138, 14.3718], [104.1361, 14.3579], [104.143, 14.352], [104.1762, 14.3586], [104.1776, 14.3713], [104.1731, 14.376], [104.1891, 14.3833], [104.2023, 14.3803], [104.2143, 14.3672], [104.2331, 14.3697], [104.2484, 14.3781], [104.2523, 14.392], [104.2768, 14.4085], [104.2778, 14.4129], [104.2617, 14.4202], [104.2637, 14.4379], [104.2512, 14.4705], [104.2567, 14.4843], [104.2597, 14.529], [104.2414, 14.5438], [104.2487, 14.5547], [104.2478, 14.5794], [104.211, 14.577], [104.1981, 14.5831], [104.1919, 14.6306], [104.1669, 14.6392], [104.1545, 14.631], [104.1356, 14.6373], [104.1347, 14.6306], [104.1211, 14.6281], [104.1198, 14.6133], [104.0929, 14.6154], [104.0851, 14.6263], [104.0573, 14.6219], [104.0554, 14.5799], [104.0457, 14.5661], [104.0468, 14.5555], [104.032, 14.5442], [104.0371, 14.5163], [104.0351, 14.4982], [104.0536, 14.4947], [104.0474, 14.483], [104.0513, 14.4726], [104.0581, 14.4691], [104.0504, 14.4336], [104.0533, 14.4135], [104.0468, 14.4079], [104.0506, 14.379], [104.0435, 14.3613], [104.0523, 14.356], [104.0571, 14.3434]]]}}, {"type": "Feature", "properties": {"osm_type": "relation", "osm_id": 558024525, "name": "Prang Ku", "admin_level": "6", "kind": "subdivision_2", "parent_osm_id": 1908821, "parent_name": "Si Sa Ket Province", "parent_iso": "TH-33"}, "geometry": {"type": "Polygon", "coordinates": [[[103.956, 14.9377], [103.9554, 14.9423], [103.9458, 14.9433], [103.9482, 14.9364], [103.9369, 14.9151], [103.939, 14.9081], [103.9281, 14.9034], [103.9168, 14.8832], [103.9209, 14.8722], [103.9119, 14.867], [103.902, 14.8489], [103.909, 14.8364], [103.9188, 14.8287], [103.9944, 14.8002], [104.0036, 14.7699], [103.9994, 14.7479], [104.0374, 14.7493], [104.041, 14.7593], [104.0675, 14.7666], [104.1243, 14.7687], [104.1282, 14.7739], [104.1203, 14.7902], [104.1233, 14.8119], [104.12, 14.8135], [104.1278, 14.8257], [104.1266, 14.8472], [104.1371, 14.8556], [104.1335, 14.8575], [104.1367, 14.8655], [104.1313, 14.8727], [104.1348, 14.8792], [104.1311, 14.8843], [104.136, 14.8934], [104.1331, 14.8979], [104.1389, 14.9009], [104.136, 14.9061], [104.1394, 14.9147], [104.1324, 14.9234], [104.1345, 14.9326], [104.1241, 14.9395], [104.1253, 14.9447], [104.1065, 14.9435], [104.0838, 14.9351], [104.0529, 14.9414], [104.0539, 14.9261], [104.0441, 14.923], [104.006, 14.9339], [103.9985, 14.9266], [103.9833, 14.9342], [103.956, 14.9377]]]}}, {"type": "Feature", "properties": {"osm_type": "relation", "osm_id": 386320240, "name": "Rasi Salai", "admin_level": "6", "kind": "subdivision_2", "parent_osm_id": 1908821, "parent_name": "Si Sa Ket Province", "parent_iso": "TH-33"}, "geometry": {"type": "Polygon", "coordinates": [[[104.1144, 15.2819], [104.1375, 15.2734], [104.1507, 15.2485], [104.2001, 15.2336], [104.2193, 15.253], [104.2205, 15.2619], [104.2305, 15.262], [104.2398, 15.2733], [104.2448, 15.242], [104.2425, 15.2299], [104.2663, 15.2258], [104.2703, 15.227], [104.2698, 15.2463], [104.2749, 15.2526], [104.2902, 15.2476], [104.3115, 15.2512], [104.3311, 15.264], [104.3245, 15.2841], [104.3283, 15.3056], [104.345, 15.345], [104.321, 15.3467], [104.3045, 15.3421], [104.2936, 15.3466], [104.2908, 15.3543], [104.2805, 15.3575], [104.2742, 15.3661], [104.2435, 15.3783], [104.2329, 15.4032], [104.1971, 15.4549], [104.1743, 15.4616], [104.1711, 15.4724], [104.1552, 15.4514], [104.1154, 15.4507], [104.1078, 15.4588], [104.0977, 15.4315], [104.0858, 15.4262], [104.0785, 15.4287], [104.0629, 15.4118], [104.0415, 15.428], [104.0204, 15.4705], [104.0111, 15.4564], [103.996, 15.448], [103.989, 15.407], [103.9933, 15.3939], [104.0037, 15.3998], [104.0042, 15.41], [104.0129, 15.4033], [104.0181, 15.4119], [104.0267, 15.4036], [104.0323, 15.4081], [104.0499, 15.402], [104.0507, 15.3957], [104.06, 15.4053], [104.0749, 15.3918], [104.0725, 15.3814], [104.0843, 15.3841], [104.0798, 15.3756], [104.0856, 15.3702], [104.0852, 15.3634], [104.0908, 15.3648], [104.0843, 15.3567], [104.0921, 15.3578], [104.0908, 15.3484], [104.0801, 15.3487], [104.0755, 15.354], [104.0687, 15.3474], [104.064, 15.3495], [104.0815, 15.32], [104.0886, 15.3195], [104.0889, 15.3088], [104.1052, 15.2985], [104.1144, 15.2819]]]}}, {"type": "Feature", "properties": {"osm_type": "relation", "osm_id": 548680963, "name": "Si Rattana", "admin_level": "6", "kind": "subdivision_2", "parent_osm_id": 1908821, "parent_name": "Si Sa Ket Province", "parent_iso": "TH-33"}, "geometry": {"type": "Polygon", "coordinates": [[[104.6057, 14.817], [104.5822, 14.8119], [104.5775, 14.8056], [104.5782, 14.8185], [104.5491, 14.8251], [104.5537, 14.8302], [104.5376, 14.8506], [104.4938, 14.8842], [104.4833, 14.8877], [104.4462, 14.8608], [104.4502, 14.8287], [104.4283, 14.8239], [104.4212, 14.8375], [104.3888, 14.8292], [104.3841, 14.8181], [104.3912, 14.803], [104.3853, 14.7952], [104.4003, 14.7848], [104.398, 14.7753], [104.4033, 14.7661], [104.4197, 14.7591], [104.4215, 14.7524], [104.4127, 14.7366], [104.4206, 14.7355], [104.4258, 14.7399], [104.439, 14.7296], [104.5074, 14.7584], [104.5331, 14.754], [104.5477, 14.7813], [104.5774, 14.7894], [104.6007, 14.7893], [104.6083, 14.8033], [104.6057, 14.817]]]}}, {"type": "Feature", "properties": {"osm_type": "relation", "osm_id": 633433723, "name": "Sila Lat", "admin_level": "6", "kind": "subdivision_2", "parent_osm_id": 1908821, "parent_name": "Si Sa Ket Province", "parent_iso": "TH-33"}, "geometry": {"type": "Polygon", "coordinates": [[[104.1217, 15.5631], [104.0997, 15.5675], [104.1056, 15.5467], [104.0923, 15.5517], [104.082, 15.5477], [104.0823, 15.5433], [104.0739, 15.5399], [104.078, 15.5325], [104.0741, 15.5225], [104.0663, 15.5238], [104.0555, 15.5154], [104.06, 15.5024], [104.0316, 15.4892], [104.0225, 15.4785], [104.0204, 15.4705], [104.0415, 15.428], [104.0629, 15.4118], [104.0785, 15.4287], [104.0858, 15.4262], [104.0977, 15.4315], [104.1078, 15.4588], [104.1154, 15.4507], [104.1552, 15.4514], [104.1704, 15.4692], [104.1691, 15.4776], [104.1328, 15.5122], [104.1347, 15.5249], [104.1412, 15.5287], [104.1341, 15.5385], [104.1297, 15.5588], [104.1217, 15.5631]]]}}, {"type": "Feature", "properties": {"osm_type": "relation", "osm_id": 205458296, "name": "Uthumphon Phisai", "admin_level": "6", "kind": "subdivision_2", "parent_osm_id": 1908821, "parent_name": "Si Sa Ket Province", "parent_iso": "TH-33"}, "geometry": {"type": "Polygon", "coordinates": [[[104.0962, 15.2764], [104.0965, 15.2689], [104.1278, 15.2631], [104.1215, 15.2482], [104.1253, 15.2338], [104.1186, 15.2153], [104.1205, 15.2044], [104.1099, 15.1891], [104.1112, 15.1607], [104.0939, 15.1632], [104.0672, 15.1328], [104.0518, 15.1318], [104.0568, 15.1123], [104.0669, 15.1137], [104.0777, 15.1084], [104.0709, 15.0991], [104.0604, 15.101], [104.0612, 15.088], [104.0966, 15.0577], [104.0807, 15.0171], [104.0885, 14.9953], [104.0779, 14.9805], [104.089, 14.9704], [104.0877, 14.9516], [104.0948, 14.9382], [104.127, 14.9478], [104.1282, 14.9581], [104.1235, 14.9582], [104.1218, 14.9657], [104.1269, 14.9763], [104.122, 14.9831], [104.1169, 14.9812], [104.1143, 14.9905], [104.1211, 14.9972], [104.1197, 15.0015], [104.1236, 15.0012], [104.1211, 15.0038], [104.1272, 15.0045], [104.1272, 15.0113], [104.1484, 15.0185], [104.1445, 15.0258], [104.1537, 15.0304], [104.1524, 15.0338], [104.1607, 15.0336], [104.16, 15.0416], [104.1704, 15.0409], [104.1725, 15.0477], [104.1744, 15.0426], [104.1887, 15.0482], [104.1933, 15.0435], [104.2001, 15.0457], [104.2011, 15.0535], [104.2211, 15.0522], [104.2256, 15.0618], [104.2382, 15.0714], [104.2345, 15.0761], [104.2457, 15.077], [104.2443, 15.0848], [104.2509, 15.0842], [104.2518, 15.0917], [104.2592, 15.0905], [104.2565, 15.1012], [104.2638, 15.0981], [104.2684, 15.1072], [104.2458, 15.1619], [104.2457, 15.1814], [104.2588, 15.194], [104.2464, 15.2022], [104.2398, 15.2733], [104.2305, 15.262], [104.2205, 15.2619], [104.2193, 15.253], [104.2001, 15.2336], [104.1507, 15.2485], [104.1344, 15.2751], [104.1144, 15.2819], [104.0962, 15.2764]]]}}, {"type": "Feature", "properties": {"osm_type": "relation", "osm_id": 857942011, "name": "Wang Hin", "admin_level": "6", "kind": "subdivision_2", "parent_osm_id": 1908821, "parent_name": "Si Sa Ket Province", "parent_iso": "TH-33"}, "geometry": {"type": "Polygon", "coordinates": [[[104.2934, 14.8873], [104.3018, 14.8886], [104.2983, 14.9251], [104.3017, 14.99], [104.2974, 15.0037], [104.2995, 15.0258], [104.2882, 15.0337], [104.2731, 15.0118], [104.2497, 15.013], [104.2492, 15.0258], [104.229, 15.0364], [104.2291, 15.0424], [104.2149, 15.0545], [104.2078, 15.0552], [104.1933, 15.0435], [104.1887, 15.0482], [104.1744, 15.0426], [104.1725, 15.0477], [104.1704, 15.0409], [104.16, 15.0416], [104.1607, 15.0336], [104.1524, 15.0338], [104.1537, 15.0304], [104.1445, 15.0258], [104.1484, 15.0185], [104.1383, 15.0175], [104.1257, 15.0098], [104.1272, 15.0045], [104.1211, 15.0038], [104.1236, 15.0012], [104.1197, 15.0015], [104.1211, 14.9972], [104.1143, 14.9905], [104.1169, 14.9812], [104.122, 14.9831], [104.1269, 14.9763], [104.1218, 14.9657], [104.1235, 14.9582], [104.1282, 14.9581], [104.1241, 14.9395], [104.1345, 14.9326], [104.1324, 14.9234], [104.1394, 14.9147], [104.136, 14.9061], [104.1444, 14.8939], [104.1934, 14.8821], [104.2182, 14.895], [104.2292, 14.8917], [104.2722, 14.8968], [104.2934, 14.8873]]]}}, {"type": "Feature", "properties": {"osm_type": "relation", "osm_id": 333562155, "name": "Yang Chum Noi", "admin_level": "6", "kind": "subdivision_2", "parent_osm_id": 1908821, "parent_name": "Si Sa Ket Province", "parent_iso": "TH-33"}, "geometry": {"type": "Polygon", "coordinates": [[[104.4828, 15.2679], [104.3822, 15.2947], [104.3882, 15.3225], [104.3839, 15.3295], [104.3766, 15.3305], [104.3747, 15.3221], [104.369, 15.3214], [104.3536, 15.3446], [104.3455, 15.3419], [104.3283, 15.3056], [104.3245, 15.2841], [104.3311, 15.264], [104.3115, 15.2512], [104.2902, 15.2476], [104.3247, 15.2046], [104.3348, 15.2066], [104.3539, 15.1846], [104.3639, 15.1844], [104.3785, 15.1946], [104.3873, 15.1925], [104.3823, 15.1595], [104.4247, 15.1464], [104.4317, 15.1507], [104.4269, 15.1565], [104.4324, 15.1671], [104.4555, 15.1787], [104.4668, 15.235], [104.4828, 15.2679]]]}}]}