{"type": "FeatureCollection", "parent": {"osm_id": 192732, "name": "Northern Ireland", "admin_level": "4", "kind": "subdivision_1", "child_kind": "subdivision_2", "iso": ""}, "features": [{"type": "Feature", "properties": {"osm_type": "relation", "osm_id": 402087631, "name": "Antrim and Newtownabbey", "admin_level": "6", "kind": "subdivision_2", "parent_osm_id": 192732, "parent_name": "Northern Ireland", "parent_iso": ""}, "geometry": {"type": "Polygon", "coordinates": [[[-6.478, 54.7809], [-6.4787, 54.7728], [-6.4582, 54.7619], [-6.4969, 54.7137], [-6.4702, 54.6853], [-6.4081, 54.6489], [-6.427, 54.5683], [-6.3247, 54.5914], [-6.3056, 54.5729], [-6.2822, 54.5801], [-6.2955, 54.5967], [-6.2646, 54.598], [-6.2377, 54.5881], [-6.2185, 54.6021], [-6.1929, 54.6005], [-6.1465, 54.6112], [-6.1491, 54.6208], [-6.1239, 54.6177], [-6.0883, 54.6244], [-6.0465, 54.606], [-6.0421, 54.613], [-6.0222, 54.6118], [-6.0246, 54.6288], [-5.9874, 54.6595], [-5.9719, 54.6454], [-5.9498, 54.6524], [-5.9517, 54.6651], [-5.9139, 54.648], [-5.8967, 54.6741], [-5.8693, 54.6889], [-5.8908, 54.696], [-5.89, 54.7105], [-5.9028, 54.7088], [-5.9116, 54.7163], [-5.8934, 54.7453], [-5.9062, 54.7506], [-5.8979, 54.759], [-5.907, 54.7658], [-5.8885, 54.7724], [-5.9018, 54.7803], [-5.9231, 54.7723], [-5.9496, 54.7802], [-5.9637, 54.7737], [-5.9749, 54.7833], [-5.9878, 54.774], [-6.0131, 54.7884], [-6.0109, 54.8001], [-6.0551, 54.7983], [-6.0498, 54.7918], [-6.0679, 54.7972], [-6.0808, 54.7964], [-6.074, 54.7917], [-6.1037, 54.7926], [-6.1123, 54.8071], [-6.173, 54.8119], [-6.1995, 54.8064], [-6.1999, 54.7981], [-6.2282, 54.7885], [-6.2687, 54.799], [-6.2641, 54.7908], [-6.2893, 54.7897], [-6.3032, 54.7964], [-6.3224, 54.7907], [-6.3464, 54.8011], [-6.3857, 54.7792], [-6.4346, 54.7894], [-6.478, 54.7809]]]}}, {"type": "Feature", "properties": {"osm_type": "relation", "osm_id": 204524485, "name": "Armagh City, Banbridge and Craigavon", "admin_level": "6", "kind": "subdivision_2", "parent_osm_id": 192732, "parent_name": "Northern Ireland", "parent_iso": ""}, "geometry": {"type": "Polygon", "coordinates": [[[-6.427, 54.5683], [-6.5422, 54.5422], [-6.5927, 54.5035], [-6.6304, 54.5039], [-6.6516, 54.4868], [-6.6507, 54.4701], [-6.698, 54.4423], [-6.711, 54.404], [-6.7291, 54.4017], [-6.7359, 54.4092], [-6.7619, 54.4071], [-6.7946, 54.4151], [-6.8084, 54.3991], [-6.8056, 54.3797], [-6.8379, 54.3357], [-6.8648, 54.3302], [-6.8519, 54.2921], [-6.8624, 54.2812], [-6.8759, 54.2874], [-6.8789, 54.2792], [-6.8286, 54.2615], [-6.8171, 54.2231], [-6.8013, 54.2212], [-6.8019, 54.2133], [-6.7765, 54.199], [-6.7569, 54.1991], [-6.7417, 54.182], [-6.722, 54.1821], [-6.711, 54.1981], [-6.6928, 54.2003], [-6.645, 54.1799], [-6.6008, 54.2191], [-6.5861, 54.2137], [-6.5729, 54.2243], [-6.5259, 54.2373], [-6.505, 54.2258], [-6.4677, 54.2551], [-6.4588, 54.2522], [-6.44, 54.2676], [-6.4026, 54.2731], [-6.3694, 54.2654], [-6.3524, 54.2741], [-6.332, 54.2633], [-6.2895, 54.2652], [-6.2801, 54.2719], [-6.255, 54.2579], [-6.2425, 54.2638], [-6.2133, 54.2587], [-6.1824, 54.2443], [-6.1899, 54.2377], [-6.1613, 54.219], [-6.1376, 54.2432], [-6.1079, 54.2402], [-6.0711, 54.2545], [-6.0514, 54.244], [-6.0398, 54.2632], [-6.0767, 54.2636], [-6.0636, 54.2716], [-6.0734, 54.2797], [-6.0599, 54.281], [-6.0609, 54.2915], [-6.1054, 54.3186], [-6.0994, 54.3267], [-6.0646, 54.327], [-6.0195, 54.3706], [-6.0218, 54.3776], [-6.0424, 54.3788], [-6.0381, 54.3844], [-6.0652, 54.3874], [-6.0563, 54.4036], [-6.0874, 54.4102], [-6.1348, 54.4358], [-6.1599, 54.4343], [-6.1575, 54.4442], [-6.2112, 54.4328], [-6.2098, 54.4451], [-6.259, 54.4796], [-6.2402, 54.4954], [-6.2741, 54.5196], [-6.2787, 54.5575], [-6.3056, 54.5729], [-6.3247, 54.5914], [-6.427, 54.5683]]]}}, {"type": "Feature", "properties": {"osm_type": "relation", "osm_id": 326637584, "name": "Belfast", "admin_level": "6", "kind": "subdivision_2", "parent_osm_id": 192732, "parent_name": "Northern Ireland", "parent_iso": ""}, "geometry": {"type": "Polygon", "coordinates": [[[-6.0465, 54.606], [-6.042, 54.5642], [-6.0608, 54.5552], [-6.0422, 54.5468], [-6.0176, 54.5509], [-5.9768, 54.5307], [-5.9424, 54.5437], [-5.9342, 54.5403], [-5.9132, 54.5667], [-5.8902, 54.5619], [-5.8242, 54.5816], [-5.8101, 54.6156], [-5.8318, 54.6107], [-5.8303, 54.6168], [-5.8595, 54.6236], [-5.8561, 54.6337], [-5.9139, 54.648], [-5.9517, 54.6651], [-5.9498, 54.6524], [-5.9719, 54.6454], [-5.9874, 54.6595], [-6.0246, 54.6288], [-6.0222, 54.6118], [-6.0421, 54.613], [-6.0465, 54.606]]]}}, {"type": "Feature", "properties": {"osm_type": "relation", "osm_id": 470016861, "name": "Causeway Coast and Glens", "admin_level": "6", "kind": "subdivision_2", "parent_osm_id": 192732, "parent_name": "Northern Ireland", "parent_iso": ""}, "geometry": {"type": "MultiPolygon", "coordinates": [[[[-7.1479, 55.0467], [-7.1668, 55.034], [-7.134, 55.0049], [-7.1275, 54.9853], [-7.0819, 54.9858], [-7.0946, 54.9591], [-7.0885, 54.9275], [-7.0445, 54.914], [-7.0355, 54.8885], [-7.0202, 54.887], [-7.0401, 54.8674], [-7.0397, 54.8455], [-7.0162, 54.8353], [-7.0078, 54.8209], [-6.9883, 54.833], [-6.9727, 54.8282], [-6.9471, 54.8338], [-6.913, 54.8204], [-6.8879, 54.8318], [-6.8875, 54.853], [-6.8582, 54.8576], [-6.8518, 54.851], [-6.8035, 54.8466], [-6.7833, 54.8621], [-6.7859, 54.87], [-6.7692, 54.8732], [-6.7585, 54.9031], [-6.7767, 54.9138], [-6.7391, 54.9288], [-6.7084, 54.9318], [-6.6912, 54.9163], [-6.6579, 54.9224], [-6.6444, 54.9374], [-6.6184, 54.9382], [-6.586, 54.9235], [-6.5561, 54.9371], [-6.5378, 54.9336], [-6.5386, 54.952], [-6.5009, 54.9188], [-6.4688, 54.9249], [-6.4231, 54.9168], [-6.4294, 54.9366], [-6.4088, 54.9405], [-6.4492, 54.9647], [-6.428, 54.9641], [-6.4246, 54.973], [-6.4024, 54.9666], [-6.3916, 54.9816], [-6.358, 54.9754], [-6.3466, 54.9881], [-6.324, 54.9792], [-6.3247, 55.0102], [-6.2802, 55.0048], [-6.2054, 55.0296], [-6.1862, 55.0261], [-6.1818, 55.0344], [-6.1663, 55.0307], [-6.1327, 54.9882], [-6.099, 54.984], [-6.0257, 55.037], [-6.0152, 55.0355], [-5.978, 55.0563], [-6.0435, 55.053], [-6.0633, 55.0601], [-6.0538, 55.0658], [-6.0598, 55.0812], [-6.037, 55.1033], [-6.0422, 55.131], [-6.0265, 55.1405], [-6.0279, 55.1612], [-6.0522, 55.1758], [-6.0633, 55.1989], [-6.1172, 55.2095], [-6.147, 55.228], [-6.1791, 55.2138], [-6.2372, 55.2027], [-6.2904, 55.2302], [-6.3137, 55.2298], [-6.3336, 55.2396], [-6.3691, 55.2458], [-6.4103, 55.2323], [-6.4559, 55.239], [-6.4769, 55.2521], [-6.5316, 55.2337], [-6.5295, 55.225], [-6.5471, 55.216], [-6.5539, 55.2201], [-6.6074, 55.2059], [-6.6505, 55.2051], [-6.6638, 55.2127], [-6.6604, 55.1988], [-6.7228, 55.1899], [-6.7255, 55.1732], [-6.7536, 55.1685], [-6.8756, 55.1681], [-6.9146, 55.1744], [-6.9668, 55.1947], [-6.9697, 55.1479], [-6.9909, 55.1095], [-7.021, 55.1004], [-7.0147, 55.0771], [-7.0468, 55.0583], [-7.0426, 55.053], [-7.0509, 55.0569], [-7.0523, 55.0495], [-7.1111, 55.0425], [-7.1479, 55.0467]]], [[[-6.241, 55.3121], [-6.271, 55.3069], [-6.2871, 55.2934], [-6.1941, 55.2926], [-6.2018, 55.2754], [-6.1909, 55.2585], [-6.1708, 55.3016], [-6.241, 55.3121]]]]}}, {"type": "Feature", "properties": {"osm_type": "relation", "osm_id": 820826417, "name": "Derry City and Strabane", "admin_level": "6", "kind": "subdivision_2", "parent_osm_id": 192732, "parent_name": "Northern Ireland", "parent_iso": ""}, "geometry": {"type": "Polygon", "coordinates": [[[-7.1479, 55.0467], [-7.1574, 55.059], [-7.2257, 55.0611], [-7.2337, 55.0482], [-7.2526, 55.0442], [-7.2464, 55.0635], [-7.2564, 55.0655], [-7.2553, 55.06], [-7.2657, 55.0666], [-7.2901, 55.0474], [-7.3003, 55.0561], [-7.3192, 55.0451], [-7.3471, 55.0505], [-7.3923, 55.0224], [-7.4064, 55.0033], [-7.3923, 54.9979], [-7.4079, 54.983], [-7.4083, 54.9637], [-7.3929, 54.9454], [-7.4482, 54.9351], [-7.4439, 54.8714], [-7.4849, 54.8238], [-7.5291, 54.8077], [-7.5501, 54.7894], [-7.5484, 54.7554], [-7.535, 54.7471], [-7.5442, 54.7427], [-7.5792, 54.7418], [-7.5801, 54.7505], [-7.5894, 54.7437], [-7.6184, 54.7434], [-7.6374, 54.7515], [-7.6978, 54.7238], [-7.7124, 54.7261], [-7.7361, 54.717], [-7.7507, 54.7043], [-7.7895, 54.7197], [-7.8055, 54.7187], [-7.8185, 54.7338], [-7.8375, 54.7365], [-7.8803, 54.7027], [-7.9189, 54.7028], [-7.9218, 54.696], [-7.8988, 54.688], [-7.9146, 54.676], [-7.8941, 54.6566], [-7.8574, 54.6505], [-7.8553, 54.632], [-7.8291, 54.6331], [-7.8141, 54.6439], [-7.7733, 54.6216], [-7.7587, 54.6251], [-7.7424, 54.618], [-7.7092, 54.635], [-7.7072, 54.6196], [-7.6943, 54.6192], [-7.7043, 54.6085], [-7.6584, 54.6267], [-7.6179, 54.6251], [-7.6161, 54.6329], [-7.5971, 54.6348], [-7.5737, 54.6297], [-7.5754, 54.6402], [-7.5625, 54.6474], [-7.5511, 54.6473], [-7.5513, 54.6387], [-7.5112, 54.6539], [-7.4954, 54.6493], [-7.485, 54.6542], [-7.4487, 54.641], [-7.3926, 54.6931], [-7.3201, 54.7134], [-7.3214, 54.7321], [-7.3066, 54.7385], [-7.2845, 54.7406], [-7.2619, 54.731], [-7.2271, 54.752], [-7.1182, 54.7494], [-7.0816, 54.7658], [-7.0063, 54.7799], [-6.923, 54.7732], [-6.9038, 54.7839], [-6.9233, 54.8026], [-6.913, 54.8204], [-6.9471, 54.8338], [-6.9727, 54.8282], [-6.9883, 54.833], [-7.0078, 54.8209], [-7.0162, 54.8353], [-7.0397, 54.8455], [-7.0401, 54.8674], [-7.0202, 54.887], [-7.0355, 54.8885], [-7.0445, 54.914], [-7.0885, 54.9275], [-7.0946, 54.9591], [-7.0819, 54.9858], [-7.1275, 54.9853], [-7.134, 55.0049], [-7.1668, 55.034], [-7.1479, 55.0467]]]}}, {"type": "Feature", "properties": {"osm_type": "relation", "osm_id": 140002728, "name": "Fermanagh and Omagh", "admin_level": "6", "kind": "subdivision_2", "parent_osm_id": 192732, "parent_name": "Northern Ireland", "parent_iso": ""}, "geometry": {"type": "Polygon", "coordinates": [[[-7.7043, 54.6085], [-7.7523, 54.5989], [-7.7631, 54.5859], [-7.7948, 54.5816], [-7.7974, 54.5717], [-7.834, 54.5524], [-7.8247, 54.5445], [-7.8513, 54.5331], [-7.9505, 54.5337], [-7.9711, 54.5473], [-8.0067, 54.546], [-8.0425, 54.5066], [-8.0434, 54.4878], [-8.0898, 54.4872], [-8.0994, 54.4843], [-8.0919, 54.4764], [-8.1139, 54.4764], [-8.1155, 54.4691], [-8.1782, 54.4648], [-8.1438, 54.451], [-8.1623, 54.4417], [-8.0849, 54.3975], [-8.0581, 54.3658], [-8.0321, 54.3568], [-8.001, 54.3582], [-7.9624, 54.3125], [-7.9117, 54.2961], [-7.9023, 54.3015], [-7.8817, 54.292], [-7.8627, 54.2936], [-7.874, 54.2796], [-7.8736, 54.2663], [-7.8612, 54.2604], [-7.861, 54.2177], [-7.8123, 54.201], [-7.7688, 54.2095], [-7.74, 54.2036], [-7.6862, 54.2079], [-7.6773, 54.1821], [-7.6569, 54.1858], [-7.6293, 54.1693], [-7.6112, 54.1439], [-7.5754, 54.1416], [-7.5665, 54.1267], [-7.5482, 54.1222], [-7.529, 54.1359], [-7.4801, 54.1224], [-7.4693, 54.1409], [-7.4432, 54.154], [-7.4104, 54.1563], [-7.4212, 54.137], [-7.3736, 54.1396], [-7.3927, 54.1203], [-7.3644, 54.1316], [-7.347, 54.1166], [-7.3279, 54.1247], [-7.3197, 54.1135], [-7.3062, 54.1235], [-7.3403, 54.1468], [-7.3111, 54.1674], [-7.2806, 54.1677], [-7.2846, 54.154], [-7.3022, 54.1444], [-7.2863, 54.1365], [-7.3098, 54.1322], [-7.3015, 54.1216], [-7.2804, 54.1225], [-7.2534, 54.1558], [-7.259, 54.1646], [-7.2411, 54.1698], [-7.2591, 54.1775], [-7.2599, 54.1923], [-7.2338, 54.1979], [-7.2501, 54.198], [-7.2489, 54.2045], [-7.2327, 54.2057], [-7.2217, 54.2159], [-7.1996, 54.2157], [-7.1891, 54.225], [-7.172, 54.2177], [-7.1458, 54.2248], [-7.1469, 54.2399], [-7.1599, 54.2438], [-7.1431, 54.2557], [-7.1615, 54.2737], [-7.1802, 54.2727], [-7.1738, 54.2862], [-7.2131, 54.2997], [-7.1987, 54.3112], [-7.18, 54.3098], [-7.1897, 54.3377], [-7.2018, 54.3419], [-7.228, 54.3271], [-7.247, 54.3271], [-7.2728, 54.3442], [-7.2814, 54.3717], [-7.3353, 54.3718], [-7.3323, 54.4048], [-7.3631, 54.4197], [-7.3679, 54.4376], [-7.3355, 54.4449], [-7.2957, 54.4436], [-7.2714, 54.4538], [-7.2734, 54.4604], [-7.2538, 54.4511], [-7.2366, 54.4546], [-7.2173, 54.4674], [-7.1995, 54.4663], [-7.2037, 54.478], [-7.161, 54.4726], [-7.1361, 54.4814], [-7.122, 54.4755], [-7.1247, 54.4848], [-7.109, 54.486], [-7.1002, 54.5004], [-7.073, 54.508], [-7.0738, 54.5028], [-7.0404, 54.5056], [-7.03, 54.5259], [-7.0097, 54.5247], [-6.9754, 54.5437], [-6.9866, 54.5572], [-6.9704, 54.5697], [-6.9895, 54.5815], [-6.9705, 54.5796], [-6.9679, 54.5971], [-6.9489, 54.608], [-6.9622, 54.6124], [-6.9894, 54.652], [-6.9703, 54.6637], [-7.0035, 54.6715], [-6.9951, 54.7059], [-7.012, 54.718], [-6.9923, 54.7408], [-6.9417, 54.7522], [-6.9409, 54.7736], [-7.0063, 54.7799], [-7.0816, 54.7658], [-7.1182, 54.7494], [-7.2271, 54.752], [-7.2619, 54.731], [-7.2845, 54.7406], [-7.3066, 54.7385], [-7.3214, 54.7321], [-7.3201, 54.7134], [-7.3926, 54.6931], [-7.4487, 54.641], [-7.485, 54.6542], [-7.4954, 54.6493], [-7.5112, 54.6539], [-7.5513, 54.6387], [-7.5511, 54.6473], [-7.5625, 54.6474], [-7.5754, 54.6402], [-7.5737, 54.6297], [-7.5971, 54.6348], [-7.6161, 54.6329], [-7.6179, 54.6251], [-7.6584, 54.6267], [-7.7043, 54.6085]]]}}, {"type": "Feature", "properties": {"osm_type": "relation", "osm_id": 362514079, "name": "Lisburn and Castlereagh", "admin_level": "6", "kind": "subdivision_2", "parent_osm_id": 192732, "parent_name": "Northern Ireland", "parent_iso": ""}, "geometry": {"type": "Polygon", "coordinates": [[[-6.3056, 54.5729], [-6.2787, 54.5575], [-6.2741, 54.5196], [-6.2402, 54.4954], [-6.259, 54.4796], [-6.2098, 54.4451], [-6.2112, 54.4328], [-6.1575, 54.4442], [-6.1599, 54.4343], [-6.1348, 54.4358], [-6.0874, 54.4102], [-6.0563, 54.4036], [-6.0652, 54.3874], [-6.0381, 54.3844], [-6.0424, 54.3788], [-6.0218, 54.3776], [-6.0195, 54.3706], [-5.9713, 54.3845], [-5.951, 54.3796], [-5.9395, 54.384], [-5.9517, 54.4038], [-5.9253, 54.424], [-5.9306, 54.4304], [-5.9158, 54.4334], [-5.9165, 54.45], [-5.9008, 54.4548], [-5.9033, 54.4622], [-5.8774, 54.4673], [-5.8723, 54.4795], [-5.8245, 54.4955], [-5.8341, 54.5014], [-5.8278, 54.5255], [-5.794, 54.5458], [-5.8002, 54.5607], [-5.79, 54.5712], [-5.7585, 54.5815], [-5.7745, 54.594], [-5.772, 54.6134], [-5.7874, 54.6196], [-5.8101, 54.6156], [-5.8242, 54.5816], [-5.8902, 54.5619], [-5.9132, 54.5667], [-5.9342, 54.5403], [-5.9424, 54.5437], [-5.9768, 54.5307], [-6.0176, 54.5509], [-6.0422, 54.5468], [-6.0608, 54.5552], [-6.042, 54.5642], [-6.0465, 54.606], [-6.0883, 54.6244], [-6.1239, 54.6177], [-6.1491, 54.6208], [-6.1465, 54.6112], [-6.1929, 54.6005], [-6.2185, 54.6021], [-6.2377, 54.5881], [-6.2646, 54.598], [-6.2955, 54.5967], [-6.2822, 54.5801], [-6.3056, 54.5729]]]}}, {"type": "Feature", "properties": {"osm_type": "relation", "osm_id": 700262103, "name": "Mid and East Antrim", "admin_level": "6", "kind": "subdivision_2", "parent_osm_id": 192732, "parent_name": "Northern Ireland", "parent_iso": ""}, "geometry": {"type": "Polygon", "coordinates": [[[-5.8693, 54.6889], [-5.7913, 54.721], [-5.7559, 54.7214], [-5.7112, 54.746], [-5.6891, 54.767], [-5.6907, 54.8038], [-5.7262, 54.8481], [-5.7637, 54.8594], [-5.767, 54.8523], [-5.7809, 54.8587], [-5.7844, 54.8511], [-5.7987, 54.8522], [-5.8382, 54.8807], [-5.8453, 54.9008], [-5.8593, 54.8988], [-5.8791, 54.9077], [-5.92, 54.9618], [-5.9911, 54.9845], [-5.9642, 55.0442], [-5.978, 55.0563], [-6.0152, 55.0355], [-6.0257, 55.037], [-6.099, 54.984], [-6.1327, 54.9882], [-6.1663, 55.0307], [-6.1818, 55.0344], [-6.1862, 55.0261], [-6.2054, 55.0296], [-6.2802, 55.0048], [-6.3247, 55.0102], [-6.324, 54.9792], [-6.3466, 54.9881], [-6.358, 54.9754], [-6.3916, 54.9816], [-6.4024, 54.9666], [-6.4246, 54.973], [-6.428, 54.9641], [-6.4492, 54.9647], [-6.4088, 54.9405], [-6.4294, 54.9366], [-6.4231, 54.9168], [-6.4688, 54.9249], [-6.5009, 54.9188], [-6.5073, 54.9083], [-6.4583, 54.8245], [-6.4719, 54.8125], [-6.478, 54.7809], [-6.4346, 54.7894], [-6.3857, 54.7792], [-6.3464, 54.8011], [-6.3224, 54.7907], [-6.3032, 54.7964], [-6.2893, 54.7897], [-6.2641, 54.7908], [-6.2687, 54.799], [-6.2282, 54.7885], [-6.1999, 54.7981], [-6.1995, 54.8064], [-6.173, 54.8119], [-6.1123, 54.8071], [-6.1037, 54.7926], [-6.074, 54.7917], [-6.0808, 54.7964], [-6.0679, 54.7972], [-6.0498, 54.7918], [-6.0551, 54.7983], [-6.0109, 54.8001], [-6.0131, 54.7884], [-5.9878, 54.774], [-5.9749, 54.7833], [-5.9637, 54.7737], [-5.9496, 54.7802], [-5.9231, 54.7723], [-5.9018, 54.7803], [-5.8885, 54.7724], [-5.907, 54.7658], [-5.8979, 54.759], [-5.9062, 54.7506], [-5.8934, 54.7453], [-5.9116, 54.7163], [-5.9028, 54.7088], [-5.89, 54.7105], [-5.8908, 54.696], [-5.8693, 54.6889]]]}}, {"type": "Feature", "properties": {"osm_type": "relation", "osm_id": 816063620, "name": "Mid Ulster", "admin_level": "6", "kind": "subdivision_2", "parent_osm_id": 192732, "parent_name": "Northern Ireland", "parent_iso": ""}, "geometry": {"type": "Polygon", "coordinates": [[[-6.478, 54.7809], [-6.4719, 54.8125], [-6.4583, 54.8245], [-6.5073, 54.9083], [-6.5009, 54.9188], [-6.5386, 54.952], [-6.5378, 54.9336], [-6.5561, 54.9371], [-6.586, 54.9235], [-6.6184, 54.9382], [-6.6444, 54.9374], [-6.6579, 54.9224], [-6.6912, 54.9163], [-6.7084, 54.9318], [-6.7391, 54.9288], [-6.7767, 54.9138], [-6.7585, 54.9031], [-6.7692, 54.8732], [-6.7859, 54.87], [-6.7833, 54.8621], [-6.8035, 54.8466], [-6.8518, 54.851], [-6.8582, 54.8576], [-6.8875, 54.853], [-6.8879, 54.8318], [-6.913, 54.8204], [-6.9233, 54.8026], [-6.9038, 54.7839], [-6.923, 54.7732], [-6.9409, 54.7736], [-6.9417, 54.7522], [-6.9923, 54.7408], [-7.012, 54.718], [-6.9951, 54.7059], [-7.0035, 54.6715], [-6.9703, 54.6637], [-6.9894, 54.652], [-6.9622, 54.6124], [-6.9489, 54.608], [-6.9679, 54.5971], [-6.9705, 54.5796], [-6.9895, 54.5815], [-6.9704, 54.5697], [-6.9866, 54.5572], [-6.9754, 54.5437], [-7.0097, 54.5247], [-7.03, 54.5259], [-7.0404, 54.5056], [-7.0738, 54.5028], [-7.073, 54.508], [-7.1002, 54.5004], [-7.109, 54.486], [-7.1247, 54.4848], [-7.122, 54.4755], [-7.1361, 54.4814], [-7.161, 54.4726], [-7.2037, 54.478], [-7.1995, 54.4663], [-7.2173, 54.4674], [-7.2366, 54.4546], [-7.2538, 54.4511], [-7.2734, 54.4604], [-7.2714, 54.4538], [-7.2957, 54.4436], [-7.3355, 54.4449], [-7.3679, 54.4376], [-7.3631, 54.4197], [-7.3323, 54.4048], [-7.3353, 54.3718], [-7.2814, 54.3717], [-7.2728, 54.3442], [-7.247, 54.3271], [-7.228, 54.3271], [-7.2018, 54.3419], [-7.1536, 54.3353], [-7.1044, 54.356], [-7.1106, 54.3684], [-7.0733, 54.3884], [-7.0582, 54.4111], [-7.03, 54.4214], [-6.9967, 54.4055], [-6.9797, 54.4087], [-6.9605, 54.3923], [-6.9246, 54.383], [-6.9336, 54.3779], [-6.9121, 54.3748], [-6.9073, 54.3505], [-6.8769, 54.3467], [-6.8648, 54.3302], [-6.8379, 54.3357], [-6.8056, 54.3797], [-6.8084, 54.3991], [-6.7946, 54.4151], [-6.7619, 54.4071], [-6.7359, 54.4092], [-6.7291, 54.4017], [-6.711, 54.404], [-6.698, 54.4423], [-6.6507, 54.4701], [-6.6516, 54.4868], [-6.6304, 54.5039], [-6.5927, 54.5035], [-6.5422, 54.5422], [-6.427, 54.5683], [-6.4081, 54.6489], [-6.4702, 54.6853], [-6.4969, 54.7137], [-6.4582, 54.7619], [-6.4787, 54.7728], [-6.478, 54.7809]]]}}, {"type": "Feature", "properties": {"osm_type": "relation", "osm_id": 502891954, "name": "Newry, Mourne and Down", "admin_level": "6", "kind": "subdivision_2", "parent_osm_id": 192732, "parent_name": "Northern Ireland", "parent_iso": ""}, "geometry": {"type": "Polygon", "coordinates": [[[-6.645, 54.1799], [-6.6307, 54.1534], [-6.6495, 54.1217], [-6.6621, 54.1228], [-6.646, 54.0961], [-6.6598, 54.0963], [-6.6591, 54.0763], [-6.6699, 54.0729], [-6.6248, 54.0366], [-6.5959, 54.0447], [-6.5875, 54.0577], [-6.5589, 54.0494], [-6.5329, 54.0598], [-6.5115, 54.0528], [-6.4722, 54.0664], [-6.4787, 54.0772], [-6.457, 54.0727], [-6.4445, 54.0566], [-6.4129, 54.0632], [-6.3922, 54.059], [-6.3645, 54.0727], [-6.3673, 54.1138], [-6.3409, 54.112], [-6.3373, 54.0948], [-6.319, 54.0911], [-6.31, 54.1068], [-6.2918, 54.1128], [-6.2551, 54.0965], [-6.1991, 54.0983], [-6.1842, 54.0738], [-6.1604, 54.0651], [-6.0959, 54.0628], [-6.0741, 54.046], [-6.0995, 54.0487], [-6.1086, 54.0403], [-6.0637, 54.0229], [-6.0147, 54.042], [-5.9892, 54.0577], [-5.9972, 54.0614], [-5.9641, 54.0629], [-5.953, 54.0779], [-5.8979, 54.1048], [-5.8728, 54.1677], [-5.8939, 54.2055], [-5.8308, 54.2421], [-5.8343, 54.2514], [-5.8511, 54.2534], [-5.8154, 54.2866], [-5.8169, 54.2593], [-5.8349, 54.2568], [-5.8226, 54.243], [-5.6938, 54.2514], [-5.6781, 54.2467], [-5.6612, 54.2257], [-5.6374, 54.2424], [-5.6409, 54.2631], [-5.6354, 54.2525], [-5.6251, 54.2559], [-5.6192, 54.2463], [-5.6098, 54.2488], [-5.609, 54.2655], [-5.5916, 54.2639], [-5.5614, 54.2866], [-5.5516, 54.3065], [-5.5269, 54.3105], [-5.5327, 54.3159], [-5.517, 54.3244], [-5.5495, 54.3739], [-5.5855, 54.3918], [-5.5965, 54.407], [-5.5848, 54.4496], [-5.6293, 54.4651], [-5.6395, 54.4576], [-5.6684, 54.4611], [-5.7028, 54.4465], [-5.7239, 54.4478], [-5.737, 54.464], [-5.7921, 54.4637], [-5.8245, 54.4955], [-5.8723, 54.4795], [-5.8774, 54.4673], [-5.9033, 54.4622], [-5.9008, 54.4548], [-5.9165, 54.45], [-5.9158, 54.4334], [-5.9306, 54.4304], [-5.9253, 54.424], [-5.9517, 54.4038], [-5.9395, 54.384], [-5.951, 54.3796], [-5.9713, 54.3845], [-6.0195, 54.3706], [-6.0646, 54.327], [-6.0994, 54.3267], [-6.1054, 54.3186], [-6.0609, 54.2915], [-6.0599, 54.281], [-6.0734, 54.2797], [-6.0636, 54.2716], [-6.0767, 54.2636], [-6.0398, 54.2632], [-6.0514, 54.244], [-6.0711, 54.2545], [-6.1079, 54.2402], [-6.1376, 54.2432], [-6.1613, 54.219], [-6.1899, 54.2377], [-6.1824, 54.2443], [-6.2133, 54.2587], [-6.2425, 54.2638], [-6.255, 54.2579], [-6.2801, 54.2719], [-6.2895, 54.2652], [-6.332, 54.2633], [-6.3524, 54.2741], [-6.3694, 54.2654], [-6.4026, 54.2731], [-6.44, 54.2676], [-6.4588, 54.2522], [-6.4677, 54.2551], [-6.505, 54.2258], [-6.5259, 54.2373], [-6.5729, 54.2243], [-6.5861, 54.2137], [-6.6008, 54.2191], [-6.645, 54.1799]]]}}]}