{"type": "FeatureCollection", "parent": {"osm_id": 1943188, "name": "Jammu and Kashmir", "admin_level": "4", "kind": "subdivision_1", "child_kind": "subdivision_2", "iso": "IN-JK"}, "features": [{"type": "Feature", "properties": {"osm_type": "relation", "osm_id": 674085268, "name": "DATA NOT AVAILABLE", "admin_level": "6", "kind": "subdivision_2", "parent_osm_id": 1943188, "parent_name": "Jammu and Kashmir", "parent_iso": "IN-JK"}, "geometry": {"type": "Polygon", "coordinates": [[[77.8372, 35.5022], [77.8128, 35.5123], [77.7923, 35.4966], [77.7734, 35.4947], [77.7586, 35.5019], [77.7342, 35.5239], [77.7251, 35.5144], [77.7271, 35.4842], [77.7236, 35.4748], [77.6873, 35.477], [77.6807, 35.4703], [77.673, 35.4699], [77.6456, 35.4884], [77.6285, 35.4736], [77.6147, 35.4689], [77.5944, 35.4757], [77.5826, 35.4744], [77.5695, 35.4844], [77.5406, 35.4806], [77.5131, 35.4879], [77.4455, 35.4606], [77.4144, 35.4724], [77.3826, 35.4758], [77.3669, 35.493], [77.3494, 35.493], [77.3431, 35.5115], [77.3211, 35.5333], [77.3461, 35.5461], [77.3846, 35.5485], [77.4095, 35.5275], [77.4359, 35.5167], [77.4524, 35.5259], [77.4731, 35.5204], [77.4872, 35.5313], [77.4613, 35.547], [77.4663, 35.5726], [77.4575, 35.5929], [77.4278, 35.6098], [77.4374, 35.6215], [77.4342, 35.6296], [77.4386, 35.6404], [77.4317, 35.6539], [77.4228, 35.6609], [77.4023, 35.6618], [77.3872, 35.6891], [77.3715, 35.6945], [77.3698, 35.7037], [77.3591, 35.717], [77.3283, 35.7184], [77.3159, 35.6984], [77.2861, 35.7103], [77.2782, 35.7197], [77.2685, 35.7084], [77.2289, 35.7118], [77.2217, 35.7275], [77.2079, 35.7257], [77.1944, 35.7323], [77.168, 35.7339], [77.1638, 35.7398], [77.1649, 35.766], [77.1442, 35.769], [77.1368, 35.7811], [77.1277, 35.782], [77.1164, 35.7971], [77.0808, 35.7968], [77.0594, 35.7836], [77.0214, 35.7739], [76.9359, 35.7833], [76.8957, 35.799], [76.8586, 35.8304], [76.8125, 35.8441], [76.7948, 35.862], [76.7798, 35.898], [76.7235, 35.9527], [76.7551, 35.9819], [76.7551, 35.9894], [76.7704, 36.0087], [76.8085, 36.0179], [76.7996, 36.0377], [76.8026, 36.0471], [76.7204, 36.0825], [76.7045, 36.1281], [76.6655, 36.1573], [76.6452, 36.1833], [76.638, 36.1842], [76.6019, 36.1648], [76.5637, 36.1723], [76.5456, 36.192], [76.4825, 36.2107], [76.4579, 36.2397], [76.434, 36.2504], [76.4508, 36.2686], [76.4373, 36.2881], [76.4328, 36.3074], [76.405, 36.3187], [76.3532, 36.3591], [76.329, 36.3617], [76.293, 36.3483], [76.2556, 36.347], [76.1995, 36.3867], [76.174, 36.3895], [76.1259, 36.4367], [76.0781, 36.4735], [76.0267, 36.4853], [75.9979, 36.4836], [75.9657, 36.4892], [75.9242, 36.5017], [75.8499, 36.5435], [75.8104, 36.5522], [75.7703, 36.5725], [75.7497, 36.5873], [75.6761, 36.6952], [75.6174, 36.7608], [75.5149, 36.7913], [75.4751, 36.8099], [75.4609, 36.8297], [75.445, 36.8864], [75.4388, 36.8906], [75.418, 36.8864], [75.4151, 36.8911], [75.416, 36.9025], [75.4097, 36.9159], [75.4277, 36.9382], [75.4269, 36.9549], [75.4144, 36.9667], [75.3772, 36.9596], [75.3556, 36.977], [75.3461, 37.0022], [75.3459, 37.0505], [75.3338, 37.0544], [75.2802, 37.0461], [75.2659, 37.0511], [75.2266, 37.0366], [75.2099, 37.036], [75.2033, 37.0203], [75.1819, 36.9997], [75.1744, 36.9853], [75.1524, 36.9666], [75.0969, 36.942], [75.0881, 36.9421], [75.0641, 36.959], [75.0197, 36.9755], [75.0138, 36.9652], [74.9921, 36.962], [74.9424, 36.9339], [74.9336, 36.9246], [74.929, 36.908], [74.9232, 36.9053], [74.9119, 36.9116], [74.8889, 36.9451], [74.8471, 36.9891], [74.8411, 37.0215], [74.8065, 37.0224], [74.7799, 37.029], [74.7672, 37.0261], [74.7602, 37.0139], [74.7511, 37.0109], [74.7293, 37.0251], [74.714, 37.0735], [74.697, 37.0773], [74.6603, 37.0569], [74.5829, 37.0426], [74.5816, 37.0379], [74.5905, 37.0277], [74.5798, 36.9478], [74.5555, 36.9528], [74.5441, 36.9757], [74.5333, 36.986], [74.4838, 36.9903], [74.4797, 36.987], [74.4563, 37.0029], [74.4336, 37.0094], [74.3987, 36.9766], [74.3452, 36.9573], [74.3332, 36.9452], [74.3177, 36.9386], [74.311, 36.9203], [74.3025, 36.917], [74.2794, 36.9132], [74.2456, 36.896], [74.1769, 36.9143], [74.1655, 36.9021], [74.1526, 36.898], [74.1591, 36.8866], [74.1405, 36.8758], [74.1336, 36.8471], [74.1253, 36.8385], [74.0782, 36.8398], [74.0388, 36.8251], [74.0055, 36.8345], [73.9859, 36.8305], [73.962, 36.8425], [73.9468, 36.8644], [73.9286, 36.8797], [73.919, 36.8846], [73.9053, 36.8778], [73.8939, 36.8784], [73.9026, 36.8851], [73.9064, 36.899], [73.8839, 36.9122], [73.8352, 36.9108], [73.8284, 36.9084], [73.8177, 36.8914], [73.8003, 36.8886], [73.7976, 36.8998], [73.7784, 36.8993], [73.7523, 36.9112], [73.7272, 36.9033], [73.7008, 36.9153], [73.6733, 36.9136], [73.681, 36.9005], [73.7279, 36.889], [73.9015, 36.8589], [73.9176, 36.8454], [73.9242, 36.827], [73.9224, 36.7928], [73.9095, 36.7778], [73.895, 36.7751], [73.8599, 36.7811], [73.8079, 36.7953], [73.7631, 36.7944], [73.7432, 36.7901], [73.7118, 36.7635], [73.6946, 36.76], [73.6695, 36.7663], [73.6417, 36.7886], [73.6232, 36.793], [73.4428, 36.808], [73.3916, 36.805], [73.2589, 36.7675], [73.0885, 36.7615], [73.0711, 36.7532], [73.0658, 36.7426], [73.0807, 36.6587], [73.0732, 36.627], [73.0511, 36.597], [72.9871, 36.5725], [72.9673, 36.5479], [72.9597, 36.5191], [72.9471, 36.5109], [72.8806, 36.5081], [72.8683, 36.4971], [72.8667, 36.4305], [72.8579, 36.4206], [72.8027, 36.4096], [72.7916, 36.3987], [72.7872, 36.3757], [72.7742, 36.3561], [72.7225, 36.3472], [72.7041, 36.3387], [72.671, 36.3021], [72.655, 36.2928], [72.5732, 36.291], [72.5513, 36.2823], [72.5291, 36.2594], [72.5214, 36.2343], [72.5278, 36.1443], [72.5268, 36.0799], [72.531, 36.0688], [72.5596, 36.0554], [72.5669, 36.0471], [72.57, 36.0321], [72.5662, 36.0189], [72.5398, 35.9916], [72.5235, 35.9648], [72.5234, 35.9475], [72.5338, 35.9328], [72.6051, 35.8923], [72.645, 35.8788], [72.7812, 35.8766], [72.8122, 35.9045], [72.8278, 35.9097], [72.8723, 35.9041], [72.9076, 35.8807], [72.9338, 35.8818], [72.9843, 35.8976], [73.0368, 35.899], [73.0776, 35.9061], [73.0954, 35.906], [73.1417, 35.8868], [73.1517, 35.8766], [73.1531, 35.8684], [73.135, 35.8132], [73.15, 35.7677], [73.1604, 35.7515], [73.2583, 35.6765], [73.2812, 35.6666], [73.3488, 35.6537], [73.3719, 35.6414], [73.4238, 35.5957], [73.4497, 35.5835], [73.4768, 35.5773], [73.6964, 35.5652], [73.7714, 35.5511], [73.7881, 35.5427], [73.7978, 35.5292], [73.7966, 35.4949], [73.7521, 35.4635], [73.7274, 35.4388], [73.7175, 35.4194], [73.7207, 35.3454], [73.7392, 35.3134], [73.7536, 35.2635], [73.775, 35.2555], [73.7916, 35.2574], [73.8208, 35.2762], [73.8367, 35.276], [73.8519, 35.2725], [73.8746, 35.2543], [73.8874, 35.2506], [73.9334, 35.2502], [73.9531, 35.2427], [73.9749, 35.2258], [74.1089, 35.1729], [74.118, 35.1563], [74.1179, 35.1448], [74.102, 35.1211], [74.0964, 35.1011], [74.0972, 35.0853], [74.1113, 35.0631], [74.1111, 35.0544], [74.1062, 35.047], [74.0807, 35.0375], [74.0751, 35.0305], [74.0662, 34.9943], [74.0517, 34.9659], [74.0415, 34.9212], [74.0275, 34.9062], [74.001, 34.8937], [73.9933, 34.8838], [73.9967, 34.8618], [73.9936, 34.8542], [73.9819, 34.8479], [73.9281, 34.847], [73.889, 34.8378], [73.8291, 34.8088], [73.8088, 34.8081], [73.7737, 34.8156], [73.7513, 34.8089], [73.7333, 34.7867], [73.7242, 34.7559], [73.7118, 34.7408], [73.6817, 34.723], [73.6718, 34.7069], [73.6685, 34.6568], [73.6557, 34.6063], [73.6489, 34.5992], [73.6358, 34.5987], [73.6013, 34.619], [73.5784, 34.622], [73.4662, 34.5991], [73.4469, 34.5807], [73.4034, 34.4436], [73.402, 34.4259], [73.409, 34.4075], [73.4296, 34.3922], [73.4232, 34.3749], [73.4252, 34.3475], [73.485, 34.2751], [73.5011, 34.0586], [73.5108, 34.0026], [73.556, 33.9084], [73.5572, 33.8796], [73.5509, 33.8436], [73.5559, 33.6993], [73.5666, 33.6624], [73.5841, 33.6252], [73.5895, 33.5986], [73.5897, 33.5585], [73.5736, 33.4841], [73.5578, 33.4385], [73.5576, 33.3935], [73.6002, 33.1669], [73.6109, 33.1363], [73.6328, 33.1072], [73.6566, 33.0926], [73.7532, 33.0597], [73.8016, 33.0331], [73.8171, 32.9896], [73.8238, 32.9824], [73.8457, 32.9835], [73.8535, 33.0065], [73.8672, 33.0198], [73.8804, 33.0192], [73.9121, 33.003], [73.9865, 32.989], [74.0104, 32.9764], [74.0377, 32.9358], [74.0779, 32.9365], [74.1238, 32.8957], [74.1388, 32.889], [74.191, 32.8881], [74.2302, 32.8746], [74.2878, 32.8457], [74.3298, 32.8101], [74.3407, 32.7858], [74.3548, 32.7718], [74.3722, 32.7652], [74.3978, 32.7691], [74.4263, 32.7831], [74.4607, 32.7877], [74.4475, 32.795], [74.4414, 32.8087], [74.4448, 32.8163], [74.4192, 32.8395], [74.422, 32.8569], [74.4125, 32.867], [74.4191, 32.8789], [74.416, 32.8968], [74.39, 32.9101], [74.3485, 32.922], [74.3274, 32.9191], [74.3128, 32.9322], [74.3159, 32.941], [74.3317, 32.9422], [74.3388, 32.9549], [74.3323, 32.9633], [74.3357, 32.9744], [74.3294, 32.9869], [74.3231, 32.9894], [74.326, 32.9986], [74.3182, 33.0137], [74.3248, 33.0313], [74.2797, 33.0371], [74.2489, 33.046], [74.1948, 33.0708], [74.1709, 33.0734], [74.1704, 33.0803], [74.182, 33.0883], [74.183, 33.0959], [74.1623, 33.1087], [74.164, 33.1185], [74.1557, 33.1266], [74.1558, 33.1367], [74.1154, 33.1681], [74.1006, 33.1687], [74.0782, 33.1825], [74.0691, 33.1965], [74.0551, 33.1945], [74.05, 33.2013], [74.023, 33.2005], [74.0076, 33.2216], [74.0108, 33.2352], [74.0019, 33.2398], [74.0156, 33.2685], [74.0253, 33.2663], [74.0452, 33.2854], [74.0542, 33.2797], [74.0899, 33.2842], [74.1075, 33.2999], [74.1308, 33.3056], [74.1415, 33.3182], [74.1507, 33.3217], [74.1579, 33.3369], [74.1676, 33.3409], [74.1739, 33.3723], [74.1776, 33.3712], [74.181, 33.382], [74.1971, 33.3983], [74.1954, 33.4101], [74.1794, 33.4163], [74.1843, 33.4236], [74.1783, 33.4317], [74.1839, 33.4453], [74.1821, 33.4706], [74.189, 33.4702], [74.1882, 33.4797], [74.1766, 33.4849], [74.173, 33.4964], [74.1649, 33.4998], [74.1568, 33.5126], [74.1573, 33.5441], [74.1301, 33.5651], [74.1052, 33.5739], [74.0958, 33.5718], [74.0835, 33.5844], [74.0598, 33.5834], [74.0552, 33.5757], [74.0289, 33.586], [74.0306, 33.6004], [74.0228, 33.6132], [73.9994, 33.6204], [73.9818, 33.6398], [73.984, 33.6549], [73.9929, 33.6551], [73.9852, 33.6775], [73.9909, 33.6867], [73.9835, 33.7053], [73.9718, 33.7081], [73.9594, 33.7187], [73.9642, 33.7274], [73.9796, 33.738], [74.0004, 33.7413], [74.0135, 33.7488], [74.0131, 33.772], [74.0226, 33.7876], [74.0343, 33.7911], [74.0352, 33.804], [74.0446, 33.8072], [74.0559, 33.8198], [74.0678, 33.8244], [74.0844, 33.8207], [74.0937, 33.8251], [74.1179, 33.825], [74.1304, 33.8342], [74.157, 33.8313], [74.1678, 33.8377], [74.171, 33.8496], [74.1832, 33.8572], [74.2053, 33.858], [74.2178, 33.864], [74.2288, 33.8805], [74.2462, 33.8908], [74.2563, 33.9324], [74.2668, 33.9436], [74.2606, 33.9548], [74.2505, 33.959], [74.2519, 33.9674], [74.2646, 33.9742], [74.2639, 33.989], [74.2499, 34.0151], [74.2258, 34.0241], [74.2226, 34.0337], [74.2147, 34.0386], [74.1939, 34.0434], [74.1796, 34.0392], [74.168, 34.0282], [74.1348, 34.0472], [74.1071, 34.0377], [74.0662, 34.0361], [74.0092, 34.0222], [73.9761, 34.0297], [73.9508, 34.0289], [73.9399, 34.023], [73.9232, 34.0249], [73.9214, 34.0354], [73.9071, 34.0432], [73.8961, 34.0597], [73.8988, 34.0735], [73.9077, 34.0821], [73.9012, 34.089], [73.9044, 34.106], [73.9264, 34.1036], [73.9271, 34.1278], [73.9449, 34.1374], [73.9535, 34.1519], [73.9658, 34.1534], [73.9615, 34.1681], [73.9988, 34.1818], [74.0015, 34.1897], [74.0091, 34.1919], [74.0109, 34.1945], [73.9989, 34.2032], [74.0083, 34.22], [74.0025, 34.2368], [74.0061, 34.2439], [73.9914, 34.2569], [73.9789, 34.253], [73.9576, 34.2927], [73.9407, 34.2988], [73.9427, 34.3126], [73.9254, 34.3268], [73.923, 34.3392], [73.9075, 34.3553], [73.8884, 34.345], [73.8879, 34.3368], [73.8598, 34.334], [73.8485, 34.3221], [73.84, 34.3329], [73.8123, 34.3349], [73.8105, 34.3455], [73.8006, 34.345], [73.7992, 34.3387], [73.7851, 34.3338], [73.771, 34.3322], [73.7676, 34.3403], [73.7714, 34.3614], [73.7684, 34.369], [73.7885, 34.3804], [73.7837, 34.3854], [73.7685, 34.3858], [73.7758, 34.3984], [73.8021, 34.4188], [73.8055, 34.4275], [73.8362, 34.4217], [73.8414, 34.4328], [73.8503, 34.4299], [73.8667, 34.451], [73.8875, 34.4594], [73.8726, 34.4734], [73.8924, 34.4918], [73.8851, 34.5132], [73.8902, 34.5274], [73.9056, 34.55], [73.9216, 34.559], [73.9412, 34.5626], [73.9439, 34.5864], [73.9583, 34.6156], [73.9368, 34.6416], [73.9543, 34.6494], [73.9478, 34.6559], [73.9564, 34.6654], [73.9533, 34.6709], [73.9787, 34.6952], [73.9861, 34.7109], [74.0001, 34.7209], [74.0148, 34.704], [74.0461, 34.6951], [74.0846, 34.692], [74.1084, 34.6781], [74.1141, 34.6644], [74.1261, 34.6593], [74.1453, 34.6593], [74.1445, 34.6712], [74.1508, 34.6784], [74.1522, 34.6895], [74.2024, 34.7134], [74.2472, 34.7241], [74.248, 34.7498], [74.2643, 34.7669], [74.2796, 34.7697], [74.2813, 34.7758], [74.2922, 34.7812], [74.326, 34.7777], [74.3484, 34.7653], [74.3752, 34.7704], [74.3987, 34.7691], [74.4104, 34.7825], [74.4688, 34.7636], [74.4908, 34.7666], [74.5096, 34.7878], [74.5236, 34.7798], [74.605, 34.7674], [74.6197, 34.7516], [74.6327, 34.7506], [74.6289, 34.7272], [74.648, 34.7087], [74.7278, 34.6921], [74.7453, 34.6814], [74.8602, 34.6844], [74.8773, 34.6805], [74.8897, 34.666], [74.8993, 34.6641], [74.9404, 34.6734], [74.9785, 34.6572], [74.9835, 34.6475], [74.9988, 34.651], [75.0013, 34.6443], [75.0272, 34.631], [75.0369, 34.6432], [75.075, 34.6509], [75.0925, 34.66], [75.1607, 34.6589], [75.1739, 34.6514], [75.1786, 34.6411], [75.1938, 34.6512], [75.2185, 34.6427], [75.2647, 34.6361], [75.2688, 34.6196], [75.2828, 34.6037], [75.3043, 34.5876], [75.3328, 34.5767], [75.3363, 34.5685], [75.3506, 34.5622], [75.3597, 34.5454], [75.4008, 34.5504], [75.4202, 34.5416], [75.4492, 34.541], [75.4619, 34.5348], [75.4777, 34.5343], [75.4934, 34.544], [75.5037, 34.5409], [75.5119, 34.5454], [75.544, 34.5296], [75.5813, 34.5407], [75.6262, 34.5324], [75.6337, 34.5373], [75.675, 34.5355], [75.7166, 34.5121], [75.7608, 34.513], [75.7817, 34.528], [75.8061, 34.5326], [75.817, 34.544], [75.8415, 34.5445], [75.8471, 34.5477], [75.8542, 34.5647], [75.879, 34.5759], [75.9166, 34.5873], [75.9675, 34.5949], [75.9641, 34.6126], [75.9714, 34.6172], [75.9727, 34.6251], [75.9939, 34.6333], [76.0115, 34.6663], [76.0341, 34.6864], [76.0601, 34.6892], [76.0992, 34.662], [76.1032, 34.6484], [76.1352, 34.6394], [76.1377, 34.6341], [76.1458, 34.6372], [76.1621, 34.6334], [76.1731, 34.6411], [76.1761, 34.6515], [76.1959, 34.6643], [76.2033, 34.6612], [76.223, 34.6649], [76.2526, 34.6782], [76.2728, 34.6949], [76.2788, 34.712], [76.2964, 34.7216], [76.3311, 34.7196], [76.3557, 34.7301], [76.3838, 34.7291], [76.4207, 34.7387], [76.4322, 34.7621], [76.4741, 34.794], [76.4919, 34.7919], [76.5876, 34.7523], [76.6878, 34.752], [76.6946, 34.7584], [76.7017, 34.796], [76.7122, 34.7993], [76.7153, 34.8128], [76.7382, 34.8222], [76.7497, 34.8355], [76.7532, 34.8751], [76.7637, 34.8986], [76.7516, 34.9129], [76.7503, 34.9267], [76.7544, 34.9306], [76.8084, 34.9388], [76.8309, 34.949], [76.8474, 34.9508], [76.8597, 34.9617], [76.8869, 34.9594], [76.8937, 34.9648], [76.9543, 34.9558], [76.9705, 34.9474], [76.985, 34.9459], [76.994, 34.9553], [76.9947, 34.9646], [77.0093, 34.9879], [77.0127, 34.9976], [77.0086, 35.0134], [77.0159, 35.034], [77.0352, 35.0371], [77.0498, 35.0512], [77.075, 35.0583], [77.0879, 35.0702], [77.089, 35.0857], [77.0996, 35.0906], [77.1303, 35.0918], [77.1966, 35.1104], [77.2904, 35.1441], [77.5043, 35.2789], [77.6141, 35.3427], [77.8372, 35.5022]]]}}, {"type": "Feature", "properties": {"osm_type": "relation", "osm_id": 384734047, "name": "Anantnag", "admin_level": "6", "kind": "subdivision_2", "parent_osm_id": 1943188, "parent_name": "Jammu and Kashmir", "parent_iso": "IN-JK"}, "geometry": {"type": "Polygon", "coordinates": [[[75.1563, 34.0707], [75.1644, 34.0572], [75.1804, 34.048], [75.2091, 34.047], [75.2253, 34.0298], [75.2263, 34.0194], [75.239, 34.0135], [75.241, 34.0059], [75.2292, 33.9982], [75.234, 33.9917], [75.2339, 33.9755], [75.2283, 33.9601], [75.2369, 33.9325], [75.215, 33.9037], [75.2061, 33.8832], [75.1761, 33.876], [75.1568, 33.8519], [75.1459, 33.8513], [75.1337, 33.8431], [75.1192, 33.8475], [75.0959, 33.8286], [75.0708, 33.8304], [75.0653, 33.8233], [75.081, 33.8102], [75.0886, 33.8095], [75.1008, 33.7882], [75.1128, 33.786], [75.1166, 33.7645], [75.139, 33.7507], [75.1092, 33.732], [75.1193, 33.729], [75.1118, 33.7249], [75.1151, 33.7189], [75.1325, 33.714], [75.1337, 33.7094], [75.126, 33.7067], [75.1248, 33.6899], [75.1387, 33.6947], [75.1378, 33.6835], [75.1469, 33.675], [75.1388, 33.6701], [75.1472, 33.6604], [75.1377, 33.6542], [75.129, 33.6661], [75.1219, 33.6649], [75.1211, 33.6534], [75.1331, 33.6516], [75.1415, 33.6414], [75.1255, 33.6394], [75.1269, 33.6302], [75.1188, 33.614], [75.1262, 33.6051], [75.1243, 33.5967], [75.1423, 33.5954], [75.151, 33.5876], [75.1478, 33.5671], [75.1885, 33.5664], [75.1818, 33.5529], [75.172, 33.5479], [75.1704, 33.5381], [75.1597, 33.5302], [75.1513, 33.5072], [75.1612, 33.4999], [75.1964, 33.4938], [75.2434, 33.4697], [75.26, 33.4509], [75.2892, 33.4326], [75.3052, 33.4115], [75.3636, 33.3655], [75.3985, 33.3537], [75.4101, 33.3545], [75.4293, 33.3657], [75.4528, 33.3676], [75.4651, 33.3854], [75.4884, 33.3937], [75.489, 33.4164], [75.4973, 33.4384], [75.4803, 33.4856], [75.4984, 33.5121], [75.5222, 33.5219], [75.5153, 33.5479], [75.5225, 33.5687], [75.5415, 33.5794], [75.5428, 33.5927], [75.5311, 33.609], [75.5217, 33.6101], [75.5199, 33.6181], [75.5113, 33.6206], [75.5202, 33.6478], [75.5157, 33.6566], [75.5182, 33.6711], [75.5141, 33.6852], [75.5249, 33.7004], [75.5232, 33.7098], [75.4792, 33.7471], [75.4801, 33.7617], [75.4913, 33.7744], [75.4749, 33.787], [75.4673, 33.8018], [75.4432, 33.8264], [75.4263, 33.8711], [75.4063, 33.8951], [75.4031, 33.9296], [75.4178, 33.9586], [75.4483, 33.9892], [75.4466, 34.0139], [75.4549, 34.0325], [75.4627, 34.0299], [75.4758, 34.0357], [75.494, 34.0326], [75.5292, 34.0472], [75.5433, 34.1241], [75.5651, 34.1547], [75.5872, 34.1679], [75.6037, 34.1962], [75.5856, 34.214], [75.5663, 34.2075], [75.5265, 34.2264], [75.5106, 34.2245], [75.5069, 34.2314], [75.4918, 34.2274], [75.4638, 34.2013], [75.4394, 34.2058], [75.4121, 34.2262], [75.4032, 34.2197], [75.4046, 34.209], [75.4, 34.2039], [75.3826, 34.1945], [75.3658, 34.1993], [75.338, 34.1972], [75.3243, 34.206], [75.3184, 34.2193], [75.2929, 34.2205], [75.2834, 34.2328], [75.2591, 34.241], [75.2484, 34.2275], [75.1956, 34.1943], [75.2004, 34.1859], [75.1958, 34.178], [75.1826, 34.1752], [75.1687, 34.1862], [75.1387, 34.1707], [75.1448, 34.1594], [75.1422, 34.1484], [75.1277, 34.1454], [75.1153, 34.1485], [75.1091, 34.1396], [75.1176, 34.1366], [75.1144, 34.1269], [75.1394, 34.1205], [75.1557, 34.103], [75.1478, 34.0858], [75.1563, 34.0707]]]}}, {"type": "Feature", "properties": {"osm_type": "relation", "osm_id": 718794490, "name": "Baramula", "admin_level": "6", "kind": "subdivision_2", "parent_osm_id": 1943188, "parent_name": "Jammu and Kashmir", "parent_iso": "IN-JK"}, "geometry": {"type": "Polygon", "coordinates": [[[74.2655, 33.9465], [74.2858, 33.9445], [74.3204, 33.9609], [74.3427, 33.9649], [74.3375, 33.9574], [74.3204, 33.9551], [74.3156, 33.9366], [74.3208, 33.9338], [74.3325, 33.9446], [74.3405, 33.9459], [74.3569, 33.9281], [74.3683, 33.9035], [74.3834, 33.8991], [74.4066, 33.9034], [74.4355, 33.8956], [74.4488, 33.8852], [74.461, 33.8649], [74.4758, 33.8608], [74.4812, 33.873], [74.5041, 33.8809], [74.5334, 33.9081], [74.5306, 33.9321], [74.5345, 33.9425], [74.5223, 33.9487], [74.5324, 33.9647], [74.5533, 33.9783], [74.5498, 33.9807], [74.552, 33.9856], [74.5743, 33.9871], [74.5821, 34.0071], [74.6104, 34.0272], [74.6322, 34.0525], [74.6857, 34.0667], [74.7045, 34.0764], [74.7193, 34.0761], [74.7157, 34.0848], [74.7292, 34.1017], [74.7243, 34.1035], [74.7268, 34.1089], [74.7066, 34.1238], [74.6899, 34.1153], [74.6745, 34.129], [74.6615, 34.122], [74.6639, 34.1184], [74.6506, 34.1203], [74.6486, 34.1313], [74.6573, 34.1346], [74.653, 34.1399], [74.6161, 34.1412], [74.5873, 34.1337], [74.586, 34.1491], [74.6082, 34.1684], [74.6085, 34.1803], [74.5878, 34.1822], [74.5855, 34.1727], [74.5721, 34.1712], [74.5446, 34.1745], [74.5602, 34.1852], [74.5634, 34.2], [74.5514, 34.2226], [74.5553, 34.2269], [74.5734, 34.2255], [74.5735, 34.2313], [74.5649, 34.2412], [74.5565, 34.2426], [74.5512, 34.2383], [74.5193, 34.2349], [74.511, 34.238], [74.5132, 34.2811], [74.5202, 34.2885], [74.5159, 34.2998], [74.5242, 34.3265], [74.5191, 34.3362], [74.4826, 34.3644], [74.4671, 34.3664], [74.4484, 34.3456], [74.4193, 34.3416], [74.4142, 34.349], [74.4102, 34.3447], [74.4006, 34.3488], [74.3924, 34.3449], [74.3771, 34.3482], [74.3591, 34.3291], [74.3631, 34.3154], [74.3552, 34.2942], [74.3424, 34.2841], [74.3407, 34.2745], [74.3338, 34.2695], [74.3135, 34.2697], [74.2983, 34.2627], [74.2896, 34.2675], [74.2626, 34.2677], [74.2396, 34.2548], [74.2248, 34.2545], [74.1954, 34.2445], [74.1821, 34.2187], [74.1697, 34.2156], [74.1688, 34.1905], [74.1392, 34.188], [74.0985, 34.2028], [74.0874, 34.2119], [74.0416, 34.1979], [74.0046, 34.1961], [74.0109, 34.1945], [74.0015, 34.1897], [73.9988, 34.1818], [73.9615, 34.1681], [73.9658, 34.1534], [73.9535, 34.1519], [73.9449, 34.1374], [73.9271, 34.1278], [73.9264, 34.1036], [73.9044, 34.106], [73.9012, 34.089], [73.9077, 34.0821], [73.8988, 34.0735], [73.8961, 34.0597], [73.9071, 34.0432], [73.9214, 34.0354], [73.9232, 34.0249], [73.9399, 34.023], [73.9508, 34.0289], [73.9761, 34.0297], [74.0092, 34.0222], [74.0662, 34.0361], [74.1071, 34.0377], [74.1348, 34.0472], [74.168, 34.0282], [74.1796, 34.0392], [74.1975, 34.0431], [74.2147, 34.0386], [74.2226, 34.0337], [74.2258, 34.0241], [74.2499, 34.0151], [74.2647, 33.9856], [74.2615, 33.9787], [74.2646, 33.9742], [74.2519, 33.9674], [74.2505, 33.959], [74.2606, 33.9548], [74.2655, 33.9465]]]}}, {"type": "Feature", "properties": {"osm_type": "relation", "osm_id": 762933467, "name": "Kulgam", "admin_level": "6", "kind": "subdivision_2", "parent_osm_id": 1943188, "parent_name": "Jammu and Kashmir", "parent_iso": "IN-JK"}, "geometry": {"type": "Polygon", "coordinates": [[[75.081, 33.8102], [75.07, 33.8041], [75.0738, 33.7918], [75.0595, 33.7866], [75.0613, 33.7737], [75.0419, 33.7668], [75.0418, 33.7522], [75.0484, 33.7482], [75.042, 33.7454], [75.0372, 33.7272], [75.0248, 33.7197], [75.0172, 33.7315], [75.0072, 33.7278], [75.0146, 33.7246], [75.0106, 33.7221], [74.9957, 33.7245], [74.9866, 33.7169], [74.9768, 33.7204], [74.9667, 33.7176], [74.9738, 33.687], [74.9792, 33.6816], [74.971, 33.6782], [74.9709, 33.67], [74.9769, 33.6669], [74.9627, 33.663], [74.9488, 33.6479], [74.9409, 33.6562], [74.923, 33.6515], [74.9237, 33.6377], [74.915, 33.6359], [74.9157, 33.6291], [74.8867, 33.6077], [74.8404, 33.6263], [74.8033, 33.6241], [74.7977, 33.6193], [74.7921, 33.631], [74.7954, 33.6372], [74.8054, 33.6399], [74.8054, 33.6503], [74.7702, 33.6377], [74.7511, 33.6366], [74.7465, 33.6415], [74.7537, 33.6514], [74.7313, 33.657], [74.721, 33.6523], [74.7016, 33.6598], [74.6886, 33.6489], [74.6747, 33.6522], [74.6667, 33.6457], [74.6387, 33.6524], [74.6278, 33.639], [74.6209, 33.6383], [74.5934, 33.6465], [74.5896, 33.6576], [74.5776, 33.6589], [74.5787, 33.6634], [74.5617, 33.6653], [74.5683, 33.6475], [74.5761, 33.6441], [74.5783, 33.6262], [74.5735, 33.613], [74.5608, 33.6051], [74.5649, 33.5977], [74.553, 33.5832], [74.5593, 33.5763], [74.5454, 33.5488], [74.552, 33.5186], [74.5436, 33.5106], [74.5463, 33.5032], [74.5518, 33.5012], [74.5536, 33.4944], [74.563, 33.4972], [74.5674, 33.4906], [74.5854, 33.4869], [74.5874, 33.4714], [74.5969, 33.4761], [74.6025, 33.4735], [74.6012, 33.4674], [74.6119, 33.4685], [74.6182, 33.4606], [74.6489, 33.4667], [74.6622, 33.4789], [74.6703, 33.471], [74.6866, 33.4742], [74.6914, 33.4702], [74.6958, 33.4808], [74.7136, 33.4924], [74.7395, 33.4836], [74.7667, 33.4602], [74.8017, 33.4551], [74.7999, 33.4519], [74.8063, 33.447], [74.7984, 33.4415], [74.8104, 33.4366], [74.827, 33.4372], [74.8498, 33.4505], [74.8632, 33.4502], [74.8735, 33.4585], [74.881, 33.4542], [74.898, 33.4569], [74.9261, 33.4719], [74.9476, 33.4666], [74.9742, 33.4702], [74.9991, 33.4623], [75.0128, 33.4508], [75.0233, 33.4504], [75.0276, 33.4516], [75.0291, 33.4629], [75.0438, 33.4749], [75.0973, 33.4726], [75.1036, 33.4765], [75.1041, 33.4826], [75.0828, 33.5014], [75.0786, 33.5155], [75.0813, 33.5221], [75.1138, 33.5474], [75.1138, 33.5607], [75.1184, 33.5666], [75.1277, 33.5684], [75.1345, 33.5589], [75.1442, 33.557], [75.1377, 33.5408], [75.1521, 33.5415], [75.1597, 33.5302], [75.1704, 33.5381], [75.172, 33.5479], [75.1818, 33.5529], [75.1885, 33.5664], [75.1478, 33.5671], [75.151, 33.5876], [75.1423, 33.5954], [75.1243, 33.5967], [75.1262, 33.6051], [75.1188, 33.614], [75.1269, 33.6302], [75.1255, 33.6394], [75.1415, 33.6414], [75.1331, 33.6516], [75.1211, 33.6534], [75.1219, 33.6649], [75.129, 33.6661], [75.1377, 33.6542], [75.1472, 33.6604], [75.1388, 33.6701], [75.1469, 33.675], [75.1378, 33.6835], [75.1387, 33.6947], [75.1248, 33.6899], [75.126, 33.7067], [75.1337, 33.7094], [75.1325, 33.714], [75.1151, 33.7189], [75.1118, 33.7249], [75.1193, 33.729], [75.1092, 33.732], [75.139, 33.7507], [75.1166, 33.7645], [75.1128, 33.786], [75.1008, 33.7882], [75.0913, 33.7997], [75.0912, 33.8068], [75.081, 33.8102]]]}}, {"type": "Feature", "properties": {"osm_type": "relation", "osm_id": 655828750, "name": "Shupiyan", "admin_level": "6", "kind": "subdivision_2", "parent_osm_id": 1943188, "parent_name": "Jammu and Kashmir", "parent_iso": "IN-JK"}, "geometry": {"type": "Polygon", "coordinates": [[[75.0595, 33.7866], [75.0534, 33.7891], [75.0522, 33.7831], [75.0231, 33.7802], [75.0147, 33.7824], [75.0063, 33.7715], [74.9941, 33.7823], [74.9779, 33.7671], [74.9633, 33.7614], [74.9503, 33.7619], [74.9506, 33.7716], [74.9394, 33.7651], [74.9474, 33.7757], [74.936, 33.7784], [74.923, 33.7704], [74.9109, 33.7714], [74.9061, 33.763], [74.8992, 33.7635], [74.8939, 33.7574], [74.875, 33.7616], [74.893, 33.7796], [74.8762, 33.7767], [74.8667, 33.7813], [74.8616, 33.7771], [74.8634, 33.7711], [74.8422, 33.75], [74.8336, 33.7599], [74.8214, 33.7632], [74.7984, 33.7532], [74.7819, 33.7686], [74.7391, 33.7537], [74.737, 33.7645], [74.7274, 33.763], [74.7216, 33.7672], [74.6536, 33.7041], [74.6541, 33.6977], [74.6103, 33.6731], [74.5934, 33.6465], [74.6278, 33.639], [74.6387, 33.6524], [74.6667, 33.6457], [74.6747, 33.6522], [74.6886, 33.6489], [74.7016, 33.6598], [74.721, 33.6523], [74.7313, 33.657], [74.7537, 33.6514], [74.7465, 33.6415], [74.7511, 33.6366], [74.7702, 33.6377], [74.8054, 33.6503], [74.8054, 33.6399], [74.7954, 33.6372], [74.7921, 33.631], [74.7977, 33.6193], [74.8033, 33.6241], [74.8404, 33.6263], [74.8867, 33.6077], [74.9157, 33.6291], [74.915, 33.6359], [74.9237, 33.6377], [74.923, 33.6515], [74.9409, 33.6562], [74.9488, 33.6479], [74.9627, 33.663], [74.9769, 33.6669], [74.9709, 33.67], [74.971, 33.6782], [74.9792, 33.6816], [74.9738, 33.687], [74.9667, 33.7176], [74.9768, 33.7204], [74.9866, 33.7169], [74.9957, 33.7245], [75.0106, 33.7221], [75.0146, 33.7246], [75.0072, 33.7278], [75.0172, 33.7315], [75.0248, 33.7197], [75.0372, 33.7272], [75.042, 33.7454], [75.0484, 33.7482], [75.0418, 33.7522], [75.0419, 33.7668], [75.0613, 33.7737], [75.0595, 33.7866]]]}}, {"type": "Feature", "properties": {"osm_type": "relation", "osm_id": 406748254, "name": "Reasi", "admin_level": "6", "kind": "subdivision_2", "parent_osm_id": 1943188, "parent_name": "Jammu and Kashmir", "parent_iso": "IN-JK"}, "geometry": {"type": "Polygon", "coordinates": [[[74.6391, 33.4639], [74.642, 33.4584], [74.6384, 33.4481], [74.6462, 33.4371], [74.6376, 33.4241], [74.6148, 33.4126], [74.6282, 33.3994], [74.6647, 33.394], [74.677, 33.3858], [74.6713, 33.3605], [74.6795, 33.3525], [74.6891, 33.3243], [74.6781, 33.3145], [74.6611, 33.3168], [74.6566, 33.3132], [74.6539, 33.3064], [74.6588, 33.2963], [74.6544, 33.2871], [74.6662, 33.2733], [74.6655, 33.2682], [74.675, 33.2644], [74.6601, 33.2469], [74.6607, 33.2394], [74.69, 33.2174], [74.687, 33.1824], [74.6821, 33.1692], [74.658, 33.16], [74.6544, 33.1654], [74.6104, 33.1739], [74.6036, 33.1708], [74.595, 33.1755], [74.585, 33.1737], [74.5806, 33.1778], [74.5744, 33.1744], [74.5794, 33.1619], [74.5723, 33.1556], [74.5515, 33.1549], [74.5384, 33.1652], [74.5313, 33.1637], [74.5247, 33.1514], [74.5282, 33.1404], [74.551, 33.1275], [74.5654, 33.1296], [74.5768, 33.1213], [74.6138, 33.1195], [74.6333, 33.1083], [74.6244, 33.0998], [74.624, 33.0929], [74.6283, 33.0793], [74.6346, 33.0772], [74.631, 33.0663], [74.6361, 33.0585], [74.6192, 33.0598], [74.5909, 33.048], [74.5653, 33.0438], [74.5678, 33.0154], [74.5772, 33.003], [74.5974, 33.0098], [74.5946, 33.0052], [74.599, 32.9965], [74.6107, 32.9918], [74.6102, 32.9867], [74.5995, 32.98], [74.5913, 32.9804], [74.6115, 32.9661], [74.6068, 32.9516], [74.6136, 32.9363], [74.6318, 32.9418], [74.6505, 32.9608], [74.6243, 32.9787], [74.6207, 32.9903], [74.6242, 33.0123], [74.6475, 33.0016], [74.6673, 33.0183], [74.6717, 33.0382], [74.6806, 33.0322], [74.6906, 33.034], [74.6925, 33.0383], [74.6965, 33.0341], [74.7028, 33.0367], [74.7036, 33.0304], [74.7229, 33.0324], [74.7229, 33.0399], [74.7415, 33.0389], [74.7411, 33.0314], [74.7611, 33.0309], [74.768, 33.0186], [74.7838, 33.0157], [74.7998, 32.9914], [74.8184, 32.9766], [74.8408, 32.9753], [74.8468, 32.9709], [74.8413, 32.9419], [74.8703, 32.9481], [74.88, 32.943], [74.8846, 32.9174], [74.8986, 32.9167], [74.9083, 32.9237], [74.9314, 32.9766], [74.9495, 32.9841], [74.9735, 32.9848], [74.9888, 32.9974], [75.0083, 33.0043], [75.001, 33.0327], [75.0204, 33.0396], [75.037, 33.0341], [75.0488, 33.0467], [75.051, 33.0512], [75.0371, 33.068], [75.0144, 33.0834], [75.019, 33.1124], [75.0243, 33.126], [75.0353, 33.1369], [75.0611, 33.1426], [75.0964, 33.181], [75.1062, 33.184], [75.1044, 33.1871], [75.1205, 33.1957], [75.1402, 33.2163], [75.1341, 33.2311], [75.1337, 33.257], [75.1219, 33.2657], [75.1197, 33.2805], [75.13, 33.2967], [75.1038, 33.3049], [75.0961, 33.3259], [75.078, 33.3263], [75.0492, 33.3533], [75.0216, 33.3904], [75.0203, 33.3997], [75.0445, 33.4189], [75.0343, 33.4279], [75.0276, 33.4516], [75.0128, 33.4508], [74.9865, 33.4673], [74.963, 33.4712], [74.9476, 33.4666], [74.9261, 33.4719], [74.898, 33.4569], [74.881, 33.4542], [74.8735, 33.4585], [74.8632, 33.4502], [74.8498, 33.4505], [74.827, 33.4372], [74.8104, 33.4366], [74.7984, 33.4415], [74.8063, 33.447], [74.7999, 33.4519], [74.8017, 33.4551], [74.7667, 33.4602], [74.7395, 33.4836], [74.7136, 33.4924], [74.6958, 33.4808], [74.6914, 33.4702], [74.6866, 33.4742], [74.6703, 33.471], [74.6622, 33.4789], [74.6391, 33.4639]]]}}, {"type": "Feature", "properties": {"osm_type": "relation", "osm_id": 121834984, "name": "Rajouri", "admin_level": "6", "kind": "subdivision_2", "parent_osm_id": 1943188, "parent_name": "Jammu and Kashmir", "parent_iso": "IN-JK"}, "geometry": {"type": "Polygon", "coordinates": [[[74.3357, 32.9744], [74.3733, 32.94], [74.3902, 32.9507], [74.414, 32.9433], [74.4307, 32.9474], [74.443, 32.9605], [74.4596, 32.9677], [74.4624, 32.9818], [74.4748, 32.9843], [74.5075, 32.9876], [74.5226, 32.9845], [74.5293, 32.9883], [74.5409, 32.9805], [74.5437, 32.9681], [74.5553, 32.9649], [74.5577, 32.959], [74.5628, 32.9666], [74.5799, 32.9753], [74.5847, 32.9868], [74.582, 32.9994], [74.5678, 33.0154], [74.5653, 33.0438], [74.5909, 33.048], [74.6192, 33.0598], [74.6361, 33.0585], [74.631, 33.0663], [74.6346, 33.0772], [74.6283, 33.0793], [74.624, 33.0929], [74.6244, 33.0998], [74.6333, 33.1083], [74.6138, 33.1195], [74.5768, 33.1213], [74.5654, 33.1296], [74.551, 33.1275], [74.5282, 33.1404], [74.5247, 33.1514], [74.5313, 33.1637], [74.5384, 33.1652], [74.5515, 33.1549], [74.5723, 33.1556], [74.5794, 33.1619], [74.5744, 33.1744], [74.5806, 33.1778], [74.6036, 33.1708], [74.6252, 33.172], [74.6636, 33.1607], [74.6821, 33.1692], [74.687, 33.1824], [74.69, 33.2174], [74.6607, 33.2394], [74.6601, 33.2469], [74.675, 33.2644], [74.6655, 33.2682], [74.6662, 33.2733], [74.6544, 33.2871], [74.6588, 33.2963], [74.6539, 33.3064], [74.6566, 33.3132], [74.6611, 33.3168], [74.6781, 33.3145], [74.6891, 33.3243], [74.6795, 33.3525], [74.6713, 33.3605], [74.677, 33.3858], [74.6647, 33.394], [74.6282, 33.3994], [74.6148, 33.4126], [74.6376, 33.4241], [74.6462, 33.4371], [74.6384, 33.4481], [74.642, 33.4584], [74.6391, 33.4639], [74.6182, 33.4606], [74.6119, 33.4685], [74.6012, 33.4674], [74.6025, 33.4735], [74.5923, 33.4755], [74.5831, 33.4678], [74.5855, 33.4474], [74.5602, 33.4472], [74.5533, 33.4411], [74.5543, 33.4253], [74.532, 33.4387], [74.5091, 33.4772], [74.4618, 33.5053], [74.4505, 33.523], [74.4082, 33.5363], [74.3682, 33.5277], [74.3416, 33.5284], [74.3228, 33.5083], [74.2903, 33.5081], [74.2877, 33.5003], [74.279, 33.509], [74.2684, 33.5103], [74.2411, 33.4944], [74.2564, 33.4686], [74.2604, 33.4473], [74.2445, 33.415], [74.2218, 33.3894], [74.2185, 33.3789], [74.1975, 33.3734], [74.1895, 33.3623], [74.1699, 33.3523], [74.1676, 33.3409], [74.1579, 33.3369], [74.1507, 33.3217], [74.1415, 33.3182], [74.1308, 33.3056], [74.1075, 33.2999], [74.0899, 33.2842], [74.0542, 33.2797], [74.0452, 33.2854], [74.0253, 33.2663], [74.0178, 33.2693], [74.0133, 33.2648], [74.0146, 33.2597], [74.0019, 33.2398], [74.0096, 33.2379], [74.0076, 33.2216], [74.0184, 33.2043], [74.0349, 33.1984], [74.05, 33.2013], [74.0533, 33.1947], [74.0691, 33.1965], [74.0782, 33.1825], [74.1006, 33.1687], [74.1154, 33.1681], [74.1322, 33.1574], [74.1349, 33.1498], [74.1558, 33.1367], [74.1557, 33.1266], [74.164, 33.1185], [74.1642, 33.1058], [74.183, 33.0959], [74.182, 33.0883], [74.1704, 33.0803], [74.1709, 33.0734], [74.1948, 33.0708], [74.2489, 33.046], [74.2797, 33.0371], [74.3248, 33.0313], [74.3182, 33.0137], [74.326, 32.9986], [74.3231, 32.9894], [74.3294, 32.9869], [74.3357, 32.9744]]]}}, {"type": "Feature", "properties": {"osm_type": "relation", "osm_id": 613300926, "name": "Jammu", "admin_level": "6", "kind": "subdivision_2", "parent_osm_id": 1943188, "parent_name": "Jammu and Kashmir", "parent_iso": "IN-JK"}, "geometry": {"type": "Polygon", "coordinates": [[[74.4607, 32.7877], [74.458, 32.7821], [74.4613, 32.777], [74.4737, 32.7773], [74.4837, 32.7698], [74.4828, 32.7651], [74.5096, 32.7635], [74.515, 32.7581], [74.5151, 32.7492], [74.5247, 32.7462], [74.5349, 32.7458], [74.5429, 32.7514], [74.5473, 32.7452], [74.5556, 32.7587], [74.5679, 32.7601], [74.5795, 32.7494], [74.6175, 32.7613], [74.6376, 32.7514], [74.6391, 32.7576], [74.6305, 32.7674], [74.6321, 32.7761], [74.6396, 32.7823], [74.6539, 32.7805], [74.6587, 32.7874], [74.6396, 32.7983], [74.6329, 32.8089], [74.6528, 32.8279], [74.6586, 32.8298], [74.6655, 32.8239], [74.6824, 32.8365], [74.7052, 32.8419], [74.7045, 32.8171], [74.696, 32.8115], [74.6744, 32.7565], [74.6545, 32.7292], [74.6639, 32.7257], [74.6511, 32.6964], [74.666, 32.6763], [74.6821, 32.6758], [74.6894, 32.6669], [74.6963, 32.6658], [74.6954, 32.6614], [74.6885, 32.6516], [74.681, 32.6525], [74.6719, 32.6461], [74.6696, 32.6384], [74.6545, 32.6371], [74.654, 32.6153], [74.6385, 32.6146], [74.6391, 32.6035], [74.659, 32.5967], [74.6485, 32.5859], [74.655, 32.5809], [74.6517, 32.5631], [74.6729, 32.5683], [74.6733, 32.5536], [74.6611, 32.5541], [74.6619, 32.5459], [74.6902, 32.5342], [74.6815, 32.4927], [74.6918, 32.4866], [74.7103, 32.4929], [74.7142, 32.4875], [74.7117, 32.4787], [74.7271, 32.4759], [74.7294, 32.4811], [74.7527, 32.4785], [74.7553, 32.4829], [74.7963, 32.4769], [74.8014, 32.4827], [74.8126, 32.4802], [74.82, 32.4997], [74.846, 32.4902], [74.8577, 32.494], [74.8676, 32.4852], [74.8876, 32.5026], [74.889, 32.518], [74.9152, 32.5209], [74.9007, 32.535], [74.9011, 32.5506], [74.9239, 32.5443], [74.9351, 32.5548], [74.9274, 32.5571], [74.9263, 32.5622], [74.939, 32.559], [74.9528, 32.5686], [74.9431, 32.5813], [74.9504, 32.5843], [74.9486, 32.5916], [74.9378, 32.5905], [74.9355, 32.585], [74.9213, 32.594], [74.9284, 32.5999], [74.9229, 32.6034], [74.9266, 32.6109], [74.9042, 32.6225], [74.8909, 32.6034], [74.8771, 32.6118], [74.8773, 32.6157], [74.8884, 32.6215], [74.8945, 32.6391], [74.8863, 32.6532], [74.9231, 32.644], [74.9521, 32.6512], [74.9433, 32.6584], [74.95, 32.6741], [74.9474, 32.6765], [74.962, 32.6996], [74.9517, 32.7164], [74.9284, 32.7312], [74.9063, 32.7265], [74.8834, 32.7299], [74.8778, 32.7467], [74.8796, 32.762], [74.8714, 32.7681], [74.8743, 32.7728], [74.9081, 32.7626], [74.9266, 32.7824], [74.9552, 32.7724], [74.9642, 32.7811], [74.9602, 32.79], [74.9759, 32.7915], [74.9738, 32.7976], [74.9838, 32.8053], [74.9965, 32.7888], [75.005, 32.7872], [75.024, 32.7697], [75.0216, 32.7565], [75.0105, 32.7589], [75.0071, 32.7398], [75.0279, 32.7282], [75.0429, 32.7413], [75.049, 32.7413], [75.0645, 32.7382], [75.0833, 32.7252], [75.1017, 32.7359], [75.1242, 32.7415], [75.139, 32.7562], [75.1475, 32.7573], [75.1529, 32.7673], [75.1422, 32.7893], [75.1211, 32.791], [75.1086, 32.8155], [75.0014, 32.8835], [74.9576, 32.9226], [74.9481, 32.9168], [74.9517, 32.8899], [74.9403, 32.8919], [74.9354, 32.8839], [74.9201, 32.8876], [74.9135, 32.9032], [74.8986, 32.9167], [74.8846, 32.9174], [74.88, 32.943], [74.8703, 32.9481], [74.8413, 32.9419], [74.8468, 32.9709], [74.8408, 32.9753], [74.8184, 32.9766], [74.7998, 32.9914], [74.7838, 33.0157], [74.768, 33.0186], [74.7611, 33.0309], [74.7444, 33.0302], [74.7392, 33.0341], [74.7415, 33.0389], [74.7275, 33.0406], [74.7229, 33.0399], [74.7229, 33.0324], [74.7036, 33.0304], [74.7028, 33.0367], [74.6965, 33.0341], [74.6925, 33.0383], [74.6906, 33.034], [74.6806, 33.0322], [74.6717, 33.0382], [74.6673, 33.0183], [74.6475, 33.0016], [74.6242, 33.0123], [74.6207, 32.9903], [74.6243, 32.9787], [74.6505, 32.9608], [74.6318, 32.9418], [74.6136, 32.9363], [74.6068, 32.9516], [74.6115, 32.9661], [74.5913, 32.9804], [74.6102, 32.9867], [74.6107, 32.9918], [74.599, 32.9965], [74.5946, 33.0052], [74.5974, 33.0098], [74.5772, 33.003], [74.5842, 32.9951], [74.5799, 32.9753], [74.5628, 32.9666], [74.5577, 32.959], [74.5553, 32.9649], [74.5437, 32.9681], [74.5409, 32.9805], [74.5293, 32.9883], [74.5226, 32.9845], [74.5075, 32.9876], [74.4748, 32.9843], [74.4624, 32.9818], [74.4596, 32.9677], [74.443, 32.9605], [74.4307, 32.9474], [74.414, 32.9433], [74.3902, 32.9507], [74.3733, 32.94], [74.3482, 32.965], [74.3336, 32.9729], [74.3323, 32.9633], [74.3384, 32.9519], [74.3317, 32.9422], [74.3159, 32.941], [74.3128, 32.9322], [74.3274, 32.9191], [74.3485, 32.922], [74.39, 32.9101], [74.416, 32.8968], [74.4191, 32.8789], [74.4125, 32.867], [74.422, 32.8569], [74.4192, 32.8395], [74.4448, 32.8163], [74.4414, 32.8087], [74.4475, 32.795], [74.4607, 32.7877]]]}}, {"type": "Feature", "properties": {"osm_type": "relation", "osm_id": 138773833, "name": "Srinagar", "admin_level": "6", "kind": "subdivision_2", "parent_osm_id": 1943188, "parent_name": "Jammu and Kashmir", "parent_iso": "IN-JK"}, "geometry": {"type": "Polygon", "coordinates": [[[75.1163, 34.1325], [75.0786, 34.1367], [75.0249, 34.132], [74.9814, 34.1565], [74.9432, 34.1646], [74.9364, 34.1808], [74.9296, 34.1852], [74.9214, 34.1687], [74.929, 34.1618], [74.9175, 34.1541], [74.9063, 34.1655], [74.8953, 34.1618], [74.8744, 34.1758], [74.839, 34.1613], [74.8327, 34.1696], [74.817, 34.1623], [74.8028, 34.1633], [74.7942, 34.1417], [74.7825, 34.1439], [74.7784, 34.1492], [74.7732, 34.1474], [74.764, 34.1402], [74.766, 34.1295], [74.7585, 34.1224], [74.7806, 34.1134], [74.7853, 34.1031], [74.7413, 34.1022], [74.7268, 34.1089], [74.7243, 34.1035], [74.7292, 34.1017], [74.7157, 34.0848], [74.7193, 34.0761], [74.7496, 34.0739], [74.7774, 34.0593], [74.7725, 34.05], [74.7808, 34.041], [74.7741, 34.032], [74.7764, 34.0262], [74.7661, 34.0152], [74.7452, 34.005], [74.7498, 33.9959], [74.7648, 33.9888], [74.7702, 33.9754], [74.8106, 33.9724], [74.8062, 33.983], [74.8129, 33.9911], [74.811, 34.0124], [74.8248, 34.0188], [74.8476, 34.0162], [74.8768, 34.0222], [74.9051, 33.9989], [74.9197, 33.999], [74.9288, 33.9898], [74.9394, 33.9957], [74.9695, 33.9901], [74.9863, 34.0086], [75.0092, 34.014], [75.0153, 34.0218], [75.0128, 34.0322], [75.0297, 34.0382], [75.0361, 34.0471], [75.0558, 34.0501], [75.0589, 34.0568], [75.0533, 34.0588], [75.08, 34.0772], [75.093, 34.0719], [75.11, 34.0756], [75.1136, 34.0691], [75.1284, 34.07], [75.133, 34.0627], [75.1563, 34.0707], [75.1478, 34.0858], [75.1557, 34.103], [75.1394, 34.1205], [75.1144, 34.1269], [75.1163, 34.1325]]]}}, {"type": "Feature", "properties": {"osm_type": "relation", "osm_id": 678731936, "name": "Doda", "admin_level": "6", "kind": "subdivision_2", "parent_osm_id": 1943188, "parent_name": "Jammu and Kashmir", "parent_iso": "IN-JK"}, "geometry": {"type": "Polygon", "coordinates": [[[76.2186, 33.0274], [76.2191, 33.0356], [76.2375, 33.0568], [76.2299, 33.0834], [76.2151, 33.0999], [76.1897, 33.1078], [76.1754, 33.1247], [76.1689, 33.1473], [76.1482, 33.1642], [76.118, 33.1721], [76.1104, 33.1409], [76.0989, 33.1256], [76.0163, 33.1031], [75.9936, 33.1059], [75.982, 33.12], [75.952, 33.1313], [75.9458, 33.1296], [75.9402, 33.1198], [75.9318, 33.1184], [75.903, 33.1355], [75.8587, 33.1362], [75.8254, 33.1513], [75.8006, 33.1467], [75.8049, 33.1671], [75.7361, 33.2059], [75.7023, 33.2436], [75.6574, 33.2467], [75.6069, 33.2686], [75.5939, 33.2984], [75.5581, 33.334], [75.5491, 33.3621], [75.5268, 33.3855], [75.4884, 33.3978], [75.4861, 33.3905], [75.4651, 33.3854], [75.4528, 33.3676], [75.4293, 33.3657], [75.4101, 33.3545], [75.3985, 33.3537], [75.3951, 33.3483], [75.3995, 33.3243], [75.3958, 33.2841], [75.382, 33.2659], [75.3828, 33.2465], [75.3582, 33.2144], [75.3502, 33.1835], [75.3254, 33.1658], [75.3372, 33.1574], [75.3545, 33.1561], [75.3602, 33.1497], [75.3586, 33.121], [75.3787, 33.088], [75.3741, 33.0722], [75.4237, 33.0473], [75.4291, 32.997], [75.4515, 32.976], [75.4851, 32.9523], [75.5674, 32.9668], [75.5908, 32.9464], [75.6045, 32.9442], [75.6611, 32.9154], [75.6714, 32.8942], [75.6693, 32.8801], [75.6875, 32.8713], [75.6992, 32.8852], [75.7417, 32.8876], [75.7587, 32.8961], [75.805, 32.8934], [75.8176, 32.904], [75.8159, 32.9195], [75.8256, 32.9299], [75.8515, 32.9346], [75.8986, 32.9246], [75.9312, 32.906], [75.9514, 32.884], [75.9634, 32.8849], [76.0051, 32.9002], [76.0223, 32.9136], [76.0349, 32.9173], [76.0458, 32.9371], [76.0682, 32.9438], [76.1001, 32.9684], [76.1116, 33.0044], [76.1462, 33.0096], [76.1702, 33.0224], [76.2186, 33.0274]]]}}, {"type": "Feature", "properties": {"osm_type": "relation", "osm_id": 151184708, "name": "Pulwama", "admin_level": "6", "kind": "subdivision_2", "parent_osm_id": 1943188, "parent_name": "Jammu and Kashmir", "parent_iso": "IN-JK"}, "geometry": {"type": "Polygon", "coordinates": [[[75.1563, 34.0707], [75.133, 34.0627], [75.1284, 34.07], [75.1136, 34.0691], [75.11, 34.0756], [75.093, 34.0719], [75.08, 34.0772], [75.0533, 34.0588], [75.0589, 34.0568], [75.0558, 34.0501], [75.0361, 34.0471], [75.0297, 34.0382], [75.0128, 34.0322], [75.0153, 34.0218], [75.0092, 34.014], [74.9863, 34.0086], [74.9695, 33.9901], [74.9394, 33.9957], [74.9288, 33.9898], [74.9301, 33.9834], [74.9394, 33.9873], [74.9414, 33.9844], [74.9384, 33.9768], [74.9312, 33.9747], [74.9323, 33.9641], [74.901, 33.9401], [74.8944, 33.9187], [74.881, 33.9027], [74.8836, 33.8888], [74.8716, 33.8791], [74.8758, 33.8738], [74.8727, 33.8626], [74.8455, 33.8517], [74.8494, 33.8473], [74.8462, 33.8256], [74.8221, 33.8087], [74.8245, 33.8028], [74.8159, 33.799], [74.8202, 33.7902], [74.7992, 33.7802], [74.7979, 33.7717], [74.7843, 33.7742], [74.7816, 33.7849], [74.771, 33.7831], [74.7552, 33.7703], [74.7464, 33.7692], [74.7451, 33.7637], [74.737, 33.7645], [74.7391, 33.7537], [74.7819, 33.7686], [74.7984, 33.7532], [74.8214, 33.7632], [74.8336, 33.7599], [74.8422, 33.75], [74.8634, 33.7711], [74.8616, 33.7771], [74.8667, 33.7813], [74.8762, 33.7767], [74.893, 33.7796], [74.875, 33.7616], [74.8939, 33.7574], [74.8992, 33.7635], [74.9061, 33.763], [74.9109, 33.7714], [74.923, 33.7704], [74.936, 33.7784], [74.9474, 33.7757], [74.9394, 33.7651], [74.9506, 33.7716], [74.9503, 33.7619], [74.9633, 33.7614], [74.9779, 33.7671], [74.9941, 33.7823], [75.0063, 33.7715], [75.0147, 33.7824], [75.0522, 33.7831], [75.0534, 33.7891], [75.0595, 33.7866], [75.0738, 33.7918], [75.07, 33.8041], [75.0807, 33.8072], [75.0653, 33.8233], [75.0708, 33.8304], [75.0959, 33.8286], [75.1192, 33.8475], [75.1337, 33.8431], [75.1459, 33.8513], [75.1568, 33.8519], [75.1761, 33.876], [75.2061, 33.8832], [75.215, 33.9037], [75.2369, 33.9325], [75.2283, 33.9601], [75.2339, 33.9755], [75.234, 33.9917], [75.2292, 33.9982], [75.2416, 34.0083], [75.2263, 34.0194], [75.2253, 34.0298], [75.2091, 34.047], [75.1804, 34.048], [75.1644, 34.0572], [75.1563, 34.0707]]]}}, {"type": "Feature", "properties": {"osm_type": "relation", "osm_id": 381476307, "name": "Ramban", "admin_level": "6", "kind": "subdivision_2", "parent_osm_id": 1943188, "parent_name": "Jammu and Kashmir", "parent_iso": "IN-JK"}, "geometry": {"type": "Polygon", "coordinates": [[[75.1597, 33.5302], [75.1521, 33.5415], [75.1377, 33.5408], [75.1442, 33.557], [75.1345, 33.5589], [75.1277, 33.5684], [75.1184, 33.5666], [75.1138, 33.5607], [75.1138, 33.5474], [75.0813, 33.5221], [75.0786, 33.5155], [75.0828, 33.5014], [75.1041, 33.4826], [75.1036, 33.4765], [75.0899, 33.4719], [75.0438, 33.4749], [75.0271, 33.4581], [75.0343, 33.4279], [75.0445, 33.4189], [75.0203, 33.3997], [75.0216, 33.3904], [75.0492, 33.3533], [75.078, 33.3263], [75.0961, 33.3259], [75.1038, 33.3049], [75.13, 33.2967], [75.1197, 33.2805], [75.1219, 33.2657], [75.1337, 33.257], [75.1341, 33.2311], [75.1402, 33.2163], [75.1042, 33.1847], [75.1547, 33.1696], [75.1608, 33.1619], [75.18, 33.1553], [75.2164, 33.1495], [75.224, 33.1409], [75.2245, 33.1315], [75.2326, 33.1305], [75.2525, 33.1126], [75.28, 33.1065], [75.2872, 33.0953], [75.3052, 33.0966], [75.3273, 33.0883], [75.3358, 33.0736], [75.3551, 33.0708], [75.3575, 33.0648], [75.3623, 33.0714], [75.376, 33.0693], [75.3787, 33.088], [75.3586, 33.121], [75.3602, 33.1497], [75.3545, 33.1561], [75.3372, 33.1574], [75.3254, 33.1658], [75.3502, 33.1835], [75.3582, 33.2144], [75.3828, 33.2465], [75.382, 33.2659], [75.3958, 33.2841], [75.3995, 33.3243], [75.3951, 33.3483], [75.3985, 33.3537], [75.3496, 33.374], [75.3381, 33.3886], [75.3052, 33.4115], [75.2892, 33.4326], [75.26, 33.4509], [75.2434, 33.4697], [75.1964, 33.4938], [75.154, 33.5023], [75.1513, 33.5072], [75.1597, 33.5302]]]}}, {"type": "Feature", "properties": {"osm_type": "relation", "osm_id": 652681136, "name": "Ganderbal", "admin_level": "6", "kind": "subdivision_2", "parent_osm_id": 1943188, "parent_name": "Jammu and Kashmir", "parent_iso": "IN-JK"}, "geometry": {"type": "Polygon", "coordinates": [[[75.4918, 34.2274], [75.489, 34.2418], [75.4597, 34.2747], [75.4356, 34.2721], [75.3904, 34.2768], [75.3758, 34.2968], [75.3798, 34.3117], [75.3612, 34.3257], [75.3533, 34.3832], [75.3237, 34.3677], [75.2972, 34.3659], [75.2939, 34.3629], [75.2967, 34.3492], [75.2663, 34.3466], [75.239, 34.3593], [75.2182, 34.3544], [75.1874, 34.3661], [75.175, 34.3441], [75.1521, 34.3363], [75.1453, 34.3292], [75.1346, 34.3291], [75.1165, 34.3346], [75.0957, 34.3491], [75.0871, 34.3471], [75.0516, 34.3779], [75.0127, 34.3942], [75.0, 34.4044], [74.9931, 34.4175], [74.9432, 34.4214], [74.9147, 34.4428], [74.8851, 34.429], [74.8716, 34.4118], [74.8755, 34.3816], [74.8909, 34.3794], [74.8896, 34.3671], [74.8794, 34.3506], [74.8495, 34.3383], [74.819, 34.3172], [74.7829, 34.307], [74.7585, 34.2784], [74.7424, 34.2771], [74.7204, 34.3018], [74.6998, 34.3147], [74.6703, 34.3117], [74.6567, 34.3217], [74.6593, 34.3067], [74.6783, 34.2869], [74.6636, 34.2547], [74.6716, 34.2496], [74.667, 34.2428], [74.6685, 34.2257], [74.676, 34.2178], [74.6937, 34.2146], [74.6815, 34.2064], [74.6577, 34.2009], [74.6504, 34.1935], [74.6815, 34.1474], [74.7055, 34.1339], [74.7113, 34.1188], [74.7413, 34.1022], [74.7597, 34.1047], [74.7813, 34.1003], [74.7853, 34.1031], [74.7806, 34.1134], [74.7585, 34.1224], [74.766, 34.1295], [74.764, 34.1402], [74.7784, 34.1492], [74.7919, 34.1404], [74.8028, 34.1633], [74.817, 34.1623], [74.8327, 34.1696], [74.839, 34.1613], [74.8744, 34.1758], [74.8953, 34.1618], [74.9063, 34.1655], [74.9175, 34.1541], [74.929, 34.1618], [74.9214, 34.1687], [74.9296, 34.1852], [74.9364, 34.1808], [74.9432, 34.1646], [74.9814, 34.1565], [75.0249, 34.132], [75.0786, 34.1367], [75.1163, 34.1325], [75.1176, 34.1366], [75.1091, 34.1396], [75.1153, 34.1485], [75.1277, 34.1454], [75.1422, 34.1484], [75.1448, 34.1594], [75.1387, 34.1707], [75.1687, 34.1862], [75.1826, 34.1752], [75.1958, 34.178], [75.2004, 34.1859], [75.1956, 34.1943], [75.2484, 34.2275], [75.2591, 34.241], [75.2834, 34.2328], [75.2929, 34.2205], [75.3184, 34.2193], [75.3243, 34.206], [75.338, 34.1972], [75.3511, 34.1961], [75.3658, 34.1993], [75.3826, 34.1945], [75.4, 34.2039], [75.4046, 34.209], [75.4032, 34.2197], [75.4121, 34.2262], [75.4394, 34.2058], [75.4638, 34.2013], [75.4918, 34.2274]]]}}, {"type": "Feature", "properties": {"osm_type": "relation", "osm_id": 207515430, "name": "Udhampur", "admin_level": "6", "kind": "subdivision_2", "parent_osm_id": 1943188, "parent_name": "Jammu and Kashmir", "parent_iso": "IN-JK"}, "geometry": {"type": "Polygon", "coordinates": [[[74.8986, 32.9167], [74.9135, 32.9032], [74.9201, 32.8876], [74.9354, 32.8839], [74.9403, 32.8919], [74.9517, 32.8899], [74.9481, 32.9168], [74.9576, 32.9226], [75.0014, 32.8835], [75.1086, 32.8155], [75.1211, 32.791], [75.1422, 32.7893], [75.1529, 32.7673], [75.1475, 32.7573], [75.139, 32.7562], [75.1242, 32.7415], [75.1017, 32.7359], [75.0871, 32.7257], [75.0915, 32.7163], [75.1043, 32.7141], [75.1222, 32.702], [75.1192, 32.696], [75.1299, 32.6882], [75.138, 32.692], [75.1592, 32.6725], [75.1888, 32.66], [75.2179, 32.6612], [75.2733, 32.6435], [75.2994, 32.6472], [75.3064, 32.6551], [75.3393, 32.6686], [75.3539, 32.6669], [75.3622, 32.6708], [75.3635, 32.6647], [75.3745, 32.6692], [75.3783, 32.6737], [75.3748, 32.6781], [75.3834, 32.688], [75.3826, 32.6965], [75.3883, 32.7014], [75.3946, 32.6984], [75.3936, 32.6867], [75.3991, 32.6783], [75.425, 32.6842], [75.4363, 32.6735], [75.4443, 32.6768], [75.463, 32.6735], [75.4796, 32.6886], [75.4745, 32.691], [75.4823, 32.7013], [75.4819, 32.7332], [75.4941, 32.7618], [75.5083, 32.7757], [75.5582, 32.7837], [75.5603, 32.7761], [75.5841, 32.7653], [75.591, 32.7555], [75.6136, 32.7842], [75.6534, 32.7871], [75.692, 32.8069], [75.6949, 32.8155], [75.6875, 32.8713], [75.6693, 32.8801], [75.6714, 32.8942], [75.6611, 32.9154], [75.6045, 32.9442], [75.5908, 32.9464], [75.5674, 32.9668], [75.4808, 32.9531], [75.4291, 32.997], [75.427, 33.0332], [75.4237, 33.0473], [75.4173, 33.0525], [75.3797, 33.0696], [75.3623, 33.0714], [75.3575, 33.0648], [75.3551, 33.0708], [75.3358, 33.0736], [75.3273, 33.0883], [75.3052, 33.0966], [75.2872, 33.0953], [75.28, 33.1065], [75.2525, 33.1126], [75.2326, 33.1305], [75.2245, 33.1315], [75.224, 33.1409], [75.2164, 33.1495], [75.18, 33.1553], [75.1608, 33.1619], [75.1547, 33.1696], [75.1062, 33.184], [75.0964, 33.181], [75.0611, 33.1426], [75.0353, 33.1369], [75.0243, 33.126], [75.0144, 33.0834], [75.0371, 33.068], [75.051, 33.0512], [75.0418, 33.0377], [75.0345, 33.034], [75.0204, 33.0396], [75.001, 33.0327], [75.0083, 33.0043], [74.9888, 32.9974], [74.9735, 32.9848], [74.9495, 32.9841], [74.9314, 32.9766], [74.9083, 32.9237], [74.8986, 32.9167]]]}}, {"type": "Feature", "properties": {"osm_type": "relation", "osm_id": 764404910, "name": "Badgam", "admin_level": "6", "kind": "subdivision_2", "parent_osm_id": 1943188, "parent_name": "Jammu and Kashmir", "parent_iso": "IN-JK"}, "geometry": {"type": "Polygon", "coordinates": [[[74.4758, 33.8608], [74.4609, 33.8252], [74.4703, 33.8108], [74.4714, 33.7948], [74.4835, 33.7803], [74.4968, 33.776], [74.499, 33.7657], [74.5176, 33.7545], [74.5212, 33.7435], [74.513, 33.7229], [74.5132, 33.7099], [74.5307, 33.7062], [74.5355, 33.694], [74.5617, 33.6767], [74.5617, 33.6653], [74.5896, 33.6576], [74.5934, 33.6465], [74.6103, 33.6731], [74.6541, 33.6977], [74.6536, 33.7041], [74.714, 33.7623], [74.7216, 33.7672], [74.7274, 33.763], [74.7451, 33.7637], [74.7464, 33.7692], [74.7816, 33.7849], [74.7843, 33.7742], [74.7979, 33.7717], [74.7992, 33.7802], [74.8202, 33.7902], [74.8159, 33.799], [74.8245, 33.8028], [74.8221, 33.8087], [74.8462, 33.8256], [74.8494, 33.8473], [74.8455, 33.8517], [74.8727, 33.8626], [74.8758, 33.8738], [74.8716, 33.8791], [74.8836, 33.8888], [74.881, 33.9027], [74.8944, 33.9187], [74.901, 33.9401], [74.9323, 33.9641], [74.9312, 33.9747], [74.9384, 33.9768], [74.9414, 33.9844], [74.9394, 33.9873], [74.9301, 33.9834], [74.9274, 33.9951], [74.9051, 33.9989], [74.8768, 34.0222], [74.8476, 34.0162], [74.8248, 34.0188], [74.811, 34.0124], [74.8129, 33.9911], [74.8062, 33.983], [74.8106, 33.9724], [74.7702, 33.9754], [74.7648, 33.9888], [74.7498, 33.9959], [74.7452, 34.005], [74.7661, 34.0152], [74.7764, 34.0262], [74.7741, 34.032], [74.7808, 34.041], [74.7725, 34.05], [74.7774, 34.0593], [74.7496, 34.0739], [74.7045, 34.0764], [74.6857, 34.0667], [74.6322, 34.0525], [74.6104, 34.0272], [74.5821, 34.0071], [74.5743, 33.9871], [74.552, 33.9856], [74.5498, 33.9807], [74.5533, 33.9783], [74.5324, 33.9647], [74.5223, 33.9487], [74.5345, 33.9425], [74.5306, 33.9321], [74.5334, 33.9081], [74.5041, 33.8809], [74.4812, 33.873], [74.4758, 33.8608]]]}}, {"type": "Feature", "properties": {"osm_type": "relation", "osm_id": 382710276, "name": "Punch", "admin_level": "6", "kind": "subdivision_2", "parent_osm_id": 1943188, "parent_name": "Jammu and Kashmir", "parent_iso": "IN-JK"}, "geometry": {"type": "Polygon", "coordinates": [[[74.1723, 33.3541], [74.1895, 33.3623], [74.1975, 33.3734], [74.2185, 33.3789], [74.2218, 33.3894], [74.2445, 33.415], [74.2604, 33.4473], [74.2564, 33.4686], [74.2411, 33.4944], [74.2434, 33.4978], [74.2684, 33.5103], [74.279, 33.509], [74.2877, 33.5003], [74.2903, 33.5081], [74.3228, 33.5083], [74.3416, 33.5284], [74.3682, 33.5277], [74.4082, 33.5363], [74.4505, 33.523], [74.4618, 33.5053], [74.5091, 33.4772], [74.532, 33.4387], [74.5543, 33.4253], [74.5533, 33.4411], [74.5602, 33.4472], [74.5855, 33.4474], [74.5854, 33.4869], [74.5674, 33.4906], [74.563, 33.4972], [74.5536, 33.4944], [74.5436, 33.5106], [74.552, 33.5186], [74.5451, 33.5459], [74.558, 33.5693], [74.5593, 33.5763], [74.553, 33.5832], [74.5649, 33.5977], [74.5608, 33.6051], [74.5735, 33.613], [74.5783, 33.6262], [74.5761, 33.6441], [74.5683, 33.6475], [74.5617, 33.6767], [74.5355, 33.694], [74.5307, 33.7062], [74.5132, 33.7099], [74.513, 33.7229], [74.5212, 33.7435], [74.5176, 33.7545], [74.499, 33.7657], [74.4968, 33.776], [74.4835, 33.7803], [74.4714, 33.7948], [74.4703, 33.8108], [74.4609, 33.8252], [74.4758, 33.8608], [74.461, 33.8649], [74.4488, 33.8852], [74.4355, 33.8956], [74.4066, 33.9034], [74.3834, 33.8991], [74.3683, 33.9035], [74.3569, 33.9281], [74.3405, 33.9459], [74.3325, 33.9446], [74.3208, 33.9338], [74.3156, 33.9366], [74.3204, 33.9551], [74.3375, 33.9574], [74.3427, 33.9649], [74.3204, 33.9609], [74.2858, 33.9445], [74.2655, 33.9465], [74.2643, 33.9377], [74.2563, 33.9324], [74.2438, 33.8877], [74.2288, 33.8805], [74.2178, 33.864], [74.2053, 33.858], [74.1832, 33.8572], [74.171, 33.8496], [74.1678, 33.8377], [74.157, 33.8313], [74.1304, 33.8342], [74.1179, 33.825], [74.0937, 33.8251], [74.0844, 33.8207], [74.0678, 33.8244], [74.0559, 33.8198], [74.0446, 33.8072], [74.0352, 33.804], [74.0343, 33.7911], [74.0226, 33.7876], [74.0131, 33.772], [74.0135, 33.7488], [74.0004, 33.7413], [73.9796, 33.738], [73.9642, 33.7274], [73.9594, 33.7187], [73.9718, 33.7081], [73.9835, 33.7053], [73.9909, 33.6867], [73.9852, 33.6775], [73.9929, 33.6551], [73.984, 33.6549], [73.9818, 33.6398], [73.9994, 33.6204], [74.0228, 33.6132], [74.0306, 33.6004], [74.0289, 33.586], [74.0552, 33.5757], [74.0598, 33.5834], [74.0835, 33.5844], [74.0958, 33.5718], [74.1052, 33.5739], [74.1301, 33.5651], [74.1573, 33.5441], [74.1568, 33.5126], [74.1649, 33.4998], [74.173, 33.4964], [74.1766, 33.4849], [74.1882, 33.4797], [74.189, 33.4702], [74.1821, 33.4706], [74.1839, 33.4453], [74.1783, 33.4317], [74.1843, 33.4236], [74.1794, 33.4163], [74.1954, 33.4101], [74.1971, 33.3983], [74.181, 33.382], [74.1776, 33.3712], [74.1739, 33.3723], [74.1693, 33.3621], [74.1723, 33.3541]]]}}, {"type": "Feature", "properties": {"osm_type": "relation", "osm_id": 551953337, "name": "Kupwara", "admin_level": "6", "kind": "subdivision_2", "parent_osm_id": 1943188, "parent_name": "Jammu and Kashmir", "parent_iso": "IN-JK"}, "geometry": {"type": "Polygon", "coordinates": [[[74.0046, 34.1961], [74.0416, 34.1979], [74.0874, 34.2119], [74.0985, 34.2028], [74.1392, 34.188], [74.1688, 34.1905], [74.1697, 34.2156], [74.1821, 34.2187], [74.1954, 34.2445], [74.2248, 34.2545], [74.2396, 34.2548], [74.2626, 34.2677], [74.2896, 34.2675], [74.2983, 34.2627], [74.3135, 34.2697], [74.3338, 34.2695], [74.3407, 34.2745], [74.3424, 34.2841], [74.3552, 34.2942], [74.3631, 34.3154], [74.3591, 34.3291], [74.3682, 34.342], [74.3771, 34.3482], [74.3924, 34.3449], [74.4006, 34.3488], [74.4102, 34.3447], [74.4142, 34.349], [74.4158, 34.3655], [74.4308, 34.376], [74.4176, 34.3851], [74.4128, 34.3961], [74.4176, 34.3987], [74.4355, 34.3902], [74.4436, 34.3943], [74.4469, 34.4092], [74.4394, 34.423], [74.459, 34.427], [74.4651, 34.4404], [74.4891, 34.4498], [74.5017, 34.4642], [74.502, 34.481], [74.4923, 34.4979], [74.49, 34.5129], [74.4916, 34.5292], [74.5106, 34.558], [74.5087, 34.5784], [74.5192, 34.5958], [74.5134, 34.6496], [74.5197, 34.6874], [74.5144, 34.7848], [74.5057, 34.7876], [74.4908, 34.7666], [74.4688, 34.7636], [74.4104, 34.7825], [74.3987, 34.7691], [74.3752, 34.7704], [74.3484, 34.7653], [74.326, 34.7777], [74.2922, 34.7812], [74.2813, 34.7758], [74.2796, 34.7697], [74.2643, 34.7669], [74.248, 34.7498], [74.2472, 34.7241], [74.2024, 34.7134], [74.1522, 34.6895], [74.1508, 34.6784], [74.1445, 34.6712], [74.1453, 34.6593], [74.1261, 34.6593], [74.1141, 34.6644], [74.1084, 34.6781], [74.0846, 34.692], [74.0461, 34.6951], [74.0148, 34.704], [74.0001, 34.7209], [73.9861, 34.7109], [73.9787, 34.6952], [73.9533, 34.6709], [73.9564, 34.6654], [73.9478, 34.6559], [73.9543, 34.6494], [73.9368, 34.6416], [73.9583, 34.6156], [73.9439, 34.5864], [73.9412, 34.5626], [73.9216, 34.559], [73.9056, 34.55], [73.8902, 34.5274], [73.8851, 34.5132], [73.8924, 34.4918], [73.8726, 34.4734], [73.8875, 34.4594], [73.8667, 34.451], [73.8503, 34.4299], [73.8414, 34.4328], [73.8362, 34.4217], [73.8055, 34.4275], [73.8021, 34.4188], [73.7758, 34.3984], [73.7685, 34.3858], [73.7837, 34.3854], [73.7885, 34.3804], [73.7684, 34.369], [73.7714, 34.3614], [73.7676, 34.3403], [73.771, 34.3322], [73.7851, 34.3338], [73.7992, 34.3387], [73.8006, 34.345], [73.8105, 34.3455], [73.8123, 34.3349], [73.84, 34.3329], [73.8485, 34.3221], [73.8598, 34.334], [73.8879, 34.3368], [73.8884, 34.345], [73.9075, 34.3553], [73.923, 34.3392], [73.9254, 34.3268], [73.9427, 34.3126], [73.9407, 34.2988], [73.9576, 34.2927], [73.9789, 34.253], [73.9914, 34.2569], [74.0041, 34.2478], [74.0025, 34.2368], [74.0083, 34.22], [73.9989, 34.2032], [74.0046, 34.1961]]]}}, {"type": "Feature", "properties": {"osm_type": "relation", "osm_id": 459727437, "name": "Samba", "admin_level": "6", "kind": "subdivision_2", "parent_osm_id": 1943188, "parent_name": "Jammu and Kashmir", "parent_iso": "IN-JK"}, "geometry": {"type": "Polygon", "coordinates": [[[74.8794, 32.4929], [74.8846, 32.4905], [74.8769, 32.4779], [74.9001, 32.4672], [74.9054, 32.473], [74.9184, 32.4641], [74.9302, 32.4716], [74.9392, 32.4713], [74.9364, 32.4681], [74.9431, 32.4523], [74.95, 32.4467], [74.9627, 32.458], [74.9703, 32.4593], [74.9819, 32.4515], [75.0056, 32.4576], [75.0178, 32.4689], [75.0138, 32.4716], [75.0153, 32.4785], [75.0266, 32.4973], [75.0429, 32.4863], [75.0701, 32.48], [75.0855, 32.4697], [75.0919, 32.4692], [75.0996, 32.478], [75.1064, 32.4755], [75.1111, 32.4675], [75.1089, 32.4603], [75.1134, 32.4582], [75.1256, 32.4736], [75.1269, 32.4917], [75.1327, 32.501], [75.1441, 32.4974], [75.148, 32.5053], [75.1533, 32.5035], [75.1524, 32.5138], [75.1597, 32.5142], [75.161, 32.5221], [75.174, 32.5296], [75.1797, 32.5447], [75.1963, 32.5584], [75.2707, 32.5838], [75.3011, 32.575], [75.3208, 32.5755], [75.3314, 32.5781], [75.3437, 32.5931], [75.3205, 32.6163], [75.2937, 32.6248], [75.2874, 32.6444], [75.2733, 32.6435], [75.2179, 32.6612], [75.1888, 32.66], [75.1592, 32.6725], [75.138, 32.692], [75.1299, 32.6882], [75.1192, 32.696], [75.1222, 32.702], [75.1043, 32.7141], [75.0915, 32.7163], [75.0871, 32.7257], [75.0764, 32.7271], [75.0645, 32.7382], [75.0429, 32.7413], [75.0279, 32.7282], [75.0071, 32.7398], [75.0105, 32.7589], [75.0216, 32.7565], [75.024, 32.7697], [75.005, 32.7872], [74.9965, 32.7888], [74.9838, 32.8053], [74.9738, 32.7976], [74.9759, 32.7915], [74.9602, 32.79], [74.9642, 32.7811], [74.9552, 32.7724], [74.9266, 32.7824], [74.9081, 32.7626], [74.8784, 32.7742], [74.8714, 32.7681], [74.8796, 32.762], [74.8778, 32.7467], [74.8834, 32.7299], [74.9063, 32.7265], [74.9284, 32.7312], [74.9517, 32.7164], [74.962, 32.6996], [74.9474, 32.6765], [74.95, 32.6741], [74.9433, 32.6584], [74.9521, 32.6512], [74.9231, 32.644], [74.9027, 32.6515], [74.8855, 32.6516], [74.8945, 32.6391], [74.8884, 32.6215], [74.8799, 32.6186], [74.8771, 32.6118], [74.8909, 32.6034], [74.9042, 32.6225], [74.9266, 32.6109], [74.9229, 32.6034], [74.9284, 32.5999], [74.9213, 32.594], [74.9355, 32.585], [74.9378, 32.5905], [74.9486, 32.5916], [74.9504, 32.5843], [74.9431, 32.5813], [74.9528, 32.5686], [74.939, 32.559], [74.9263, 32.5622], [74.9274, 32.5571], [74.9351, 32.5548], [74.9239, 32.5443], [74.9011, 32.5506], [74.9007, 32.535], [74.9152, 32.5209], [74.889, 32.518], [74.8876, 32.5026], [74.8794, 32.4929]]]}}, {"type": "Feature", "properties": {"osm_type": "relation", "osm_id": 153884330, "name": "Bandipore", "admin_level": "6", "kind": "subdivision_2", "parent_osm_id": 1943188, "parent_name": "Jammu and Kashmir", "parent_iso": "IN-JK"}, "geometry": {"type": "Polygon", "coordinates": [[[74.5153, 34.7824], [74.5197, 34.6874], [74.5134, 34.6496], [74.5192, 34.5958], [74.5087, 34.5784], [74.5106, 34.558], [74.4916, 34.5292], [74.49, 34.5129], [74.4923, 34.4979], [74.502, 34.481], [74.5017, 34.4642], [74.4891, 34.4498], [74.4651, 34.4404], [74.459, 34.427], [74.4394, 34.423], [74.4469, 34.4092], [74.4436, 34.3943], [74.4355, 34.3902], [74.4176, 34.3987], [74.4128, 34.3961], [74.4176, 34.3851], [74.4308, 34.376], [74.4158, 34.3655], [74.4142, 34.349], [74.4193, 34.3416], [74.4484, 34.3456], [74.4603, 34.3617], [74.4712, 34.3666], [74.4826, 34.3644], [74.5191, 34.3362], [74.5242, 34.3265], [74.5159, 34.2998], [74.5202, 34.2885], [74.5132, 34.2811], [74.5137, 34.2525], [74.5082, 34.2427], [74.5193, 34.2349], [74.5512, 34.2383], [74.5565, 34.2426], [74.5703, 34.2364], [74.5734, 34.2255], [74.5553, 34.2269], [74.5514, 34.2226], [74.5634, 34.2], [74.5602, 34.1852], [74.5446, 34.1745], [74.5721, 34.1712], [74.5855, 34.1727], [74.5878, 34.1822], [74.6085, 34.1803], [74.6082, 34.1684], [74.586, 34.1491], [74.5873, 34.1337], [74.6161, 34.1412], [74.653, 34.1399], [74.6573, 34.1346], [74.6486, 34.1313], [74.6506, 34.1203], [74.6639, 34.1184], [74.6615, 34.122], [74.6745, 34.129], [74.6899, 34.1153], [74.7066, 34.1238], [74.7055, 34.1339], [74.6815, 34.1474], [74.6504, 34.1935], [74.6577, 34.2009], [74.6815, 34.2064], [74.6937, 34.2146], [74.676, 34.2178], [74.6685, 34.2257], [74.667, 34.2428], [74.6716, 34.2496], [74.6636, 34.2547], [74.6783, 34.2869], [74.6593, 34.3067], [74.6567, 34.3217], [74.6703, 34.3117], [74.6998, 34.3147], [74.7204, 34.3018], [74.7424, 34.2771], [74.7585, 34.2784], [74.7829, 34.307], [74.819, 34.3172], [74.8495, 34.3383], [74.8794, 34.3506], [74.8896, 34.3671], [74.8909, 34.3794], [74.8755, 34.3816], [74.8716, 34.4118], [74.8851, 34.429], [74.9147, 34.4428], [74.9432, 34.4214], [74.9931, 34.4175], [75.0, 34.4044], [75.0127, 34.3942], [75.0516, 34.3779], [75.0871, 34.3471], [75.0957, 34.3491], [75.1165, 34.3346], [75.1346, 34.3291], [75.1453, 34.3292], [75.1521, 34.3363], [75.175, 34.3441], [75.1874, 34.3661], [75.2182, 34.3544], [75.239, 34.3593], [75.2663, 34.3466], [75.2967, 34.3492], [75.2939, 34.3629], [75.2972, 34.3659], [75.3237, 34.3677], [75.3533, 34.3832], [75.3494, 34.4029], [75.3129, 34.4222], [75.3079, 34.4345], [75.3306, 34.4553], [75.3165, 34.4763], [75.3226, 34.5046], [75.3387, 34.516], [75.338, 34.5214], [75.3048, 34.5557], [75.2903, 34.5565], [75.2692, 34.5684], [75.2637, 34.5763], [75.2231, 34.5875], [75.2126, 34.606], [75.2109, 34.6208], [75.1666, 34.624], [75.1645, 34.6296], [75.1768, 34.6419], [75.1667, 34.6569], [75.0925, 34.66], [75.075, 34.6509], [75.0369, 34.6432], [75.0272, 34.631], [75.0013, 34.6443], [74.9988, 34.651], [74.9835, 34.6475], [74.9785, 34.6572], [74.9404, 34.6734], [74.8993, 34.6641], [74.8897, 34.666], [74.8773, 34.6805], [74.8602, 34.6844], [74.7453, 34.6814], [74.7278, 34.6921], [74.648, 34.7087], [74.6289, 34.7272], [74.6327, 34.7506], [74.6197, 34.7516], [74.605, 34.7674], [74.5153, 34.7824]]]}}, {"type": "Feature", "properties": {"osm_type": "relation", "osm_id": 418198464, "name": "Kathua", "admin_level": "6", "kind": "subdivision_2", "parent_osm_id": 1943188, "parent_name": "Jammu and Kashmir", "parent_iso": "IN-JK"}, "geometry": {"type": "Polygon", "coordinates": [[[75.805, 32.8934], [75.7587, 32.8961], [75.7417, 32.8876], [75.6992, 32.8852], [75.6875, 32.8713], [75.6949, 32.8155], [75.692, 32.8069], [75.6534, 32.7871], [75.6136, 32.7842], [75.591, 32.7555], [75.5841, 32.7653], [75.5603, 32.7761], [75.5582, 32.7837], [75.5083, 32.7757], [75.4941, 32.7618], [75.4819, 32.7332], [75.4823, 32.7013], [75.4745, 32.691], [75.4796, 32.6886], [75.463, 32.6735], [75.4443, 32.6768], [75.4363, 32.6735], [75.425, 32.6842], [75.3991, 32.6783], [75.3936, 32.6867], [75.3946, 32.6984], [75.3883, 32.7014], [75.3826, 32.6965], [75.3834, 32.688], [75.3748, 32.6781], [75.3783, 32.6737], [75.3745, 32.6692], [75.3635, 32.6647], [75.3622, 32.6708], [75.3539, 32.6669], [75.3393, 32.6686], [75.2874, 32.6444], [75.2937, 32.6248], [75.3205, 32.6163], [75.3379, 32.6018], [75.3437, 32.5931], [75.3381, 32.584], [75.3314, 32.5781], [75.3058, 32.5744], [75.2707, 32.5838], [75.2079, 32.5645], [75.1797, 32.5447], [75.174, 32.5296], [75.161, 32.5221], [75.1597, 32.5142], [75.1524, 32.5138], [75.1533, 32.5035], [75.148, 32.5053], [75.1441, 32.4974], [75.1327, 32.501], [75.1269, 32.4917], [75.1256, 32.4736], [75.1134, 32.4582], [75.1208, 32.4552], [75.1192, 32.4437], [75.1344, 32.4282], [75.1276, 32.4239], [75.1331, 32.4089], [75.1535, 32.421], [75.1916, 32.4262], [75.2007, 32.421], [75.2016, 32.4153], [75.1931, 32.4112], [75.1935, 32.4006], [75.2092, 32.3947], [75.2133, 32.4027], [75.2453, 32.3848], [75.2511, 32.3909], [75.2562, 32.3897], [75.2543, 32.3788], [75.2583, 32.3724], [75.2729, 32.3763], [75.2898, 32.37], [75.287, 32.3611], [75.2893, 32.356], [75.2994, 32.3532], [75.2989, 32.3466], [75.322, 32.3437], [75.3256, 32.3352], [75.3479, 32.345], [75.3947, 32.329], [75.4312, 32.3244], [75.4885, 32.34], [75.484, 32.3175], [75.4961, 32.3103], [75.5064, 32.3101], [75.5062, 32.2878], [75.5151, 32.2751], [75.532, 32.2978], [75.5405, 32.3399], [75.5615, 32.3607], [75.6091, 32.3815], [75.6645, 32.3884], [75.7015, 32.4002], [75.7281, 32.4177], [75.7626, 32.4759], [75.7956, 32.4745], [75.8069, 32.4783], [75.8211, 32.4865], [75.8526, 32.5189], [75.8589, 32.5196], [75.8574, 32.5257], [75.872, 32.5329], [75.8885, 32.5608], [75.8924, 32.5703], [75.8895, 32.5756], [75.9321, 32.6299], [75.9333, 32.6448], [75.9381, 32.6476], [75.9466, 32.6433], [75.9437, 32.6573], [75.9288, 32.6549], [75.9282, 32.6636], [75.9217, 32.6666], [75.9163, 32.6673], [75.9062, 32.6581], [75.901, 32.6603], [75.9124, 32.6825], [75.9091, 32.6904], [75.9126, 32.7119], [75.9315, 32.736], [75.9298, 32.7567], [75.9174, 32.7695], [75.8912, 32.8135], [75.8258, 32.8531], [75.8122, 32.8702], [75.805, 32.8934]]]}}, {"type": "Feature", "properties": {"osm_type": "relation", "osm_id": 497021411, "name": "Kishtwar", "admin_level": "6", "kind": "subdivision_2", "parent_osm_id": 1943188, "parent_name": "Jammu and Kashmir", "parent_iso": "IN-JK"}, "geometry": {"type": "Polygon", "coordinates": [[[76.7485, 33.1781], [76.753, 33.1918], [76.7608, 33.1962], [76.7786, 33.2234], [76.7811, 33.2382], [76.7587, 33.233], [76.7437, 33.2375], [76.7315, 33.2545], [76.7266, 33.274], [76.7291, 33.2796], [76.7184, 33.3047], [76.7098, 33.3081], [76.6994, 33.3037], [76.6866, 33.3052], [76.6688, 33.3139], [76.6676, 33.3257], [76.6558, 33.33], [76.6461, 33.3576], [76.6351, 33.3708], [76.631, 33.3824], [76.6333, 33.3926], [76.6212, 33.4133], [76.6139, 33.4151], [76.6017, 33.4048], [76.574, 33.3978], [76.5735, 33.4185], [76.5664, 33.4395], [76.5451, 33.4378], [76.5149, 33.4705], [76.5043, 33.4709], [76.4994, 33.4894], [76.4887, 33.4896], [76.4752, 33.5002], [76.4595, 33.5022], [76.4532, 33.5109], [76.4587, 33.5246], [76.4431, 33.5388], [76.4252, 33.5136], [76.4086, 33.5107], [76.3761, 33.5266], [76.3691, 33.541], [76.3739, 33.5518], [76.3557, 33.5653], [76.3481, 33.5824], [76.3307, 33.5856], [76.3134, 33.5769], [76.3022, 33.5848], [76.2956, 33.5788], [76.2938, 33.5659], [76.3032, 33.5503], [76.2989, 33.545], [76.255, 33.5372], [76.2324, 33.519], [76.2117, 33.5202], [76.1941, 33.5432], [76.2176, 33.5547], [76.2177, 33.5766], [76.2314, 33.5784], [76.2308, 33.5892], [76.2199, 33.6067], [76.2579, 33.6183], [76.2778, 33.6378], [76.2625, 33.6588], [76.2656, 33.6647], [76.2614, 33.668], [76.2591, 33.6889], [76.265, 33.6968], [76.2636, 33.7316], [76.2387, 33.7448], [76.2059, 33.7511], [76.2037, 33.76], [76.1935, 33.7644], [76.1923, 33.7771], [76.1826, 33.7859], [76.1563, 33.7904], [76.1601, 33.8095], [76.1539, 33.8187], [76.1547, 33.8286], [76.1327, 33.8718], [76.0913, 33.8955], [76.0419, 33.9082], [76.0312, 33.9162], [76.0314, 33.9199], [76.0442, 33.9246], [76.0466, 33.9345], [76.0255, 33.9769], [76.0161, 33.9701], [76.0019, 33.9732], [75.9802, 33.9697], [75.9677, 33.9529], [75.9212, 33.9632], [75.9115, 33.9704], [75.8529, 33.9643], [75.8401, 33.9559], [75.823, 33.9746], [75.8357, 34.0057], [75.8221, 34.0089], [75.7482, 34.05], [75.749, 34.0637], [75.7315, 34.0959], [75.7082, 34.1065], [75.7008, 34.1231], [75.6867, 34.1386], [75.6868, 34.148], [75.7014, 34.1664], [75.703, 34.202], [75.6813, 34.2027], [75.6597, 34.2131], [75.632, 34.1991], [75.6037, 34.1962], [75.5872, 34.1679], [75.5651, 34.1547], [75.5433, 34.1241], [75.5292, 34.0472], [75.494, 34.0326], [75.4758, 34.0357], [75.4627, 34.0299], [75.4549, 34.0325], [75.4466, 34.0139], [75.4483, 33.9892], [75.4178, 33.9586], [75.4031, 33.9296], [75.4063, 33.8951], [75.4263, 33.8711], [75.4432, 33.8264], [75.4673, 33.8018], [75.4749, 33.787], [75.4913, 33.7744], [75.4801, 33.7617], [75.4792, 33.7471], [75.5232, 33.7098], [75.5249, 33.7004], [75.5141, 33.6852], [75.5182, 33.6711], [75.5157, 33.6566], [75.5202, 33.6478], [75.5113, 33.6206], [75.5199, 33.6181], [75.5217, 33.6101], [75.5311, 33.609], [75.5428, 33.5927], [75.5415, 33.5794], [75.5225, 33.5687], [75.5153, 33.5479], [75.5222, 33.5219], [75.4984, 33.5121], [75.4803, 33.4856], [75.4973, 33.4384], [75.489, 33.4164], [75.4884, 33.3978], [75.5268, 33.3855], [75.5491, 33.3621], [75.5581, 33.334], [75.5939, 33.2984], [75.6069, 33.2686], [75.6574, 33.2467], [75.7023, 33.2436], [75.7361, 33.2059], [75.8049, 33.1671], [75.8006, 33.1467], [75.8254, 33.1513], [75.8587, 33.1362], [75.903, 33.1355], [75.9318, 33.1184], [75.9402, 33.1198], [75.9458, 33.1296], [75.952, 33.1313], [75.982, 33.12], [75.9936, 33.1059], [76.0309, 33.1048], [76.0929, 33.123], [76.1024, 33.1283], [76.1104, 33.1409], [76.118, 33.1721], [76.1482, 33.1642], [76.1689, 33.1473], [76.1754, 33.1247], [76.1897, 33.1078], [76.2151, 33.0999], [76.2299, 33.0834], [76.2375, 33.0568], [76.2191, 33.0356], [76.2186, 33.0274], [76.2554, 33.0319], [76.2734, 33.0516], [76.2933, 33.1034], [76.3102, 33.1196], [76.3742, 33.1539], [76.3846, 33.1673], [76.4102, 33.186], [76.4262, 33.1877], [76.4403, 33.181], [76.4876, 33.179], [76.5145, 33.1951], [76.5528, 33.1984], [76.5661, 33.2086], [76.6005, 33.2058], [76.6048, 33.2032], [76.6026, 33.192], [76.6159, 33.1869], [76.6182, 33.1726], [76.6456, 33.1613], [76.6697, 33.1706], [76.7039, 33.1728], [76.7154, 33.1802], [76.7485, 33.1781]]]}}]}