{"type": "FeatureCollection", "parent": {"osm_id": 1944659, "name": "Lima", "admin_level": "4", "kind": "subdivision_1", "child_kind": "subdivision_2", "iso": "PE-LIM"}, "features": [{"type": "Feature", "properties": {"osm_type": "relation", "osm_id": 109584069, "name": "Barranca", "admin_level": "6", "kind": "subdivision_2", "parent_osm_id": 1944659, "parent_name": "Lima", "parent_iso": "PE-LIM"}, "geometry": {"type": "Polygon", "coordinates": [[[-77.6988, -10.3221], [-77.7059, -10.3253], [-77.7524, -10.3218], [-77.7564, -10.3281], [-77.7572, -10.3454], [-77.7518, -10.3614], [-77.7556, -10.384], [-77.7499, -10.4068], [-77.7577, -10.4146], [-77.76, -10.4301], [-77.7679, -10.4288], [-77.7646, -10.4395], [-77.7876, -10.4571], [-77.7918, -10.4722], [-77.7988, -10.4773], [-77.7864, -10.4889], [-77.779, -10.5101], [-77.7707, -10.5157], [-77.7743, -10.554], [-77.7714, -10.5716], [-77.7759, -10.5753], [-77.785, -10.572], [-77.7911, -10.5838], [-77.7997, -10.5853], [-77.8183, -10.5804], [-77.8288, -10.5686], [-77.8397, -10.5679], [-77.8543, -10.576], [-77.8686, -10.5965], [-77.8866, -10.6121], [-77.8493, -10.6625], [-77.8087, -10.7026], [-77.804, -10.7259], [-77.7624, -10.7628], [-77.765, -10.7718], [-77.7541, -10.7772], [-77.744, -10.7945], [-77.7453, -10.8003], [-77.7546, -10.8037], [-77.7483, -10.8122], [-77.7508, -10.8188], [-77.7228, -10.8367], [-77.706, -10.8536], [-77.7034, -10.8606], [-77.7085, -10.8706], [-77.7008, -10.8769], [-77.7015, -10.8861], [-77.6576, -10.8652], [-77.6478, -10.8647], [-77.6387, -10.8729], [-77.5959, -10.8601], [-77.5859, -10.8731], [-77.5614, -10.8784], [-77.5487, -10.8905], [-77.5257, -10.932], [-77.4783, -10.9186], [-77.4443, -10.9161], [-77.4622, -10.8701], [-77.4582, -10.81], [-77.4468, -10.8017], [-77.4388, -10.803], [-77.425, -10.7678], [-77.4025, -10.768], [-77.3945, -10.7557], [-77.3867, -10.7527], [-77.3836, -10.7373], [-77.3736, -10.7302], [-77.3655, -10.7144], [-77.3731, -10.7151], [-77.3857, -10.7078], [-77.4154, -10.73], [-77.4276, -10.7295], [-77.4361, -10.7236], [-77.4859, -10.7451], [-77.495, -10.7461], [-77.5083, -10.7341], [-77.5239, -10.735], [-77.5912, -10.7864], [-77.593, -10.7775], [-77.5852, -10.7642], [-77.5888, -10.7577], [-77.5784, -10.7227], [-77.5631, -10.7094], [-77.5745, -10.6943], [-77.5754, -10.6589], [-77.5906, -10.6456], [-77.583, -10.6389], [-77.5827, -10.6219], [-77.5741, -10.6147], [-77.5743, -10.5884], [-77.5767, -10.5837], [-77.5846, -10.5838], [-77.6049, -10.5901], [-77.6193, -10.6023], [-77.6195, -10.6142], [-77.6382, -10.6029], [-77.6453, -10.5829], [-77.6395, -10.5776], [-77.6382, -10.563], [-77.6146, -10.5464], [-77.6163, -10.5247], [-77.6009, -10.5188], [-77.6013, -10.5093], [-77.6247, -10.502], [-77.6333, -10.5158], [-77.6411, -10.5139], [-77.6514, -10.5301], [-77.662, -10.5323], [-77.6692, -10.5406], [-77.694, -10.5395], [-77.7088, -10.5481], [-77.7101, -10.5602], [-77.7276, -10.5527], [-77.7357, -10.5685], [-77.7467, -10.5531], [-77.743, -10.5462], [-77.745, -10.5339], [-77.7379, -10.5208], [-77.7219, -10.5119], [-77.7206, -10.503], [-77.7106, -10.5038], [-77.7124, -10.4917], [-77.7073, -10.4891], [-77.7014, -10.4688], [-77.6882, -10.4538], [-77.6867, -10.434], [-77.6658, -10.4271], [-77.663, -10.4183], [-77.6528, -10.4162], [-77.6453, -10.4087], [-77.6346, -10.4123], [-77.5976, -10.3804], [-77.5988, -10.3631], [-77.6203, -10.3271], [-77.6317, -10.3222], [-77.6513, -10.3446], [-77.6669, -10.3386], [-77.6785, -10.3272], [-77.6988, -10.3221]]]}}, {"type": "Feature", "properties": {"osm_type": "relation", "osm_id": 455142470, "name": "Cajatambo", "admin_level": "6", "kind": "subdivision_2", "parent_osm_id": 1944659, "parent_name": "Lima", "parent_iso": "PE-LIM"}, "geometry": {"type": "Polygon", "coordinates": [[[-77.176, -10.4831], [-77.1684, -10.4925], [-77.1673, -10.5081], [-77.1708, -10.5173], [-77.1816, -10.5245], [-77.1806, -10.5333], [-77.1911, -10.5523], [-77.2093, -10.5554], [-77.2258, -10.546], [-77.2519, -10.5452], [-77.2673, -10.5505], [-77.2719, -10.5611], [-77.2778, -10.5563], [-77.2917, -10.5563], [-77.3106, -10.5677], [-77.3275, -10.5941], [-77.3423, -10.6004], [-77.3426, -10.611], [-77.3295, -10.618], [-77.3141, -10.6413], [-77.3041, -10.6478], [-77.3002, -10.6597], [-77.2609, -10.6724], [-77.2487, -10.683], [-77.2216, -10.6817], [-77.2153, -10.6772], [-77.1972, -10.6868], [-77.1879, -10.6786], [-77.1778, -10.6775], [-77.1738, -10.6699], [-77.1526, -10.6673], [-77.1378, -10.6469], [-77.126, -10.647], [-77.1173, -10.6627], [-77.1051, -10.6724], [-77.0844, -10.6668], [-77.0665, -10.6791], [-77.0653, -10.6886], [-77.0564, -10.6921], [-77.0476, -10.6793], [-77.0251, -10.6784], [-77.011, -10.696], [-77.0068, -10.6878], [-76.9935, -10.6808], [-76.9736, -10.6822], [-76.9499, -10.698], [-76.9382, -10.6909], [-76.9368, -10.6851], [-76.9242, -10.6836], [-76.9104, -10.668], [-76.8956, -10.6663], [-76.8898, -10.6534], [-76.8784, -10.6556], [-76.8732, -10.635], [-76.8633, -10.6218], [-76.8634, -10.6025], [-76.8595, -10.5972], [-76.865, -10.5845], [-76.8584, -10.5642], [-76.866, -10.5579], [-76.8546, -10.5475], [-76.8601, -10.5089], [-76.8548, -10.5064], [-76.8572, -10.4934], [-76.8498, -10.4796], [-76.8406, -10.4736], [-76.8337, -10.4826], [-76.8228, -10.4831], [-76.829, -10.4301], [-76.7999, -10.4191], [-76.8069, -10.4028], [-76.8047, -10.3951], [-76.8317, -10.3931], [-76.8405, -10.3633], [-76.8564, -10.3773], [-76.8659, -10.3748], [-76.863, -10.3662], [-76.8755, -10.3453], [-76.8691, -10.3378], [-76.8747, -10.3209], [-76.8814, -10.3085], [-76.8945, -10.3043], [-76.891, -10.2947], [-76.9062, -10.2742], [-76.936, -10.2785], [-76.9429, -10.2875], [-76.9623, -10.2972], [-76.9655, -10.3054], [-76.9982, -10.2914], [-77.0023, -10.2819], [-77.0077, -10.2865], [-77.0091, -10.3078], [-77.0247, -10.3275], [-77.0454, -10.3338], [-77.0474, -10.3388], [-77.0646, -10.3345], [-77.0716, -10.3381], [-77.0808, -10.3577], [-77.0896, -10.3611], [-77.0902, -10.3726], [-77.1109, -10.3921], [-77.1121, -10.4048], [-77.1382, -10.4265], [-77.15, -10.4511], [-77.1746, -10.4646], [-77.176, -10.4831]]]}}, {"type": "Feature", "properties": {"osm_type": "relation", "osm_id": 355591063, "name": "Callao", "admin_level": "6", "kind": "subdivision_2", "parent_osm_id": 1944659, "parent_name": "Lima", "parent_iso": "PE-LIM"}, "geometry": {"type": "Polygon", "coordinates": [[[-77.1115, -12.0795], [-77.1049, -12.072], [-77.1046, -12.0634], [-77.0873, -12.0615], [-77.0876, -12.0519], [-77.0769, -12.0475], [-77.0826, -12.045], [-77.0829, -12.0364], [-77.0935, -12.0384], [-77.0962, -12.0337], [-77.0891, -12.0122], [-77.1033, -11.9978], [-77.1179, -11.9943], [-77.1107, -11.9754], [-77.1177, -11.9705], [-77.1175, -11.957], [-77.1285, -11.9393], [-77.1207, -11.9451], [-77.0952, -11.9497], [-77.1041, -11.9356], [-77.0893, -11.8992], [-77.0946, -11.8749], [-77.1072, -11.8665], [-77.1062, -11.8565], [-77.1162, -11.8486], [-77.113, -11.8476], [-77.1148, -11.8348], [-77.1268, -11.8185], [-77.1474, -11.8192], [-77.1641, -11.8271], [-77.1849, -11.8257], [-77.1865, -11.8401], [-77.1812, -11.8454], [-77.1745, -11.8444], [-77.1674, -11.8534], [-77.1454, -11.9057], [-77.1327, -11.9735], [-77.1422, -12.0221], [-77.1387, -12.0193], [-77.1563, -12.0469], [-77.143, -12.0374], [-77.1436, -12.0405], [-77.1388, -12.0391], [-77.1408, -12.0456], [-77.1463, -12.0441], [-77.1444, -12.0523], [-77.1487, -12.0574], [-77.1473, -12.0529], [-77.1503, -12.056], [-77.1563, -12.0485], [-77.1486, -12.0586], [-77.1707, -12.0731], [-77.1592, -12.0743], [-77.1562, -12.0675], [-77.1509, -12.0671], [-77.1115, -12.0795]]]}}, {"type": "Feature", "properties": {"osm_type": "relation", "osm_id": 693006515, "name": "Cañete", "admin_level": "6", "kind": "subdivision_2", "parent_osm_id": 1944659, "parent_name": "Lima", "parent_iso": "PE-LIM"}, "geometry": {"type": "Polygon", "coordinates": [[[-76.346, -12.3377], [-76.3726, -12.3349], [-76.3777, -12.321], [-76.3879, -12.318], [-76.3994, -12.3407], [-76.4197, -12.3622], [-76.4224, -12.3736], [-76.4528, -12.4043], [-76.4671, -12.4015], [-76.476, -12.4097], [-76.4833, -12.4098], [-76.5012, -12.4006], [-76.5086, -12.3884], [-76.5161, -12.386], [-76.5274, -12.3644], [-76.5261, -12.3501], [-76.5377, -12.3394], [-76.5318, -12.3162], [-76.5573, -12.2757], [-76.5786, -12.286], [-76.5895, -12.2997], [-76.5888, -12.3095], [-76.5958, -12.3149], [-76.5934, -12.3364], [-76.6074, -12.3529], [-76.604, -12.3611], [-76.6071, -12.3691], [-76.6167, -12.3728], [-76.6361, -12.3599], [-76.6644, -12.3577], [-76.6834, -12.3821], [-76.6998, -12.383], [-76.7219, -12.3962], [-76.7555, -12.3982], [-76.7529, -12.4315], [-76.7573, -12.4442], [-76.7517, -12.4627], [-76.7576, -12.4767], [-76.7684, -12.4824], [-76.7729, -12.495], [-76.7909, -12.5062], [-76.7842, -12.5199], [-76.7342, -12.5484], [-76.7353, -12.556], [-76.7055, -12.5801], [-76.7047, -12.5963], [-76.6883, -12.6081], [-76.6724, -12.6278], [-76.6684, -12.6465], [-76.6743, -12.6516], [-76.67, -12.6576], [-76.6725, -12.6607], [-76.6593, -12.6764], [-76.6605, -12.6829], [-76.6541, -12.6862], [-76.6564, -12.6991], [-76.6426, -12.706], [-76.6301, -12.721], [-76.6379, -12.7452], [-76.6185, -12.7594], [-76.6092, -12.7777], [-76.5678, -12.803], [-76.5603, -12.8109], [-76.5593, -12.8216], [-76.5379, -12.8331], [-76.5195, -12.8505], [-76.5154, -12.8615], [-76.5184, -12.8728], [-76.5096, -12.9015], [-76.5131, -12.9054], [-76.509, -12.9071], [-76.5058, -12.9258], [-76.5066, -12.9473], [-76.5165, -12.9554], [-76.506, -12.971], [-76.5073, -12.9799], [-76.4829, -13.0159], [-76.4823, -13.0256], [-76.4898, -13.0318], [-76.3931, -13.1373], [-76.3911, -13.1462], [-76.3618, -13.1766], [-76.3547, -13.1922], [-76.2448, -13.3235], [-76.2029, -13.3017], [-76.1861, -13.2598], [-76.1627, -13.2261], [-76.1553, -13.1922], [-76.1397, -13.1802], [-76.1267, -13.1767], [-76.0724, -13.1283], [-76.0261, -13.0978], [-75.9692, -13.0416], [-75.9608, -13.0204], [-75.9574, -12.9699], [-75.9734, -12.9393], [-75.9727, -12.924], [-76.0039, -12.9224], [-75.993, -12.896], [-76.0085, -12.853], [-76.0008, -12.8399], [-75.99, -12.843], [-75.9799, -12.8388], [-75.9594, -12.849], [-75.9411, -12.8195], [-75.9413, -12.8072], [-75.9434, -12.801], [-75.9704, -12.7851], [-75.9839, -12.7823], [-75.9883, -12.7675], [-75.9955, -12.7569], [-76.0, -12.7569], [-76.0058, -12.7734], [-76.0216, -12.7894], [-76.0452, -12.782], [-76.0608, -12.7928], [-76.0727, -12.7924], [-76.0769, -12.7864], [-76.0987, -12.8016], [-76.1066, -12.801], [-76.1232, -12.7868], [-76.1395, -12.7916], [-76.1444, -12.8204], [-76.1549, -12.825], [-76.1539, -12.8378], [-76.1614, -12.8378], [-76.1652, -12.85], [-76.1773, -12.8544], [-76.1994, -12.8135], [-76.2337, -12.7913], [-76.2413, -12.7908], [-76.2472, -12.7555], [-76.257, -12.7506], [-76.2825, -12.7525], [-76.2895, -12.7453], [-76.2996, -12.7153], [-76.2846, -12.6833], [-76.2881, -12.6545], [-76.275, -12.6513], [-76.2704, -12.6448], [-76.2517, -12.5916], [-76.2681, -12.5836], [-76.288, -12.5871], [-76.3047, -12.552], [-76.3164, -12.548], [-76.3232, -12.5283], [-76.3328, -12.5358], [-76.3429, -12.5312], [-76.3675, -12.5326], [-76.3521, -12.52], [-76.3401, -12.4945], [-76.3365, -12.482], [-76.3393, -12.4676], [-76.3316, -12.4424], [-76.3219, -12.4438], [-76.3135, -12.4306], [-76.3185, -12.4196], [-76.3333, -12.4161], [-76.3364, -12.3999], [-76.3454, -12.388], [-76.346, -12.3377]]]}}, {"type": "Feature", "properties": {"osm_type": "relation", "osm_id": 537056322, "name": "Canta", "admin_level": "6", "kind": "subdivision_2", "parent_osm_id": 1944659, "parent_name": "Lima", "parent_iso": "PE-LIM"}, "geometry": {"type": "Polygon", "coordinates": [[[-76.457, -11.3344], [-76.4835, -11.3444], [-76.5088, -11.3282], [-76.5328, -11.3335], [-76.5446, -11.3165], [-76.5681, -11.3189], [-76.5798, -11.3125], [-76.5982, -11.3266], [-76.5986, -11.3431], [-76.603, -11.3485], [-76.631, -11.3537], [-76.6405, -11.3441], [-76.6529, -11.3481], [-76.668, -11.346], [-76.6674, -11.3893], [-76.6782, -11.3964], [-76.6946, -11.4293], [-76.706, -11.4237], [-76.7234, -11.4348], [-76.7396, -11.4264], [-76.7565, -11.4279], [-76.7716, -11.4203], [-76.8057, -11.4334], [-76.813, -11.4443], [-76.8561, -11.4678], [-76.8937, -11.4615], [-76.8965, -11.4802], [-76.8923, -11.4922], [-76.8824, -11.4918], [-76.8762, -11.4992], [-76.8621, -11.5021], [-76.8603, -11.5124], [-76.8747, -11.5378], [-76.896, -11.5351], [-76.9238, -11.5586], [-76.9376, -11.5502], [-76.9462, -11.5786], [-76.9531, -11.5841], [-76.9648, -11.585], [-76.9808, -11.5972], [-77.0013, -11.599], [-77.0162, -11.6332], [-77.0352, -11.6518], [-77.0246, -11.6766], [-77.0244, -11.6917], [-77.0325, -11.7087], [-77.0443, -11.7147], [-77.0325, -11.7408], [-77.0167, -11.7496], [-76.9968, -11.7524], [-76.9845, -11.7461], [-76.9737, -11.748], [-76.9736, -11.7361], [-76.9607, -11.7341], [-76.9507, -11.7474], [-76.9333, -11.7564], [-76.9156, -11.7452], [-76.9145, -11.7322], [-76.9027, -11.7288], [-76.886, -11.7351], [-76.8808, -11.7322], [-76.8759, -11.7431], [-76.8677, -11.7475], [-76.8338, -11.7438], [-76.8049, -11.7559], [-76.7959, -11.7526], [-76.752, -11.7306], [-76.7497, -11.712], [-76.7389, -11.6973], [-76.7074, -11.6913], [-76.6907, -11.6725], [-76.6794, -11.671], [-76.6641, -11.6581], [-76.6454, -11.6601], [-76.6326, -11.6536], [-76.6125, -11.653], [-76.6025, -11.6385], [-76.5737, -11.6316], [-76.5753, -11.6211], [-76.5581, -11.6116], [-76.5596, -11.5943], [-76.5542, -11.5814], [-76.5364, -11.5611], [-76.5455, -11.5357], [-76.5446, -11.5191], [-76.5294, -11.5117], [-76.5258, -11.4958], [-76.5118, -11.4879], [-76.4972, -11.4593], [-76.4862, -11.458], [-76.4753, -11.4671], [-76.4693, -11.4607], [-76.4549, -11.4627], [-76.4369, -11.4873], [-76.4141, -11.4924], [-76.4122, -11.4996], [-76.4006, -11.5072], [-76.3916, -11.4992], [-76.3768, -11.5015], [-76.381, -11.486], [-76.3715, -11.4765], [-76.3774, -11.4442], [-76.3943, -11.445], [-76.4116, -11.4159], [-76.4014, -11.4029], [-76.4201, -11.3751], [-76.4227, -11.3549], [-76.4304, -11.3459], [-76.4483, -11.3459], [-76.457, -11.3344]]]}}, {"type": "Feature", "properties": {"osm_type": "relation", "osm_id": 196758736, "name": "Huaral", "admin_level": "6", "kind": "subdivision_2", "parent_osm_id": 1944659, "parent_name": "Lima", "parent_iso": "PE-LIM"}, "geometry": {"type": "Polygon", "coordinates": [[[-76.457, -11.3344], [-76.4645, -11.3205], [-76.4633, -11.3125], [-76.4786, -11.2913], [-76.4634, -11.2707], [-76.4569, -11.2725], [-76.4635, -11.2652], [-76.4771, -11.2639], [-76.4907, -11.2466], [-76.4832, -11.2369], [-76.4942, -11.2097], [-76.4921, -11.1893], [-76.5056, -11.1737], [-76.5052, -11.1438], [-76.5192, -11.1181], [-76.4957, -11.1096], [-76.4912, -11.0894], [-76.5147, -11.0687], [-76.533, -11.0341], [-76.564, -11.0229], [-76.5693, -11.0135], [-76.6006, -11.0194], [-76.6186, -11.0291], [-76.6293, -11.0243], [-76.6336, -11.0383], [-76.6566, -11.0334], [-76.6714, -11.054], [-76.6837, -11.0465], [-76.6925, -11.0517], [-76.6994, -11.0497], [-76.7049, -11.0554], [-76.7201, -11.0522], [-76.7225, -11.0578], [-76.7407, -11.0658], [-76.7416, -11.0374], [-76.7541, -11.04], [-76.7656, -11.0351], [-76.7755, -11.0449], [-76.7824, -11.0457], [-76.7933, -11.0764], [-76.8123, -11.0871], [-76.8148, -11.0987], [-76.8258, -11.1037], [-76.8351, -11.1037], [-76.8404, -11.0945], [-76.8753, -11.0832], [-76.9076, -11.0876], [-76.9427, -11.0782], [-76.961, -11.0928], [-76.9886, -11.1036], [-77.0199, -11.1353], [-77.0307, -11.1325], [-77.0464, -11.1384], [-77.0567, -11.1173], [-77.0504, -11.1069], [-77.052, -11.0958], [-77.0764, -11.0916], [-77.079, -11.1278], [-77.0879, -11.1505], [-77.0831, -11.1661], [-77.0858, -11.1806], [-77.0839, -11.1854], [-77.06, -11.1951], [-77.0645, -11.2075], [-77.058, -11.2172], [-77.057, -11.2305], [-77.076, -11.2749], [-77.0914, -11.2832], [-77.1109, -11.2824], [-77.1313, -11.2982], [-77.1451, -11.3418], [-77.1593, -11.3445], [-77.1645, -11.3662], [-77.1893, -11.3628], [-77.205, -11.343], [-77.2248, -11.342], [-77.2307, -11.3153], [-77.2438, -11.3026], [-77.2642, -11.2975], [-77.2861, -11.2743], [-77.2902, -11.2776], [-77.3035, -11.2741], [-77.3328, -11.3431], [-77.32, -11.3653], [-77.324, -11.3855], [-77.3343, -11.3985], [-77.3546, -11.4029], [-77.37, -11.4147], [-77.3827, -11.4472], [-77.3429, -11.4742], [-77.3423, -11.487], [-77.3048, -11.5122], [-77.2956, -11.5281], [-77.296, -11.5372], [-77.2836, -11.5481], [-77.271, -11.5721], [-77.2705, -11.5843], [-77.2821, -11.5874], [-77.2078, -11.6481], [-77.207, -11.6574], [-77.1922, -11.6808], [-77.1925, -11.6909], [-77.1992, -11.6936], [-77.1963, -11.698], [-77.1821, -11.6859], [-77.1608, -11.7016], [-77.1545, -11.7017], [-77.1583, -11.6817], [-77.1522, -11.6706], [-77.1331, -11.6577], [-77.1221, -11.6574], [-77.131, -11.6478], [-77.1312, -11.6399], [-77.137, -11.6375], [-77.1347, -11.6266], [-77.1163, -11.6304], [-77.1074, -11.6268], [-77.1062, -11.6197], [-77.0853, -11.6042], [-77.0777, -11.577], [-77.0683, -11.5727], [-77.0634, -11.5774], [-77.0458, -11.5787], [-77.0048, -11.6143], [-77.0013, -11.599], [-76.9808, -11.5972], [-76.969, -11.5871], [-76.9462, -11.5786], [-76.9376, -11.5502], [-76.9238, -11.5586], [-76.896, -11.5351], [-76.8747, -11.5378], [-76.8595, -11.5041], [-76.8762, -11.4992], [-76.8824, -11.4918], [-76.8923, -11.4922], [-76.8965, -11.4802], [-76.8937, -11.4615], [-76.8561, -11.4678], [-76.813, -11.4443], [-76.8057, -11.4334], [-76.7716, -11.4203], [-76.7565, -11.4279], [-76.7396, -11.4264], [-76.7234, -11.4348], [-76.706, -11.4237], [-76.6946, -11.4293], [-76.6782, -11.3964], [-76.6674, -11.3893], [-76.668, -11.346], [-76.6529, -11.3481], [-76.6405, -11.3441], [-76.631, -11.3537], [-76.603, -11.3485], [-76.5986, -11.3431], [-76.5982, -11.3266], [-76.5798, -11.3125], [-76.5681, -11.3189], [-76.5446, -11.3165], [-76.5328, -11.3335], [-76.5088, -11.3282], [-76.4835, -11.3444], [-76.457, -11.3344]]]}}, {"type": "Feature", "properties": {"osm_type": "relation", "osm_id": 831908778, "name": "Huarochiri", "admin_level": "6", "kind": "subdivision_2", "parent_osm_id": 1944659, "parent_name": "Lima", "parent_iso": "PE-LIM"}, "geometry": {"type": "Polygon", "coordinates": [[[-76.346, -12.3377], [-76.3286, -12.3129], [-76.3228, -12.2901], [-76.3032, -12.2731], [-76.3005, -12.2574], [-76.2912, -12.2686], [-76.291, -12.2803], [-76.2724, -12.3021], [-76.2503, -12.2997], [-76.2205, -12.2755], [-76.2155, -12.2628], [-76.1712, -12.2593], [-76.1532, -12.2401], [-76.1127, -12.2257], [-76.0993, -12.2074], [-76.0899, -12.2056], [-76.0818, -12.2118], [-76.0695, -12.2074], [-76.0684, -12.186], [-76.0765, -12.1818], [-76.0862, -12.1604], [-76.0568, -12.1327], [-76.0725, -12.1089], [-76.0614, -12.0885], [-76.0563, -12.091], [-76.0442, -12.0845], [-76.0339, -12.07], [-76.0203, -12.064], [-76.0097, -12.0237], [-75.9976, -12.0179], [-76.001, -11.9982], [-75.9932, -11.9947], [-76.0013, -11.9849], [-76.0139, -11.9846], [-76.0526, -11.9482], [-76.0582, -11.9128], [-76.0503, -11.9096], [-76.0514, -11.8918], [-76.0582, -11.88], [-76.0944, -11.8485], [-76.1252, -11.7955], [-76.135, -11.7907], [-76.1373, -11.7805], [-76.1434, -11.7765], [-76.1499, -11.7837], [-76.1544, -11.7814], [-76.1729, -11.7626], [-76.1754, -11.7504], [-76.1875, -11.7383], [-76.1982, -11.7378], [-76.2075, -11.6998], [-76.2027, -11.6928], [-76.1967, -11.6926], [-76.1933, -11.6735], [-76.2019, -11.6681], [-76.2049, -11.6595], [-76.1883, -11.6424], [-76.1989, -11.6259], [-76.1796, -11.6129], [-76.187, -11.6043], [-76.1894, -11.5904], [-76.1994, -11.5884], [-76.2055, -11.5744], [-76.2173, -11.5715], [-76.217, -11.566], [-76.2287, -11.5538], [-76.2374, -11.569], [-76.2647, -11.5672], [-76.2731, -11.582], [-76.2868, -11.5912], [-76.2929, -11.5888], [-76.2977, -11.5962], [-76.3044, -11.5675], [-76.3175, -11.5627], [-76.3279, -11.5443], [-76.35, -11.5423], [-76.3506, -11.5204], [-76.3594, -11.5229], [-76.3734, -11.5023], [-76.3916, -11.4992], [-76.4006, -11.5072], [-76.4122, -11.4996], [-76.4141, -11.4924], [-76.4369, -11.4873], [-76.4549, -11.4627], [-76.4693, -11.4607], [-76.4753, -11.4671], [-76.4862, -11.458], [-76.4929, -11.4578], [-76.5027, -11.4662], [-76.504, -11.4776], [-76.5118, -11.4879], [-76.5258, -11.4958], [-76.5294, -11.5117], [-76.5446, -11.5191], [-76.5455, -11.5357], [-76.5364, -11.5611], [-76.5542, -11.5814], [-76.5596, -11.5943], [-76.5581, -11.6116], [-76.5753, -11.6211], [-76.5737, -11.6316], [-76.6025, -11.6385], [-76.6125, -11.653], [-76.6326, -11.6536], [-76.6454, -11.6601], [-76.6641, -11.6581], [-76.6794, -11.671], [-76.6907, -11.6725], [-76.7074, -11.6913], [-76.7389, -11.6973], [-76.7497, -11.712], [-76.752, -11.7306], [-76.8049, -11.7559], [-76.8255, -11.7773], [-76.8433, -11.7857], [-76.8512, -11.7981], [-76.9058, -11.7954], [-76.9038, -11.8237], [-76.9164, -11.8314], [-76.9356, -11.8337], [-76.9342, -11.8447], [-76.9423, -11.8609], [-76.9368, -11.8692], [-76.9274, -11.8704], [-76.9118, -11.8649], [-76.8949, -11.8657], [-76.8974, -11.8807], [-76.9121, -11.8893], [-76.918, -11.9065], [-76.915, -11.9271], [-76.9275, -11.9341], [-76.9314, -11.9422], [-76.9235, -11.9473], [-76.9183, -11.96], [-76.9104, -11.9546], [-76.8937, -11.9562], [-76.8784, -11.9509], [-76.8503, -11.9352], [-76.8293, -11.945], [-76.8182, -11.9277], [-76.7917, -11.9276], [-76.7496, -11.8953], [-76.7389, -11.8933], [-76.7267, -11.8745], [-76.7178, -11.8876], [-76.6941, -11.8966], [-76.6808, -11.9154], [-76.6694, -11.9212], [-76.6707, -11.931], [-76.6473, -11.9523], [-76.6483, -11.9674], [-76.6614, -11.9791], [-76.6735, -11.9802], [-76.6843, -11.9894], [-76.7, -11.9859], [-76.7177, -11.9931], [-76.7223, -11.9996], [-76.7105, -12.0153], [-76.7066, -12.0324], [-76.7007, -12.0322], [-76.6781, -12.053], [-76.6734, -12.0728], [-76.6841, -12.0859], [-76.7052, -12.0863], [-76.7166, -12.0993], [-76.7133, -12.1089], [-76.71, -12.1135], [-76.6981, -12.1149], [-76.6793, -12.131], [-76.6916, -12.1414], [-76.6879, -12.1518], [-76.6717, -12.1724], [-76.6603, -12.1735], [-76.662, -12.178], [-76.6477, -12.2097], [-76.6211, -12.2269], [-76.621, -12.2382], [-76.6355, -12.2771], [-76.6504, -12.2848], [-76.6542, -12.3051], [-76.674, -12.3195], [-76.6817, -12.3543], [-76.6735, -12.3599], [-76.6508, -12.3562], [-76.6361, -12.3599], [-76.6167, -12.3728], [-76.6071, -12.3691], [-76.604, -12.3611], [-76.6074, -12.3529], [-76.5934, -12.3364], [-76.5958, -12.3149], [-76.5888, -12.3095], [-76.5895, -12.2997], [-76.5786, -12.286], [-76.5573, -12.2757], [-76.5318, -12.3162], [-76.5377, -12.3394], [-76.5261, -12.3501], [-76.5274, -12.3644], [-76.5161, -12.386], [-76.5086, -12.3884], [-76.5012, -12.4006], [-76.4833, -12.4098], [-76.476, -12.4097], [-76.4671, -12.4015], [-76.4528, -12.4043], [-76.4224, -12.3736], [-76.4197, -12.3622], [-76.3994, -12.3407], [-76.3879, -12.318], [-76.3777, -12.321], [-76.3726, -12.3349], [-76.346, -12.3377]]]}}, {"type": "Feature", "properties": {"osm_type": "relation", "osm_id": 808089097, "name": "Huaura", "admin_level": "6", "kind": "subdivision_2", "parent_osm_id": 1944659, "parent_name": "Lima", "parent_iso": "PE-LIM"}, "geometry": {"type": "Polygon", "coordinates": [[[-77.7015, -10.8861], [-77.676, -10.914], [-77.6578, -10.9465], [-77.6584, -10.9541], [-77.6646, -10.959], [-77.6506, -10.9822], [-77.6468, -10.9982], [-77.6619, -11.0135], [-77.6414, -11.0376], [-77.6334, -11.0545], [-77.6374, -11.0713], [-77.6281, -11.0893], [-77.6339, -11.0936], [-77.6131, -11.1122], [-77.6127, -11.1213], [-77.6201, -11.1269], [-77.6032, -11.1489], [-77.5928, -11.1778], [-77.5944, -11.2002], [-77.6017, -11.214], [-77.6111, -11.2124], [-77.6255, -11.2178], [-77.631, -11.2118], [-77.6417, -11.2145], [-77.6471, -11.2217], [-77.6438, -11.2352], [-77.6499, -11.2446], [-77.6401, -11.2756], [-77.6433, -11.2905], [-77.6542, -11.2912], [-77.6459, -11.2964], [-77.6483, -11.3027], [-77.4981, -11.3772], [-77.3827, -11.4472], [-77.37, -11.4147], [-77.3546, -11.4029], [-77.3343, -11.3985], [-77.324, -11.3855], [-77.32, -11.3653], [-77.3328, -11.3431], [-77.3035, -11.2741], [-77.2902, -11.2776], [-77.2861, -11.2743], [-77.2642, -11.2975], [-77.2438, -11.3026], [-77.2307, -11.3153], [-77.2248, -11.342], [-77.205, -11.343], [-77.1893, -11.3628], [-77.1645, -11.3662], [-77.1593, -11.3445], [-77.1451, -11.3418], [-77.1313, -11.2982], [-77.1109, -11.2824], [-77.0914, -11.2832], [-77.076, -11.2749], [-77.057, -11.2305], [-77.058, -11.2172], [-77.0645, -11.2075], [-77.06, -11.1951], [-77.0839, -11.1854], [-77.0858, -11.1806], [-77.0831, -11.1661], [-77.0879, -11.1505], [-77.079, -11.1278], [-77.0764, -11.0916], [-77.052, -11.0958], [-77.0504, -11.1069], [-77.0567, -11.1173], [-77.0464, -11.1384], [-77.0307, -11.1325], [-77.0199, -11.1353], [-76.9886, -11.1036], [-76.961, -11.0928], [-76.9427, -11.0782], [-76.9076, -11.0876], [-76.8753, -11.0832], [-76.8404, -11.0945], [-76.8351, -11.1037], [-76.8258, -11.1037], [-76.8148, -11.0987], [-76.8123, -11.0871], [-76.7933, -11.0764], [-76.7824, -11.0457], [-76.7755, -11.0449], [-76.7656, -11.0351], [-76.7541, -11.04], [-76.7416, -11.0374], [-76.7407, -11.0658], [-76.7345, -11.0655], [-76.7201, -11.0522], [-76.7049, -11.0554], [-76.6994, -11.0497], [-76.6925, -11.0517], [-76.6837, -11.0465], [-76.6714, -11.054], [-76.6566, -11.0334], [-76.6336, -11.0383], [-76.6293, -11.0243], [-76.6186, -11.0291], [-76.6006, -11.0194], [-76.5769, -11.0165], [-76.5816, -10.985], [-76.5651, -10.9662], [-76.5717, -10.9178], [-76.5786, -10.9019], [-76.5806, -10.8669], [-76.5882, -10.8451], [-76.6061, -10.8519], [-76.6154, -10.8652], [-76.6542, -10.882], [-76.6725, -10.8848], [-76.6976, -10.8804], [-76.7324, -10.9124], [-76.7439, -10.9353], [-76.7725, -10.9335], [-76.7807, -10.926], [-76.7909, -10.9246], [-76.8481, -10.873], [-76.8764, -10.8597], [-76.8898, -10.8438], [-76.9021, -10.8455], [-76.9151, -10.8598], [-76.9242, -10.8525], [-76.97, -10.8652], [-76.9753, -10.8842], [-76.9807, -10.8861], [-76.9926, -10.9097], [-77.0103, -10.9143], [-77.0273, -10.9323], [-77.0306, -10.9446], [-77.0472, -10.9606], [-77.0515, -10.9758], [-77.0663, -10.9982], [-77.0748, -11.0022], [-77.0794, -11.0144], [-77.0843, -11.016], [-77.1, -11.0027], [-77.1184, -10.998], [-77.1246, -11.0084], [-77.1388, -11.0112], [-77.1622, -10.9906], [-77.1706, -10.9911], [-77.1804, -10.9612], [-77.1957, -10.9549], [-77.1942, -10.93], [-77.168, -10.9185], [-77.1629, -10.9018], [-77.1649, -10.8727], [-77.156, -10.855], [-77.1735, -10.8086], [-77.188, -10.8029], [-77.1776, -10.7791], [-77.1669, -10.777], [-77.1614, -10.7659], [-77.1212, -10.7506], [-77.0963, -10.7482], [-77.0861, -10.7535], [-77.0807, -10.7439], [-77.0618, -10.744], [-77.0402, -10.7365], [-77.0238, -10.7134], [-77.0234, -10.7062], [-77.0138, -10.7072], [-77.008, -10.7003], [-77.0251, -10.6784], [-77.0476, -10.6793], [-77.0564, -10.6921], [-77.0653, -10.6886], [-77.0665, -10.6791], [-77.0844, -10.6668], [-77.1051, -10.6724], [-77.1173, -10.6627], [-77.126, -10.647], [-77.1378, -10.6469], [-77.1526, -10.6673], [-77.1738, -10.6699], [-77.1778, -10.6775], [-77.1879, -10.6786], [-77.1972, -10.6868], [-77.2153, -10.6772], [-77.2216, -10.6817], [-77.2487, -10.683], [-77.2609, -10.6724], [-77.3002, -10.6597], [-77.3041, -10.6478], [-77.3141, -10.6413], [-77.3295, -10.618], [-77.3469, -10.6064], [-77.3673, -10.6383], [-77.3801, -10.6394], [-77.4023, -10.6776], [-77.4038, -10.691], [-77.3956, -10.7012], [-77.3731, -10.7151], [-77.3655, -10.7144], [-77.3665, -10.7208], [-77.3836, -10.7373], [-77.3867, -10.7527], [-77.3945, -10.7557], [-77.4025, -10.768], [-77.425, -10.7678], [-77.4388, -10.803], [-77.4468, -10.8017], [-77.4582, -10.81], [-77.4622, -10.8701], [-77.4443, -10.9161], [-77.4783, -10.9186], [-77.5257, -10.932], [-77.5487, -10.8905], [-77.5614, -10.8784], [-77.5859, -10.8731], [-77.5959, -10.8601], [-77.6387, -10.8729], [-77.6478, -10.8647], [-77.6576, -10.8652], [-77.7015, -10.8861]]]}}, {"type": "Feature", "properties": {"osm_type": "relation", "osm_id": 714106513, "name": "Lima", "admin_level": "6", "kind": "subdivision_2", "parent_osm_id": 1944659, "parent_name": "Lima", "parent_iso": "PE-LIM"}, "geometry": {"type": "Polygon", "coordinates": [[[-77.1115, -12.0795], [-77.0651, -12.1029], [-77.0299, -12.1357], [-77.0249, -12.1535], [-77.0279, -12.1655], [-77.0384, -12.1684], [-77.0335, -12.1763], [-77.0396, -12.1821], [-77.0398, -12.1931], [-77.0341, -12.2005], [-77.0378, -12.2056], [-76.9444, -12.2453], [-76.8911, -12.2835], [-76.8553, -12.3002], [-76.8366, -12.3162], [-76.8377, -12.3243], [-76.825, -12.34], [-76.827, -12.3429], [-76.8193, -12.3394], [-76.8172, -12.3523], [-76.7994, -12.3623], [-76.7896, -12.3857], [-76.7838, -12.3855], [-76.7844, -12.3909], [-76.7774, -12.3936], [-76.7834, -12.3981], [-76.7757, -12.4045], [-76.7816, -12.4149], [-76.7754, -12.4393], [-76.7851, -12.4434], [-76.7831, -12.4535], [-76.7884, -12.4561], [-76.7909, -12.4776], [-76.803, -12.4799], [-76.798, -12.4894], [-76.8056, -12.4956], [-76.7987, -12.4996], [-76.8037, -12.509], [-76.7993, -12.508], [-76.7842, -12.5199], [-76.7908, -12.5031], [-76.7729, -12.495], [-76.7684, -12.4824], [-76.7576, -12.4767], [-76.7517, -12.4627], [-76.7573, -12.4442], [-76.7529, -12.4315], [-76.7555, -12.3982], [-76.7219, -12.3962], [-76.6998, -12.383], [-76.6834, -12.3821], [-76.6753, -12.3762], [-76.668, -12.3602], [-76.6817, -12.3543], [-76.6816, -12.3469], [-76.674, -12.3195], [-76.6542, -12.3051], [-76.6504, -12.2848], [-76.6368, -12.2794], [-76.621, -12.2382], [-76.6211, -12.2269], [-76.6477, -12.2097], [-76.662, -12.178], [-76.6603, -12.1735], [-76.6717, -12.1724], [-76.6879, -12.1518], [-76.6916, -12.1414], [-76.6793, -12.131], [-76.6981, -12.1149], [-76.71, -12.1135], [-76.7166, -12.0993], [-76.7052, -12.0863], [-76.6841, -12.0859], [-76.6734, -12.0728], [-76.6781, -12.053], [-76.7007, -12.0322], [-76.7066, -12.0324], [-76.7105, -12.0153], [-76.7223, -11.9996], [-76.7177, -11.9931], [-76.7, -11.9859], [-76.681, -11.9881], [-76.6483, -11.9674], [-76.6473, -11.9523], [-76.6707, -11.931], [-76.6694, -11.9212], [-76.6808, -11.9154], [-76.6941, -11.8966], [-76.7178, -11.8876], [-76.7267, -11.8745], [-76.7389, -11.8933], [-76.7496, -11.8953], [-76.7917, -11.9276], [-76.8182, -11.9277], [-76.8293, -11.945], [-76.8503, -11.9352], [-76.8784, -11.9509], [-76.8937, -11.9562], [-76.9104, -11.9546], [-76.9183, -11.96], [-76.9235, -11.9473], [-76.9314, -11.9422], [-76.9275, -11.9341], [-76.915, -11.9271], [-76.918, -11.9065], [-76.9121, -11.8893], [-76.8974, -11.8807], [-76.8949, -11.8657], [-76.9368, -11.8692], [-76.9423, -11.8609], [-76.9342, -11.8447], [-76.9356, -11.8337], [-76.9164, -11.8314], [-76.9038, -11.8237], [-76.9058, -11.7954], [-76.8512, -11.7981], [-76.8433, -11.7857], [-76.8255, -11.7773], [-76.8049, -11.7559], [-76.8338, -11.7438], [-76.8677, -11.7475], [-76.8759, -11.7431], [-76.8808, -11.7322], [-76.886, -11.7351], [-76.9027, -11.7288], [-76.9145, -11.7322], [-76.9156, -11.7452], [-76.9333, -11.7564], [-76.9507, -11.7474], [-76.9607, -11.7341], [-76.9736, -11.7361], [-76.9737, -11.748], [-76.9845, -11.7461], [-76.9968, -11.7524], [-77.0167, -11.7496], [-77.0325, -11.7408], [-77.0443, -11.7147], [-77.0325, -11.7087], [-77.0244, -11.6917], [-77.0246, -11.6766], [-77.0352, -11.6518], [-77.0162, -11.6332], [-77.0145, -11.6228], [-77.0048, -11.6143], [-77.0458, -11.5787], [-77.0634, -11.5774], [-77.0683, -11.5727], [-77.0777, -11.577], [-77.0853, -11.6042], [-77.1062, -11.6197], [-77.1074, -11.6268], [-77.1163, -11.6304], [-77.1347, -11.6266], [-77.137, -11.6375], [-77.1312, -11.6399], [-77.131, -11.6478], [-77.1221, -11.6574], [-77.1331, -11.6577], [-77.1522, -11.6706], [-77.1583, -11.6817], [-77.1545, -11.7017], [-77.1608, -11.7016], [-77.1821, -11.6859], [-77.1963, -11.698], [-77.1674, -11.7424], [-77.1777, -11.7747], [-77.1983, -11.7682], [-77.1981, -11.7835], [-77.1902, -11.7837], [-77.178, -11.8021], [-77.1767, -11.8157], [-77.188, -11.8286], [-77.1268, -11.8185], [-77.1148, -11.8348], [-77.113, -11.8476], [-77.1162, -11.8486], [-77.1062, -11.8565], [-77.1072, -11.8665], [-77.0967, -11.8708], [-77.0924, -11.8831], [-77.0893, -11.8992], [-77.1041, -11.9356], [-77.0952, -11.9497], [-77.1207, -11.9451], [-77.1287, -11.9375], [-77.1175, -11.957], [-77.1177, -11.9705], [-77.1107, -11.9754], [-77.1179, -11.9943], [-77.1033, -11.9978], [-77.0891, -12.0122], [-77.0962, -12.0337], [-77.0935, -12.0384], [-77.0829, -12.0364], [-77.0826, -12.045], [-77.0769, -12.0475], [-77.0876, -12.0519], [-77.0873, -12.0615], [-77.1046, -12.0634], [-77.1049, -12.072], [-77.1115, -12.0795]]]}}, {"type": "Feature", "properties": {"osm_type": "relation", "osm_id": 637015703, "name": "Oyon", "admin_level": "6", "kind": "subdivision_2", "parent_osm_id": 1944659, "parent_name": "Lima", "parent_iso": "PE-LIM"}, "geometry": {"type": "Polygon", "coordinates": [[[-77.011, -10.696], [-77.0109, -10.7053], [-77.0234, -10.7062], [-77.0238, -10.7134], [-77.0402, -10.7365], [-77.0618, -10.744], [-77.0807, -10.7439], [-77.0861, -10.7535], [-77.0963, -10.7482], [-77.1212, -10.7506], [-77.1533, -10.7615], [-77.1614, -10.7659], [-77.1669, -10.777], [-77.1776, -10.7791], [-77.188, -10.8029], [-77.1735, -10.8086], [-77.156, -10.855], [-77.1649, -10.8727], [-77.1629, -10.9018], [-77.168, -10.9185], [-77.1942, -10.93], [-77.1957, -10.9549], [-77.1804, -10.9612], [-77.1706, -10.9911], [-77.1622, -10.9906], [-77.1388, -11.0112], [-77.1246, -11.0084], [-77.1184, -10.998], [-77.1, -11.0027], [-77.0843, -11.016], [-77.0794, -11.0144], [-77.0748, -11.0022], [-77.0663, -10.9982], [-77.0515, -10.9758], [-77.0472, -10.9606], [-77.0306, -10.9446], [-77.0273, -10.9323], [-77.0103, -10.9143], [-76.9926, -10.9097], [-76.9807, -10.8861], [-76.9753, -10.8842], [-76.97, -10.8652], [-76.9624, -10.8616], [-76.9456, -10.8608], [-76.9242, -10.8525], [-76.9151, -10.8598], [-76.9021, -10.8455], [-76.8898, -10.8438], [-76.8764, -10.8597], [-76.8481, -10.873], [-76.7909, -10.9246], [-76.7807, -10.926], [-76.7725, -10.9335], [-76.7439, -10.9353], [-76.7324, -10.9124], [-76.6976, -10.8804], [-76.6725, -10.8848], [-76.6542, -10.882], [-76.6154, -10.8652], [-76.6061, -10.8519], [-76.5882, -10.8451], [-76.6016, -10.8159], [-76.6152, -10.8167], [-76.6265, -10.7997], [-76.6256, -10.792], [-76.6336, -10.7839], [-76.6278, -10.766], [-76.6422, -10.7464], [-76.6594, -10.6879], [-76.6707, -10.6787], [-76.6557, -10.6468], [-76.6756, -10.6214], [-76.6727, -10.6099], [-76.6818, -10.5986], [-76.6802, -10.5911], [-76.6859, -10.5815], [-76.7037, -10.5886], [-76.7102, -10.5407], [-76.7169, -10.523], [-76.7302, -10.5084], [-76.7251, -10.4857], [-76.7298, -10.4749], [-76.7396, -10.4671], [-76.7723, -10.4642], [-76.7874, -10.4387], [-76.7999, -10.4396], [-76.8029, -10.431], [-76.7999, -10.4191], [-76.829, -10.4301], [-76.8228, -10.4831], [-76.8337, -10.4826], [-76.8406, -10.4736], [-76.8498, -10.4796], [-76.8572, -10.4934], [-76.8548, -10.5064], [-76.8601, -10.5089], [-76.8546, -10.5475], [-76.866, -10.5579], [-76.8584, -10.5642], [-76.865, -10.5845], [-76.8595, -10.5972], [-76.8634, -10.6025], [-76.8633, -10.6218], [-76.8732, -10.635], [-76.8784, -10.6556], [-76.8898, -10.6534], [-76.8956, -10.6663], [-76.9104, -10.668], [-76.9242, -10.6836], [-76.9368, -10.6851], [-76.9382, -10.6909], [-76.9499, -10.698], [-76.9736, -10.6822], [-76.9935, -10.6808], [-77.0068, -10.6878], [-77.011, -10.696]]]}}, {"type": "Feature", "properties": {"osm_type": "relation", "osm_id": 766043402, "name": "Yauyos", "admin_level": "6", "kind": "subdivision_2", "parent_osm_id": 1944659, "parent_name": "Lima", "parent_iso": "PE-LIM"}, "geometry": {"type": "Polygon", "coordinates": [[[-75.9614, -13.0014], [-75.9377, -12.9913], [-75.9139, -13.0069], [-75.8788, -13.016], [-75.8522, -13.0353], [-75.8269, -13.0294], [-75.8216, -13.0332], [-75.8179, -13.0521], [-75.8077, -13.0516], [-75.8021, -13.0604], [-75.7725, -13.0379], [-75.7646, -13.0182], [-75.7537, -13.028], [-75.744, -13.0254], [-75.7232, -13.0387], [-75.6905, -13.0351], [-75.6861, -13.0253], [-75.6718, -13.0235], [-75.6657, -13.0165], [-75.667, -12.9966], [-75.6365, -12.9876], [-75.6375, -12.9732], [-75.6144, -12.9649], [-75.6144, -12.9576], [-75.6227, -12.9494], [-75.6179, -12.9427], [-75.6281, -12.935], [-75.6277, -12.9278], [-75.6363, -12.915], [-75.6213, -12.8898], [-75.6127, -12.8592], [-75.5704, -12.8429], [-75.5617, -12.8294], [-75.5603, -12.8174], [-75.547, -12.8231], [-75.5399, -12.8162], [-75.5302, -12.8216], [-75.5223, -12.8062], [-75.5202, -12.7887], [-75.5139, -12.7887], [-75.5075, -12.7772], [-75.5475, -12.7469], [-75.5549, -12.7347], [-75.5675, -12.7282], [-75.5771, -12.7157], [-75.5537, -12.7042], [-75.5515, -12.684], [-75.5633, -12.6757], [-75.5582, -12.669], [-75.5613, -12.6631], [-75.575, -12.6595], [-75.578, -12.6535], [-75.5828, -12.6218], [-75.5794, -12.5951], [-75.5681, -12.5786], [-75.5662, -12.5725], [-75.5718, -12.5641], [-75.5664, -12.5527], [-75.5589, -12.5452], [-75.552, -12.5449], [-75.5454, -12.5256], [-75.536, -12.5185], [-75.5574, -12.4566], [-75.5586, -12.4131], [-75.5669, -12.4122], [-75.5487, -12.3642], [-75.5682, -12.3316], [-75.5886, -12.325], [-75.5926, -12.3141], [-75.5867, -12.2993], [-75.6092, -12.2677], [-75.6159, -12.2648], [-75.6161, -12.2565], [-75.6421, -12.2296], [-75.6527, -12.2057], [-75.6713, -12.1925], [-75.6687, -12.1834], [-75.6598, -12.1806], [-75.6582, -12.175], [-75.6485, -12.1742], [-75.6492, -12.1636], [-75.6414, -12.1492], [-75.6275, -12.1417], [-75.6289, -12.1301], [-75.6387, -12.1215], [-75.6346, -12.1146], [-75.6547, -12.1027], [-75.6636, -12.0909], [-75.6882, -12.0821], [-75.6739, -12.0579], [-75.6943, -12.0427], [-75.7011, -12.0482], [-75.7167, -12.0465], [-75.742, -12.0365], [-75.7428, -12.0464], [-75.7511, -12.0549], [-75.7657, -12.0596], [-75.7849, -12.0402], [-75.7996, -12.0346], [-75.8189, -12.0137], [-75.8336, -12.0247], [-75.8425, -12.0065], [-75.8549, -12.0076], [-75.885, -11.9934], [-75.8967, -11.993], [-75.9041, -11.9984], [-75.9122, -11.9878], [-75.9241, -11.9843], [-75.9486, -11.9944], [-75.9543, -11.9862], [-75.9645, -11.9889], [-75.9753, -11.9839], [-75.998, -11.9948], [-76.0018, -12.0039], [-75.9976, -12.0179], [-76.0097, -12.0237], [-76.0203, -12.064], [-76.0339, -12.07], [-76.0442, -12.0845], [-76.0563, -12.091], [-76.0614, -12.0885], [-76.0725, -12.1089], [-76.0568, -12.1327], [-76.0862, -12.1604], [-76.0765, -12.1818], [-76.0684, -12.186], [-76.0695, -12.2074], [-76.0818, -12.2118], [-76.0899, -12.2056], [-76.0993, -12.2074], [-76.1127, -12.2257], [-76.1532, -12.2401], [-76.1712, -12.2593], [-76.2155, -12.2628], [-76.2205, -12.2755], [-76.2503, -12.2997], [-76.2724, -12.3021], [-76.291, -12.2803], [-76.2912, -12.2686], [-76.3005, -12.2574], [-76.3032, -12.2731], [-76.3228, -12.2901], [-76.3286, -12.3129], [-76.346, -12.3377], [-76.3454, -12.388], [-76.3364, -12.3999], [-76.3333, -12.4161], [-76.3185, -12.4196], [-76.3135, -12.4306], [-76.3219, -12.4438], [-76.3316, -12.4424], [-76.3393, -12.4676], [-76.3365, -12.482], [-76.3401, -12.4945], [-76.3521, -12.52], [-76.3675, -12.5326], [-76.3429, -12.5312], [-76.3328, -12.5358], [-76.3232, -12.5283], [-76.3164, -12.548], [-76.3047, -12.552], [-76.288, -12.5871], [-76.2681, -12.5836], [-76.2517, -12.5916], [-76.2704, -12.6448], [-76.275, -12.6513], [-76.2881, -12.6545], [-76.2846, -12.6833], [-76.2996, -12.7153], [-76.296, -12.7338], [-76.2825, -12.7525], [-76.257, -12.7506], [-76.2472, -12.7555], [-76.2413, -12.7908], [-76.2337, -12.7913], [-76.1994, -12.8135], [-76.1773, -12.8544], [-76.1652, -12.85], [-76.1614, -12.8378], [-76.1539, -12.8378], [-76.1549, -12.825], [-76.1444, -12.8204], [-76.1395, -12.7916], [-76.1232, -12.7868], [-76.1066, -12.801], [-76.0987, -12.8016], [-76.0769, -12.7864], [-76.0727, -12.7924], [-76.0608, -12.7928], [-76.0452, -12.782], [-76.0216, -12.7894], [-76.0058, -12.7734], [-76.0, -12.7569], [-75.9955, -12.7569], [-75.9883, -12.7675], [-75.9839, -12.7823], [-75.9704, -12.7851], [-75.9434, -12.801], [-75.9411, -12.8195], [-75.9594, -12.849], [-75.9799, -12.8388], [-75.99, -12.843], [-76.0008, -12.8399], [-76.0085, -12.853], [-75.993, -12.896], [-76.0039, -12.9224], [-75.9727, -12.924], [-75.9734, -12.9393], [-75.9574, -12.9699], [-75.9614, -13.0014]]]}}]}