{"type": "FeatureCollection", "parent": {"osm_id": 1953170, "name": "Ancash", "admin_level": "4", "kind": "subdivision_1", "child_kind": "subdivision_2", "iso": "PE-ANC"}, "features": [{"type": "Feature", "properties": {"osm_type": "relation", "osm_id": 475399800, "name": "Aija", "admin_level": "6", "kind": "subdivision_2", "parent_osm_id": 1953170, "parent_name": "Ancash", "parent_iso": "PE-ANC"}, "geometry": {"type": "Polygon", "coordinates": [[[-77.5363, -9.7379], [-77.5471, -9.7125], [-77.5416, -9.7059], [-77.5651, -9.6802], [-77.5692, -9.6692], [-77.592, -9.6588], [-77.5982, -9.6397], [-77.6137, -9.649], [-77.6091, -9.6299], [-77.6213, -9.6208], [-77.6459, -9.6484], [-77.6643, -9.6605], [-77.6617, -9.6866], [-77.6798, -9.6849], [-77.6986, -9.6972], [-77.7121, -9.69], [-77.7237, -9.6948], [-77.7337, -9.7134], [-77.7301, -9.7199], [-77.7338, -9.7372], [-77.7487, -9.7526], [-77.759, -9.7866], [-77.7743, -9.791], [-77.7808, -9.8007], [-77.7948, -9.7913], [-77.8101, -9.7928], [-77.8184, -9.7808], [-77.8658, -9.7638], [-77.8839, -9.7697], [-77.9266, -9.7676], [-77.9432, -9.7736], [-77.9538, -9.7716], [-77.9614, -9.7802], [-77.9329, -9.8075], [-77.9085, -9.8217], [-77.8997, -9.8228], [-77.8754, -9.8112], [-77.8539, -9.8171], [-77.8337, -9.8363], [-77.8327, -9.8407], [-77.8437, -9.8441], [-77.8269, -9.8781], [-77.8299, -9.8872], [-77.8259, -9.9143], [-77.8138, -9.9058], [-77.7982, -9.9086], [-77.7798, -9.9051], [-77.7745, -9.8911], [-77.7656, -9.8897], [-77.7637, -9.8724], [-77.7472, -9.8622], [-77.7379, -9.8484], [-77.7121, -9.8371], [-77.7036, -9.8484], [-77.6643, -9.8649], [-77.6413, -9.856], [-77.6296, -9.8589], [-77.6214, -9.8678], [-77.6059, -9.8604], [-77.566, -9.8733], [-77.5603, -9.8691], [-77.5463, -9.8699], [-77.5377, -9.8613], [-77.5237, -9.8681], [-77.508, -9.8663], [-77.5033, -9.8748], [-77.4911, -9.8707], [-77.4789, -9.8738], [-77.4844, -9.8396], [-77.4943, -9.8375], [-77.489, -9.8198], [-77.5043, -9.811], [-77.5069, -9.7991], [-77.5215, -9.7923], [-77.5217, -9.7746], [-77.5299, -9.764], [-77.5363, -9.7379]]]}}, {"type": "Feature", "properties": {"osm_type": "relation", "osm_id": 160268087, "name": "Antonio Raymondi", "admin_level": "6", "kind": "subdivision_2", "parent_osm_id": 1953170, "parent_name": "Ancash", "parent_iso": "PE-ANC"}, "geometry": {"type": "Polygon", "coordinates": [[[-76.945, -9.0744], [-76.9507, -9.0679], [-76.9617, -9.0676], [-76.9665, -9.0604], [-76.9804, -9.0627], [-76.982, -9.0558], [-77.0005, -9.0411], [-77.0028, -9.0326], [-77.0326, -9.0142], [-77.0357, -9.0], [-77.066, -8.9909], [-77.0921, -8.9716], [-77.1228, -8.9781], [-77.1116, -9.0088], [-77.1258, -9.023], [-77.1473, -9.0281], [-77.1524, -9.0337], [-77.1414, -9.0556], [-77.141, -9.0913], [-77.1441, -9.0957], [-77.1559, -9.0958], [-77.1655, -9.1058], [-77.1637, -9.118], [-77.1683, -9.1221], [-77.1543, -9.1427], [-77.1739, -9.16], [-77.1574, -9.1727], [-77.1422, -9.2024], [-77.1239, -9.2001], [-77.1105, -9.1911], [-77.1029, -9.1941], [-77.096, -9.1856], [-77.0844, -9.1825], [-77.0938, -9.2114], [-77.0825, -9.2341], [-77.0864, -9.2644], [-77.0547, -9.2853], [-77.035, -9.2925], [-77.0289, -9.3005], [-77.0158, -9.2961], [-77.0123, -9.2988], [-77.0083, -9.2855], [-76.9892, -9.2644], [-76.9882, -9.2484], [-76.9731, -9.2358], [-76.9686, -9.2144], [-76.9596, -9.2074], [-76.9612, -9.1535], [-76.9418, -9.129], [-76.946, -9.1225], [-76.945, -9.0744]]]}}, {"type": "Feature", "properties": {"osm_type": "relation", "osm_id": 353791008, "name": "Asuncion", "admin_level": "6", "kind": "subdivision_2", "parent_osm_id": 1953170, "parent_name": "Ancash", "parent_iso": "PE-ANC"}, "geometry": {"type": "Polygon", "coordinates": [[[-77.362, -9.065], [-77.3903, -9.0568], [-77.4349, -9.0579], [-77.4487, -9.0867], [-77.4587, -9.0892], [-77.4658, -9.1002], [-77.4905, -9.1067], [-77.5031, -9.1275], [-77.5188, -9.1366], [-77.5335, -9.1728], [-77.529, -9.1856], [-77.5324, -9.1986], [-77.5257, -9.2051], [-77.5165, -9.2058], [-77.5176, -9.2359], [-77.5128, -9.2519], [-77.5066, -9.2564], [-77.4927, -9.2509], [-77.4809, -9.255], [-77.4833, -9.2631], [-77.479, -9.2705], [-77.451, -9.264], [-77.4321, -9.2755], [-77.409, -9.2731], [-77.3889, -9.2889], [-77.3791, -9.2881], [-77.3257, -9.31], [-77.3243, -9.3205], [-77.3192, -9.3241], [-77.3113, -9.307], [-77.3155, -9.2918], [-77.309, -9.2833], [-77.2917, -9.2885], [-77.2753, -9.2783], [-77.2756, -9.2473], [-77.2627, -9.2382], [-77.2628, -9.1987], [-77.2776, -9.1815], [-77.2927, -9.1834], [-77.2927, -9.1746], [-77.3138, -9.1586], [-77.3193, -9.1372], [-77.3418, -9.1314], [-77.3568, -9.1136], [-77.366, -9.1139], [-77.362, -9.065]]]}}, {"type": "Feature", "properties": {"osm_type": "relation", "osm_id": 993137121, "name": "Bolognesi", "admin_level": "6", "kind": "subdivision_2", "parent_osm_id": 1953170, "parent_name": "Ancash", "parent_iso": "PE-ANC"}, "geometry": {"type": "Polygon", "coordinates": [[[-77.5994, -10.3833], [-77.5611, -10.3902], [-77.5227, -10.3872], [-77.5163, -10.3635], [-77.5029, -10.3575], [-77.5002, -10.3478], [-77.4815, -10.3462], [-77.4782, -10.3072], [-77.4663, -10.2956], [-77.4693, -10.2873], [-77.4625, -10.2757], [-77.45, -10.2777], [-77.4363, -10.2728], [-77.411, -10.2779], [-77.4068, -10.2718], [-77.3991, -10.272], [-77.3595, -10.292], [-77.3271, -10.2562], [-77.3155, -10.2704], [-77.3058, -10.2737], [-77.3011, -10.2848], [-77.2907, -10.2687], [-77.2755, -10.2664], [-77.2698, -10.2575], [-77.2588, -10.253], [-77.2438, -10.2672], [-77.236, -10.298], [-77.2412, -10.305], [-77.231, -10.317], [-77.2289, -10.331], [-77.2171, -10.3404], [-77.1995, -10.3368], [-77.1582, -10.3619], [-77.1744, -10.405], [-77.1722, -10.444], [-77.1893, -10.4579], [-77.1859, -10.4737], [-77.176, -10.4831], [-77.1746, -10.4646], [-77.15, -10.4511], [-77.1382, -10.4265], [-77.1121, -10.4048], [-77.1109, -10.3921], [-77.0902, -10.3726], [-77.0896, -10.3611], [-77.0808, -10.3577], [-77.0716, -10.3381], [-77.0646, -10.3345], [-77.0474, -10.3388], [-77.0454, -10.3338], [-77.0247, -10.3275], [-77.0136, -10.3156], [-77.0055, -10.2833], [-76.9999, -10.2833], [-76.9982, -10.2914], [-76.9655, -10.3054], [-76.9623, -10.2972], [-76.9429, -10.2875], [-76.936, -10.2785], [-76.9062, -10.2742], [-76.9048, -10.2377], [-76.9161, -10.2246], [-76.9094, -10.199], [-76.9142, -10.1881], [-76.9085, -10.1768], [-76.9157, -10.1204], [-76.9019, -10.1133], [-76.8799, -10.1166], [-76.8713, -10.0943], [-76.8536, -10.1018], [-76.8432, -10.0868], [-76.8072, -10.0845], [-76.8125, -10.0722], [-76.8129, -10.0574], [-76.809, -10.0536], [-76.815, -10.0234], [-76.8216, -10.0194], [-76.825, -10.0092], [-76.8256, -9.9893], [-76.8177, -9.9785], [-76.8138, -9.9601], [-76.829, -9.9384], [-76.8419, -9.9306], [-76.842, -9.9109], [-76.873, -9.8638], [-76.8693, -9.8604], [-76.8723, -9.851], [-76.8978, -9.8093], [-76.9016, -9.7697], [-76.9119, -9.7637], [-76.9174, -9.7437], [-76.9342, -9.7295], [-76.941, -9.7064], [-76.9454, -9.7026], [-76.9616, -9.7135], [-76.9718, -9.7118], [-76.981, -9.7246], [-76.9803, -9.7403], [-76.9695, -9.7578], [-76.9738, -9.7602], [-77.0238, -9.7043], [-77.0343, -9.7093], [-77.0357, -9.7189], [-77.0255, -9.7286], [-77.0307, -9.7338], [-77.0262, -9.7485], [-77.031, -9.7552], [-77.0278, -9.7641], [-77.0388, -9.7791], [-77.0495, -9.7829], [-77.0477, -9.7952], [-77.0602, -9.8021], [-77.0761, -9.797], [-77.099, -9.8062], [-77.1011, -9.8175], [-77.0928, -9.8368], [-77.0949, -9.8408], [-77.1159, -9.8332], [-77.1252, -9.8396], [-77.1588, -9.8272], [-77.1871, -9.8362], [-77.1834, -9.8806], [-77.1734, -9.912], [-77.1891, -9.9295], [-77.219, -9.9195], [-77.2161, -9.943], [-77.2234, -9.952], [-77.2107, -9.9587], [-77.2056, -9.967], [-77.2126, -9.985], [-77.2116, -10.0034], [-77.219, -10.0142], [-77.2141, -10.0237], [-77.2244, -10.0379], [-77.2079, -10.0615], [-77.2162, -10.0868], [-77.2016, -10.0922], [-77.2101, -10.1152], [-77.2047, -10.126], [-77.2088, -10.1325], [-77.2495, -10.1365], [-77.2576, -10.1477], [-77.2746, -10.1536], [-77.2804, -10.1603], [-77.2991, -10.1384], [-77.3205, -10.127], [-77.3423, -10.1308], [-77.3352, -10.1442], [-77.3458, -10.1605], [-77.3579, -10.1512], [-77.3801, -10.1469], [-77.3933, -10.1328], [-77.4006, -10.1322], [-77.4195, -10.1413], [-77.4377, -10.1428], [-77.4587, -10.1562], [-77.488, -10.1551], [-77.5006, -10.1466], [-77.5153, -10.1474], [-77.5321, -10.172], [-77.5447, -10.1744], [-77.5539, -10.1864], [-77.5612, -10.231], [-77.5753, -10.2499], [-77.5925, -10.2368], [-77.608, -10.2405], [-77.6343, -10.2242], [-77.6671, -10.2164], [-77.6744, -10.2067], [-77.6809, -10.2217], [-77.6775, -10.2342], [-77.6964, -10.2569], [-77.693, -10.2669], [-77.6988, -10.3221], [-77.6785, -10.3272], [-77.6669, -10.3386], [-77.6513, -10.3446], [-77.6317, -10.3222], [-77.6203, -10.3271], [-77.5988, -10.3631], [-77.5994, -10.3833]]]}}, {"type": "Feature", "properties": {"osm_type": "relation", "osm_id": 355391455, "name": "Carhuaz", "admin_level": "6", "kind": "subdivision_2", "parent_osm_id": 1953170, "parent_name": "Ancash", "parent_iso": "PE-ANC"}, "geometry": {"type": "Polygon", "coordinates": [[[-77.4905, -9.1067], [-77.5237, -9.0954], [-77.5303, -9.0829], [-77.5724, -9.0858], [-77.6038, -9.1144], [-77.5932, -9.1344], [-77.5888, -9.1557], [-77.5908, -9.1715], [-77.6173, -9.2148], [-77.6441, -9.1973], [-77.6573, -9.2184], [-77.6648, -9.243], [-77.6726, -9.2391], [-77.6806, -9.2465], [-77.6893, -9.2242], [-77.701, -9.2338], [-77.7035, -9.2419], [-77.7135, -9.2466], [-77.7251, -9.277], [-77.744, -9.2903], [-77.7671, -9.2933], [-77.7765, -9.3147], [-77.7755, -9.3233], [-77.7708, -9.3344], [-77.7477, -9.3504], [-77.7427, -9.3594], [-77.7442, -9.3707], [-77.719, -9.3824], [-77.6905, -9.3778], [-77.6751, -9.3944], [-77.6814, -9.4177], [-77.6656, -9.4267], [-77.6648, -9.4374], [-77.6555, -9.4423], [-77.6493, -9.4528], [-77.6443, -9.4472], [-77.6437, -9.4326], [-77.613, -9.4221], [-77.6039, -9.4036], [-77.5809, -9.3923], [-77.5849, -9.3753], [-77.5718, -9.3746], [-77.5423, -9.3866], [-77.53, -9.3727], [-77.483, -9.3701], [-77.476, -9.3637], [-77.465, -9.367], [-77.4434, -9.3509], [-77.4155, -9.3558], [-77.3976, -9.3466], [-77.3985, -9.3561], [-77.3841, -9.37], [-77.3708, -9.368], [-77.3683, -9.3749], [-77.351, -9.3885], [-77.3301, -9.3824], [-77.3346, -9.3527], [-77.3264, -9.3331], [-77.3181, -9.328], [-77.3257, -9.31], [-77.3791, -9.2881], [-77.3889, -9.2889], [-77.409, -9.2731], [-77.4321, -9.2755], [-77.451, -9.264], [-77.479, -9.2705], [-77.4833, -9.2631], [-77.4809, -9.255], [-77.4927, -9.2509], [-77.5066, -9.2564], [-77.5128, -9.2519], [-77.5176, -9.2359], [-77.5165, -9.2058], [-77.5257, -9.2051], [-77.5324, -9.1986], [-77.529, -9.1856], [-77.5335, -9.1728], [-77.5188, -9.1366], [-77.5031, -9.1275], [-77.4905, -9.1067]]]}}, {"type": "Feature", "properties": {"osm_type": "relation", "osm_id": 560233687, "name": "Carlos Fermin Fitzcarrald", "admin_level": "6", "kind": "subdivision_2", "parent_osm_id": 1953170, "parent_name": "Ancash", "parent_iso": "PE-ANC"}, "geometry": {"type": "Polygon", "coordinates": [[[-77.1031, -8.9724], [-77.1102, -8.9696], [-77.1025, -8.9609], [-77.1057, -8.9492], [-77.1226, -8.9463], [-77.1241, -8.9342], [-77.1332, -8.9261], [-77.1299, -8.9179], [-77.1486, -8.8954], [-77.154, -8.9004], [-77.1595, -8.8971], [-77.1747, -8.9268], [-77.2323, -8.9252], [-77.2675, -8.9445], [-77.3035, -8.9487], [-77.3205, -8.9454], [-77.3378, -8.9575], [-77.3455, -8.9558], [-77.359, -8.9706], [-77.3642, -8.9863], [-77.3628, -9.0388], [-77.3575, -9.0585], [-77.363, -9.0707], [-77.366, -9.1139], [-77.3568, -9.1136], [-77.3418, -9.1314], [-77.3193, -9.1372], [-77.3102, -9.1633], [-77.2927, -9.1746], [-77.2927, -9.1834], [-77.2776, -9.1815], [-77.2581, -9.2087], [-77.2499, -9.2004], [-77.2418, -9.1991], [-77.2412, -9.1917], [-77.2216, -9.1676], [-77.1979, -9.1657], [-77.1861, -9.155], [-77.1739, -9.16], [-77.1543, -9.1427], [-77.1683, -9.1221], [-77.1637, -9.118], [-77.1655, -9.1058], [-77.1559, -9.0958], [-77.1441, -9.0957], [-77.141, -9.0913], [-77.1414, -9.0556], [-77.1524, -9.0337], [-77.1473, -9.0281], [-77.1258, -9.023], [-77.1116, -9.0088], [-77.1228, -8.9781], [-77.1031, -8.9724]]]}}, {"type": "Feature", "properties": {"osm_type": "relation", "osm_id": 655981278, "name": "Casma", "admin_level": "6", "kind": "subdivision_2", "parent_osm_id": 1953170, "parent_name": "Ancash", "parent_iso": "PE-ANC"}, "geometry": {"type": "Polygon", "coordinates": [[[-78.0561, -9.2747], [-78.082, -9.2648], [-78.1064, -9.2645], [-78.1157, -9.2573], [-78.1424, -9.2686], [-78.1553, -9.2511], [-78.1755, -9.247], [-78.1965, -9.2261], [-78.1971, -9.2196], [-78.2113, -9.209], [-78.2328, -9.2119], [-78.2414, -9.205], [-78.2608, -9.2009], [-78.2678, -9.211], [-78.2771, -9.2136], [-78.2811, -9.2228], [-78.2994, -9.2163], [-78.3275, -9.2483], [-78.3371, -9.2503], [-78.336, -9.2631], [-78.3619, -9.2641], [-78.3715, -9.2872], [-78.3858, -9.3053], [-78.3836, -9.3262], [-78.3897, -9.3266], [-78.4117, -9.3534], [-78.4184, -9.3551], [-78.4279, -9.3493], [-78.4305, -9.3539], [-78.4236, -9.3623], [-78.4139, -9.3599], [-78.4094, -9.3638], [-78.4128, -9.3698], [-78.4283, -9.3716], [-78.4336, -9.384], [-78.4337, -9.3905], [-78.4268, -9.392], [-78.4298, -9.4014], [-78.4249, -9.4175], [-78.4166, -9.418], [-78.4168, -9.4271], [-78.4143, -9.4231], [-78.4066, -9.4249], [-78.408, -9.4357], [-78.3976, -9.4279], [-78.392, -9.4291], [-78.3801, -9.4455], [-78.3809, -9.4557], [-78.3919, -9.4579], [-78.3931, -9.4632], [-78.399, -9.4646], [-78.3966, -9.4717], [-78.4047, -9.4751], [-78.4028, -9.4787], [-78.3946, -9.4777], [-78.3978, -9.488], [-78.392, -9.4908], [-78.3967, -9.499], [-78.3845, -9.521], [-78.3855, -9.5279], [-78.3913, -9.531], [-78.3664, -9.5589], [-78.3709, -9.566], [-78.3662, -9.5684], [-78.3696, -9.5705], [-78.3659, -9.5707], [-78.3653, -9.5813], [-78.3723, -9.5862], [-78.3613, -9.6101], [-78.3669, -9.6297], [-78.3586, -9.624], [-78.3499, -9.6329], [-78.3434, -9.6329], [-78.3439, -9.6393], [-78.3387, -9.6402], [-78.3335, -9.65], [-78.3358, -9.6548], [-78.3298, -9.6548], [-78.3188, -9.6667], [-78.3226, -9.6752], [-78.3193, -9.6815], [-78.3076, -9.6839], [-78.3065, -9.6952], [-78.2991, -9.6965], [-78.2943, -9.7054], [-78.2959, -9.7263], [-78.275, -9.7433], [-78.272, -9.7561], [-78.2599, -9.7593], [-78.2464, -9.77], [-78.2451, -9.7778], [-78.2262, -9.7953], [-78.2216, -9.7787], [-78.2008, -9.7608], [-78.1742, -9.7483], [-78.1448, -9.7146], [-78.1228, -9.7114], [-78.0874, -9.7205], [-78.0583, -9.6892], [-78.0214, -9.6883], [-78.0081, -9.6832], [-77.9899, -9.6451], [-77.976, -9.639], [-77.9589, -9.6054], [-77.9593, -9.5904], [-77.9747, -9.5699], [-77.9742, -9.5505], [-77.9937, -9.5358], [-77.9711, -9.531], [-77.9464, -9.5397], [-77.9363, -9.5281], [-77.9292, -9.5001], [-77.9183, -9.4998], [-77.9159, -9.487], [-77.9335, -9.4808], [-77.9157, -9.4692], [-77.901, -9.4422], [-77.9099, -9.4366], [-77.9282, -9.4095], [-77.9327, -9.3949], [-77.9552, -9.4226], [-77.9676, -9.4263], [-77.9929, -9.4466], [-78.0293, -9.4196], [-78.0332, -9.4087], [-78.0033, -9.381], [-78.0157, -9.3683], [-78.0289, -9.3646], [-78.0536, -9.3368], [-78.0604, -9.3347], [-78.0539, -9.3236], [-78.0549, -9.3037], [-78.0623, -9.2924], [-78.0561, -9.2747]]]}}, {"type": "Feature", "properties": {"osm_type": "relation", "osm_id": 525458300, "name": "Corongo", "admin_level": "6", "kind": "subdivision_2", "parent_osm_id": 1953170, "parent_name": "Ancash", "parent_iso": "PE-ANC"}, "geometry": {"type": "Polygon", "coordinates": [[[-77.7207, -8.6565], [-77.7136, -8.6318], [-77.7018, -8.6275], [-77.7086, -8.6123], [-77.6957, -8.6023], [-77.7093, -8.592], [-77.7092, -8.5863], [-77.6887, -8.5764], [-77.6913, -8.5568], [-77.7142, -8.5404], [-77.7081, -8.5296], [-77.7112, -8.5199], [-77.703, -8.5109], [-77.715, -8.5025], [-77.7183, -8.4897], [-77.7358, -8.4775], [-77.7414, -8.46], [-77.7645, -8.4416], [-77.7651, -8.4281], [-77.7552, -8.4187], [-77.7606, -8.4104], [-77.7592, -8.4034], [-77.774, -8.3958], [-77.7822, -8.4032], [-77.8025, -8.379], [-77.8528, -8.4033], [-77.8607, -8.3934], [-77.8765, -8.3978], [-77.8812, -8.4405], [-77.8975, -8.4406], [-77.9163, -8.458], [-77.9339, -8.4493], [-77.9347, -8.4593], [-77.949, -8.4808], [-77.9759, -8.4758], [-77.9682, -8.4923], [-77.9683, -8.5041], [-77.9828, -8.5118], [-77.9919, -8.5317], [-78.0294, -8.5421], [-78.037, -8.5545], [-78.0518, -8.5636], [-78.0577, -8.5614], [-78.0777, -8.5689], [-78.0785, -8.5796], [-78.0946, -8.5894], [-78.0958, -8.5971], [-78.1218, -8.5962], [-78.1281, -8.6033], [-78.1305, -8.6171], [-78.1058, -8.6598], [-78.0951, -8.6626], [-78.0728, -8.6568], [-78.0558, -8.6655], [-78.0465, -8.6625], [-78.0401, -8.6718], [-78.0291, -8.676], [-78.0208, -8.6737], [-78.0174, -8.667], [-78.0088, -8.667], [-77.9897, -8.6833], [-77.9727, -8.6875], [-77.9658, -8.6974], [-77.9561, -8.6994], [-77.9407, -8.7285], [-77.9203, -8.7476], [-77.9099, -8.7392], [-77.913, -8.7321], [-77.9051, -8.7149], [-77.8899, -8.7066], [-77.88, -8.684], [-77.8404, -8.6767], [-77.811, -8.662], [-77.7921, -8.6613], [-77.7723, -8.6739], [-77.7487, -8.6592], [-77.737, -8.6619], [-77.7302, -8.6553], [-77.7207, -8.6565]]]}}, {"type": "Feature", "properties": {"osm_type": "relation", "osm_id": 377627678, "name": "Huaraz", "admin_level": "6", "kind": "subdivision_2", "parent_osm_id": 1953170, "parent_name": "Ancash", "parent_iso": "PE-ANC"}, "geometry": {"type": "Polygon", "coordinates": [[[-77.5363, -9.7379], [-77.5251, -9.7265], [-77.5209, -9.7104], [-77.5265, -9.6998], [-77.5256, -9.6896], [-77.5031, -9.6627], [-77.4927, -9.6656], [-77.4841, -9.6616], [-77.4755, -9.673], [-77.4642, -9.6668], [-77.4521, -9.6681], [-77.4407, -9.6775], [-77.4318, -9.6734], [-77.4244, -9.6797], [-77.3998, -9.6725], [-77.3605, -9.6715], [-77.335, -9.6655], [-77.3269, -9.6789], [-77.304, -9.671], [-77.2937, -9.6576], [-77.2759, -9.6538], [-77.2656, -9.6459], [-77.2675, -9.635], [-77.2739, -9.6342], [-77.2831, -9.6196], [-77.2887, -9.5925], [-77.2967, -9.5805], [-77.3079, -9.5792], [-77.3094, -9.5746], [-77.3008, -9.555], [-77.3091, -9.5423], [-77.3047, -9.5353], [-77.3119, -9.5105], [-77.3203, -9.5012], [-77.3262, -9.4719], [-77.3228, -9.4672], [-77.3085, -9.4645], [-77.3022, -9.4543], [-77.3006, -9.4402], [-77.3197, -9.4271], [-77.315, -9.3991], [-77.3291, -9.3903], [-77.3301, -9.3824], [-77.351, -9.3885], [-77.3683, -9.3749], [-77.3708, -9.368], [-77.3841, -9.37], [-77.3985, -9.3561], [-77.3976, -9.3466], [-77.4155, -9.3558], [-77.4434, -9.3509], [-77.465, -9.367], [-77.476, -9.3637], [-77.483, -9.3701], [-77.53, -9.3727], [-77.5423, -9.3866], [-77.5718, -9.3746], [-77.5849, -9.3753], [-77.5809, -9.3923], [-77.6039, -9.4036], [-77.613, -9.4221], [-77.6437, -9.4326], [-77.6443, -9.4472], [-77.6493, -9.4528], [-77.6555, -9.4423], [-77.6648, -9.4374], [-77.6656, -9.4267], [-77.6814, -9.4177], [-77.6751, -9.3944], [-77.6905, -9.3778], [-77.719, -9.3824], [-77.7442, -9.3707], [-77.7567, -9.3948], [-77.7658, -9.4001], [-77.7604, -9.4149], [-77.7665, -9.4221], [-77.78, -9.4252], [-77.804, -9.4223], [-77.8341, -9.4259], [-77.857, -9.4027], [-77.8924, -9.4294], [-77.9157, -9.4692], [-77.9335, -9.4808], [-77.9159, -9.487], [-77.9158, -9.491], [-77.9183, -9.4998], [-77.9292, -9.5001], [-77.9363, -9.5281], [-77.9464, -9.5397], [-77.9711, -9.531], [-77.9937, -9.5358], [-77.9742, -9.5505], [-77.9747, -9.5699], [-77.9593, -9.5904], [-77.9608, -9.6154], [-77.976, -9.639], [-77.9899, -9.6451], [-78.0081, -9.6832], [-78.0419, -9.6899], [-78.0303, -9.7014], [-78.0004, -9.7116], [-77.9828, -9.7125], [-77.9726, -9.704], [-77.9676, -9.7061], [-77.97, -9.7196], [-77.9841, -9.7285], [-77.9871, -9.7395], [-77.9759, -9.7493], [-77.9614, -9.7802], [-77.9538, -9.7716], [-77.9432, -9.7736], [-77.9266, -9.7676], [-77.8839, -9.7697], [-77.8658, -9.7638], [-77.8184, -9.7808], [-77.8101, -9.7928], [-77.7948, -9.7913], [-77.7808, -9.8007], [-77.7743, -9.791], [-77.759, -9.7866], [-77.7487, -9.7526], [-77.7338, -9.7372], [-77.7301, -9.7199], [-77.7337, -9.7134], [-77.7237, -9.6948], [-77.7121, -9.69], [-77.6986, -9.6972], [-77.6798, -9.6849], [-77.6617, -9.6866], [-77.6643, -9.6605], [-77.6459, -9.6484], [-77.6213, -9.6208], [-77.6091, -9.6299], [-77.6137, -9.649], [-77.5982, -9.6397], [-77.592, -9.6588], [-77.5692, -9.6692], [-77.5651, -9.6802], [-77.5416, -9.7059], [-77.5471, -9.7125], [-77.5363, -9.7379]]]}}, {"type": "Feature", "properties": {"osm_type": "relation", "osm_id": 289989722, "name": "Huari", "admin_level": "6", "kind": "subdivision_2", "parent_osm_id": 1953170, "parent_name": "Ancash", "parent_iso": "PE-ANC"}, "geometry": {"type": "Polygon", "coordinates": [[[-77.1739, -9.16], [-77.1861, -9.155], [-77.1979, -9.1657], [-77.2216, -9.1676], [-77.2412, -9.1917], [-77.2418, -9.1991], [-77.2621, -9.2078], [-77.2627, -9.2382], [-77.2756, -9.2473], [-77.2753, -9.2783], [-77.2917, -9.2885], [-77.309, -9.2833], [-77.3155, -9.2918], [-77.3113, -9.307], [-77.3181, -9.328], [-77.3264, -9.3331], [-77.3346, -9.3527], [-77.3304, -9.388], [-77.315, -9.3991], [-77.3197, -9.4271], [-77.3006, -9.4402], [-77.3085, -9.4645], [-77.3228, -9.4672], [-77.3256, -9.4775], [-77.3203, -9.5012], [-77.3119, -9.5105], [-77.3065, -9.528], [-77.3047, -9.5353], [-77.3091, -9.5423], [-77.3008, -9.555], [-77.3098, -9.5721], [-77.3079, -9.5792], [-77.2967, -9.5805], [-77.2887, -9.5925], [-77.2831, -9.6196], [-77.2739, -9.6342], [-77.2667, -9.6369], [-77.2656, -9.6459], [-77.2697, -9.6487], [-77.2636, -9.6563], [-77.2653, -9.6603], [-77.2491, -9.6798], [-77.2506, -9.6919], [-77.2414, -9.7023], [-77.2303, -9.7063], [-77.2277, -9.7132], [-77.2361, -9.7258], [-77.2308, -9.7475], [-77.2455, -9.7732], [-77.2385, -9.7853], [-77.244, -9.8076], [-77.2257, -9.8066], [-77.2169, -9.8239], [-77.2066, -9.8212], [-77.2028, -9.8311], [-77.1871, -9.8362], [-77.1588, -9.8272], [-77.1252, -9.8396], [-77.1159, -9.8332], [-77.0949, -9.8408], [-77.0928, -9.8368], [-77.1011, -9.8175], [-77.099, -9.8062], [-77.0761, -9.797], [-77.0602, -9.8021], [-77.0477, -9.7952], [-77.0495, -9.7829], [-77.0388, -9.7791], [-77.0278, -9.7641], [-77.031, -9.7552], [-77.0262, -9.7485], [-77.0307, -9.7338], [-77.0255, -9.7286], [-77.0357, -9.7189], [-77.0343, -9.7093], [-77.0223, -9.702], [-77.0474, -9.6537], [-77.0441, -9.6429], [-77.0472, -9.6325], [-77.0292, -9.613], [-77.0153, -9.6143], [-76.9952, -9.6033], [-76.9882, -9.5925], [-76.9902, -9.5794], [-76.983, -9.5771], [-76.9815, -9.5654], [-76.9546, -9.5593], [-76.9551, -9.5427], [-76.9376, -9.5254], [-76.9386, -9.4917], [-76.9533, -9.4675], [-76.9485, -9.4527], [-76.9404, -9.4486], [-76.9303, -9.4332], [-76.9352, -9.3985], [-76.9241, -9.3915], [-76.9179, -9.3695], [-76.9096, -9.3685], [-76.9006, -9.3591], [-76.8929, -9.332], [-76.8703, -9.3144], [-76.8661, -9.3076], [-76.8701, -9.3009], [-76.8679, -9.2913], [-76.8555, -9.2897], [-76.8482, -9.267], [-76.8423, -9.2617], [-76.834, -9.266], [-76.8325, -9.2815], [-76.8159, -9.3142], [-76.8143, -9.3262], [-76.7938, -9.3329], [-76.7646, -9.3672], [-76.7575, -9.3622], [-76.7403, -9.3308], [-76.739, -9.3171], [-76.7446, -9.2971], [-76.7396, -9.274], [-76.7257, -9.2566], [-76.7305, -9.2459], [-76.7275, -9.2342], [-76.7414, -9.196], [-76.7589, -9.1795], [-76.7682, -9.1566], [-76.787, -9.1432], [-76.7882, -9.1366], [-76.8159, -9.1302], [-76.821, -9.124], [-76.849, -9.115], [-76.8707, -9.1133], [-76.8968, -9.099], [-76.9157, -9.0765], [-76.9305, -9.0706], [-76.945, -9.0744], [-76.946, -9.1225], [-76.9418, -9.129], [-76.9612, -9.1535], [-76.9596, -9.2074], [-76.9686, -9.2144], [-76.9731, -9.2358], [-76.9882, -9.2484], [-76.9892, -9.2644], [-77.0083, -9.2855], [-77.0123, -9.2988], [-77.0158, -9.2961], [-77.0289, -9.3005], [-77.035, -9.2925], [-77.0547, -9.2853], [-77.0864, -9.2644], [-77.0825, -9.2341], [-77.0938, -9.2114], [-77.0844, -9.1825], [-77.096, -9.1856], [-77.1029, -9.1941], [-77.1105, -9.1911], [-77.1239, -9.2001], [-77.1422, -9.2024], [-77.1574, -9.1727], [-77.1739, -9.16]]]}}, {"type": "Feature", "properties": {"osm_type": "relation", "osm_id": 329378219, "name": "Huarmey", "admin_level": "6", "kind": "subdivision_2", "parent_osm_id": 1953170, "parent_name": "Ancash", "parent_iso": "PE-ANC"}, "geometry": {"type": "Polygon", "coordinates": [[[-77.9614, -9.7802], [-77.9759, -9.7493], [-77.9871, -9.7395], [-77.9841, -9.7285], [-77.97, -9.7196], [-77.9676, -9.7061], [-77.9726, -9.704], [-77.9828, -9.7125], [-78.0004, -9.7116], [-78.0303, -9.7014], [-78.0419, -9.6899], [-78.0583, -9.6892], [-78.0874, -9.7205], [-78.1228, -9.7114], [-78.1448, -9.7146], [-78.1742, -9.7483], [-78.2008, -9.7608], [-78.2216, -9.7787], [-78.2271, -9.8216], [-78.2301, -9.83], [-78.2351, -9.8306], [-78.2326, -9.8333], [-78.2378, -9.8342], [-78.2343, -9.854], [-78.2421, -9.8573], [-78.2438, -9.8685], [-78.2245, -9.9072], [-78.2302, -9.9125], [-78.2229, -9.9227], [-78.2275, -9.9298], [-78.2242, -9.9398], [-78.2319, -9.9419], [-78.2273, -9.9488], [-78.2336, -9.9513], [-78.2081, -9.9668], [-78.2084, -9.9776], [-78.1997, -9.9816], [-78.2019, -9.987], [-78.1931, -10.0014], [-78.1961, -10.0201], [-78.1897, -10.0201], [-78.1914, -10.027], [-78.1857, -10.0287], [-78.1758, -10.044], [-78.172, -10.0614], [-78.1758, -10.0697], [-78.1673, -10.0809], [-78.1657, -10.0919], [-78.1687, -10.0977], [-78.1822, -10.1011], [-78.185, -10.1094], [-78.18, -10.1094], [-78.1796, -10.1158], [-78.1734, -10.1152], [-78.1636, -10.1472], [-78.131, -10.176], [-78.1227, -10.1764], [-78.1133, -10.1959], [-78.1016, -10.2011], [-78.0966, -10.2213], [-78.0873, -10.2301], [-78.092, -10.242], [-78.0877, -10.2429], [-78.0882, -10.2485], [-78.081, -10.2483], [-78.0872, -10.2591], [-78.0871, -10.2771], [-78.0568, -10.3035], [-78.0616, -10.3081], [-78.0541, -10.3206], [-78.0552, -10.3454], [-78.0106, -10.3747], [-78.0007, -10.3975], [-78.0046, -10.4038], [-78.0125, -10.4032], [-78.0144, -10.4112], [-77.9982, -10.4256], [-77.9993, -10.4289], [-77.9804, -10.4394], [-77.9748, -10.4588], [-77.9633, -10.4711], [-77.9656, -10.493], [-77.9602, -10.4927], [-77.9394, -10.509], [-77.9082, -10.5443], [-77.9008, -10.5642], [-77.9087, -10.5696], [-77.886, -10.6051], [-77.8866, -10.6121], [-77.8686, -10.5965], [-77.8543, -10.576], [-77.8397, -10.5679], [-77.8288, -10.5686], [-77.8183, -10.5804], [-77.7997, -10.5853], [-77.7911, -10.5838], [-77.785, -10.572], [-77.7759, -10.5753], [-77.7714, -10.5716], [-77.7743, -10.554], [-77.7707, -10.5157], [-77.779, -10.5101], [-77.7864, -10.4889], [-77.7988, -10.4773], [-77.7918, -10.4722], [-77.7876, -10.4571], [-77.7646, -10.4395], [-77.7679, -10.4288], [-77.76, -10.4301], [-77.7577, -10.4146], [-77.7499, -10.4068], [-77.7556, -10.384], [-77.7518, -10.3614], [-77.7572, -10.3454], [-77.7524, -10.3218], [-77.7059, -10.3253], [-77.6988, -10.3221], [-77.693, -10.2669], [-77.6964, -10.2569], [-77.6775, -10.2342], [-77.6809, -10.2217], [-77.6749, -10.2128], [-77.6731, -10.1849], [-77.6563, -10.152], [-77.6601, -10.1439], [-77.6722, -10.1397], [-77.6933, -10.146], [-77.6981, -10.1437], [-77.6997, -10.1085], [-77.7176, -10.0922], [-77.7219, -10.0787], [-77.7192, -10.0634], [-77.71, -10.0524], [-77.735, -10.0426], [-77.7504, -10.0454], [-77.7705, -10.0251], [-77.775, -10.0014], [-77.7694, -9.9909], [-77.7639, -9.9899], [-77.7506, -10.0062], [-77.7352, -10.0075], [-77.7275, -10.0138], [-77.6954, -10.0153], [-77.6831, -10.0211], [-77.6319, -10.0223], [-77.6287, -9.9983], [-77.6202, -9.9771], [-77.6117, -9.9746], [-77.6082, -9.9501], [-77.5982, -9.9422], [-77.5954, -9.9316], [-77.5783, -9.9092], [-77.5581, -9.8936], [-77.5503, -9.8791], [-77.5574, -9.8691], [-77.5761, -9.8724], [-77.5838, -9.8647], [-77.5976, -9.8652], [-77.6059, -9.8604], [-77.6214, -9.8678], [-77.6296, -9.8589], [-77.6413, -9.856], [-77.6643, -9.8649], [-77.7036, -9.8484], [-77.7121, -9.8371], [-77.7379, -9.8484], [-77.7472, -9.8622], [-77.7637, -9.8724], [-77.7656, -9.8897], [-77.7745, -9.8911], [-77.7798, -9.9051], [-77.7982, -9.9086], [-77.8138, -9.9058], [-77.8259, -9.9143], [-77.8299, -9.8872], [-77.8269, -9.8781], [-77.8437, -9.8441], [-77.8327, -9.8407], [-77.8337, -9.8363], [-77.8539, -9.8171], [-77.8754, -9.8112], [-77.8997, -9.8228], [-77.9085, -9.8217], [-77.9329, -9.8075], [-77.9614, -9.7802]]]}}, {"type": "Feature", "properties": {"osm_type": "relation", "osm_id": 807771366, "name": "Huaylas", "admin_level": "6", "kind": "subdivision_2", "parent_osm_id": 1953170, "parent_name": "Ancash", "parent_iso": "PE-ANC"}, "geometry": {"type": "Polygon", "coordinates": [[[-77.972, -8.692], [-77.9865, -8.695], [-77.9955, -8.7071], [-78.0153, -8.7617], [-77.9974, -8.796], [-77.9915, -8.7994], [-77.9951, -8.8077], [-77.9889, -8.8271], [-78.0008, -8.8419], [-77.986, -8.8484], [-77.9785, -8.8734], [-77.9834, -8.8804], [-77.9621, -8.8907], [-77.9567, -8.9067], [-77.9417, -8.9208], [-77.9403, -8.9267], [-77.9457, -8.9303], [-77.9557, -8.9548], [-77.9421, -8.9687], [-77.9424, -8.9786], [-77.9555, -8.9817], [-77.9799, -9.0127], [-77.9972, -9.0172], [-78.024, -9.0603], [-78.0606, -9.0889], [-78.0567, -9.1012], [-78.0621, -9.129], [-78.0507, -9.1417], [-78.0359, -9.1454], [-78.0263, -9.1653], [-78.0163, -9.1672], [-78.0476, -9.1769], [-78.0738, -9.1723], [-78.0654, -9.199], [-78.0696, -9.2109], [-78.0604, -9.2215], [-78.059, -9.2312], [-78.0351, -9.2457], [-78.0093, -9.2478], [-78.0, -9.2433], [-77.9765, -9.2432], [-77.9712, -9.2505], [-77.9585, -9.254], [-77.9499, -9.2468], [-77.9278, -9.2461], [-77.9182, -9.2522], [-77.9034, -9.2528], [-77.8951, -9.2615], [-77.8861, -9.2598], [-77.8767, -9.2504], [-77.8613, -9.2512], [-77.8395, -9.2176], [-77.8171, -9.2204], [-77.8155, -9.2266], [-77.8046, -9.2241], [-77.7975, -9.2292], [-77.7823, -9.2172], [-77.7772, -9.1815], [-77.784, -9.1186], [-77.773, -9.1017], [-77.7829, -9.0832], [-77.7706, -9.0809], [-77.745, -9.0641], [-77.733, -9.0639], [-77.7274, -9.0704], [-77.6978, -9.0558], [-77.6809, -9.033], [-77.6695, -9.0348], [-77.6556, -9.0187], [-77.6324, -9.0098], [-77.6293, -9.0015], [-77.6146, -8.9938], [-77.6207, -8.9757], [-77.6136, -8.9565], [-77.6034, -8.9423], [-77.5879, -8.9408], [-77.582, -8.9313], [-77.5832, -8.9171], [-77.5743, -8.9004], [-77.5878, -8.8874], [-77.6046, -8.8867], [-77.6083, -8.8722], [-77.6004, -8.8701], [-77.5949, -8.8548], [-77.5976, -8.8338], [-77.5815, -8.8189], [-77.5804, -8.8112], [-77.5897, -8.7933], [-77.5848, -8.7845], [-77.5868, -8.7772], [-77.5812, -8.7711], [-77.6014, -8.745], [-77.615, -8.751], [-77.6268, -8.7378], [-77.6418, -8.7317], [-77.6454, -8.7244], [-77.6557, -8.7235], [-77.6638, -8.705], [-77.6726, -8.7008], [-77.6717, -8.693], [-77.7207, -8.6565], [-77.7302, -8.6553], [-77.737, -8.6619], [-77.7487, -8.6592], [-77.7723, -8.6739], [-77.7921, -8.6613], [-77.811, -8.662], [-77.8404, -8.6767], [-77.88, -8.684], [-77.8899, -8.7066], [-77.9051, -8.7149], [-77.913, -8.7321], [-77.9099, -8.7392], [-77.9203, -8.7476], [-77.9407, -8.7285], [-77.9561, -8.6994], [-77.972, -8.692]]]}}, {"type": "Feature", "properties": {"osm_type": "relation", "osm_id": 843959044, "name": "Mariscal Luzuriaga", "admin_level": "6", "kind": "subdivision_2", "parent_osm_id": 1953170, "parent_name": "Ancash", "parent_iso": "PE-ANC"}, "geometry": {"type": "Polygon", "coordinates": [[[-77.1595, -8.8971], [-77.1651, -8.8808], [-77.1726, -8.8764], [-77.17, -8.8575], [-77.1771, -8.8483], [-77.1748, -8.8336], [-77.1957, -8.815], [-77.2065, -8.7816], [-77.2258, -8.7669], [-77.2271, -8.7437], [-77.2482, -8.7273], [-77.2474, -8.7128], [-77.2618, -8.7147], [-77.2808, -8.7031], [-77.3087, -8.727], [-77.3202, -8.732], [-77.3293, -8.7305], [-77.3868, -8.7635], [-77.395, -8.7701], [-77.3896, -8.7762], [-77.4005, -8.7953], [-77.4157, -8.8069], [-77.4379, -8.8135], [-77.4382, -8.8246], [-77.4471, -8.8383], [-77.3925, -8.881], [-77.3678, -8.9086], [-77.3704, -8.9109], [-77.3923, -8.9045], [-77.4058, -8.9133], [-77.4384, -8.9142], [-77.4472, -8.9089], [-77.471, -8.9118], [-77.4865, -8.9056], [-77.5148, -8.9234], [-77.5228, -8.9174], [-77.5271, -8.9042], [-77.5384, -8.9008], [-77.5635, -8.9034], [-77.544, -8.9313], [-77.5471, -8.9483], [-77.5619, -8.9537], [-77.5514, -8.9891], [-77.5179, -9.0052], [-77.4877, -9.0077], [-77.4694, -8.9964], [-77.4457, -8.9901], [-77.3896, -8.9957], [-77.3595, -8.9772], [-77.359, -8.9706], [-77.3455, -8.9558], [-77.3378, -8.9575], [-77.3205, -8.9454], [-77.3035, -8.9487], [-77.2675, -8.9445], [-77.2323, -8.9252], [-77.1747, -8.9268], [-77.1595, -8.8971]]]}}, {"type": "Feature", "properties": {"osm_type": "relation", "osm_id": 718972720, "name": "Ocros", "admin_level": "6", "kind": "subdivision_2", "parent_osm_id": 1953170, "parent_name": "Ancash", "parent_iso": "PE-ANC"}, "geometry": {"type": "Polygon", "coordinates": [[[-77.3857, -10.7078], [-77.4038, -10.691], [-77.3953, -10.6615], [-77.3889, -10.6577], [-77.3801, -10.6394], [-77.3673, -10.6383], [-77.3383, -10.5961], [-77.3205, -10.5879], [-77.3106, -10.5677], [-77.2917, -10.5563], [-77.2778, -10.5563], [-77.2719, -10.5611], [-77.2673, -10.5505], [-77.2519, -10.5452], [-77.2258, -10.546], [-77.2093, -10.5554], [-77.1975, -10.5552], [-77.1911, -10.5523], [-77.1806, -10.5333], [-77.1816, -10.5245], [-77.1708, -10.5173], [-77.1673, -10.5081], [-77.1684, -10.4925], [-77.1859, -10.4737], [-77.1893, -10.4579], [-77.1722, -10.444], [-77.1744, -10.405], [-77.1582, -10.3619], [-77.1995, -10.3368], [-77.2171, -10.3404], [-77.2289, -10.331], [-77.231, -10.317], [-77.2412, -10.305], [-77.236, -10.298], [-77.2438, -10.2672], [-77.2588, -10.253], [-77.2698, -10.2575], [-77.2755, -10.2664], [-77.2907, -10.2687], [-77.3011, -10.2848], [-77.3058, -10.2737], [-77.3155, -10.2704], [-77.3271, -10.2562], [-77.3595, -10.292], [-77.3991, -10.272], [-77.4068, -10.2718], [-77.411, -10.2779], [-77.4363, -10.2728], [-77.45, -10.2777], [-77.4625, -10.2757], [-77.4693, -10.2873], [-77.4663, -10.2956], [-77.4782, -10.3072], [-77.4815, -10.3462], [-77.5002, -10.3478], [-77.5029, -10.3575], [-77.5163, -10.3635], [-77.5227, -10.3872], [-77.5611, -10.3902], [-77.5994, -10.3833], [-77.6346, -10.4123], [-77.6453, -10.4087], [-77.6528, -10.4162], [-77.663, -10.4183], [-77.6658, -10.4271], [-77.6839, -10.4314], [-77.6893, -10.4408], [-77.6882, -10.4538], [-77.7014, -10.4688], [-77.7073, -10.4891], [-77.7124, -10.4917], [-77.7106, -10.5038], [-77.7206, -10.503], [-77.7219, -10.5119], [-77.7379, -10.5208], [-77.745, -10.5339], [-77.7448, -10.5608], [-77.7357, -10.5685], [-77.7276, -10.5527], [-77.7101, -10.5602], [-77.7088, -10.5481], [-77.694, -10.5395], [-77.6692, -10.5406], [-77.662, -10.5323], [-77.6514, -10.5301], [-77.6411, -10.5139], [-77.6333, -10.5158], [-77.6247, -10.502], [-77.6013, -10.5093], [-77.6009, -10.5188], [-77.6163, -10.5247], [-77.6146, -10.5464], [-77.6382, -10.563], [-77.6395, -10.5776], [-77.6453, -10.5829], [-77.6382, -10.6029], [-77.6195, -10.6142], [-77.6193, -10.6023], [-77.6049, -10.5901], [-77.5846, -10.5838], [-77.5767, -10.5837], [-77.5743, -10.5884], [-77.5741, -10.6147], [-77.5827, -10.6219], [-77.583, -10.6389], [-77.5906, -10.6456], [-77.5754, -10.6589], [-77.5745, -10.6943], [-77.5631, -10.7094], [-77.5784, -10.7227], [-77.5888, -10.7577], [-77.5852, -10.7642], [-77.593, -10.7775], [-77.5912, -10.7864], [-77.5239, -10.735], [-77.5083, -10.7341], [-77.495, -10.7461], [-77.4859, -10.7451], [-77.4361, -10.7236], [-77.4276, -10.7295], [-77.4154, -10.73], [-77.3857, -10.7078]]]}}, {"type": "Feature", "properties": {"osm_type": "relation", "osm_id": 610683404, "name": "Pallasca", "admin_level": "6", "kind": "subdivision_2", "parent_osm_id": 1953170, "parent_name": "Ancash", "parent_iso": "PE-ANC"}, "geometry": {"type": "Polygon", "coordinates": [[[-77.7989, -8.3812], [-77.7615, -8.3694], [-77.7601, -8.3639], [-77.7442, -8.3627], [-77.737, -8.3462], [-77.7195, -8.3393], [-77.7231, -8.3309], [-77.7032, -8.3076], [-77.6875, -8.3041], [-77.6713, -8.3128], [-77.6597, -8.308], [-77.6586, -8.3013], [-77.6433, -8.2887], [-77.6349, -8.2688], [-77.612, -8.2687], [-77.5759, -8.2603], [-77.5663, -8.2477], [-77.5658, -8.2372], [-77.5753, -8.2301], [-77.5733, -8.2125], [-77.5569, -8.1942], [-77.5757, -8.168], [-77.6054, -8.1552], [-77.6081, -8.1473], [-77.6021, -8.1359], [-77.6166, -8.1312], [-77.6233, -8.1186], [-77.6367, -8.1086], [-77.6188, -8.0798], [-77.6233, -8.0735], [-77.6439, -8.0666], [-77.6474, -8.0497], [-77.6837, -8.0628], [-77.691, -8.0604], [-77.7183, -8.0734], [-77.7434, -8.0702], [-77.7513, -8.0774], [-77.7858, -8.0792], [-77.7958, -8.071], [-77.8104, -8.0677], [-77.8333, -8.0757], [-77.8497, -8.0753], [-77.8679, -8.0559], [-77.8835, -8.0637], [-77.8969, -8.0632], [-77.9045, -8.105], [-77.9267, -8.1575], [-77.9332, -8.197], [-77.9567, -8.2081], [-77.9787, -8.2105], [-77.9901, -8.2184], [-78.0186, -8.2243], [-78.0338, -8.2443], [-78.0368, -8.256], [-78.0647, -8.2709], [-78.0674, -8.2786], [-78.082, -8.2811], [-78.1022, -8.3054], [-78.1194, -8.3137], [-78.1206, -8.3187], [-78.1084, -8.3381], [-78.1225, -8.3601], [-78.1375, -8.3687], [-78.1394, -8.3897], [-78.1346, -8.3935], [-78.1406, -8.4141], [-78.1393, -8.4272], [-78.1565, -8.4625], [-78.1574, -8.4789], [-78.1694, -8.4897], [-78.1737, -8.5035], [-78.184, -8.5103], [-78.1879, -8.5081], [-78.2026, -8.5261], [-78.2169, -8.5569], [-78.2151, -8.5657], [-78.2079, -8.5661], [-78.2017, -8.5742], [-78.1936, -8.5997], [-78.2024, -8.616], [-78.2005, -8.6225], [-78.2065, -8.6322], [-78.2356, -8.6529], [-78.2323, -8.658], [-78.2161, -8.6626], [-78.2041, -8.66], [-78.1944, -8.6736], [-78.1945, -8.6879], [-78.1838, -8.6943], [-78.1637, -8.6945], [-78.1574, -8.6875], [-78.1584, -8.6756], [-78.1519, -8.6696], [-78.1343, -8.6733], [-78.1058, -8.6598], [-78.1305, -8.6171], [-78.1281, -8.6033], [-78.1218, -8.5962], [-78.0958, -8.5971], [-78.0946, -8.5894], [-78.0785, -8.5796], [-78.0777, -8.5689], [-78.0577, -8.5614], [-78.0518, -8.5636], [-78.037, -8.5545], [-78.0294, -8.5421], [-77.9919, -8.5317], [-77.9828, -8.5118], [-77.9683, -8.5041], [-77.9682, -8.4923], [-77.9759, -8.4758], [-77.949, -8.4808], [-77.9347, -8.4593], [-77.9339, -8.4493], [-77.9163, -8.458], [-77.8975, -8.4406], [-77.8812, -8.4405], [-77.8765, -8.3978], [-77.8607, -8.3934], [-77.8528, -8.4033], [-77.8278, -8.3887], [-77.8116, -8.3867], [-77.8025, -8.379], [-77.7989, -8.3812]]]}}, {"type": "Feature", "properties": {"osm_type": "relation", "osm_id": 596422191, "name": "Pomabamba", "admin_level": "6", "kind": "subdivision_2", "parent_osm_id": 1953170, "parent_name": "Ancash", "parent_iso": "PE-ANC"}, "geometry": {"type": "Polygon", "coordinates": [[[-77.5743, -8.9004], [-77.5271, -8.9042], [-77.5228, -8.9174], [-77.5148, -8.9234], [-77.4865, -8.9056], [-77.471, -8.9118], [-77.4472, -8.9089], [-77.4384, -8.9142], [-77.4058, -8.9133], [-77.3923, -8.9045], [-77.3746, -8.912], [-77.3678, -8.9086], [-77.3925, -8.881], [-77.4471, -8.8383], [-77.4382, -8.8246], [-77.4379, -8.8135], [-77.4157, -8.8069], [-77.4005, -8.7953], [-77.3896, -8.7762], [-77.395, -8.7701], [-77.3868, -8.7635], [-77.3293, -8.7305], [-77.3202, -8.732], [-77.3087, -8.727], [-77.2808, -8.7031], [-77.2618, -8.7147], [-77.2474, -8.7128], [-77.2518, -8.6828], [-77.2617, -8.6653], [-77.2606, -8.6485], [-77.2851, -8.6443], [-77.2936, -8.637], [-77.2887, -8.5898], [-77.2969, -8.5791], [-77.2963, -8.5706], [-77.311, -8.5559], [-77.3154, -8.5441], [-77.3127, -8.5303], [-77.3349, -8.533], [-77.3476, -8.5176], [-77.366, -8.5071], [-77.4312, -8.5487], [-77.446, -8.5708], [-77.4649, -8.5808], [-77.4757, -8.5762], [-77.4877, -8.5881], [-77.5016, -8.6144], [-77.5051, -8.6512], [-77.5018, -8.6681], [-77.486, -8.6834], [-77.4975, -8.6979], [-77.5229, -8.6954], [-77.5417, -8.7032], [-77.5622, -8.7278], [-77.572, -8.7285], [-77.586, -8.7406], [-77.5828, -8.7497], [-77.5927, -8.7577], [-77.5812, -8.7711], [-77.5868, -8.7772], [-77.5848, -8.7845], [-77.5897, -8.7933], [-77.5804, -8.8146], [-77.5976, -8.8338], [-77.5949, -8.8548], [-77.6004, -8.8701], [-77.6083, -8.8722], [-77.6046, -8.8867], [-77.5878, -8.8874], [-77.5743, -8.9004]]]}}, {"type": "Feature", "properties": {"osm_type": "relation", "osm_id": 731359177, "name": "Recuay", "admin_level": "6", "kind": "subdivision_2", "parent_osm_id": 1953170, "parent_name": "Ancash", "parent_iso": "PE-ANC"}, "geometry": {"type": "Polygon", "coordinates": [[[-77.5525, -9.8722], [-77.5503, -9.8791], [-77.5581, -9.8936], [-77.5783, -9.9092], [-77.5954, -9.9316], [-77.5982, -9.9422], [-77.6082, -9.9501], [-77.6117, -9.9746], [-77.6202, -9.9771], [-77.6287, -9.9983], [-77.6319, -10.0223], [-77.6831, -10.0211], [-77.6954, -10.0153], [-77.7275, -10.0138], [-77.7352, -10.0075], [-77.7506, -10.0062], [-77.7639, -9.9899], [-77.7694, -9.9909], [-77.775, -10.0014], [-77.7705, -10.0251], [-77.7504, -10.0454], [-77.735, -10.0426], [-77.71, -10.0524], [-77.7192, -10.0634], [-77.7219, -10.0787], [-77.7176, -10.0922], [-77.6997, -10.1085], [-77.6981, -10.1437], [-77.6933, -10.146], [-77.6722, -10.1397], [-77.6574, -10.1469], [-77.6765, -10.2001], [-77.6671, -10.2164], [-77.6343, -10.2242], [-77.608, -10.2405], [-77.5925, -10.2368], [-77.5753, -10.2499], [-77.5612, -10.231], [-77.5539, -10.1864], [-77.5447, -10.1744], [-77.5321, -10.172], [-77.5153, -10.1474], [-77.5006, -10.1466], [-77.488, -10.1551], [-77.4587, -10.1562], [-77.4377, -10.1428], [-77.4195, -10.1413], [-77.4006, -10.1322], [-77.3933, -10.1328], [-77.3801, -10.1469], [-77.3579, -10.1512], [-77.3458, -10.1605], [-77.3352, -10.1442], [-77.3423, -10.1308], [-77.3205, -10.127], [-77.2991, -10.1384], [-77.2804, -10.1603], [-77.2746, -10.1536], [-77.2576, -10.1477], [-77.2495, -10.1365], [-77.2088, -10.1325], [-77.2047, -10.126], [-77.2101, -10.1152], [-77.2016, -10.0922], [-77.2162, -10.0868], [-77.2079, -10.0615], [-77.2244, -10.0379], [-77.2141, -10.0237], [-77.219, -10.0142], [-77.2116, -10.0034], [-77.2126, -9.985], [-77.2056, -9.967], [-77.2107, -9.9587], [-77.2234, -9.952], [-77.2161, -9.943], [-77.219, -9.9195], [-77.1891, -9.9295], [-77.1734, -9.912], [-77.1834, -9.8806], [-77.1871, -9.8362], [-77.2028, -9.8311], [-77.2066, -9.8212], [-77.2169, -9.8239], [-77.2257, -9.8066], [-77.244, -9.8076], [-77.2385, -9.7853], [-77.2455, -9.7732], [-77.2308, -9.7475], [-77.2361, -9.7258], [-77.2277, -9.7132], [-77.2303, -9.7063], [-77.2414, -9.7023], [-77.2506, -9.6919], [-77.2491, -9.6798], [-77.2697, -9.6487], [-77.2937, -9.6576], [-77.304, -9.671], [-77.3269, -9.6789], [-77.335, -9.6655], [-77.3605, -9.6715], [-77.3998, -9.6725], [-77.4244, -9.6797], [-77.4318, -9.6734], [-77.4407, -9.6775], [-77.4521, -9.6681], [-77.4642, -9.6668], [-77.4755, -9.673], [-77.4841, -9.6616], [-77.4927, -9.6656], [-77.5031, -9.6627], [-77.5102, -9.6682], [-77.5256, -9.6896], [-77.5265, -9.6998], [-77.5209, -9.7104], [-77.5251, -9.7265], [-77.5363, -9.7379], [-77.5299, -9.764], [-77.5217, -9.7746], [-77.5215, -9.7923], [-77.5069, -9.7991], [-77.5043, -9.811], [-77.489, -9.8198], [-77.4943, -9.8375], [-77.4844, -9.8396], [-77.4789, -9.8738], [-77.4911, -9.8707], [-77.5033, -9.8748], [-77.508, -9.8663], [-77.5237, -9.8681], [-77.5377, -9.8613], [-77.5525, -9.8722]]]}}, {"type": "Feature", "properties": {"osm_type": "relation", "osm_id": 899902866, "name": "Santa", "admin_level": "6", "kind": "subdivision_2", "parent_osm_id": 1953170, "parent_name": "Ancash", "parent_iso": "PE-ANC"}, "geometry": {"type": "Polygon", "coordinates": [[[-78.0561, -9.2747], [-78.0457, -9.2476], [-78.0372, -9.2437], [-78.059, -9.2312], [-78.0604, -9.2215], [-78.0678, -9.2148], [-78.0668, -9.186], [-78.0738, -9.1723], [-78.0476, -9.1769], [-78.0163, -9.1672], [-78.0263, -9.1653], [-78.0359, -9.1454], [-78.0507, -9.1417], [-78.0621, -9.129], [-78.0567, -9.1012], [-78.0606, -9.0889], [-78.024, -9.0603], [-77.9972, -9.0172], [-77.9799, -9.0127], [-77.9555, -8.9817], [-77.9424, -8.9786], [-77.9421, -8.9687], [-77.9557, -8.9548], [-77.9457, -8.9303], [-77.9403, -8.9267], [-77.9417, -8.9208], [-77.9567, -8.9067], [-77.9621, -8.8907], [-77.9834, -8.8804], [-77.9785, -8.8734], [-77.986, -8.8484], [-78.0008, -8.8419], [-77.9889, -8.8271], [-77.9951, -8.8077], [-77.9915, -8.7994], [-77.9974, -8.796], [-78.0153, -8.7617], [-77.9955, -8.7071], [-77.9865, -8.695], [-77.972, -8.692], [-77.9727, -8.6875], [-77.9897, -8.6833], [-78.0088, -8.667], [-78.0174, -8.667], [-78.0208, -8.6737], [-78.0291, -8.676], [-78.0401, -8.6718], [-78.0465, -8.6625], [-78.0558, -8.6655], [-78.0728, -8.6568], [-78.1139, -8.6618], [-78.1343, -8.6733], [-78.1519, -8.6696], [-78.1584, -8.6756], [-78.1574, -8.6875], [-78.1637, -8.6945], [-78.1838, -8.6943], [-78.1945, -8.6879], [-78.1944, -8.6736], [-78.2041, -8.66], [-78.2161, -8.6626], [-78.2323, -8.658], [-78.2356, -8.6529], [-78.2474, -8.6586], [-78.2727, -8.6563], [-78.2872, -8.6625], [-78.2963, -8.6587], [-78.3109, -8.6672], [-78.3342, -8.6665], [-78.3382, -8.676], [-78.3548, -8.6733], [-78.3792, -8.6966], [-78.4113, -8.7088], [-78.4384, -8.7327], [-78.4872, -8.7512], [-78.5009, -8.7487], [-78.5181, -8.753], [-78.5516, -8.775], [-78.5653, -8.7926], [-78.5883, -8.8587], [-78.5765, -8.889], [-78.5903, -8.9266], [-78.5899, -8.9426], [-78.6195, -8.9665], [-78.6297, -8.9709], [-78.6449, -8.9692], [-78.6441, -8.9833], [-78.6505, -8.991], [-78.6583, -8.9861], [-78.6579, -8.9959], [-78.6328, -9.0054], [-78.6211, -9.0174], [-78.6335, -9.0286], [-78.6377, -9.0477], [-78.631, -9.0575], [-78.6299, -9.0736], [-78.6226, -9.0812], [-78.6126, -9.0729], [-78.6158, -9.0804], [-78.609, -9.0751], [-78.6131, -9.0815], [-78.6047, -9.0761], [-78.5846, -9.0828], [-78.5609, -9.1171], [-78.5594, -9.1506], [-78.5704, -9.1707], [-78.5838, -9.1696], [-78.5854, -9.1639], [-78.5979, -9.1673], [-78.6099, -9.1601], [-78.6055, -9.1712], [-78.6102, -9.1762], [-78.6031, -9.1754], [-78.6011, -9.186], [-78.59, -9.1957], [-78.577, -9.1947], [-78.5838, -9.2034], [-78.58, -9.2074], [-78.5759, -9.2052], [-78.5762, -9.2138], [-78.5677, -9.2167], [-78.5694, -9.2238], [-78.5539, -9.2351], [-78.5597, -9.2098], [-78.5568, -9.2035], [-78.5664, -9.1936], [-78.5622, -9.1817], [-78.5332, -9.1746], [-78.5091, -9.18], [-78.4875, -9.2023], [-78.4847, -9.2185], [-78.4918, -9.2509], [-78.4975, -9.2579], [-78.5079, -9.2577], [-78.5174, -9.271], [-78.5249, -9.2686], [-78.5255, -9.2746], [-78.5124, -9.2771], [-78.4989, -9.2869], [-78.4966, -9.2962], [-78.5016, -9.296], [-78.5018, -9.3003], [-78.495, -9.3054], [-78.4983, -9.312], [-78.4928, -9.3104], [-78.4867, -9.3218], [-78.4795, -9.3219], [-78.4813, -9.3333], [-78.4722, -9.3288], [-78.4746, -9.3179], [-78.4609, -9.3162], [-78.4567, -9.3274], [-78.4429, -9.327], [-78.4377, -9.3418], [-78.4358, -9.3369], [-78.432, -9.3427], [-78.4254, -9.3413], [-78.4268, -9.3511], [-78.4117, -9.3534], [-78.3897, -9.3266], [-78.3836, -9.3262], [-78.3858, -9.3053], [-78.3715, -9.2872], [-78.3619, -9.2641], [-78.336, -9.2631], [-78.3371, -9.2503], [-78.3275, -9.2483], [-78.2994, -9.2163], [-78.2811, -9.2228], [-78.2771, -9.2136], [-78.2678, -9.211], [-78.2608, -9.2009], [-78.2414, -9.205], [-78.2328, -9.2119], [-78.2113, -9.209], [-78.1971, -9.2196], [-78.1965, -9.2261], [-78.1755, -9.247], [-78.1553, -9.2511], [-78.1424, -9.2686], [-78.1157, -9.2573], [-78.1064, -9.2645], [-78.082, -9.2648], [-78.0561, -9.2747]]]}}, {"type": "Feature", "properties": {"osm_type": "relation", "osm_id": 777611886, "name": "Sihuas", "admin_level": "6", "kind": "subdivision_2", "parent_osm_id": 1953170, "parent_name": "Ancash", "parent_iso": "PE-ANC"}, "geometry": {"type": "Polygon", "coordinates": [[[-77.7207, -8.6565], [-77.6717, -8.693], [-77.6726, -8.7008], [-77.6638, -8.705], [-77.6557, -8.7235], [-77.6454, -8.7244], [-77.6418, -8.7317], [-77.6268, -8.7378], [-77.615, -8.751], [-77.6014, -8.745], [-77.5927, -8.7577], [-77.5828, -8.7497], [-77.586, -8.7406], [-77.572, -8.7285], [-77.5622, -8.7278], [-77.5417, -8.7032], [-77.5229, -8.6954], [-77.4975, -8.6979], [-77.486, -8.6834], [-77.5018, -8.6681], [-77.5051, -8.6512], [-77.5016, -8.6144], [-77.4877, -8.5881], [-77.4757, -8.5762], [-77.4649, -8.5808], [-77.446, -8.5708], [-77.4312, -8.5487], [-77.366, -8.5071], [-77.3682, -8.5003], [-77.3882, -8.4932], [-77.4, -8.4826], [-77.3991, -8.4597], [-77.4059, -8.4409], [-77.4183, -8.4396], [-77.4384, -8.4223], [-77.4375, -8.4011], [-77.4488, -8.3807], [-77.447, -8.3694], [-77.4533, -8.3567], [-77.4593, -8.3556], [-77.4589, -8.3357], [-77.4783, -8.3261], [-77.4736, -8.3205], [-77.4876, -8.3035], [-77.4914, -8.2826], [-77.5045, -8.2737], [-77.5276, -8.2671], [-77.5267, -8.2507], [-77.5359, -8.241], [-77.5658, -8.2372], [-77.5663, -8.2477], [-77.5759, -8.2603], [-77.612, -8.2687], [-77.6349, -8.2688], [-77.6433, -8.2887], [-77.6586, -8.3013], [-77.6597, -8.308], [-77.6713, -8.3128], [-77.6875, -8.3041], [-77.7032, -8.3076], [-77.7231, -8.3309], [-77.7195, -8.3393], [-77.737, -8.3462], [-77.7442, -8.3627], [-77.7601, -8.3639], [-77.7615, -8.3694], [-77.7989, -8.3812], [-77.7822, -8.4032], [-77.774, -8.3958], [-77.7592, -8.4034], [-77.7606, -8.4104], [-77.7552, -8.4187], [-77.7651, -8.4281], [-77.7645, -8.4416], [-77.7414, -8.46], [-77.7358, -8.4775], [-77.7183, -8.4897], [-77.715, -8.5025], [-77.703, -8.5109], [-77.7112, -8.5199], [-77.7081, -8.5296], [-77.7142, -8.5404], [-77.6913, -8.5568], [-77.6887, -8.5764], [-77.7092, -8.5863], [-77.7093, -8.592], [-77.6957, -8.6023], [-77.7086, -8.6123], [-77.7018, -8.6275], [-77.7136, -8.6318], [-77.7207, -8.6565]]]}}, {"type": "Feature", "properties": {"osm_type": "relation", "osm_id": 465971566, "name": "Yungay", "admin_level": "6", "kind": "subdivision_2", "parent_osm_id": 1953170, "parent_name": "Ancash", "parent_iso": "PE-ANC"}, "geometry": {"type": "Polygon", "coordinates": [[[-77.362, -9.065], [-77.3575, -9.0585], [-77.3628, -9.0388], [-77.3642, -8.9863], [-77.3595, -8.9772], [-77.3896, -8.9957], [-77.4457, -8.9901], [-77.4694, -8.9964], [-77.4877, -9.0077], [-77.5179, -9.0052], [-77.554, -8.9858], [-77.5619, -8.9537], [-77.5471, -8.9483], [-77.544, -8.9313], [-77.5596, -8.9067], [-77.5743, -8.9004], [-77.5832, -8.9171], [-77.582, -8.9313], [-77.5879, -8.9408], [-77.6034, -8.9423], [-77.6136, -8.9565], [-77.6207, -8.9757], [-77.6146, -8.9938], [-77.6293, -9.0015], [-77.6324, -9.0098], [-77.6556, -9.0187], [-77.6695, -9.0348], [-77.6809, -9.033], [-77.6978, -9.0558], [-77.7196, -9.0671], [-77.7274, -9.0704], [-77.733, -9.0639], [-77.7431, -9.0635], [-77.7706, -9.0809], [-77.7829, -9.0832], [-77.773, -9.1017], [-77.784, -9.1186], [-77.7773, -9.186], [-77.7823, -9.2172], [-77.7898, -9.2246], [-77.7975, -9.2292], [-77.8046, -9.2241], [-77.8155, -9.2266], [-77.8171, -9.2204], [-77.8395, -9.2176], [-77.8613, -9.2512], [-77.8767, -9.2504], [-77.8861, -9.2598], [-77.8951, -9.2615], [-77.9034, -9.2528], [-77.9182, -9.2522], [-77.9278, -9.2461], [-77.9499, -9.2468], [-77.9585, -9.254], [-77.9712, -9.2505], [-77.9765, -9.2432], [-78.0234, -9.2484], [-78.0431, -9.2445], [-78.0623, -9.2924], [-78.0537, -9.3104], [-78.0539, -9.3236], [-78.0604, -9.3347], [-78.0536, -9.3368], [-78.0289, -9.3646], [-78.0157, -9.3683], [-78.0033, -9.381], [-78.0332, -9.4087], [-78.0293, -9.4196], [-77.9929, -9.4466], [-77.9676, -9.4263], [-77.9552, -9.4226], [-77.9327, -9.3949], [-77.9282, -9.4095], [-77.9099, -9.4366], [-77.901, -9.4422], [-77.8924, -9.4294], [-77.857, -9.4027], [-77.8341, -9.4259], [-77.7665, -9.4221], [-77.7604, -9.4149], [-77.7658, -9.4001], [-77.7567, -9.3948], [-77.7427, -9.3594], [-77.7477, -9.3504], [-77.7708, -9.3344], [-77.7755, -9.3233], [-77.7765, -9.3147], [-77.7671, -9.2933], [-77.744, -9.2903], [-77.7251, -9.277], [-77.7135, -9.2466], [-77.7035, -9.2419], [-77.701, -9.2338], [-77.6893, -9.2242], [-77.6806, -9.2465], [-77.6726, -9.2391], [-77.6648, -9.243], [-77.6573, -9.2184], [-77.6441, -9.1973], [-77.6173, -9.2148], [-77.5908, -9.1715], [-77.5888, -9.1557], [-77.5932, -9.1344], [-77.604, -9.1204], [-77.5995, -9.1067], [-77.5724, -9.0858], [-77.5381, -9.0819], [-77.5303, -9.0829], [-77.5237, -9.0954], [-77.5157, -9.0951], [-77.5, -9.1063], [-77.4805, -9.1066], [-77.4658, -9.1002], [-77.4563, -9.0877], [-77.4487, -9.0867], [-77.4349, -9.0579], [-77.3903, -9.0568], [-77.362, -9.065]]]}}]}