{"type": "FeatureCollection", "parent": {"osm_id": 1954493, "name": "Huánuco", "admin_level": "4", "kind": "subdivision_1", "child_kind": "subdivision_2", "iso": "PE-HUC"}, "features": [{"type": "Feature", "properties": {"osm_type": "relation", "osm_id": 769792994, "name": "Ambo", "admin_level": "6", "kind": "subdivision_2", "parent_osm_id": 1954493, "parent_name": "Huánuco", "parent_iso": "PE-HUC"}, "geometry": {"type": "Polygon", "coordinates": [[[-76.1362, -9.9863], [-76.1642, -9.9813], [-76.1889, -10.0066], [-76.2127, -10.0096], [-76.2295, -10.0175], [-76.2266, -10.023], [-76.2337, -10.0311], [-76.2288, -10.0368], [-76.2533, -10.0505], [-76.2627, -10.0628], [-76.2927, -10.0753], [-76.3476, -10.1259], [-76.3547, -10.1219], [-76.3694, -10.1308], [-76.3683, -10.1426], [-76.3736, -10.1506], [-76.3975, -10.1436], [-76.4033, -10.1359], [-76.4106, -10.1371], [-76.4164, -10.1491], [-76.411, -10.1787], [-76.4302, -10.2004], [-76.429, -10.217], [-76.4361, -10.2335], [-76.4497, -10.2142], [-76.4475, -10.1873], [-76.455, -10.1556], [-76.4612, -10.1492], [-76.4805, -10.1569], [-76.4879, -10.1508], [-76.493, -10.1554], [-76.51, -10.1523], [-76.5138, -10.1609], [-76.5048, -10.1791], [-76.5176, -10.1871], [-76.5247, -10.2193], [-76.5123, -10.2424], [-76.5175, -10.2726], [-76.5129, -10.2918], [-76.4969, -10.3099], [-76.4726, -10.3099], [-76.4492, -10.3162], [-76.4468, -10.3209], [-76.4249, -10.3192], [-76.4007, -10.3084], [-76.3872, -10.2893], [-76.3645, -10.2995], [-76.353, -10.2966], [-76.3431, -10.286], [-76.3358, -10.2863], [-76.3258, -10.3055], [-76.3307, -10.3161], [-76.3169, -10.3402], [-76.3234, -10.3596], [-76.3059, -10.4122], [-76.2983, -10.4097], [-76.2853, -10.4164], [-76.2747, -10.4025], [-76.2782, -10.3947], [-76.2728, -10.3891], [-76.2685, -10.3687], [-76.2321, -10.3888], [-76.2256, -10.3969], [-76.2309, -10.3718], [-76.2028, -10.3776], [-76.2072, -10.3887], [-76.1854, -10.3955], [-76.1719, -10.4115], [-76.1643, -10.414], [-76.152, -10.4083], [-76.1413, -10.4093], [-76.1296, -10.4308], [-76.1188, -10.4264], [-76.1042, -10.4355], [-76.0929, -10.4293], [-76.0783, -10.4342], [-76.0743, -10.441], [-76.0783, -10.452], [-76.0513, -10.4649], [-76.0477, -10.4567], [-76.0317, -10.4559], [-76.0324, -10.4316], [-76.0258, -10.4256], [-76.0319, -10.4143], [-76.029, -10.406], [-76.0401, -10.396], [-76.0332, -10.3841], [-76.0413, -10.3737], [-76.0368, -10.3546], [-76.0423, -10.3304], [-76.0662, -10.3166], [-76.0466, -10.3067], [-76.05, -10.2691], [-76.035, -10.2583], [-76.0412, -10.2493], [-76.0425, -10.2286], [-76.0596, -10.2179], [-76.0548, -10.2045], [-76.0674, -10.1952], [-76.0618, -10.1902], [-76.0534, -10.1581], [-76.0548, -10.1403], [-76.0647, -10.1324], [-76.0417, -10.112], [-76.0408, -10.1049], [-76.0484, -10.0961], [-76.0647, -10.0915], [-76.0724, -10.0948], [-76.0738, -10.0864], [-76.0885, -10.0788], [-76.1047, -10.0726], [-76.1174, -10.0757], [-76.124, -10.071], [-76.1173, -10.0497], [-76.1273, -10.0366], [-76.124, -10.0146], [-76.1356, -10.0018], [-76.1362, -9.9863]]]}}, {"type": "Feature", "properties": {"osm_type": "relation", "osm_id": 238305394, "name": "Dos de Mayo", "admin_level": "6", "kind": "subdivision_2", "parent_osm_id": 1954493, "parent_name": "Huánuco", "parent_iso": "PE-HUC"}, "geometry": {"type": "Polygon", "coordinates": [[[-76.824, -10.011], [-76.8055, -10.0021], [-76.8005, -10.0065], [-76.7902, -10.0052], [-76.7733, -9.9944], [-76.7799, -9.957], [-76.7691, -9.9537], [-76.7623, -9.9401], [-76.757, -9.9384], [-76.7511, -9.9448], [-76.7363, -9.9345], [-76.7301, -9.9207], [-76.7335, -9.9118], [-76.7201, -9.8984], [-76.7267, -9.8821], [-76.7408, -9.8698], [-76.758, -9.8425], [-76.7498, -9.8367], [-76.7357, -9.7914], [-76.7358, -9.753], [-76.7021, -9.747], [-76.703, -9.7373], [-76.7147, -9.7282], [-76.723, -9.7114], [-76.7228, -9.7038], [-76.7037, -9.6898], [-76.6897, -9.7015], [-76.679, -9.6864], [-76.664, -9.6773], [-76.6447, -9.6877], [-76.6304, -9.6851], [-76.6188, -9.6754], [-76.6096, -9.6784], [-76.5981, -9.6725], [-76.5589, -9.6827], [-76.5359, -9.676], [-76.5263, -9.6656], [-76.5183, -9.6692], [-76.5153, -9.6765], [-76.4982, -9.6739], [-76.4923, -9.6808], [-76.477, -9.6739], [-76.468, -9.685], [-76.4716, -9.6928], [-76.463, -9.707], [-76.4497, -9.7078], [-76.445, -9.7026], [-76.438, -9.706], [-76.4266, -9.6722], [-76.4125, -9.6666], [-76.4137, -9.6405], [-76.4094, -9.6286], [-76.3964, -9.6081], [-76.3655, -9.5787], [-76.3598, -9.5648], [-76.3607, -9.5468], [-76.3427, -9.5298], [-76.314, -9.5166], [-76.2721, -9.5255], [-76.2493, -9.5206], [-76.2333, -9.5094], [-76.2134, -9.5077], [-76.2032, -9.4967], [-76.199, -9.4745], [-76.2015, -9.4516], [-76.2103, -9.4399], [-76.2671, -9.3962], [-76.2974, -9.3885], [-76.3089, -9.3907], [-76.3151, -9.3948], [-76.3118, -9.4182], [-76.3269, -9.4188], [-76.3397, -9.4264], [-76.3467, -9.4235], [-76.3714, -9.4431], [-76.3778, -9.4879], [-76.3855, -9.4964], [-76.4151, -9.4999], [-76.428, -9.5069], [-76.4354, -9.5028], [-76.4489, -9.5059], [-76.4583, -9.4986], [-76.4709, -9.5061], [-76.4866, -9.5073], [-76.4936, -9.5261], [-76.5004, -9.5256], [-76.5062, -9.5327], [-76.5244, -9.5272], [-76.5412, -9.54], [-76.5628, -9.5407], [-76.583, -9.5521], [-76.5945, -9.5452], [-76.6087, -9.5508], [-76.6209, -9.5473], [-76.6506, -9.555], [-76.6598, -9.5522], [-76.6739, -9.5609], [-76.6968, -9.5577], [-76.7106, -9.5683], [-76.7432, -9.5791], [-76.7414, -9.5857], [-76.7276, -9.5957], [-76.7364, -9.6039], [-76.7378, -9.6156], [-76.7433, -9.6147], [-76.7526, -9.5873], [-76.7613, -9.6176], [-76.7817, -9.6204], [-76.8088, -9.6126], [-76.8092, -9.628], [-76.8226, -9.6332], [-76.8346, -9.6253], [-76.8396, -9.6367], [-76.8613, -9.6432], [-76.8507, -9.6604], [-76.8517, -9.6681], [-76.8624, -9.6637], [-76.8715, -9.6755], [-76.8826, -9.668], [-76.8903, -9.6745], [-76.8961, -9.6567], [-76.9084, -9.6535], [-76.9164, -9.6884], [-76.9462, -9.6802], [-76.9454, -9.7026], [-76.9347, -9.72], [-76.9342, -9.7295], [-76.9174, -9.7437], [-76.9119, -9.7637], [-76.9016, -9.7697], [-76.8978, -9.8093], [-76.8723, -9.851], [-76.8693, -9.8604], [-76.873, -9.8638], [-76.842, -9.9109], [-76.8419, -9.9306], [-76.829, -9.9384], [-76.8138, -9.9601], [-76.8177, -9.9785], [-76.8256, -9.9893], [-76.824, -10.011]]]}}, {"type": "Feature", "properties": {"osm_type": "relation", "osm_id": 653026925, "name": "Huacaybamba", "admin_level": "6", "kind": "subdivision_2", "parent_osm_id": 1954493, "parent_name": "Huánuco", "parent_iso": "PE-HUC"}, "geometry": {"type": "Polygon", "coordinates": [[[-76.945, -9.0744], [-76.9279, -9.0711], [-76.9157, -9.0765], [-76.8968, -9.099], [-76.8707, -9.1133], [-76.849, -9.115], [-76.8182, -9.1272], [-76.8045, -9.1111], [-76.7932, -9.0868], [-76.7764, -9.0734], [-76.7742, -9.0666], [-76.7789, -9.0544], [-76.7745, -9.0533], [-76.7673, -9.0662], [-76.7719, -9.0855], [-76.7635, -9.1069], [-76.7502, -9.113], [-76.7454, -9.1068], [-76.7365, -9.1112], [-76.7159, -9.1083], [-76.6982, -9.1143], [-76.6879, -9.1237], [-76.6723, -9.1204], [-76.654, -9.1242], [-76.6114, -9.1506], [-76.5921, -9.169], [-76.5578, -9.1763], [-76.5412, -9.2033], [-76.5285, -9.2026], [-76.5098, -9.1861], [-76.496, -9.1984], [-76.4823, -9.2009], [-76.4579, -9.2205], [-76.4391, -9.2293], [-76.3959, -9.2384], [-76.3639, -9.2285], [-76.3484, -9.2049], [-76.3196, -9.1951], [-76.293, -9.2017], [-76.2721, -9.214], [-76.2777, -9.1954], [-76.3062, -9.1774], [-76.338, -9.1855], [-76.3607, -9.1973], [-76.3822, -9.1853], [-76.4059, -9.1884], [-76.4125, -9.1774], [-76.443, -9.1815], [-76.4631, -9.1697], [-76.4802, -9.1721], [-76.4734, -9.0122], [-76.4844, -9.0166], [-76.5102, -9.0164], [-76.5301, -9.0279], [-76.5432, -9.015], [-76.5541, -9.0221], [-76.5615, -9.0214], [-76.5955, -9.0484], [-76.6161, -9.0545], [-76.6258, -9.051], [-76.6526, -9.0257], [-76.6404, -9.0156], [-76.6557, -8.9946], [-76.6559, -8.9849], [-76.6713, -8.9578], [-76.685, -8.942], [-76.6832, -8.9323], [-76.6964, -8.9296], [-76.7009, -8.9151], [-76.7116, -8.9121], [-76.7132, -8.9005], [-76.7208, -8.8915], [-76.7188, -8.8859], [-76.7318, -8.8702], [-76.7449, -8.8827], [-76.7597, -8.8593], [-76.7705, -8.8627], [-76.7855, -8.8421], [-76.8058, -8.8389], [-76.811, -8.8326], [-76.8564, -8.8512], [-76.8615, -8.8659], [-76.8936, -8.8622], [-76.8978, -8.8497], [-76.9071, -8.8499], [-76.9154, -8.8409], [-76.9294, -8.8365], [-76.9372, -8.8461], [-76.964, -8.8361], [-76.9787, -8.8519], [-76.9943, -8.8412], [-77.0092, -8.8489], [-77.0171, -8.8406], [-77.0246, -8.8425], [-77.0371, -8.8344], [-77.0347, -8.8198], [-77.0517, -8.811], [-77.0822, -8.7741], [-77.0894, -8.776], [-77.1015, -8.767], [-77.1054, -8.7736], [-77.1214, -8.7753], [-77.127, -8.7817], [-77.148, -8.7771], [-77.1556, -8.7977], [-77.1502, -8.8107], [-77.1775, -8.8402], [-77.17, -8.8575], [-77.1726, -8.8764], [-77.1651, -8.8808], [-77.1595, -8.8971], [-77.154, -8.9004], [-77.1486, -8.8954], [-77.1299, -8.9179], [-77.1332, -8.9261], [-77.1241, -8.9342], [-77.1226, -8.9463], [-77.1057, -8.9492], [-77.1025, -8.9609], [-77.1102, -8.9696], [-77.0974, -8.975], [-77.0921, -8.9716], [-77.066, -8.9909], [-77.0357, -9.0], [-77.0326, -9.0142], [-77.0028, -9.0326], [-77.0005, -9.0411], [-76.982, -9.0558], [-76.9804, -9.0627], [-76.9665, -9.0604], [-76.9617, -9.0676], [-76.9507, -9.0679], [-76.945, -9.0744]]]}}, {"type": "Feature", "properties": {"osm_type": "relation", "osm_id": 404767188, "name": "Huamalies", "admin_level": "6", "kind": "subdivision_2", "parent_osm_id": 1954493, "parent_name": "Huánuco", "parent_iso": "PE-HUC"}, "geometry": {"type": "Polygon", "coordinates": [[[-76.9454, -9.7026], [-76.9462, -9.6802], [-76.9164, -9.6884], [-76.9084, -9.6535], [-76.8961, -9.6567], [-76.8903, -9.6745], [-76.8826, -9.668], [-76.8715, -9.6755], [-76.8624, -9.6637], [-76.8517, -9.6681], [-76.8507, -9.6604], [-76.8613, -9.6432], [-76.8396, -9.6367], [-76.8346, -9.6253], [-76.8226, -9.6332], [-76.8092, -9.628], [-76.8088, -9.6126], [-76.7817, -9.6204], [-76.7613, -9.6176], [-76.7526, -9.5873], [-76.7433, -9.6147], [-76.7378, -9.6156], [-76.7364, -9.6039], [-76.7276, -9.5957], [-76.7414, -9.5857], [-76.7432, -9.5791], [-76.7106, -9.5683], [-76.6968, -9.5577], [-76.6739, -9.5609], [-76.6598, -9.5522], [-76.6506, -9.555], [-76.6209, -9.5473], [-76.6087, -9.5508], [-76.5945, -9.5452], [-76.583, -9.5521], [-76.5628, -9.5407], [-76.5412, -9.54], [-76.5244, -9.5272], [-76.5062, -9.5327], [-76.5004, -9.5256], [-76.4936, -9.5261], [-76.4866, -9.5073], [-76.4709, -9.5061], [-76.4583, -9.4986], [-76.4489, -9.5059], [-76.4354, -9.5028], [-76.428, -9.5069], [-76.4151, -9.4999], [-76.3855, -9.4964], [-76.3778, -9.4879], [-76.3714, -9.4431], [-76.3467, -9.4235], [-76.3397, -9.4264], [-76.3269, -9.4188], [-76.3118, -9.4182], [-76.3126, -9.392], [-76.2974, -9.3885], [-76.2671, -9.3962], [-76.2353, -9.4182], [-76.2322, -9.3925], [-76.2241, -9.3753], [-76.2086, -9.3686], [-76.2093, -9.3608], [-76.1744, -9.3299], [-76.1604, -9.3244], [-76.1462, -9.307], [-76.1058, -9.2966], [-76.0842, -9.3048], [-76.0592, -9.2847], [-76.0568, -9.2817], [-76.0633, -9.2746], [-76.0725, -9.279], [-76.0776, -9.2389], [-76.0978, -9.2121], [-76.1055, -9.2124], [-76.1265, -9.2004], [-76.1368, -9.2061], [-76.17, -9.2006], [-76.1716, -9.2059], [-76.1863, -9.2074], [-76.1963, -9.1985], [-76.2171, -9.2025], [-76.2343, -9.1732], [-76.2289, -9.1512], [-76.2349, -9.1403], [-76.2469, -9.1514], [-76.2572, -9.1894], [-76.2721, -9.214], [-76.293, -9.2017], [-76.3196, -9.1951], [-76.3484, -9.2049], [-76.3639, -9.2285], [-76.3959, -9.2384], [-76.4391, -9.2293], [-76.4579, -9.2205], [-76.4823, -9.2009], [-76.496, -9.1984], [-76.5098, -9.1861], [-76.5285, -9.2026], [-76.5412, -9.2033], [-76.5578, -9.1763], [-76.5921, -9.169], [-76.6114, -9.1506], [-76.654, -9.1242], [-76.6723, -9.1204], [-76.6879, -9.1237], [-76.6982, -9.1143], [-76.7159, -9.1083], [-76.7365, -9.1112], [-76.7454, -9.1068], [-76.7502, -9.113], [-76.7635, -9.1069], [-76.7719, -9.0855], [-76.7673, -9.0662], [-76.7726, -9.0545], [-76.7789, -9.0544], [-76.7742, -9.0666], [-76.7764, -9.0734], [-76.7932, -9.0868], [-76.8045, -9.1111], [-76.8182, -9.1272], [-76.7882, -9.1366], [-76.787, -9.1432], [-76.7682, -9.1566], [-76.7657, -9.1703], [-76.7338, -9.2087], [-76.7257, -9.2566], [-76.7396, -9.274], [-76.7446, -9.2971], [-76.739, -9.3171], [-76.7403, -9.3308], [-76.7575, -9.3622], [-76.7646, -9.3672], [-76.7938, -9.3329], [-76.8143, -9.3262], [-76.8159, -9.3142], [-76.8325, -9.2815], [-76.834, -9.266], [-76.8459, -9.2635], [-76.8555, -9.2897], [-76.8679, -9.2913], [-76.8701, -9.3009], [-76.8661, -9.3076], [-76.8703, -9.3144], [-76.8929, -9.332], [-76.9006, -9.3591], [-76.9096, -9.3685], [-76.9179, -9.3695], [-76.9241, -9.3915], [-76.9352, -9.3985], [-76.9303, -9.4332], [-76.9404, -9.4486], [-76.9485, -9.4527], [-76.9533, -9.4675], [-76.9386, -9.4917], [-76.9376, -9.5254], [-76.9551, -9.5427], [-76.9546, -9.5593], [-76.9802, -9.564], [-76.983, -9.5771], [-76.9902, -9.5794], [-76.9882, -9.5925], [-76.9952, -9.6033], [-77.0153, -9.6143], [-77.0292, -9.613], [-77.0472, -9.6325], [-77.0441, -9.6429], [-77.0474, -9.6537], [-77.0414, -9.6589], [-77.0203, -9.7117], [-77.0024, -9.7254], [-76.9738, -9.7602], [-76.9695, -9.7578], [-76.9803, -9.7403], [-76.981, -9.7246], [-76.9718, -9.7118], [-76.9616, -9.7135], [-76.9454, -9.7026]]]}}, {"type": "Feature", "properties": {"osm_type": "relation", "osm_id": 936682222, "name": "Huanuco", "admin_level": "6", "kind": "subdivision_2", "parent_osm_id": 1954493, "parent_name": "Huánuco", "parent_iso": "PE-HUC"}, "geometry": {"type": "Polygon", "coordinates": [[[-76.1362, -9.9863], [-76.1267, -9.9796], [-76.1258, -9.961], [-76.1162, -9.9523], [-76.1161, -9.937], [-76.1245, -9.9254], [-76.1172, -9.9031], [-76.1232, -9.8886], [-76.0996, -9.8888], [-76.0868, -9.8813], [-76.0619, -9.8195], [-76.0476, -9.8242], [-75.9637, -9.8146], [-75.9418, -9.8082], [-75.9257, -9.7949], [-75.8922, -9.791], [-75.8738, -9.7931], [-75.8675, -9.8042], [-75.8421, -9.8145], [-75.8247, -9.8314], [-75.7958, -9.8138], [-75.7991, -9.7893], [-75.8092, -9.7673], [-75.8045, -9.7547], [-75.805, -9.7319], [-75.816, -9.7134], [-75.8522, -9.6834], [-75.8471, -9.6693], [-75.8392, -9.6625], [-75.8401, -9.6508], [-75.8715, -9.6158], [-75.873, -9.6059], [-75.8908, -9.596], [-75.9127, -9.5675], [-75.9169, -9.5498], [-75.9265, -9.5365], [-75.9296, -9.5131], [-75.9559, -9.4923], [-75.9803, -9.5039], [-76.0113, -9.508], [-76.0381, -9.4965], [-76.0497, -9.4786], [-76.0719, -9.4715], [-76.0914, -9.4707], [-76.1065, -9.4795], [-76.118, -9.4756], [-76.1246, -9.4808], [-76.1398, -9.4701], [-76.1476, -9.4737], [-76.1611, -9.4692], [-76.1848, -9.484], [-76.1914, -9.4942], [-76.209, -9.4994], [-76.2134, -9.5077], [-76.2333, -9.5094], [-76.2493, -9.5206], [-76.2829, -9.5251], [-76.314, -9.5166], [-76.3427, -9.5298], [-76.3607, -9.5468], [-76.3598, -9.5648], [-76.3655, -9.5787], [-76.3964, -9.6081], [-76.4094, -9.6286], [-76.4137, -9.6405], [-76.4125, -9.6666], [-76.4266, -9.6722], [-76.438, -9.706], [-76.445, -9.7026], [-76.4497, -9.7078], [-76.463, -9.707], [-76.4654, -9.7221], [-76.4768, -9.7247], [-76.4767, -9.735], [-76.484, -9.7404], [-76.4672, -9.7502], [-76.4633, -9.7619], [-76.4697, -9.7826], [-76.4685, -9.8011], [-76.473, -9.8135], [-76.5, -9.8368], [-76.4914, -9.853], [-76.4867, -9.8815], [-76.4651, -9.8922], [-76.4821, -9.8982], [-76.4874, -9.9065], [-76.4982, -9.9042], [-76.5072, -9.913], [-76.5461, -9.9198], [-76.5475, -9.9431], [-76.5574, -9.9482], [-76.5573, -9.9558], [-76.5777, -9.9659], [-76.5733, -9.9708], [-76.5807, -9.9848], [-76.5808, -10.0085], [-76.5854, -10.0112], [-76.5856, -10.0193], [-76.5784, -10.0314], [-76.5973, -10.0416], [-76.6064, -10.0723], [-76.6065, -10.0831], [-76.5971, -10.1009], [-76.5683, -10.0958], [-76.559, -10.0979], [-76.5469, -10.1114], [-76.5348, -10.1401], [-76.5385, -10.1668], [-76.5278, -10.1875], [-76.5108, -10.1861], [-76.5048, -10.1791], [-76.5138, -10.1609], [-76.51, -10.1523], [-76.493, -10.1554], [-76.4879, -10.1508], [-76.4805, -10.1569], [-76.4612, -10.1492], [-76.455, -10.1556], [-76.4475, -10.1873], [-76.4497, -10.2142], [-76.4361, -10.2335], [-76.429, -10.217], [-76.4302, -10.2004], [-76.411, -10.1787], [-76.4164, -10.1491], [-76.4106, -10.1371], [-76.4033, -10.1359], [-76.3975, -10.1436], [-76.3736, -10.1506], [-76.3683, -10.1426], [-76.3694, -10.1308], [-76.3547, -10.1219], [-76.3476, -10.1259], [-76.2927, -10.0753], [-76.2627, -10.0628], [-76.2533, -10.0505], [-76.2288, -10.0368], [-76.2337, -10.0311], [-76.2266, -10.023], [-76.2295, -10.0175], [-76.2127, -10.0096], [-76.1889, -10.0066], [-76.1642, -9.9813], [-76.1362, -9.9863]]]}}, {"type": "Feature", "properties": {"osm_type": "relation", "osm_id": 297520621, "name": "Lauricocha", "admin_level": "6", "kind": "subdivision_2", "parent_osm_id": 1954493, "parent_name": "Huánuco", "parent_iso": "PE-HUC"}, "geometry": {"type": "Polygon", "coordinates": [[[-76.5176, -10.1871], [-76.5278, -10.1875], [-76.5385, -10.1668], [-76.5348, -10.1401], [-76.5536, -10.1033], [-76.5683, -10.0958], [-76.5971, -10.1009], [-76.6065, -10.0831], [-76.5973, -10.0416], [-76.5784, -10.0314], [-76.5854, -10.0112], [-76.5808, -10.0085], [-76.5807, -9.9848], [-76.5733, -9.9708], [-76.5777, -9.9659], [-76.5716, -9.9625], [-76.5701, -9.9454], [-76.5761, -9.9406], [-76.5861, -9.945], [-76.6116, -9.9269], [-76.6358, -9.9315], [-76.6265, -9.9192], [-76.6534, -9.9189], [-76.6594, -9.9089], [-76.6547, -9.9085], [-76.6512, -9.895], [-76.6411, -9.8817], [-76.6489, -9.8713], [-76.6615, -9.8681], [-76.6764, -9.8807], [-76.6812, -9.9108], [-76.6955, -9.9253], [-76.7038, -9.9285], [-76.7201, -9.8984], [-76.7335, -9.9118], [-76.7301, -9.9207], [-76.7363, -9.9345], [-76.7511, -9.9448], [-76.757, -9.9384], [-76.7623, -9.9401], [-76.7691, -9.9537], [-76.7799, -9.957], [-76.7733, -9.9944], [-76.7902, -10.0052], [-76.8005, -10.0065], [-76.8055, -10.0021], [-76.824, -10.011], [-76.815, -10.0234], [-76.809, -10.0536], [-76.8129, -10.0574], [-76.8125, -10.0722], [-76.8072, -10.0845], [-76.8432, -10.0868], [-76.8536, -10.1018], [-76.8713, -10.0943], [-76.8799, -10.1166], [-76.9019, -10.1133], [-76.9157, -10.1204], [-76.9085, -10.1768], [-76.9142, -10.1881], [-76.9094, -10.199], [-76.9161, -10.2246], [-76.9048, -10.2377], [-76.9062, -10.2742], [-76.891, -10.2947], [-76.8945, -10.3043], [-76.8814, -10.3085], [-76.8747, -10.3209], [-76.8691, -10.3378], [-76.8755, -10.3453], [-76.863, -10.3662], [-76.8659, -10.3748], [-76.8564, -10.3773], [-76.8405, -10.3633], [-76.8317, -10.3931], [-76.8057, -10.3923], [-76.8069, -10.4028], [-76.799, -10.4217], [-76.8029, -10.431], [-76.7999, -10.4396], [-76.7874, -10.4387], [-76.7723, -10.4642], [-76.7396, -10.4671], [-76.7292, -10.4791], [-76.7157, -10.4625], [-76.7009, -10.461], [-76.6968, -10.4425], [-76.6652, -10.4386], [-76.6588, -10.4213], [-76.649, -10.4158], [-76.6204, -10.4152], [-76.6063, -10.404], [-76.5934, -10.4015], [-76.5934, -10.3872], [-76.5851, -10.3858], [-76.5793, -10.3759], [-76.5582, -10.3934], [-76.5519, -10.3846], [-76.5319, -10.3869], [-76.5238, -10.3772], [-76.5098, -10.3821], [-76.4909, -10.3789], [-76.4923, -10.371], [-76.4856, -10.3652], [-76.4866, -10.3524], [-76.476, -10.3473], [-76.4728, -10.3378], [-76.5129, -10.2918], [-76.5177, -10.2693], [-76.5123, -10.2424], [-76.5247, -10.2193], [-76.5176, -10.1871]]]}}, {"type": "Feature", "properties": {"osm_type": "relation", "osm_id": 966462289, "name": "Leoncio Prado", "admin_level": "6", "kind": "subdivision_2", "parent_osm_id": 1954493, "parent_name": "Huánuco", "parent_iso": "PE-HUC"}, "geometry": {"type": "Polygon", "coordinates": [[[-76.1291, -8.3607], [-76.1092, -8.3796], [-76.1132, -8.3852], [-76.1078, -8.399], [-76.1087, -8.416], [-76.1188, -8.4304], [-76.1169, -8.4422], [-76.1281, -8.4553], [-76.1307, -8.4679], [-76.126, -8.5163], [-76.1312, -8.5285], [-76.1264, -8.5454], [-76.132, -8.5528], [-76.1347, -8.5726], [-76.1202, -8.5896], [-76.1245, -8.6036], [-76.1208, -8.6095], [-76.1242, -8.6242], [-76.1211, -8.6338], [-76.1076, -8.6405], [-76.1071, -8.6488], [-76.1155, -8.6577], [-76.1192, -8.6523], [-76.13, -8.6553], [-76.1302, -8.6631], [-76.1395, -8.6666], [-76.1365, -8.6741], [-76.1454, -8.6868], [-76.1466, -8.7059], [-76.1509, -8.7087], [-76.1453, -8.7114], [-76.156, -8.7328], [-76.1629, -8.7315], [-76.1664, -8.7564], [-76.1878, -8.7612], [-76.1973, -8.7573], [-76.201, -8.772], [-76.2138, -8.7735], [-76.2155, -8.7866], [-76.2236, -8.7914], [-76.2121, -8.79], [-76.211, -8.7844], [-76.2063, -8.7895], [-76.1971, -8.783], [-76.1955, -8.7941], [-76.1899, -8.7964], [-76.1965, -8.7995], [-76.192, -8.8026], [-76.1964, -8.808], [-76.2034, -8.8091], [-76.1977, -8.8149], [-76.1998, -8.8248], [-76.206, -8.8239], [-76.2048, -8.8325], [-76.2002, -8.8346], [-76.2074, -8.8343], [-76.205, -8.8391], [-76.2228, -8.8499], [-76.2212, -8.8619], [-76.2266, -8.8638], [-76.2244, -8.8803], [-76.2192, -8.881], [-76.2236, -8.8875], [-76.2189, -8.8941], [-76.2238, -8.9056], [-76.2199, -8.9116], [-76.2244, -8.913], [-76.2164, -8.9187], [-76.2318, -8.946], [-76.2296, -8.9568], [-76.2405, -8.9711], [-76.2517, -8.9721], [-76.2525, -8.9771], [-76.2659, -8.9763], [-76.2775, -8.996], [-76.2923, -8.9971], [-76.3081, -9.0095], [-76.355, -9.0247], [-76.3703, -9.0255], [-76.4192, -8.9864], [-76.4391, -8.9862], [-76.4496, -8.9956], [-76.4582, -8.9967], [-76.4734, -9.0122], [-76.4802, -9.1721], [-76.4631, -9.1697], [-76.443, -9.1815], [-76.4125, -9.1774], [-76.4059, -9.1884], [-76.3822, -9.1853], [-76.3607, -9.1973], [-76.338, -9.1855], [-76.3062, -9.1774], [-76.2777, -9.1954], [-76.2721, -9.214], [-76.2572, -9.1894], [-76.2469, -9.1514], [-76.2349, -9.1403], [-76.2289, -9.1512], [-76.2343, -9.1732], [-76.2256, -9.1832], [-76.2231, -9.1954], [-76.2135, -9.2045], [-76.1963, -9.1985], [-76.1863, -9.2074], [-76.1716, -9.2059], [-76.17, -9.2006], [-76.1368, -9.2061], [-76.1265, -9.2004], [-76.1055, -9.2124], [-76.0978, -9.2121], [-76.0776, -9.2389], [-76.0725, -9.279], [-76.0633, -9.2746], [-76.0568, -9.2817], [-76.0842, -9.3048], [-76.1058, -9.2966], [-76.1204, -9.3033], [-76.141, -9.3033], [-76.1604, -9.3244], [-76.1932, -9.3451], [-76.2093, -9.3608], [-76.2086, -9.3686], [-76.2277, -9.38], [-76.2353, -9.4182], [-76.2015, -9.4516], [-76.199, -9.4745], [-76.2047, -9.4989], [-76.1914, -9.4942], [-76.1848, -9.484], [-76.1611, -9.4692], [-76.1476, -9.4737], [-76.1398, -9.4701], [-76.1246, -9.4808], [-76.118, -9.4756], [-76.1065, -9.4795], [-76.0914, -9.4707], [-76.0719, -9.4715], [-76.0497, -9.4786], [-76.0381, -9.4965], [-76.0113, -9.508], [-75.9803, -9.5039], [-75.9559, -9.4923], [-75.9466, -9.497], [-75.9442, -9.4896], [-75.9325, -9.4845], [-75.9309, -9.4782], [-75.9145, -9.4651], [-75.8841, -9.4257], [-75.8702, -9.4214], [-75.8524, -9.4263], [-75.8093, -9.391], [-75.7848, -9.407], [-75.786, -9.4241], [-75.7909, -9.4298], [-75.7919, -9.4629], [-75.7776, -9.4909], [-75.7755, -9.5232], [-75.7537, -9.5485], [-75.757, -9.5653], [-75.7493, -9.5912], [-75.7384, -9.6082], [-75.7213, -9.6175], [-75.7139, -9.6125], [-75.7103, -9.5974], [-75.699, -9.5804], [-75.687, -9.5774], [-75.6791, -9.567], [-75.6717, -9.5173], [-75.6325, -9.4476], [-75.6292, -9.4109], [-75.6705, -9.4179], [-75.6711, -9.3859], [-75.695, -9.3639], [-75.6886, -9.3494], [-75.7057, -9.3363], [-75.716, -9.308], [-75.7202, -9.2772], [-75.7402, -9.2638], [-75.7498, -9.2443], [-75.764, -9.2378], [-75.7592, -9.232], [-75.7638, -9.2171], [-75.7751, -9.2197], [-75.7843, -9.208], [-75.7961, -9.2027], [-75.7952, -9.1855], [-75.8025, -9.1518], [-75.8092, -9.133], [-75.8215, -9.119], [-75.8195, -9.1038], [-75.825, -9.0901], [-75.8379, -9.0849], [-75.8379, -9.0619], [-75.8496, -9.0511], [-75.86, -9.0501], [-75.8907, -9.0048], [-75.8945, -8.9837], [-75.8857, -8.9811], [-75.8838, -8.9727], [-75.895, -8.9247], [-75.9031, -8.9155], [-75.9013, -8.8982], [-75.9105, -8.8963], [-75.9112, -8.8849], [-75.9276, -8.8461], [-75.9288, -8.808], [-75.9216, -8.7808], [-75.9366, -8.7546], [-75.948, -8.7107], [-75.9649, -8.6957], [-75.9682, -8.6709], [-75.9792, -8.654], [-75.9779, -8.6235], [-75.965, -8.58], [-75.9709, -8.5591], [-75.9708, -8.5505], [-75.9648, -8.5435], [-75.9707, -8.5124], [-75.9545, -8.4995], [-75.9554, -8.4845], [-75.9676, -8.4599], [-75.9513, -8.4338], [-75.9423, -8.4277], [-75.946, -8.4009], [-75.9745, -8.3432], [-75.9849, -8.3317], [-75.984, -8.3231], [-75.9941, -8.3192], [-75.9963, -8.3056], [-76.006, -8.3047], [-76.0147, -8.3194], [-76.0396, -8.3319], [-76.0423, -8.3415], [-76.0552, -8.3296], [-76.0736, -8.3338], [-76.087, -8.3281], [-76.1088, -8.3358], [-76.1291, -8.3607]]]}}, {"type": "Feature", "properties": {"osm_type": "relation", "osm_id": 619424670, "name": "Marañon", "admin_level": "6", "kind": "subdivision_2", "parent_osm_id": 1954493, "parent_name": "Huánuco", "parent_iso": "PE-HUC"}, "geometry": {"type": "Polygon", "coordinates": [[[-76.4734, -9.0122], [-76.4582, -8.9967], [-76.4496, -8.9956], [-76.4391, -8.9862], [-76.4192, -8.9864], [-76.3703, -9.0255], [-76.3277, -9.0165], [-76.3259, -9.0125], [-76.2992, -9.0048], [-76.2923, -8.9971], [-76.2775, -8.996], [-76.2659, -8.9763], [-76.2525, -8.9771], [-76.2517, -8.9721], [-76.2405, -8.9711], [-76.2296, -8.9568], [-76.2318, -8.946], [-76.2216, -8.9262], [-76.2183, -8.9278], [-76.2164, -8.9187], [-76.2244, -8.913], [-76.2199, -8.9116], [-76.2238, -8.9056], [-76.2189, -8.8941], [-76.2236, -8.8875], [-76.2192, -8.881], [-76.2244, -8.8803], [-76.2266, -8.8638], [-76.2212, -8.8619], [-76.2228, -8.8499], [-76.205, -8.8391], [-76.2074, -8.8343], [-76.2002, -8.8346], [-76.2048, -8.8325], [-76.206, -8.8239], [-76.1998, -8.8248], [-76.1977, -8.8149], [-76.2034, -8.8091], [-76.1964, -8.808], [-76.192, -8.8026], [-76.1965, -8.7995], [-76.1899, -8.7964], [-76.1955, -8.7941], [-76.1971, -8.783], [-76.2063, -8.7895], [-76.211, -8.7844], [-76.2121, -8.79], [-76.2348, -8.7945], [-76.2318, -8.7795], [-76.2409, -8.768], [-76.2314, -8.7601], [-76.244, -8.7525], [-76.2285, -8.7461], [-76.2406, -8.7314], [-76.2446, -8.7177], [-76.2571, -8.7094], [-76.2549, -8.6901], [-76.2679, -8.6881], [-76.263, -8.6822], [-76.2471, -8.6859], [-76.2528, -8.6653], [-76.2684, -8.6527], [-76.2625, -8.6373], [-76.2698, -8.629], [-76.2621, -8.6149], [-76.2734, -8.6055], [-76.2725, -8.5954], [-76.2853, -8.5866], [-76.2786, -8.5781], [-76.2804, -8.5736], [-76.2892, -8.5689], [-76.3018, -8.5736], [-76.301, -8.5588], [-76.3118, -8.5468], [-76.3159, -8.5304], [-76.324, -8.525], [-76.3194, -8.511], [-76.3114, -8.505], [-76.3274, -8.4799], [-76.3222, -8.4676], [-76.3281, -8.4619], [-76.3328, -8.4305], [-76.3395, -8.4248], [-76.3561, -8.4251], [-76.3612, -8.4164], [-76.3717, -8.4111], [-76.3758, -8.4226], [-76.4175, -8.4437], [-76.4443, -8.4896], [-76.4496, -8.5175], [-76.4573, -8.5275], [-76.4555, -8.5354], [-76.4679, -8.5584], [-76.4662, -8.5697], [-76.4939, -8.5758], [-76.4991, -8.5639], [-76.4948, -8.5496], [-76.5051, -8.5356], [-76.5153, -8.5336], [-76.5401, -8.5129], [-76.5478, -8.4976], [-76.5663, -8.5081], [-76.6368, -8.5146], [-76.6435, -8.5236], [-76.653, -8.5209], [-76.6665, -8.5259], [-76.6784, -8.5211], [-76.68, -8.5276], [-76.6973, -8.5324], [-76.712, -8.5278], [-76.7284, -8.515], [-76.741, -8.5246], [-76.7546, -8.5196], [-76.7684, -8.5268], [-76.7777, -8.5216], [-76.7901, -8.5236], [-76.7963, -8.5112], [-76.8044, -8.5106], [-76.8187, -8.5177], [-76.8316, -8.5167], [-76.8427, -8.5252], [-76.8468, -8.5458], [-76.8625, -8.5525], [-76.8647, -8.5663], [-76.8874, -8.5548], [-76.8962, -8.562], [-76.8971, -8.5688], [-76.936, -8.567], [-76.9424, -8.5568], [-76.9401, -8.552], [-76.9542, -8.5453], [-76.967, -8.5596], [-76.9773, -8.5606], [-76.9948, -8.5556], [-77.0116, -8.5377], [-77.0234, -8.5429], [-77.0314, -8.5409], [-77.0374, -8.5533], [-77.0498, -8.5537], [-77.061, -8.5378], [-77.0745, -8.535], [-77.0759, -8.5267], [-77.0843, -8.5256], [-77.0917, -8.517], [-77.0801, -8.497], [-77.0819, -8.4873], [-77.0903, -8.4823], [-77.1013, -8.4882], [-77.1087, -8.4798], [-77.1184, -8.479], [-77.1236, -8.4838], [-77.1399, -8.4805], [-77.1425, -8.4755], [-77.1311, -8.4543], [-77.1338, -8.44], [-77.1441, -8.4524], [-77.1818, -8.479], [-77.2027, -8.4854], [-77.2641, -8.4675], [-77.2713, -8.4754], [-77.2828, -8.5059], [-77.2934, -8.5171], [-77.3101, -8.5219], [-77.3175, -8.5302], [-77.3106, -8.5349], [-77.3154, -8.5441], [-77.311, -8.5559], [-77.2963, -8.5706], [-77.2969, -8.5791], [-77.2887, -8.5898], [-77.2936, -8.637], [-77.2851, -8.6443], [-77.2606, -8.6485], [-77.2617, -8.6653], [-77.2462, -8.7027], [-77.2482, -8.7273], [-77.2271, -8.7437], [-77.2258, -8.7669], [-77.2065, -8.7816], [-77.1957, -8.815], [-77.185, -8.8279], [-77.1748, -8.8336], [-77.1502, -8.8107], [-77.1556, -8.7977], [-77.148, -8.7771], [-77.127, -8.7817], [-77.1214, -8.7753], [-77.1054, -8.7736], [-77.1015, -8.767], [-77.0894, -8.776], [-77.0822, -8.7741], [-77.0517, -8.811], [-77.0347, -8.8198], [-77.0371, -8.8344], [-77.0246, -8.8425], [-77.0171, -8.8406], [-77.0092, -8.8489], [-76.9943, -8.8412], [-76.9787, -8.8519], [-76.964, -8.8361], [-76.9372, -8.8461], [-76.9294, -8.8365], [-76.9154, -8.8409], [-76.9071, -8.8499], [-76.8978, -8.8497], [-76.8936, -8.8622], [-76.8615, -8.8659], [-76.8564, -8.8512], [-76.811, -8.8326], [-76.8058, -8.8389], [-76.7855, -8.8421], [-76.7705, -8.8627], [-76.7597, -8.8593], [-76.7449, -8.8827], [-76.7348, -8.8708], [-76.7279, -8.8736], [-76.7188, -8.8859], [-76.7208, -8.8915], [-76.7132, -8.9005], [-76.7116, -8.9121], [-76.7009, -8.9151], [-76.6964, -8.9296], [-76.6832, -8.9323], [-76.685, -8.942], [-76.6713, -8.9578], [-76.6559, -8.9849], [-76.6557, -8.9946], [-76.6404, -9.0156], [-76.6526, -9.0257], [-76.6258, -9.051], [-76.6161, -9.0545], [-76.5955, -9.0484], [-76.5615, -9.0214], [-76.5541, -9.0221], [-76.5432, -9.015], [-76.5301, -9.0279], [-76.5102, -9.0164], [-76.4844, -9.0166], [-76.4734, -9.0122]]]}}, {"type": "Feature", "properties": {"osm_type": "relation", "osm_id": 520714414, "name": "Pachitea", "admin_level": "6", "kind": "subdivision_2", "parent_osm_id": 1954493, "parent_name": "Huánuco", "parent_iso": "PE-HUC"}, "geometry": {"type": "Polygon", "coordinates": [[[-76.0317, -10.4559], [-76.0259, -10.4676], [-76.0107, -10.4554], [-76.003, -10.4889], [-75.9758, -10.4793], [-75.925, -10.4066], [-75.9345, -10.375], [-75.9249, -10.3567], [-75.8935, -10.3243], [-75.8564, -10.3017], [-75.8489, -10.2907], [-75.8396, -10.2573], [-75.8121, -10.2441], [-75.7848, -10.2522], [-75.7595, -10.2377], [-75.7519, -10.2402], [-75.7414, -10.2331], [-75.7287, -10.2328], [-75.7094, -10.2151], [-75.7007, -10.1973], [-75.7039, -10.1419], [-75.7, -10.1269], [-75.6899, -10.1189], [-75.6914, -10.0923], [-75.6848, -10.0881], [-75.6765, -10.0543], [-75.6452, -10.0269], [-75.6021, -10.0248], [-75.5952, -10.0096], [-75.598, -9.9581], [-75.5923, -9.9466], [-75.6244, -9.9411], [-75.6299, -9.9465], [-75.6492, -9.9482], [-75.6728, -9.9401], [-75.6854, -9.9175], [-75.6952, -9.9132], [-75.7093, -9.9158], [-75.7268, -9.9039], [-75.7402, -9.8839], [-75.7531, -9.8831], [-75.753, -9.8688], [-75.7614, -9.8543], [-75.7542, -9.8408], [-75.7518, -9.8127], [-75.7356, -9.8024], [-75.7247, -9.8074], [-75.718, -9.804], [-75.7141, -9.7905], [-75.7164, -9.7625], [-75.7245, -9.74], [-75.7209, -9.7095], [-75.7115, -9.6908], [-75.7166, -9.6387], [-75.7139, -9.6125], [-75.7213, -9.6175], [-75.7298, -9.615], [-75.7493, -9.5912], [-75.757, -9.5653], [-75.7537, -9.5485], [-75.7755, -9.5232], [-75.7776, -9.4909], [-75.7919, -9.4629], [-75.7909, -9.4298], [-75.786, -9.4241], [-75.7848, -9.407], [-75.8093, -9.391], [-75.8524, -9.4263], [-75.8702, -9.4214], [-75.8841, -9.4257], [-75.9145, -9.4651], [-75.9309, -9.4782], [-75.9325, -9.4845], [-75.9442, -9.4896], [-75.9466, -9.497], [-75.9296, -9.5131], [-75.9265, -9.5365], [-75.9169, -9.5498], [-75.9127, -9.5675], [-75.8908, -9.596], [-75.873, -9.6059], [-75.8715, -9.6158], [-75.8401, -9.6508], [-75.8392, -9.6625], [-75.8471, -9.6693], [-75.8522, -9.6834], [-75.816, -9.7134], [-75.805, -9.7319], [-75.8045, -9.7547], [-75.8092, -9.7673], [-75.7991, -9.7893], [-75.7958, -9.8138], [-75.8247, -9.8314], [-75.8421, -9.8145], [-75.8675, -9.8042], [-75.8738, -9.7931], [-75.8922, -9.791], [-75.9257, -9.7949], [-75.9418, -9.8082], [-75.9637, -9.8146], [-76.0476, -9.8242], [-76.0619, -9.8195], [-76.0868, -9.8813], [-76.0996, -9.8888], [-76.1232, -9.8886], [-76.1172, -9.9031], [-76.1245, -9.9254], [-76.1161, -9.937], [-76.1162, -9.9523], [-76.1258, -9.961], [-76.1267, -9.9796], [-76.1362, -9.9863], [-76.1356, -10.0018], [-76.124, -10.0146], [-76.1273, -10.0366], [-76.1173, -10.0497], [-76.124, -10.071], [-76.1174, -10.0757], [-76.1047, -10.0726], [-76.0885, -10.0788], [-76.0738, -10.0864], [-76.0724, -10.0948], [-76.0647, -10.0915], [-76.0484, -10.0961], [-76.0408, -10.1049], [-76.0417, -10.112], [-76.0647, -10.1324], [-76.0548, -10.1403], [-76.0534, -10.1581], [-76.0618, -10.1902], [-76.0674, -10.1952], [-76.0548, -10.2045], [-76.0596, -10.2179], [-76.0425, -10.2286], [-76.0412, -10.2493], [-76.035, -10.2583], [-76.05, -10.2691], [-76.0466, -10.3067], [-76.0662, -10.3166], [-76.0423, -10.3304], [-76.0379, -10.3461], [-76.0413, -10.3737], [-76.0332, -10.3841], [-76.0401, -10.396], [-76.029, -10.406], [-76.0319, -10.4143], [-76.0258, -10.4256], [-76.0324, -10.4316], [-76.0317, -10.4559]]]}}, {"type": "Feature", "properties": {"osm_type": "relation", "osm_id": 673385397, "name": "Puerto Inca", "admin_level": "6", "kind": "subdivision_2", "parent_osm_id": 1954493, "parent_name": "Huánuco", "parent_iso": "PE-HUC"}, "geometry": {"type": "Polygon", "coordinates": [[[-74.9545, -8.8636], [-74.9657, -8.8694], [-74.9888, -8.8715], [-75.005, -8.8697], [-75.0083, -8.8634], [-75.0224, -8.8585], [-75.0321, -8.8674], [-75.0471, -8.8684], [-75.0647, -8.8823], [-75.0732, -8.8731], [-75.1089, -8.8826], [-75.1226, -8.881], [-75.1194, -8.9072], [-75.1084, -8.9223], [-75.1105, -8.9295], [-75.1206, -8.9366], [-75.1291, -8.9358], [-75.1348, -8.946], [-75.1201, -8.9607], [-75.1198, -8.9836], [-75.1376, -8.9884], [-75.1392, -8.9995], [-75.1543, -8.9991], [-75.1568, -9.0103], [-75.1739, -9.0116], [-75.1757, -9.0247], [-75.1624, -9.034], [-75.1928, -9.0548], [-75.195, -9.0633], [-75.2012, -9.0638], [-75.1947, -9.0731], [-75.2049, -9.0803], [-75.2065, -9.1013], [-75.2214, -9.1048], [-75.2413, -9.1011], [-75.2318, -9.1184], [-75.2339, -9.1288], [-75.2288, -9.1477], [-75.2165, -9.1551], [-75.2119, -9.1764], [-75.2209, -9.1801], [-75.2226, -9.19], [-75.2422, -9.2209], [-75.2567, -9.2325], [-75.2719, -9.2334], [-75.2681, -9.25], [-75.2723, -9.268], [-75.3039, -9.2907], [-75.3043, -9.297], [-75.3139, -9.3021], [-75.319, -9.2937], [-75.3341, -9.2888], [-75.3495, -9.3045], [-75.3722, -9.3102], [-75.3931, -9.3002], [-75.4047, -9.3015], [-75.4185, -9.2926], [-75.452, -9.2963], [-75.4563, -9.325], [-75.4926, -9.3764], [-75.5217, -9.3833], [-75.5625, -9.4012], [-75.5822, -9.4028], [-75.6007, -9.4138], [-75.6094, -9.4062], [-75.6167, -9.4141], [-75.6292, -9.4109], [-75.6325, -9.4476], [-75.6717, -9.5173], [-75.6791, -9.567], [-75.687, -9.5774], [-75.699, -9.5804], [-75.7103, -9.5974], [-75.7139, -9.6125], [-75.7166, -9.6387], [-75.7115, -9.6908], [-75.7209, -9.7095], [-75.7245, -9.74], [-75.7141, -9.7787], [-75.7163, -9.8023], [-75.7247, -9.8074], [-75.7356, -9.8024], [-75.7518, -9.8127], [-75.7542, -9.8408], [-75.7614, -9.8543], [-75.753, -9.8688], [-75.7531, -9.8831], [-75.7402, -9.8839], [-75.7268, -9.9039], [-75.7093, -9.9158], [-75.6952, -9.9132], [-75.6854, -9.9175], [-75.6728, -9.9401], [-75.6492, -9.9482], [-75.6299, -9.9465], [-75.6244, -9.9411], [-75.5953, -9.9443], [-75.5904, -9.9556], [-75.5604, -9.9641], [-75.5601, -9.9719], [-75.5484, -9.9844], [-75.5086, -9.9769], [-75.4845, -9.982], [-75.4746, -9.9922], [-75.4678, -9.9891], [-75.4623, -9.9573], [-75.4537, -9.9558], [-75.4496, -9.9416], [-75.4417, -9.9363], [-75.4214, -9.9434], [-75.4048, -9.9302], [-75.3955, -9.9128], [-75.4096, -9.902], [-75.4112, -9.8884], [-75.3996, -9.8785], [-75.3694, -9.8708], [-75.3212, -9.8769], [-75.2882, -9.8707], [-75.2824, -9.8647], [-75.2757, -9.8521], [-75.2792, -9.8382], [-75.3098, -9.7744], [-75.2547, -9.779], [-75.1601, -9.84], [-75.1352, -9.8386], [-75.1115, -9.8459], [-75.0945, -9.8445], [-75.0777, -9.8376], [-75.0578, -9.8189], [-75.0433, -9.8229], [-75.0352, -9.8308], [-75.0217, -9.8309], [-75.0131, -9.8381], [-74.9936, -9.8398], [-74.9856, -9.8641], [-74.9516, -9.8599], [-74.9034, -9.8389], [-74.9034, -9.8344], [-74.8824, -9.8197], [-74.8526, -9.8484], [-74.8335, -9.845], [-74.8304, -9.8338], [-74.8362, -9.82], [-74.8262, -9.8197], [-74.826, -9.8072], [-74.8156, -9.7954], [-74.8214, -9.7849], [-74.83, -9.7829], [-74.8425, -9.7875], [-74.8471, -9.7805], [-74.8393, -9.7649], [-74.8438, -9.7491], [-74.8168, -9.7364], [-74.8288, -9.704], [-74.8178, -9.6913], [-74.8219, -9.6772], [-74.8181, -9.6711], [-74.8084, -9.6755], [-74.8001, -9.6667], [-74.7875, -9.6658], [-74.7816, -9.653], [-74.7648, -9.6357], [-74.7637, -9.6266], [-74.7725, -9.6124], [-74.7652, -9.605], [-74.7557, -9.6065], [-74.7558, -9.584], [-74.7356, -9.5744], [-74.7505, -9.5246], [-74.7414, -9.5162], [-74.7398, -9.4973], [-74.7288, -9.4724], [-74.7168, -9.4591], [-74.6948, -9.4477], [-74.676, -9.4469], [-74.6891, -9.4349], [-74.6977, -9.4356], [-74.7094, -9.4222], [-74.6847, -9.4089], [-74.6728, -9.3889], [-74.6578, -9.382], [-74.6543, -9.3688], [-74.6362, -9.3694], [-74.6274, -9.3648], [-74.6254, -9.3502], [-74.5872, -9.2966], [-74.5912, -9.2911], [-74.5899, -9.2672], [-74.6153, -9.238], [-74.6245, -9.2156], [-74.6396, -9.1597], [-74.6365, -9.1255], [-74.6407, -9.1186], [-74.6719, -9.1105], [-74.6781, -9.094], [-74.6584, -9.0714], [-74.6514, -9.0488], [-74.6692, -9.0203], [-74.6617, -9.0038], [-74.6479, -8.9958], [-74.6527, -8.9796], [-74.6443, -8.9188], [-74.6242, -8.8887], [-74.6183, -8.832], [-74.6089, -8.8202], [-74.5881, -8.8126], [-74.5729, -8.7926], [-74.5322, -8.7761], [-74.5254, -8.7493], [-74.5361, -8.6299], [-74.5471, -8.5846], [-74.5776, -8.5538], [-74.6009, -8.5484], [-74.6303, -8.5504], [-74.6641, -8.5619], [-74.6869, -8.5784], [-74.7975, -8.6317], [-74.8471, -8.6615], [-74.8408, -8.6791], [-74.848, -8.692], [-74.8522, -8.7631], [-74.8653, -8.7809], [-74.8957, -8.8048], [-74.9399, -8.8572], [-74.9545, -8.8636]]]}}, {"type": "Feature", "properties": {"osm_type": "relation", "osm_id": 490400223, "name": "Yarowilca", "admin_level": "6", "kind": "subdivision_2", "parent_osm_id": 1954493, "parent_name": "Huánuco", "parent_iso": "PE-HUC"}, "geometry": {"type": "Polygon", "coordinates": [[[-76.7201, -9.8984], [-76.7016, -9.9286], [-76.6812, -9.9108], [-76.6764, -9.8807], [-76.6615, -9.8681], [-76.6489, -9.8713], [-76.6411, -9.8817], [-76.6512, -9.895], [-76.6547, -9.9085], [-76.6594, -9.9089], [-76.6534, -9.9189], [-76.6265, -9.9192], [-76.6358, -9.9315], [-76.6116, -9.9269], [-76.5861, -9.945], [-76.5724, -9.9416], [-76.5705, -9.9592], [-76.5573, -9.9558], [-76.5574, -9.9482], [-76.5475, -9.9431], [-76.5461, -9.9198], [-76.5072, -9.913], [-76.4982, -9.9042], [-76.4874, -9.9065], [-76.4821, -9.8982], [-76.4651, -9.8922], [-76.4867, -9.8815], [-76.4914, -9.853], [-76.5, -9.8368], [-76.4698, -9.8079], [-76.4697, -9.7826], [-76.4632, -9.7651], [-76.4672, -9.7502], [-76.484, -9.7404], [-76.4767, -9.735], [-76.4768, -9.7247], [-76.4654, -9.7221], [-76.4629, -9.713], [-76.4716, -9.6928], [-76.468, -9.685], [-76.477, -9.6739], [-76.4923, -9.6808], [-76.4982, -9.6739], [-76.5153, -9.6765], [-76.5183, -9.6692], [-76.5263, -9.6656], [-76.5359, -9.676], [-76.5589, -9.6827], [-76.5981, -9.6725], [-76.6096, -9.6784], [-76.6188, -9.6754], [-76.6304, -9.6851], [-76.6447, -9.6877], [-76.664, -9.6773], [-76.679, -9.6864], [-76.6897, -9.7015], [-76.7037, -9.6898], [-76.7228, -9.7038], [-76.723, -9.7114], [-76.7147, -9.7282], [-76.703, -9.7373], [-76.7021, -9.747], [-76.7358, -9.753], [-76.7357, -9.7914], [-76.7498, -9.8367], [-76.758, -9.8425], [-76.7408, -9.8698], [-76.7267, -9.8821], [-76.7201, -9.8984]]]}}]}