{"type": "FeatureCollection", "parent": {"osm_id": 198590, "name": "Jilin", "admin_level": "4", "kind": "subdivision_1", "child_kind": "subdivision_2", "iso": "CN-JL"}, "features": [{"type": "Feature", "properties": {"osm_type": "relation", "osm_id": 219508006, "name": "Zhenlaixian", "admin_level": "6", "kind": "subdivision_2", "parent_osm_id": 198590, "parent_name": "Jilin", "parent_iso": "CN-JL"}, "geometry": {"type": "Polygon", "coordinates": [[[122.7407, 45.7176], [122.788, 45.6633], [122.8291, 45.6428], [122.8765, 45.6475], [122.907, 45.6666], [122.9329, 45.6944], [122.9756, 45.7067], [122.9947, 45.6817], [123.0033, 45.654], [123.0229, 45.6229], [123.0233, 45.5875], [123.042, 45.5439], [123.1144, 45.46], [123.1951, 45.5869], [123.2173, 45.6045], [123.2791, 45.6315], [123.3008, 45.695], [123.3992, 45.7153], [123.4748, 45.7639], [123.5073, 45.7608], [123.65, 45.7176], [123.6929, 45.743], [124.0671, 45.6999], [124.0432, 45.7219], [123.9869, 45.7472], [123.963, 45.7693], [123.9954, 45.812], [124.0138, 45.8792], [124.0032, 45.8967], [123.9726, 45.9095], [123.9567, 45.9242], [123.9288, 45.927], [123.9187, 45.9477], [123.9273, 45.9665], [123.9903, 46.0195], [123.9949, 46.042], [123.9716, 46.0673], [123.9601, 46.1506], [123.8986, 46.1994], [123.9458, 46.2441], [123.9478, 46.2538], [123.9424, 46.274], [123.9277, 46.2952], [123.8944, 46.2721], [123.865, 46.2684], [123.8423, 46.2739], [123.8182, 46.296], [123.7469, 46.2694], [123.6864, 46.2688], [123.6522, 46.2748], [123.5595, 46.2248], [123.5057, 46.2444], [123.4837, 46.2591], [123.3386, 46.2148], [123.2934, 46.2254], [123.0946, 46.2491], [123.0861, 46.2445], [123.0594, 46.1945], [123.058, 46.1259], [122.9996, 46.0734], [122.9267, 46.0683], [122.8181, 46.0889], [122.7153, 46.0565], [122.7308, 46.0271], [122.7405, 45.9323], [122.7641, 45.8562], [122.7584, 45.7349], [122.7407, 45.7176]]]}}, {"type": "Feature", "properties": {"osm_type": "relation", "osm_id": 406560129, "name": "Taonanshi", "admin_level": "6", "kind": "subdivision_2", "parent_osm_id": 198590, "parent_name": "Jilin", "parent_iso": "CN-JL"}, "geometry": {"type": "Polygon", "coordinates": [[[122.0299, 45.9104], [121.9443, 45.9948], [121.9177, 46.0142], [121.8487, 45.9928], [121.7615, 46.0163], [121.7095, 45.9872], [121.7596, 45.9218], [121.7753, 45.8465], [121.7195, 45.7871], [121.6088, 45.7475], [121.667, 45.7004], [121.7235, 45.6814], [121.8208, 45.7184], [121.9138, 45.7007], [121.9319, 45.6776], [121.9343, 45.5873], [121.9015, 45.5549], [121.9639, 45.5118], [122.1012, 45.438], [122.1381, 45.3907], [122.078, 45.3428], [122.1341, 45.2947], [122.1707, 45.2754], [122.1781, 45.2476], [122.2386, 45.2514], [122.279, 45.2309], [122.3152, 45.2063], [122.3274, 45.1757], [122.3577, 45.1534], [122.3954, 45.1483], [122.4423, 45.134], [122.4724, 45.1145], [122.4935, 45.0893], [122.526, 45.0634], [122.5804, 45.0545], [122.666, 45.0818], [122.7567, 45.129], [122.808, 45.1412], [122.9997, 45.1588], [123.1277, 45.1551], [123.1792, 45.1738], [123.3107, 45.25], [123.2899, 45.2748], [123.2575, 45.2976], [123.2336, 45.3234], [123.1941, 45.3888], [123.1164, 45.4565], [123.042, 45.5439], [123.0233, 45.5875], [122.9914, 45.565], [122.9508, 45.5557], [122.8662, 45.5153], [122.8246, 45.5037], [122.7349, 45.5366], [122.7025, 45.5665], [122.7015, 45.5945], [122.6597, 45.6587], [122.6485, 45.6545], [122.6296, 45.6643], [122.6114, 45.7209], [122.5629, 45.7685], [122.4937, 45.7601], [122.4356, 45.8194], [122.428, 45.9066], [122.3558, 45.9111], [122.2861, 45.835], [122.2235, 45.798], [122.1675, 45.8416], [122.0868, 45.8565], [122.0299, 45.9104]]]}}, {"type": "Feature", "properties": {"osm_type": "relation", "osm_id": 101974099, "name": "Daanshi", "admin_level": "6", "kind": "subdivision_2", "parent_osm_id": 198590, "parent_name": "Jilin", "parent_iso": "CN-JL"}, "geometry": {"type": "Polygon", "coordinates": [[[123.1144, 45.46], [123.1941, 45.3888], [123.2336, 45.3234], [123.2575, 45.2976], [123.2899, 45.2748], [123.3384, 45.2265], [123.3762, 45.2075], [123.4103, 45.1834], [123.4071, 45.1474], [123.4198, 45.1155], [123.4504, 45.0909], [123.4506, 45.0533], [123.4416, 45.0261], [123.4469, 44.9881], [123.4589, 44.9619], [123.5013, 44.9634], [123.6145, 45.0198], [123.6973, 45.0843], [123.7987, 45.1478], [123.8675, 45.2027], [123.9695, 45.2171], [124.0112, 45.2315], [124.0475, 45.2633], [124.0721, 45.3269], [124.1087, 45.3568], [124.1518, 45.3678], [124.205, 45.3934], [124.3541, 45.4446], [124.3069, 45.5347], [124.2264, 45.556], [124.2007, 45.6143], [124.1782, 45.6199], [124.1544, 45.619], [124.1141, 45.6066], [124.0856, 45.6751], [124.0671, 45.6999], [123.6929, 45.743], [123.65, 45.7176], [123.5073, 45.7608], [123.4748, 45.7639], [123.3992, 45.7153], [123.3008, 45.695], [123.2791, 45.6315], [123.2173, 45.6045], [123.1951, 45.5869], [123.1144, 45.46]]]}}, {"type": "Feature", "properties": {"osm_type": "relation", "osm_id": 894496580, "name": "Fuyuxian", "admin_level": "6", "kind": "subdivision_2", "parent_osm_id": 198590, "parent_name": "Jilin", "parent_iso": "CN-JL"}, "geometry": {"type": "Polygon", "coordinates": [[[124.6462, 45.4442], [124.6322, 45.4226], [124.6875, 45.3283], [124.6774, 45.2145], [124.8214, 45.1633], [124.8916, 45.0968], [124.9404, 45.0621], [125.0114, 45.0218], [125.1249, 44.8981], [125.158, 44.8781], [125.1932, 44.8677], [125.2716, 44.8625], [125.3426, 44.8876], [125.4094, 44.8934], [125.44, 44.8834], [125.5205, 44.8877], [125.5667, 44.9056], [125.6271, 44.9448], [125.6781, 44.9424], [125.7041, 44.9329], [125.7225, 44.9112], [125.7311, 44.8872], [125.752, 44.8553], [125.7923, 44.8475], [125.8303, 44.8498], [125.8826, 44.7716], [125.9327, 44.766], [126.0055, 44.7774], [126.0102, 44.8535], [126.0062, 44.8887], [126.0267, 44.9186], [126.0626, 44.9286], [126.1441, 44.939], [126.1508, 44.9681], [126.14, 45.0242], [126.1338, 45.1274], [126.0621, 45.1225], [125.9304, 45.1835], [125.8563, 45.1885], [125.8079, 45.2236], [125.7773, 45.2336], [125.7541, 45.2559], [125.7126, 45.2802], [125.6546, 45.336], [125.6671, 45.453], [125.6977, 45.5252], [125.5764, 45.5321], [125.491, 45.4888], [125.4304, 45.4922], [125.4271, 45.4564], [125.3504, 45.4089], [125.3267, 45.4081], [125.2774, 45.42], [125.2055, 45.4147], [125.0582, 45.3877], [125.0405, 45.3929], [125.0112, 45.4749], [124.9594, 45.4968], [124.9363, 45.4992], [124.8893, 45.5436], [124.8669, 45.5492], [124.8549, 45.5374], [124.8618, 45.5038], [124.8541, 45.4685], [124.8461, 45.4529], [124.8348, 45.4442], [124.7767, 45.4372], [124.7089, 45.4508], [124.6462, 45.4442]]]}}, {"type": "Feature", "properties": {"osm_type": "relation", "osm_id": 833001163, "name": "Baichengshi", "admin_level": "6", "kind": "subdivision_2", "parent_osm_id": 198590, "parent_name": "Jilin", "parent_iso": "CN-JL"}, "geometry": {"type": "Polygon", "coordinates": [[[122.6597, 45.6587], [122.7015, 45.5945], [122.7025, 45.5665], [122.7349, 45.5366], [122.8246, 45.5037], [122.8662, 45.5153], [122.9508, 45.5557], [122.9914, 45.565], [123.0233, 45.5875], [123.0229, 45.6229], [123.0033, 45.654], [122.9947, 45.6817], [122.9756, 45.7067], [122.9329, 45.6944], [122.907, 45.6666], [122.8765, 45.6475], [122.8291, 45.6428], [122.788, 45.6633], [122.7407, 45.7176], [122.6932, 45.6713], [122.6597, 45.6587]]]}}, {"type": "Feature", "properties": {"osm_type": "relation", "osm_id": 323294782, "name": "Qianguoerluomengguzuzizhixian", "admin_level": "6", "kind": "subdivision_2", "parent_osm_id": 198590, "parent_name": "Jilin", "parent_iso": "CN-JL"}, "geometry": {"type": "Polygon", "coordinates": [[[124.3541, 45.4446], [124.205, 45.3934], [124.1518, 45.3678], [124.1087, 45.3568], [124.0721, 45.3269], [124.0623, 45.2974], [124.1605, 45.2701], [124.1893, 45.2443], [124.1991, 45.2148], [124.2545, 45.1694], [124.2896, 45.1562], [124.3138, 45.098], [124.3647, 45.1095], [124.3794, 45.0713], [124.3268, 45.0263], [124.3184, 44.9918], [124.3212, 44.9636], [124.2954, 44.9186], [124.2902, 44.8709], [124.3141, 44.7522], [124.2948, 44.7211], [124.2155, 44.7054], [124.1127, 44.6967], [124.0435, 44.6965], [123.9877, 44.7038], [123.8683, 44.6829], [123.6675, 44.6752], [123.6196, 44.6615], [123.6273, 44.6086], [123.6561, 44.5909], [123.6738, 44.5591], [123.725, 44.5384], [123.8194, 44.5283], [123.8598, 44.5131], [123.8904, 44.4841], [123.9022, 44.4575], [123.9095, 44.4139], [124.0352, 44.3424], [124.0786, 44.3376], [124.1329, 44.3607], [124.1951, 44.4185], [124.2796, 44.4483], [124.3876, 44.5024], [124.5003, 44.5443], [124.5252, 44.5692], [124.5387, 44.5996], [124.5598, 44.6292], [124.5953, 44.6514], [124.7705, 44.6907], [124.8889, 44.7557], [124.935, 44.7545], [124.9704, 44.78], [125.0077, 44.79], [125.0433, 44.7751], [125.1396, 44.802], [125.1863, 44.8254], [125.2115, 44.8657], [125.158, 44.8781], [125.1249, 44.8981], [125.0114, 45.0218], [124.9404, 45.0621], [124.8916, 45.0968], [124.8214, 45.1633], [124.6774, 45.2145], [124.6875, 45.3283], [124.6322, 45.4226], [124.6462, 45.4442], [124.5526, 45.4473], [124.4984, 45.4135], [124.4009, 45.4431], [124.3541, 45.4446]]]}}, {"type": "Feature", "properties": {"osm_type": "relation", "osm_id": 380670060, "name": "Yushushi", "admin_level": "6", "kind": "subdivision_2", "parent_osm_id": 198590, "parent_name": "Jilin", "parent_iso": "CN-JL"}, "geometry": {"type": "Polygon", "coordinates": [[[126.1338, 45.1274], [126.14, 45.0242], [126.1508, 44.9681], [126.1441, 44.939], [126.0626, 44.9286], [126.0267, 44.9186], [126.0062, 44.8887], [126.0102, 44.8535], [126.0055, 44.7774], [126.0655, 44.7738], [126.1012, 44.7664], [126.1462, 44.7185], [126.2563, 44.6894], [126.276, 44.6739], [126.3194, 44.5802], [126.352, 44.56], [126.5034, 44.5867], [126.6123, 44.5884], [126.695, 44.5528], [126.7432, 44.5446], [126.7821, 44.5499], [126.8278, 44.5747], [126.8654, 44.5686], [126.9105, 44.5682], [126.9551, 44.5778], [127.0049, 44.6013], [127.0071, 44.6231], [127.0005, 44.6535], [126.9698, 44.6999], [126.9832, 44.7739], [126.9669, 44.822], [126.9716, 44.8411], [127.003, 44.8735], [127.0184, 44.898], [127.0642, 44.9122], [127.0606, 44.9356], [126.9706, 45.0091], [126.9519, 45.0476], [126.9498, 45.0774], [126.9371, 45.1218], [126.9242, 45.1266], [126.7769, 45.1212], [126.6955, 45.1737], [126.6413, 45.1834], [126.5925, 45.2155], [126.5314, 45.2359], [126.4825, 45.2284], [126.4313, 45.2114], [126.345, 45.205], [126.31, 45.1762], [126.2863, 45.1756], [126.2612, 45.1489], [126.2406, 45.1414], [126.1338, 45.1274]]]}}, {"type": "Feature", "properties": {"osm_type": "relation", "osm_id": 713415375, "name": "Qiananxian", "admin_level": "6", "kind": "subdivision_2", "parent_osm_id": 198590, "parent_name": "Jilin", "parent_iso": "CN-JL"}, "geometry": {"type": "Polygon", "coordinates": [[[123.4589, 44.9619], [123.4343, 44.9285], [123.4024, 44.9024], [123.3808, 44.8701], [123.4735, 44.7827], [123.5058, 44.7089], [123.5449, 44.6802], [123.6196, 44.6615], [123.6675, 44.6752], [123.8683, 44.6829], [123.9877, 44.7038], [124.0435, 44.6965], [124.1127, 44.6967], [124.2155, 44.7054], [124.2948, 44.7211], [124.3141, 44.7522], [124.2902, 44.8709], [124.2954, 44.9186], [124.3212, 44.9636], [124.3184, 44.9918], [124.3268, 45.0263], [124.3794, 45.0713], [124.3647, 45.1095], [124.3138, 45.098], [124.2896, 45.1562], [124.2545, 45.1694], [124.1991, 45.2148], [124.1893, 45.2443], [124.1605, 45.2701], [124.0623, 45.2974], [124.0475, 45.2633], [124.0112, 45.2315], [123.9695, 45.2171], [123.8675, 45.2027], [123.7987, 45.1478], [123.6973, 45.0843], [123.6145, 45.0198], [123.5013, 44.9634], [123.4589, 44.9619]]]}}, {"type": "Feature", "properties": {"osm_type": "relation", "osm_id": 422488757, "name": "Tongyuxian", "admin_level": "6", "kind": "subdivision_2", "parent_osm_id": 198590, "parent_name": "Jilin", "parent_iso": "CN-JL"}, "geometry": {"type": "Polygon", "coordinates": [[[122.1781, 45.2476], [122.1677, 45.2108], [122.1494, 45.1862], [122.1108, 45.1797], [122.0754, 45.1108], [122.0427, 44.9763], [122.0561, 44.9458], [122.0103, 44.9236], [121.9995, 44.8886], [122.0112, 44.8484], [122.0175, 44.7499], [122.0667, 44.7653], [122.0514, 44.7307], [122.0464, 44.7017], [122.0225, 44.6711], [122.0347, 44.6341], [122.0344, 44.5787], [122.0699, 44.5691], [122.1161, 44.5684], [122.1638, 44.4957], [122.1878, 44.4741], [122.2277, 44.464], [122.2528, 44.4488], [122.266, 44.4183], [122.2632, 44.3761], [122.2445, 44.3484], [122.227, 44.301], [122.2224, 44.252], [122.2835, 44.2236], [122.3965, 44.2143], [122.5224, 44.2572], [122.5866, 44.2883], [122.7302, 44.3768], [122.8184, 44.4057], [122.8953, 44.4552], [122.9818, 44.5012], [123.0766, 44.5124], [123.0919, 44.5827], [123.1497, 44.5904], [123.1901, 44.6039], [123.2312, 44.6285], [123.2581, 44.6532], [123.2917, 44.6679], [123.4298, 44.7116], [123.5058, 44.7089], [123.4735, 44.7827], [123.3808, 44.8701], [123.4024, 44.9024], [123.4343, 44.9285], [123.4589, 44.9619], [123.4469, 44.9881], [123.4416, 45.0261], [123.4506, 45.0533], [123.4504, 45.0909], [123.4198, 45.1155], [123.4071, 45.1474], [123.4103, 45.1834], [123.3762, 45.2075], [123.3384, 45.2265], [123.3107, 45.25], [123.1792, 45.1738], [123.1277, 45.1551], [122.9997, 45.1588], [122.808, 45.1412], [122.7567, 45.129], [122.666, 45.0818], [122.5804, 45.0545], [122.526, 45.0634], [122.4935, 45.0893], [122.4724, 45.1145], [122.4423, 45.134], [122.3954, 45.1483], [122.3577, 45.1534], [122.3274, 45.1757], [122.3152, 45.2063], [122.2386, 45.2514], [122.1781, 45.2476]]]}}, {"type": "Feature", "properties": {"osm_type": "relation", "osm_id": 355968107, "name": "Nonganxian", "admin_level": "6", "kind": "subdivision_2", "parent_osm_id": 198590, "parent_name": "Jilin", "parent_iso": "CN-JL"}, "geometry": {"type": "Polygon", "coordinates": [[[125.2115, 44.8657], [125.1863, 44.8254], [125.1396, 44.802], [125.0433, 44.7751], [125.0077, 44.79], [124.9704, 44.78], [124.935, 44.7545], [124.8889, 44.7557], [124.7705, 44.6907], [124.5953, 44.6514], [124.5598, 44.6292], [124.5387, 44.5996], [124.5252, 44.5692], [124.5003, 44.5443], [124.5275, 44.5132], [124.5666, 44.5017], [124.571, 44.4714], [124.5352, 44.4589], [124.5057, 44.4403], [124.5343, 44.4159], [124.5528, 44.3844], [124.5574, 44.3461], [124.5874, 44.2829], [124.6088, 44.2548], [124.6478, 44.2423], [124.6918, 44.2425], [124.7284, 44.2275], [124.7113, 44.2029], [124.7011, 44.1556], [124.7093, 44.1222], [124.7578, 44.0717], [124.838, 44.0178], [124.8838, 43.9677], [124.8989, 43.9408], [124.9481, 43.9103], [125.002, 43.9035], [125.0473, 43.9102], [125.041, 43.9479], [125.0556, 43.9788], [125.1059, 44.0075], [125.2122, 44.0904], [125.2158, 44.141], [125.2262, 44.1927], [125.2432, 44.2175], [125.2844, 44.2354], [125.367, 44.2424], [125.3986, 44.2717], [125.4091, 44.3113], [125.3929, 44.3379], [125.3702, 44.3668], [125.3312, 44.3901], [125.304, 44.4193], [125.3301, 44.4436], [125.3272, 44.4706], [125.3121, 44.5024], [125.3261, 44.5384], [125.3808, 44.575], [125.3858, 44.5974], [125.4163, 44.6302], [125.4767, 44.6497], [125.5205, 44.658], [125.5831, 44.6871], [125.6027, 44.7539], [125.694, 44.806], [125.6921, 44.8391], [125.7157, 44.8397], [125.7176, 44.869], [125.7311, 44.8872], [125.7225, 44.9112], [125.7041, 44.9329], [125.6781, 44.9424], [125.6461, 44.946], [125.6271, 44.9448], [125.5667, 44.9056], [125.5205, 44.8877], [125.44, 44.8834], [125.4094, 44.8934], [125.3426, 44.8876], [125.2716, 44.8625], [125.2115, 44.8657]]]}}, {"type": "Feature", "properties": {"osm_type": "relation", "osm_id": 781300998, "name": "Dehuishi", "admin_level": "6", "kind": "subdivision_2", "parent_osm_id": 198590, "parent_name": "Jilin", "parent_iso": "CN-JL"}, "geometry": {"type": "Polygon", "coordinates": [[[125.7311, 44.8872], [125.7176, 44.869], [125.7157, 44.8397], [125.6921, 44.8391], [125.694, 44.806], [125.6027, 44.7539], [125.5831, 44.6871], [125.5205, 44.658], [125.4767, 44.6497], [125.4163, 44.6302], [125.3858, 44.5974], [125.3808, 44.575], [125.3261, 44.5384], [125.3121, 44.5024], [125.3272, 44.4706], [125.3301, 44.4436], [125.304, 44.4193], [125.3312, 44.3901], [125.3702, 44.3668], [125.3929, 44.3379], [125.4091, 44.3113], [125.3986, 44.2717], [125.367, 44.2424], [125.2844, 44.2354], [125.2432, 44.2175], [125.2262, 44.1927], [125.2158, 44.141], [125.3198, 44.1078], [125.3679, 44.1068], [125.4034, 44.0907], [125.5275, 44.1441], [125.5356, 44.1727], [125.5361, 44.2065], [125.546, 44.2393], [125.5807, 44.3158], [125.6175, 44.3559], [125.6654, 44.3449], [125.6996, 44.3651], [125.8076, 44.3732], [125.8622, 44.3857], [125.8882, 44.4091], [125.882, 44.4392], [125.9034, 44.4649], [125.9399, 44.4396], [125.9819, 44.4453], [125.9717, 44.4775], [125.9908, 44.5037], [126.035, 44.4979], [126.1159, 44.5357], [126.1682, 44.5485], [126.2076, 44.5678], [126.2566, 44.5562], [126.3106, 44.5534], [126.352, 44.56], [126.3194, 44.5802], [126.276, 44.6739], [126.2563, 44.6894], [126.1462, 44.7185], [126.1012, 44.7664], [126.0655, 44.7738], [126.0055, 44.7774], [125.9327, 44.766], [125.8826, 44.7716], [125.8303, 44.8498], [125.7923, 44.8475], [125.752, 44.8553], [125.7311, 44.8872]]]}}, {"type": "Feature", "properties": {"osm_type": "relation", "osm_id": 141975405, "name": "Shulanshi", "admin_level": "6", "kind": "subdivision_2", "parent_osm_id": 198590, "parent_name": "Jilin", "parent_iso": "CN-JL"}, "geometry": {"type": "Polygon", "coordinates": [[[127.0049, 44.6013], [126.9551, 44.5778], [126.9105, 44.5682], [126.8654, 44.5686], [126.8278, 44.5747], [126.7821, 44.5499], [126.7432, 44.5446], [126.695, 44.5528], [126.6123, 44.5884], [126.5034, 44.5867], [126.352, 44.56], [126.3716, 44.5445], [126.3815, 44.5072], [126.3763, 44.4652], [126.3929, 44.437], [126.442, 44.4082], [126.4216, 44.3614], [126.4382, 44.3134], [126.4314, 44.2749], [126.4954, 44.264], [126.5329, 44.2777], [126.5875, 44.2719], [126.6344, 44.2825], [126.6782, 44.3057], [126.7241, 44.3174], [126.7516, 44.2938], [126.7565, 44.2249], [126.8087, 44.1928], [126.8757, 44.182], [126.9368, 44.1787], [127.0196, 44.1488], [127.1158, 44.1257], [127.1538, 44.0958], [127.1454, 44.0591], [127.1692, 44.0155], [127.2069, 43.9943], [127.2614, 43.9961], [127.289, 44.053], [127.3125, 44.0839], [127.3466, 44.1089], [127.3659, 44.1338], [127.4086, 44.1438], [127.4575, 44.1332], [127.5118, 44.0815], [127.5613, 44.0755], [127.5848, 44.0501], [127.6251, 44.0408], [127.7144, 44.0674], [127.7193, 44.0969], [127.7149, 44.1773], [127.6929, 44.1865], [127.6714, 44.173], [127.6618, 44.1607], [127.5869, 44.1732], [127.5677, 44.2029], [127.5974, 44.228], [127.5431, 44.2758], [127.5036, 44.3308], [127.4588, 44.4055], [127.4085, 44.4645], [127.4001, 44.5263], [127.4715, 44.5235], [127.5308, 44.5484], [127.5122, 44.5672], [127.4482, 44.5917], [127.4114, 44.6127], [127.3545, 44.6099], [127.2464, 44.6266], [127.2273, 44.6059], [127.1955, 44.6098], [127.1616, 44.6239], [127.1407, 44.6528], [127.1262, 44.6512], [127.1018, 44.6279], [127.0682, 44.6057], [127.028, 44.5942], [127.0049, 44.6013]]]}}, {"type": "Feature", "properties": {"osm_type": "relation", "osm_id": 471414137, "name": "Dunhuashi", "admin_level": "6", "kind": "subdivision_2", "parent_osm_id": 198590, "parent_name": "Jilin", "parent_iso": "CN-JL"}, "geometry": {"type": "Polygon", "coordinates": [[[128.2011, 44.433], [128.1678, 44.3865], [128.127, 44.3448], [128.0792, 44.3348], [128.0473, 44.3545], [128.0268, 44.36], [128.0041, 44.3567], [127.9933, 44.3499], [128.0113, 44.3167], [128.0207, 44.2846], [128.0083, 44.2572], [128.0149, 44.2246], [128.0113, 44.2015], [127.9962, 44.1881], [128.0303, 44.1527], [127.9478, 44.084], [127.8509, 44.0615], [127.8181, 44.0586], [127.7873, 44.0681], [127.7491, 44.0648], [127.7447, 44.0101], [127.7608, 43.9762], [127.7958, 43.954], [127.8187, 43.925], [127.7708, 43.8789], [127.8009, 43.811], [127.8168, 43.7189], [127.8498, 43.6241], [127.8072, 43.5954], [127.7667, 43.579], [127.7434, 43.548], [127.7263, 43.5114], [127.6854, 43.4932], [127.6659, 43.4523], [127.6645, 43.4029], [127.6548, 43.3728], [127.6238, 43.3434], [127.5846, 43.3165], [127.6088, 43.263], [127.6068, 43.2282], [127.5902, 43.1982], [127.5426, 43.1504], [127.462, 43.1264], [127.4526, 43.0973], [127.4515, 43.0581], [127.439, 43.0313], [127.4396, 42.9891], [127.5598, 42.9341], [127.5887, 42.9016], [127.6576, 42.8588], [127.6656, 42.8263], [127.7506, 42.7993], [127.8009, 42.763], [127.8977, 42.7704], [127.9327, 42.7551], [127.958, 42.7267], [127.9946, 42.7178], [128.043, 42.725], [128.0972, 42.7421], [128.1091, 42.7684], [128.1156, 42.8434], [128.0836, 42.8676], [128.0414, 42.8629], [128.0303, 42.8902], [128.042, 42.9204], [128.0642, 42.9496], [128.0808, 42.9814], [128.0161, 43.0379], [128.0558, 43.0618], [128.162, 43.0691], [128.1864, 43.1017], [128.2208, 43.1264], [128.2693, 43.1208], [128.3025, 43.1057], [128.4041, 43.1047], [128.4439, 43.0952], [128.5366, 43.0968], [128.5792, 43.0882], [128.6019, 43.1135], [128.5599, 43.1689], [128.5679, 43.2053], [128.5918, 43.2374], [128.623, 43.2681], [128.6696, 43.2763], [128.7056, 43.2898], [128.7406, 43.3157], [128.7864, 43.316], [128.822, 43.33], [128.8958, 43.39], [128.9589, 43.395], [129.0429, 43.3682], [129.1132, 43.3676], [129.1421, 43.3847], [129.0971, 43.4236], [129.0648, 43.5777], [129.0415, 43.5699], [128.9935, 43.535], [128.939, 43.5454], [128.9094, 43.5577], [128.8334, 43.5458], [128.774, 43.5795], [128.7475, 43.6358], [128.7198, 43.7476], [128.7077, 43.7683], [128.6512, 43.8415], [128.4801, 44.0338], [128.4132, 44.1872], [128.4232, 44.2848], [128.4213, 44.3858], [128.3875, 44.4503], [128.2982, 44.4915], [128.2478, 44.4865], [128.2011, 44.433]]]}}, {"type": "Feature", "properties": {"osm_type": "relation", "osm_id": 709060934, "name": "Jiutaishi", "admin_level": "6", "kind": "subdivision_2", "parent_osm_id": 198590, "parent_name": "Jilin", "parent_iso": "CN-JL"}, "geometry": {"type": "Polygon", "coordinates": [[[125.4034, 44.0907], [125.4027, 44.0481], [125.4308, 44.0257], [125.4668, 44.0153], [125.5034, 43.9938], [125.5221, 43.878], [125.6078, 43.8937], [125.6412, 43.9092], [125.7913, 43.8594], [125.8365, 43.8379], [125.8789, 43.8341], [125.9423, 43.8439], [125.9886, 43.8747], [126.0153, 43.8988], [126.02, 43.9328], [125.9893, 43.9577], [125.9766, 43.9916], [125.9754, 44.0329], [126.0187, 44.091], [126.0793, 44.1464], [126.0969, 44.1752], [126.1256, 44.2025], [126.1623, 44.189], [126.1896, 44.2106], [126.2357, 44.2186], [126.2874, 44.219], [126.3332, 44.2133], [126.3959, 44.2203], [126.428, 44.239], [126.4382, 44.3134], [126.4216, 44.3614], [126.442, 44.4082], [126.3929, 44.437], [126.3763, 44.4652], [126.3815, 44.5072], [126.3716, 44.5445], [126.352, 44.56], [126.3106, 44.5534], [126.2566, 44.5562], [126.2076, 44.5678], [126.1682, 44.5485], [126.1159, 44.5357], [126.035, 44.4979], [125.9908, 44.5037], [125.9717, 44.4775], [125.9819, 44.4453], [125.9399, 44.4396], [125.9034, 44.4649], [125.882, 44.4392], [125.8882, 44.4091], [125.8622, 44.3857], [125.8076, 44.3732], [125.6996, 44.3651], [125.6654, 44.3449], [125.6175, 44.3559], [125.5807, 44.3158], [125.546, 44.2393], [125.5361, 44.2065], [125.5356, 44.1727], [125.5275, 44.1441], [125.4034, 44.0907]]]}}, {"type": "Feature", "properties": {"osm_type": "relation", "osm_id": 403297091, "name": "Wangqingxian", "admin_level": "6", "kind": "subdivision_2", "parent_osm_id": 198590, "parent_name": "Jilin", "parent_iso": "CN-JL"}, "geometry": {"type": "Polygon", "coordinates": [[[129.9219, 44.0184], [129.9141, 44.0258], [129.8332, 44.0305], [129.7804, 44.0082], [129.7371, 43.97], [129.7189, 43.9254], [129.7346, 43.8913], [129.6375, 43.8573], [129.5709, 43.8752], [129.508, 43.8616], [129.4002, 43.8608], [129.3509, 43.8497], [129.3199, 43.7997], [129.1935, 43.796], [129.1676, 43.7725], [129.1774, 43.6358], [129.1751, 43.578], [129.0851, 43.5845], [129.0648, 43.5777], [129.0971, 43.4236], [129.1421, 43.3847], [129.2133, 43.3959], [129.2347, 43.3678], [129.2495, 43.2781], [129.2737, 43.2425], [129.3078, 43.2125], [129.34, 43.1916], [129.3939, 43.1849], [129.444, 43.1937], [129.4807, 43.1867], [129.5087, 43.1669], [129.5295, 43.129], [129.6148, 43.1277], [129.6351, 43.1523], [129.6862, 43.1425], [129.7648, 43.1422], [129.8892, 43.1511], [129.9719, 43.1735], [130.0103, 43.1656], [130.0474, 43.1796], [130.0474, 43.2102], [130.0944, 43.2207], [130.1683, 43.2194], [130.2084, 43.2282], [130.3373, 43.2855], [130.3683, 43.2631], [130.3902, 43.2384], [130.4464, 43.2158], [130.5065, 43.2001], [130.5506, 43.1944], [130.5918, 43.2043], [130.6246, 43.2203], [130.6563, 43.2765], [130.6716, 43.3364], [130.6756, 43.3633], [130.6729, 43.3934], [130.6593, 43.4404], [130.6724, 43.4849], [130.7122, 43.5043], [130.7618, 43.4864], [130.6452, 43.5742], [130.6118, 43.5903], [130.5773, 43.5865], [130.535, 43.6112], [130.5439, 43.628], [130.4852, 43.637], [130.4219, 43.6603], [130.3987, 43.6939], [130.3933, 43.7311], [130.3289, 43.7854], [130.2905, 43.905], [130.292, 43.9658], [130.3059, 44.0202], [130.2638, 44.0429], [130.2097, 44.0082], [130.0692, 43.8863], [130.0411, 43.8478], [130.0175, 43.8376], [129.9893, 43.8591], [129.9511, 43.9903], [129.9219, 44.0184]]]}}, {"type": "Feature", "properties": {"osm_type": "relation", "osm_id": 372587046, "name": "Changlingxian", "admin_level": "6", "kind": "subdivision_2", "parent_osm_id": 198590, "parent_name": "Jilin", "parent_iso": "CN-JL"}, "geometry": {"type": "Polygon", "coordinates": [[[123.6196, 44.6615], [123.5449, 44.6802], [123.5058, 44.7089], [123.4298, 44.7116], [123.2917, 44.6679], [123.2581, 44.6532], [123.2312, 44.6285], [123.1901, 44.6039], [123.1497, 44.5904], [123.0919, 44.5827], [123.0766, 44.5124], [123.1207, 44.4991], [123.0958, 44.4142], [123.0903, 44.3787], [123.1343, 44.3207], [123.1829, 44.2945], [123.2084, 44.2346], [123.3147, 44.1508], [123.3278, 44.0731], [123.3204, 44.0669], [123.4909, 44.0666], [123.5909, 44.0834], [123.6288, 44.0854], [123.681, 44.076], [123.7206, 44.0489], [123.7935, 43.973], [123.8406, 43.9674], [123.9086, 43.9795], [123.9837, 44.0044], [124.0279, 44.0064], [124.0884, 43.9978], [124.1797, 43.9723], [124.2224, 43.967], [124.2747, 43.9737], [124.3129, 43.989], [124.3375, 44.0123], [124.3518, 44.0378], [124.383, 44.066], [124.4753, 44.1298], [124.5576, 44.1474], [124.6105, 44.1638], [124.7113, 44.2029], [124.7284, 44.2275], [124.6918, 44.2425], [124.6478, 44.2423], [124.6088, 44.2548], [124.5874, 44.2829], [124.5574, 44.3461], [124.5528, 44.3844], [124.5343, 44.4159], [124.5057, 44.4403], [124.5352, 44.4589], [124.571, 44.4714], [124.5666, 44.5017], [124.5275, 44.5132], [124.5003, 44.5443], [124.3876, 44.5024], [124.2796, 44.4483], [124.1951, 44.4185], [124.1329, 44.3607], [124.0786, 44.3376], [124.0352, 44.3424], [123.9095, 44.4139], [123.9022, 44.4575], [123.8904, 44.4841], [123.8598, 44.5131], [123.8194, 44.5283], [123.725, 44.5384], [123.6738, 44.5591], [123.6561, 44.5909], [123.6273, 44.6086], [123.6196, 44.6615]]]}}, {"type": "Feature", "properties": {"osm_type": "relation", "osm_id": 154952566, "name": "Yongjixian", "admin_level": "6", "kind": "subdivision_2", "parent_osm_id": 198590, "parent_name": "Jilin", "parent_iso": "CN-JL"}, "geometry": {"type": "Polygon", "coordinates": [[[126.4314, 44.2749], [126.428, 44.239], [126.3959, 44.2203], [126.3332, 44.2133], [126.2874, 44.219], [126.2357, 44.2186], [126.1896, 44.2106], [126.1623, 44.189], [126.1256, 44.2025], [126.0969, 44.1752], [126.0793, 44.1464], [126.0187, 44.091], [125.9754, 44.0329], [125.9766, 43.9916], [125.9893, 43.9577], [126.02, 43.9328], [126.0153, 43.8988], [125.9886, 43.8747], [125.9423, 43.8439], [125.8789, 43.8341], [125.8365, 43.8379], [125.7913, 43.8594], [125.7642, 43.8137], [125.7609, 43.7805], [125.7696, 43.7523], [125.837, 43.6626], [125.8526, 43.6261], [125.8543, 43.5871], [125.8331, 43.5529], [125.818, 43.466], [125.8417, 43.443], [125.8766, 43.4298], [125.9615, 43.3846], [125.9765, 43.4163], [126.0582, 43.4303], [126.0794, 43.4556], [126.1095, 43.4331], [126.0926, 43.4016], [126.2057, 43.42], [126.2738, 43.379], [126.3192, 43.3629], [126.3467, 43.393], [126.3575, 43.4197], [126.3869, 43.4393], [126.4029, 43.411], [126.4113, 43.3725], [126.4111, 43.3319], [126.4732, 43.3169], [126.5217, 43.3213], [126.5473, 43.3488], [126.6159, 43.3946], [126.6275, 43.4291], [126.6484, 43.4549], [126.7701, 43.4759], [126.8045, 43.4919], [126.8427, 43.4336], [126.8804, 43.4374], [126.9001, 43.4575], [126.8861, 43.4756], [126.8864, 43.5346], [126.8687, 43.5564], [126.8725, 43.5723], [126.8958, 43.5925], [126.9019, 43.6179], [126.8937, 43.6222], [126.8482, 43.6245], [126.8244, 43.6405], [126.7601, 43.6418], [126.743, 43.6471], [126.7359, 43.6698], [126.6788, 43.6469], [126.5928, 43.6539], [126.5744, 43.6876], [126.5296, 43.7126], [126.4858, 43.6996], [126.4555, 43.6768], [126.4174, 43.6612], [126.375, 43.6722], [126.3526, 43.698], [126.3319, 43.7334], [126.3214, 43.7665], [126.3309, 43.7929], [126.3592, 43.8234], [126.3704, 43.8522], [126.3534, 43.8826], [126.3073, 43.911], [126.3003, 43.947], [126.3026, 43.976], [126.2767, 44.04], [126.2957, 44.0708], [126.331, 44.0957], [126.3737, 44.0952], [126.4164, 44.073], [126.5219, 44.0811], [126.5618, 44.0911], [126.5838, 44.1223], [126.5599, 44.1479], [126.6116, 44.156], [126.6364, 44.1295], [126.6466, 44.0723], [126.6605, 44.0409], [126.6637, 44.0118], [126.6433, 43.9837], [126.6385, 43.9492], [126.661, 43.9111], [126.6985, 43.8791], [126.7366, 43.8592], [126.8082, 43.8468], [126.8119, 43.8907], [126.8372, 43.9867], [126.8259, 44.0185], [126.7274, 44.0897], [126.7495, 44.1149], [126.798, 44.1399], [126.8087, 44.1928], [126.7565, 44.2249], [126.7516, 44.2938], [126.7241, 44.3174], [126.6782, 44.3057], [126.6344, 44.2825], [126.5875, 44.2719], [126.5329, 44.2777], [126.4954, 44.264], [126.4314, 44.2749]]]}}, {"type": "Feature", "properties": {"osm_type": "relation", "osm_id": 911196453, "name": "Jiaohexian", "admin_level": "6", "kind": "subdivision_2", "parent_osm_id": 198590, "parent_name": "Jilin", "parent_iso": "CN-JL"}, "geometry": {"type": "Polygon", "coordinates": [[[127.7144, 44.0674], [127.6251, 44.0408], [127.5848, 44.0501], [127.5613, 44.0755], [127.5118, 44.0815], [127.4575, 44.1332], [127.4086, 44.1438], [127.3659, 44.1338], [127.3466, 44.1089], [127.3125, 44.0839], [127.289, 44.053], [127.2614, 43.9961], [127.2069, 43.9943], [127.1692, 44.0155], [127.1454, 44.0591], [127.1538, 44.0958], [127.1158, 44.1257], [127.0196, 44.1488], [126.9368, 44.1787], [126.8757, 44.182], [126.8087, 44.1928], [126.798, 44.1399], [126.7495, 44.1149], [126.7274, 44.0897], [126.8259, 44.0185], [126.8372, 43.9867], [126.8119, 43.8907], [126.8044, 43.7799], [126.7854, 43.7317], [126.7359, 43.6698], [126.743, 43.6471], [126.7601, 43.6418], [126.8244, 43.6405], [126.8482, 43.6245], [126.8758, 43.6244], [126.9019, 43.6179], [126.8958, 43.5925], [126.8725, 43.5723], [126.8687, 43.5564], [126.8864, 43.5346], [126.8861, 43.4756], [126.9001, 43.4575], [126.9534, 43.4116], [127.038, 43.3815], [127.0729, 43.3739], [127.0848, 43.3659], [127.0821, 43.3371], [127.0675, 43.3091], [127.097, 43.2729], [127.1034, 43.2327], [127.1464, 43.225], [127.1861, 43.2019], [127.2261, 43.1927], [127.2945, 43.2008], [127.3376, 43.2113], [127.3752, 43.2277], [127.455, 43.2828], [127.4904, 43.2676], [127.5314, 43.2845], [127.6238, 43.3434], [127.6548, 43.3728], [127.6645, 43.4029], [127.6659, 43.4523], [127.6854, 43.4932], [127.7263, 43.5114], [127.7434, 43.548], [127.7667, 43.579], [127.8072, 43.5954], [127.8498, 43.6241], [127.8168, 43.7189], [127.8009, 43.811], [127.7708, 43.8789], [127.8187, 43.925], [127.7958, 43.954], [127.7608, 43.9762], [127.7447, 44.0101], [127.7491, 44.0648], [127.7144, 44.0674]]]}}, {"type": "Feature", "properties": {"osm_type": "relation", "osm_id": 286012590, "name": "Jilinshi", "admin_level": "6", "kind": "subdivision_2", "parent_osm_id": 198590, "parent_name": "Jilin", "parent_iso": "CN-JL"}, "geometry": {"type": "Polygon", "coordinates": [[[126.7359, 43.6698], [126.7854, 43.7317], [126.8044, 43.7799], [126.8082, 43.8468], [126.7366, 43.8592], [126.6985, 43.8791], [126.661, 43.9111], [126.6385, 43.9492], [126.6433, 43.9837], [126.6637, 44.0118], [126.6605, 44.0409], [126.6466, 44.0723], [126.6364, 44.1295], [126.6116, 44.156], [126.5599, 44.1479], [126.5838, 44.1223], [126.5618, 44.0911], [126.5219, 44.0811], [126.4164, 44.073], [126.3737, 44.0952], [126.331, 44.0957], [126.2957, 44.0708], [126.2767, 44.04], [126.3026, 43.976], [126.3003, 43.947], [126.3073, 43.911], [126.3534, 43.8826], [126.3704, 43.8522], [126.3592, 43.8234], [126.3309, 43.7929], [126.3214, 43.7665], [126.3319, 43.7334], [126.3526, 43.698], [126.375, 43.6722], [126.4174, 43.6612], [126.4555, 43.6768], [126.4858, 43.6996], [126.5296, 43.7126], [126.5744, 43.6876], [126.5928, 43.6539], [126.6788, 43.6469], [126.7359, 43.6698]]]}}, {"type": "Feature", "properties": {"osm_type": "relation", "osm_id": 327958015, "name": "Huichunshi", "admin_level": "6", "kind": "subdivision_2", "parent_osm_id": 198590, "parent_name": "Jilin", "parent_iso": "CN-JL"}, "geometry": {"type": "Polygon", "coordinates": [[[130.7618, 43.4864], [130.7122, 43.5043], [130.6724, 43.4849], [130.6593, 43.4404], [130.6729, 43.3934], [130.6756, 43.3633], [130.6716, 43.3364], [130.6563, 43.2765], [130.6246, 43.2203], [130.5918, 43.2043], [130.5506, 43.1944], [130.5065, 43.2001], [130.4464, 43.2158], [130.3902, 43.2384], [130.3683, 43.2631], [130.3373, 43.2855], [130.2084, 43.2282], [130.1683, 43.2194], [130.0944, 43.2207], [130.0474, 43.2102], [130.0474, 43.1796], [130.0103, 43.1656], [129.9719, 43.1735], [129.8892, 43.1511], [129.8401, 43.146], [129.8339, 43.0717], [129.8065, 43.0384], [129.7985, 43.0086], [129.8315, 42.9978], [129.8497, 43.003], [129.9058, 43.006], [129.9237, 42.9823], [129.9459, 42.9699], [129.9869, 42.9604], [130.0156, 42.971], [130.0514, 42.9705], [130.083, 42.9595], [130.1005, 42.9441], [130.045, 42.906], [130.1607, 42.8976], [130.1915, 42.8931], [130.2169, 42.883], [130.2314, 42.857], [130.199, 42.7917], [130.2359, 42.7265], [130.2825, 42.6736], [130.3094, 42.6329], [130.3679, 42.6271], [130.401, 42.6176], [130.4, 42.6049], [130.377, 42.5778], [130.4051, 42.5507], [130.4207, 42.5604], [130.4466, 42.598], [130.471, 42.6027], [130.4993, 42.5764], [130.5225, 42.5453], [130.5342, 42.4966], [130.5305, 42.4613], [130.5732, 42.4181], [130.6053, 42.428], [130.5691, 42.4758], [130.5484, 42.5332], [130.5794, 42.5479], [130.5883, 42.5927], [130.5824, 42.6166], [130.5419, 42.6723], [130.5423, 42.6916], [130.524, 42.7174], [130.4547, 42.6852], [130.4107, 42.7018], [130.3771, 42.7233], [130.4309, 42.7504], [130.4967, 42.7748], [130.5086, 42.7851], [130.5623, 42.8112], [130.6168, 42.8271], [130.6592, 42.8227], [130.6868, 42.825], [130.7285, 42.8363], [130.7674, 42.8776], [130.8208, 42.8714], [130.8446, 42.8513], [130.8868, 42.8643], [130.961, 42.8587], [130.9889, 42.8618], [130.9823, 42.8877], [130.9425, 42.9232], [131.0286, 42.9186], [131.0628, 42.93], [131.0622, 42.9541], [131.0391, 43.0028], [131.0683, 43.0759], [131.1298, 43.0924], [131.1405, 43.1065], [131.1549, 43.1994], [131.147, 43.2339], [131.1759, 43.2572], [131.2003, 43.296], [131.223, 43.3378], [131.2308, 43.3727], [131.2491, 43.3994], [131.2485, 43.4236], [131.2385, 43.4509], [131.2087, 43.4924], [131.1514, 43.4615], [131.0768, 43.4478], [130.9716, 43.5126], [130.9371, 43.5125], [130.8521, 43.4648], [130.8126, 43.4527], [130.7618, 43.4864]]]}}, {"type": "Feature", "properties": {"osm_type": "relation", "osm_id": 823707006, "name": "Gongzhulingshi", "admin_level": "6", "kind": "subdivision_2", "parent_osm_id": 198590, "parent_name": "Jilin", "parent_iso": "CN-JL"}, "geometry": {"type": "Polygon", "coordinates": [[[124.7113, 44.2029], [124.5576, 44.1474], [124.4753, 44.1298], [124.383, 44.066], [124.3518, 44.0378], [124.3375, 44.0123], [124.3129, 43.989], [124.2747, 43.9737], [124.2224, 43.967], [124.1797, 43.9723], [124.0884, 43.9978], [124.0279, 44.0064], [123.9837, 44.0044], [124.0179, 43.9092], [124.0237, 43.8787], [124.0099, 43.7875], [124.0348, 43.7335], [124.0629, 43.6943], [124.1339, 43.7092], [124.1911, 43.7654], [124.2426, 43.7699], [124.3527, 43.7684], [124.3919, 43.7577], [124.4068, 43.7627], [124.516, 43.735], [124.5461, 43.7024], [124.6127, 43.6693], [124.6427, 43.6367], [124.6341, 43.5952], [124.6568, 43.5503], [124.6484, 43.5316], [124.6309, 43.5138], [124.6321, 43.4973], [124.6474, 43.4827], [124.6542, 43.4493], [124.6822, 43.43], [124.7059, 43.3458], [124.7198, 43.3247], [124.7194, 43.279], [124.7568, 43.2391], [124.7577, 43.1998], [124.803, 43.2283], [124.828, 43.251], [124.8999, 43.2947], [124.9105, 43.3256], [124.8685, 43.3818], [124.912, 43.3963], [124.9209, 43.4227], [124.9186, 43.4552], [124.9429, 43.4798], [124.9833, 43.5054], [125.0493, 43.5582], [125.082, 43.5771], [125.2274, 43.6246], [125.2626, 43.6433], [125.2597, 43.701], [125.2135, 43.6986], [125.1746, 43.7033], [125.1432, 43.7271], [125.1027, 43.7847], [125.0798, 43.8789], [125.0473, 43.9102], [125.002, 43.9035], [124.9481, 43.9103], [124.8989, 43.9408], [124.8838, 43.9677], [124.838, 44.0178], [124.8023, 44.0391], [124.7313, 44.0953], [124.7093, 44.1222], [124.7011, 44.1556], [124.7113, 44.2029]]]}}, {"type": "Feature", "properties": {"osm_type": "relation", "osm_id": 474806370, "name": "Changchunshi", "admin_level": "6", "kind": "subdivision_2", "parent_osm_id": 198590, "parent_name": "Jilin", "parent_iso": "CN-JL"}, "geometry": {"type": "Polygon", "coordinates": [[[125.0473, 43.9102], [125.0798, 43.8789], [125.1027, 43.7847], [125.1432, 43.7271], [125.1746, 43.7033], [125.2135, 43.6986], [125.2597, 43.701], [125.2626, 43.6433], [125.2757, 43.6141], [125.2542, 43.5747], [125.2544, 43.5388], [125.2458, 43.509], [125.2198, 43.4716], [125.2066, 43.4438], [125.2373, 43.42], [125.2967, 43.4283], [125.3291, 43.4462], [125.3427, 43.5291], [125.3677, 43.5531], [125.4913, 43.6095], [125.4906, 43.6399], [125.4597, 43.66], [125.4527, 43.688], [125.5187, 43.7159], [125.5233, 43.7471], [125.5385, 43.7746], [125.5251, 43.802], [125.4776, 43.811], [125.5221, 43.878], [125.5034, 43.9938], [125.4668, 44.0153], [125.4308, 44.0257], [125.4027, 44.0481], [125.4034, 44.0907], [125.3679, 44.1068], [125.3198, 44.1078], [125.2158, 44.141], [125.2122, 44.0904], [125.1059, 44.0075], [125.0556, 43.9788], [125.041, 43.9479], [125.0473, 43.9102]]]}}, {"type": "Feature", "properties": {"osm_type": "relation", "osm_id": 811801852, "name": "Nonganxian", "admin_level": "6", "kind": "subdivision_2", "parent_osm_id": 198590, "parent_name": "Jilin", "parent_iso": "CN-JL"}, "geometry": {"type": "Polygon", "coordinates": [[[125.5221, 43.878], [125.4776, 43.811], [125.5251, 43.802], [125.5385, 43.7746], [125.5233, 43.7471], [125.5187, 43.7159], [125.4527, 43.688], [125.4597, 43.66], [125.4906, 43.6399], [125.4913, 43.6095], [125.4083, 43.5701], [125.4307, 43.5291], [125.4335, 43.4998], [125.4816, 43.4468], [125.4742, 43.4114], [125.5156, 43.4021], [125.5557, 43.4004], [125.5435, 43.3716], [125.5213, 43.3435], [125.5445, 43.315], [125.5711, 43.2936], [125.6065, 43.2743], [125.6726, 43.2572], [125.7148, 43.2627], [125.7451, 43.2874], [125.7902, 43.2968], [125.842, 43.2861], [125.8939, 43.2922], [125.9415, 43.3096], [125.9797, 43.33], [125.9615, 43.3846], [125.8766, 43.4298], [125.8417, 43.443], [125.818, 43.466], [125.8331, 43.5529], [125.8543, 43.5871], [125.8526, 43.6261], [125.837, 43.6626], [125.7696, 43.7523], [125.7609, 43.7805], [125.7642, 43.8137], [125.7913, 43.8594], [125.6412, 43.9092], [125.6078, 43.8937], [125.5221, 43.878]]]}}, {"type": "Feature", "properties": {"osm_type": "relation", "osm_id": 551723568, "name": "Suanliaoxian", "admin_level": "6", "kind": "subdivision_2", "parent_osm_id": 198590, "parent_name": "Jilin", "parent_iso": "CN-JL"}, "geometry": {"type": "Polygon", "coordinates": [[[123.3204, 44.0669], [123.3088, 44.0323], [123.3196, 43.9921], [123.3993, 43.9028], [123.4193, 43.8389], [123.421, 43.7996], [123.3953, 43.7368], [123.4555, 43.6918], [123.4965, 43.6422], [123.4572, 43.5807], [123.4286, 43.5509], [123.3761, 43.5397], [123.3447, 43.5427], [123.3223, 43.5335], [123.3134, 43.474], [123.2963, 43.4561], [123.3067, 43.4388], [123.3968, 43.4072], [123.4804, 43.3665], [123.4834, 43.3825], [123.4716, 43.4163], [123.4779, 43.4254], [123.5717, 43.3902], [123.6614, 43.3813], [123.6535, 43.4115], [123.6688, 43.4197], [123.7054, 43.4194], [123.7147, 43.4674], [123.7319, 43.4852], [123.7477, 43.5196], [123.7586, 43.5283], [123.7733, 43.5333], [123.8279, 43.5311], [123.9021, 43.5825], [123.9398, 43.6341], [124.0629, 43.6943], [124.0348, 43.7335], [124.0099, 43.7875], [124.0237, 43.8787], [124.0179, 43.9092], [123.9837, 44.0044], [123.9086, 43.9795], [123.8406, 43.9674], [123.7935, 43.973], [123.7206, 44.0489], [123.681, 44.076], [123.6288, 44.0854], [123.5909, 44.0834], [123.4909, 44.0666], [123.3204, 44.0669]]]}}, {"type": "Feature", "properties": {"osm_type": "relation", "osm_id": 550306713, "name": "Longjingshi", "admin_level": "6", "kind": "subdivision_2", "parent_osm_id": 198590, "parent_name": "Jilin", "parent_iso": "CN-JL"}, "geometry": {"type": "Polygon", "coordinates": [[[128.9589, 43.395], [128.9587, 43.3328], [128.9992, 43.3071], [129.0221, 43.2821], [129.0114, 43.2484], [129.0343, 43.2211], [128.9974, 43.1867], [128.9852, 43.1425], [129.0027, 43.1164], [129.0976, 43.098], [129.1357, 43.0824], [129.1003, 43.0577], [129.0764, 43.0242], [129.0624, 42.9873], [129.0189, 42.9647], [128.9673, 42.9564], [128.9338, 42.9703], [128.8926, 42.9558], [128.905, 42.907], [128.9277, 42.8746], [128.94, 42.8347], [128.9603, 42.8008], [129.0193, 42.7427], [129.056, 42.7344], [129.1359, 42.7519], [129.2142, 42.7866], [129.2534, 42.798], [129.293, 42.8], [129.3322, 42.771], [129.3429, 42.7328], [129.3335, 42.6455], [129.2526, 42.624], [129.2287, 42.561], [129.2065, 42.5329], [129.2423, 42.5082], [129.2671, 42.4801], [129.2828, 42.4258], [129.2949, 42.4308], [129.3366, 42.4204], [129.3471, 42.4263], [129.3804, 42.4318], [129.4187, 42.4228], [129.4382, 42.4099], [129.467, 42.37], [129.5084, 42.3679], [129.5054, 42.3996], [129.5473, 42.4084], [129.5595, 42.4397], [129.5905, 42.4225], [129.6238, 42.4233], [129.6522, 42.4386], [129.6667, 42.4641], [129.6763, 42.4949], [129.6803, 42.5238], [129.6765, 42.5565], [129.6943, 42.5843], [129.7022, 42.609], [129.6996, 42.6369], [129.7027, 42.6576], [129.7107, 42.673], [129.6849, 42.719], [129.7006, 42.7582], [129.7378, 42.7945], [129.6812, 42.7894], [129.6627, 42.8261], [129.6558, 42.853], [129.6567, 42.8848], [129.6993, 42.9431], [129.6964, 42.9858], [129.6744, 43.0085], [129.6623, 43.0437], [129.6148, 43.1277], [129.5295, 43.129], [129.5087, 43.1669], [129.4807, 43.1867], [129.444, 43.1937], [129.3939, 43.1849], [129.34, 43.1916], [129.3078, 43.2125], [129.2737, 43.2425], [129.2495, 43.2781], [129.2347, 43.3678], [129.2133, 43.3959], [129.1421, 43.3847], [129.1132, 43.3676], [129.0429, 43.3682], [128.9589, 43.395]], [[129.4388, 42.8473], [129.4083, 42.8754], [129.4074, 42.908], [129.4123, 42.9345], [129.4389, 42.9638], [129.4787, 42.9704], [129.5097, 42.9478], [129.503, 42.8774], [129.4864, 42.848], [129.4388, 42.8473]]]}}, {"type": "Feature", "properties": {"osm_type": "relation", "osm_id": 945224073, "name": "Antuxian", "admin_level": "6", "kind": "subdivision_2", "parent_osm_id": 198590, "parent_name": "Jilin", "parent_iso": "CN-JL"}, "geometry": {"type": "Polygon", "coordinates": [[[127.8009, 42.763], [127.8134, 42.7266], [127.8051, 42.6992], [127.8516, 42.6482], [127.8923, 42.626], [127.8936, 42.5926], [127.964, 42.5447], [127.9882, 42.5053], [127.9814, 42.4459], [127.9523, 42.4084], [127.8618, 42.3389], [127.8407, 42.3054], [127.7933, 42.2939], [127.7651, 42.2642], [127.8712, 42.2351], [127.8854, 42.1592], [127.9575, 42.084], [127.9807, 42.0484], [128.0312, 42.0011], [128.3423, 42.006], [128.3648, 42.0003], [128.4667, 42.0017], [128.4194, 42.0471], [128.3594, 42.1499], [128.3681, 42.1805], [128.3951, 42.2023], [128.4886, 42.2158], [128.5203, 42.2477], [128.5488, 42.2678], [128.6071, 42.2686], [128.65, 42.2932], [128.6242, 42.3157], [128.6346, 42.3498], [128.6364, 42.3889], [128.6157, 42.4214], [128.5978, 42.4901], [128.5636, 42.5355], [128.5565, 42.5815], [128.5307, 42.6537], [128.5127, 42.6849], [128.5071, 42.718], [128.5478, 42.7735], [128.5833, 42.7931], [128.6514, 42.8141], [128.691, 42.8045], [128.7403, 42.8005], [128.7393, 42.8316], [128.7495, 42.862], [128.7611, 42.8908], [128.7813, 42.916], [128.8178, 42.9228], [128.9338, 42.9703], [128.9673, 42.9564], [129.0189, 42.9647], [129.0624, 42.9873], [129.0764, 43.0242], [129.1003, 43.0577], [129.1357, 43.0824], [129.0976, 43.098], [129.0027, 43.1164], [128.9852, 43.1425], [128.9974, 43.1867], [129.0343, 43.2211], [129.0114, 43.2484], [129.0221, 43.2821], [128.9992, 43.3071], [128.9587, 43.3328], [128.9589, 43.395], [128.8958, 43.39], [128.822, 43.33], [128.7864, 43.316], [128.7406, 43.3157], [128.7056, 43.2898], [128.6696, 43.2763], [128.623, 43.2681], [128.5918, 43.2374], [128.5679, 43.2053], [128.5599, 43.1689], [128.6019, 43.1135], [128.5792, 43.0882], [128.5366, 43.0968], [128.4439, 43.0952], [128.4041, 43.1047], [128.3025, 43.1057], [128.2693, 43.1208], [128.2208, 43.1264], [128.1864, 43.1017], [128.162, 43.0691], [128.0558, 43.0618], [128.0161, 43.0379], [128.0808, 42.9814], [128.0642, 42.9496], [128.042, 42.9204], [128.0303, 42.8902], [128.0414, 42.8629], [128.0836, 42.8676], [128.1156, 42.8434], [128.1091, 42.7684], [128.0972, 42.7421], [128.043, 42.725], [127.9946, 42.7178], [127.958, 42.7267], [127.9327, 42.7551], [127.8977, 42.7704], [127.8009, 42.763]]]}}, {"type": "Feature", "properties": {"osm_type": "relation", "osm_id": 522438584, "name": "Tumenshi", "admin_level": "6", "kind": "subdivision_2", "parent_osm_id": 198590, "parent_name": "Jilin", "parent_iso": "CN-JL"}, "geometry": {"type": "Polygon", "coordinates": [[[129.6148, 43.1277], [129.6623, 43.0437], [129.6744, 43.0085], [129.6964, 42.9858], [129.6993, 42.9431], [129.6567, 42.8848], [129.6558, 42.853], [129.6627, 42.8261], [129.6812, 42.7894], [129.7378, 42.7945], [129.7516, 42.8135], [129.774, 42.872], [129.7701, 42.9093], [129.7769, 42.9388], [129.8284, 42.9581], [129.8261, 42.9962], [129.8315, 42.9978], [129.7985, 43.0086], [129.8065, 43.0384], [129.8339, 43.0717], [129.8401, 43.146], [129.6862, 43.1425], [129.6351, 43.1523], [129.6148, 43.1277]]]}}, {"type": "Feature", "properties": {"osm_type": "relation", "osm_id": 859384040, "name": "Lishuxian", "admin_level": "6", "kind": "subdivision_2", "parent_osm_id": 198590, "parent_name": "Jilin", "parent_iso": "CN-JL"}, "geometry": {"type": "Polygon", "coordinates": [[[124.0629, 43.6943], [123.9398, 43.6341], [123.9021, 43.5825], [123.8279, 43.5311], [123.7733, 43.5333], [123.7586, 43.5283], [123.7477, 43.5196], [123.7319, 43.4852], [123.8252, 43.4657], [123.8521, 43.3589], [123.9269, 43.3298], [123.9701, 43.3003], [124.0426, 43.266], [124.1028, 43.2716], [124.1805, 43.2142], [124.3017, 43.1931], [124.4069, 43.1969], [124.4545, 43.1933], [124.4897, 43.1786], [124.5045, 43.1531], [124.439, 43.1081], [124.4427, 43.0718], [124.4765, 43.0535], [124.528, 43.0447], [124.5529, 43.0176], [124.5326, 42.9925], [124.4635, 42.9563], [124.3963, 42.9292], [124.401, 42.9273], [124.4043, 42.8884], [124.3637, 42.8854], [124.3821, 42.8593], [124.4246, 42.8405], [124.4887, 42.8418], [124.5425, 42.9151], [124.6028, 42.9581], [124.6717, 43.0425], [124.7228, 43.0828], [124.7993, 43.1241], [124.8294, 43.1219], [124.8108, 43.1484], [124.7577, 43.1998], [124.7568, 43.2391], [124.7194, 43.279], [124.7198, 43.3247], [124.7059, 43.3458], [124.6822, 43.43], [124.6542, 43.4493], [124.6474, 43.4827], [124.6321, 43.4973], [124.6309, 43.5138], [124.6484, 43.5316], [124.6568, 43.5503], [124.6341, 43.5952], [124.6427, 43.6367], [124.6127, 43.6693], [124.5461, 43.7024], [124.516, 43.735], [124.4068, 43.7627], [124.3919, 43.7577], [124.3527, 43.7684], [124.2426, 43.7699], [124.1911, 43.7654], [124.1339, 43.7092], [124.0629, 43.6943]]]}}, {"type": "Feature", "properties": {"osm_type": "relation", "osm_id": 700318738, "name": "Huadianshi", "admin_level": "6", "kind": "subdivision_2", "parent_osm_id": 198590, "parent_name": "Jilin", "parent_iso": "CN-JL"}, "geometry": {"type": "Polygon", "coordinates": [[[127.5846, 43.3165], [127.5314, 43.2845], [127.4904, 43.2676], [127.455, 43.2828], [127.3752, 43.2277], [127.3376, 43.2113], [127.2945, 43.2008], [127.2261, 43.1927], [127.1861, 43.2019], [127.1464, 43.225], [127.1034, 43.2327], [127.097, 43.2729], [127.0675, 43.3091], [127.0821, 43.3371], [127.0848, 43.3659], [127.0729, 43.3739], [127.038, 43.3815], [126.9534, 43.4116], [126.9001, 43.4575], [126.8804, 43.4374], [126.8427, 43.4336], [126.8045, 43.4919], [126.7701, 43.4759], [126.6484, 43.4549], [126.6275, 43.4291], [126.6159, 43.3946], [126.5473, 43.3488], [126.5217, 43.3213], [126.4732, 43.3169], [126.4111, 43.3319], [126.4113, 43.3725], [126.4029, 43.411], [126.3869, 43.4393], [126.3575, 43.4197], [126.3467, 43.393], [126.3192, 43.3629], [126.2877, 43.2941], [126.3259, 43.277], [126.357, 43.2539], [126.3256, 43.2336], [126.2712, 43.2303], [126.3068, 43.1758], [126.3125, 43.1494], [126.3967, 43.1193], [126.4351, 43.1008], [126.4558, 43.0766], [126.5031, 43.0663], [126.5404, 43.0488], [126.56, 42.9893], [126.5626, 42.9529], [126.5762, 42.9259], [126.5755, 42.8789], [126.585, 42.8426], [126.6353, 42.8378], [126.6343, 42.8076], [126.6061, 42.7712], [126.6054, 42.74], [126.621, 42.7136], [126.7223, 42.661], [126.7456, 42.6936], [126.7628, 42.7472], [126.7872, 42.7736], [126.9165, 42.8002], [126.9814, 42.7857], [127.0433, 42.778], [127.1208, 42.7781], [127.1598, 42.7699], [127.1706, 42.7391], [127.2187, 42.6937], [127.2156, 42.681], [127.1797, 42.6266], [127.1751, 42.6075], [127.1875, 42.6027], [127.2798, 42.6271], [127.3066, 42.5876], [127.3505, 42.5624], [127.4085, 42.5583], [127.4233, 42.5629], [127.4565, 42.6242], [127.5134, 42.6333], [127.5297, 42.6443], [127.5724, 42.6879], [127.6087, 42.7423], [127.6451, 42.7605], [127.6494, 42.796], [127.6656, 42.8263], [127.6576, 42.8588], [127.5887, 42.9016], [127.5598, 42.9341], [127.4396, 42.9891], [127.439, 43.0313], [127.4515, 43.0581], [127.4526, 43.0973], [127.462, 43.1264], [127.5426, 43.1504], [127.5902, 43.1982], [127.6068, 43.2282], [127.6088, 43.263], [127.5846, 43.3165]]]}}, {"type": "Feature", "properties": {"osm_type": "relation", "osm_id": 869421893, "name": "Yitongmazuzizixian", "admin_level": "6", "kind": "subdivision_2", "parent_osm_id": 198590, "parent_name": "Jilin", "parent_iso": "CN-JL"}, "geometry": {"type": "Polygon", "coordinates": [[[124.7577, 43.1998], [124.8108, 43.1484], [124.8294, 43.1219], [124.8743, 43.1221], [124.9119, 43.1474], [124.9441, 43.1767], [124.9874, 43.1879], [125.0277, 43.1738], [125.0659, 43.1757], [125.1129, 43.2233], [125.1619, 43.2141], [125.2268, 43.1434], [125.2735, 43.1102], [125.3205, 43.0985], [125.3452, 43.1216], [125.3515, 43.1656], [125.3902, 43.1803], [125.4528, 43.1416], [125.4741, 43.1072], [125.485, 43.0695], [125.5316, 43.0587], [125.6338, 43.0572], [125.7241, 43.0479], [125.7429, 43.0777], [125.7292, 43.106], [125.654, 43.135], [125.6185, 43.1641], [125.6131, 43.1927], [125.6467, 43.224], [125.6726, 43.2572], [125.6065, 43.2743], [125.5711, 43.2936], [125.5445, 43.315], [125.5213, 43.3435], [125.5435, 43.3716], [125.5557, 43.4004], [125.5156, 43.4021], [125.4742, 43.4114], [125.4816, 43.4468], [125.4335, 43.4998], [125.4307, 43.5291], [125.4083, 43.5701], [125.3677, 43.5531], [125.3427, 43.5291], [125.3291, 43.4462], [125.2967, 43.4283], [125.2373, 43.42], [125.2066, 43.4438], [125.2198, 43.4716], [125.2458, 43.509], [125.2544, 43.5388], [125.2542, 43.5747], [125.2757, 43.6141], [125.2626, 43.6433], [125.2274, 43.6246], [125.082, 43.5771], [125.0493, 43.5582], [124.9833, 43.5054], [124.9429, 43.4798], [124.9186, 43.4552], [124.9209, 43.4227], [124.912, 43.3963], [124.8685, 43.3818], [124.9105, 43.3256], [124.8999, 43.2947], [124.828, 43.251], [124.803, 43.2283], [124.7577, 43.1998]]]}}, {"type": "Feature", "properties": {"osm_type": "relation", "osm_id": 483811330, "name": "Panshishi", "admin_level": "6", "kind": "subdivision_2", "parent_osm_id": 198590, "parent_name": "Jilin", "parent_iso": "CN-JL"}, "geometry": {"type": "Polygon", "coordinates": [[[125.9615, 43.3846], [125.9797, 43.33], [125.9415, 43.3096], [125.8939, 43.2922], [125.842, 43.2861], [125.7902, 43.2968], [125.7451, 43.2874], [125.7148, 43.2627], [125.6726, 43.2572], [125.6467, 43.224], [125.6131, 43.1927], [125.6185, 43.1641], [125.654, 43.135], [125.7292, 43.106], [125.7429, 43.0777], [125.7241, 43.0479], [125.6338, 43.0572], [125.6388, 43.024], [125.6725, 43.0039], [125.6927, 42.98], [125.7652, 42.9887], [125.8064, 42.9714], [125.8276, 42.9459], [125.8579, 42.8786], [125.9094, 42.8059], [125.9525, 42.7837], [126.0968, 42.7653], [126.1929, 42.7474], [126.2262, 42.7744], [126.2613, 42.7876], [126.2976, 42.7955], [126.3406, 42.7862], [126.3569, 42.7099], [126.3829, 42.6743], [126.4159, 42.6574], [126.4731, 42.656], [126.5145, 42.6641], [126.55, 42.6791], [126.5803, 42.7031], [126.621, 42.7136], [126.6054, 42.74], [126.6061, 42.7712], [126.6343, 42.8076], [126.6353, 42.8378], [126.585, 42.8426], [126.5755, 42.8789], [126.5762, 42.9259], [126.5626, 42.9529], [126.56, 42.9893], [126.5404, 43.0488], [126.5031, 43.0663], [126.4558, 43.0766], [126.4351, 43.1008], [126.3967, 43.1193], [126.3125, 43.1494], [126.3068, 43.1758], [126.2712, 43.2303], [126.3256, 43.2336], [126.357, 43.2539], [126.3259, 43.277], [126.2877, 43.2941], [126.3192, 43.3629], [126.2738, 43.379], [126.2057, 43.42], [126.0926, 43.4016], [126.1095, 43.4331], [126.0794, 43.4556], [126.0582, 43.4303], [125.9765, 43.4163], [125.9615, 43.3846]]]}}, {"type": "Feature", "properties": {"osm_type": "relation", "osm_id": 110033683, "name": "Yanjishi", "admin_level": "6", "kind": "subdivision_2", "parent_osm_id": 198590, "parent_name": "Jilin", "parent_iso": "CN-JL"}, "geometry": {"type": "Polygon", "coordinates": [[[129.4388, 42.8473], [129.4864, 42.848], [129.503, 42.8774], [129.5097, 42.9478], [129.4787, 42.9704], [129.4389, 42.9638], [129.4123, 42.9345], [129.4074, 42.908], [129.4083, 42.8754], [129.4388, 42.8473]]]}}, {"type": "Feature", "properties": {"osm_type": "relation", "osm_id": 510851112, "name": "Helongshi", "admin_level": "6", "kind": "subdivision_2", "parent_osm_id": 198590, "parent_name": "Jilin", "parent_iso": "CN-JL"}, "geometry": {"type": "Polygon", "coordinates": [[[128.8926, 42.9558], [128.8178, 42.9228], [128.7813, 42.916], [128.7611, 42.8908], [128.7495, 42.862], [128.7393, 42.8316], [128.7403, 42.8005], [128.691, 42.8045], [128.6514, 42.8141], [128.5833, 42.7931], [128.5478, 42.7735], [128.5071, 42.718], [128.5127, 42.6849], [128.5307, 42.6537], [128.5565, 42.5815], [128.5636, 42.5355], [128.5978, 42.4901], [128.6157, 42.4214], [128.6364, 42.3889], [128.6346, 42.3498], [128.6242, 42.3157], [128.65, 42.2932], [128.6071, 42.2686], [128.5488, 42.2678], [128.5203, 42.2477], [128.4886, 42.2158], [128.3951, 42.2023], [128.3681, 42.1805], [128.3594, 42.1499], [128.4194, 42.0471], [128.4667, 42.0017], [128.5339, 41.9997], [128.5605, 42.02], [128.5889, 42.0272], [128.626, 42.024], [128.6728, 42.0342], [128.7028, 42.0329], [128.7827, 42.0138], [128.8535, 42.0042], [128.8891, 42.0149], [128.902, 42.0453], [128.8908, 42.0606], [129.0216, 42.1206], [129.0408, 42.1217], [129.0824, 42.1352], [129.1497, 42.1938], [129.1492, 42.2113], [129.136, 42.248], [129.1723, 42.2651], [129.1574, 42.2956], [129.191, 42.3075], [129.1968, 42.3195], [129.1823, 42.3417], [129.1874, 42.3612], [129.2597, 42.3797], [129.2634, 42.4177], [129.2828, 42.4258], [129.2671, 42.4801], [129.2423, 42.5082], [129.2065, 42.5329], [129.2287, 42.561], [129.2526, 42.624], [129.3335, 42.6455], [129.3429, 42.7328], [129.3322, 42.771], [129.293, 42.8], [129.2534, 42.798], [129.2142, 42.7866], [129.1359, 42.7519], [129.0957, 42.7411], [129.056, 42.7344], [129.0193, 42.7427], [128.9603, 42.8008], [128.94, 42.8347], [128.9277, 42.8746], [128.905, 42.907], [128.8926, 42.9558]]]}}, {"type": "Feature", "properties": {"osm_type": "relation", "osm_id": 600113867, "name": "Dongliaoxian", "admin_level": "6", "kind": "subdivision_2", "parent_osm_id": 198590, "parent_name": "Jilin", "parent_iso": "CN-JL"}, "geometry": {"type": "Polygon", "coordinates": [[[124.8294, 43.1219], [124.8447, 43.0176], [124.8371, 42.9394], [124.808, 42.8724], [124.7923, 42.8157], [124.8271, 42.7608], [124.9411, 42.7556], [124.9275, 42.6852], [124.9478, 42.6336], [124.9629, 42.6167], [125.0036, 42.6024], [125.0353, 42.5978], [125.1033, 42.6667], [125.144, 42.6474], [125.1832, 42.6496], [125.2228, 42.6644], [125.2624, 42.6852], [125.3144, 42.745], [125.3574, 42.7635], [125.4501, 42.7834], [125.4897, 42.8121], [125.5007, 42.8387], [125.5138, 42.9051], [125.5267, 42.9371], [125.555, 42.9677], [125.5472, 42.9971], [125.4668, 43.0027], [125.43, 43.0707], [125.3993, 43.0963], [125.3484, 43.1557], [125.3452, 43.1216], [125.3205, 43.0985], [125.2735, 43.1102], [125.2268, 43.1434], [125.1619, 43.2141], [125.1129, 43.2233], [125.0659, 43.1757], [125.0277, 43.1738], [124.9874, 43.1879], [124.9441, 43.1767], [124.9119, 43.1474], [124.8743, 43.1221], [124.8294, 43.1219]], [[125.1247, 42.8099], [125.0851, 42.8403], [125.0542, 42.8822], [125.0316, 42.945], [125.046, 42.9708], [125.0891, 42.9726], [125.133, 42.9641], [125.2114, 42.9951], [125.221, 42.9618], [125.1991, 42.9197], [125.1892, 42.8865], [125.1579, 42.8325], [125.1247, 42.8099]]]}}, {"type": "Feature", "properties": {"osm_type": "relation", "osm_id": 964334857, "name": "Dongfengxian", "admin_level": "6", "kind": "subdivision_2", "parent_osm_id": 198590, "parent_name": "Jilin", "parent_iso": "CN-JL"}, "geometry": {"type": "Polygon", "coordinates": [[[125.3484, 43.1557], [125.3993, 43.0963], [125.43, 43.0707], [125.4668, 43.0027], [125.5472, 42.9971], [125.555, 42.9677], [125.5267, 42.9371], [125.5138, 42.9051], [125.5007, 42.8387], [125.4897, 42.8121], [125.4501, 42.7834], [125.3574, 42.7635], [125.3144, 42.745], [125.2624, 42.6852], [125.1832, 42.6496], [125.144, 42.6474], [125.1033, 42.6667], [125.0353, 42.5978], [125.0593, 42.5944], [125.0504, 42.529], [125.0496, 42.4428], [125.1147, 42.4096], [125.1292, 42.3487], [125.1269, 42.3032], [125.2122, 42.3009], [125.2187, 42.294], [125.2917, 42.3277], [125.4008, 42.393], [125.4941, 42.4341], [125.5823, 42.4852], [125.6005, 42.5188], [125.6511, 42.5688], [125.6725, 42.6025], [125.6548, 42.6262], [125.6164, 42.6552], [125.613, 42.6845], [125.6216, 42.717], [125.6525, 42.7318], [125.7398, 42.7302], [125.7917, 42.7354], [125.7995, 42.7638], [125.7594, 42.7828], [125.7279, 42.804], [125.7127, 42.8334], [125.7067, 42.8649], [125.7193, 42.9202], [125.7184, 42.9492], [125.6725, 43.0039], [125.6388, 43.024], [125.6338, 43.0572], [125.5316, 43.0587], [125.485, 43.0695], [125.4741, 43.1072], [125.4528, 43.1416], [125.3902, 43.1803], [125.3515, 43.1656], [125.3484, 43.1557]]]}}, {"type": "Feature", "properties": {"osm_type": "relation", "osm_id": 105787347, "name": "Wushongxian", "admin_level": "6", "kind": "subdivision_2", "parent_osm_id": 198590, "parent_name": "Jilin", "parent_iso": "CN-JL"}, "geometry": {"type": "Polygon", "coordinates": [[[127.6656, 42.8263], [127.6494, 42.796], [127.6451, 42.7605], [127.6087, 42.7423], [127.5724, 42.6879], [127.5297, 42.6443], [127.5134, 42.6333], [127.4565, 42.6242], [127.4233, 42.5629], [127.4085, 42.5583], [127.3505, 42.5624], [127.3066, 42.5876], [127.2798, 42.6271], [127.1875, 42.6027], [127.1751, 42.6075], [127.1797, 42.6266], [127.1502, 42.6172], [127.0729, 42.6171], [127.0514, 42.6034], [127.0392, 42.5526], [126.9863, 42.4643], [127.0176, 42.4244], [126.9901, 42.3853], [126.9848, 42.363], [126.9934, 42.3423], [127.0284, 42.3183], [127.054, 42.3118], [127.0863, 42.3143], [127.1033, 42.3285], [127.1627, 42.3309], [127.1849, 42.3477], [127.1937, 42.3466], [127.209, 42.3348], [127.2181, 42.2977], [127.229, 42.2865], [127.2324, 42.2631], [127.1806, 42.2173], [127.1173, 42.1795], [127.0592, 42.1358], [127.1026, 42.0973], [127.1141, 42.0635], [127.1338, 42.0374], [127.2957, 42.0059], [127.3876, 42.0006], [127.4213, 41.9717], [127.4268, 41.8966], [127.4529, 41.8748], [127.5141, 41.8592], [127.5322, 41.8324], [127.5612, 41.8022], [127.5887, 41.7834], [127.7744, 41.7165], [127.8715, 41.7041], [127.9019, 41.7306], [127.9116, 41.7661], [127.9513, 41.788], [127.9897, 41.7998], [128.0591, 41.8438], [128.056, 41.9355], [128.0351, 41.9685], [127.9937, 42.0004], [128.0312, 42.0011], [127.9807, 42.0484], [127.9575, 42.084], [127.8854, 42.1592], [127.8712, 42.2351], [127.7651, 42.2642], [127.7933, 42.2939], [127.8407, 42.3054], [127.8618, 42.3389], [127.9523, 42.4084], [127.9814, 42.4459], [127.9882, 42.5053], [127.964, 42.5447], [127.8936, 42.5926], [127.8923, 42.626], [127.8516, 42.6482], [127.8051, 42.6992], [127.8134, 42.7266], [127.8009, 42.763], [127.7506, 42.7993], [127.6656, 42.8263]]]}}, {"type": "Feature", "properties": {"osm_type": "relation", "osm_id": 386484252, "name": "Meihekoushi", "admin_level": "6", "kind": "subdivision_2", "parent_osm_id": 198590, "parent_name": "Jilin", "parent_iso": "CN-JL"}, "geometry": {"type": "Polygon", "coordinates": [[[125.6927, 42.98], [125.7184, 42.9492], [125.7193, 42.9202], [125.7067, 42.8649], [125.7127, 42.8334], [125.7279, 42.804], [125.7594, 42.7828], [125.7995, 42.7638], [125.7917, 42.7354], [125.7398, 42.7302], [125.6525, 42.7318], [125.6216, 42.717], [125.613, 42.6845], [125.6164, 42.6552], [125.6548, 42.6262], [125.6725, 42.6025], [125.6511, 42.5688], [125.6005, 42.5188], [125.5823, 42.4852], [125.4941, 42.4341], [125.4008, 42.393], [125.2917, 42.3277], [125.2187, 42.294], [125.2426, 42.2688], [125.2296, 42.2137], [125.2302, 42.1875], [125.2585, 42.1808], [125.2677, 42.125], [125.2826, 42.1197], [125.3356, 42.147], [125.3913, 42.1461], [125.3957, 42.1408], [125.5017, 42.1738], [125.5132, 42.2055], [125.5506, 42.2311], [125.5778, 42.258], [125.6317, 42.268], [125.6687, 42.2806], [125.6971, 42.3017], [125.7466, 42.3551], [125.7926, 42.3685], [125.8357, 42.3905], [125.8598, 42.4275], [125.8767, 42.4659], [125.9834, 42.582], [125.9912, 42.6104], [125.99, 42.6455], [125.9773, 42.7175], [126.0075, 42.7748], [125.9525, 42.7837], [125.9094, 42.8059], [125.8579, 42.8786], [125.8276, 42.9459], [125.8064, 42.9714], [125.7652, 42.9887], [125.6927, 42.98]]]}}, {"type": "Feature", "properties": {"osm_type": "relation", "osm_id": 966855568, "name": "Jingyuxian", "admin_level": "6", "kind": "subdivision_2", "parent_osm_id": 198590, "parent_name": "Jilin", "parent_iso": "CN-JL"}, "geometry": {"type": "Polygon", "coordinates": [[[126.7223, 42.661], [126.6984, 42.6348], [126.621, 42.5913], [126.6063, 42.5643], [126.6068, 42.5297], [126.6169, 42.4966], [126.5864, 42.4712], [126.5333, 42.4395], [126.5015, 42.411], [126.4897, 42.3799], [126.5012, 42.3341], [126.4892, 42.276], [126.507, 42.241], [126.5427, 42.2157], [126.5379, 42.1875], [126.6197, 42.1785], [126.6529, 42.1923], [126.6907, 42.1943], [126.692, 42.1633], [126.6751, 42.1296], [126.6917, 42.1027], [126.726, 42.093], [126.7955, 42.1028], [126.8787, 42.1332], [126.9138, 42.1135], [126.9326, 42.0886], [126.9607, 42.0666], [126.9967, 42.1042], [127.0592, 42.1358], [127.1173, 42.1795], [127.1806, 42.2173], [127.2324, 42.2631], [127.229, 42.2865], [127.2181, 42.2977], [127.209, 42.3348], [127.1937, 42.3466], [127.1849, 42.3477], [127.1627, 42.3309], [127.1033, 42.3285], [127.0863, 42.3143], [127.054, 42.3118], [127.0284, 42.3183], [126.9934, 42.3423], [126.9848, 42.363], [126.9901, 42.3853], [127.0176, 42.4244], [126.9863, 42.4643], [127.0392, 42.5526], [127.0514, 42.6034], [127.0729, 42.6171], [127.1502, 42.6172], [127.1797, 42.6266], [127.2156, 42.681], [127.2187, 42.6937], [127.1706, 42.7391], [127.1598, 42.7699], [127.1208, 42.7781], [127.0433, 42.778], [126.9814, 42.7857], [126.9165, 42.8002], [126.7872, 42.7736], [126.7628, 42.7472], [126.7456, 42.6936], [126.7223, 42.661]]]}}, {"type": "Feature", "properties": {"osm_type": "relation", "osm_id": 883716203, "name": "Liaoyuanshi", "admin_level": "6", "kind": "subdivision_2", "parent_osm_id": 198590, "parent_name": "Jilin", "parent_iso": "CN-JL"}, "geometry": {"type": "Polygon", "coordinates": [[[125.1247, 42.8099], [125.1579, 42.8325], [125.1892, 42.8865], [125.1991, 42.9197], [125.221, 42.9618], [125.2114, 42.9951], [125.133, 42.9641], [125.0891, 42.9726], [125.046, 42.9708], [125.0316, 42.945], [125.0542, 42.8822], [125.0851, 42.8403], [125.1247, 42.8099]]]}}, {"type": "Feature", "properties": {"osm_type": "relation", "osm_id": 209882288, "name": "Huinanxian", "admin_level": "6", "kind": "subdivision_2", "parent_osm_id": 198590, "parent_name": "Jilin", "parent_iso": "CN-JL"}, "geometry": {"type": "Polygon", "coordinates": [[[126.621, 42.7136], [126.5803, 42.7031], [126.55, 42.6791], [126.5145, 42.6641], [126.4731, 42.656], [126.4159, 42.6574], [126.3829, 42.6743], [126.3569, 42.7099], [126.3406, 42.7862], [126.2976, 42.7955], [126.2613, 42.7876], [126.2262, 42.7744], [126.1929, 42.7474], [126.0968, 42.7653], [126.0075, 42.7748], [125.9773, 42.7175], [125.99, 42.6455], [125.9912, 42.6104], [125.9834, 42.582], [126.0241, 42.5283], [126.0332, 42.4978], [126.0627, 42.4716], [126.099, 42.4507], [126.1204, 42.4485], [126.1348, 42.4341], [126.071, 42.3464], [126.1371, 42.3171], [126.1759, 42.3289], [126.2128, 42.3213], [126.2207, 42.2914], [126.2686, 42.2647], [126.3098, 42.2649], [126.3464, 42.283], [126.4013, 42.2782], [126.4444, 42.2683], [126.4892, 42.276], [126.5012, 42.3341], [126.4897, 42.3799], [126.5015, 42.411], [126.5333, 42.4395], [126.5864, 42.4712], [126.6169, 42.4966], [126.6068, 42.5297], [126.6063, 42.5643], [126.621, 42.5913], [126.6984, 42.6348], [126.7223, 42.661], [126.621, 42.7136]]]}}, {"type": "Feature", "properties": {"osm_type": "relation", "osm_id": 108796312, "name": "Liuhexian", "admin_level": "6", "kind": "subdivision_2", "parent_osm_id": 198590, "parent_name": "Jilin", "parent_iso": "CN-JL"}, "geometry": {"type": "Polygon", "coordinates": [[[125.3957, 42.1408], [125.4081, 42.1262], [125.3461, 42.0515], [125.2985, 41.9743], [125.2268, 41.9456], [125.2178, 41.9181], [125.246, 41.9293], [125.2752, 41.9235], [125.3744, 41.888], [125.421, 41.9004], [125.4768, 41.9596], [125.52, 41.9533], [125.5369, 41.9209], [125.5431, 41.8876], [125.5629, 41.8627], [125.5958, 41.8498], [125.6375, 41.851], [125.7768, 41.887], [125.8187, 41.9134], [125.8385, 41.9434], [125.8432, 41.9722], [125.8674, 41.9938], [125.9154, 41.9979], [125.9544, 42.0139], [126.0005, 42.0443], [126.1222, 42.0851], [126.2095, 42.105], [126.3173, 42.0414], [126.3588, 42.0613], [126.3763, 42.0935], [126.4444, 42.1345], [126.4592, 42.16], [126.4907, 42.1802], [126.5379, 42.1875], [126.5427, 42.2157], [126.507, 42.241], [126.4892, 42.276], [126.4444, 42.2683], [126.4013, 42.2782], [126.3464, 42.283], [126.3098, 42.2649], [126.2686, 42.2647], [126.2207, 42.2914], [126.2128, 42.3213], [126.1759, 42.3289], [126.1371, 42.3171], [126.071, 42.3464], [126.1348, 42.4341], [126.1204, 42.4485], [126.099, 42.4507], [126.0627, 42.4716], [126.0332, 42.4978], [126.0241, 42.5283], [125.9834, 42.582], [125.8767, 42.4659], [125.8598, 42.4275], [125.8357, 42.3905], [125.7926, 42.3685], [125.7466, 42.3551], [125.6971, 42.3017], [125.6687, 42.2806], [125.6317, 42.268], [125.5778, 42.258], [125.5506, 42.2311], [125.5132, 42.2055], [125.5017, 42.1738], [125.3957, 42.1408]]]}}, {"type": "Feature", "properties": {"osm_type": "relation", "osm_id": 206713836, "name": "Linjiangshi", "admin_level": "6", "kind": "subdivision_2", "parent_osm_id": 198590, "parent_name": "Jilin", "parent_iso": "CN-JL"}, "geometry": {"type": "Polygon", "coordinates": [[[127.0592, 42.1358], [126.9967, 42.1042], [126.9607, 42.0666], [126.9326, 42.0886], [126.9138, 42.1135], [126.8787, 42.1332], [126.7955, 42.1028], [126.726, 42.093], [126.6917, 42.1027], [126.6751, 42.1296], [126.692, 42.1633], [126.6907, 42.1943], [126.6529, 42.1923], [126.6197, 42.1785], [126.5379, 42.1875], [126.4907, 42.1802], [126.4592, 42.16], [126.4444, 42.1345], [126.3763, 42.0935], [126.3588, 42.0613], [126.2205, 41.9903], [126.1631, 41.946], [126.1116, 41.9457], [126.0998, 41.9188], [126.131, 41.9036], [126.2162, 41.8399], [126.2775, 41.8021], [126.2844, 41.7653], [126.2616, 41.7394], [126.2556, 41.7081], [126.2789, 41.665], [126.2974, 41.6411], [126.375, 41.6645], [126.4005, 41.6336], [126.3519, 41.5631], [126.3539, 41.5293], [126.3828, 41.4948], [126.5288, 41.5129], [126.5483, 41.5372], [126.534, 41.5681], [126.5379, 41.5968], [126.5674, 41.6225], [126.6364, 41.6507], [126.6585, 41.6709], [126.667, 41.6918], [126.662, 41.7253], [126.7263, 41.6993], [126.7698, 41.7141], [126.8187, 41.7027], [126.8385, 41.7734], [126.8898, 41.789], [126.9045, 41.7653], [126.9422, 41.7653], [126.9879, 41.7295], [127.0267, 41.691], [127.0051, 41.6626], [127.0236, 41.6393], [127.0512, 41.6286], [127.0702, 41.6025], [127.1157, 41.5877], [127.1199, 41.5735], [127.0756, 41.5607], [127.0626, 41.5422], [127.1713, 41.5105], [127.1913, 41.5265], [127.2381, 41.5359], [127.2766, 41.5543], [127.31, 41.5847], [127.3442, 41.5953], [127.388, 41.6], [127.4248, 41.6238], [127.5061, 41.6372], [127.61, 41.6422], [127.6472, 41.6547], [127.7491, 41.6659], [127.7744, 41.7165], [127.5887, 41.7834], [127.5612, 41.8022], [127.5322, 41.8324], [127.5141, 41.8592], [127.4529, 41.8748], [127.4268, 41.8966], [127.4213, 41.9717], [127.3876, 42.0006], [127.2957, 42.0059], [127.1338, 42.0374], [127.1141, 42.0635], [127.1026, 42.0973], [127.0592, 42.1358]]]}}, {"type": "Feature", "properties": {"osm_type": "relation", "osm_id": 752057713, "name": "Changbaichaoxianzuxian", "admin_level": "6", "kind": "subdivision_2", "parent_osm_id": 198590, "parent_name": "Jilin", "parent_iso": "CN-JL"}, "geometry": {"type": "Polygon", "coordinates": [[[127.7744, 41.7165], [127.7491, 41.6659], [127.6472, 41.6547], [127.61, 41.6422], [127.5061, 41.6372], [127.4248, 41.6238], [127.388, 41.6], [127.3442, 41.5953], [127.31, 41.5847], [127.2766, 41.5543], [127.2381, 41.5359], [127.1913, 41.5265], [127.1713, 41.5105], [127.2208, 41.496], [127.2262, 41.4707], [127.3143, 41.4514], [127.3358, 41.4634], [127.3629, 41.4508], [127.4451, 41.4386], [127.4761, 41.453], [127.5138, 41.4537], [127.5368, 41.4187], [127.574, 41.3911], [127.5998, 41.3842], [127.6365, 41.4014], [127.7057, 41.4136], [127.7438, 41.3849], [127.8105, 41.3918], [127.8243, 41.4074], [127.9017, 41.4376], [127.9222, 41.4139], [127.9594, 41.4228], [127.9757, 41.4182], [127.9925, 41.3992], [127.9987, 41.3783], [128.0494, 41.3607], [128.1023, 41.3619], [128.1272, 41.377], [128.1557, 41.4062], [128.1903, 41.4602], [128.2112, 41.4839], [128.2437, 41.5547], [128.2191, 41.6275], [128.1986, 41.6513], [128.1259, 41.6828], [128.1046, 41.7186], [128.0931, 41.7485], [128.0552, 41.8093], [128.0591, 41.8438], [127.9897, 41.7998], [127.9513, 41.788], [127.9116, 41.7661], [127.9019, 41.7306], [127.8715, 41.7041], [127.7744, 41.7165]]]}}, {"type": "Feature", "properties": {"osm_type": "relation", "osm_id": 883684253, "name": "Tonghuashi", "admin_level": "6", "kind": "subdivision_2", "parent_osm_id": 198590, "parent_name": "Jilin", "parent_iso": "CN-JL"}, "geometry": {"type": "Polygon", "coordinates": [[[126.2162, 41.8399], [126.1649, 41.7939], [126.1176, 41.7875], [126.0621, 41.8175], [126.0198, 41.8322], [125.9702, 41.84], [125.9226, 41.7725], [125.8737, 41.7611], [125.8436, 41.743], [125.844, 41.7039], [125.8803, 41.6467], [125.8164, 41.6069], [125.8216, 41.5664], [125.8657, 41.5841], [125.9317, 41.5796], [126.0663, 41.5459], [126.0493, 41.5821], [126.0444, 41.6172], [126.0624, 41.6498], [126.0926, 41.6738], [126.1268, 41.6852], [126.1644, 41.6692], [126.2023, 41.6437], [126.2484, 41.6298], [126.2974, 41.6411], [126.2789, 41.665], [126.2556, 41.7081], [126.2616, 41.7394], [126.2844, 41.7653], [126.2775, 41.8021], [126.2162, 41.8399]]]}}, {"type": "Feature", "properties": {"osm_type": "relation", "osm_id": 608757072, "name": "Jianshi", "admin_level": "6", "kind": "subdivision_2", "parent_osm_id": 198590, "parent_name": "Jilin", "parent_iso": "CN-JL"}, "geometry": {"type": "Polygon", "coordinates": [[[126.3828, 41.4948], [126.3478, 41.4505], [126.3247, 41.3702], [126.2921, 41.3465], [126.2497, 41.3251], [126.1649, 41.2985], [126.1292, 41.3115], [126.1114, 41.3543], [126.1058, 41.4049], [126.0663, 41.5459], [125.9317, 41.5796], [125.8657, 41.5841], [125.8216, 41.5664], [125.787, 41.5314], [125.7609, 41.5344], [125.7503, 41.5063], [125.7094, 41.4622], [125.6785, 41.443], [125.6466, 41.4401], [125.6317, 41.4125], [125.6271, 41.3707], [125.62, 41.3585], [125.5727, 41.352], [125.5576, 41.3168], [125.5792, 41.298], [125.6306, 41.275], [125.6466, 41.2525], [125.6899, 41.2375], [125.6986, 41.1818], [125.7145, 41.1647], [125.7321, 41.1223], [125.66, 41.1056], [125.6573, 41.0709], [125.6676, 41.0392], [125.6257, 40.9813], [125.5364, 40.9283], [125.5419, 40.8919], [125.5548, 40.8904], [125.6128, 40.9129], [125.6535, 40.8756], [125.664, 40.8473], [125.7321, 40.8714], [125.7566, 40.8586], [125.7766, 40.8654], [125.8261, 40.8943], [125.9312, 40.8703], [125.9996, 40.8888], [125.9376, 40.9178], [125.9455, 40.9315], [126.0014, 40.9496], [126.0082, 40.9753], [126.0315, 41.009], [126.0618, 41.0228], [126.0984, 41.0777], [126.1952, 41.1229], [126.2223, 41.1444], [126.2782, 41.2125], [126.3005, 41.2518], [126.3395, 41.2819], [126.3826, 41.3306], [126.4096, 41.3511], [126.4389, 41.3485], [126.4639, 41.3373], [126.4945, 41.3346], [126.4938, 41.3539], [126.4694, 41.396], [126.4757, 41.4299], [126.4931, 41.4634], [126.5288, 41.5129], [126.3828, 41.4948]]]}}, {"type": "Feature", "properties": {"osm_type": "relation", "osm_id": 659385745, "name": "Tonghuaxian", "admin_level": "6", "kind": "subdivision_2", "parent_osm_id": 198590, "parent_name": "Jilin", "parent_iso": "CN-JL"}, "geometry": {"type": "MultiPolygon", "coordinates": [[[[125.246, 41.9293], [125.2578, 41.8791], [125.2419, 41.8255], [125.2836, 41.7686], [125.263, 41.6927], [125.2842, 41.687], [125.383, 41.6889], [125.4202, 41.6748], [125.4389, 41.5573], [125.5141, 41.4113], [125.5175, 41.3773], [125.5727, 41.352], [125.62, 41.3585], [125.6271, 41.3707], [125.6317, 41.4125], [125.6466, 41.4401], [125.6785, 41.443], [125.7094, 41.4622], [125.7503, 41.5063], [125.7609, 41.5344], [125.787, 41.5314], [125.8216, 41.5664], [125.8164, 41.6069], [125.8803, 41.6467], [125.844, 41.7039], [125.8436, 41.743], [125.8737, 41.7611], [125.9226, 41.7725], [125.9702, 41.84], [126.0198, 41.8322], [126.0621, 41.8175], [126.1176, 41.7875], [126.1649, 41.7939], [126.2162, 41.8399], [126.131, 41.9036], [126.0998, 41.9188], [126.1116, 41.9457], [126.1631, 41.946], [126.2205, 41.9903], [126.3173, 42.0414], [126.2095, 42.105], [126.1222, 42.0851], [126.0005, 42.0443], [125.9544, 42.0139], [125.9154, 41.9979], [125.8674, 41.9938], [125.8432, 41.9722], [125.8385, 41.9434], [125.8187, 41.9134], [125.7768, 41.887], [125.6375, 41.851], [125.5958, 41.8498], [125.5629, 41.8627], [125.5431, 41.8876], [125.5369, 41.9209], [125.52, 41.9533], [125.4768, 41.9596], [125.421, 41.9004], [125.3744, 41.888], [125.2752, 41.9235], [125.246, 41.9293]]], [[[126.2974, 41.6411], [126.2484, 41.6298], [126.2023, 41.6437], [126.1644, 41.6692], [126.1268, 41.6852], [126.0926, 41.6738], [126.0624, 41.6498], [126.0444, 41.6172], [126.0493, 41.5821], [126.0663, 41.5459], [126.1058, 41.4049], [126.1114, 41.3543], [126.1292, 41.3115], [126.1649, 41.2985], [126.2015, 41.3081], [126.2497, 41.3251], [126.2921, 41.3465], [126.3247, 41.3702], [126.3478, 41.4505], [126.3828, 41.4948], [126.3539, 41.5293], [126.3519, 41.5631], [126.4005, 41.6336], [126.375, 41.6645], [126.2974, 41.6411]]]]}}]}