{"type": "FeatureCollection", "parent": {"osm_id": 2022095, "name": "Andhra Pradesh", "admin_level": "4", "kind": "subdivision_1", "child_kind": "subdivision_2", "iso": "IN-AP"}, "features": [{"type": "Feature", "properties": {"osm_type": "relation", "osm_id": 806468291, "name": "Prakasam", "admin_level": "6", "kind": "subdivision_2", "parent_osm_id": 2022095, "parent_name": "Andhra Pradesh", "parent_iso": "IN-AP"}, "geometry": {"type": "Polygon", "coordinates": [[[80.0524, 15.02], [80.0489, 15.0931], [80.0645, 15.1488], [80.0852, 15.1902], [80.0886, 15.2225], [80.0829, 15.2582], [80.0849, 15.2735], [80.1064, 15.3231], [80.1097, 15.3447], [80.1365, 15.3876], [80.2047, 15.472], [80.2312, 15.5479], [80.2275, 15.5538], [80.2306, 15.5759], [80.2447, 15.6191], [80.2851, 15.6891], [80.348, 15.7529], [80.4392, 15.8086], [80.4346, 15.8563], [80.4527, 15.8711], [80.4527, 15.8796], [80.4762, 15.8895], [80.4818, 15.8986], [80.464, 15.9107], [80.4514, 15.9035], [80.4455, 15.9136], [80.4065, 15.8941], [80.399, 15.9053], [80.3863, 15.9411], [80.379, 15.9869], [80.4036, 15.9992], [80.4209, 15.989], [80.4258, 15.9904], [80.4223, 16.0018], [80.3556, 16.0282], [80.3505, 16.0289], [80.3401, 16.016], [80.3217, 16.0315], [80.3236, 16.0445], [80.3064, 16.0545], [80.2823, 16.0483], [80.2688, 16.0524], [80.2647, 16.0473], [80.2462, 16.0521], [80.232, 16.0327], [80.1996, 16.0381], [80.193, 16.0265], [80.1876, 16.0259], [80.1873, 16.0353], [80.1824, 16.0378], [80.1467, 16.045], [80.1388, 16.0407], [80.1368, 16.0329], [80.1425, 16.0183], [80.1138, 16.0164], [80.1022, 16.0099], [80.0889, 16.0218], [80.0883, 16.0437], [80.0794, 16.0483], [80.0815, 16.0544], [80.0714, 16.0697], [80.071, 16.092], [80.0554, 16.085], [80.0436, 16.0904], [80.0547, 16.1167], [80.0509, 16.1263], [80.0228, 16.1135], [80.0142, 16.1158], [80.0002, 16.1396], [79.9859, 16.1375], [79.9697, 16.1429], [79.9457, 16.1581], [79.9299, 16.1531], [79.8864, 16.1666], [79.8757, 16.1627], [79.8682, 16.1537], [79.871, 16.1245], [79.904, 16.0984], [79.9218, 16.0791], [79.9219, 16.0709], [79.9146, 16.0645], [79.8922, 16.0585], [79.8702, 16.0163], [79.9056, 16.0075], [79.9091, 16.0014], [79.9046, 15.9945], [79.9148, 15.9821], [79.9108, 15.9734], [79.9226, 15.9708], [79.9251, 15.9656], [79.9164, 15.948], [79.8989, 15.9429], [79.8877, 15.9208], [79.8633, 15.9248], [79.8603, 15.9319], [79.842, 15.937], [79.8028, 15.9399], [79.7927, 15.9142], [79.7682, 15.8974], [79.7607, 15.8636], [79.7685, 15.8505], [79.7843, 15.8438], [79.7845, 15.837], [79.7808, 15.8283], [79.7603, 15.8252], [79.7238, 15.8424], [79.7296, 15.8611], [79.7012, 15.8817], [79.705, 15.8996], [79.6637, 15.9212], [79.641, 15.9113], [79.6186, 15.9236], [79.622, 15.9327], [79.6175, 15.9387], [79.5952, 15.9431], [79.5795, 15.9404], [79.5697, 15.9478], [79.5611, 16.007], [79.5669, 16.0169], [79.5836, 16.0223], [79.5856, 16.0275], [79.5694, 16.072], [79.5464, 16.0675], [79.5388, 16.071], [79.5351, 16.0798], [79.5446, 16.1036], [79.5664, 16.0919], [79.5664, 16.1229], [79.556, 16.1522], [79.5755, 16.1975], [79.5623, 16.2525], [79.5562, 16.3057], [79.5475, 16.3135], [79.5331, 16.319], [79.5129, 16.3056], [79.4987, 16.3023], [79.4642, 16.3116], [79.4087, 16.2763], [79.3689, 16.2438], [79.343, 16.2471], [79.3289, 16.243], [79.2259, 16.1821], [79.222, 16.2232], [79.2148, 16.2297], [79.2004, 16.2307], [79.185, 16.2251], [79.1595, 16.2326], [79.1415, 16.2443], [79.0768, 16.2459], [79.0391, 16.2535], [78.9491, 16.2174], [78.9161, 16.1986], [78.9136, 16.1726], [78.9289, 16.1414], [78.93, 16.1296], [78.9214, 16.1166], [78.9337, 16.0707], [78.9216, 16.0008], [78.9023, 15.9652], [78.8337, 15.9081], [78.8132, 15.8757], [78.7921, 15.7383], [78.7756, 15.6797], [78.7734, 15.6016], [78.7803, 15.5335], [78.7729, 15.4539], [78.7742, 15.4073], [78.7508, 15.3545], [78.744, 15.3064], [78.7435, 15.2424], [78.7505, 15.1834], [78.7701, 15.1867], [78.7973, 15.2058], [78.8235, 15.2091], [78.9237, 15.1974], [78.9305, 15.2029], [78.9393, 15.2275], [78.95, 15.2381], [78.9553, 15.2039], [78.9628, 15.1808], [78.9711, 15.1733], [78.9933, 15.169], [79.0077, 15.1829], [79.0229, 15.1838], [79.0685, 15.1773], [79.0582, 15.1429], [79.0768, 15.0557], [79.0898, 15.0863], [79.1147, 15.0933], [79.124, 15.1041], [79.1561, 15.092], [79.1993, 15.0886], [79.2357, 15.1066], [79.2561, 15.1093], [79.2574, 15.1016], [79.2942, 15.0982], [79.2995, 15.0917], [79.3054, 15.0935], [79.3188, 15.1165], [79.3249, 15.1179], [79.3323, 15.1139], [79.3282, 15.098], [79.3327, 15.0901], [79.3394, 15.0902], [79.3474, 15.111], [79.3533, 15.112], [79.3547, 15.0958], [79.3609, 15.0873], [79.3854, 15.0898], [79.3898, 15.0888], [79.3869, 15.0804], [79.3924, 15.0774], [79.4114, 15.0782], [79.4161, 15.0759], [79.4143, 15.0633], [79.4217, 15.0573], [79.4381, 15.0565], [79.4677, 15.0646], [79.5002, 15.0556], [79.5053, 15.053], [79.5047, 15.0464], [79.5166, 15.0389], [79.5527, 15.0241], [79.5631, 15.0348], [79.5636, 15.044], [79.693, 15.0347], [79.7272, 15.0498], [79.7246, 15.0398], [79.7443, 15.0327], [79.7527, 15.0373], [79.7581, 15.0524], [79.7904, 15.0619], [79.8055, 15.0569], [79.8006, 15.0362], [79.788, 15.0265], [79.8011, 15.0157], [79.7824, 14.9767], [79.8053, 14.9658], [79.8584, 14.9548], [79.8687, 14.9563], [79.878, 14.9739], [79.8953, 14.9855], [79.9037, 15.0011], [79.9475, 15.0208], [79.9808, 15.0169], [80.0005, 14.988], [80.0334, 14.9972], [80.0367, 15.0136], [80.0524, 15.02]]]}}, {"type": "Feature", "properties": {"osm_type": "relation", "osm_id": 292881169, "name": "Krishna", "admin_level": "6", "kind": "subdivision_2", "parent_osm_id": 2022095, "parent_name": "Andhra Pradesh", "parent_iso": "IN-AP"}, "geometry": {"type": "MultiPolygon", "coordinates": [[[[80.8679, 17.06], [80.854, 17.042], [80.8416, 17.0349], [80.8323, 17.0469], [80.7556, 17.0639], [80.7348, 17.0736], [80.693, 17.0776], [80.6846, 17.0701], [80.6486, 17.0639], [80.6429, 17.0677], [80.6467, 17.0807], [80.6656, 17.0966], [80.6342, 17.1105], [80.6387, 17.1187], [80.6128, 17.1242], [80.5824, 17.1439], [80.569, 17.1466], [80.5579, 17.1322], [80.5283, 17.1167], [80.505, 17.1164], [80.4957, 17.0914], [80.4911, 17.0589], [80.4806, 17.0467], [80.4618, 17.0456], [80.4551, 17.0256], [80.4294, 17.0334], [80.4231, 17.0503], [80.4097, 17.0626], [80.4039, 17.086], [80.3758, 17.065], [80.3872, 17.0426], [80.3867, 17.0318], [80.3976, 17.0226], [80.3954, 17.0115], [80.38, 17.0044], [80.3786, 16.9915], [80.3671, 16.9792], [80.4515, 16.9537], [80.4968, 16.9263], [80.4946, 16.9359], [80.5003, 16.957], [80.5297, 16.9453], [80.5408, 16.959], [80.5785, 16.9358], [80.5932, 16.9355], [80.5994, 16.9206], [80.5903, 16.9058], [80.5958, 16.883], [80.574, 16.8781], [80.5731, 16.8517], [80.5637, 16.8339], [80.5652, 16.8275], [80.595, 16.8159], [80.6133, 16.797], [80.5785, 16.78], [80.572, 16.7721], [80.5202, 16.7791], [80.4987, 16.785], [80.4801, 16.7974], [80.4655, 16.7991], [80.4616, 16.8241], [80.4319, 16.8382], [80.4277, 16.8512], [80.4087, 16.8586], [80.4092, 16.8459], [80.4032, 16.834], [80.3884, 16.8284], [80.3869, 16.8214], [80.382, 16.82], [80.3676, 16.8637], [80.3439, 16.8645], [80.3463, 16.8758], [80.3282, 16.8796], [80.3243, 16.921], [80.3167, 16.9324], [80.3102, 16.9643], [80.2709, 17.019], [80.2445, 17.0106], [80.2266, 17.0279], [80.21, 17.0214], [80.2043, 17.0262], [80.203, 17.0507], [80.1908, 17.053], [80.1441, 16.9963], [80.1145, 16.9895], [80.0963, 16.9955], [80.0929, 16.9713], [80.0545, 16.9734], [80.0457, 16.9446], [80.0182, 16.9154], [80.0003, 16.8714], [80.0225, 16.8612], [80.0418, 16.8607], [80.0506, 16.8344], [80.0785, 16.822], [80.0875, 16.8321], [80.1112, 16.8348], [80.1206, 16.8295], [80.1485, 16.7564], [80.1496, 16.7055], [80.1377, 16.679], [80.1547, 16.6577], [80.2235, 16.6223], [80.2653, 16.6185], [80.3344, 16.625], [80.3752, 16.6191], [80.3892, 16.6035], [80.4154, 16.6066], [80.4839, 16.5978], [80.5089, 16.5861], [80.5822, 16.5366], [80.58, 16.5335], [80.6048, 16.5117], [80.6477, 16.4908], [80.6731, 16.4716], [80.7503, 16.3686], [80.7724, 16.3287], [80.8098, 16.2857], [80.8513, 16.1753], [80.8695, 16.1433], [80.8697, 16.1212], [80.8786, 16.0877], [80.89, 16.075], [80.8925, 16.0474], [80.9056, 16.0011], [80.9064, 15.9243], [80.852, 15.8199], [80.8413, 15.7822], [80.8775, 15.7898], [80.8996, 15.7459], [80.9163, 15.7349], [80.9236, 15.7222], [80.944, 15.7171], [81.003, 15.7528], [81.0126, 15.7655], [80.9969, 15.7975], [80.9938, 15.8145], [80.9996, 15.8336], [81.0766, 15.918], [81.1435, 15.9752], [81.1416, 16.0151], [81.1891, 16.1032], [81.2009, 16.1363], [81.2128, 16.1935], [81.2331, 16.2345], [81.2652, 16.2772], [81.3277, 16.317], [81.395, 16.3422], [81.4845, 16.3535], [81.5411, 16.3493], [81.5546, 16.361], [81.5556, 16.3685], [81.5473, 16.3892], [81.5291, 16.3942], [81.5014, 16.3848], [81.4921, 16.3865], [81.4783, 16.4074], [81.455, 16.4184], [81.4378, 16.4142], [81.4213, 16.432], [81.4082, 16.4333], [81.3972, 16.4519], [81.3869, 16.4544], [81.3722, 16.4743], [81.3758, 16.4799], [81.3689, 16.4887], [81.3716, 16.51], [81.3616, 16.5187], [81.3401, 16.5145], [81.331, 16.5204], [81.3315, 16.5243], [81.3397, 16.5257], [81.3551, 16.5677], [81.3454, 16.5718], [81.3528, 16.6062], [81.334, 16.6142], [81.3251, 16.6248], [81.334, 16.6789], [81.3317, 16.6843], [81.3158, 16.6922], [81.3052, 16.6899], [81.2856, 16.6678], [81.2758, 16.6334], [81.2514, 16.6163], [81.2447, 16.6181], [81.2433, 16.6264], [81.2346, 16.6293], [81.2353, 16.6207], [81.2444, 16.6113], [81.2421, 16.6056], [81.2233, 16.6124], [81.2329, 16.5809], [81.2203, 16.5934], [81.2114, 16.6119], [81.2026, 16.6175], [81.1983, 16.6291], [81.207, 16.6492], [81.2251, 16.6484], [81.2339, 16.6537], [81.2383, 16.6653], [81.2464, 16.6682], [81.2488, 16.6776], [81.2411, 16.6723], [81.2397, 16.6822], [81.2478, 16.6839], [81.2487, 16.6905], [81.2439, 16.699], [81.2177, 16.7011], [81.1985, 16.6887], [81.196, 16.682], [81.2021, 16.6673], [81.1952, 16.6761], [81.1813, 16.6707], [81.1756, 16.6745], [81.1585, 16.6624], [81.1628, 16.6534], [81.1794, 16.6413], [81.1808, 16.6241], [81.1638, 16.6216], [81.1505, 16.5983], [81.1349, 16.607], [81.1121, 16.5986], [81.0927, 16.6128], [81.0817, 16.6024], [81.0915, 16.5919], [81.0871, 16.5878], [81.0447, 16.5743], [81.0212, 16.5601], [81.011, 16.5621], [81.0045, 16.5985], [80.9732, 16.6323], [80.9685, 16.6475], [80.9554, 16.6652], [80.9571, 16.6719], [80.9706, 16.6698], [80.9934, 16.6432], [81.0109, 16.6449], [80.9829, 16.6774], [80.9927, 16.6819], [80.9835, 16.7176], [81.0003, 16.7227], [81.0128, 16.7437], [81.0141, 16.7646], [81.0392, 16.7985], [81.0364, 16.817], [81.0089, 16.841], [81.0002, 16.8703], [80.9896, 16.8745], [80.9643, 16.9074], [80.9595, 16.9247], [80.9367, 16.9573], [80.9427, 16.9918], [80.9623, 17.0195], [80.9646, 17.0417], [80.9606, 17.0489], [80.9381, 17.066], [80.8996, 17.0636], [80.8808, 17.0677], [80.8679, 17.06]]], [[[81.3614, 16.3223], [81.3745, 16.3279], [81.3615, 16.3295], [81.3529, 16.3224], [81.3614, 16.3223]]]]}}, {"type": "Feature", "properties": {"osm_type": "relation", "osm_id": 398167960, "name": "East Godavari", "admin_level": "6", "kind": "subdivision_2", "parent_osm_id": 2022095, "parent_name": "Andhra Pradesh", "parent_iso": "IN-AP"}, "geometry": {"type": "MultiPolygon", "coordinates": [[[[82.5484, 17.2524], [82.5424, 17.2706], [82.5324, 17.28], [82.5379, 17.2824], [82.5412, 17.3116], [82.5312, 17.3166], [82.5411, 17.3351], [82.5559, 17.3393], [82.5634, 17.3542], [82.5636, 17.3699], [82.5539, 17.3924], [82.5586, 17.4062], [82.568, 17.423], [82.5901, 17.4397], [82.6042, 17.4635], [82.5988, 17.4757], [82.5791, 17.4881], [82.5637, 17.5048], [82.5573, 17.5259], [82.5514, 17.5266], [82.5367, 17.5145], [82.5144, 17.51], [82.4999, 17.5161], [82.4899, 17.5074], [82.4838, 17.5095], [82.4816, 17.5239], [82.477, 17.5262], [82.478, 17.536], [82.4707, 17.539], [82.4669, 17.5332], [82.4694, 17.5206], [82.4567, 17.5135], [82.456, 17.4878], [82.4442, 17.4783], [82.4116, 17.4735], [82.397, 17.4835], [82.3779, 17.4858], [82.3936, 17.4965], [82.4073, 17.521], [82.3717, 17.5155], [82.3577, 17.5209], [82.3513, 17.507], [82.3452, 17.5073], [82.3317, 17.5219], [82.344, 17.5503], [82.3444, 17.5853], [82.3375, 17.5912], [82.3154, 17.5899], [82.2682, 17.6235], [82.2442, 17.6259], [82.229, 17.6374], [82.2174, 17.6388], [82.1989, 17.6299], [82.1785, 17.6115], [82.1547, 17.6217], [82.1415, 17.6366], [82.1369, 17.6507], [82.1282, 17.6551], [82.091, 17.6534], [82.0657, 17.6388], [82.0467, 17.6397], [82.0168, 17.6269], [82.0138, 17.6374], [82.0375, 17.6781], [82.0409, 17.7031], [82.0388, 17.7169], [82.0151, 17.751], [82.0176, 17.7606], [81.981, 17.7674], [81.9643, 17.7569], [81.9737, 17.7468], [81.9368, 17.7406], [81.8986, 17.7453], [81.8826, 17.742], [81.8679, 17.7505], [81.8922, 17.7807], [81.9245, 17.8013], [81.9293, 17.8091], [81.9675, 17.8209], [81.9777, 17.8429], [81.9882, 17.8502], [82.0089, 17.8475], [82.0149, 17.84], [82.0211, 17.846], [82.0212, 17.8566], [82.0034, 17.8865], [82.0097, 17.9027], [82.0275, 17.924], [82.0315, 17.9376], [82.0138, 17.957], [82.002, 17.9871], [81.9817, 18.0145], [81.9438, 17.9925], [81.9225, 17.9884], [81.9079, 17.9774], [81.8555, 17.9596], [81.842, 17.9598], [81.8097, 17.9449], [81.7911, 17.9185], [81.767, 17.9022], [81.7776, 17.8876], [81.7902, 17.8796], [81.8015, 17.8615], [81.8031, 17.8531], [81.7911, 17.8409], [81.7727, 17.8389], [81.7617, 17.8273], [81.7383, 17.8282], [81.7127, 17.8085], [81.707, 17.7934], [81.6936, 17.7795], [81.6318, 17.7717], [81.618, 17.7525], [81.5854, 17.735], [81.58, 17.6968], [81.569, 17.6856], [81.543, 17.6395], [81.5207, 17.6189], [81.5118, 17.5989], [81.5327, 17.5789], [81.5104, 17.5485], [81.5071, 17.4993], [81.5255, 17.4678], [81.567, 17.453], [81.5866, 17.4304], [81.6078, 17.4301], [81.6131, 17.4262], [81.6068, 17.4023], [81.6177, 17.3594], [81.6546, 17.3312], [81.659, 17.3225], [81.65, 17.2595], [81.6765, 17.2487], [81.6807, 17.243], [81.6778, 17.2123], [81.6898, 17.175], [81.7116, 17.1613], [81.7707, 17.0591], [81.7726, 17.0535], [81.7627, 17.0385], [81.7699, 17.0159], [81.7666, 17.0038], [81.7751, 16.973], [81.7822, 16.963], [81.7717, 16.9622], [81.7695, 16.9575], [81.7681, 16.94], [81.7753, 16.9039], [81.7505, 16.9033], [81.7375, 16.8982], [81.7541, 16.867], [81.7488, 16.8142], [81.7615, 16.7836], [81.7912, 16.7591], [81.7889, 16.7334], [81.7994, 16.7067], [81.8433, 16.6592], [81.8661, 16.6084], [81.8678, 16.5945], [81.8638, 16.5491], [81.8533, 16.5256], [81.8045, 16.4933], [81.7641, 16.4414], [81.7519, 16.4372], [81.7316, 16.4594], [81.7169, 16.4635], [81.7127, 16.4598], [81.7063, 16.4397], [81.7188, 16.3958], [81.7257, 16.3386], [81.7161, 16.3187], [81.7069, 16.3157], [81.7204, 16.3088], [81.8507, 16.3725], [81.9458, 16.3956], [81.9499, 16.4016], [81.9561, 16.4006], [82.2075, 16.5288], [82.2805, 16.5543], [82.3182, 16.5735], [82.319, 16.5874], [82.2989, 16.5921], [82.2812, 16.6318], [82.267, 16.6412], [82.2751, 16.6437], [82.2652, 16.6691], [82.2339, 16.7248], [82.2182, 16.7259], [82.2403, 16.7422], [82.2675, 16.7522], [82.2824, 16.7512], [82.2657, 16.7359], [82.2723, 16.7323], [82.294, 16.745], [82.309, 16.7426], [82.3155, 16.7326], [82.3413, 16.7373], [82.3417, 16.7565], [82.3545, 16.8068], [82.3577, 16.8515], [82.3354, 16.8558], [82.316, 16.8485], [82.2823, 16.8766], [82.2705, 16.8742], [82.2663, 16.8829], [82.2568, 16.8868], [82.2534, 16.9027], [82.2452, 16.9091], [82.2485, 16.9354], [82.2709, 16.942], [82.2741, 16.9485], [82.2691, 16.9528], [82.27, 16.9603], [82.2831, 16.9708], [82.2843, 16.9946], [82.2925, 17.0196], [82.3212, 17.0605], [82.4475, 17.1784], [82.5484, 17.2524]]], [[[82.3175, 16.6048], [82.3271, 16.6627], [82.3677, 16.7169], [82.3682, 16.7261], [82.3615, 16.734], [82.3326, 16.7271], [82.3255, 16.7109], [82.3094, 16.7013], [82.2671, 16.7159], [82.2985, 16.6501], [82.2866, 16.644], [82.2865, 16.6358], [82.3054, 16.5985], [82.3103, 16.5991], [82.3144, 16.6076], [82.3175, 16.6048]]]]}}, {"type": "Feature", "properties": {"osm_type": "relation", "osm_id": 382884552, "name": "Visakhapatnam", "admin_level": "6", "kind": "subdivision_2", "parent_osm_id": 2022095, "parent_name": "Andhra Pradesh", "parent_iso": "IN-AP"}, "geometry": {"type": "Polygon", "coordinates": [[[82.5484, 17.2524], [82.706, 17.3438], [82.9916, 17.4728], [83.0082, 17.4984], [83.0227, 17.5078], [83.0889, 17.5332], [83.1024, 17.5427], [83.1631, 17.5609], [83.1741, 17.5737], [83.213, 17.591], [83.2381, 17.6125], [83.2319, 17.6234], [83.2405, 17.6329], [83.2829, 17.6608], [83.2953, 17.6748], [83.3036, 17.6941], [83.3064, 17.6882], [83.3098, 17.705], [83.3457, 17.7254], [83.3434, 17.7371], [83.3546, 17.7566], [83.3848, 17.777], [83.389, 17.7903], [83.4098, 17.8095], [83.4164, 17.8227], [83.4162, 17.8349], [83.4089, 17.8411], [83.4136, 17.85], [83.4443, 17.8733], [83.4606, 17.9042], [83.4884, 17.9247], [83.4745, 17.9368], [83.4534, 17.9324], [83.4286, 17.9419], [83.4189, 17.9297], [83.4059, 17.9229], [83.405, 17.9048], [83.3842, 17.9137], [83.3788, 17.9226], [83.3803, 17.9321], [83.3985, 17.9556], [83.3992, 17.9693], [83.4167, 17.9878], [83.4176, 18.0071], [83.4073, 18.0199], [83.4052, 18.0486], [83.3591, 18.057], [83.3502, 18.0483], [83.3369, 18.0449], [83.3145, 18.0224], [83.3227, 18.0019], [83.3104, 17.9841], [83.2334, 17.9462], [83.2297, 17.9401], [83.234, 17.9276], [83.2552, 17.9125], [83.2352, 17.8959], [83.2308, 17.8697], [83.2076, 17.8715], [83.2002, 17.8454], [83.166, 17.8446], [83.1559, 17.8308], [83.1443, 17.8446], [83.1387, 17.8704], [83.1241, 17.8708], [83.1236, 17.9021], [83.1051, 17.9324], [83.0719, 17.9416], [83.0285, 17.9657], [83.0093, 17.9692], [83.0019, 17.9819], [83.0, 18.0008], [83.015, 18.0334], [83.0578, 18.0877], [83.0803, 18.0895], [83.0909, 18.0951], [83.0921, 18.1072], [83.1001, 18.1133], [83.1014, 18.1339], [83.1524, 18.155], [83.1549, 18.1639], [83.1413, 18.1678], [83.1112, 18.1547], [83.1074, 18.157], [83.1134, 18.1842], [83.101, 18.2179], [83.1081, 18.2235], [83.1218, 18.2188], [83.1264, 18.2254], [83.1379, 18.2266], [83.1365, 18.2317], [83.1309, 18.2306], [83.1403, 18.2426], [83.1378, 18.2612], [83.1587, 18.2532], [83.183, 18.2299], [83.1951, 18.2027], [83.2076, 18.1922], [83.2184, 18.1911], [83.2224, 18.2114], [83.2318, 18.2107], [83.2434, 18.1999], [83.2467, 18.2022], [83.2494, 18.2255], [83.2538, 18.2277], [83.2717, 18.2174], [83.2684, 18.2758], [83.2356, 18.2896], [83.2196, 18.3045], [83.227, 18.335], [83.2129, 18.3341], [83.1728, 18.3102], [83.167, 18.3119], [83.155, 18.3421], [83.1314, 18.3536], [83.1239, 18.3492], [83.1176, 18.3568], [83.1022, 18.3597], [83.0908, 18.328], [83.0819, 18.3179], [83.0737, 18.3356], [83.0777, 18.3512], [83.0724, 18.3748], [83.1014, 18.4157], [83.0896, 18.415], [83.074, 18.4026], [83.0644, 18.3867], [83.0477, 18.3796], [83.032, 18.3859], [83.0254, 18.3939], [83.0198, 18.3877], [83.0002, 18.3844], [82.9847, 18.3644], [82.968, 18.3666], [82.9538, 18.3599], [82.941, 18.3608], [82.9359, 18.3704], [82.911, 18.3653], [82.9001, 18.3762], [82.8932, 18.3879], [82.8992, 18.4015], [82.8929, 18.422], [82.8876, 18.4238], [82.8782, 18.4154], [82.8569, 18.4242], [82.8532, 18.4189], [82.8452, 18.4234], [82.844, 18.4334], [82.827, 18.4425], [82.8266, 18.4476], [82.8074, 18.4485], [82.7845, 18.4288], [82.7895, 18.4086], [82.8016, 18.4041], [82.7958, 18.3993], [82.7959, 18.3873], [82.7862, 18.3801], [82.7925, 18.3634], [82.7754, 18.3403], [82.7594, 18.3376], [82.7548, 18.3291], [82.7411, 18.3271], [82.7427, 18.3225], [82.7193, 18.322], [82.7109, 18.3177], [82.7065, 18.3055], [82.6672, 18.2958], [82.6532, 18.2663], [82.6537, 18.2497], [82.6353, 18.238], [82.6218, 18.2487], [82.6179, 18.2585], [82.5976, 18.2659], [82.5957, 18.2749], [82.5891, 18.2792], [82.5968, 18.2842], [82.594, 18.2901], [82.5993, 18.301], [82.5962, 18.3111], [82.5882, 18.3101], [82.5848, 18.3159], [82.598, 18.3285], [82.6105, 18.3263], [82.6049, 18.3499], [82.6162, 18.3507], [82.6196, 18.3555], [82.6069, 18.363], [82.6074, 18.3806], [82.602, 18.3794], [82.5975, 18.386], [82.5857, 18.3862], [82.5644, 18.3974], [82.5578, 18.3924], [82.5406, 18.4023], [82.5487, 18.4107], [82.5442, 18.4171], [82.548, 18.4256], [82.5534, 18.426], [82.5621, 18.4464], [82.5467, 18.4519], [82.5473, 18.4468], [82.5385, 18.443], [82.535, 18.456], [82.5295, 18.4558], [82.5315, 18.4615], [82.5244, 18.4645], [82.5358, 18.4769], [82.5293, 18.481], [82.5358, 18.4864], [82.5278, 18.4911], [82.5328, 18.4984], [82.5314, 18.5125], [82.5157, 18.5166], [82.5074, 18.5103], [82.4897, 18.5236], [82.484, 18.5379], [82.4936, 18.5422], [82.4899, 18.5469], [82.4823, 18.5453], [82.4617, 18.5255], [82.4352, 18.4855], [82.4055, 18.4601], [82.3858, 18.4305], [82.3694, 18.4185], [82.3807, 18.4067], [82.3834, 18.3917], [82.3928, 18.3778], [82.3847, 18.362], [82.3685, 18.3524], [82.3538, 18.3305], [82.3429, 18.3258], [82.3572, 18.3149], [82.3664, 18.317], [82.3737, 18.3252], [82.3928, 18.3275], [82.4014, 18.3152], [82.3938, 18.2979], [82.3803, 18.283], [82.3521, 18.2805], [82.3453, 18.2751], [82.3395, 18.2422], [82.3298, 18.2313], [82.3413, 18.2247], [82.3282, 18.21], [82.3146, 18.2046], [82.3188, 18.1836], [82.3415, 18.1725], [82.3572, 18.1709], [82.3737, 18.1488], [82.3661, 18.1343], [82.3419, 18.1515], [82.3407, 18.1033], [82.3491, 18.0963], [82.3522, 18.0842], [82.3449, 18.0565], [82.3384, 18.0497], [82.3304, 18.0594], [82.3259, 18.0578], [82.3216, 18.0544], [82.3256, 18.0453], [82.3218, 18.044], [82.3141, 18.0471], [82.3149, 18.0542], [82.3051, 18.0554], [82.3014, 18.0635], [82.3065, 18.0712], [82.2755, 18.0575], [82.2732, 18.0482], [82.2668, 18.0441], [82.2794, 18.0199], [82.2759, 17.9958], [82.2503, 17.9891], [82.2456, 18.0013], [82.2268, 18.0034], [82.2056, 18.0179], [82.186, 18.0197], [82.1856, 18.03], [82.1723, 18.0507], [82.1509, 18.0526], [82.141, 18.0447], [82.1378, 18.0577], [82.1219, 18.0668], [82.101, 18.0617], [82.0808, 18.0745], [82.0785, 18.0693], [82.0676, 18.0673], [82.0742, 18.0578], [82.0683, 18.054], [82.0538, 18.0545], [82.0333, 18.0667], [82.0152, 18.058], [82.0102, 18.0537], [82.0134, 18.0432], [82.0103, 18.0326], [81.9975, 18.0292], [81.9817, 18.0145], [82.002, 17.9871], [82.0138, 17.957], [82.0315, 17.9376], [82.0275, 17.924], [82.0097, 17.9027], [82.0034, 17.8865], [82.0212, 17.8566], [82.0195, 17.8427], [82.0149, 17.84], [82.0089, 17.8475], [81.9882, 17.8502], [81.9777, 17.8429], [81.9675, 17.8209], [81.9293, 17.8091], [81.9245, 17.8013], [81.8922, 17.7807], [81.867, 17.7529], [81.8713, 17.7463], [81.8826, 17.742], [81.8986, 17.7453], [81.9368, 17.7406], [81.9737, 17.7468], [81.9643, 17.7569], [81.981, 17.7674], [82.0176, 17.7606], [82.0151, 17.751], [82.0388, 17.7169], [82.0409, 17.7031], [82.0375, 17.6781], [82.0138, 17.6374], [82.0168, 17.6269], [82.0467, 17.6397], [82.0657, 17.6388], [82.091, 17.6534], [82.1282, 17.6551], [82.1369, 17.6507], [82.1415, 17.6366], [82.1547, 17.6217], [82.1785, 17.6115], [82.1989, 17.6299], [82.2174, 17.6388], [82.229, 17.6374], [82.2442, 17.6259], [82.2682, 17.6235], [82.3154, 17.5899], [82.3375, 17.5912], [82.3444, 17.5853], [82.344, 17.5503], [82.3317, 17.5219], [82.3452, 17.5073], [82.3513, 17.507], [82.3577, 17.5209], [82.3717, 17.5155], [82.4073, 17.521], [82.3936, 17.4965], [82.3779, 17.4858], [82.397, 17.4835], [82.4116, 17.4735], [82.4442, 17.4783], [82.456, 17.4878], [82.4567, 17.5135], [82.4694, 17.5206], [82.4669, 17.5332], [82.4707, 17.539], [82.478, 17.536], [82.477, 17.5262], [82.4816, 17.5239], [82.4838, 17.5095], [82.4899, 17.5074], [82.4999, 17.5161], [82.5144, 17.51], [82.5367, 17.5145], [82.5514, 17.5266], [82.5573, 17.5259], [82.5637, 17.5048], [82.5791, 17.4881], [82.5988, 17.4757], [82.6042, 17.4635], [82.5901, 17.4397], [82.568, 17.423], [82.5586, 17.4062], [82.5539, 17.3924], [82.5636, 17.3699], [82.5634, 17.3542], [82.5559, 17.3393], [82.5411, 17.3351], [82.5312, 17.3166], [82.5412, 17.3116], [82.5379, 17.2824], [82.5324, 17.28], [82.5424, 17.2706], [82.5484, 17.2524]]]}}, {"type": "Feature", "properties": {"osm_type": "relation", "osm_id": 303709517, "name": "Sri Potti Sriramulu Nellore", "admin_level": "6", "kind": "subdivision_2", "parent_osm_id": 2022095, "parent_name": "Andhra Pradesh", "parent_iso": "IN-AP"}, "geometry": {"type": "Polygon", "coordinates": [[[79.0768, 15.0557], [79.0735, 14.9627], [79.094, 14.893], [79.1045, 14.8892], [79.1033, 14.8856], [79.1228, 14.8664], [79.1336, 14.847], [79.1414, 14.8205], [79.1435, 14.7888], [79.1607, 14.7608], [79.168, 14.7309], [79.1773, 14.7148], [79.1795, 14.6881], [79.1693, 14.6782], [79.1753, 14.6657], [79.1719, 14.6604], [79.1798, 14.6228], [79.215, 14.5887], [79.2237, 14.5973], [79.2367, 14.5889], [79.2494, 14.5604], [79.2744, 14.5292], [79.2959, 14.4807], [79.3061, 14.4786], [79.3205, 14.4925], [79.3271, 14.4787], [79.347, 14.4653], [79.3531, 14.4562], [79.3255, 14.4423], [79.3278, 14.4311], [79.3593, 14.3793], [79.3651, 14.3561], [79.3882, 14.343], [79.4184, 14.2873], [79.4192, 14.2667], [79.4295, 14.2498], [79.425, 14.2175], [79.4323, 14.1945], [79.4402, 14.1293], [79.4532, 14.1043], [79.4343, 14.0195], [79.4446, 13.9937], [79.4556, 13.9846], [79.4521, 13.9667], [79.4597, 13.9459], [79.4569, 13.9216], [79.4416, 13.8983], [79.4449, 13.89], [79.4746, 13.8972], [79.4816, 13.9108], [79.5546, 13.9129], [79.5895, 13.9196], [79.5976, 13.9156], [79.5967, 13.8905], [79.6229, 13.8857], [79.6263, 13.877], [79.6256, 13.8645], [79.612, 13.8551], [79.616, 13.8497], [79.6276, 13.8426], [79.6709, 13.8355], [79.6761, 13.8776], [79.6722, 13.8904], [79.6823, 13.9239], [79.6932, 13.9154], [79.7265, 13.9064], [79.7319, 13.9024], [79.7342, 13.8902], [79.7306, 13.868], [79.7337, 13.8602], [79.7413, 13.8574], [79.7433, 13.8417], [79.7554, 13.8342], [79.7627, 13.8089], [79.813, 13.797], [79.8191, 13.7822], [79.8323, 13.7803], [79.8378, 13.7851], [79.8386, 13.7946], [79.8595, 13.8102], [79.8808, 13.8144], [79.8736, 13.777], [79.8533, 13.7682], [79.8527, 13.76], [79.862, 13.75], [79.8719, 13.7086], [79.894, 13.7019], [79.959, 13.7079], [79.9749, 13.689], [79.9616, 13.6675], [79.9689, 13.6534], [79.9736, 13.6474], [79.9913, 13.6484], [80.0022, 13.6441], [80.0065, 13.6206], [80.0128, 13.6096], [80.0184, 13.6098], [80.017, 13.5972], [80.0252, 13.5972], [80.0246, 13.5786], [80.047, 13.5765], [80.0525, 13.5595], [80.0414, 13.5543], [80.0423, 13.5376], [80.0583, 13.536], [80.0638, 13.5446], [80.0823, 13.5517], [80.0856, 13.548], [80.0899, 13.5381], [80.0803, 13.5267], [80.0808, 13.4922], [80.1106, 13.493], [80.1136, 13.5092], [80.1266, 13.5083], [80.1472, 13.5047], [80.148, 13.4955], [80.1775, 13.4884], [80.2159, 13.4885], [80.2421, 13.469], [80.2685, 13.5633], [80.2449, 13.6114], [80.234, 13.656], [80.2379, 13.7173], [80.2532, 13.7809], [80.2435, 13.8186], [80.221, 13.8749], [80.1467, 14.043], [80.1333, 14.1022], [80.1273, 14.1734], [80.1396, 14.2699], [80.1685, 14.3514], [80.1794, 14.5013], [80.1951, 14.5767], [80.1898, 14.5984], [80.1743, 14.6082], [80.1638, 14.6281], [80.1412, 14.7115], [80.1084, 14.7515], [80.0992, 14.775], [80.0878, 14.8307], [80.0853, 14.8791], [80.0684, 14.9299], [80.0524, 15.02], [80.0367, 15.0136], [80.0334, 14.9972], [80.0005, 14.988], [79.9808, 15.0169], [79.9475, 15.0208], [79.9037, 15.0011], [79.8953, 14.9855], [79.878, 14.9739], [79.8687, 14.9563], [79.8584, 14.9548], [79.8053, 14.9658], [79.7824, 14.9767], [79.8011, 15.0157], [79.788, 15.0265], [79.8006, 15.0362], [79.8055, 15.0569], [79.7904, 15.0619], [79.7581, 15.0524], [79.7527, 15.0373], [79.7443, 15.0327], [79.7246, 15.0398], [79.7272, 15.0498], [79.693, 15.0347], [79.5636, 15.044], [79.5631, 15.0348], [79.5527, 15.0241], [79.5166, 15.0389], [79.5047, 15.0464], [79.5053, 15.053], [79.5002, 15.0556], [79.4677, 15.0646], [79.4381, 15.0565], [79.4217, 15.0573], [79.4143, 15.0633], [79.4161, 15.0759], [79.4114, 15.0782], [79.3924, 15.0774], [79.3869, 15.0804], [79.3898, 15.0888], [79.3854, 15.0898], [79.3609, 15.0873], [79.3547, 15.0958], [79.3533, 15.112], [79.3474, 15.111], [79.3394, 15.0902], [79.3327, 15.0901], [79.3282, 15.098], [79.3323, 15.1139], [79.3249, 15.1179], [79.3188, 15.1165], [79.3054, 15.0935], [79.2995, 15.0917], [79.2942, 15.0982], [79.2574, 15.1016], [79.2561, 15.1093], [79.2357, 15.1066], [79.1993, 15.0886], [79.1561, 15.092], [79.124, 15.1041], [79.1147, 15.0933], [79.0898, 15.0863], [79.0768, 15.0557]]]}}, {"type": "Feature", "properties": {"osm_type": "relation", "osm_id": 858047937, "name": "Chittoor", "admin_level": "6", "kind": "subdivision_2", "parent_osm_id": 2022095, "parent_name": "Andhra Pradesh", "parent_iso": "IN-AP"}, "geometry": {"type": "Polygon", "coordinates": [[[79.4366, 14.0349], [79.3858, 14.05], [79.3792, 14.0477], [79.3854, 14.034], [79.3859, 14.0061], [79.4001, 14.0065], [79.4098, 13.9958], [79.3852, 13.9522], [79.3967, 13.9485], [79.4201, 13.9597], [79.4292, 13.9558], [79.416, 13.9169], [79.4021, 13.9172], [79.4095, 13.8978], [79.4139, 13.8633], [79.4279, 13.846], [79.4198, 13.8328], [79.4209, 13.8208], [79.4115, 13.8116], [79.4275, 13.7838], [79.4231, 13.7811], [79.4197, 13.7619], [79.3894, 13.76], [79.3117, 13.7244], [79.2955, 13.7584], [79.2458, 13.76], [79.238, 13.7535], [79.2275, 13.7576], [79.2171, 13.7731], [79.1924, 13.794], [79.2027, 13.8061], [79.2187, 13.8108], [79.151, 13.861], [79.1227, 13.849], [79.1015, 13.8492], [79.0877, 13.8758], [79.0311, 13.888], [79.0274, 13.8974], [79.0068, 13.9082], [78.9917, 13.9095], [78.9851, 13.8903], [78.9743, 13.8878], [78.9513, 13.8854], [78.9412, 13.8881], [78.937, 13.8971], [78.8831, 13.898], [78.86, 13.8878], [78.8001, 13.8798], [78.7835, 13.8654], [78.789, 13.8507], [78.7845, 13.8312], [78.7795, 13.8286], [78.7672, 13.8303], [78.7592, 13.8381], [78.7462, 13.8688], [78.7246, 13.8872], [78.7079, 13.8857], [78.7066, 13.8772], [78.6992, 13.8734], [78.6455, 13.869], [78.6449, 13.8888], [78.6564, 13.9001], [78.6574, 13.9071], [78.638, 13.9038], [78.6362, 13.9076], [78.5889, 13.9117], [78.5991, 13.9591], [78.5726, 13.9636], [78.5841, 13.984], [78.5465, 13.9912], [78.509, 13.9606], [78.4965, 13.9397], [78.4703, 13.9601], [78.4746, 13.9828], [78.4686, 13.9914], [78.4717, 13.9938], [78.4284, 13.9787], [78.4175, 13.9638], [78.3881, 13.9417], [78.3769, 13.9435], [78.3726, 13.9556], [78.3494, 13.9365], [78.3394, 13.9371], [78.3333, 13.9205], [78.3139, 13.9162], [78.3002, 13.904], [78.2978, 13.8942], [78.2761, 13.8963], [78.2659, 13.8598], [78.2448, 13.8478], [78.2548, 13.8337], [78.2566, 13.8076], [78.263, 13.7983], [78.242, 13.7844], [78.2303, 13.7812], [78.1898, 13.7884], [78.1451, 13.7829], [78.1278, 13.7867], [78.1206, 13.7715], [78.1049, 13.76], [78.0945, 13.7432], [78.1191, 13.7201], [78.1151, 13.6943], [78.0948, 13.6905], [78.0722, 13.6954], [78.075, 13.6898], [78.068, 13.6768], [78.0897, 13.6602], [78.0905, 13.6452], [78.1004, 13.6429], [78.1037, 13.6502], [78.1171, 13.657], [78.1656, 13.6587], [78.1705, 13.6335], [78.1958, 13.6313], [78.204, 13.6263], [78.2038, 13.605], [78.1894, 13.5891], [78.1933, 13.5665], [78.2059, 13.5709], [78.2186, 13.5921], [78.2327, 13.5873], [78.2378, 13.5974], [78.2599, 13.5846], [78.3228, 13.5939], [78.354, 13.5882], [78.3908, 13.5918], [78.4012, 13.5886], [78.4083, 13.5768], [78.3778, 13.5058], [78.3779, 13.4775], [78.3732, 13.4627], [78.382, 13.4017], [78.366, 13.3659], [78.3672, 13.3575], [78.3856, 13.3572], [78.4082, 13.3432], [78.4061, 13.3334], [78.4021, 13.3346], [78.3993, 13.3293], [78.3862, 13.3372], [78.3884, 13.3422], [78.3822, 13.343], [78.3778, 13.3309], [78.39, 13.3277], [78.4022, 13.3146], [78.4354, 13.33], [78.44, 13.3281], [78.447, 13.3093], [78.4775, 13.3211], [78.4828, 13.319], [78.4836, 13.3022], [78.5123, 13.2883], [78.5232, 13.2711], [78.532, 13.2668], [78.54, 13.2871], [78.5584, 13.2839], [78.5619, 13.2873], [78.5669, 13.3107], [78.5785, 13.2831], [78.5888, 13.2734], [78.5703, 13.2385], [78.5686, 13.2234], [78.5801, 13.2156], [78.5698, 13.2035], [78.5524, 13.1986], [78.5539, 13.1915], [78.5748, 13.1888], [78.5806, 13.1679], [78.5502, 13.163], [78.5442, 13.1535], [78.5469, 13.1421], [78.5329, 13.1404], [78.5202, 13.131], [78.5226, 13.1177], [78.5395, 13.1088], [78.5263, 13.1025], [78.5253, 13.0961], [78.5134, 13.093], [78.5101, 13.0812], [78.5161, 13.0642], [78.4826, 13.0552], [78.4726, 13.0434], [78.4631, 13.0429], [78.4638, 13.0151], [78.473, 12.9906], [78.4695, 12.9747], [78.4342, 12.98], [78.4389, 12.9619], [78.428, 12.9557], [78.4207, 12.9582], [78.4222, 12.9491], [78.4127, 12.9441], [78.4193, 12.9195], [78.4286, 12.9316], [78.4679, 12.9043], [78.466, 12.8647], [78.4645, 12.877], [78.4502, 12.8912], [78.4475, 12.9121], [78.4381, 12.9135], [78.4364, 12.9048], [78.429, 12.9005], [78.4144, 12.9027], [78.4, 12.9169], [78.3965, 12.9075], [78.3899, 12.9065], [78.3569, 12.9393], [78.3387, 12.9005], [78.328, 12.9038], [78.325, 12.8998], [78.3224, 12.885], [78.339, 12.8853], [78.3331, 12.8741], [78.3156, 12.877], [78.3146, 12.8584], [78.2872, 12.8603], [78.2741, 12.8677], [78.2525, 12.8585], [78.2517, 12.8143], [78.241, 12.7732], [78.2308, 12.7582], [78.2405, 12.7314], [78.232, 12.7145], [78.2077, 12.7079], [78.2109, 12.7012], [78.2014, 12.6925], [78.2117, 12.6868], [78.2398, 12.6851], [78.2391, 12.7005], [78.2443, 12.705], [78.2762, 12.7032], [78.3023, 12.6643], [78.3207, 12.6615], [78.3343, 12.6487], [78.3414, 12.6499], [78.3804, 12.6235], [78.412, 12.625], [78.4305, 12.6324], [78.4371, 12.6266], [78.4597, 12.6283], [78.4671, 12.6238], [78.4752, 12.6472], [78.4698, 12.674], [78.4863, 12.671], [78.5008, 12.6752], [78.5096, 12.6911], [78.4985, 12.7023], [78.503, 12.7143], [78.5071, 12.7155], [78.5118, 12.7089], [78.522, 12.7106], [78.5212, 12.7167], [78.5074, 12.7198], [78.5006, 12.7272], [78.4917, 12.7418], [78.4964, 12.7465], [78.5065, 12.7422], [78.5157, 12.7252], [78.521, 12.7245], [78.5231, 12.7335], [78.5245, 12.7198], [78.5386, 12.7131], [78.5378, 12.7066], [78.5331, 12.709], [78.5308, 12.7043], [78.5366, 12.6916], [78.56, 12.6975], [78.5577, 12.7045], [78.5645, 12.709], [78.5577, 12.7193], [78.5661, 12.738], [78.5579, 12.7405], [78.5703, 12.7635], [78.579, 12.7641], [78.5779, 12.7709], [78.5941, 12.7827], [78.5947, 12.7972], [78.6019, 12.8044], [78.6004, 12.8167], [78.6098, 12.823], [78.6037, 12.8504], [78.6165, 12.8693], [78.618, 12.8856], [78.6377, 12.931], [78.6495, 12.9278], [78.6588, 12.9309], [78.641, 12.9649], [78.6499, 12.9662], [78.6255, 12.9906], [78.6492, 13.0086], [78.663, 13.0297], [78.7057, 13.0163], [78.7143, 13.068], [78.758, 13.0574], [78.7896, 13.0652], [78.8201, 13.09], [78.8444, 13.0817], [78.8705, 13.0832], [78.8769, 13.0968], [78.8882, 13.0983], [78.8957, 13.0942], [78.8942, 13.032], [78.9282, 13.0354], [78.937, 13.031], [78.941, 13.0338], [78.9297, 13.0446], [78.9057, 13.0474], [78.9132, 13.0644], [78.9209, 13.0628], [78.9266, 13.08], [78.9424, 13.0783], [78.9489, 13.0823], [78.9581, 13.0759], [78.9919, 13.0889], [79.0127, 13.0704], [79.0353, 13.0689], [79.0382, 13.0624], [79.0658, 13.0506], [79.0665, 13.0408], [79.0816, 13.0268], [79.0954, 13.0252], [79.117, 13.037], [79.1319, 13.0354], [79.1654, 13.0202], [79.1858, 13.0322], [79.1892, 13.0512], [79.1849, 13.0566], [79.1874, 13.0626], [79.1821, 13.0659], [79.1917, 13.073], [79.2015, 13.0975], [79.2059, 13.1026], [79.2201, 13.1043], [79.2309, 13.1168], [79.235, 13.1289], [79.2272, 13.1405], [79.2309, 13.1484], [79.2493, 13.1397], [79.2559, 13.1463], [79.2598, 13.161], [79.2691, 13.1495], [79.28, 13.1542], [79.2865, 13.1339], [79.2976, 13.1359], [79.3115, 13.1279], [79.3102, 13.1105], [79.3207, 13.11], [79.3294, 13.1325], [79.3434, 13.1343], [79.348, 13.1406], [79.3571, 13.1367], [79.3673, 13.1429], [79.3595, 13.148], [79.3605, 13.1761], [79.3739, 13.1692], [79.3835, 13.1817], [79.3817, 13.1894], [79.3911, 13.1956], [79.4365, 13.2007], [79.4343, 13.2217], [79.4582, 13.23], [79.4552, 13.2424], [79.4488, 13.243], [79.4309, 13.2316], [79.4297, 13.2254], [79.4235, 13.2253], [79.4213, 13.2599], [79.4316, 13.2795], [79.4309, 13.2877], [79.4376, 13.2944], [79.4343, 13.2998], [79.418, 13.2985], [79.3871, 13.316], [79.4368, 13.336], [79.4353, 13.3416], [79.5485, 13.3244], [79.5546, 13.2916], [79.5615, 13.2805], [79.5782, 13.2629], [79.5931, 13.2589], [79.5982, 13.2606], [79.6015, 13.2739], [79.6139, 13.2812], [79.6336, 13.2725], [79.6424, 13.2744], [79.6454, 13.2871], [79.6513, 13.2897], [79.6662, 13.2882], [79.6754, 13.2818], [79.6814, 13.2956], [79.6972, 13.2704], [79.6867, 13.2607], [79.6863, 13.2432], [79.6937, 13.2421], [79.7049, 13.2523], [79.709, 13.2477], [79.7023, 13.2242], [79.7127, 13.2165], [79.7287, 13.2282], [79.7316, 13.2364], [79.7358, 13.2357], [79.75, 13.2234], [79.7514, 13.2122], [79.7575, 13.2088], [79.7649, 13.2187], [79.7867, 13.2315], [79.7964, 13.2319], [79.798, 13.2374], [79.7884, 13.248], [79.7658, 13.2576], [79.7347, 13.2795], [79.7342, 13.286], [79.7591, 13.2938], [79.767, 13.3166], [79.7928, 13.2959], [79.8002, 13.2985], [79.8132, 13.3182], [79.8642, 13.3176], [79.8719, 13.3277], [79.8782, 13.3247], [79.8869, 13.3415], [79.8935, 13.3438], [79.904, 13.3381], [79.9237, 13.3578], [79.9385, 13.35], [79.953, 13.3722], [79.9527, 13.3832], [79.961, 13.3813], [79.9666, 13.3882], [79.9633, 13.3961], [79.9486, 13.3989], [79.9454, 13.4184], [79.9501, 13.4238], [79.9638, 13.4222], [79.9762, 13.432], [79.9747, 13.4653], [80.0003, 13.4759], [80.0082, 13.4743], [80.0187, 13.5018], [80.0489, 13.4986], [80.0499, 13.5134], [80.0456, 13.5159], [80.0264, 13.5179], [80.019, 13.5291], [80.003, 13.5241], [80.0025, 13.5407], [80.0205, 13.5463], [80.0304, 13.5391], [80.0423, 13.5376], [80.0414, 13.5543], [80.0525, 13.5595], [80.047, 13.5765], [80.0246, 13.5786], [80.0252, 13.5972], [80.017, 13.5972], [80.0184, 13.6098], [80.0128, 13.6096], [80.0065, 13.6206], [80.0022, 13.6441], [79.9913, 13.6484], [79.9736, 13.6474], [79.9689, 13.6534], [79.9616, 13.6675], [79.9749, 13.689], [79.959, 13.7079], [79.894, 13.7019], [79.8719, 13.7086], [79.862, 13.75], [79.8527, 13.76], [79.8533, 13.7682], [79.8736, 13.777], [79.8808, 13.8144], [79.8595, 13.8102], [79.8386, 13.7946], [79.8378, 13.7851], [79.8323, 13.7803], [79.8191, 13.7822], [79.813, 13.797], [79.7627, 13.8089], [79.7554, 13.8342], [79.7433, 13.8417], [79.7413, 13.8574], [79.7337, 13.8602], [79.7306, 13.868], [79.7319, 13.9024], [79.6932, 13.9154], [79.6823, 13.9239], [79.6722, 13.8904], [79.6761, 13.8776], [79.6709, 13.8355], [79.6276, 13.8426], [79.616, 13.8497], [79.612, 13.8551], [79.6256, 13.8645], [79.6263, 13.877], [79.6229, 13.8857], [79.5967, 13.8905], [79.5976, 13.9156], [79.5895, 13.9196], [79.5546, 13.9129], [79.4816, 13.9108], [79.4746, 13.8972], [79.4449, 13.89], [79.4416, 13.8983], [79.4569, 13.9216], [79.4597, 13.9459], [79.4521, 13.9667], [79.4556, 13.9846], [79.4446, 13.9937], [79.4343, 14.0195], [79.4366, 14.0349]]]}}, {"type": "Feature", "properties": {"osm_type": "relation", "osm_id": 920937868, "name": "Srikakulam", "admin_level": "6", "kind": "subdivision_2", "parent_osm_id": 2022095, "parent_name": "Andhra Pradesh", "parent_iso": "IN-AP"}, "geometry": {"type": "Polygon", "coordinates": [[[83.6745, 18.0834], [83.7621, 18.1341], [83.861, 18.1744], [83.8862, 18.1937], [83.9406, 18.2111], [84.0709, 18.2755], [84.1274, 18.3134], [84.1324, 18.3431], [84.1535, 18.3762], [84.2607, 18.4794], [84.356, 18.5568], [84.3611, 18.5825], [84.3682, 18.593], [84.4417, 18.662], [84.4419, 18.6706], [84.457, 18.6983], [84.4917, 18.74], [84.5528, 18.7927], [84.559, 18.8185], [84.5759, 18.8393], [84.5934, 18.8754], [84.6751, 18.9568], [84.7676, 19.0812], [84.7044, 19.1183], [84.7008, 19.1311], [84.7133, 19.153], [84.7121, 19.1585], [84.6883, 19.1592], [84.6802, 19.1663], [84.6719, 19.1661], [84.6728, 19.1447], [84.6681, 19.1314], [84.6542, 19.1299], [84.6486, 19.1343], [84.6163, 19.1269], [84.5988, 19.1333], [84.6099, 19.1061], [84.6237, 19.0995], [84.6268, 19.0861], [84.6384, 19.0822], [84.6417, 19.0882], [84.6556, 19.0938], [84.6715, 19.0759], [84.6614, 19.0619], [84.6438, 19.0668], [84.637, 19.0592], [84.6302, 19.0653], [84.6197, 19.0644], [84.6211, 19.0563], [84.6145, 19.055], [84.5971, 19.0231], [84.5851, 19.0285], [84.5806, 19.0447], [84.5851, 19.0717], [84.5755, 19.0702], [84.5731, 19.0746], [84.5606, 19.057], [84.5169, 19.047], [84.4964, 19.0305], [84.4849, 19.0175], [84.4787, 18.9909], [84.4369, 19.0107], [84.4223, 19.0234], [84.4324, 19.0049], [84.4336, 18.982], [84.4443, 18.9753], [84.4238, 18.9643], [84.4271, 18.9581], [84.4228, 18.9475], [84.4365, 18.9235], [84.4251, 18.9104], [84.4167, 18.9179], [84.4133, 18.9159], [84.4193, 18.9037], [84.4012, 18.8956], [84.3725, 18.906], [84.3749, 18.8991], [84.3933, 18.8928], [84.3948, 18.8875], [84.3904, 18.8791], [84.3587, 18.8929], [84.3611, 18.8848], [84.3786, 18.8767], [84.3696, 18.8609], [84.3587, 18.8607], [84.3516, 18.8725], [84.3433, 18.8765], [84.3414, 18.8614], [84.3453, 18.8461], [84.3516, 18.8426], [84.348, 18.8281], [84.3513, 18.8218], [84.3366, 18.8189], [84.3395, 18.802], [84.323, 18.7961], [84.3162, 18.7884], [84.2912, 18.8007], [84.2595, 18.7824], [84.2385, 18.79], [84.2371, 18.7959], [84.2241, 18.7971], [84.1977, 18.7866], [84.1889, 18.7873], [84.1872, 18.7788], [84.1656, 18.779], [84.1667, 18.7848], [84.1588, 18.7856], [84.1388, 18.7746], [84.1369, 18.7627], [84.1304, 18.7581], [84.115, 18.7646], [84.0991, 18.7551], [84.0893, 18.7544], [84.0733, 18.7615], [84.0661, 18.7778], [84.0567, 18.7804], [84.0554, 18.7932], [84.0418, 18.7998], [84.0345, 18.8118], [84.0271, 18.8072], [84.0149, 18.8138], [83.999, 18.8142], [83.9898, 18.8096], [83.9715, 18.8137], [83.9473, 18.8061], [83.9411, 18.8164], [83.9095, 18.8264], [83.8945, 18.8149], [83.8908, 18.8291], [83.8778, 18.8279], [83.8719, 18.8484], [83.8512, 18.8607], [83.8447, 18.874], [83.8499, 18.8975], [83.8478, 18.9133], [83.8424, 18.9185], [83.8306, 18.9147], [83.8248, 18.9187], [83.8287, 18.9311], [83.821, 18.9427], [83.8223, 18.9623], [83.8101, 18.9908], [83.7987, 19.0013], [83.7959, 19.0168], [83.7832, 19.0179], [83.775, 19.0074], [83.7588, 19.0022], [83.7486, 18.9928], [83.7493, 18.976], [83.7566, 18.9674], [83.7579, 18.9534], [83.7691, 18.9536], [83.7847, 18.9282], [83.7876, 18.9169], [83.7781, 18.9107], [83.7835, 18.8997], [83.8218, 18.8592], [83.8237, 18.8336], [83.809, 18.8273], [83.7703, 18.8251], [83.7584, 18.8094], [83.7481, 18.7755], [83.6849, 18.8047], [83.6721, 18.8053], [83.6403, 18.7762], [83.585, 18.7555], [83.5719, 18.7407], [83.5432, 18.7257], [83.53, 18.7118], [83.5258, 18.7004], [83.5452, 18.6713], [83.5414, 18.6208], [83.521, 18.594], [83.5195, 18.56], [83.523, 18.5536], [83.5346, 18.5476], [83.5412, 18.5497], [83.5525, 18.5643], [83.5612, 18.5681], [83.6094, 18.5613], [83.6094, 18.5205], [83.5939, 18.5121], [83.5631, 18.506], [83.5593, 18.4984], [83.5924, 18.468], [83.5933, 18.4627], [83.5709, 18.4536], [83.5672, 18.447], [83.5785, 18.4263], [83.5712, 18.423], [83.5682, 18.4088], [83.5941, 18.4032], [83.6012, 18.3908], [83.6047, 18.3694], [83.5883, 18.3515], [83.5895, 18.3418], [83.6083, 18.3261], [83.6495, 18.3155], [83.7043, 18.2872], [83.6631, 18.2651], [83.6655, 18.2276], [83.6519, 18.2118], [83.6527, 18.2032], [83.6268, 18.2105], [83.6083, 18.2092], [83.6008, 18.2004], [83.6128, 18.1925], [83.611, 18.1741], [83.6036, 18.1684], [83.6045, 18.1574], [83.6261, 18.1346], [83.6191, 18.1276], [83.6337, 18.112], [83.6447, 18.1113], [83.6745, 18.0834]]]}}, {"type": "Feature", "properties": {"osm_type": "relation", "osm_id": 797902681, "name": "Kurnool", "admin_level": "6", "kind": "subdivision_2", "parent_osm_id": 2022095, "parent_name": "Andhra Pradesh", "parent_iso": "IN-AP"}, "geometry": {"type": "Polygon", "coordinates": [[[78.9214, 16.1166], [78.9093, 16.1054], [78.8971, 16.1063], [78.8807, 16.1179], [78.8709, 16.1607], [78.8644, 16.1662], [78.8458, 16.1643], [78.8384, 16.1497], [78.8474, 16.1019], [78.8296, 16.0699], [78.798, 16.0404], [78.783, 16.0313], [78.7619, 16.0286], [78.7339, 16.0306], [78.6944, 16.0479], [78.6442, 16.0988], [78.6247, 16.1062], [78.6111, 16.1037], [78.5667, 16.0636], [78.5545, 16.0634], [78.5031, 16.0802], [78.4283, 16.0898], [78.3915, 16.0788], [78.3773, 16.0668], [78.3476, 16.0597], [78.3234, 16.0361], [78.2993, 16.0354], [78.2752, 16.0416], [78.2637, 16.0381], [78.2584, 16.0325], [78.2669, 16.0016], [78.2451, 15.936], [78.2125, 15.924], [78.1871, 15.9073], [78.1886, 15.8946], [78.1717, 15.8559], [78.1328, 15.8558], [78.1339, 15.8418], [78.1166, 15.8341], [78.0705, 15.8514], [78.0557, 15.8775], [78.048, 15.8788], [78.043, 15.9088], [78.0355, 15.9094], [78.0237, 15.9018], [78.0086, 15.8659], [77.9795, 15.8807], [77.9349, 15.8831], [77.8941, 15.9024], [77.8734, 15.8988], [77.8574, 15.8806], [77.8402, 15.8819], [77.8055, 15.8717], [77.7222, 15.8928], [77.6985, 15.8815], [77.6649, 15.8827], [77.6455, 15.8892], [77.6316, 15.9052], [77.6122, 15.9178], [77.5942, 15.913], [77.5545, 15.9196], [77.5029, 15.9322], [77.4724, 15.9334], [77.4331, 15.9476], [77.3815, 15.9389], [77.3588, 15.9493], [77.3199, 15.9507], [77.3053, 15.956], [77.2875, 15.9529], [77.249, 15.9622], [77.232, 15.9571], [77.1854, 15.9554], [77.1481, 15.9459], [77.1346, 15.9357], [77.1092, 15.9298], [77.0813, 15.915], [77.0376, 15.8584], [77.0267, 15.8371], [77.046, 15.827], [77.0685, 15.8285], [77.0661, 15.8033], [77.0718, 15.8015], [77.0671, 15.7838], [77.0583, 15.7691], [77.0543, 15.7695], [77.0563, 15.7556], [77.0513, 15.7568], [77.0478, 15.74], [77.0519, 15.7386], [77.0518, 15.7305], [77.0809, 15.727], [77.081, 15.7159], [77.0891, 15.7145], [77.0864, 15.7009], [77.0807, 15.6964], [77.1056, 15.6845], [77.1299, 15.6647], [77.1258, 15.6429], [77.121, 15.6309], [77.0862, 15.6585], [77.0736, 15.6465], [77.0339, 15.6394], [77.0336, 15.6039], [77.0284, 15.582], [77.0336, 15.5311], [77.0314, 15.5057], [77.0007, 15.5054], [76.9765, 15.512], [76.975, 15.4966], [76.9797, 15.488], [77.0007, 15.4732], [77.0108, 15.4541], [77.0322, 15.441], [77.0358, 15.4242], [77.0334, 15.4072], [77.0487, 15.3897], [77.043, 15.3647], [77.0679, 15.3439], [77.0666, 15.3279], [77.074, 15.3255], [77.1149, 15.3334], [77.1206, 15.296], [77.1532, 15.2919], [77.1505, 15.2723], [77.1696, 15.2653], [77.1707, 15.2571], [77.1456, 15.2578], [77.138, 15.2409], [77.1288, 15.2395], [77.1262, 15.2275], [77.1467, 15.2244], [77.1554, 15.2142], [77.17, 15.1748], [77.1633, 15.1556], [77.1424, 15.1556], [77.1375, 15.149], [77.1408, 15.1424], [77.1582, 15.138], [77.1619, 15.1462], [77.1827, 15.1433], [77.1885, 15.1559], [77.1981, 15.1594], [77.2294, 15.1456], [77.266, 15.1423], [77.2725, 15.1306], [77.2945, 15.1313], [77.3028, 15.1535], [77.3112, 15.1541], [77.3215, 15.1763], [77.3526, 15.1768], [77.3665, 15.2222], [77.3871, 15.2172], [77.4263, 15.2233], [77.4331, 15.2206], [77.4364, 15.2097], [77.4509, 15.2062], [77.4533, 15.2209], [77.4848, 15.209], [77.5056, 15.2213], [77.5273, 15.2238], [77.544, 15.2099], [77.5733, 15.1994], [77.5882, 15.1851], [77.6131, 15.1825], [77.6174, 15.2048], [77.6365, 15.207], [77.6413, 15.222], [77.6516, 15.2254], [77.6526, 15.2303], [77.67, 15.2323], [77.6769, 15.2305], [77.6797, 15.2201], [77.6998, 15.2044], [77.6968, 15.1835], [77.7006, 15.1806], [77.7134, 15.1854], [77.7218, 15.1719], [77.7325, 15.1699], [77.7338, 15.1497], [77.7485, 15.1436], [77.7516, 15.1288], [77.7752, 15.1233], [77.7739, 15.1128], [77.7903, 15.1059], [77.7942, 15.1047], [77.8, 15.1154], [77.8146, 15.1264], [77.8193, 15.1412], [77.8412, 15.1434], [77.843, 15.1313], [77.8496, 15.13], [77.8768, 15.1349], [77.8889, 15.1761], [77.8954, 15.1775], [77.9217, 15.1711], [77.924, 15.1551], [77.9415, 15.1606], [77.9511, 15.1584], [77.97, 15.1247], [77.9774, 15.1384], [77.9987, 15.1363], [78.0259, 15.1152], [78.0262, 15.1036], [78.0156, 15.0776], [78.0035, 15.0732], [77.9953, 15.0761], [77.9966, 15.0474], [78.0007, 15.0455], [78.0144, 15.0586], [78.0201, 15.0262], [78.0361, 15.0085], [78.0914, 14.9822], [78.1041, 14.9703], [78.1261, 14.9672], [78.142, 14.9572], [78.1448, 14.9463], [78.1662, 14.9581], [78.1795, 14.9602], [78.216, 14.955], [78.2273, 14.9493], [78.2378, 14.9555], [78.2488, 15.0013], [78.2676, 15.0246], [78.2878, 15.0336], [78.2896, 15.0487], [78.2837, 15.0552], [78.2849, 15.0626], [78.2969, 15.0738], [78.3957, 15.0551], [78.3935, 15.0431], [78.3815, 15.0367], [78.3776, 15.0291], [78.3602, 15.0288], [78.3499, 15.0013], [78.3553, 14.9902], [78.4076, 14.9624], [78.4137, 14.9648], [78.4307, 15.0349], [78.4957, 15.0382], [78.49, 15.0591], [78.4994, 15.0689], [78.5114, 15.069], [78.5228, 15.0668], [78.5265, 15.0594], [78.5266, 15.0014], [78.5156, 14.9693], [78.4962, 14.9392], [78.4831, 14.9013], [78.4924, 14.9018], [78.502, 14.9191], [78.5354, 14.9568], [78.548, 14.9612], [78.5534, 14.9577], [78.5521, 14.9342], [78.5562, 14.9269], [78.5914, 14.9377], [78.6095, 14.95], [78.6306, 14.943], [78.6367, 14.9245], [78.6718, 14.9296], [78.6858, 14.9377], [78.6922, 14.9642], [78.7192, 14.9664], [78.7203, 15.0222], [78.7411, 15.0266], [78.7633, 15.0392], [78.7606, 15.0527], [78.77, 15.0658], [78.761, 15.0883], [78.7604, 15.1061], [78.7701, 15.1867], [78.7505, 15.1834], [78.7435, 15.2424], [78.744, 15.3064], [78.7508, 15.3545], [78.7742, 15.4073], [78.7729, 15.4539], [78.7803, 15.5335], [78.7734, 15.6016], [78.7756, 15.6797], [78.7921, 15.7383], [78.8132, 15.8757], [78.8337, 15.9081], [78.9023, 15.9652], [78.9216, 16.0008], [78.9337, 16.0707], [78.9214, 16.1166]]]}}, {"type": "Feature", "properties": {"osm_type": "relation", "osm_id": 796285813, "name": "Guntur", "admin_level": "6", "kind": "subdivision_2", "parent_osm_id": 2022095, "parent_name": "Andhra Pradesh", "parent_iso": "IN-AP"}, "geometry": {"type": "Polygon", "coordinates": [[[80.4392, 15.8086], [80.507, 15.8388], [80.5952, 15.8677], [80.6707, 15.8798], [80.7267, 15.8779], [80.7615, 15.8676], [80.7726, 15.8577], [80.7946, 15.8131], [80.8108, 15.7654], [80.815, 15.7225], [80.8224, 15.7148], [80.8504, 15.7105], [80.9236, 15.7222], [80.9163, 15.7349], [80.8996, 15.7459], [80.8775, 15.7898], [80.8413, 15.7822], [80.852, 15.8199], [80.9064, 15.9243], [80.9034, 16.0176], [80.8925, 16.0474], [80.89, 16.075], [80.8786, 16.0877], [80.8697, 16.1212], [80.8695, 16.1433], [80.8513, 16.1753], [80.8098, 16.2857], [80.7724, 16.3287], [80.7503, 16.3686], [80.669, 16.4759], [80.6048, 16.5117], [80.58, 16.5335], [80.5822, 16.5366], [80.5089, 16.5861], [80.4839, 16.5978], [80.4154, 16.6066], [80.3892, 16.6035], [80.3752, 16.6191], [80.3344, 16.625], [80.2653, 16.6185], [80.2235, 16.6223], [80.1547, 16.6577], [80.1377, 16.679], [80.1496, 16.7055], [80.1485, 16.7564], [80.1206, 16.8295], [80.1112, 16.8348], [80.0875, 16.8321], [80.0785, 16.822], [80.0604, 16.7797], [80.0567, 16.7536], [80.0255, 16.7203], [80.0003, 16.701], [79.9819, 16.668], [79.967, 16.6506], [79.9514, 16.6411], [79.9325, 16.6392], [79.9109, 16.6463], [79.8997, 16.658], [79.882, 16.697], [79.8705, 16.7065], [79.8189, 16.6987], [79.792, 16.7329], [79.7835, 16.7376], [79.7591, 16.7282], [79.7365, 16.7032], [79.6916, 16.6984], [79.6777, 16.6922], [79.6565, 16.67], [79.6084, 16.6712], [79.5624, 16.6425], [79.5056, 16.6383], [79.4589, 16.6169], [79.4515, 16.6015], [79.4349, 16.5903], [79.3415, 16.5861], [79.2743, 16.569], [79.2689, 16.554], [79.2386, 16.5268], [79.2323, 16.4997], [79.2433, 16.4783], [79.2444, 16.4662], [79.2346, 16.4602], [79.2273, 16.4459], [79.2197, 16.3706], [79.2315, 16.3582], [79.2362, 16.3447], [79.2382, 16.3082], [79.2335, 16.2581], [79.2271, 16.2477], [79.2004, 16.2307], [79.2148, 16.2297], [79.222, 16.2232], [79.2259, 16.1821], [79.3289, 16.243], [79.343, 16.2471], [79.3689, 16.2438], [79.4087, 16.2763], [79.4642, 16.3116], [79.4987, 16.3023], [79.5129, 16.3056], [79.5331, 16.319], [79.5475, 16.3135], [79.5562, 16.3057], [79.5623, 16.2525], [79.5755, 16.1975], [79.556, 16.1522], [79.5664, 16.1229], [79.5664, 16.0919], [79.5446, 16.1036], [79.5351, 16.0798], [79.5388, 16.071], [79.5464, 16.0675], [79.5694, 16.072], [79.5856, 16.0275], [79.5836, 16.0223], [79.5669, 16.0169], [79.5611, 16.007], [79.5697, 15.9478], [79.5795, 15.9404], [79.5952, 15.9431], [79.6175, 15.9387], [79.622, 15.9327], [79.6186, 15.9236], [79.641, 15.9113], [79.6637, 15.9212], [79.705, 15.8996], [79.7012, 15.8817], [79.7296, 15.8611], [79.7238, 15.8424], [79.7603, 15.8252], [79.7808, 15.8283], [79.7843, 15.8438], [79.7685, 15.8505], [79.7607, 15.8636], [79.7682, 15.8974], [79.7927, 15.9142], [79.8028, 15.9399], [79.842, 15.937], [79.8804, 15.9198], [79.8877, 15.9208], [79.8989, 15.9429], [79.9164, 15.948], [79.9251, 15.9656], [79.9226, 15.9708], [79.9108, 15.9734], [79.9148, 15.9821], [79.9046, 15.9945], [79.9091, 16.0014], [79.9056, 16.0075], [79.8702, 16.0163], [79.8922, 16.0585], [79.9146, 16.0645], [79.9219, 16.0709], [79.9218, 16.0791], [79.904, 16.0984], [79.871, 16.1245], [79.8682, 16.1537], [79.8757, 16.1627], [79.8864, 16.1666], [79.9299, 16.1531], [79.9457, 16.1581], [79.9697, 16.1429], [79.9859, 16.1375], [80.0002, 16.1396], [80.0142, 16.1158], [80.0228, 16.1135], [80.0509, 16.1263], [80.0547, 16.1167], [80.0436, 16.0904], [80.0554, 16.085], [80.071, 16.092], [80.0714, 16.0697], [80.0815, 16.0544], [80.0794, 16.0483], [80.0883, 16.0437], [80.0889, 16.0218], [80.1022, 16.0099], [80.1138, 16.0164], [80.1425, 16.0183], [80.1368, 16.0329], [80.1388, 16.0407], [80.1467, 16.045], [80.1824, 16.0378], [80.1873, 16.0353], [80.1876, 16.0259], [80.193, 16.0265], [80.1996, 16.0381], [80.232, 16.0327], [80.2462, 16.0521], [80.2647, 16.0473], [80.2688, 16.0524], [80.2823, 16.0483], [80.3064, 16.0545], [80.3236, 16.0445], [80.3217, 16.0315], [80.3401, 16.016], [80.3505, 16.0289], [80.3556, 16.0282], [80.4223, 16.0018], [80.4258, 15.9904], [80.4209, 15.989], [80.4036, 15.9992], [80.379, 15.9869], [80.3863, 15.9411], [80.399, 15.9053], [80.4065, 15.8941], [80.4455, 15.9136], [80.4514, 15.9035], [80.464, 15.9107], [80.4818, 15.8986], [80.4762, 15.8895], [80.4527, 15.8796], [80.4527, 15.8711], [80.4346, 15.8563], [80.4392, 15.8086]]]}}, {"type": "Feature", "properties": {"osm_type": "relation", "osm_id": 735393007, "name": "Vizianagaram", "admin_level": "6", "kind": "subdivision_2", "parent_osm_id": 2022095, "parent_name": "Andhra Pradesh", "parent_iso": "IN-AP"}, "geometry": {"type": "Polygon", "coordinates": [[[83.4884, 17.9247], [83.5399, 17.9587], [83.558, 17.9815], [83.5607, 17.9993], [83.574, 18.0144], [83.6745, 18.0834], [83.6447, 18.1113], [83.6337, 18.112], [83.6191, 18.1276], [83.6261, 18.1346], [83.6045, 18.1574], [83.6036, 18.1684], [83.611, 18.1741], [83.6128, 18.1925], [83.6008, 18.2004], [83.6083, 18.2092], [83.6268, 18.2105], [83.6527, 18.2032], [83.6519, 18.2118], [83.6655, 18.2276], [83.6631, 18.2651], [83.6804, 18.2768], [83.7047, 18.2844], [83.6495, 18.3155], [83.6083, 18.3261], [83.5895, 18.3418], [83.5883, 18.3515], [83.6047, 18.3694], [83.6012, 18.3908], [83.5941, 18.4032], [83.5682, 18.4088], [83.5712, 18.423], [83.5785, 18.4263], [83.5672, 18.447], [83.5709, 18.4536], [83.5933, 18.4627], [83.5924, 18.468], [83.5593, 18.4984], [83.5631, 18.506], [83.5939, 18.5121], [83.6094, 18.5205], [83.6094, 18.5613], [83.5612, 18.5681], [83.5346, 18.5476], [83.5195, 18.56], [83.521, 18.594], [83.5414, 18.6208], [83.5452, 18.6713], [83.5258, 18.7004], [83.53, 18.7118], [83.5432, 18.7257], [83.5719, 18.7407], [83.585, 18.7555], [83.6403, 18.7762], [83.6721, 18.8053], [83.6849, 18.8047], [83.7481, 18.7755], [83.7584, 18.8094], [83.7703, 18.8251], [83.809, 18.8273], [83.8237, 18.8336], [83.8195, 18.8626], [83.7976, 18.8813], [83.7638, 18.9258], [83.7534, 18.9273], [83.7339, 18.9845], [83.7133, 18.9942], [83.7126, 19.0083], [83.7274, 19.0132], [83.7308, 19.0208], [83.7046, 19.0253], [83.692, 19.0527], [83.6644, 19.0836], [83.665, 19.0964], [83.6523, 19.1219], [83.6573, 19.1234], [83.657, 19.1304], [83.6374, 19.1355], [83.6377, 19.1533], [83.6308, 19.1621], [83.6303, 19.1532], [83.6217, 19.1423], [83.6019, 19.1288], [83.612, 19.0968], [83.5922, 19.0884], [83.5864, 19.0584], [83.5653, 19.06], [83.5683, 19.0748], [83.5626, 19.0867], [83.5541, 19.0824], [83.5525, 19.0706], [83.5599, 19.0558], [83.5425, 19.0373], [83.5391, 19.0141], [83.523, 19.0136], [83.5031, 19.0197], [83.5012, 19.0354], [83.5159, 19.0306], [83.5213, 19.0334], [83.5131, 19.0733], [83.5013, 19.0616], [83.4809, 19.0862], [83.478, 19.0788], [83.4671, 19.0781], [83.4644, 19.0646], [83.471, 19.0611], [83.4731, 19.0447], [83.4857, 19.0298], [83.4823, 19.0089], [83.4562, 19.0082], [83.4579, 18.9911], [83.468, 18.9894], [83.47, 18.9679], [83.4632, 18.9543], [83.4504, 18.9565], [83.4407, 18.9701], [83.4165, 18.9885], [83.4166, 19.0048], [83.4124, 19.0018], [83.3965, 19.0086], [83.3752, 19.0022], [83.3701, 19.0033], [83.3627, 19.0179], [83.3484, 19.0175], [83.3427, 19.0152], [83.337, 18.9967], [83.3131, 18.9981], [83.3211, 18.9752], [83.3347, 18.9659], [83.3338, 18.9587], [83.3402, 18.952], [83.3389, 18.9462], [83.3263, 18.9422], [83.3368, 18.9256], [83.3491, 18.9271], [83.3473, 18.9405], [83.3535, 18.9657], [83.3688, 18.962], [83.3717, 18.9466], [83.388, 18.932], [83.3788, 18.9258], [83.3705, 18.9387], [83.3568, 18.9425], [83.3544, 18.9355], [83.3683, 18.9099], [83.3917, 18.9084], [83.3803, 18.8986], [83.3932, 18.8821], [83.4191, 18.8682], [83.4166, 18.8633], [83.4057, 18.8615], [83.4041, 18.8396], [83.3807, 18.8301], [83.3667, 18.8409], [83.358, 18.8305], [83.3678, 18.8163], [83.3641, 18.809], [83.3471, 18.812], [83.3412, 18.8016], [83.3309, 18.8072], [83.3121, 18.8077], [83.2874, 18.7985], [83.2778, 18.7842], [83.2796, 18.7721], [83.274, 18.7659], [83.2475, 18.7677], [83.2273, 18.7747], [83.2253, 18.7678], [83.2303, 18.7539], [83.2205, 18.7434], [83.213, 18.7248], [83.2057, 18.7335], [83.192, 18.7344], [83.2098, 18.7471], [83.2038, 18.7566], [83.1895, 18.7589], [83.1898, 18.7692], [83.1805, 18.7741], [83.1588, 18.7675], [83.1409, 18.7812], [83.1202, 18.767], [83.1245, 18.7567], [83.0787, 18.706], [83.0788, 18.6981], [83.0595, 18.6721], [83.059, 18.6631], [83.0178, 18.6454], [83.0293, 18.6194], [83.0161, 18.5974], [83.0317, 18.5952], [83.0492, 18.6057], [83.0602, 18.6021], [83.062, 18.5955], [83.035, 18.577], [83.0336, 18.5734], [83.0418, 18.5674], [83.0406, 18.557], [83.0593, 18.5441], [83.0796, 18.5516], [83.0974, 18.5471], [83.0599, 18.4868], [83.0236, 18.4537], [83.033, 18.446], [83.0455, 18.4442], [83.0464, 18.4361], [83.0415, 18.4327], [83.0456, 18.4283], [83.068, 18.438], [83.0703, 18.4303], [83.064, 18.4138], [83.074, 18.4026], [83.0896, 18.415], [83.1014, 18.4157], [83.0724, 18.3748], [83.0777, 18.3512], [83.0737, 18.3356], [83.0793, 18.3187], [83.0908, 18.328], [83.1022, 18.3597], [83.1176, 18.3568], [83.1239, 18.3492], [83.1314, 18.3536], [83.155, 18.3421], [83.167, 18.3119], [83.1728, 18.3102], [83.2129, 18.3341], [83.227, 18.335], [83.2196, 18.3045], [83.2356, 18.2896], [83.2684, 18.2758], [83.274, 18.2258], [83.2678, 18.2171], [83.2594, 18.2271], [83.2494, 18.2255], [83.2467, 18.2022], [83.2434, 18.1999], [83.2318, 18.2107], [83.2224, 18.2114], [83.2184, 18.1911], [83.2076, 18.1922], [83.1951, 18.2027], [83.183, 18.2299], [83.1587, 18.2532], [83.1378, 18.2612], [83.1403, 18.2426], [83.1309, 18.2306], [83.1365, 18.2317], [83.1379, 18.2266], [83.1264, 18.2254], [83.1218, 18.2188], [83.1081, 18.2235], [83.101, 18.2179], [83.1134, 18.1842], [83.1074, 18.157], [83.1112, 18.1547], [83.1413, 18.1678], [83.1549, 18.1639], [83.1524, 18.155], [83.1014, 18.1339], [83.1001, 18.1133], [83.0921, 18.1072], [83.0909, 18.0951], [83.0803, 18.0895], [83.0578, 18.0877], [83.0425, 18.07], [83.0348, 18.0538], [83.0101, 18.0256], [83.0, 18.0008], [83.0019, 17.9819], [83.0093, 17.9692], [83.0285, 17.9657], [83.0719, 17.9416], [83.1051, 17.9324], [83.1236, 17.9021], [83.1241, 17.8708], [83.1387, 17.8704], [83.1443, 17.8446], [83.1559, 17.8308], [83.166, 17.8446], [83.2002, 17.8454], [83.2076, 17.8715], [83.2308, 17.8697], [83.2352, 17.8959], [83.2552, 17.9125], [83.234, 17.9276], [83.2297, 17.9401], [83.2334, 17.9462], [83.3104, 17.9841], [83.3227, 18.0019], [83.3145, 18.0224], [83.3369, 18.0449], [83.3502, 18.0483], [83.3591, 18.057], [83.4052, 18.0486], [83.4073, 18.0199], [83.4176, 18.0071], [83.4167, 17.9878], [83.3992, 17.9693], [83.3985, 17.9556], [83.3803, 17.9321], [83.3788, 17.9226], [83.3842, 17.9137], [83.405, 17.9048], [83.4059, 17.9229], [83.4189, 17.9297], [83.4286, 17.9419], [83.4534, 17.9324], [83.4745, 17.9368], [83.4884, 17.9247]]]}}, {"type": "Feature", "properties": {"osm_type": "relation", "osm_id": 442497983, "name": "Anantapur", "admin_level": "6", "kind": "subdivision_2", "parent_osm_id": 2022095, "parent_name": "Andhra Pradesh", "parent_iso": "IN-AP"}, "geometry": {"type": "Polygon", "coordinates": [[[78.4717, 13.9938], [78.4771, 14.0107], [78.452, 14.0179], [78.4436, 14.0239], [78.4431, 14.0299], [78.453, 14.0686], [78.4484, 14.0907], [78.4553, 14.0904], [78.4626, 14.0974], [78.4656, 14.114], [78.4535, 14.1371], [78.4334, 14.1485], [78.4289, 14.1561], [78.4268, 14.176], [78.4343, 14.1994], [78.4268, 14.2068], [78.4236, 14.2022], [78.4106, 14.2087], [78.4263, 14.2804], [78.3579, 14.2888], [78.3535, 14.3091], [78.3322, 14.3128], [78.3021, 14.308], [78.2269, 14.3387], [78.2247, 14.3356], [78.2179, 14.3437], [78.1519, 14.3748], [77.9971, 14.5021], [77.9776, 14.5258], [77.9802, 14.5365], [77.9479, 14.5677], [77.9673, 14.5845], [77.9854, 14.5611], [77.9881, 14.5415], [78.0477, 14.5396], [78.0543, 14.5487], [78.0558, 14.5648], [78.0791, 14.5799], [78.0981, 14.6264], [78.112, 14.6306], [78.1283, 14.6258], [78.1346, 14.6294], [78.1298, 14.6353], [78.1381, 14.6469], [78.1377, 14.6633], [78.1447, 14.6853], [78.1408, 14.695], [78.1315, 14.6987], [78.1178, 14.6954], [78.1075, 14.7037], [78.1042, 14.7174], [78.0976, 14.7215], [78.0748, 14.7218], [78.085, 14.7422], [78.086, 14.7565], [78.077, 14.7592], [78.0568, 14.7778], [78.0873, 14.8274], [78.1058, 14.8206], [78.1119, 14.8269], [78.1174, 14.8569], [78.1001, 14.8614], [78.1003, 14.8738], [78.1194, 14.9282], [78.1444, 14.9411], [78.1451, 14.9491], [78.142, 14.9572], [78.1261, 14.9672], [78.1041, 14.9703], [78.0914, 14.9822], [78.0361, 15.0085], [78.0201, 15.0262], [78.0144, 15.0586], [78.0007, 15.0455], [77.9966, 15.0474], [77.9953, 15.0761], [78.0035, 15.0732], [78.0156, 15.0776], [78.0262, 15.1036], [78.0259, 15.1152], [77.9987, 15.1363], [77.9774, 15.1384], [77.97, 15.1247], [77.9511, 15.1584], [77.9415, 15.1606], [77.924, 15.1551], [77.9217, 15.1711], [77.8954, 15.1775], [77.8889, 15.1761], [77.8768, 15.1349], [77.8496, 15.13], [77.843, 15.1313], [77.8412, 15.1434], [77.8193, 15.1412], [77.8146, 15.1264], [77.8, 15.1154], [77.7942, 15.1047], [77.7739, 15.1128], [77.7752, 15.1233], [77.7516, 15.1288], [77.7485, 15.1436], [77.7338, 15.1497], [77.7325, 15.1699], [77.7218, 15.1719], [77.7134, 15.1854], [77.7006, 15.1806], [77.6968, 15.1835], [77.6998, 15.2044], [77.6797, 15.2201], [77.6769, 15.2305], [77.6526, 15.2303], [77.6516, 15.2254], [77.6413, 15.222], [77.6365, 15.207], [77.6174, 15.2048], [77.6131, 15.1825], [77.5882, 15.1851], [77.5733, 15.1994], [77.544, 15.2099], [77.5273, 15.2238], [77.5056, 15.2213], [77.4848, 15.209], [77.4533, 15.2209], [77.4509, 15.2062], [77.4364, 15.2097], [77.4331, 15.2206], [77.4263, 15.2233], [77.3871, 15.2172], [77.3665, 15.2222], [77.3526, 15.1768], [77.3215, 15.1763], [77.3112, 15.1541], [77.3028, 15.1535], [77.2945, 15.1313], [77.2725, 15.1306], [77.266, 15.1423], [77.2294, 15.1456], [77.1981, 15.1594], [77.1885, 15.1559], [77.1827, 15.1433], [77.1619, 15.1462], [77.1532, 15.1137], [77.1331, 15.1], [77.131, 15.0746], [77.1216, 15.0465], [77.1151, 15.035], [77.0962, 15.0342], [77.0875, 15.0287], [77.0842, 15.0065], [77.0463, 15.0119], [77.0498, 15.0291], [77.0541, 15.0302], [77.0508, 15.0353], [77.0059, 15.0359], [76.9887, 15.0267], [76.9869, 15.0167], [76.9719, 15.0194], [76.9478, 15.0332], [76.9011, 15.038], [76.8815, 15.0348], [76.8653, 15.0628], [76.8015, 15.0967], [76.7867, 15.0847], [76.7884, 15.0816], [76.7787, 15.0773], [76.7756, 15.06], [76.7891, 15.0227], [76.7843, 15.0119], [76.7741, 15.0066], [76.7697, 14.9951], [76.7615, 14.989], [76.7683, 14.9759], [76.8016, 14.969], [76.8202, 14.9699], [76.8327, 14.9572], [76.846, 14.9673], [76.8693, 14.9702], [76.8704, 14.9438], [76.8652, 14.8974], [76.851, 14.8966], [76.8487, 14.8926], [76.8591, 14.8676], [76.8544, 14.845], [76.845, 14.8363], [76.8546, 14.8181], [76.8538, 14.8104], [76.8422, 14.8105], [76.8388, 14.7912], [76.8257, 14.7929], [76.8159, 14.7877], [76.7852, 14.7855], [76.803, 14.7409], [76.7762, 14.6802], [76.7659, 14.6027], [76.7777, 14.5937], [76.7813, 14.5968], [76.7913, 14.5596], [76.8049, 14.5343], [76.825, 14.5269], [76.8328, 14.5297], [76.8596, 14.5056], [76.8757, 14.4752], [76.9121, 14.4909], [76.9792, 14.4852], [76.9799, 14.4772], [76.9701, 14.4586], [76.9643, 14.4523], [76.9495, 14.452], [76.9473, 14.4065], [76.9188, 14.4204], [76.9023, 14.4014], [76.8887, 14.3971], [76.8847, 14.3533], [76.9047, 14.3262], [76.9488, 14.3124], [76.956, 14.3011], [76.9497, 14.2888], [76.9307, 14.2792], [76.9438, 14.2472], [76.9574, 14.2413], [76.9886, 14.2453], [77.0103, 14.2388], [77.0393, 14.2477], [77.0558, 14.2466], [77.0817, 14.2167], [77.1116, 14.2207], [77.122, 14.2642], [77.1133, 14.2691], [77.1183, 14.2949], [77.1322, 14.3089], [77.1383, 14.3379], [77.147, 14.3435], [77.1529, 14.3395], [77.1586, 14.3451], [77.203, 14.3217], [77.2296, 14.3225], [77.2387, 14.3186], [77.2518, 14.3221], [77.2646, 14.3332], [77.2879, 14.3387], [77.2865, 14.2837], [77.3663, 14.2771], [77.3625, 14.2379], [77.3889, 14.2181], [77.3911, 14.1997], [77.3985, 14.1988], [77.4222, 14.2112], [77.423, 14.2199], [77.416, 14.2319], [77.4082, 14.2683], [77.3915, 14.2734], [77.3821, 14.303], [77.3809, 14.3129], [77.3928, 14.3326], [77.402, 14.3369], [77.4331, 14.3286], [77.4347, 14.3127], [77.4496, 14.3176], [77.4509, 14.2855], [77.462, 14.2801], [77.4867, 14.2927], [77.4918, 14.2832], [77.5037, 14.2798], [77.5068, 14.2685], [77.4976, 14.2357], [77.518, 14.1802], [77.5081, 14.1591], [77.4708, 14.1723], [77.4309, 14.1731], [77.4171, 14.1777], [77.397, 14.1732], [77.3969, 14.1615], [77.3899, 14.1557], [77.384, 14.1376], [77.355, 14.1323], [77.3519, 14.104], [77.3662, 14.1167], [77.3971, 14.1266], [77.4038, 14.1186], [77.4029, 14.1115], [77.3871, 14.0984], [77.3798, 14.0799], [77.3688, 14.074], [77.3659, 14.067], [77.3575, 14.0614], [77.3453, 14.0618], [77.3336, 14.0309], [77.3909, 14.0155], [77.3807, 13.9898], [77.3832, 13.9773], [77.4282, 13.9851], [77.4383, 13.977], [77.4364, 13.9516], [77.4154, 13.9443], [77.4179, 13.9229], [77.4352, 13.9175], [77.4334, 13.9104], [77.4048, 13.8888], [77.3996, 13.8882], [77.398, 13.906], [77.3559, 13.9047], [77.3502, 13.9204], [77.3702, 13.9505], [77.3512, 13.959], [77.3612, 13.9904], [77.3377, 13.9984], [77.3208, 14.0328], [77.3108, 14.0347], [77.2857, 14.0148], [77.2798, 14.0159], [77.2786, 14.0358], [77.2629, 14.0289], [77.2497, 14.0142], [77.2259, 14.0157], [77.2016, 14.0107], [77.1783, 14.0163], [77.1686, 14.014], [77.1697, 14.0055], [77.1613, 13.9984], [77.1542, 13.9993], [77.1412, 14.0058], [77.1409, 14.0174], [77.1279, 14.0498], [77.0831, 14.0456], [77.0761, 14.047], [77.0756, 14.0547], [77.0302, 14.0607], [77.0267, 14.0689], [77.0304, 14.0908], [77.0147, 14.1055], [77.023, 14.1135], [77.0266, 14.1297], [77.0201, 14.1348], [77.0261, 14.18], [76.9646, 14.1827], [76.9477, 14.1965], [76.943, 14.1731], [76.929, 14.1706], [76.9232, 14.1648], [76.9027, 14.169], [76.8974, 14.1661], [76.8896, 14.1382], [76.9186, 14.1293], [76.9285, 14.1363], [76.9331, 14.1344], [76.9491, 14.1191], [76.9544, 14.1039], [76.9525, 14.0925], [76.9744, 14.0871], [76.9813, 14.0726], [76.9778, 14.0598], [76.9442, 14.0549], [76.9373, 14.0301], [76.947, 14.028], [76.9549, 14.0142], [76.9816, 14.004], [77.0008, 13.989], [76.9955, 13.9642], [77.0425, 13.9332], [77.048, 13.9051], [77.0239, 13.901], [77.0127, 13.8577], [77.0008, 13.8466], [76.9929, 13.8468], [76.9907, 13.8354], [76.975, 13.822], [76.9755, 13.8178], [76.9904, 13.8118], [76.9925, 13.8007], [76.9879, 13.7935], [76.9994, 13.7503], [77.0183, 13.7405], [77.0267, 13.7776], [77.0332, 13.7792], [77.0421, 13.777], [77.067, 13.7467], [77.0877, 13.7453], [77.0874, 13.7613], [77.1023, 13.7688], [77.1307, 13.7588], [77.1447, 13.7636], [77.1739, 13.7627], [77.1786, 13.78], [77.1657, 13.7951], [77.1613, 13.8085], [77.1694, 13.8287], [77.155, 13.8368], [77.1529, 13.8428], [77.1323, 13.8509], [77.1309, 13.8572], [77.1465, 13.8669], [77.1696, 13.8649], [77.172, 13.8741], [77.163, 13.9077], [77.1666, 13.9163], [77.1842, 13.9252], [77.1894, 13.9092], [77.1823, 13.8693], [77.186, 13.8678], [77.1999, 13.8642], [77.2041, 13.8675], [77.2122, 13.8891], [77.2161, 13.8864], [77.2154, 13.8684], [77.2188, 13.8694], [77.2327, 13.9034], [77.2411, 13.9029], [77.2474, 13.9021], [77.2489, 13.8969], [77.2481, 13.8739], [77.2604, 13.8642], [77.2579, 13.8476], [77.2904, 13.8491], [77.2972, 13.8582], [77.3145, 13.8654], [77.3276, 13.834], [77.3349, 13.833], [77.3672, 13.8539], [77.3809, 13.8465], [77.3806, 13.8396], [77.4324, 13.8435], [77.4342, 13.8381], [77.4166, 13.8077], [77.4272, 13.8081], [77.4248, 13.7994], [77.4366, 13.7965], [77.4485, 13.8108], [77.4655, 13.8055], [77.4588, 13.794], [77.4707, 13.7521], [77.465, 13.7212], [77.453, 13.7043], [77.4579, 13.6844], [77.4847, 13.6863], [77.4912, 13.6884], [77.4934, 13.6954], [77.488, 13.7118], [77.4956, 13.7154], [77.5111, 13.7131], [77.5207, 13.6944], [77.5299, 13.6966], [77.5359, 13.7277], [77.5234, 13.7457], [77.5279, 13.7525], [77.5478, 13.7524], [77.5565, 13.7292], [77.5645, 13.7252], [77.575, 13.7382], [77.5821, 13.7354], [77.6041, 13.7524], [77.6127, 13.7514], [77.6242, 13.7372], [77.6298, 13.7363], [77.6453, 13.7441], [77.6423, 13.7502], [77.6212, 13.7557], [77.6189, 13.7643], [77.6576, 13.7847], [77.6788, 13.7864], [77.6804, 13.779], [77.6723, 13.7612], [77.7042, 13.7704], [77.7109, 13.74], [77.7175, 13.7418], [77.7222, 13.7552], [77.7215, 13.7995], [77.7371, 13.8107], [77.7873, 13.822], [77.7848, 13.845], [77.8116, 13.8498], [77.8196, 13.8612], [77.8366, 13.8697], [77.828, 13.8751], [77.8361, 13.8807], [77.8338, 13.889], [77.8298, 13.8983], [77.8198, 13.9037], [77.8151, 13.9177], [77.8172, 13.9316], [77.827, 13.9439], [77.8389, 13.9362], [77.8959, 13.9403], [77.8986, 13.9205], [77.9206, 13.9065], [77.9288, 13.9079], [77.9478, 13.9338], [77.9598, 13.9372], [77.9643, 13.9512], [77.9754, 13.9598], [77.9876, 13.9569], [77.9824, 13.9292], [77.9871, 13.9027], [77.9515, 13.8895], [77.9572, 13.8387], [77.9538, 13.8293], [77.975, 13.8296], [77.9943, 13.8711], [78.014, 13.8712], [78.0249, 13.8638], [78.0471, 13.8624], [78.0522, 13.8733], [78.0504, 13.8962], [78.0803, 13.8815], [78.0843, 13.8645], [78.1155, 13.8632], [78.1268, 13.8315], [78.1172, 13.8133], [78.1278, 13.7867], [78.1451, 13.7829], [78.1898, 13.7884], [78.2303, 13.7812], [78.263, 13.7983], [78.2566, 13.8076], [78.2548, 13.8337], [78.2448, 13.8478], [78.2659, 13.8598], [78.2761, 13.8963], [78.2978, 13.8942], [78.3002, 13.904], [78.3139, 13.9162], [78.3333, 13.9205], [78.3394, 13.9371], [78.3494, 13.9365], [78.3726, 13.9556], [78.3769, 13.9435], [78.3881, 13.9417], [78.4175, 13.9638], [78.4284, 13.9787], [78.4717, 13.9938]]]}}, {"type": "Feature", "properties": {"osm_type": "relation", "osm_id": 452614899, "name": "West Godavari", "admin_level": "6", "kind": "subdivision_2", "parent_osm_id": 2022095, "parent_name": "Andhra Pradesh", "parent_iso": "IN-AP"}, "geometry": {"type": "Polygon", "coordinates": [[[81.5411, 16.3493], [81.6789, 16.3316], [81.6908, 16.3274], [81.7015, 16.3158], [81.7161, 16.3187], [81.7257, 16.3386], [81.7188, 16.3958], [81.7063, 16.4397], [81.7127, 16.4598], [81.7169, 16.4635], [81.7316, 16.4594], [81.7519, 16.4372], [81.7641, 16.4414], [81.8045, 16.4933], [81.8533, 16.5256], [81.8638, 16.5491], [81.8678, 16.5945], [81.8661, 16.6084], [81.8433, 16.6592], [81.7994, 16.7067], [81.7889, 16.7334], [81.7912, 16.7591], [81.7615, 16.7836], [81.7488, 16.8142], [81.7541, 16.867], [81.7375, 16.8982], [81.7505, 16.9033], [81.7753, 16.9039], [81.7681, 16.94], [81.7695, 16.9575], [81.7717, 16.9622], [81.7822, 16.963], [81.7751, 16.973], [81.7666, 17.0038], [81.7699, 17.0159], [81.7627, 17.0385], [81.7726, 17.0535], [81.7707, 17.0591], [81.7116, 17.1613], [81.6898, 17.175], [81.6778, 17.2123], [81.6807, 17.243], [81.6765, 17.2487], [81.65, 17.2595], [81.659, 17.3225], [81.6546, 17.3312], [81.6177, 17.3594], [81.6068, 17.4023], [81.6131, 17.4262], [81.6078, 17.4301], [81.5866, 17.4304], [81.567, 17.453], [81.5255, 17.4678], [81.5071, 17.4993], [81.5026, 17.4863], [81.5024, 17.4582], [81.4505, 17.3911], [81.4291, 17.3816], [81.4247, 17.371], [81.3942, 17.3645], [81.3808, 17.3665], [81.3589, 17.3778], [81.3463, 17.3992], [81.3315, 17.3984], [81.2982, 17.3468], [81.2762, 17.3293], [81.1993, 17.3365], [81.1906, 17.3314], [81.1796, 17.3056], [81.1802, 17.2759], [81.1896, 17.2639], [81.1719, 17.2419], [81.1124, 17.2332], [81.1102, 17.2283], [81.0713, 17.2133], [81.0556, 17.223], [81.0529, 17.2137], [81.0352, 17.1958], [81.0003, 17.1888], [80.965, 17.1973], [80.9397, 17.214], [80.9228, 17.2142], [80.9143, 17.2102], [80.9175, 17.187], [80.9239, 17.1789], [80.9223, 17.155], [80.9052, 17.1498], [80.8793, 17.1553], [80.8758, 17.1336], [80.8641, 17.1204], [80.8733, 17.1049], [80.8655, 17.0777], [80.8679, 17.06], [80.8808, 17.0677], [80.8996, 17.0636], [80.9381, 17.066], [80.9606, 17.0489], [80.9646, 17.0417], [80.9623, 17.0195], [80.9427, 16.9918], [80.9367, 16.9573], [80.9595, 16.9247], [80.9643, 16.9074], [80.9896, 16.8745], [81.0002, 16.8703], [81.0089, 16.841], [81.0364, 16.817], [81.0392, 16.7985], [81.0141, 16.7646], [81.0128, 16.7437], [81.0003, 16.7227], [80.9835, 16.7176], [80.9927, 16.6819], [80.9829, 16.6774], [81.0109, 16.6449], [80.9934, 16.6432], [80.9706, 16.6698], [80.9571, 16.6719], [80.9554, 16.6652], [80.9685, 16.6475], [80.9732, 16.6323], [81.0045, 16.5985], [81.011, 16.5621], [81.0212, 16.5601], [81.0447, 16.5743], [81.0871, 16.5878], [81.0915, 16.5919], [81.0817, 16.6024], [81.0927, 16.6128], [81.1121, 16.5986], [81.1349, 16.607], [81.1505, 16.5983], [81.1638, 16.6216], [81.1808, 16.6241], [81.1794, 16.6413], [81.1628, 16.6534], [81.1585, 16.6624], [81.1756, 16.6745], [81.1813, 16.6707], [81.1952, 16.6761], [81.2021, 16.6673], [81.196, 16.682], [81.1985, 16.6887], [81.2177, 16.7011], [81.2439, 16.699], [81.2487, 16.6905], [81.2478, 16.6839], [81.2397, 16.6822], [81.2411, 16.6723], [81.2488, 16.6776], [81.2464, 16.6682], [81.2383, 16.6653], [81.2339, 16.6537], [81.2251, 16.6484], [81.207, 16.6492], [81.1983, 16.6291], [81.2026, 16.6175], [81.2114, 16.6119], [81.2203, 16.5934], [81.2329, 16.5809], [81.2233, 16.6124], [81.2421, 16.6056], [81.2444, 16.6113], [81.2353, 16.6207], [81.2346, 16.6293], [81.2433, 16.6264], [81.2447, 16.6181], [81.2514, 16.6163], [81.2758, 16.6334], [81.2856, 16.6678], [81.3052, 16.6899], [81.3158, 16.6922], [81.3317, 16.6843], [81.334, 16.6789], [81.3251, 16.6248], [81.334, 16.6142], [81.3528, 16.6062], [81.3454, 16.5718], [81.3551, 16.5677], [81.3397, 16.5257], [81.3315, 16.5243], [81.331, 16.5204], [81.3401, 16.5145], [81.3616, 16.5187], [81.3716, 16.51], [81.3689, 16.4887], [81.3758, 16.4799], [81.3722, 16.4743], [81.3792, 16.4628], [81.3869, 16.4544], [81.3972, 16.4519], [81.4082, 16.4333], [81.4213, 16.432], [81.4378, 16.4142], [81.455, 16.4184], [81.4783, 16.4074], [81.4921, 16.3865], [81.5014, 16.3848], [81.5291, 16.3942], [81.5473, 16.3892], [81.5546, 16.3754], [81.5546, 16.361], [81.5411, 16.3493]]]}}, {"type": "Feature", "properties": {"osm_type": "relation", "osm_id": 602527018, "name": "Kadapa(YSR)", "admin_level": "6", "kind": "subdivision_2", "parent_osm_id": 2022095, "parent_name": "Andhra Pradesh", "parent_iso": "IN-AP"}, "geometry": {"type": "Polygon", "coordinates": [[[78.7701, 15.1867], [78.7604, 15.1061], [78.761, 15.0883], [78.77, 15.0658], [78.7606, 15.0527], [78.7633, 15.0392], [78.7411, 15.0266], [78.7203, 15.0222], [78.7192, 14.9664], [78.6922, 14.9642], [78.6858, 14.9377], [78.6718, 14.9296], [78.6367, 14.9245], [78.6306, 14.943], [78.6095, 14.95], [78.5914, 14.9377], [78.5562, 14.9269], [78.5521, 14.9342], [78.5534, 14.9577], [78.548, 14.9612], [78.5354, 14.9568], [78.502, 14.9191], [78.4924, 14.9018], [78.4831, 14.9013], [78.4962, 14.9392], [78.5156, 14.9693], [78.5266, 15.0014], [78.5292, 15.0333], [78.5228, 15.0668], [78.4994, 15.0689], [78.49, 15.0591], [78.4957, 15.0382], [78.4307, 15.0349], [78.4137, 14.9648], [78.4076, 14.9624], [78.3553, 14.9902], [78.3499, 15.0013], [78.3602, 15.0288], [78.3776, 15.0291], [78.3815, 15.0367], [78.3935, 15.0431], [78.3957, 15.0551], [78.2969, 15.0738], [78.2895, 15.0688], [78.2837, 15.0552], [78.2896, 15.0487], [78.2878, 15.0336], [78.2676, 15.0246], [78.2488, 15.0013], [78.2378, 14.9555], [78.2273, 14.9493], [78.1894, 14.9601], [78.1662, 14.9581], [78.1194, 14.9282], [78.1003, 14.8738], [78.1001, 14.8614], [78.1174, 14.8569], [78.1119, 14.8269], [78.1058, 14.8206], [78.0873, 14.8274], [78.0568, 14.7778], [78.077, 14.7592], [78.086, 14.7565], [78.085, 14.7422], [78.0748, 14.7218], [78.0976, 14.7215], [78.1042, 14.7174], [78.1075, 14.7037], [78.1178, 14.6954], [78.1315, 14.6987], [78.1408, 14.695], [78.1447, 14.6853], [78.1377, 14.6633], [78.1381, 14.6469], [78.1298, 14.6353], [78.1346, 14.6294], [78.1283, 14.6258], [78.112, 14.6306], [78.0981, 14.6264], [78.0791, 14.5799], [78.0558, 14.5648], [78.0543, 14.5487], [78.0477, 14.5396], [77.9881, 14.5415], [77.9854, 14.5611], [77.9673, 14.5845], [77.9479, 14.5677], [77.9802, 14.5365], [77.9776, 14.5258], [77.9971, 14.5021], [78.1519, 14.3748], [78.2179, 14.3437], [78.2247, 14.3356], [78.2269, 14.3387], [78.3021, 14.308], [78.3322, 14.3128], [78.3535, 14.3091], [78.3579, 14.2888], [78.4263, 14.2804], [78.4106, 14.2087], [78.4236, 14.2022], [78.4268, 14.2068], [78.4343, 14.1994], [78.4268, 14.176], [78.4289, 14.1561], [78.4334, 14.1485], [78.4535, 14.1371], [78.4656, 14.114], [78.4626, 14.0974], [78.4553, 14.0904], [78.4484, 14.0907], [78.453, 14.0686], [78.4436, 14.0239], [78.4771, 14.0107], [78.4686, 13.9914], [78.4746, 13.9828], [78.4703, 13.9601], [78.4922, 13.9404], [78.4965, 13.9397], [78.509, 13.9606], [78.5465, 13.9912], [78.5841, 13.984], [78.5726, 13.9636], [78.5991, 13.9591], [78.5889, 13.9117], [78.6362, 13.9076], [78.638, 13.9038], [78.6574, 13.9071], [78.6564, 13.9001], [78.6449, 13.8888], [78.6455, 13.869], [78.6992, 13.8734], [78.7066, 13.8772], [78.7079, 13.8857], [78.7246, 13.8872], [78.7462, 13.8688], [78.7592, 13.8381], [78.7728, 13.8288], [78.7845, 13.8312], [78.789, 13.8507], [78.7835, 13.8654], [78.8001, 13.8798], [78.86, 13.8878], [78.8831, 13.898], [78.937, 13.8971], [78.9412, 13.8881], [78.9513, 13.8854], [78.9743, 13.8878], [78.9851, 13.8903], [78.9917, 13.9095], [79.0068, 13.9082], [79.0274, 13.8974], [79.0311, 13.888], [79.0877, 13.8758], [79.1015, 13.8492], [79.1227, 13.849], [79.151, 13.861], [79.2187, 13.8108], [79.2027, 13.8061], [79.1924, 13.794], [79.2171, 13.7731], [79.2275, 13.7576], [79.238, 13.7535], [79.2458, 13.76], [79.2955, 13.7584], [79.3117, 13.7244], [79.3894, 13.76], [79.4197, 13.7619], [79.4231, 13.7811], [79.4275, 13.7838], [79.4115, 13.8116], [79.4209, 13.8208], [79.4198, 13.8328], [79.4279, 13.846], [79.4139, 13.8633], [79.4095, 13.8978], [79.4021, 13.9172], [79.416, 13.9169], [79.4292, 13.9558], [79.4201, 13.9597], [79.3967, 13.9485], [79.3852, 13.9522], [79.4098, 13.9958], [79.4001, 14.0065], [79.3859, 14.0061], [79.3854, 14.034], [79.3792, 14.0477], [79.3858, 14.05], [79.4366, 14.0349], [79.4416, 14.0649], [79.4505, 14.0802], [79.4532, 14.1043], [79.4402, 14.1293], [79.4323, 14.1945], [79.425, 14.2175], [79.4295, 14.2498], [79.4192, 14.2667], [79.4145, 14.2973], [79.3882, 14.343], [79.3651, 14.3561], [79.3593, 14.3793], [79.3278, 14.4311], [79.3255, 14.4423], [79.3531, 14.4562], [79.347, 14.4653], [79.3271, 14.4787], [79.3205, 14.4925], [79.3061, 14.4786], [79.2959, 14.4807], [79.2744, 14.5292], [79.2494, 14.5604], [79.2367, 14.5889], [79.2237, 14.5973], [79.215, 14.5887], [79.1798, 14.6228], [79.1719, 14.6604], [79.1753, 14.6657], [79.1693, 14.6782], [79.1795, 14.6881], [79.1773, 14.7148], [79.168, 14.7309], [79.1607, 14.7608], [79.1435, 14.7888], [79.1414, 14.8205], [79.1336, 14.847], [79.1228, 14.8664], [79.1033, 14.8856], [79.1045, 14.8892], [79.094, 14.893], [79.0735, 14.9627], [79.0768, 15.0557], [79.0582, 15.1429], [79.0685, 15.1773], [79.0229, 15.1838], [79.0077, 15.1829], [78.9933, 15.169], [78.9711, 15.1733], [78.9628, 15.1808], [78.9553, 15.2039], [78.95, 15.2381], [78.9393, 15.2275], [78.9305, 15.2029], [78.9237, 15.1974], [78.8235, 15.2091], [78.7893, 15.2027], [78.7701, 15.1867]]]}}, {"type": "Feature", "properties": {"osm_type": "relation", "osm_id": 487890780, "name": "Yanam", "admin_level": "6", "kind": "subdivision_2", "parent_osm_id": 2022095, "parent_name": "Andhra Pradesh", "parent_iso": "IN-AP"}, "geometry": {"type": "Polygon", "coordinates": [[[82.319, 16.5874], [82.3175, 16.6048], [82.3144, 16.6076], [82.3103, 16.5991], [82.3054, 16.5985], [82.2865, 16.6358], [82.2866, 16.644], [82.2985, 16.6501], [82.2671, 16.7159], [82.3094, 16.7013], [82.309, 16.7426], [82.294, 16.745], [82.2723, 16.7323], [82.2657, 16.7359], [82.2821, 16.7483], [82.2788, 16.7527], [82.2403, 16.7422], [82.2182, 16.7259], [82.2339, 16.7248], [82.2652, 16.6691], [82.2751, 16.6437], [82.267, 16.6412], [82.2812, 16.6318], [82.2989, 16.5921], [82.319, 16.5874]]]}}]}