{"type": "FeatureCollection", "parent": {"osm_id": 211147520, "name": "Oppland", "admin_level": "4", "kind": "subdivision_1", "child_kind": "subdivision_2", "iso": "NO-05"}, "features": [{"type": "Feature", "properties": {"osm_type": "relation", "osm_id": 107014433, "name": "Gjøvik nor", "admin_level": "6", "kind": "subdivision_2", "parent_osm_id": 211147520, "parent_name": "Oppland", "parent_iso": "NO-05"}, "geometry": {"type": "Polygon", "coordinates": [[[10.4661, 61.0314], [10.4438, 61.0237], [10.4128, 61.027], [10.3908, 61.0186], [10.2988, 61.0368], [10.233, 61.023], [10.2149, 61.0105], [10.2106, 60.9908], [10.1677, 60.9424], [10.1739, 60.9339], [10.223, 60.9063], [10.2183, 60.9029], [10.225, 60.8964], [10.2226, 60.885], [10.2538, 60.8717], [10.2727, 60.8788], [10.3326, 60.8558], [10.3533, 60.8559], [10.3626, 60.8483], [10.384, 60.8457], [10.3789, 60.8391], [10.3819, 60.8304], [10.3621, 60.8143], [10.3616, 60.8065], [10.3702, 60.7979], [10.3665, 60.7952], [10.3707, 60.7886], [10.368, 60.7831], [10.3954, 60.7687], [10.4042, 60.769], [10.4078, 60.7652], [10.4049, 60.7639], [10.5126, 60.7075], [10.5193, 60.7223], [10.5455, 60.7242], [10.5581, 60.7333], [10.5538, 60.7382], [10.5738, 60.7447], [10.5921, 60.7373], [10.6031, 60.7425], [10.6143, 60.7394], [10.6138, 60.7462], [10.6319, 60.7544], [10.7213, 60.752], [10.7195, 60.76], [10.7448, 60.7749], [10.7044, 60.81], [10.6947, 60.824], [10.6969, 60.8332], [10.7196, 60.8575], [10.7228, 60.87], [10.7059, 60.8889], [10.6815, 60.9031], [10.6751, 60.9217], [10.651, 60.9558], [10.6333, 60.9694], [10.6012, 60.9838], [10.5065, 61.0084], [10.4661, 61.0314]]]}}, {"type": "Feature", "properties": {"osm_type": "relation", "osm_id": 483974371, "name": "Gausdal nor", "admin_level": "6", "kind": "subdivision_2", "parent_osm_id": 211147520, "parent_name": "Oppland", "parent_iso": "NO-05"}, "geometry": {"type": "Polygon", "coordinates": [[[9.9387, 61.3899], [9.8524, 61.4164], [9.8084, 61.4176], [9.7058, 61.3989], [9.5547, 61.421], [9.5503, 61.4143], [9.5367, 61.4125], [9.5247, 61.3959], [9.4796, 61.3601], [9.347, 61.2978], [9.3009, 61.2925], [9.4942, 61.2338], [9.632, 61.157], [9.7106, 61.1604], [9.7931, 61.144], [9.8273, 61.1479], [9.8256, 61.154], [9.8292, 61.1558], [9.8119, 61.1638], [9.8143, 61.1658], [9.958, 61.1471], [9.9722, 61.1406], [9.9679, 61.1226], [9.9996, 61.1102], [10.072, 61.1246], [10.1206, 61.1229], [10.1308, 61.1143], [10.1531, 61.1074], [10.1847, 61.111], [10.2151, 61.1263], [10.2191, 61.1347], [10.2272, 61.1347], [10.2303, 61.1427], [10.2148, 61.1562], [10.1999, 61.1605], [10.2093, 61.176], [10.1986, 61.1796], [10.2027, 61.1899], [10.2222, 61.1896], [10.2574, 61.1998], [10.2669, 61.1991], [10.2687, 61.195], [10.2913, 61.1975], [10.3129, 61.2116], [10.3202, 61.2069], [10.329, 61.208], [10.3401, 61.2142], [10.3677, 61.248], [10.3634, 61.2525], [10.3243, 61.2559], [10.3204, 61.2617], [10.3127, 61.2625], [10.3157, 61.2643], [10.2739, 61.2644], [10.2353, 61.2819], [10.2038, 61.3064], [10.2153, 61.3066], [10.1964, 61.3196], [10.1978, 61.3257], [10.207, 61.3303], [10.2047, 61.3418], [10.1797, 61.3572], [10.179, 61.3718], [10.0565, 61.4004], [9.9766, 61.3787], [9.9493, 61.3834], [9.9387, 61.3899]]]}}, {"type": "Feature", "properties": {"osm_type": "relation", "osm_id": 865585634, "name": "Ringebu nor", "admin_level": "6", "kind": "subdivision_2", "parent_osm_id": 211147520, "parent_name": "Oppland", "parent_iso": "NO-05"}, "geometry": {"type": "Polygon", "coordinates": [[[10.1794, 61.3629], [10.2146, 61.3637], [10.2459, 61.3823], [10.2708, 61.3748], [10.2949, 61.3784], [10.3096, 61.3875], [10.349, 61.3937], [10.4384, 61.3985], [10.4952, 61.4114], [10.5298, 61.4106], [10.6805, 61.4716], [10.705, 61.5014], [10.6714, 61.5585], [10.6546, 61.5999], [10.6605, 61.6042], [10.6528, 61.6112], [10.6396, 61.7079], [10.5777, 61.744], [10.5081, 61.722], [10.4901, 61.7205], [10.4806, 61.7092], [10.4539, 61.7032], [10.4047, 61.6681], [10.291, 61.7134], [10.1932, 61.7199], [10.0526, 61.7518], [10.0273, 61.7227], [9.9883, 61.7203], [9.9755, 61.7144], [9.9609, 61.6997], [9.9754, 61.687], [9.9564, 61.6718], [9.9641, 61.6568], [9.9743, 61.6507], [9.9729, 61.6253], [9.9902, 61.6108], [10.0292, 61.5965], [10.0461, 61.5839], [10.0503, 61.5796], [10.0482, 61.5696], [10.0556, 61.5646], [10.0554, 61.5582], [10.0629, 61.5555], [10.0481, 61.5432], [10.0471, 61.5386], [10.0558, 61.5377], [10.0528, 61.5206], [10.0407, 61.5046], [10.0308, 61.5045], [9.9854, 61.4052], [9.9583, 61.401], [9.9387, 61.3899], [9.9493, 61.3834], [9.9766, 61.3787], [10.0565, 61.4004], [10.179, 61.3718], [10.1794, 61.3629]]]}}, {"type": "Feature", "properties": {"osm_type": "relation", "osm_id": 384394620, "name": "Skjåk nor", "admin_level": "6", "kind": "subdivision_2", "parent_osm_id": 211147520, "parent_name": "Oppland", "parent_iso": "NO-05"}, "geometry": {"type": "Polygon", "coordinates": [[[7.4147, 62.0921], [7.4082, 62.088], [7.4195, 62.0807], [7.3996, 62.0674], [7.402, 62.0601], [7.3425, 62.0354], [7.3527, 62.0293], [7.3491, 62.0077], [7.3809, 62.003], [7.3934, 61.9925], [7.399, 61.9779], [7.3888, 61.9331], [7.4142, 61.8915], [7.4125, 61.8575], [7.5148, 61.7603], [7.5138, 61.7274], [7.6291, 61.7414], [7.6846, 61.7427], [7.7525, 61.7548], [7.8418, 61.7431], [7.9082, 61.7217], [7.9044, 61.6791], [8.011, 61.7321], [8.1274, 61.7421], [8.1921, 61.7782], [8.2303, 61.7847], [8.2685, 61.8086], [8.301, 61.8168], [8.3676, 61.8193], [8.4681, 61.8522], [8.486, 61.8662], [8.503, 61.8703], [8.5253, 61.8953], [8.4357, 61.9369], [8.5914, 62.0079], [8.4707, 62.0137], [8.391, 62.0009], [8.2179, 62.0025], [8.1336, 62.0262], [8.0815, 62.0483], [7.9836, 62.1775], [7.864, 62.1708], [7.8273, 62.1897], [7.7346, 62.1846], [7.6553, 62.1409], [7.5794, 62.1219], [7.6318, 62.0851], [7.5921, 62.0745], [7.5838, 62.0653], [7.5541, 62.0695], [7.5143, 62.0974], [7.4859, 62.0895], [7.4147, 62.0921]]]}}, {"type": "Feature", "properties": {"osm_type": "relation", "osm_id": 538023271, "name": "Øyer nor", "admin_level": "6", "kind": "subdivision_2", "parent_osm_id": 211147520, "parent_name": "Oppland", "parent_iso": "NO-05"}, "geometry": {"type": "Polygon", "coordinates": [[[10.3677, 61.248], [10.4066, 61.233], [10.4361, 61.2351], [10.4451, 61.2272], [10.4407, 61.2161], [10.4077, 61.1939], [10.4188, 61.183], [10.7437, 61.2364], [10.8491, 61.266], [10.7534, 61.4047], [10.6805, 61.4716], [10.5298, 61.4106], [10.4952, 61.4114], [10.4384, 61.3985], [10.349, 61.3937], [10.3096, 61.3875], [10.2949, 61.3784], [10.2708, 61.3748], [10.2459, 61.3823], [10.2146, 61.3637], [10.1794, 61.3629], [10.1797, 61.3572], [10.2047, 61.3418], [10.207, 61.3303], [10.1978, 61.3257], [10.1964, 61.3196], [10.2153, 61.3066], [10.2038, 61.3064], [10.2353, 61.2819], [10.2739, 61.2644], [10.3157, 61.2643], [10.3127, 61.2625], [10.3204, 61.2617], [10.3243, 61.2559], [10.3634, 61.2525], [10.3677, 61.248]]]}}, {"type": "Feature", "properties": {"osm_type": "relation", "osm_id": 665845125, "name": "Lunner nor", "admin_level": "6", "kind": "subdivision_2", "parent_osm_id": 211147520, "parent_name": "Oppland", "parent_iso": "NO-05"}, "geometry": {"type": "Polygon", "coordinates": [[[10.8647, 60.3139], [10.7631, 60.3141], [10.7198, 60.3295], [10.7235, 60.3347], [10.7154, 60.3391], [10.7047, 60.3298], [10.6451, 60.3231], [10.6332, 60.3257], [10.6291, 60.3209], [10.6175, 60.3215], [10.6051, 60.3121], [10.6011, 60.3223], [10.5851, 60.3181], [10.58, 60.3243], [10.5593, 60.3207], [10.558, 60.3258], [10.5474, 60.3276], [10.5263, 60.3253], [10.5288, 60.3226], [10.525, 60.3218], [10.5101, 60.3257], [10.4705, 60.3224], [10.4575, 60.3168], [10.4692, 60.3107], [10.4689, 60.3053], [10.4564, 60.2998], [10.4701, 60.296], [10.4699, 60.2888], [10.4759, 60.2864], [10.4881, 60.2856], [10.482, 60.2902], [10.4848, 60.2932], [10.5104, 60.2909], [10.511, 60.2849], [10.522, 60.2858], [10.5355, 60.2788], [10.5416, 60.2606], [10.526, 60.259], [10.5297, 60.2458], [10.5397, 60.2412], [10.5449, 60.2142], [10.5739, 60.1985], [10.5709, 60.1856], [10.5764, 60.1797], [10.5607, 60.1656], [10.5722, 60.1527], [10.5969, 60.1452], [10.5933, 60.1418], [10.6007, 60.1316], [10.6189, 60.1351], [10.6803, 60.1335], [10.6769, 60.1476], [10.7214, 60.1526], [10.7226, 60.1576], [10.7369, 60.1511], [10.7702, 60.1511], [10.7675, 60.1611], [10.7787, 60.1756], [10.772, 60.2142], [10.8127, 60.2636], [10.8647, 60.3139]]]}}, {"type": "Feature", "properties": {"osm_type": "relation", "osm_id": 963118521, "name": "Vågå nor", "admin_level": "6", "kind": "subdivision_2", "parent_osm_id": 211147520, "parent_name": "Oppland", "parent_iso": "NO-05"}, "geometry": {"type": "Polygon", "coordinates": [[[9.015, 62.0176], [8.9749, 62.0186], [8.965, 62.0128], [8.9222, 62.0099], [8.9172, 62.0029], [8.8718, 62.0089], [8.8713, 61.9683], [8.896, 61.9601], [8.8911, 61.9541], [8.8942, 61.9449], [8.8892, 61.9339], [8.8609, 61.8902], [8.8643, 61.8693], [8.8752, 61.8546], [8.8693, 61.8252], [8.941, 61.8146], [8.9418, 61.8065], [8.9636, 61.7999], [8.9553, 61.7805], [8.9608, 61.7734], [8.9798, 61.7685], [8.9927, 61.7463], [8.992, 61.7379], [8.9695, 61.746], [8.9639, 61.7403], [8.9296, 61.735], [8.873, 61.7128], [8.8588, 61.6886], [8.8601, 61.6774], [8.869, 61.6747], [8.8613, 61.6532], [8.8384, 61.6415], [8.8128, 61.6368], [8.7595, 61.6032], [8.6972, 61.6058], [8.6905, 61.6], [8.6577, 61.593], [8.5335, 61.5842], [8.5329, 61.572], [8.5566, 61.5438], [8.6348, 61.491], [8.4889, 61.4514], [8.5124, 61.4176], [8.5116, 61.4028], [8.5798, 61.3891], [8.7215, 61.3987], [8.7592, 61.4319], [8.7837, 61.4422], [8.7806, 61.4508], [9.0162, 61.4066], [9.07, 61.3867], [9.115, 61.4114], [9.1447, 61.4401], [9.1439, 61.4688], [9.137, 61.4714], [9.1024, 61.4722], [9.063, 61.4604], [9.0258, 61.4583], [8.9839, 61.4623], [8.9514, 61.4725], [8.921, 61.4663], [8.9022, 61.4544], [8.8996, 61.4863], [8.9451, 61.5153], [8.9736, 61.514], [9.0006, 61.5213], [9.0279, 61.5228], [9.0782, 61.506], [9.0996, 61.5073], [9.1715, 61.5438], [9.2203, 61.5573], [9.115, 61.5919], [9.1199, 61.6409], [9.1258, 61.6456], [9.1286, 61.6644], [9.1382, 61.675], [9.1371, 61.6855], [9.1121, 61.7183], [9.1195, 61.756], [9.2059, 61.776], [9.1986, 61.791], [9.218, 61.7974], [9.2482, 61.7957], [9.2604, 61.7881], [9.3312, 61.7751], [9.352, 61.7915], [9.3594, 61.7943], [9.3667, 61.7889], [9.3892, 61.7954], [9.4309, 61.8155], [9.4124, 61.817], [9.4153, 61.8211], [9.4083, 61.8259], [9.415, 61.8276], [9.3981, 61.8264], [9.3921, 61.8307], [9.3906, 61.8244], [9.3831, 61.8217], [9.3889, 61.8265], [9.374, 61.8277], [9.3768, 61.832], [9.292, 61.8469], [9.3044, 61.8654], [9.3029, 61.875], [9.3158, 61.8891], [9.2669, 61.9056], [9.2173, 61.9105], [9.1998, 61.9256], [9.172, 61.9311], [9.1654, 61.9457], [9.1069, 61.9593], [9.015, 62.0176]]]}}, {"type": "Feature", "properties": {"osm_type": "relation", "osm_id": 389487480, "name": "Sel nor", "admin_level": "6", "kind": "subdivision_2", "parent_osm_id": 211147520, "parent_name": "Oppland", "parent_iso": "NO-05"}, "geometry": {"type": "Polygon", "coordinates": [[[9.8482, 61.9038], [9.8044, 61.9123], [9.7394, 61.9095], [9.6659, 61.9132], [9.6456, 61.9347], [9.6245, 61.9483], [9.5774, 61.9574], [9.4118, 61.9001], [9.3972, 61.8958], [9.3861, 61.899], [9.3905, 61.8971], [9.3689, 61.8863], [9.3158, 61.8891], [9.3029, 61.875], [9.3044, 61.8654], [9.292, 61.8469], [9.3768, 61.832], [9.374, 61.8277], [9.3889, 61.8265], [9.3831, 61.8217], [9.3906, 61.8244], [9.3921, 61.8307], [9.3981, 61.8264], [9.415, 61.8276], [9.4083, 61.8259], [9.4153, 61.8211], [9.4124, 61.817], [9.4309, 61.8155], [9.3892, 61.7954], [9.3667, 61.7889], [9.3594, 61.7943], [9.352, 61.7915], [9.3312, 61.7751], [9.2604, 61.7881], [9.2482, 61.7957], [9.218, 61.7974], [9.1986, 61.791], [9.2059, 61.776], [9.1195, 61.756], [9.1121, 61.7183], [9.1371, 61.6855], [9.1382, 61.675], [9.1286, 61.6644], [9.1258, 61.6456], [9.1199, 61.6409], [9.115, 61.5919], [9.2112, 61.5604], [9.2943, 61.5859], [9.4011, 61.6492], [9.4374, 61.6383], [9.4695, 61.648], [9.4795, 61.6453], [9.5097, 61.6538], [9.5129, 61.6593], [9.5341, 61.6675], [9.5468, 61.6668], [9.5428, 61.6682], [9.5691, 61.6786], [9.5656, 61.6809], [9.5822, 61.6862], [9.5795, 61.6888], [9.5877, 61.6984], [9.6099, 61.7159], [9.7121, 61.7833], [9.7103, 61.7859], [9.7464, 61.8249], [9.7668, 61.8236], [9.7957, 61.8314], [9.9254, 61.8333], [9.9634, 61.8483], [10.013, 61.8772], [10.0155, 61.8844], [9.9195, 61.902], [9.8482, 61.9038]]]}}, {"type": "Feature", "properties": {"osm_type": "relation", "osm_id": 221617602, "name": "Lom nor", "admin_level": "6", "kind": "subdivision_2", "parent_osm_id": 211147520, "parent_name": "Oppland", "parent_iso": "NO-05"}, "geometry": {"type": "Polygon", "coordinates": [[[7.9044, 61.6791], [7.8957, 61.6436], [7.933, 61.6024], [7.9428, 61.5824], [7.9473, 61.5567], [8.1179, 61.5228], [8.1956, 61.5478], [8.2623, 61.534], [8.2876, 61.4896], [8.3037, 61.479], [8.3221, 61.4559], [8.3025, 61.4456], [8.3811, 61.4161], [8.4099, 61.4182], [8.4661, 61.3977], [8.5116, 61.4028], [8.5124, 61.4176], [8.4889, 61.4514], [8.6348, 61.491], [8.5566, 61.5438], [8.5329, 61.572], [8.5335, 61.5842], [8.6577, 61.593], [8.6905, 61.6], [8.6972, 61.6058], [8.7595, 61.6032], [8.8128, 61.6368], [8.8384, 61.6415], [8.8613, 61.6532], [8.869, 61.6747], [8.8601, 61.6774], [8.8588, 61.6886], [8.873, 61.7128], [8.9296, 61.735], [8.9639, 61.7403], [8.9695, 61.746], [8.992, 61.7379], [8.9927, 61.7463], [8.9798, 61.7685], [8.9608, 61.7734], [8.9553, 61.7805], [8.9636, 61.7999], [8.9418, 61.8065], [8.941, 61.8146], [8.8693, 61.8252], [8.8752, 61.8546], [8.8643, 61.8693], [8.8609, 61.8902], [8.8892, 61.9339], [8.8942, 61.9449], [8.8911, 61.9541], [8.896, 61.9601], [8.8713, 61.9683], [8.8718, 62.0089], [8.8122, 62.0135], [8.7623, 62.031], [8.6784, 62.0095], [8.5914, 62.0079], [8.4357, 61.9369], [8.5253, 61.8953], [8.503, 61.8703], [8.486, 61.8662], [8.4681, 61.8522], [8.3676, 61.8193], [8.301, 61.8168], [8.2685, 61.8086], [8.2303, 61.7847], [8.1921, 61.7782], [8.1274, 61.7421], [8.011, 61.7321], [7.9044, 61.6791]]]}}, {"type": "Feature", "properties": {"osm_type": "relation", "osm_id": 357012045, "name": "Gran nor", "admin_level": "6", "kind": "subdivision_2", "parent_osm_id": 211147520, "parent_name": "Oppland", "parent_iso": "NO-05"}, "geometry": {"type": "Polygon", "coordinates": [[[10.7118, 60.516], [10.6705, 60.5109], [10.6795, 60.503], [10.6487, 60.5006], [10.6484, 60.5078], [10.6395, 60.5074], [10.6383, 60.5129], [10.6311, 60.513], [10.6272, 60.5192], [10.5959, 60.5197], [10.6024, 60.5288], [10.6146, 60.5326], [10.6142, 60.5374], [10.6012, 60.5343], [10.5895, 60.5376], [10.571, 60.5567], [10.5522, 60.5554], [10.5511, 60.5638], [10.5087, 60.5648], [10.3891, 60.5507], [10.3198, 60.5267], [10.2329, 60.5315], [10.1489, 60.5487], [10.1248, 60.5355], [10.1564, 60.5222], [10.1624, 60.5013], [10.1762, 60.4784], [10.1748, 60.4598], [10.1943, 60.4003], [10.2081, 60.3992], [10.2021, 60.3923], [10.2612, 60.3936], [10.3389, 60.3661], [10.3535, 60.3727], [10.3885, 60.3752], [10.3857, 60.3558], [10.3769, 60.338], [10.3653, 60.3278], [10.3663, 60.321], [10.3864, 60.3166], [10.4147, 60.3181], [10.4136, 60.3138], [10.4219, 60.3126], [10.4705, 60.3224], [10.5101, 60.3257], [10.525, 60.3218], [10.5288, 60.3226], [10.5263, 60.3253], [10.5474, 60.3276], [10.558, 60.3258], [10.5593, 60.3207], [10.58, 60.3243], [10.5851, 60.3181], [10.6011, 60.3223], [10.6051, 60.3121], [10.6175, 60.3215], [10.6291, 60.3209], [10.6332, 60.3257], [10.6451, 60.3231], [10.7047, 60.3298], [10.7154, 60.3391], [10.7235, 60.3347], [10.7198, 60.3295], [10.7631, 60.3141], [10.8647, 60.3139], [10.8723, 60.3208], [10.8828, 60.3187], [10.9339, 60.3467], [10.9021, 60.3781], [10.8982, 60.3907], [10.9031, 60.3963], [10.8195, 60.4274], [10.809, 60.4242], [10.7203, 60.4343], [10.6873, 60.4308], [10.672, 60.4339], [10.6895, 60.4474], [10.7102, 60.454], [10.6924, 60.492], [10.7113, 60.4972], [10.7086, 60.5131], [10.7118, 60.516]]]}}, {"type": "Feature", "properties": {"osm_type": "relation", "osm_id": 322556034, "name": "\"Nordre Land\" nor", "admin_level": "6", "kind": "subdivision_2", "parent_osm_id": 211147520, "parent_name": "Oppland", "parent_iso": "NO-05"}, "geometry": {"type": "Polygon", "coordinates": [[[10.233, 61.023], [10.195, 61.0457], [10.169, 61.0476], [10.1537, 61.0608], [10.1307, 61.0673], [10.1217, 61.0748], [10.0788, 61.0803], [10.0384, 61.0924], [10.0396, 61.1122], [10.0446, 61.1181], [9.9996, 61.1102], [9.9679, 61.1226], [9.9722, 61.1406], [9.958, 61.1471], [9.8143, 61.1658], [9.8119, 61.1638], [9.8292, 61.1558], [9.8256, 61.154], [9.8273, 61.1479], [9.7931, 61.144], [9.7106, 61.1604], [9.632, 61.157], [9.6714, 61.1468], [9.6903, 61.1279], [9.722, 61.0734], [9.7612, 61.0825], [9.7897, 61.0769], [9.767, 61.0467], [9.7836, 61.0409], [9.7475, 61.0407], [9.7584, 61.0216], [9.7677, 61.019], [9.7657, 61.0113], [9.7741, 61.0], [9.7825, 61.0001], [9.7762, 60.9942], [9.7733, 60.9808], [9.7845, 60.9568], [9.7924, 60.9502], [9.7947, 60.914], [9.7924, 60.908], [9.7859, 60.9067], [9.7923, 60.9053], [9.7916, 60.8931], [9.8004, 60.8832], [9.7712, 60.8319], [9.7782, 60.8272], [9.805, 60.8272], [9.8155, 60.8088], [9.815, 60.7891], [9.805, 60.7545], [9.8307, 60.7334], [9.8629, 60.7261], [9.9199, 60.7604], [9.9774, 60.7368], [9.9975, 60.7411], [10.0283, 60.7312], [10.0548, 60.7459], [10.0645, 60.74], [10.0912, 60.7511], [10.0839, 60.7523], [10.0933, 60.7621], [10.0872, 60.765], [10.0931, 60.7707], [10.1946, 60.784], [10.2119, 60.793], [10.1604, 60.7971], [10.1448, 60.7926], [10.1259, 60.8003], [10.1302, 60.8046], [10.1177, 60.8093], [10.1502, 60.823], [10.1728, 60.8143], [10.2226, 60.8145], [10.2281, 60.8248], [10.2398, 60.828], [10.2406, 60.834], [10.2348, 60.8404], [10.2423, 60.8419], [10.2451, 60.8489], [10.2369, 60.8587], [10.2538, 60.8717], [10.2226, 60.885], [10.225, 60.8964], [10.2183, 60.9029], [10.223, 60.9063], [10.1739, 60.9339], [10.1677, 60.9424], [10.2106, 60.9908], [10.2149, 61.0105], [10.233, 61.023]]]}}, {"type": "Feature", "properties": {"osm_type": "relation", "osm_id": 125352076, "name": "\"Søndre Land\" nor", "admin_level": "6", "kind": "subdivision_2", "parent_osm_id": 211147520, "parent_name": "Oppland", "parent_iso": "NO-05"}, "geometry": {"type": "Polygon", "coordinates": [[[10.2538, 60.8717], [10.2369, 60.8587], [10.2451, 60.8489], [10.2423, 60.8419], [10.2348, 60.8404], [10.2406, 60.834], [10.2398, 60.828], [10.2281, 60.8248], [10.2226, 60.8145], [10.1728, 60.8143], [10.1502, 60.823], [10.1189, 60.8123], [10.1201, 60.8071], [10.1302, 60.8046], [10.1259, 60.8003], [10.1448, 60.7926], [10.1604, 60.7971], [10.2015, 60.7953], [10.2119, 60.793], [10.2014, 60.7868], [10.0931, 60.7707], [10.0872, 60.765], [10.0933, 60.7621], [10.0839, 60.7523], [10.0912, 60.7511], [10.0645, 60.74], [10.0548, 60.7459], [10.0283, 60.7312], [9.9975, 60.7411], [9.9774, 60.7368], [9.9989, 60.7105], [10.0304, 60.6562], [10.0353, 60.6321], [10.0648, 60.6078], [10.0941, 60.5596], [10.1093, 60.5559], [10.1073, 60.5495], [10.1248, 60.5355], [10.1489, 60.5487], [10.2329, 60.5315], [10.3198, 60.5267], [10.3891, 60.5507], [10.5087, 60.5648], [10.5181, 60.5736], [10.5219, 60.5872], [10.5346, 60.5909], [10.5505, 60.6262], [10.5418, 60.6291], [10.5457, 60.6434], [10.5414, 60.6494], [10.4904, 60.6495], [10.491, 60.6669], [10.4848, 60.6729], [10.491, 60.6775], [10.4929, 60.6922], [10.5002, 60.703], [10.5126, 60.7075], [10.4049, 60.7639], [10.4078, 60.7652], [10.4042, 60.769], [10.3954, 60.7687], [10.368, 60.7831], [10.3707, 60.7886], [10.3665, 60.7952], [10.3702, 60.7979], [10.3616, 60.8065], [10.3621, 60.8143], [10.3819, 60.8304], [10.3789, 60.8391], [10.384, 60.8457], [10.3626, 60.8483], [10.3533, 60.8559], [10.3326, 60.8558], [10.2727, 60.8788], [10.2538, 60.8717]]]}}, {"type": "Feature", "properties": {"osm_type": "relation", "osm_id": 472669953, "name": "Nord-Fron nor", "admin_level": "6", "kind": "subdivision_2", "parent_osm_id": 211147520, "parent_name": "Oppland", "parent_iso": "NO-05"}, "geometry": {"type": "Polygon", "coordinates": [[[9.07, 61.3867], [9.1424, 61.3673], [9.1374, 61.3626], [9.1396, 61.3588], [9.1863, 61.3411], [9.1932, 61.3416], [9.1951, 61.3493], [9.1872, 61.363], [9.1915, 61.3659], [9.2394, 61.3494], [9.2899, 61.3507], [9.2957, 61.3543], [9.3251, 61.3499], [9.3333, 61.3536], [9.3351, 61.3625], [9.3472, 61.3632], [9.3408, 61.3694], [9.3556, 61.3815], [9.3903, 61.3853], [9.3899, 61.3907], [9.3719, 61.4022], [9.3548, 61.4357], [9.3394, 61.4412], [9.3928, 61.4503], [9.433, 61.4678], [9.4022, 61.4705], [9.3911, 61.4805], [9.4429, 61.4934], [9.5552, 61.4688], [9.6566, 61.4698], [9.699, 61.4875], [9.8002, 61.567], [9.8113, 61.5834], [9.8279, 61.5843], [9.8787, 61.6179], [9.9192, 61.6932], [9.9187, 61.723], [9.9331, 61.758], [9.9477, 61.7678], [9.9778, 61.8025], [10.015, 61.8194], [10.0131, 61.8436], [9.9936, 61.8663], [9.9634, 61.8483], [9.9254, 61.8333], [9.7957, 61.8314], [9.7668, 61.8236], [9.7464, 61.8249], [9.7103, 61.7859], [9.7121, 61.7833], [9.6099, 61.7159], [9.5877, 61.6984], [9.5795, 61.6888], [9.5822, 61.6862], [9.5656, 61.6809], [9.5691, 61.6786], [9.5428, 61.6682], [9.5468, 61.6668], [9.5341, 61.6675], [9.5129, 61.6593], [9.5097, 61.6538], [9.4795, 61.6453], [9.4695, 61.648], [9.4374, 61.6383], [9.4011, 61.6492], [9.2943, 61.5859], [9.2112, 61.5604], [9.2203, 61.5573], [9.1715, 61.5438], [9.0996, 61.5073], [9.0782, 61.506], [9.0279, 61.5228], [8.9736, 61.514], [8.9451, 61.5153], [8.8996, 61.4863], [8.9022, 61.4544], [8.921, 61.4663], [8.9514, 61.4725], [8.9839, 61.4623], [9.0258, 61.4583], [9.063, 61.4604], [9.1024, 61.4722], [9.1439, 61.4688], [9.1447, 61.4401], [9.115, 61.4114], [9.07, 61.3867]]]}}, {"type": "Feature", "properties": {"osm_type": "relation", "osm_id": 269130112, "name": "Sør-Fron nor", "admin_level": "6", "kind": "subdivision_2", "parent_osm_id": 211147520, "parent_name": "Oppland", "parent_iso": "NO-05"}, "geometry": {"type": "Polygon", "coordinates": [[[9.9387, 61.3899], [9.9583, 61.401], [9.9854, 61.4052], [10.0308, 61.5045], [10.0407, 61.5046], [10.0528, 61.5206], [10.0558, 61.5377], [10.0471, 61.5386], [10.0481, 61.5432], [10.0629, 61.5555], [10.0554, 61.5582], [10.0556, 61.5646], [10.0482, 61.5696], [10.0503, 61.5796], [10.0461, 61.5839], [10.0292, 61.5965], [9.9902, 61.6108], [9.9729, 61.6253], [9.9743, 61.6507], [9.9641, 61.6568], [9.9564, 61.6718], [9.9754, 61.687], [9.9609, 61.6997], [9.9755, 61.7144], [9.9883, 61.7203], [10.0273, 61.7227], [10.1648, 61.8819], [10.1225, 61.8851], [10.0861, 61.9066], [10.0529, 61.9134], [10.0407, 61.9078], [10.0134, 61.9101], [10.0098, 61.9001], [10.0155, 61.8844], [10.013, 61.8772], [9.9936, 61.8663], [10.0131, 61.8436], [10.015, 61.8194], [9.9778, 61.8025], [9.9477, 61.7678], [9.9331, 61.758], [9.9187, 61.723], [9.9192, 61.6932], [9.8787, 61.6179], [9.8279, 61.5843], [9.8113, 61.5834], [9.8002, 61.567], [9.699, 61.4875], [9.6566, 61.4698], [9.5552, 61.4688], [9.4429, 61.4934], [9.3911, 61.4805], [9.4022, 61.4705], [9.433, 61.4678], [9.3928, 61.4503], [9.3394, 61.4412], [9.3548, 61.4357], [9.3719, 61.4022], [9.3899, 61.3907], [9.3903, 61.3853], [9.3556, 61.3815], [9.3408, 61.3694], [9.3472, 61.3632], [9.3351, 61.3625], [9.3333, 61.3536], [9.3251, 61.3499], [9.2957, 61.3543], [9.2899, 61.3507], [9.2394, 61.3494], [9.1915, 61.3659], [9.1872, 61.363], [9.1914, 61.3547], [9.2949, 61.3133], [9.3009, 61.2925], [9.347, 61.2978], [9.4796, 61.3601], [9.5247, 61.3959], [9.5367, 61.4125], [9.5503, 61.4143], [9.5547, 61.421], [9.7058, 61.3989], [9.8084, 61.4176], [9.8524, 61.4164], [9.9387, 61.3899]]]}}, {"type": "Feature", "properties": {"osm_type": "relation", "osm_id": 850441942, "name": "Vang nor", "admin_level": "6", "kind": "subdivision_2", "parent_osm_id": 211147520, "parent_name": "Oppland", "parent_iso": "NO-05"}, "geometry": {"type": "Polygon", "coordinates": [[[8.2517, 61.0739], [8.3092, 61.0917], [8.3663, 61.0483], [8.4465, 61.0199], [8.4807, 61.0217], [8.5433, 61.0097], [8.569, 60.9947], [8.6079, 60.9823], [8.6264, 60.9713], [8.6328, 60.9616], [8.6211, 60.9519], [8.6572, 60.9392], [8.681, 60.9634], [8.6781, 60.9687], [8.6974, 60.9748], [8.7382, 61.0046], [8.7329, 61.0071], [8.7428, 61.0297], [8.7235, 61.0425], [8.6797, 61.0555], [8.7106, 61.083], [8.7154, 61.081], [8.7305, 61.0897], [8.798, 61.1371], [8.8342, 61.1372], [8.8465, 61.1316], [8.86, 61.132], [8.8715, 61.178], [8.8892, 61.2096], [8.8526, 61.2351], [8.8349, 61.2318], [8.8147, 61.237], [8.8, 61.2535], [8.7617, 61.2532], [8.7595, 61.2638], [8.7407, 61.273], [8.7994, 61.2944], [8.8253, 61.2892], [8.8271, 61.3364], [8.7969, 61.3469], [8.771, 61.3754], [8.7215, 61.3987], [8.5798, 61.3891], [8.5116, 61.4028], [8.4661, 61.3977], [8.4099, 61.4182], [8.3811, 61.4161], [8.3025, 61.4456], [8.2748, 61.4313], [8.2171, 61.4299], [8.1923, 61.4388], [8.1504, 61.4267], [8.1546, 61.396], [8.1616, 61.3874], [8.1557, 61.3775], [8.1595, 61.3697], [8.1804, 61.3567], [8.1999, 61.3529], [8.2128, 61.3555], [8.2255, 61.3421], [8.2511, 61.3391], [8.2515, 61.3344], [8.2403, 61.3254], [8.2438, 61.3214], [8.2349, 61.3204], [8.2314, 61.3144], [8.2177, 61.3182], [8.2223, 61.3078], [8.2111, 61.3047], [8.1767, 61.305], [8.1555, 61.2874], [8.1331, 61.2775], [8.1418, 61.2746], [8.1357, 61.269], [8.0674, 61.2483], [8.0512, 61.2328], [8.0067, 61.235], [8.0078, 61.2299], [8.0173, 61.2257], [8.0532, 61.2203], [8.0509, 61.2118], [8.0606, 61.1933], [8.044, 61.179], [8.0488, 61.1743], [8.0756, 61.1797], [8.083, 61.1622], [8.1362, 61.1157], [8.1339, 61.1097], [8.2212, 61.0895], [8.2517, 61.0739]]]}}, {"type": "Feature", "properties": {"osm_type": "relation", "osm_id": 288118223, "name": "Etnedal nor", "admin_level": "6", "kind": "subdivision_2", "parent_osm_id": 211147520, "parent_name": "Oppland", "parent_iso": "NO-05"}, "geometry": {"type": "Polygon", "coordinates": [[[9.6903, 61.1279], [9.6671, 61.1253], [9.6779, 61.1176], [9.6708, 61.1171], [9.652, 61.1023], [9.6066, 61.1182], [9.5758, 61.1196], [9.5757, 61.1164], [9.4973, 61.0943], [9.4746, 61.0943], [9.4237, 61.0727], [9.4268, 61.0702], [9.4095, 61.0652], [9.4112, 61.062], [9.3776, 61.0561], [9.4275, 61.0536], [9.4265, 61.0494], [9.4357, 61.046], [9.4319, 61.0448], [9.4557, 61.0354], [9.4694, 61.0185], [9.5116, 61.0051], [9.534, 60.9894], [9.5396, 60.9766], [9.5217, 60.9796], [9.5109, 60.9763], [9.5063, 60.9612], [9.4966, 60.9536], [9.5295, 60.945], [9.5114, 60.9381], [9.5364, 60.9244], [9.5411, 60.916], [9.5306, 60.9001], [9.5374, 60.8997], [9.5445, 60.8841], [9.5573, 60.872], [9.5556, 60.8513], [9.6417, 60.8331], [9.6722, 60.8326], [9.7186, 60.8107], [9.7237, 60.8145], [9.7486, 60.8156], [9.7477, 60.8213], [9.7868, 60.8194], [9.7808, 60.8149], [9.7844, 60.81], [9.8031, 60.8061], [9.8061, 60.7993], [9.8154, 60.7993], [9.8155, 60.8088], [9.805, 60.8272], [9.7782, 60.8272], [9.7712, 60.8319], [9.8004, 60.8832], [9.7916, 60.8931], [9.7923, 60.9053], [9.7859, 60.9067], [9.7924, 60.908], [9.7947, 60.914], [9.7924, 60.9502], [9.7845, 60.9568], [9.7733, 60.9808], [9.7762, 60.9942], [9.7825, 61.0001], [9.7741, 61.0], [9.7657, 61.0113], [9.7677, 61.019], [9.7584, 61.0216], [9.7475, 61.0407], [9.7836, 61.0409], [9.767, 61.0467], [9.7897, 61.0769], [9.7612, 61.0825], [9.722, 61.0734], [9.6903, 61.1279]]]}}, {"type": "Feature", "properties": {"osm_type": "relation", "osm_id": 699107239, "name": "Sør-Aurdal nor", "admin_level": "6", "kind": "subdivision_2", "parent_osm_id": 211147520, "parent_name": "Oppland", "parent_iso": "NO-05"}, "geometry": {"type": "Polygon", "coordinates": [[[9.8305, 60.4564], [9.8259, 60.493], [9.811, 60.512], [9.8172, 60.5258], [9.8106, 60.5379], [9.8105, 60.5561], [9.8323, 60.5797], [9.8432, 60.5866], [9.8428, 60.5787], [9.8534, 60.5677], [9.8845, 60.5854], [9.9437, 60.603], [9.9523, 60.6109], [9.9481, 60.6145], [9.9206, 60.6199], [9.9045, 60.6317], [9.9062, 60.6351], [9.9659, 60.6379], [10.0353, 60.6321], [10.0304, 60.6562], [9.9989, 60.7105], [9.9774, 60.7368], [9.9199, 60.7604], [9.8629, 60.7261], [9.8307, 60.7334], [9.805, 60.7545], [9.8154, 60.7993], [9.8061, 60.7993], [9.8031, 60.8061], [9.7844, 60.81], [9.7808, 60.8149], [9.7868, 60.8194], [9.7477, 60.8213], [9.7486, 60.8156], [9.7237, 60.8145], [9.7186, 60.8107], [9.6722, 60.8326], [9.6417, 60.8331], [9.5556, 60.8513], [9.5565, 60.8625], [9.5052, 60.8516], [9.4687, 60.8792], [9.4366, 60.8678], [9.397, 60.8679], [9.3874, 60.8593], [9.3881, 60.8426], [9.3481, 60.8347], [9.2905, 60.7966], [9.2578, 60.7675], [9.2913, 60.7619], [9.3046, 60.7451], [9.3321, 60.7299], [9.3288, 60.7083], [9.318, 60.699], [9.3213, 60.6795], [9.3526, 60.6671], [9.3662, 60.6479], [9.3604, 60.639], [9.3672, 60.6298], [9.389, 60.6169], [9.4213, 60.613], [9.4351, 60.5996], [9.4107, 60.5829], [9.4173, 60.5477], [9.4486, 60.5438], [9.4839, 60.5287], [9.5143, 60.5278], [9.5209, 60.5321], [9.6071, 60.5389], [9.6162, 60.5206], [9.6129, 60.5141], [9.62, 60.5078], [9.6118, 60.5003], [9.7185, 60.4708], [9.8009, 60.4542], [9.8305, 60.4564]]]}}, {"type": "Feature", "properties": {"osm_type": "relation", "osm_id": 793541957, "name": "\"Vestre Slidre\" nor", "admin_level": "6", "kind": "subdivision_2", "parent_osm_id": 211147520, "parent_name": "Oppland", "parent_iso": "NO-05"}, "geometry": {"type": "Polygon", "coordinates": [[[8.8895, 60.8966], [8.9528, 60.9466], [8.9747, 60.9762], [9.029, 61.011], [9.0755, 61.0202], [9.0842, 61.0161], [9.1353, 61.0223], [9.1784, 61.0323], [9.1683, 61.0418], [9.1703, 61.0509], [9.137, 61.0594], [9.125, 61.0676], [9.0902, 61.0684], [9.0829, 61.0744], [9.069, 61.0755], [9.0533, 61.0882], [9.0681, 61.0904], [9.0302, 61.0997], [9.0062, 61.1182], [9.0065, 61.1224], [9.0146, 61.1237], [9.0184, 61.1312], [9.0148, 61.1363], [9.0212, 61.1444], [9.013, 61.1524], [8.9915, 61.1511], [8.9868, 61.156], [8.9446, 61.1554], [8.9228, 61.1606], [8.9275, 61.1649], [8.9161, 61.1664], [8.9068, 61.1791], [8.922, 61.2001], [8.8892, 61.2096], [8.8715, 61.178], [8.86, 61.132], [8.8465, 61.1316], [8.8342, 61.1372], [8.798, 61.1371], [8.7305, 61.0897], [8.7154, 61.081], [8.7106, 61.083], [8.6797, 61.0555], [8.7235, 61.0425], [8.7428, 61.0297], [8.7329, 61.0071], [8.7382, 61.0046], [8.6974, 60.9748], [8.6781, 60.9687], [8.681, 60.9634], [8.6541, 60.9359], [8.8145, 60.9006], [8.8895, 60.8966]]]}}, {"type": "Feature", "properties": {"osm_type": "relation", "osm_id": 648760045, "name": "Jevnaker nor", "admin_level": "6", "kind": "subdivision_2", "parent_osm_id": 211147520, "parent_name": "Oppland", "parent_iso": "NO-05"}, "geometry": {"type": "Polygon", "coordinates": [[[10.4575, 60.3168], [10.4219, 60.3126], [10.4136, 60.3138], [10.4147, 60.3181], [10.3864, 60.3166], [10.3663, 60.321], [10.3653, 60.3278], [10.3769, 60.338], [10.3857, 60.3558], [10.3885, 60.3752], [10.3535, 60.3727], [10.3389, 60.3661], [10.2612, 60.3936], [10.2021, 60.3923], [10.2081, 60.3992], [10.1943, 60.4003], [10.1992, 60.3755], [10.238, 60.3414], [10.2475, 60.3258], [10.2798, 60.2936], [10.3195, 60.2632], [10.3095, 60.254], [10.3091, 60.2464], [10.3265, 60.2363], [10.3318, 60.2281], [10.3578, 60.2168], [10.3763, 60.2236], [10.4763, 60.1848], [10.4952, 60.1726], [10.5607, 60.1656], [10.5764, 60.1797], [10.5709, 60.1856], [10.5739, 60.1985], [10.5449, 60.2142], [10.5397, 60.2412], [10.5297, 60.2458], [10.526, 60.259], [10.5416, 60.2606], [10.5355, 60.2788], [10.522, 60.2858], [10.511, 60.2849], [10.5104, 60.2909], [10.4848, 60.2932], [10.482, 60.2902], [10.4881, 60.2856], [10.4699, 60.2888], [10.4701, 60.296], [10.4564, 60.2998], [10.4689, 60.3053], [10.4692, 60.3107], [10.4575, 60.3168]]]}}, {"type": "Feature", "properties": {"osm_type": "relation", "osm_id": 897570531, "name": "Lesja nor", "admin_level": "6", "kind": "subdivision_2", "parent_osm_id": 211147520, "parent_name": "Oppland", "parent_iso": "NO-05"}, "geometry": {"type": "Polygon", "coordinates": [[[8.5914, 62.0079], [8.6784, 62.0095], [8.7623, 62.031], [8.8122, 62.0135], [8.8609, 62.0125], [8.9172, 62.0029], [8.9222, 62.0099], [8.965, 62.0128], [8.9749, 62.0186], [9.015, 62.0176], [9.0103, 62.0472], [9.0576, 62.0516], [9.064, 62.0549], [9.0679, 62.0702], [9.104, 62.0892], [9.1078, 62.1053], [9.0789, 62.1116], [9.0959, 62.1208], [9.0943, 62.1266], [9.1547, 62.1413], [9.2243, 62.1798], [9.2874, 62.1964], [9.3057, 62.2355], [9.3192, 62.2532], [9.274, 62.2919], [9.2218, 62.3207], [9.2127, 62.3431], [9.0621, 62.3726], [9.0204, 62.3591], [8.9318, 62.3532], [8.9191, 62.3535], [8.8896, 62.3755], [8.7926, 62.3784], [8.4633, 62.3634], [8.3893, 62.3639], [8.2752, 62.348], [8.2059, 62.3317], [8.1695, 62.3052], [8.1313, 62.2907], [8.1297, 62.2856], [7.9836, 62.1775], [8.0815, 62.0483], [8.1336, 62.0262], [8.2179, 62.0025], [8.391, 62.0009], [8.4707, 62.0137], [8.5914, 62.0079]]]}}, {"type": "Feature", "properties": {"osm_type": "relation", "osm_id": 168342316, "name": "Dovre nor", "admin_level": "6", "kind": "subdivision_2", "parent_osm_id": 211147520, "parent_name": "Oppland", "parent_iso": "NO-05"}, "geometry": {"type": "Polygon", "coordinates": [[[9.7925, 62.2879], [9.7181, 62.2828], [9.6019, 62.2557], [9.5151, 62.278], [9.4839, 62.2923], [9.2127, 62.3431], [9.2218, 62.3207], [9.274, 62.2919], [9.3192, 62.2532], [9.3057, 62.2355], [9.2874, 62.1964], [9.2243, 62.1798], [9.1547, 62.1413], [9.0943, 62.1266], [9.0959, 62.1208], [9.0789, 62.1116], [9.1078, 62.1053], [9.104, 62.0892], [9.0679, 62.0702], [9.064, 62.0549], [9.0576, 62.0516], [9.0103, 62.0472], [9.015, 62.0176], [9.1069, 61.9593], [9.1654, 61.9457], [9.172, 61.9311], [9.1998, 61.9256], [9.2173, 61.9105], [9.2669, 61.9056], [9.3158, 61.8891], [9.3689, 61.8863], [9.3905, 61.8971], [9.3861, 61.899], [9.3972, 61.8958], [9.4118, 61.9001], [9.5774, 61.9574], [9.6245, 61.9483], [9.6456, 61.9347], [9.6659, 61.9132], [9.7394, 61.9095], [9.8044, 61.9123], [9.8482, 61.9038], [9.8702, 61.9495], [9.8504, 61.9809], [9.8388, 62.0134], [9.8764, 62.0405], [9.9267, 62.0466], [9.9141, 62.0667], [9.866, 62.095], [9.7652, 62.1232], [9.6508, 62.1393], [9.5838, 62.1846], [9.612, 62.199], [9.6438, 62.1969], [9.6806, 62.2179], [9.6844, 62.2215], [9.6788, 62.2228], [9.6851, 62.2292], [9.6905, 62.2281], [9.7309, 62.2651], [9.7925, 62.2879]]]}}, {"type": "Feature", "properties": {"osm_type": "relation", "osm_id": 221038188, "name": "\"Øystre Slidre\" nor", "admin_level": "6", "kind": "subdivision_2", "parent_osm_id": 211147520, "parent_name": "Oppland", "parent_iso": "NO-05"}, "geometry": {"type": "Polygon", "coordinates": [[[9.3009, 61.2925], [9.2949, 61.3133], [9.1914, 61.3547], [9.1932, 61.3416], [9.1748, 61.343], [9.1396, 61.3588], [9.1374, 61.3626], [9.1424, 61.3673], [9.0162, 61.4066], [8.8256, 61.4444], [8.7806, 61.4508], [8.7837, 61.4422], [8.7592, 61.4319], [8.7215, 61.3987], [8.771, 61.3754], [8.7969, 61.3469], [8.8271, 61.3364], [8.8253, 61.2892], [8.7994, 61.2944], [8.741, 61.2747], [8.7457, 61.2674], [8.7595, 61.2638], [8.7617, 61.2532], [8.8, 61.2535], [8.8239, 61.2327], [8.8526, 61.2351], [8.8892, 61.2096], [8.922, 61.2001], [8.9068, 61.1791], [8.9161, 61.1664], [8.9275, 61.1649], [8.9228, 61.1606], [8.9446, 61.1554], [8.9868, 61.156], [8.9915, 61.1511], [9.013, 61.1524], [9.0212, 61.1444], [9.0148, 61.1363], [9.0184, 61.1312], [9.0146, 61.1237], [9.0065, 61.1224], [9.0062, 61.1182], [9.0302, 61.0997], [9.0681, 61.0904], [9.0533, 61.0882], [9.069, 61.0755], [9.0829, 61.0744], [9.0902, 61.0684], [9.125, 61.0676], [9.137, 61.0594], [9.1703, 61.0509], [9.2153, 61.056], [9.2516, 61.0695], [9.3135, 61.0768], [9.3681, 61.0923], [9.4145, 61.1199], [9.4197, 61.1272], [9.4219, 61.1761], [9.4537, 61.2066], [9.466, 61.2407], [9.3009, 61.2925]]]}}, {"type": "Feature", "properties": {"osm_type": "relation", "osm_id": 818308377, "name": "Nord-Aurdal nor", "admin_level": "6", "kind": "subdivision_2", "parent_osm_id": 211147520, "parent_name": "Oppland", "parent_iso": "NO-05"}, "geometry": {"type": "Polygon", "coordinates": [[[9.2578, 60.7675], [9.2905, 60.7966], [9.3481, 60.8347], [9.3881, 60.8426], [9.3874, 60.8593], [9.397, 60.8679], [9.4366, 60.8678], [9.4687, 60.8792], [9.5052, 60.8516], [9.559, 60.8637], [9.5374, 60.8997], [9.5306, 60.9001], [9.5411, 60.916], [9.5364, 60.9244], [9.5114, 60.9381], [9.5295, 60.945], [9.4966, 60.9536], [9.5063, 60.9612], [9.5109, 60.9763], [9.5217, 60.9796], [9.5396, 60.9766], [9.534, 60.9894], [9.5116, 61.0051], [9.4694, 61.0185], [9.4557, 61.0354], [9.4319, 61.0448], [9.4357, 61.046], [9.4265, 61.0494], [9.4275, 61.0536], [9.3808, 61.0533], [9.3796, 61.0588], [9.4112, 61.062], [9.4095, 61.0652], [9.4268, 61.0702], [9.4237, 61.0727], [9.4746, 61.0943], [9.4973, 61.0943], [9.5757, 61.1164], [9.5758, 61.1196], [9.6066, 61.1182], [9.652, 61.1023], [9.6708, 61.1171], [9.6779, 61.1176], [9.6671, 61.1253], [9.6903, 61.1279], [9.6714, 61.1468], [9.632, 61.157], [9.4942, 61.2338], [9.466, 61.2407], [9.4537, 61.2066], [9.4219, 61.1761], [9.4197, 61.1272], [9.4145, 61.1199], [9.3681, 61.0923], [9.3135, 61.0768], [9.2516, 61.0695], [9.2153, 61.056], [9.1703, 61.0509], [9.1683, 61.0418], [9.1784, 61.0323], [9.1353, 61.0223], [9.0842, 61.0161], [9.0755, 61.0202], [9.029, 61.011], [8.9747, 60.9762], [8.9528, 60.9466], [8.8895, 60.8966], [8.8961, 60.8938], [8.9008, 60.879], [8.919, 60.869], [8.919, 60.8634], [9.0161, 60.84], [9.0888, 60.8165], [9.1469, 60.8068], [9.1929, 60.7909], [9.2163, 60.7706], [9.2578, 60.7675]]]}}, {"type": "Feature", "properties": {"osm_type": "relation", "osm_id": 139514197, "name": "Lillehammer nor", "admin_level": "6", "kind": "subdivision_2", "parent_osm_id": 211147520, "parent_name": "Oppland", "parent_iso": "NO-05"}, "geometry": {"type": "Polygon", "coordinates": [[[10.4661, 61.0314], [10.443, 61.0623], [10.5102, 61.0649], [10.5436, 61.0773], [10.547, 61.0828], [10.5743, 61.0824], [10.5717, 61.0856], [10.5799, 61.093], [10.602, 61.1014], [10.5974, 61.103], [10.626, 61.1256], [10.6375, 61.1244], [10.6325, 61.1313], [10.6574, 61.1628], [10.7042, 61.1958], [10.7226, 61.2025], [10.7437, 61.2364], [10.4188, 61.183], [10.4077, 61.1939], [10.4407, 61.2161], [10.4451, 61.2272], [10.4361, 61.2351], [10.4066, 61.233], [10.3677, 61.248], [10.3401, 61.2142], [10.329, 61.208], [10.3202, 61.2069], [10.3129, 61.2116], [10.2913, 61.1975], [10.2687, 61.195], [10.2669, 61.1991], [10.2574, 61.1998], [10.2222, 61.1896], [10.2027, 61.1899], [10.1986, 61.1796], [10.2093, 61.176], [10.1999, 61.1605], [10.2148, 61.1562], [10.2303, 61.1427], [10.2272, 61.1347], [10.2191, 61.1347], [10.2151, 61.1263], [10.197, 61.1156], [10.1531, 61.1074], [10.1308, 61.1143], [10.1206, 61.1229], [10.072, 61.1246], [10.0446, 61.1181], [10.0396, 61.1122], [10.0384, 61.0924], [10.0788, 61.0803], [10.1217, 61.0748], [10.1307, 61.0673], [10.1537, 61.0608], [10.169, 61.0476], [10.195, 61.0457], [10.233, 61.023], [10.2988, 61.0368], [10.3908, 61.0186], [10.4128, 61.027], [10.4438, 61.0237], [10.4661, 61.0314]]]}}, {"type": "Feature", "properties": {"osm_type": "relation", "osm_id": 445426562, "name": "\"Vestre Toten\" nor", "admin_level": "6", "kind": "subdivision_2", "parent_osm_id": 211147520, "parent_name": "Oppland", "parent_iso": "NO-05"}, "geometry": {"type": "Polygon", "coordinates": [[[10.5126, 60.7075], [10.5002, 60.703], [10.4929, 60.6922], [10.491, 60.6775], [10.4848, 60.6729], [10.491, 60.6669], [10.4904, 60.6495], [10.5414, 60.6494], [10.5457, 60.6434], [10.5418, 60.6291], [10.5505, 60.6262], [10.5346, 60.5909], [10.5219, 60.5872], [10.5181, 60.5736], [10.5087, 60.5648], [10.5511, 60.5638], [10.5522, 60.5554], [10.571, 60.5567], [10.5895, 60.5376], [10.6012, 60.5343], [10.6114, 60.5393], [10.6146, 60.5326], [10.6024, 60.5288], [10.5959, 60.5197], [10.6272, 60.5192], [10.6311, 60.513], [10.6383, 60.5129], [10.6395, 60.5074], [10.6484, 60.5078], [10.6487, 60.5006], [10.6795, 60.503], [10.6705, 60.5109], [10.7118, 60.516], [10.7133, 60.5242], [10.7053, 60.528], [10.7076, 60.5538], [10.6861, 60.5645], [10.6816, 60.5742], [10.6861, 60.581], [10.6715, 60.5968], [10.6897, 60.603], [10.6749, 60.6033], [10.6741, 60.6075], [10.6792, 60.6093], [10.6734, 60.6134], [10.6809, 60.617], [10.6758, 60.6177], [10.6813, 60.623], [10.6733, 60.6247], [10.6856, 60.6354], [10.7063, 60.6437], [10.6861, 60.6562], [10.7117, 60.6578], [10.7178, 60.6653], [10.735, 60.6674], [10.7303, 60.6769], [10.7605, 60.682], [10.7502, 60.6946], [10.7566, 60.6958], [10.7535, 60.7015], [10.7612, 60.7068], [10.7548, 60.7065], [10.7613, 60.7081], [10.7557, 60.7123], [10.7484, 60.7116], [10.7552, 60.7166], [10.7474, 60.7231], [10.7383, 60.7224], [10.7398, 60.7168], [10.7278, 60.7181], [10.7276, 60.7241], [10.7333, 60.7283], [10.7312, 60.7348], [10.7228, 60.737], [10.7185, 60.7438], [10.7105, 60.7421], [10.7017, 60.7554], [10.6319, 60.7544], [10.6223, 60.7528], [10.6112, 60.7385], [10.6031, 60.7425], [10.5921, 60.7373], [10.5738, 60.7447], [10.5538, 60.7382], [10.5581, 60.7333], [10.5455, 60.7242], [10.5193, 60.7223], [10.5126, 60.7075]]]}}, {"type": "Feature", "properties": {"osm_type": "relation", "osm_id": 683211882, "name": "\"Østre Toten\" nor", "admin_level": "6", "kind": "subdivision_2", "parent_osm_id": 211147520, "parent_name": "Oppland", "parent_iso": "NO-05"}, "geometry": {"type": "Polygon", "coordinates": [[[10.7047, 60.7513], [10.7105, 60.7421], [10.7185, 60.7438], [10.7228, 60.737], [10.7312, 60.7348], [10.7333, 60.7283], [10.7276, 60.7241], [10.7278, 60.7181], [10.7398, 60.7168], [10.7383, 60.7224], [10.7474, 60.7231], [10.7552, 60.7166], [10.7484, 60.7116], [10.7557, 60.7123], [10.7613, 60.7081], [10.7548, 60.7065], [10.7612, 60.7068], [10.7535, 60.7015], [10.7566, 60.6958], [10.7502, 60.6946], [10.7605, 60.682], [10.7303, 60.6769], [10.735, 60.6674], [10.7178, 60.6653], [10.7117, 60.6578], [10.6861, 60.6562], [10.7063, 60.6437], [10.6856, 60.6354], [10.6733, 60.6247], [10.6813, 60.623], [10.6758, 60.6177], [10.6809, 60.617], [10.6734, 60.6134], [10.6792, 60.6093], [10.6741, 60.6075], [10.6749, 60.6033], [10.6897, 60.603], [10.6715, 60.5968], [10.6861, 60.581], [10.6816, 60.5742], [10.6861, 60.5645], [10.7076, 60.5538], [10.7053, 60.528], [10.7603, 60.494], [10.8342, 60.4785], [10.8644, 60.4796], [10.9155, 60.4748], [10.9226, 60.4706], [10.9262, 60.4758], [10.9498, 60.4784], [10.9545, 60.4848], [10.9446, 60.4874], [10.9807, 60.5001], [10.9871, 60.4976], [11.0671, 60.5187], [11.0926, 60.5168], [11.101, 60.5263], [11.0967, 60.5273], [11.0972, 60.5359], [11.1041, 60.5589], [11.113, 60.5614], [11.1078, 60.5697], [11.1166, 60.5744], [11.1195, 60.585], [11.132, 60.5964], [11.154, 60.6051], [11.124, 60.6374], [11.0984, 60.6551], [10.8987, 60.7312], [10.8585, 60.7521], [10.7791, 60.7639], [10.7448, 60.7749], [10.7195, 60.76], [10.7213, 60.752], [10.7047, 60.7513]]]}}]}