{"type": "FeatureCollection", "parent": {"osm_id": 223139, "name": "Gaziantep", "admin_level": "4", "kind": "subdivision_1", "child_kind": "subdivision_2", "iso": "TR-27"}, "features": [{"type": "Feature", "properties": {"osm_type": "relation", "osm_id": 606803325, "name": "Elbeyli", "admin_level": "6", "kind": "subdivision_2", "parent_osm_id": 223139, "parent_name": "Gaziantep", "parent_iso": "TR-27"}, "geometry": {"type": "Polygon", "coordinates": [[[37.3596, 36.7307], [37.3685, 36.72], [37.3684, 36.7079], [37.3569, 36.7089], [37.3548, 36.6993], [37.3224, 36.6991], [37.3194, 36.6645], [37.4062, 36.6439], [37.4252, 36.644], [37.4441, 36.6327], [37.4741, 36.633], [37.4871, 36.6498], [37.4886, 36.6671], [37.4953, 36.6736], [37.5727, 36.7058], [37.5545, 36.7252], [37.5442, 36.7225], [37.5393, 36.7427], [37.5312, 36.7442], [37.5168, 36.7373], [37.5086, 36.7425], [37.5072, 36.7505], [37.4914, 36.752], [37.4875, 36.7651], [37.4988, 36.7708], [37.4911, 36.7747], [37.493, 36.7841], [37.477, 36.7814], [37.458, 36.7857], [37.4468, 36.7946], [37.4493, 36.8135], [37.4338, 36.8151], [37.4094, 36.8265], [37.4047, 36.807], [37.3807, 36.8041], [37.3831, 36.7833], [37.3863, 36.7839], [37.3826, 36.7758], [37.401, 36.7688], [37.3975, 36.7595], [37.3844, 36.7488], [37.3927, 36.7285], [37.3691, 36.7238], [37.3648, 36.7327], [37.3596, 36.7307]]]}}, {"type": "Feature", "properties": {"osm_type": "relation", "osm_id": 104577162, "name": "Nizip", "admin_level": "6", "kind": "subdivision_2", "parent_osm_id": 223139, "parent_name": "Gaziantep", "parent_iso": "TR-27"}, "geometry": {"type": "Polygon", "coordinates": [[[37.6543, 37.229], [37.6297, 37.2185], [37.6201, 37.2064], [37.6114, 37.1605], [37.622, 37.1502], [37.6468, 37.146], [37.655, 37.1375], [37.6739, 37.1424], [37.6951, 37.1354], [37.7045, 37.1197], [37.6916, 37.1115], [37.6919, 37.0982], [37.6766, 37.0741], [37.672, 37.0076], [37.6644, 36.9951], [37.6642, 36.9818], [37.6829, 36.9395], [37.6705, 36.9219], [37.6707, 36.9001], [37.6798, 36.8873], [37.7218, 36.8626], [37.7358, 36.8448], [37.7373, 36.828], [37.7673, 36.8159], [37.7699, 36.8442], [37.7783, 36.8515], [37.8103, 36.8559], [37.8131, 36.8683], [37.8625, 36.8987], [37.8984, 36.9316], [37.9499, 36.9496], [38.0081, 36.9536], [38.0041, 36.9624], [37.978, 36.9733], [37.9664, 36.9869], [37.9624, 36.9995], [37.97, 37.0187], [37.9602, 37.0203], [37.9521, 37.0317], [37.9572, 37.0377], [37.9763, 37.032], [37.9813, 37.0471], [37.9777, 37.0535], [37.9603, 37.0556], [37.9398, 37.0425], [37.9228, 37.0403], [37.8949, 37.0509], [37.8695, 37.0705], [37.8692, 37.0961], [37.8783, 37.1264], [37.8757, 37.1406], [37.8442, 37.1792], [37.8352, 37.2067], [37.8403, 37.2239], [37.8565, 37.2231], [37.8747, 37.2119], [37.8824, 37.2176], [37.881, 37.2251], [37.864, 37.2441], [37.8488, 37.2499], [37.8412, 37.2639], [37.8431, 37.2721], [37.8374, 37.2741], [37.8355, 37.2684], [37.8259, 37.2652], [37.7916, 37.2716], [37.7664, 37.269], [37.7508, 37.2574], [37.7246, 37.2472], [37.6696, 37.2369], [37.6543, 37.229]]]}}, {"type": "Feature", "properties": {"osm_type": "relation", "osm_id": 606698494, "name": "Araban", "admin_level": "6", "kind": "subdivision_2", "parent_osm_id": 223139, "parent_name": "Gaziantep", "parent_iso": "TR-27"}, "geometry": {"type": "Polygon", "coordinates": [[[37.497, 37.3973], [37.5021, 37.3792], [37.5124, 37.3741], [37.5317, 37.376], [37.5565, 37.3923], [37.5827, 37.3933], [37.615, 37.376], [37.6339, 37.3728], [37.7213, 37.3777], [37.7834, 37.3719], [37.8742, 37.3426], [37.9035, 37.3595], [37.9339, 37.3863], [37.9398, 37.3995], [37.9634, 37.415], [37.9751, 37.435], [37.9895, 37.4404], [38.0105, 37.4354], [38.0372, 37.4427], [38.0626, 37.4291], [38.081, 37.4479], [38.0797, 37.4611], [38.0417, 37.4729], [38.0, 37.4755], [37.8977, 37.4662], [37.8377, 37.4698], [37.798, 37.486], [37.7478, 37.5222], [37.7195, 37.5266], [37.6495, 37.5117], [37.6401, 37.5166], [37.63, 37.5048], [37.6292, 37.488], [37.5712, 37.4775], [37.5329, 37.4258], [37.497, 37.3973]]]}}, {"type": "Feature", "properties": {"osm_type": "relation", "osm_id": 354138837, "name": "Yavuzeli", "admin_level": "6", "kind": "subdivision_2", "parent_osm_id": 223139, "parent_name": "Gaziantep", "parent_iso": "TR-27"}, "geometry": {"type": "Polygon", "coordinates": [[[37.8431, 37.2721], [37.8533, 37.2874], [37.8615, 37.3151], [37.8855, 37.3233], [37.8857, 37.3307], [37.8739, 37.3369], [37.8742, 37.3426], [37.7834, 37.3719], [37.7213, 37.3777], [37.6339, 37.3728], [37.615, 37.376], [37.5827, 37.3933], [37.571, 37.3941], [37.5565, 37.3923], [37.5212, 37.3729], [37.5021, 37.3792], [37.497, 37.3973], [37.4515, 37.3927], [37.4469, 37.3822], [37.4504, 37.3328], [37.4873, 37.2655], [37.491, 37.2378], [37.5133, 37.2242], [37.5055, 37.2182], [37.5126, 37.2104], [37.5828, 37.2469], [37.6072, 37.2441], [37.6185, 37.2342], [37.6543, 37.229], [37.6696, 37.2369], [37.7246, 37.2472], [37.7508, 37.2574], [37.7664, 37.269], [37.7916, 37.2716], [37.8259, 37.2652], [37.8355, 37.2684], [37.8374, 37.2741], [37.8431, 37.2721]]]}}, {"type": "Feature", "properties": {"osm_type": "relation", "osm_id": 329545902, "name": "Şehitkamil", "admin_level": "6", "kind": "subdivision_2", "parent_osm_id": 223139, "parent_name": "Gaziantep", "parent_iso": "TR-27"}, "geometry": {"type": "Polygon", "coordinates": [[[37.6543, 37.229], [37.6185, 37.2342], [37.6072, 37.2441], [37.5828, 37.2469], [37.5126, 37.2104], [37.5055, 37.2182], [37.5133, 37.2242], [37.491, 37.2378], [37.4873, 37.2655], [37.4504, 37.3328], [37.4451, 37.3708], [37.3762, 37.3307], [37.3373, 37.3237], [37.2973, 37.3229], [37.2816, 37.3326], [37.2455, 37.3311], [37.2306, 37.324], [37.2128, 37.2939], [37.1655, 37.254], [37.1214, 37.2342], [37.1119, 37.2166], [37.0698, 37.1949], [37.0056, 37.181], [37.0235, 37.1646], [37.0348, 37.1416], [37.0285, 37.1015], [37.0042, 37.0178], [37.0284, 37.0223], [37.0364, 37.0281], [37.035, 37.0415], [37.0187, 37.0516], [37.0245, 37.0646], [37.1992, 37.1039], [37.2146, 37.1316], [37.2591, 37.1136], [37.2673, 37.1047], [37.2909, 37.1099], [37.3035, 37.1024], [37.3028, 37.0889], [37.3148, 37.0808], [37.3037, 37.0602], [37.3111, 37.0267], [37.3345, 37.0626], [37.3638, 37.0628], [37.3897, 37.0689], [37.4182, 37.0581], [37.4296, 37.0407], [37.431, 37.0464], [37.4498, 37.0448], [37.4503, 37.0486], [37.4759, 37.0444], [37.4897, 37.0544], [37.5016, 37.0541], [37.5009, 37.063], [37.5159, 37.0625], [37.5428, 37.0474], [37.5568, 37.0318], [37.5611, 37.0107], [37.5763, 37.002], [37.6052, 36.9985], [37.6122, 37.0062], [37.6644, 36.9951], [37.672, 37.0076], [37.6766, 37.0741], [37.6919, 37.0982], [37.6916, 37.1115], [37.7045, 37.1197], [37.6951, 37.1354], [37.6739, 37.1424], [37.655, 37.1375], [37.6468, 37.146], [37.622, 37.1502], [37.6114, 37.1605], [37.6201, 37.2064], [37.6297, 37.2185], [37.6543, 37.229]]]}}, {"type": "Feature", "properties": {"osm_type": "relation", "osm_id": 861752771, "name": "Şahinbey", "admin_level": "6", "kind": "subdivision_2", "parent_osm_id": 223139, "parent_name": "Gaziantep", "parent_iso": "TR-27"}, "geometry": {"type": "Polygon", "coordinates": [[[37.4094, 36.8265], [37.4168, 36.8416], [37.4133, 36.8532], [37.4195, 36.8725], [37.4346, 36.8696], [37.456, 36.9474], [37.4453, 36.9695], [37.4502, 36.9751], [37.4425, 36.9792], [37.4422, 36.9896], [37.4313, 36.9951], [37.4429, 36.9985], [37.4632, 36.9943], [37.4747, 37.0023], [37.4949, 37.0058], [37.4988, 37.0088], [37.4939, 37.0139], [37.4975, 37.0202], [37.5042, 37.0186], [37.502, 37.0283], [37.5157, 37.0375], [37.514, 37.053], [37.5221, 37.0534], [37.5227, 37.0618], [37.5009, 37.063], [37.5016, 37.0541], [37.4897, 37.0544], [37.4759, 37.0444], [37.4503, 37.0486], [37.4498, 37.0448], [37.431, 37.0464], [37.4296, 37.0407], [37.4182, 37.0581], [37.3897, 37.0689], [37.3638, 37.0628], [37.3345, 37.0626], [37.3111, 37.0267], [37.3037, 37.0602], [37.3148, 37.0808], [37.3028, 37.0889], [37.3035, 37.1024], [37.2909, 37.1099], [37.2673, 37.1047], [37.2591, 37.1136], [37.2146, 37.1316], [37.1992, 37.1039], [37.0245, 37.0646], [37.0187, 37.0516], [37.035, 37.0415], [37.0364, 37.0281], [37.0046, 37.017], [37.0052, 37.01], [37.0175, 37.0003], [37.017, 36.996], [37.0373, 36.9938], [37.0411, 36.9999], [37.064, 36.996], [37.0664, 36.9879], [37.0491, 36.9721], [37.0648, 36.9669], [37.0666, 36.9613], [37.0723, 36.964], [37.075, 36.9535], [37.0705, 36.9552], [37.0614, 36.9452], [37.0715, 36.9383], [37.068, 36.9336], [37.0892, 36.9043], [37.1135, 36.8951], [37.1527, 36.8909], [37.1648, 36.8834], [37.2569, 36.8773], [37.2969, 36.8604], [37.3084, 36.8465], [37.3094, 36.8355], [37.3028, 36.8197], [37.3059, 36.7694], [37.3519, 36.7427], [37.3691, 36.7238], [37.3927, 36.7285], [37.3844, 36.7488], [37.3975, 36.7595], [37.401, 36.7688], [37.3826, 36.7758], [37.3863, 36.7839], [37.3831, 36.7833], [37.3807, 36.8041], [37.4047, 36.807], [37.4094, 36.8265]]]}}, {"type": "Feature", "properties": {"osm_type": "relation", "osm_id": 630706539, "name": "İslahiye", "admin_level": "6", "kind": "subdivision_2", "parent_osm_id": 223139, "parent_name": "Gaziantep", "parent_iso": "TR-27"}, "geometry": {"type": "Polygon", "coordinates": [[[36.618, 37.1411], [36.6238, 37.1261], [36.5959, 37.1031], [36.5735, 37.0925], [36.572, 37.0728], [36.5623, 37.0513], [36.5506, 37.0486], [36.5239, 37.0127], [36.4607, 36.9788], [36.4428, 36.9331], [36.4942, 36.893], [36.522, 36.8862], [36.5715, 36.864], [36.6274, 36.8539], [36.6652, 36.8268], [36.7113, 36.8255], [36.7205, 36.8573], [36.7602, 36.8802], [36.7851, 36.9071], [36.8149, 36.9199], [36.8619, 36.8918], [36.8826, 36.8959], [36.8819, 36.907], [36.8894, 36.9139], [36.8802, 36.9274], [36.9269, 36.956], [36.934, 36.9769], [36.9522, 37.0002], [36.9509, 37.0138], [36.9769, 37.0245], [36.8789, 37.0351], [36.8376, 37.0295], [36.804, 37.0336], [36.796, 37.0451], [36.7686, 37.0488], [36.7618, 37.0543], [36.7593, 37.0818], [36.7449, 37.0933], [36.697, 37.1138], [36.6612, 37.1569], [36.6565, 37.1711], [36.6462, 37.1579], [36.6257, 37.1537], [36.618, 37.1411]]]}}, {"type": "Feature", "properties": {"osm_type": "relation", "osm_id": 156401886, "name": "Oğuzeli", "admin_level": "6", "kind": "subdivision_2", "parent_osm_id": 223139, "parent_name": "Gaziantep", "parent_iso": "TR-27"}, "geometry": {"type": "Polygon", "coordinates": [[[37.5727, 36.7058], [37.622, 36.7248], [37.6593, 36.7494], [37.6827, 36.744], [37.7028, 36.7577], [37.7289, 36.7517], [37.7794, 36.749], [37.7881, 36.7525], [37.7653, 36.7888], [37.7628, 36.8007], [37.7673, 36.8159], [37.7373, 36.828], [37.7358, 36.8448], [37.7218, 36.8626], [37.6798, 36.8873], [37.6707, 36.9001], [37.6705, 36.9219], [37.6798, 36.9302], [37.6829, 36.9458], [37.6692, 36.9664], [37.6644, 36.9951], [37.6122, 37.0062], [37.6052, 36.9985], [37.5763, 37.002], [37.5611, 37.0107], [37.5568, 37.0318], [37.5227, 37.0618], [37.5221, 37.0534], [37.514, 37.053], [37.5157, 37.0375], [37.502, 37.0283], [37.5042, 37.0186], [37.4975, 37.0202], [37.4939, 37.0139], [37.4988, 37.0088], [37.4949, 37.0058], [37.4747, 37.0023], [37.4632, 36.9943], [37.4429, 36.9985], [37.4313, 36.9951], [37.4422, 36.9896], [37.4425, 36.9792], [37.4502, 36.9751], [37.4453, 36.9695], [37.456, 36.9474], [37.4346, 36.8696], [37.4195, 36.8725], [37.4133, 36.8532], [37.4168, 36.8416], [37.4094, 36.8265], [37.4338, 36.8151], [37.4493, 36.8135], [37.4468, 36.7946], [37.458, 36.7857], [37.477, 36.7814], [37.493, 36.7841], [37.4911, 36.7747], [37.4988, 36.7708], [37.4875, 36.7651], [37.4914, 36.752], [37.5072, 36.7505], [37.5086, 36.7425], [37.5168, 36.7373], [37.5312, 36.7442], [37.5393, 36.7427], [37.5442, 36.7225], [37.5545, 36.7252], [37.5727, 36.7058]]]}}, {"type": "Feature", "properties": {"osm_type": "relation", "osm_id": 937428424, "name": "Nurdağı", "admin_level": "6", "kind": "subdivision_2", "parent_osm_id": 223139, "parent_name": "Gaziantep", "parent_iso": "TR-27"}, "geometry": {"type": "Polygon", "coordinates": [[[36.6565, 37.1711], [36.6612, 37.1569], [36.697, 37.1138], [36.7449, 37.0933], [36.7593, 37.0818], [36.7618, 37.0543], [36.7686, 37.0488], [36.796, 37.0451], [36.804, 37.0336], [36.8189, 37.0302], [36.8789, 37.0351], [36.9769, 37.0245], [36.9937, 37.0346], [37.0042, 37.0314], [37.0, 37.0225], [37.0042, 37.0178], [37.0285, 37.1015], [37.0348, 37.1416], [37.0235, 37.1646], [36.9991, 37.1924], [36.9961, 37.2046], [37.0095, 37.2334], [37.0034, 37.2453], [36.9689, 37.2664], [36.9694, 37.29], [36.9423, 37.3087], [36.8906, 37.3231], [36.8795, 37.3118], [36.876, 37.2912], [36.8544, 37.2766], [36.8521, 37.2634], [36.8359, 37.2535], [36.838, 37.2434], [36.8211, 37.2438], [36.8132, 37.2344], [36.7856, 37.2375], [36.7715, 37.2284], [36.7464, 37.2369], [36.7201, 37.2187], [36.6931, 37.2162], [36.6795, 37.184], [36.6565, 37.1711]]]}}, {"type": "Feature", "properties": {"osm_type": "relation", "osm_id": 360556233, "name": "Karkamış", "admin_level": "6", "kind": "subdivision_2", "parent_osm_id": 223139, "parent_name": "Gaziantep", "parent_iso": "TR-27"}, "geometry": {"type": "Polygon", "coordinates": [[[37.7673, 36.8159], [37.7628, 36.8007], [37.7653, 36.7888], [37.7881, 36.7525], [37.7997, 36.7633], [37.9035, 36.7918], [37.9249, 36.8109], [37.9407, 36.8186], [37.9635, 36.8208], [37.9933, 36.832], [38.0157, 36.8255], [38.025, 36.8303], [38.0214, 36.8373], [38.0242, 36.8558], [38.0371, 36.8738], [38.0386, 36.8833], [38.0214, 36.8987], [38.0099, 36.9169], [38.0081, 36.9536], [37.9499, 36.9496], [37.8984, 36.9316], [37.8625, 36.8987], [37.8131, 36.8683], [37.8103, 36.8559], [37.7783, 36.8515], [37.7699, 36.8442], [37.7673, 36.8159]]]}}]}