{"type": "FeatureCollection", "parent": {"osm_id": 223450, "name": "Ordu", "admin_level": "4", "kind": "subdivision_1", "child_kind": "subdivision_2", "iso": "TR-52"}, "features": [{"type": "Feature", "properties": {"osm_type": "relation", "osm_id": 842094799, "name": "Mesudiye", "admin_level": "6", "kind": "subdivision_2", "parent_osm_id": 223450, "parent_name": "Ordu", "parent_iso": "TR-52"}, "geometry": {"type": "Polygon", "coordinates": [[[38.0121, 40.5076], [37.9878, 40.518], [37.9808, 40.534], [37.9685, 40.5442], [37.9766, 40.5551], [37.9737, 40.5675], [37.9546, 40.5587], [37.9522, 40.5513], [37.9444, 40.5747], [37.9508, 40.5785], [37.9279, 40.5778], [37.9146, 40.5846], [37.9051, 40.5981], [37.8936, 40.597], [37.8977, 40.6054], [37.8878, 40.613], [37.8923, 40.6269], [37.8823, 40.6341], [37.8806, 40.6448], [37.8491, 40.661], [37.8321, 40.6647], [37.8222, 40.6877], [37.8277, 40.6824], [37.8348, 40.6835], [37.8319, 40.6935], [37.8614, 40.715], [37.8641, 40.7255], [37.8616, 40.7308], [37.8553, 40.7282], [37.8432, 40.7325], [37.8199, 40.7266], [37.8117, 40.7289], [37.7757, 40.7163], [37.7629, 40.6929], [37.7398, 40.6873], [37.7368, 40.6722], [37.7422, 40.6616], [37.7369, 40.654], [37.6947, 40.655], [37.6969, 40.6451], [37.6923, 40.637], [37.6585, 40.6244], [37.6474, 40.6065], [37.6095, 40.6027], [37.6063, 40.5749], [37.5976, 40.5731], [37.5791, 40.5807], [37.5735, 40.5718], [37.5748, 40.5579], [37.5665, 40.5471], [37.6009, 40.54], [37.613, 40.5488], [37.6133, 40.5351], [37.6022, 40.5223], [37.6137, 40.528], [37.6219, 40.5257], [37.6212, 40.5099], [37.6135, 40.5055], [37.628, 40.499], [37.609, 40.4792], [37.6138, 40.4579], [37.6217, 40.4533], [37.6376, 40.4567], [37.6406, 40.447], [37.6358, 40.4346], [37.661, 40.4201], [37.6654, 40.4109], [37.6436, 40.3963], [37.6441, 40.3862], [37.6556, 40.3778], [37.6756, 40.3733], [37.6787, 40.3659], [37.6731, 40.3556], [37.6945, 40.3312], [37.7036, 40.3348], [37.7213, 40.3258], [37.7585, 40.3335], [37.7532, 40.3521], [37.7597, 40.3633], [37.7499, 40.3756], [37.7562, 40.3928], [37.7926, 40.3878], [37.8167, 40.3717], [37.8279, 40.351], [37.8389, 40.3427], [37.8512, 40.3439], [37.8621, 40.3514], [37.8649, 40.3605], [37.8925, 40.3755], [37.9029, 40.4023], [37.9211, 40.4243], [37.9321, 40.4295], [37.929, 40.4389], [37.9333, 40.4599], [37.9451, 40.4802], [37.9539, 40.4819], [37.9618, 40.4648], [37.9716, 40.4637], [38.0121, 40.5076]]]}}, {"type": "Feature", "properties": {"osm_type": "relation", "osm_id": 247931064, "name": "Akkuş", "admin_level": "6", "kind": "subdivision_2", "parent_osm_id": 223450, "parent_name": "Ordu", "parent_iso": "TR-52"}, "geometry": {"type": "Polygon", "coordinates": [[[36.915, 40.935], [36.9047, 40.9391], [36.9073, 40.9483], [36.897, 40.9593], [36.8848, 40.947], [36.871, 40.9492], [36.8514, 40.9446], [36.852, 40.9196], [36.8343, 40.9234], [36.8286, 40.9193], [36.799, 40.9209], [36.781, 40.9296], [36.7592, 40.9137], [36.7123, 40.9092], [36.69, 40.8884], [36.6824, 40.8869], [36.6833, 40.8823], [36.6907, 40.8847], [36.6953, 40.8788], [36.6901, 40.8721], [36.6998, 40.8671], [36.6971, 40.8647], [36.7126, 40.8394], [36.7696, 40.8312], [36.7696, 40.81], [36.7776, 40.8008], [36.8128, 40.781], [36.8509, 40.7667], [36.8564, 40.7425], [36.8407, 40.7121], [36.8662, 40.7046], [36.9172, 40.7223], [36.9427, 40.7197], [36.9581, 40.7167], [36.9714, 40.6965], [36.9941, 40.6861], [37.051, 40.7059], [37.0886, 40.7075], [37.1069, 40.7217], [37.1342, 40.7206], [37.1296, 40.7567], [37.1205, 40.7726], [37.1301, 40.7915], [37.1619, 40.8005], [37.1619, 40.8099], [37.1517, 40.8185], [37.1517, 40.8249], [37.1602, 40.83], [37.1619, 40.8403], [37.1709, 40.851], [37.1704, 40.8592], [37.1521, 40.879], [37.1326, 40.8757], [37.1169, 40.8816], [37.0951, 40.8818], [37.0659, 40.9049], [37.0204, 40.887], [36.9977, 40.8904], [36.9982, 40.8969], [36.9912, 40.8988], [36.9759, 40.8895], [36.9539, 40.8883], [36.953, 40.8932], [36.9331, 40.894], [36.9234, 40.8993], [36.9173, 40.9075], [36.915, 40.935]]]}}, {"type": "Feature", "properties": {"osm_type": "relation", "osm_id": 702028997, "name": "Gölköy", "admin_level": "6", "kind": "subdivision_2", "parent_osm_id": 223450, "parent_name": "Ordu", "parent_iso": "TR-52"}, "geometry": {"type": "Polygon", "coordinates": [[[37.7637, 40.7005], [37.7522, 40.7152], [37.7104, 40.7405], [37.7098, 40.7576], [37.6957, 40.7659], [37.6841, 40.7636], [37.6582, 40.7688], [37.6507, 40.7632], [37.6458, 40.7731], [37.6355, 40.772], [37.6374, 40.755], [37.6326, 40.752], [37.6096, 40.7553], [37.6043, 40.7478], [37.5828, 40.7434], [37.5716, 40.7507], [37.5623, 40.7428], [37.5419, 40.7399], [37.5231, 40.743], [37.5213, 40.7481], [37.5421, 40.759], [37.5449, 40.7745], [37.5093, 40.7752], [37.5095, 40.7696], [37.4989, 40.7632], [37.5113, 40.7559], [37.512, 40.7392], [37.5167, 40.7376], [37.5015, 40.7246], [37.4858, 40.7209], [37.484, 40.7095], [37.4691, 40.7114], [37.4635, 40.7046], [37.4703, 40.69], [37.4811, 40.6881], [37.4743, 40.6828], [37.4789, 40.665], [37.4716, 40.6441], [37.4641, 40.6461], [37.4572, 40.6415], [37.4656, 40.6249], [37.4594, 40.6065], [37.4518, 40.5995], [37.4778, 40.5754], [37.4799, 40.5689], [37.4739, 40.57], [37.4787, 40.5632], [37.477, 40.5556], [37.4708, 40.5491], [37.4819, 40.5413], [37.4877, 40.5455], [37.5178, 40.5321], [37.5256, 40.5362], [37.544, 40.5307], [37.5525, 40.5343], [37.571, 40.5501], [37.5735, 40.5718], [37.5791, 40.5807], [37.5976, 40.5731], [37.6063, 40.5749], [37.6095, 40.6027], [37.6474, 40.6065], [37.6585, 40.6244], [37.6923, 40.637], [37.6969, 40.6451], [37.6947, 40.655], [37.7369, 40.654], [37.7422, 40.6616], [37.7368, 40.6722], [37.7398, 40.6873], [37.7629, 40.6929], [37.7637, 40.7005]]]}}, {"type": "Feature", "properties": {"osm_type": "relation", "osm_id": 279899933, "name": "Ünye", "admin_level": "6", "kind": "subdivision_2", "parent_osm_id": 223450, "parent_name": "Ordu", "parent_iso": "TR-52"}, "geometry": {"type": "Polygon", "coordinates": [[[37.1115, 41.046], [37.1161, 41.0386], [37.1145, 41.0228], [37.1256, 41.0115], [37.1185, 40.9887], [37.0988, 40.9693], [37.0557, 40.9555], [37.0311, 40.9422], [37.0146, 40.9194], [37.0136, 40.9057], [36.9958, 40.8929], [37.0204, 40.887], [37.0659, 40.9049], [37.0951, 40.8818], [37.1169, 40.8816], [37.1326, 40.8757], [37.1521, 40.879], [37.1579, 40.873], [37.1984, 40.8833], [37.221, 40.9038], [37.2421, 40.9089], [37.2396, 40.9344], [37.2547, 40.9456], [37.2541, 40.9523], [37.2465, 40.9573], [37.2499, 40.9647], [37.289, 40.9841], [37.3013, 40.9721], [37.3837, 40.9632], [37.3981, 40.9812], [37.3808, 40.9925], [37.3832, 40.9981], [37.3936, 41.0154], [37.4039, 41.0197], [37.4123, 41.0306], [37.421, 41.0535], [37.4426, 41.0661], [37.442, 41.0764], [37.42, 41.0804], [37.4078, 41.0948], [37.387, 41.1069], [37.358, 41.108], [37.3467, 41.1103], [37.3455, 41.1149], [37.345, 41.1112], [37.3354, 41.1136], [37.3489, 41.1168], [37.3309, 41.1145], [37.2974, 41.1219], [37.2877, 41.1325], [37.2951, 41.141], [37.2925, 41.1455], [37.1699, 41.1476], [37.1682, 41.1398], [37.1579, 41.1371], [37.1625, 41.1211], [37.1484, 41.118], [37.1501, 41.1112], [37.132, 41.1068], [37.1137, 41.0851], [37.1115, 41.046]]]}}, {"type": "Feature", "properties": {"osm_type": "relation", "osm_id": 230082702, "name": "Gürgentepe", "admin_level": "6", "kind": "subdivision_2", "parent_osm_id": 223450, "parent_name": "Ordu", "parent_iso": "TR-52"}, "geometry": {"type": "Polygon", "coordinates": [[[37.677, 40.7681], [37.6847, 40.7843], [37.677, 40.789], [37.6739, 40.8024], [37.6548, 40.7928], [37.651, 40.7957], [37.649, 40.8078], [37.6554, 40.813], [37.6431, 40.8167], [37.6375, 40.8242], [37.6325, 40.8357], [37.6402, 40.8448], [37.6333, 40.8454], [37.6292, 40.855], [37.6305, 40.8604], [37.6381, 40.8625], [37.6529, 40.8607], [37.6585, 40.8547], [37.677, 40.858], [37.6844, 40.877], [37.6733, 40.8969], [37.6643, 40.897], [37.6648, 40.8894], [37.6521, 40.8873], [37.6528, 40.8991], [37.6439, 40.9012], [37.631, 40.9165], [37.6178, 40.8942], [37.6005, 40.892], [37.599, 40.8996], [37.5949, 40.8894], [37.5856, 40.8895], [37.5737, 40.8782], [37.5771, 40.8751], [37.5742, 40.8654], [37.5841, 40.8633], [37.5828, 40.8578], [37.5745, 40.8582], [37.5821, 40.8523], [37.5808, 40.8477], [37.5729, 40.8459], [37.5648, 40.8524], [37.5601, 40.8503], [37.5628, 40.8419], [37.5535, 40.8358], [37.5422, 40.832], [37.534, 40.8396], [37.5233, 40.8292], [37.514, 40.8292], [37.5143, 40.8373], [37.5028, 40.8431], [37.4904, 40.8414], [37.4884, 40.8367], [37.4579, 40.8409], [37.455, 40.832], [37.4596, 40.8131], [37.4778, 40.7936], [37.4764, 40.7842], [37.4944, 40.7725], [37.4989, 40.7632], [37.5095, 40.7696], [37.5093, 40.7752], [37.5449, 40.7745], [37.5421, 40.759], [37.5213, 40.7481], [37.5231, 40.743], [37.5546, 40.7403], [37.5716, 40.7507], [37.5828, 40.7434], [37.6043, 40.7478], [37.6096, 40.7553], [37.6326, 40.752], [37.6374, 40.755], [37.6355, 40.772], [37.6458, 40.7731], [37.6507, 40.7632], [37.6582, 40.7688], [37.677, 40.7681]]]}}, {"type": "Feature", "properties": {"osm_type": "relation", "osm_id": 544909564, "name": "Çamaş", "admin_level": "6", "kind": "subdivision_2", "parent_osm_id": 223450, "parent_name": "Ordu", "parent_iso": "TR-52"}, "geometry": {"type": "Polygon", "coordinates": [[[37.5856, 40.8895], [37.5748, 40.9091], [37.5774, 40.9225], [37.5478, 40.9345], [37.537, 40.9492], [37.5107, 40.9598], [37.5045, 40.9594], [37.5058, 40.9528], [37.4837, 40.9336], [37.4898, 40.9283], [37.4746, 40.9206], [37.4752, 40.9118], [37.469, 40.9058], [37.4902, 40.8985], [37.4925, 40.882], [37.5006, 40.8773], [37.4851, 40.8734], [37.4896, 40.8642], [37.5074, 40.8523], [37.4913, 40.8529], [37.5143, 40.8373], [37.514, 40.8292], [37.5233, 40.8292], [37.534, 40.8396], [37.5422, 40.832], [37.5535, 40.8358], [37.5628, 40.8419], [37.5601, 40.8503], [37.5648, 40.8524], [37.5729, 40.8459], [37.5808, 40.8477], [37.5821, 40.8523], [37.5745, 40.8582], [37.5828, 40.8578], [37.5841, 40.8633], [37.5742, 40.8654], [37.5771, 40.8751], [37.5737, 40.8782], [37.5856, 40.8895]]]}}, {"type": "Feature", "properties": {"osm_type": "relation", "osm_id": 451135762, "name": "Fatsa", "admin_level": "6", "kind": "subdivision_2", "parent_osm_id": 223450, "parent_name": "Ordu", "parent_iso": "TR-52"}, "geometry": {"type": "Polygon", "coordinates": [[[37.3013, 40.9721], [37.3018, 40.9615], [37.2927, 40.9564], [37.2933, 40.95], [37.3097, 40.95], [37.3114, 40.9371], [37.3369, 40.944], [37.3313, 40.9119], [37.3488, 40.9119], [37.3623, 40.9047], [37.3591, 40.8922], [37.3313, 40.8892], [37.3267, 40.8785], [37.3446, 40.8627], [37.3602, 40.8624], [37.3662, 40.8673], [37.3745, 40.8596], [37.3868, 40.8567], [37.396, 40.8616], [37.3974, 40.8739], [37.4096, 40.8799], [37.4246, 40.9035], [37.4186, 40.9163], [37.4321, 40.9199], [37.4399, 40.9164], [37.4476, 40.9245], [37.4403, 40.9285], [37.447, 40.933], [37.4673, 40.9328], [37.4781, 40.9236], [37.4868, 40.926], [37.4898, 40.9283], [37.4837, 40.9336], [37.5058, 40.9528], [37.5045, 40.9594], [37.537, 40.9492], [37.5478, 40.9345], [37.5774, 40.9225], [37.5748, 40.9091], [37.5856, 40.8895], [37.5949, 40.8894], [37.599, 40.8996], [37.6005, 40.892], [37.6178, 40.8942], [37.631, 40.9165], [37.6439, 40.9012], [37.6528, 40.8991], [37.6521, 40.8873], [37.6648, 40.8894], [37.6643, 40.897], [37.6733, 40.8969], [37.673, 40.9103], [37.6679, 40.9168], [37.6541, 40.913], [37.6499, 40.9159], [37.6431, 40.9474], [37.6423, 40.9716], [37.6527, 40.993], [37.6633, 41.002], [37.6542, 41.0137], [37.6344, 41.0065], [37.6328, 41.0305], [37.6399, 41.0352], [37.6302, 41.0437], [37.6423, 41.0501], [37.6417, 41.0588], [37.6142, 41.0643], [37.6085, 41.0512], [37.6127, 41.0516], [37.594, 41.0374], [37.5373, 41.0214], [37.5033, 41.0305], [37.4888, 41.0411], [37.4915, 41.0451], [37.4864, 41.0437], [37.4933, 41.0465], [37.4799, 41.0518], [37.4792, 41.0625], [37.442, 41.0764], [37.4426, 41.0661], [37.421, 41.0535], [37.4123, 41.0306], [37.4039, 41.0197], [37.3936, 41.0154], [37.3832, 40.9981], [37.3808, 40.9925], [37.3981, 40.9812], [37.3837, 40.9632], [37.3013, 40.9721]]]}}, {"type": "Feature", "properties": {"osm_type": "relation", "osm_id": 351280365, "name": "Altınordu", "admin_level": "6", "kind": "subdivision_2", "parent_osm_id": 223450, "parent_name": "Ordu", "parent_iso": "TR-52"}, "geometry": {"type": "Polygon", "coordinates": [[[38.0402, 40.7875], [38.0197, 40.7927], [38.019, 40.799], [38.0132, 40.8013], [38.0155, 40.806], [38.0046, 40.8171], [38.0112, 40.8359], [38.0087, 40.8462], [38.0157, 40.8555], [38.0116, 40.8665], [38.0315, 40.9083], [38.0122, 40.9468], [37.991, 40.9551], [37.9768, 40.9718], [37.9977, 40.9752], [37.9998, 40.9807], [37.8861, 40.985], [37.8761, 40.9888], [37.8794, 40.9973], [37.8726, 40.9988], [37.8654, 41.015], [37.8492, 41.0181], [37.8567, 41.0201], [37.831, 41.0206], [37.824, 41.0024], [37.8046, 40.9862], [37.7829, 40.9848], [37.7793, 40.9895], [37.7741, 40.9813], [37.762, 40.9842], [37.7533, 40.9763], [37.7268, 40.975], [37.709, 40.9859], [37.6887, 40.9732], [37.6912, 40.9625], [37.6824, 40.9439], [37.6898, 40.9312], [37.681, 40.9276], [37.6735, 40.9156], [37.6961, 40.9006], [37.7087, 40.8987], [37.723, 40.9124], [37.7319, 40.9148], [37.7455, 40.9083], [37.7718, 40.9142], [37.7853, 40.911], [37.7951, 40.9032], [37.82, 40.8955], [37.8288, 40.8751], [37.8244, 40.865], [37.8285, 40.8585], [37.8487, 40.8622], [37.8563, 40.8713], [37.8748, 40.8689], [37.8942, 40.8796], [37.9012, 40.8914], [37.9232, 40.8964], [37.9314, 40.8519], [37.9217, 40.8362], [37.9225, 40.8033], [37.9476, 40.8133], [37.9505, 40.7981], [37.9786, 40.8009], [37.9753, 40.7823], [37.9819, 40.78], [37.9796, 40.774], [37.9906, 40.7683], [37.9895, 40.7635], [38.0483, 40.7832], [38.0402, 40.7875]]]}}, {"type": "Feature", "properties": {"osm_type": "relation", "osm_id": 631953900, "name": "Perşembe", "admin_level": "6", "kind": "subdivision_2", "parent_osm_id": 223450, "parent_name": "Ordu", "parent_iso": "TR-52"}, "geometry": {"type": "Polygon", "coordinates": [[[37.6733, 40.8969], [37.6799, 40.9059], [37.6927, 40.9037], [37.6735, 40.9156], [37.681, 40.9276], [37.6898, 40.9312], [37.6824, 40.9439], [37.6912, 40.9625], [37.6887, 40.9732], [37.709, 40.9859], [37.7268, 40.975], [37.7533, 40.9763], [37.762, 40.9842], [37.7741, 40.9813], [37.7793, 40.9895], [37.7829, 40.9848], [37.7959, 40.9843], [37.8102, 40.9897], [37.824, 41.0024], [37.8311, 41.0216], [37.8032, 41.0291], [37.7999, 41.0412], [37.7856, 41.0503], [37.7725, 41.0711], [37.7872, 41.1057], [37.7866, 41.1162], [37.7724, 41.1128], [37.7515, 41.1198], [37.7317, 41.1143], [37.7044, 41.1142], [37.683, 41.1303], [37.6831, 41.1366], [37.6761, 41.128], [37.6549, 41.1174], [37.6542, 41.1094], [37.6356, 41.0857], [37.6167, 41.0696], [37.6142, 41.0643], [37.6417, 41.0588], [37.6423, 41.0501], [37.6302, 41.0437], [37.6399, 41.0352], [37.6328, 41.0305], [37.6344, 41.0065], [37.6542, 41.0137], [37.6615, 41.0088], [37.6633, 41.002], [37.6527, 40.993], [37.6423, 40.9716], [37.6431, 40.9474], [37.6499, 40.9159], [37.6541, 40.913], [37.6679, 40.9168], [37.673, 40.9103], [37.6733, 40.8969]]]}}, {"type": "Feature", "properties": {"osm_type": "relation", "osm_id": 743528661, "name": "Ulubey", "admin_level": "6", "kind": "subdivision_2", "parent_osm_id": 223450, "parent_name": "Ordu", "parent_iso": "TR-52"}, "geometry": {"type": "Polygon", "coordinates": [[[37.8616, 40.7308], [37.8652, 40.7448], [37.876, 40.752], [37.8724, 40.766], [37.8655, 40.767], [37.8755, 40.7768], [37.8712, 40.7786], [37.8736, 40.7897], [37.8649, 40.8048], [37.8532, 40.8035], [37.8297, 40.8133], [37.8262, 40.8375], [37.8054, 40.8551], [37.8147, 40.8604], [37.8285, 40.8585], [37.8244, 40.865], [37.8288, 40.8751], [37.8144, 40.8998], [37.7718, 40.9142], [37.7455, 40.9083], [37.7319, 40.9148], [37.723, 40.9124], [37.7087, 40.8987], [37.6799, 40.9059], [37.6733, 40.8969], [37.6778, 40.8946], [37.6842, 40.8717], [37.677, 40.858], [37.6585, 40.8547], [37.6529, 40.8607], [37.6305, 40.8604], [37.6314, 40.8474], [37.6402, 40.8448], [37.6325, 40.8357], [37.6375, 40.8242], [37.6431, 40.8167], [37.6554, 40.813], [37.649, 40.8078], [37.651, 40.7957], [37.6548, 40.7928], [37.6739, 40.8024], [37.677, 40.789], [37.6847, 40.7843], [37.677, 40.7681], [37.6841, 40.7636], [37.6957, 40.7659], [37.7098, 40.7576], [37.7104, 40.7405], [37.7522, 40.7152], [37.7637, 40.7005], [37.7757, 40.7163], [37.8044, 40.7269], [37.8199, 40.7266], [37.8312, 40.7321], [37.8616, 40.7308]]]}}, {"type": "Feature", "properties": {"osm_type": "relation", "osm_id": 116564277, "name": "Korgan", "admin_level": "6", "kind": "subdivision_2", "parent_osm_id": 223450, "parent_name": "Ordu", "parent_iso": "TR-52"}, "geometry": {"type": "Polygon", "coordinates": [[[37.2408, 40.6137], [37.257, 40.6082], [37.2674, 40.6194], [37.2681, 40.6301], [37.2755, 40.6365], [37.2869, 40.6378], [37.2907, 40.6426], [37.2881, 40.6489], [37.2985, 40.6527], [37.3144, 40.6748], [37.33, 40.6842], [37.3304, 40.6938], [37.3229, 40.6951], [37.3269, 40.7094], [37.3375, 40.7168], [37.3334, 40.7197], [37.3365, 40.7257], [37.3514, 40.7314], [37.3582, 40.7598], [37.3785, 40.7699], [37.3945, 40.7681], [37.4012, 40.777], [37.397, 40.7838], [37.4079, 40.786], [37.4304, 40.8269], [37.4218, 40.8315], [37.4239, 40.8383], [37.4178, 40.8394], [37.4173, 40.8498], [37.3989, 40.853], [37.3914, 40.8606], [37.3868, 40.8567], [37.3745, 40.8596], [37.3662, 40.8673], [37.3535, 40.8525], [37.3046, 40.8326], [37.2944, 40.8215], [37.2695, 40.8073], [37.2383, 40.8022], [37.2202, 40.7923], [37.1998, 40.7717], [37.1978, 40.7079], [37.2032, 40.6788], [37.2219, 40.6737], [37.2251, 40.6672], [37.2382, 40.6672], [37.2277, 40.6568], [37.2301, 40.6495], [37.2447, 40.6429], [37.2395, 40.6274], [37.2464, 40.6225], [37.2408, 40.6137]]]}}, {"type": "Feature", "properties": {"osm_type": "relation", "osm_id": 329743188, "name": "Kumru", "admin_level": "6", "kind": "subdivision_2", "parent_osm_id": 223450, "parent_name": "Ordu", "parent_iso": "TR-52"}, "geometry": {"type": "Polygon", "coordinates": [[[37.1973, 40.7228], [37.2015, 40.7309], [37.1998, 40.7717], [37.2202, 40.7923], [37.2383, 40.8022], [37.2695, 40.8073], [37.2944, 40.8215], [37.3046, 40.8326], [37.3535, 40.8525], [37.3606, 40.8595], [37.3504, 40.8652], [37.3446, 40.8627], [37.3267, 40.8785], [37.3313, 40.8892], [37.3591, 40.8922], [37.3623, 40.9047], [37.3488, 40.9119], [37.3313, 40.9119], [37.3369, 40.944], [37.3114, 40.9371], [37.3097, 40.95], [37.2933, 40.95], [37.2927, 40.9564], [37.3018, 40.9615], [37.3013, 40.9721], [37.289, 40.9841], [37.2499, 40.9647], [37.2465, 40.9573], [37.2541, 40.9523], [37.2547, 40.9456], [37.2396, 40.9344], [37.2421, 40.9089], [37.221, 40.9038], [37.1984, 40.8833], [37.1579, 40.873], [37.1704, 40.8592], [37.1709, 40.851], [37.1619, 40.8403], [37.1602, 40.83], [37.1517, 40.8249], [37.1517, 40.8185], [37.1619, 40.8099], [37.1619, 40.8005], [37.1301, 40.7915], [37.1205, 40.7726], [37.1296, 40.7567], [37.1342, 40.7206], [37.1592, 40.7203], [37.1723, 40.7296], [37.187, 40.7311], [37.1973, 40.7228]]]}}, {"type": "Feature", "properties": {"osm_type": "relation", "osm_id": 830578720, "name": "Piraziz", "admin_level": "6", "kind": "subdivision_2", "parent_osm_id": 223450, "parent_name": "Ordu", "parent_iso": "TR-52"}, "geometry": {"type": "Polygon", "coordinates": [[[38.1676, 40.9465], [38.1504, 40.9539], [38.1242, 40.9539], [38.1198, 40.9569], [38.1247, 40.9571], [38.116, 40.958], [38.1039, 40.9434], [38.0993, 40.9274], [38.0803, 40.9145], [38.078, 40.8997], [38.0507, 40.895], [38.0382, 40.8992], [38.0184, 40.8839], [38.0116, 40.8665], [38.0157, 40.8555], [38.0087, 40.8462], [38.0112, 40.8359], [38.0046, 40.8171], [38.0155, 40.806], [38.0132, 40.8013], [38.019, 40.799], [38.0197, 40.7927], [38.0402, 40.7875], [38.0552, 40.8106], [38.0876, 40.8172], [38.0978, 40.8259], [38.1122, 40.8248], [38.1373, 40.8434], [38.1388, 40.8506], [38.1448, 40.8536], [38.1409, 40.8634], [38.1462, 40.8701], [38.1269, 40.8791], [38.1248, 40.8843], [38.1346, 40.9028], [38.1438, 40.9101], [38.1551, 40.9114], [38.159, 40.9302], [38.168, 40.9379], [38.1676, 40.9465]]]}}, {"type": "Feature", "properties": {"osm_type": "relation", "osm_id": 422136985, "name": "Çatalpınar", "admin_level": "6", "kind": "subdivision_2", "parent_osm_id": 223450, "parent_name": "Ordu", "parent_iso": "TR-52"}, "geometry": {"type": "Polygon", "coordinates": [[[37.5028, 40.8431], [37.4913, 40.8529], [37.5074, 40.8523], [37.4896, 40.8642], [37.4851, 40.8734], [37.5006, 40.8773], [37.4925, 40.882], [37.4902, 40.8985], [37.469, 40.9058], [37.4781, 40.9236], [37.4673, 40.9328], [37.447, 40.933], [37.4403, 40.9285], [37.4476, 40.9245], [37.4399, 40.9164], [37.4321, 40.9199], [37.4186, 40.9163], [37.4246, 40.9035], [37.4096, 40.8799], [37.3974, 40.8739], [37.396, 40.8616], [37.3914, 40.8606], [37.3989, 40.853], [37.4173, 40.8498], [37.4178, 40.8394], [37.4239, 40.8383], [37.4218, 40.8315], [37.4304, 40.8269], [37.4124, 40.7963], [37.428, 40.7924], [37.4234, 40.7901], [37.4262, 40.7873], [37.4377, 40.7919], [37.4442, 40.7823], [37.4428, 40.7765], [37.4521, 40.767], [37.4582, 40.7696], [37.4579, 40.777], [37.4644, 40.7788], [37.4631, 40.7819], [37.4786, 40.7879], [37.4596, 40.8131], [37.455, 40.832], [37.4579, 40.8409], [37.4884, 40.8367], [37.4904, 40.8414], [37.5028, 40.8431]]]}}, {"type": "Feature", "properties": {"osm_type": "relation", "osm_id": 500242554, "name": "Gülyalı", "admin_level": "6", "kind": "subdivision_2", "parent_osm_id": 223450, "parent_name": "Ordu", "parent_iso": "TR-52"}, "geometry": {"type": "Polygon", "coordinates": [[[38.026, 40.8907], [38.0382, 40.8992], [38.0507, 40.895], [38.078, 40.8997], [38.0803, 40.9145], [38.0993, 40.9274], [38.1039, 40.9434], [38.1155, 40.9535], [38.116, 40.958], [38.0983, 40.9634], [38.1145, 40.9621], [38.0664, 40.9728], [38.0581, 40.9715], [38.074, 40.9649], [38.0453, 40.969], [37.9998, 40.9807], [37.9977, 40.9752], [37.9768, 40.9718], [37.991, 40.9551], [38.0122, 40.9468], [38.0299, 40.9167], [38.026, 40.8907]]]}}, {"type": "Feature", "properties": {"osm_type": "relation", "osm_id": 443863410, "name": "Çaybaşı", "admin_level": "6", "kind": "subdivision_2", "parent_osm_id": 223450, "parent_name": "Ordu", "parent_iso": "TR-52"}, "geometry": {"type": "Polygon", "coordinates": [[[36.953, 40.8932], [36.9539, 40.8883], [36.9759, 40.8895], [36.9839, 40.8975], [36.9982, 40.8969], [37.0105, 40.9028], [37.0146, 40.9194], [37.0311, 40.9422], [37.0557, 40.9555], [37.0988, 40.9693], [37.1185, 40.9887], [37.1256, 41.0115], [37.1145, 41.0228], [37.1161, 41.0386], [37.1068, 41.0533], [37.0814, 41.0488], [37.0776, 41.0363], [37.0598, 41.0243], [37.0511, 41.0123], [37.017, 40.9969], [37.0152, 40.9907], [37.0061, 40.9867], [36.9933, 40.9447], [36.9736, 40.9228], [36.9691, 40.906], [36.953, 40.8932]]]}}, {"type": "Feature", "properties": {"osm_type": "relation", "osm_id": 942609496, "name": "Aybastı", "admin_level": "6", "kind": "subdivision_2", "parent_osm_id": 223450, "parent_name": "Ordu", "parent_iso": "TR-52"}, "geometry": {"type": "Polygon", "coordinates": [[[37.2688, 40.6027], [37.2788, 40.6008], [37.2886, 40.6101], [37.3163, 40.5954], [37.3233, 40.5993], [37.3356, 40.595], [37.3405, 40.5991], [37.347, 40.587], [37.3617, 40.5816], [37.3669, 40.5851], [37.3754, 40.5552], [37.3866, 40.5573], [37.3859, 40.5495], [37.3934, 40.544], [37.4025, 40.5473], [37.4168, 40.5435], [37.4282, 40.5488], [37.4315, 40.5588], [37.4422, 40.5652], [37.463, 40.549], [37.4708, 40.5491], [37.477, 40.5556], [37.4787, 40.5632], [37.4739, 40.57], [37.4799, 40.5689], [37.4778, 40.5754], [37.4518, 40.5995], [37.4594, 40.6065], [37.4656, 40.6249], [37.4572, 40.6415], [37.4641, 40.6461], [37.4716, 40.6441], [37.4789, 40.665], [37.4743, 40.6828], [37.4811, 40.6881], [37.4703, 40.69], [37.4642, 40.7068], [37.4481, 40.7048], [37.4464, 40.7191], [37.4523, 40.7232], [37.4446, 40.7234], [37.439, 40.7296], [37.4242, 40.7131], [37.4114, 40.7236], [37.409, 40.735], [37.3896, 40.7388], [37.3842, 40.7452], [37.3731, 40.7356], [37.3594, 40.7381], [37.3518, 40.7311], [37.3539, 40.7163], [37.3396, 40.7181], [37.3269, 40.7094], [37.3229, 40.6951], [37.3304, 40.6938], [37.33, 40.6842], [37.3144, 40.6748], [37.2985, 40.6527], [37.2881, 40.6489], [37.2907, 40.6426], [37.2869, 40.6378], [37.2755, 40.6365], [37.2681, 40.6301], [37.2674, 40.6194], [37.2603, 40.6109], [37.2688, 40.6027]]]}}, {"type": "Feature", "properties": {"osm_type": "relation", "osm_id": 429430333, "name": "Kabataş", "admin_level": "6", "kind": "subdivision_2", "parent_osm_id": 223450, "parent_name": "Ordu", "parent_iso": "TR-52"}, "geometry": {"type": "Polygon", "coordinates": [[[37.4989, 40.7632], [37.4944, 40.7725], [37.4795, 40.7806], [37.4772, 40.7865], [37.4631, 40.7819], [37.4644, 40.7788], [37.4579, 40.777], [37.4582, 40.7696], [37.4521, 40.767], [37.4428, 40.7765], [37.4442, 40.7823], [37.4377, 40.7919], [37.4262, 40.7873], [37.4234, 40.7901], [37.428, 40.7924], [37.4141, 40.7951], [37.4079, 40.786], [37.397, 40.7838], [37.4012, 40.777], [37.3945, 40.7681], [37.3785, 40.7699], [37.3582, 40.7598], [37.3514, 40.7314], [37.3365, 40.7257], [37.3334, 40.7197], [37.3468, 40.7143], [37.3539, 40.7163], [37.3518, 40.7311], [37.3594, 40.7381], [37.3731, 40.7356], [37.3842, 40.7452], [37.3896, 40.7388], [37.409, 40.735], [37.4114, 40.7236], [37.422, 40.7138], [37.428, 40.7148], [37.4318, 40.7254], [37.439, 40.7296], [37.4446, 40.7234], [37.4523, 40.7232], [37.4464, 40.7191], [37.4481, 40.7048], [37.4549, 40.7032], [37.4712, 40.7118], [37.484, 40.7095], [37.4858, 40.7209], [37.5015, 40.7246], [37.5167, 40.7376], [37.512, 40.7392], [37.5113, 40.7559], [37.4989, 40.7632]]]}}, {"type": "Feature", "properties": {"osm_type": "relation", "osm_id": 966605779, "name": "Kabadüz", "admin_level": "6", "kind": "subdivision_2", "parent_osm_id": 223450, "parent_name": "Ordu", "parent_iso": "TR-52"}, "geometry": {"type": "Polygon", "coordinates": [[[38.1076, 40.5125], [38.1006, 40.5315], [38.0971, 40.5729], [38.0655, 40.5912], [38.0354, 40.598], [38.032, 40.6205], [38.0231, 40.6211], [38.0059, 40.6383], [38.006, 40.6478], [37.9995, 40.6572], [38.0019, 40.6662], [38.0129, 40.6725], [37.995, 40.6843], [37.9747, 40.6806], [37.9625, 40.6832], [37.9748, 40.7058], [37.9692, 40.736], [37.9604, 40.7467], [37.9683, 40.7509], [37.9717, 40.7457], [37.9807, 40.7471], [37.9814, 40.7532], [37.988, 40.7541], [37.9906, 40.7683], [37.9796, 40.774], [37.9819, 40.78], [37.9753, 40.7823], [37.9786, 40.8009], [37.9505, 40.7981], [37.9476, 40.8133], [37.9225, 40.8033], [37.9217, 40.8362], [37.9314, 40.8519], [37.9232, 40.8964], [37.9012, 40.8914], [37.8942, 40.8796], [37.8748, 40.8689], [37.8563, 40.8713], [37.8487, 40.8622], [37.8216, 40.8565], [37.8064, 40.8587], [37.8146, 40.845], [37.8262, 40.8375], [37.8297, 40.8133], [37.8532, 40.8035], [37.8649, 40.8048], [37.8736, 40.7897], [37.8712, 40.7786], [37.8755, 40.7768], [37.8664, 40.7712], [37.8655, 40.767], [37.8759, 40.7605], [37.876, 40.752], [37.8652, 40.7448], [37.8606, 40.7338], [37.8641, 40.7255], [37.8614, 40.715], [37.8319, 40.6935], [37.8348, 40.6835], [37.8277, 40.6824], [37.8222, 40.6877], [37.8321, 40.6647], [37.8491, 40.661], [37.8806, 40.6448], [37.8823, 40.6341], [37.8923, 40.6269], [37.8878, 40.613], [37.8977, 40.6054], [37.8936, 40.597], [37.9051, 40.5981], [37.9146, 40.5846], [37.9279, 40.5778], [37.9508, 40.5785], [37.9444, 40.5747], [37.9522, 40.5513], [37.9546, 40.5587], [37.9737, 40.5675], [37.9766, 40.5551], [37.9685, 40.5442], [37.996, 40.513], [38.0121, 40.5076], [38.0332, 40.5343], [38.0676, 40.5526], [38.0672, 40.5349], [38.0741, 40.5289], [38.0742, 40.5228], [38.1008, 40.5199], [38.1076, 40.5125]]]}}]}