{"type": "FeatureCollection", "parent": {"osm_id": 223537, "name": "Tunceli", "admin_level": "4", "kind": "subdivision_1", "child_kind": "subdivision_2", "iso": "TR-62"}, "features": [{"type": "Feature", "properties": {"osm_type": "relation", "osm_id": 684286425, "name": "Hozat", "admin_level": "6", "kind": "subdivision_2", "parent_osm_id": 223537, "parent_name": "Tunceli", "parent_iso": "TR-62"}, "geometry": {"type": "Polygon", "coordinates": [[[38.9369, 39.1998], [38.9583, 39.1865], [38.9799, 39.1588], [39.0396, 39.1257], [39.0701, 39.1187], [39.0803, 39.1048], [39.1054, 39.0909], [39.1096, 39.0823], [39.1045, 39.0609], [39.1129, 39.0357], [39.1056, 39.0282], [39.1373, 39.0019], [39.1348, 38.9943], [39.1729, 38.9903], [39.1907, 38.9807], [39.2242, 38.9802], [39.2488, 38.9956], [39.291, 39.0056], [39.3052, 39.0176], [39.2973, 39.0356], [39.3006, 39.0509], [39.3143, 39.0676], [39.3382, 39.08], [39.3483, 39.0931], [39.3581, 39.1197], [39.3262, 39.1349], [39.3193, 39.145], [39.3241, 39.1847], [39.3096, 39.2189], [39.2511, 39.2054], [39.234, 39.2122], [39.2211, 39.2005], [39.1662, 39.2054], [39.1188, 39.234], [39.0671, 39.2388], [39.0184, 39.2301], [38.9369, 39.1998]]]}}, {"type": "Feature", "properties": {"osm_type": "relation", "osm_id": 761600393, "name": "Ovacık", "admin_level": "6", "kind": "subdivision_2", "parent_osm_id": 223537, "parent_name": "Tunceli", "parent_iso": "TR-62"}, "geometry": {"type": "Polygon", "coordinates": [[[39.3096, 39.2189], [39.3595, 39.2352], [39.4366, 39.2393], [39.4643, 39.2468], [39.4961, 39.267], [39.6229, 39.3228], [39.6942, 39.3626], [39.666, 39.3839], [39.6141, 39.4468], [39.582, 39.4412], [39.5714, 39.4447], [39.5424, 39.4735], [39.5364, 39.4902], [39.539, 39.4993], [39.56, 39.519], [39.5568, 39.5232], [39.4934, 39.5], [39.469, 39.4977], [39.4497, 39.5066], [39.4285, 39.5016], [39.3933, 39.478], [39.3809, 39.4792], [39.3299, 39.4583], [39.2985, 39.4544], [39.2881, 39.4605], [39.2823, 39.4739], [39.2845, 39.4868], [39.2759, 39.4893], [39.197, 39.4676], [39.1228, 39.4683], [39.0949, 39.4554], [39.075, 39.4529], [39.063, 39.4278], [39.0544, 39.4205], [39.0557, 39.4096], [39.0436, 39.3841], [39.0041, 39.3504], [38.9803, 39.3382], [38.9554, 39.3525], [38.9335, 39.3242], [38.9062, 39.325], [38.8671, 39.3479], [38.8316, 39.3531], [38.8135, 39.348], [38.7978, 39.3364], [38.7893, 39.3216], [38.7859, 39.3012], [38.7947, 39.2857], [38.8039, 39.2811], [38.8599, 39.2849], [38.8889, 39.2699], [38.9394, 39.2671], [38.9425, 39.2579], [38.939, 39.2488], [38.926, 39.2394], [38.8847, 39.2259], [38.9369, 39.1998], [39.0184, 39.2301], [39.0671, 39.2388], [39.1188, 39.234], [39.1662, 39.2054], [39.2211, 39.2005], [39.234, 39.2122], [39.2511, 39.2054], [39.3096, 39.2189]]]}}, {"type": "Feature", "properties": {"osm_type": "relation", "osm_id": 457748698, "name": "Pülümür", "admin_level": "6", "kind": "subdivision_2", "parent_osm_id": 223537, "parent_name": "Tunceli", "parent_iso": "TR-62"}, "geometry": {"type": "Polygon", "coordinates": [[[40.1718, 39.5802], [40.1545, 39.5775], [40.1369, 39.5647], [40.0633, 39.5506], [40.0552, 39.5548], [40.049, 39.5522], [40.0131, 39.5681], [39.9885, 39.5649], [39.9209, 39.5831], [39.8731, 39.5891], [39.8719, 39.5937], [39.8486, 39.6014], [39.8472, 39.6069], [39.8255, 39.6045], [39.8019, 39.615], [39.794, 39.6027], [39.7959, 39.5894], [39.7888, 39.5792], [39.808, 39.5311], [39.8054, 39.5271], [39.7209, 39.4925], [39.6868, 39.4842], [39.6431, 39.458], [39.6141, 39.4468], [39.666, 39.3839], [39.6942, 39.3626], [39.7178, 39.3717], [39.7593, 39.3418], [39.7871, 39.3371], [39.9384, 39.3347], [39.9858, 39.3382], [40.0256, 39.3342], [40.055, 39.3171], [40.08, 39.3155], [40.0791, 39.3117], [40.0887, 39.3109], [40.0885, 39.3048], [40.1152, 39.3017], [40.1394, 39.3299], [40.1476, 39.3323], [40.1473, 39.3399], [40.1558, 39.3468], [40.1828, 39.3565], [40.1917, 39.3509], [40.2003, 39.3525], [40.202, 39.3569], [40.2372, 39.3678], [40.2903, 39.4451], [40.2921, 39.473], [40.2819, 39.4835], [40.2821, 39.4941], [40.3027, 39.5102], [40.3966, 39.553], [40.4038, 39.565], [40.3854, 39.5852], [40.3626, 39.5901], [40.2411, 39.5698], [40.221, 39.569], [40.1718, 39.5802]]]}}, {"type": "Feature", "properties": {"osm_type": "relation", "osm_id": 589239004, "name": "Tunceli merkez", "admin_level": "6", "kind": "subdivision_2", "parent_osm_id": 223537, "parent_name": "Tunceli", "parent_iso": "TR-62"}, "geometry": {"type": "Polygon", "coordinates": [[[39.3052, 39.0176], [39.3125, 39.0303], [39.332, 39.0418], [39.3526, 39.0332], [39.3734, 39.0158], [39.4435, 38.9816], [39.5262, 38.9587], [39.5739, 38.9003], [39.6076, 38.9065], [39.6085, 38.9278], [39.594, 38.9454], [39.5617, 38.9558], [39.5318, 38.9839], [39.517, 38.9847], [39.5104, 39.0154], [39.513, 39.0371], [39.5595, 39.051], [39.5726, 39.0481], [39.5787, 39.0416], [39.5959, 39.0427], [39.6258, 39.0345], [39.6577, 39.0429], [39.6639, 39.0503], [39.7232, 39.0608], [39.7672, 39.0787], [39.7575, 39.0818], [39.741, 39.1025], [39.7518, 39.1116], [39.7727, 39.1153], [39.7815, 39.1309], [39.7727, 39.1444], [39.7452, 39.1524], [39.7261, 39.1852], [39.7273, 39.1971], [39.7485, 39.2049], [39.7545, 39.2139], [39.7497, 39.2379], [39.7667, 39.2503], [39.7655, 39.2565], [39.7756, 39.273], [39.7767, 39.2984], [39.7837, 39.3092], [39.7828, 39.3295], [39.7871, 39.3371], [39.7593, 39.3418], [39.73, 39.3665], [39.7178, 39.3717], [39.7078, 39.3702], [39.6807, 39.3517], [39.4961, 39.267], [39.4643, 39.2468], [39.4366, 39.2393], [39.3595, 39.2352], [39.3096, 39.2189], [39.3241, 39.1847], [39.3193, 39.145], [39.3262, 39.1349], [39.3581, 39.1197], [39.3483, 39.0931], [39.3382, 39.08], [39.3143, 39.0676], [39.3006, 39.0509], [39.2973, 39.0356], [39.3052, 39.0176]]]}}, {"type": "Feature", "properties": {"osm_type": "relation", "osm_id": 951341860, "name": "Çemişgezek", "admin_level": "6", "kind": "subdivision_2", "parent_osm_id": 223537, "parent_name": "Tunceli", "parent_iso": "TR-62"}, "geometry": {"type": "Polygon", "coordinates": [[[38.9369, 39.1998], [38.8847, 39.2259], [38.7671, 39.2134], [38.7487, 39.2041], [38.7467, 39.1964], [38.7518, 39.1839], [38.7697, 39.1855], [38.7735, 39.1752], [38.759, 39.146], [38.734, 39.1382], [38.7336, 39.1162], [38.7448, 39.1087], [38.7431, 39.0762], [38.75, 39.045], [38.7668, 39.0042], [38.7704, 38.9997], [38.7786, 39.002], [38.7889, 38.9969], [38.7917, 38.9773], [38.7797, 38.969], [38.7924, 38.9577], [38.7757, 38.9475], [38.7665, 38.9356], [38.7514, 38.9288], [38.7534, 38.9096], [38.7414, 38.8864], [38.8128, 38.8748], [38.8567, 38.8787], [38.9157, 38.8939], [39.0042, 38.8905], [39.0159, 38.9437], [39.0277, 38.9457], [39.0503, 38.9652], [39.0541, 38.9782], [39.1129, 39.0357], [39.1045, 39.0609], [39.1096, 39.0823], [39.1054, 39.0909], [39.0803, 39.1048], [39.0701, 39.1187], [39.0396, 39.1257], [38.9799, 39.1588], [38.9583, 39.1865], [38.9369, 39.1998]]]}}, {"type": "Feature", "properties": {"osm_type": "relation", "osm_id": 599467300, "name": "Pertek", "admin_level": "6", "kind": "subdivision_2", "parent_osm_id": 223537, "parent_name": "Tunceli", "parent_iso": "TR-62"}, "geometry": {"type": "Polygon", "coordinates": [[[39.1056, 39.0282], [39.0541, 38.9782], [39.0503, 38.9652], [39.0277, 38.9457], [39.0159, 38.9437], [39.0042, 38.8905], [39.0414, 38.8829], [39.0703, 38.8895], [39.108, 38.8726], [39.1253, 38.8763], [39.2053, 38.8568], [39.2608, 38.8584], [39.2646, 38.8438], [39.3108, 38.8182], [39.3708, 38.8045], [39.3853, 38.7901], [39.3936, 38.7732], [39.4036, 38.7721], [39.4287, 38.7869], [39.4368, 38.7861], [39.4482, 38.7709], [39.4837, 38.7632], [39.5086, 38.7686], [39.5119, 38.7739], [39.5067, 38.7876], [39.5233, 38.7991], [39.5199, 38.8061], [39.5312, 38.8175], [39.5476, 38.8086], [39.5834, 38.8251], [39.5845, 38.8507], [39.5983, 38.865], [39.5996, 38.8768], [39.6073, 38.8875], [39.6076, 38.9065], [39.5739, 38.9003], [39.5262, 38.9587], [39.4435, 38.9816], [39.3734, 39.0158], [39.3526, 39.0332], [39.332, 39.0418], [39.3125, 39.0303], [39.291, 39.0056], [39.2488, 38.9956], [39.2242, 38.9802], [39.1907, 38.9807], [39.1729, 38.9903], [39.1348, 38.9943], [39.1373, 39.0019], [39.1056, 39.0282]]]}}, {"type": "Feature", "properties": {"osm_type": "relation", "osm_id": 407297184, "name": "Mazgirt", "admin_level": "6", "kind": "subdivision_2", "parent_osm_id": 223537, "parent_name": "Tunceli", "parent_iso": "TR-62"}, "geometry": {"type": "Polygon", "coordinates": [[[39.6076, 38.9065], [39.6073, 38.8875], [39.5996, 38.8768], [39.5996, 38.8681], [39.5845, 38.8507], [39.5834, 38.8251], [39.5968, 38.8115], [39.612, 38.8174], [39.6457, 38.8176], [39.6654, 38.8037], [39.7037, 38.8003], [39.6916, 38.8096], [39.6939, 38.82], [39.7181, 38.834], [39.7984, 38.8211], [39.7979, 38.8482], [39.8181, 38.8589], [39.8191, 38.8695], [39.828, 38.8793], [39.8487, 38.882], [39.8509, 38.8909], [39.8421, 38.8968], [39.8595, 38.9018], [39.874, 38.9156], [39.8678, 38.9394], [39.8768, 38.9451], [39.8722, 38.9508], [39.8875, 38.9735], [39.8827, 38.9808], [39.8908, 38.9882], [39.8882, 38.9967], [39.897, 38.9989], [39.902, 39.0086], [39.8976, 39.0184], [39.8785, 39.0309], [39.8742, 39.0427], [39.8652, 39.0442], [39.8631, 39.0537], [39.8276, 39.0666], [39.7672, 39.0787], [39.7232, 39.0608], [39.6639, 39.0503], [39.6577, 39.0429], [39.6258, 39.0345], [39.5959, 39.0427], [39.5787, 39.0416], [39.5726, 39.0481], [39.5595, 39.051], [39.5431, 39.0482], [39.513, 39.0371], [39.5122, 38.9935], [39.517, 38.9847], [39.5318, 38.9839], [39.5617, 38.9558], [39.594, 38.9454], [39.6085, 38.9278], [39.6076, 38.9065]]]}}, {"type": "Feature", "properties": {"osm_type": "relation", "osm_id": 894274346, "name": "Nazımiye", "admin_level": "6", "kind": "subdivision_2", "parent_osm_id": 223537, "parent_name": "Tunceli", "parent_iso": "TR-62"}, "geometry": {"type": "Polygon", "coordinates": [[[39.7871, 39.3371], [39.7828, 39.3295], [39.7837, 39.3092], [39.7767, 39.2984], [39.7756, 39.273], [39.7655, 39.2565], [39.7667, 39.2503], [39.7497, 39.2379], [39.7545, 39.2139], [39.7485, 39.2049], [39.7273, 39.1971], [39.7261, 39.1852], [39.7452, 39.1524], [39.7727, 39.1444], [39.7815, 39.1309], [39.7727, 39.1153], [39.7518, 39.1116], [39.741, 39.1025], [39.7575, 39.0818], [39.8276, 39.0666], [39.8631, 39.0537], [39.8899, 39.0709], [39.8946, 39.0856], [39.9051, 39.0852], [39.9093, 39.0972], [39.9346, 39.101], [39.9523, 39.1217], [39.9441, 39.1898], [39.9536, 39.1886], [39.9819, 39.208], [39.9925, 39.2388], [40.0303, 39.27], [40.0336, 39.2775], [40.0215, 39.3101], [40.0422, 39.3224], [40.0256, 39.3342], [39.9858, 39.3382], [39.9384, 39.3347], [39.7871, 39.3371]]]}}]}