{"type": "FeatureCollection", "parent": {"osm_id": 2269770, "name": "Nueva Esparta State", "admin_level": "4", "kind": "subdivision_1", "child_kind": "subdivision_2", "iso": "VE-O"}, "features": [{"type": "Feature", "properties": {"osm_type": "relation", "osm_id": 235419751, "name": "Antolín del Campo", "admin_level": "6", "kind": "subdivision_2", "parent_osm_id": 2269770, "parent_name": "Nueva Esparta State", "parent_iso": "VE-O"}, "geometry": {"type": "Polygon", "coordinates": [[[-63.9152, 11.1367], [-63.8956, 11.1327], [-63.8885, 11.1236], [-63.8878, 11.1051], [-63.9049, 11.0919], [-63.9006, 11.0817], [-63.8878, 11.0796], [-63.8871, 11.058], [-63.8223, 11.0596], [-63.8467, 11.1118], [-63.843, 11.1237], [-63.8747, 11.1523], [-63.8824, 11.1767], [-63.891, 11.1705], [-63.8944, 11.1545], [-63.9078, 11.1513], [-63.9099, 11.1404], [-63.9152, 11.1367]]]}}, {"type": "Feature", "properties": {"osm_type": "relation", "osm_id": 788576912, "name": "Díaz", "admin_level": "6", "kind": "subdivision_2", "parent_osm_id": 2269770, "parent_name": "Nueva Esparta State", "parent_iso": "VE-O"}, "geometry": {"type": "Polygon", "coordinates": [[[-63.956, 11.0358], [-63.9586, 11.0279], [-63.9698, 11.027], [-63.9811, 11.0193], [-64.0165, 11.0453], [-64.0161, 11.0285], [-64.0249, 11.0165], [-64.0233, 10.9987], [-64.0363, 10.9868], [-63.9932, 10.8892], [-63.9803, 10.8955], [-63.9626, 10.8935], [-63.9461, 10.8987], [-63.955, 10.9017], [-63.9445, 10.9068], [-63.9493, 10.9153], [-63.9588, 10.9182], [-63.954, 10.9207], [-63.9548, 10.9275], [-63.9427, 10.9243], [-63.9459, 10.9705], [-63.9365, 10.9899], [-63.9137, 10.9937], [-63.9013, 11.0151], [-63.9296, 11.0342], [-63.9456, 11.0303], [-63.956, 11.0358]]]}}, {"type": "Feature", "properties": {"osm_type": "relation", "osm_id": 242824307, "name": "García", "admin_level": "6", "kind": "subdivision_2", "parent_osm_id": 2269770, "parent_name": "Nueva Esparta State", "parent_iso": "VE-O"}, "geometry": {"type": "Polygon", "coordinates": [[[-63.9427, 10.9243], [-63.923, 10.9215], [-63.9298, 10.9139], [-63.9217, 10.9107], [-63.9118, 10.9148], [-63.9026, 10.9105], [-63.9186, 10.9], [-63.9377, 10.9083], [-63.9426, 10.9035], [-63.9354, 10.8931], [-63.9403, 10.8912], [-63.8983, 10.8798], [-63.9044, 10.9477], [-63.8817, 10.961], [-63.8708, 10.9564], [-63.8618, 10.9604], [-63.8666, 10.971], [-63.8488, 10.9812], [-63.8513, 10.9925], [-63.8675, 10.993], [-63.873, 11.0007], [-63.8853, 10.9988], [-63.8875, 11.0038], [-63.9365, 10.9899], [-63.9459, 10.9705], [-63.9427, 10.9243]]]}}, {"type": "Feature", "properties": {"osm_type": "relation", "osm_id": 667362624, "name": "Gómez", "admin_level": "6", "kind": "subdivision_2", "parent_osm_id": 2269770, "parent_name": "Nueva Esparta State", "parent_iso": "VE-O"}, "geometry": {"type": "Polygon", "coordinates": [[[-63.9152, 11.1367], [-63.9264, 11.1225], [-63.9358, 11.1225], [-63.9369, 11.1149], [-63.9505, 11.1088], [-63.9793, 11.1077], [-63.9511, 11.0566], [-63.956, 11.0358], [-63.9456, 11.0303], [-63.9296, 11.0342], [-63.9013, 11.0151], [-63.8869, 11.0362], [-63.8878, 11.0796], [-63.9006, 11.0817], [-63.9049, 11.0919], [-63.8878, 11.1051], [-63.887, 11.1137], [-63.8956, 11.1327], [-63.9152, 11.1367]]]}}, {"type": "Feature", "properties": {"osm_type": "relation", "osm_id": 240604049, "name": "Maneiro", "admin_level": "6", "kind": "subdivision_2", "parent_osm_id": 2269770, "parent_name": "Nueva Esparta State", "parent_iso": "VE-O"}, "geometry": {"type": "Polygon", "coordinates": [[[-63.8488, 10.9812], [-63.8103, 10.9765], [-63.7996, 10.9941], [-63.7794, 10.9951], [-63.8046, 11.0301], [-63.8169, 11.0289], [-63.8392, 11.0149], [-63.8489, 11.0136], [-63.8573, 11.0036], [-63.8602, 10.9929], [-63.8513, 10.9925], [-63.8488, 10.9812]]]}}, {"type": "Feature", "properties": {"osm_type": "relation", "osm_id": 717910086, "name": "Marcano", "admin_level": "6", "kind": "subdivision_2", "parent_osm_id": 2269770, "parent_name": "Nueva Esparta State", "parent_iso": "VE-O"}, "geometry": {"type": "Polygon", "coordinates": [[[-63.956, 11.0358], [-63.9511, 11.0566], [-63.9793, 11.1077], [-63.9844, 11.0939], [-63.9788, 11.092], [-63.9812, 11.0831], [-63.9761, 11.0829], [-63.9748, 11.0775], [-63.9948, 11.0667], [-64.0127, 11.0657], [-64.0179, 11.0479], [-63.9811, 11.0193], [-63.9698, 11.027], [-63.9586, 11.0279], [-63.956, 11.0358]]]}}, {"type": "Feature", "properties": {"osm_type": "relation", "osm_id": 553409917, "name": "Península de Macanao", "admin_level": "6", "kind": "subdivision_2", "parent_osm_id": 2269770, "parent_name": "Nueva Esparta State", "parent_iso": "VE-O"}, "geometry": {"type": "Polygon", "coordinates": [[[-64.1698, 11.0135], [-64.2073, 11.0496], [-64.1971, 11.0657], [-64.1969, 11.0808], [-64.2172, 11.0828], [-64.228, 11.0743], [-64.2462, 11.0704], [-64.2499, 11.0646], [-64.2703, 11.0603], [-64.2994, 11.0687], [-64.3008, 11.0626], [-64.3148, 11.061], [-64.3163, 11.0555], [-64.3374, 11.0539], [-64.3499, 11.0457], [-64.362, 11.0504], [-64.3846, 11.0404], [-64.385, 11.0282], [-64.3781, 11.0262], [-64.3785, 11.0171], [-64.3845, 11.0007], [-64.4043, 10.9833], [-64.4097, 10.9695], [-64.4006, 10.9718], [-64.3403, 10.9533], [-64.3187, 10.9548], [-64.297, 10.9431], [-64.2234, 10.9375], [-64.2098, 10.9314], [-64.1863, 10.9462], [-64.1816, 10.9617], [-64.1689, 10.9767], [-64.1698, 11.0135]]]}}, {"type": "Feature", "properties": {"osm_type": "relation", "osm_id": 568165600, "name": "Villalba", "admin_level": "6", "kind": "subdivision_2", "parent_osm_id": 2269770, "parent_name": "Nueva Esparta State", "parent_iso": "VE-O"}, "geometry": {"type": "Polygon", "coordinates": [[[-63.9327, 10.7892], [-64.0011, 10.8081], [-63.9941, 10.7874], [-64.0064, 10.7707], [-63.9831, 10.7615], [-63.9652, 10.7603], [-63.9588, 10.7544], [-63.9548, 10.7572], [-63.9483, 10.7442], [-63.9647, 10.746], [-63.9456, 10.7408], [-63.9265, 10.7276], [-63.9007, 10.7309], [-63.8958, 10.7542], [-63.918, 10.7872], [-63.9327, 10.7892]]]}}, {"type": "Feature", "properties": {"osm_type": "relation", "osm_id": 124681694, "name": "Arismendi", "admin_level": "6", "kind": "subdivision_2", "parent_osm_id": 2269770, "parent_name": "Nueva Esparta State", "parent_iso": "VE-O"}, "geometry": {"type": "Polygon", "coordinates": [[[-63.8871, 11.058], [-63.8869, 11.0362], [-63.8971, 11.026], [-63.8963, 11.0193], [-63.9137, 10.9937], [-63.8875, 11.0038], [-63.8853, 10.9988], [-63.873, 11.0007], [-63.8675, 10.993], [-63.8602, 10.9929], [-63.8489, 11.0136], [-63.8392, 11.0149], [-63.8169, 11.0289], [-63.8046, 11.0301], [-63.8223, 11.0596], [-63.8871, 11.058]]]}}]}