{"type": "FeatureCollection", "parent": {"osm_id": 2269815, "name": "Amazonas State", "admin_level": "4", "kind": "subdivision_1", "child_kind": "subdivision_2", "iso": "VE-Z"}, "features": [{"type": "Feature", "properties": {"osm_type": "relation", "osm_id": 425502059, "name": "Autónomo Alto Orinoco", "admin_level": "6", "kind": "subdivision_2", "parent_osm_id": 2269815, "parent_name": "Amazonas State", "parent_iso": "VE-Z"}, "geometry": {"type": "Polygon", "coordinates": [[[-65.9302, 4.0827], [-66.0, 3.9914], [-66.0142, 3.9846], [-66.0538, 3.943], [-66.0927, 3.9225], [-66.1235, 3.8976], [-66.1585, 3.8594], [-66.1753, 3.828], [-66.1175, 3.7099], [-66.0356, 3.6145], [-66.0175, 3.5802], [-66.0138, 3.5158], [-66.0365, 3.4504], [-66.037, 3.4103], [-66.0569, 3.3651], [-66.0528, 3.3302], [-66.039, 3.2916], [-66.0461, 3.2774], [-66.0808, 3.2403], [-66.0819, 3.2214], [-66.0624, 3.1841], [-66.0422, 3.1599], [-66.0234, 3.148], [-66.0172, 3.1352], [-65.965, 3.1153], [-65.9488, 3.1234], [-65.9332, 3.1427], [-65.9156, 3.1478], [-65.9052, 3.1428], [-65.8998, 3.1246], [-65.8861, 3.111], [-65.8912, 3.1], [-65.8902, 3.0837], [-65.9014, 3.0802], [-65.9122, 3.0848], [-65.9219, 3.0393], [-65.9303, 3.0414], [-65.9389, 3.0276], [-65.9885, 3.001], [-65.9964, 2.9757], [-65.9936, 2.9376], [-65.9711, 2.9083], [-65.9732, 2.8925], [-65.9691, 2.8814], [-65.9625, 2.8759], [-65.9591, 2.8928], [-65.9458, 2.8865], [-65.9468, 2.8757], [-65.9229, 2.83], [-65.9222, 2.8162], [-65.8956, 2.8169], [-65.8668, 2.8028], [-65.852, 2.8074], [-65.8367, 2.8057], [-65.7958, 2.742], [-65.7848, 2.7391], [-65.7834, 2.7427], [-65.762, 2.735], [-65.7528, 2.7395], [-65.7317, 2.7197], [-65.7068, 2.7219], [-65.7002, 2.7265], [-65.6919, 2.7398], [-65.6877, 2.7622], [-65.673, 2.7623], [-65.6695, 2.7517], [-65.6406, 2.7707], [-65.6341, 2.7692], [-65.6316, 2.7622], [-65.6177, 2.7649], [-65.5864, 2.7381], [-65.5773, 2.7192], [-65.5603, 2.7005], [-65.552, 2.6641], [-65.5163, 2.608], [-65.5139, 2.5871], [-65.5323, 2.5449], [-65.522, 2.5256], [-65.5086, 2.5144], [-65.507, 2.5029], [-65.4857, 2.4806], [-65.4648, 2.4752], [-65.4421, 2.4582], [-65.435, 2.4411], [-65.3977, 2.4011], [-65.3771, 2.4108], [-65.3704, 2.4082], [-65.3535, 2.3779], [-65.3503, 2.3555], [-65.3675, 2.25], [-65.3816, 2.2131], [-65.415, 2.1511], [-65.4422, 2.0766], [-65.4445, 2.0462], [-65.4292, 2.0041], [-65.4356, 1.9681], [-65.4537, 1.929], [-65.4483, 1.8647], [-65.4721, 1.8144], [-65.4909, 1.7525], [-65.537, 1.6893], [-65.5401, 1.6773], [-65.5358, 1.6488], [-65.5275, 1.632], [-65.4456, 1.5747], [-65.4152, 1.5283], [-65.3395, 1.4999], [-65.3224, 1.4992], [-65.2754, 1.5086], [-65.1907, 1.5724], [-65.1766, 1.5893], [-65.1575, 1.6464], [-65.1235, 1.6845], [-64.9756, 1.7945], [-64.9029, 1.8397], [-64.864, 1.8734], [-64.7972, 1.9072], [-64.7702, 1.948], [-64.7529, 1.9995], [-64.7227, 2.0169], [-64.7012, 2.0104], [-64.6803, 1.9803], [-64.6407, 1.9609], [-64.6107, 1.9385], [-64.5724, 1.9306], [-64.5256, 1.9323], [-64.4596, 1.9528], [-64.4196, 1.9563], [-64.4048, 1.969], [-64.3987, 1.9907], [-64.3629, 2.0046], [-64.3448, 2.0011], [-64.2372, 2.004], [-64.2107, 1.9974], [-64.156, 1.9964], [-64.097, 1.9597], [-64.0847, 1.9473], [-64.055, 1.9319], [-63.9718, 1.9875], [-63.9558, 1.9871], [-63.9299, 1.9756], [-63.8927, 1.982], [-63.8551, 1.9577], [-63.8214, 1.9842], [-63.7797, 1.978], [-63.759, 1.9799], [-63.7417, 2.0006], [-63.7302, 2.0295], [-63.7202, 2.0373], [-63.705, 2.0361], [-63.6903, 2.009], [-63.669, 2.0112], [-63.6556, 2.0195], [-63.6496, 2.0277], [-63.6409, 2.073], [-63.6296, 2.0892], [-63.6122, 2.1003], [-63.554, 2.1214], [-63.5235, 2.1005], [-63.4763, 2.1296], [-63.4512, 2.1227], [-63.4289, 2.1223], [-63.401, 2.1302], [-63.4001, 2.1695], [-63.3935, 2.1962], [-63.3809, 2.2161], [-63.3574, 2.238], [-63.3744, 2.3272], [-63.3598, 2.3738], [-63.3589, 2.3832], [-63.3631, 2.3875], [-63.4352, 2.3983], [-63.4735, 2.4177], [-63.5809, 2.4212], [-63.6559, 2.4526], [-63.6778, 2.4493], [-63.7244, 2.4268], [-63.7688, 2.4214], [-63.7994, 2.4048], [-63.8457, 2.3953], [-63.8792, 2.4075], [-63.9292, 2.4477], [-63.9545, 2.4616], [-63.9898, 2.4667], [-64.0219, 2.4585], [-64.0524, 2.4781], [-64.0642, 2.5007], [-64.064, 2.5209], [-64.0464, 2.5683], [-64.0228, 2.5849], [-63.9992, 2.6295], [-63.9976, 2.6601], [-64.0093, 2.6904], [-63.9939, 2.7059], [-63.9927, 2.7129], [-64.0085, 2.7341], [-64.0074, 2.7577], [-64.0232, 2.7905], [-64.0211, 2.8092], [-64.0432, 2.8098], [-64.0485, 2.8142], [-64.0521, 2.8371], [-64.0782, 2.892], [-64.0739, 2.911], [-64.0881, 2.9173], [-64.1062, 2.9517], [-64.1264, 2.9696], [-64.1387, 2.9893], [-64.1355, 3.0074], [-64.1384, 3.0272], [-64.1689, 3.0632], [-64.1959, 3.0749], [-64.2035, 3.0881], [-64.2039, 3.1082], [-64.2225, 3.1171], [-64.2265, 3.1237], [-64.2221, 3.1428], [-64.1722, 3.171], [-64.1488, 3.1968], [-64.151, 3.2375], [-64.1291, 3.2544], [-64.1199, 3.273], [-64.1132, 3.2766], [-64.1111, 3.2881], [-64.1168, 3.2981], [-64.138, 3.3045], [-64.1416, 3.3246], [-64.119, 3.3254], [-64.1176, 3.3325], [-64.1405, 3.3805], [-64.1577, 3.439], [-64.1721, 3.4493], [-64.1999, 3.4512], [-64.2194, 3.4853], [-64.2051, 3.5226], [-64.2002, 3.5619], [-64.2169, 3.6017], [-64.2137, 3.6251], [-64.2172, 3.6496], [-64.2318, 3.6664], [-64.2425, 3.6701], [-64.2785, 3.6585], [-64.2998, 3.7067], [-64.3301, 3.7154], [-64.4142, 3.7764], [-64.4252, 3.7744], [-64.4401, 3.7796], [-64.4668, 3.8269], [-64.5023, 3.8482], [-64.5137, 3.8427], [-64.5236, 3.8607], [-64.5563, 3.8919], [-64.5596, 3.8992], [-64.5531, 3.9157], [-64.6164, 3.9635], [-64.6321, 3.9931], [-64.6405, 3.9995], [-64.6645, 3.9967], [-64.6847, 4.0104], [-64.7053, 4.016], [-64.7072, 4.0248], [-64.6882, 4.039], [-64.6934, 4.0583], [-64.7232, 4.0397], [-64.7359, 4.0397], [-64.7502, 4.0464], [-64.7733, 4.0798], [-64.7597, 4.0953], [-64.7588, 4.11], [-64.7451, 4.1265], [-64.7476, 4.1333], [-64.7668, 4.1382], [-64.7795, 4.1502], [-64.8031, 4.1597], [-64.8635, 4.1345], [-64.9226, 4.1209], [-64.9313, 4.1108], [-64.9327, 4.0908], [-64.9432, 4.0759], [-64.9735, 4.0619], [-65.0165, 4.0214], [-65.0418, 4.0161], [-65.053, 4.0274], [-65.0584, 4.0643], [-65.0717, 4.0925], [-65.093, 4.1042], [-65.123, 4.1128], [-65.201, 4.108], [-65.2416, 4.125], [-65.2674, 4.1641], [-65.2794, 4.2151], [-65.3446, 4.2982], [-65.3606, 4.314], [-65.4032, 4.3423], [-65.4278, 4.3513], [-65.4667, 4.3534], [-65.5097, 4.3438], [-65.5402, 4.3268], [-65.5479, 4.2797], [-65.5581, 4.2571], [-65.6094, 4.1934], [-65.6458, 4.1306], [-65.6753, 4.0971], [-65.6948, 4.0945], [-65.7085, 4.1082], [-65.7203, 4.1403], [-65.7325, 4.1452], [-65.8148, 4.1111], [-65.9302, 4.0827]]]}}, {"type": "Feature", "properties": {"osm_type": "relation", "osm_id": 490591263, "name": "Autónomo Atabapo", "admin_level": "6", "kind": "subdivision_2", "parent_osm_id": 2269815, "parent_name": "Amazonas State", "parent_iso": "VE-Z"}, "geometry": {"type": "Polygon", "coordinates": [[[-65.9302, 4.0827], [-65.9538, 4.0796], [-66.0094, 4.0843], [-66.0419, 4.0805], [-66.0786, 4.0898], [-66.1047, 4.1067], [-66.135, 4.1543], [-66.1661, 4.1792], [-66.1836, 4.1867], [-66.2295, 4.1942], [-66.2851, 4.2206], [-66.3007, 4.2364], [-66.3247, 4.2793], [-66.3283, 4.3542], [-66.3421, 4.3907], [-66.3775, 4.4254], [-66.4297, 4.4552], [-66.4558, 4.4955], [-66.4706, 4.5497], [-66.5032, 4.5733], [-66.5109, 4.5864], [-66.5271, 4.649], [-66.5039, 4.7332], [-66.5129, 4.7405], [-66.5547, 4.745], [-66.5647, 4.7646], [-66.5654, 4.7848], [-66.5728, 4.8066], [-66.6088, 4.831], [-66.6203, 4.8311], [-66.6334, 4.8204], [-66.6505, 4.7828], [-66.6794, 4.7584], [-66.6896, 4.7341], [-66.7019, 4.7218], [-66.7702, 4.6935], [-66.8374, 4.6771], [-66.8661, 4.6568], [-66.877, 4.6361], [-66.8754, 4.6292], [-66.8659, 4.6247], [-66.8255, 4.6273], [-66.7658, 4.6462], [-66.7572, 4.6436], [-66.7588, 4.6144], [-66.7728, 4.5825], [-66.8263, 4.5119], [-66.8679, 4.4747], [-66.9379, 4.4375], [-66.9733, 4.4112], [-67.0213, 4.3405], [-67.037, 4.2797], [-67.06, 4.2509], [-67.097, 4.2368], [-67.1448, 4.2358], [-67.1594, 4.231], [-67.1836, 4.2116], [-67.2198, 4.171], [-67.2774, 4.1441], [-67.3259, 4.0942], [-67.356, 4.0954], [-67.4078, 4.1194], [-67.5044, 4.127], [-67.5619, 4.1498], [-67.58, 4.1641], [-67.6059, 4.2018], [-67.6275, 4.2639], [-67.6244, 4.2983], [-67.6294, 4.3146], [-67.6537, 4.3543], [-67.6992, 4.3904], [-67.7362, 4.4461], [-67.7912, 4.4962], [-67.8552, 4.5229], [-67.8811, 4.5238], [-67.8779, 4.5119], [-67.864, 4.4951], [-67.8309, 4.4757], [-67.8233, 4.4593], [-67.8198, 4.4294], [-67.7996, 4.4096], [-67.8042, 4.3756], [-67.787, 4.3368], [-67.8051, 4.2994], [-67.8098, 4.2592], [-67.8087, 4.2088], [-67.7838, 4.1585], [-67.755, 4.1332], [-67.7379, 4.1017], [-67.7038, 4.005], [-67.7034, 3.9211], [-67.6769, 3.8911], [-67.6563, 3.8492], [-67.6564, 3.819], [-67.6424, 3.7817], [-67.6139, 3.7486], [-67.5393, 3.7532], [-67.5164, 3.7745], [-67.5001, 3.7637], [-67.4844, 3.7365], [-67.4801, 3.7041], [-67.4688, 3.6844], [-67.4522, 3.6753], [-67.4537, 3.6539], [-67.4416, 3.6365], [-67.4456, 3.5913], [-67.4317, 3.5757], [-67.4277, 3.5575], [-67.4062, 3.5338], [-67.3974, 3.4804], [-67.39, 3.4699], [-67.3561, 3.4599], [-67.3363, 3.4453], [-67.3113, 3.3907], [-67.3085, 3.3741], [-67.3208, 3.3633], [-67.3319, 3.3283], [-67.3734, 3.2919], [-67.3804, 3.2585], [-67.3788, 3.2285], [-67.3581, 3.2366], [-67.3362, 3.2042], [-67.3223, 3.1386], [-67.3064, 3.1359], [-67.2806, 3.1081], [-67.238, 3.0913], [-67.2075, 3.0991], [-67.1896, 3.1245], [-67.1622, 3.117], [-67.1592, 3.1359], [-67.1087, 3.1323], [-67.0995, 3.1201], [-67.0806, 3.1272], [-67.0762, 3.1206], [-67.0671, 3.122], [-67.0638, 3.1163], [-67.0677, 3.1066], [-67.0586, 3.0998], [-67.0567, 3.088], [-67.0501, 3.0876], [-67.0453, 3.0694], [-67.0276, 3.0802], [-67.0106, 3.1085], [-66.9693, 3.1258], [-66.9222, 3.1059], [-66.9097, 3.0895], [-66.9001, 3.0886], [-66.8833, 3.0736], [-66.8849, 3.0627], [-66.8668, 3.0617], [-66.8187, 3.0187], [-66.7731, 3.0277], [-66.7494, 3.0233], [-66.7163, 3.0276], [-66.7045, 3.0229], [-66.6918, 3.0056], [-66.6442, 2.9906], [-66.5945, 2.9952], [-66.5681, 2.9866], [-66.5404, 2.987], [-66.4883, 3.0087], [-66.4318, 3.0049], [-66.4212, 3.0102], [-66.4094, 3.0289], [-66.2253, 2.6249], [-66.2226, 2.6343], [-66.2133, 2.6387], [-66.1872, 2.611], [-66.1775, 2.6205], [-66.1692, 2.6163], [-66.1598, 2.6195], [-66.1742, 2.6584], [-66.156, 2.6756], [-66.1786, 2.6889], [-66.1747, 2.7151], [-66.169, 2.723], [-66.1236, 2.7275], [-66.0809, 2.7727], [-66.0729, 2.7895], [-66.034, 2.7893], [-66.0282, 2.7823], [-65.9918, 2.7734], [-65.972, 2.7827], [-65.9696, 2.7939], [-65.9587, 2.8053], [-65.9294, 2.8081], [-65.9222, 2.8162], [-65.9229, 2.83], [-65.9468, 2.8757], [-65.9458, 2.8865], [-65.9591, 2.8928], [-65.9625, 2.8759], [-65.9691, 2.8814], [-65.9732, 2.8925], [-65.9711, 2.9083], [-65.9936, 2.9376], [-65.9964, 2.9757], [-65.9885, 3.001], [-65.9389, 3.0276], [-65.9303, 3.0414], [-65.9219, 3.0393], [-65.9122, 3.0848], [-65.9014, 3.0802], [-65.8902, 3.0837], [-65.8912, 3.1], [-65.8861, 3.111], [-65.8998, 3.1246], [-65.9052, 3.1428], [-65.9156, 3.1478], [-65.9332, 3.1427], [-65.9488, 3.1234], [-65.965, 3.1153], [-66.0172, 3.1352], [-66.0234, 3.148], [-66.0422, 3.1599], [-66.0624, 3.1841], [-66.0785, 3.2108], [-66.0808, 3.2403], [-66.0461, 3.2774], [-66.039, 3.2916], [-66.0528, 3.3302], [-66.0569, 3.3651], [-66.037, 3.4103], [-66.0365, 3.4504], [-66.0138, 3.5158], [-66.0175, 3.5802], [-66.0356, 3.6145], [-66.1175, 3.7099], [-66.1753, 3.828], [-66.1585, 3.8594], [-66.1235, 3.8976], [-66.0927, 3.9225], [-66.0538, 3.943], [-66.0142, 3.9846], [-66.0, 3.9914], [-65.9302, 4.0827]]]}}, {"type": "Feature", "properties": {"osm_type": "relation", "osm_id": 979809221, "name": "Autónomo Atures", "admin_level": "6", "kind": "subdivision_2", "parent_osm_id": 2269815, "parent_name": "Amazonas State", "parent_iso": "VE-Z"}, "geometry": {"type": "Polygon", "coordinates": [[[-67.4565, 6.1902], [-67.49, 6.1521], [-67.4938, 6.1161], [-67.4829, 6.0995], [-67.4738, 6.072], [-67.4346, 6.0365], [-67.421, 6.0061], [-67.4201, 5.9931], [-67.4317, 5.9742], [-67.4738, 5.9488], [-67.5312, 5.8989], [-67.6151, 5.7779], [-67.6417, 5.6589], [-67.6249, 5.5693], [-67.6076, 5.5428], [-67.6044, 5.5251], [-67.6165, 5.5123], [-67.631, 5.4756], [-67.6402, 5.4636], [-67.6909, 5.4228], [-67.7198, 5.4117], [-67.7979, 5.3672], [-67.8461, 5.3175], [-67.828, 5.315], [-67.7781, 5.2941], [-67.7443, 5.2918], [-67.7033, 5.2787], [-67.6873, 5.2806], [-67.6627, 5.2945], [-67.6295, 5.3307], [-67.5845, 5.3568], [-67.5636, 5.3805], [-67.5479, 5.3899], [-67.5253, 5.3898], [-67.4837, 5.3703], [-67.4516, 5.3764], [-67.3999, 5.4376], [-67.3681, 5.4619], [-67.3544, 5.4633], [-67.3439, 5.4415], [-67.3254, 5.4334], [-67.3014, 5.456], [-67.2842, 5.4621], [-67.2421, 5.4594], [-67.2202, 5.4681], [-67.166, 5.474], [-67.0948, 5.5145], [-67.0597, 5.548], [-67.0161, 5.6083], [-66.9844, 5.6314], [-67.0157, 5.6337], [-67.0505, 5.6577], [-67.0601, 5.6707], [-67.0632, 5.6915], [-67.0741, 5.7098], [-67.1124, 5.7481], [-67.1256, 5.7455], [-67.1453, 5.722], [-67.1996, 5.7031], [-67.2296, 5.717], [-67.2451, 5.7405], [-67.2418, 5.7669], [-67.2127, 5.7839], [-67.2069, 5.7918], [-67.2114, 5.8019], [-67.2346, 5.8094], [-67.242, 5.8209], [-67.2308, 5.8301], [-67.2101, 5.8304], [-67.1917, 5.8406], [-67.1933, 5.8913], [-67.1676, 5.9137], [-67.1548, 5.9379], [-67.1503, 5.9595], [-67.1515, 5.9833], [-67.1401, 6.0321], [-67.1541, 6.0674], [-67.1709, 6.0888], [-67.1746, 6.1079], [-67.1941, 6.122], [-67.2099, 6.1261], [-67.2712, 6.1155], [-67.2966, 6.1293], [-67.3051, 6.1402], [-67.3376, 6.1443], [-67.3503, 6.1409], [-67.3664, 6.1201], [-67.4026, 6.1225], [-67.4091, 6.127], [-67.4164, 6.1575], [-67.4565, 6.1902]]]}}, {"type": "Feature", "properties": {"osm_type": "relation", "osm_id": 597293847, "name": "Autónomo Autana", "admin_level": "6", "kind": "subdivision_2", "parent_osm_id": 2269815, "parent_name": "Amazonas State", "parent_iso": "VE-Z"}, "geometry": {"type": "Polygon", "coordinates": [[[-66.6656, 4.7689], [-66.7874, 4.8565], [-66.8249, 4.8513], [-66.8507, 4.8283], [-66.8607, 4.8252], [-66.8919, 4.8251], [-66.9388, 4.8486], [-66.9541, 4.8431], [-66.9911, 4.8472], [-67.0061, 4.8691], [-66.9982, 4.8945], [-67.0058, 4.9112], [-67.0796, 4.932], [-67.119, 4.9327], [-67.1687, 4.9631], [-67.2038, 4.9917], [-67.2201, 5.0154], [-67.2215, 5.0573], [-67.2056, 5.076], [-67.1532, 5.0795], [-67.1342, 5.0869], [-67.1077, 5.1263], [-67.0634, 5.1493], [-67.0476, 5.1528], [-67.024, 5.1706], [-67.0146, 5.1877], [-67.0148, 5.2093], [-67.0029, 5.2213], [-66.9982, 5.2467], [-66.9532, 5.2945], [-66.9396, 5.3008], [-66.8681, 5.3072], [-66.8232, 5.2953], [-66.7915, 5.295], [-66.7746, 5.2775], [-66.7672, 5.2763], [-66.7415, 5.2967], [-66.7432, 5.3386], [-66.7122, 5.343], [-66.6949, 5.3329], [-66.6618, 5.3383], [-66.64, 5.3354], [-66.6214, 5.3437], [-66.6084, 5.3557], [-66.5996, 5.3756], [-66.6006, 5.3998], [-66.6094, 5.4232], [-66.6014, 5.4493], [-66.5878, 5.4613], [-66.5644, 5.4692], [-66.5353, 5.4921], [-66.519, 5.5116], [-66.5166, 5.529], [-66.5093, 5.5388], [-66.4561, 5.5586], [-66.426, 5.5857], [-66.4285, 5.6018], [-66.456, 5.6139], [-66.4665, 5.6334], [-66.4617, 5.6511], [-66.4638, 5.6698], [-66.4546, 5.6887], [-66.4737, 5.735], [-66.4996, 5.7627], [-66.5038, 5.7775], [-66.5329, 5.7623], [-66.5537, 5.7368], [-66.5704, 5.7241], [-66.5884, 5.7246], [-66.6215, 5.7439], [-66.6364, 5.7431], [-66.677, 5.7309], [-66.703, 5.7164], [-66.7364, 5.6885], [-66.775, 5.6831], [-66.8616, 5.6883], [-66.891, 5.6604], [-66.9036, 5.6566], [-66.9202, 5.6617], [-66.936, 5.659], [-66.9604, 5.6364], [-66.9844, 5.6314], [-67.0046, 5.6194], [-67.0597, 5.548], [-67.0948, 5.5145], [-67.166, 5.474], [-67.2202, 5.4681], [-67.2421, 5.4594], [-67.2842, 5.4621], [-67.3014, 5.456], [-67.3254, 5.4334], [-67.3439, 5.4415], [-67.3544, 5.4633], [-67.3681, 5.4619], [-67.3999, 5.4376], [-67.4516, 5.3764], [-67.4837, 5.3703], [-67.5253, 5.3898], [-67.5479, 5.3899], [-67.5636, 5.3805], [-67.5845, 5.3568], [-67.6295, 5.3307], [-67.6627, 5.2945], [-67.6873, 5.2806], [-67.7033, 5.2787], [-67.7443, 5.2918], [-67.7781, 5.2941], [-67.828, 5.315], [-67.8461, 5.3175], [-67.8642, 5.2954], [-67.8649, 5.2702], [-67.8333, 5.2116], [-67.8334, 5.1814], [-67.8458, 5.1235], [-67.8392, 5.0993], [-67.8234, 5.0769], [-67.8074, 5.0327], [-67.8157, 5.0019], [-67.8164, 4.9628], [-67.8356, 4.9329], [-67.84, 4.9135], [-67.8383, 4.8669], [-67.8282, 4.8109], [-67.8278, 4.7519], [-67.8419, 4.6834], [-67.8572, 4.644], [-67.8569, 4.6152], [-67.8681, 4.5609], [-67.8811, 4.5238], [-67.8552, 4.5229], [-67.7912, 4.4962], [-67.7362, 4.4461], [-67.6992, 4.3904], [-67.6537, 4.3543], [-67.6294, 4.3146], [-67.6244, 4.2983], [-67.6275, 4.2639], [-67.6059, 4.2018], [-67.58, 4.1641], [-67.5502, 4.1435], [-67.5044, 4.127], [-67.4078, 4.1194], [-67.356, 4.0954], [-67.3368, 4.0917], [-67.317, 4.1012], [-67.2774, 4.1441], [-67.2198, 4.171], [-67.1836, 4.2116], [-67.1594, 4.231], [-67.1448, 4.2358], [-67.097, 4.2368], [-67.06, 4.2509], [-67.037, 4.2797], [-67.0213, 4.3405], [-66.9733, 4.4112], [-66.9379, 4.4375], [-66.8679, 4.4747], [-66.8263, 4.5119], [-66.7728, 4.5825], [-66.7588, 4.6144], [-66.7572, 4.6436], [-66.7658, 4.6462], [-66.8255, 4.6273], [-66.8659, 4.6247], [-66.8754, 4.6292], [-66.877, 4.6361], [-66.8661, 4.6568], [-66.8374, 4.6771], [-66.7702, 4.6935], [-66.7019, 4.7218], [-66.6896, 4.7341], [-66.6794, 4.7584], [-66.6656, 4.7689]]]}}, {"type": "Feature", "properties": {"osm_type": "relation", "osm_id": 512919671, "name": "Autónomo Manapiare", "admin_level": "6", "kind": "subdivision_2", "parent_osm_id": 2269815, "parent_name": "Amazonas State", "parent_iso": "VE-Z"}, "geometry": {"type": "Polygon", "coordinates": [[[-64.8031, 4.1597], [-64.8046, 4.1706], [-64.7954, 4.2061], [-64.7985, 4.2251], [-64.7837, 4.2378], [-64.8141, 4.2756], [-64.8133, 4.2839], [-64.7982, 4.3033], [-64.745, 4.2649], [-64.6918, 4.2717], [-64.6791, 4.2694], [-64.6772, 4.257], [-64.691, 4.2279], [-64.6725, 4.1744], [-64.6667, 4.1863], [-64.6468, 4.1888], [-64.6329, 4.2047], [-64.6212, 4.2537], [-64.6288, 4.2819], [-64.625, 4.3109], [-64.6364, 4.3247], [-64.6535, 4.335], [-64.6596, 4.3857], [-64.641, 4.4044], [-64.6002, 4.4233], [-64.5794, 4.4393], [-64.5727, 4.4722], [-64.586, 4.5065], [-64.5898, 4.5342], [-64.5455, 4.5914], [-64.5366, 4.6285], [-64.5376, 4.6482], [-64.5424, 4.655], [-64.5503, 4.6554], [-64.5931, 4.6332], [-64.6408, 4.6295], [-64.6535, 4.6128], [-64.6641, 4.5873], [-64.674, 4.5856], [-64.6826, 4.5912], [-64.6949, 4.6158], [-64.7197, 4.6168], [-64.7371, 4.5984], [-64.7514, 4.5582], [-64.7903, 4.5448], [-64.8226, 4.5615], [-64.8601, 4.5573], [-64.877, 4.5598], [-64.885, 4.5654], [-64.8694, 4.6189], [-64.8758, 4.6264], [-64.8937, 4.6349], [-64.9273, 4.622], [-64.9426, 4.6259], [-64.9552, 4.6417], [-64.9545, 4.6675], [-64.9591, 4.6766], [-64.9856, 4.6794], [-65.0033, 4.6867], [-65.0374, 4.7316], [-65.0422, 4.7607], [-65.0556, 4.7761], [-65.0828, 4.7934], [-65.0889, 4.8032], [-65.1073, 4.8927], [-65.1047, 4.9327], [-65.0967, 4.9679], [-65.1087, 4.9813], [-65.1247, 4.9822], [-65.1572, 4.9661], [-65.162, 4.9736], [-65.1653, 5.0654], [-65.1819, 5.1014], [-65.1937, 5.1157], [-65.2037, 5.1171], [-65.2198, 5.1095], [-65.2335, 5.1823], [-65.2583, 5.2317], [-65.2593, 5.2405], [-65.254, 5.2474], [-65.2169, 5.2595], [-65.1831, 5.28], [-65.1314, 5.2942], [-65.1231, 5.3012], [-65.1199, 5.3182], [-65.1057, 5.3407], [-65.1067, 5.357], [-65.1142, 5.3615], [-65.1505, 5.3591], [-65.1616, 5.3736], [-65.1633, 5.4089], [-65.1447, 5.4655], [-65.1571, 5.4915], [-65.1788, 5.5026], [-65.2275, 5.502], [-65.2379, 5.5248], [-65.2222, 5.5784], [-65.2471, 5.6372], [-65.2206, 5.6973], [-65.2214, 5.7145], [-65.2417, 5.7365], [-65.2591, 5.744], [-65.2876, 5.7463], [-65.3141, 5.7367], [-65.3448, 5.6974], [-65.3725, 5.6769], [-65.3816, 5.6768], [-65.4065, 5.691], [-65.4234, 5.6926], [-65.4671, 5.6836], [-65.4918, 5.6577], [-65.5077, 5.6639], [-65.5303, 5.6504], [-65.5461, 5.6577], [-65.5447, 5.6743], [-65.5596, 5.7206], [-65.584, 5.7489], [-65.6015, 5.7569], [-65.6052, 5.8316], [-65.6206, 5.8892], [-65.611, 5.955], [-65.5668, 6.0499], [-65.5677, 6.088], [-65.5965, 6.1217], [-65.6118, 6.1214], [-65.7032, 6.0845], [-65.7626, 6.075], [-65.8082, 6.0753], [-65.8239, 6.0675], [-65.8477, 6.039], [-65.8564, 6.0125], [-65.8539, 5.9655], [-65.8458, 5.9261], [-65.8481, 5.9082], [-65.8587, 5.8913], [-65.8712, 5.8775], [-65.8797, 5.8764], [-65.8861, 5.9043], [-65.8938, 5.9072], [-65.9017, 5.9036], [-65.9158, 5.8783], [-65.9355, 5.8611], [-65.9554, 5.8342], [-65.9572, 5.8067], [-65.9829, 5.8131], [-66.0014, 5.8116], [-66.0245, 5.7986], [-66.0535, 5.7728], [-66.0826, 5.7388], [-66.1218, 5.6583], [-66.1745, 5.5947], [-66.2313, 5.5847], [-66.2584, 5.5657], [-66.3318, 5.5884], [-66.3599, 5.5822], [-66.4125, 5.6058], [-66.456, 5.6139], [-66.4285, 5.6018], [-66.426, 5.5857], [-66.4561, 5.5586], [-66.5093, 5.5388], [-66.5166, 5.529], [-66.519, 5.5116], [-66.5353, 5.4921], [-66.5644, 5.4692], [-66.5878, 5.4613], [-66.6014, 5.4493], [-66.6094, 5.4232], [-66.6006, 5.3998], [-66.5996, 5.3756], [-66.6084, 5.3557], [-66.6214, 5.3437], [-66.64, 5.3354], [-66.6618, 5.3383], [-66.6879, 5.3324], [-66.7122, 5.343], [-66.7411, 5.3396], [-66.7449, 5.3326], [-66.7415, 5.2967], [-66.7672, 5.2763], [-66.7746, 5.2775], [-66.7915, 5.295], [-66.8232, 5.2953], [-66.8681, 5.3072], [-66.9396, 5.3008], [-66.9532, 5.2945], [-66.9982, 5.2467], [-67.0029, 5.2213], [-67.0148, 5.2093], [-67.0146, 5.1877], [-67.024, 5.1706], [-67.0476, 5.1528], [-67.0634, 5.1493], [-67.1077, 5.1263], [-67.1342, 5.0869], [-67.1532, 5.0795], [-67.2056, 5.076], [-67.2215, 5.0573], [-67.2201, 5.0154], [-67.2038, 4.9917], [-67.1687, 4.9631], [-67.119, 4.9327], [-67.0796, 4.932], [-67.0058, 4.9112], [-66.9982, 4.8945], [-67.0061, 4.8691], [-66.9911, 4.8472], [-66.9541, 4.8431], [-66.9388, 4.8486], [-66.8919, 4.8251], [-66.8607, 4.8252], [-66.8507, 4.8283], [-66.8249, 4.8513], [-66.7874, 4.8565], [-66.6656, 4.7689], [-66.6505, 4.7828], [-66.6334, 4.8204], [-66.6203, 4.8311], [-66.6006, 4.8284], [-66.577, 4.8115], [-66.5693, 4.7993], [-66.5647, 4.7646], [-66.5547, 4.745], [-66.5129, 4.7405], [-66.5039, 4.7332], [-66.5271, 4.649], [-66.5109, 4.5864], [-66.5032, 4.5733], [-66.4706, 4.5497], [-66.4558, 4.4955], [-66.4297, 4.4552], [-66.3775, 4.4254], [-66.3421, 4.3907], [-66.3283, 4.3542], [-66.3247, 4.2793], [-66.313, 4.2525], [-66.2851, 4.2206], [-66.2295, 4.1942], [-66.1836, 4.1867], [-66.1478, 4.1664], [-66.135, 4.1543], [-66.1047, 4.1067], [-66.0786, 4.0898], [-66.0419, 4.0805], [-66.0094, 4.0843], [-65.9538, 4.0796], [-65.9302, 4.0827], [-65.8148, 4.1111], [-65.7325, 4.1452], [-65.7203, 4.1403], [-65.7085, 4.1082], [-65.6948, 4.0945], [-65.6753, 4.0971], [-65.6458, 4.1306], [-65.6094, 4.1934], [-65.5581, 4.2571], [-65.5479, 4.2797], [-65.5402, 4.3268], [-65.5097, 4.3438], [-65.4667, 4.3534], [-65.4278, 4.3513], [-65.4032, 4.3423], [-65.3606, 4.314], [-65.3446, 4.2982], [-65.2794, 4.2151], [-65.2674, 4.1641], [-65.2416, 4.125], [-65.201, 4.108], [-65.123, 4.1128], [-65.093, 4.1042], [-65.0717, 4.0925], [-65.0584, 4.0643], [-65.053, 4.0274], [-65.0418, 4.0161], [-65.0165, 4.0214], [-64.9735, 4.0619], [-64.9432, 4.0759], [-64.9327, 4.0908], [-64.9313, 4.1108], [-64.9226, 4.1209], [-64.8635, 4.1345], [-64.8031, 4.1597]]]}}, {"type": "Feature", "properties": {"osm_type": "relation", "osm_id": 547167527, "name": "Autónomo Maroa", "admin_level": "6", "kind": "subdivision_2", "parent_osm_id": 2269815, "parent_name": "Amazonas State", "parent_iso": "VE-Z"}, "geometry": {"type": "Polygon", "coordinates": [[[-67.3787, 3.2442], [-67.4439, 3.2422], [-67.8673, 2.8535], [-67.8616, 2.7718], [-67.8284, 2.7856], [-67.8164, 2.809], [-67.8087, 2.8148], [-67.7366, 2.8281], [-67.7296, 2.8098], [-67.7095, 2.7952], [-67.6593, 2.7831], [-67.6474, 2.7974], [-67.6212, 2.793], [-67.5926, 2.7655], [-67.5904, 2.7362], [-67.5719, 2.7028], [-67.5696, 2.657], [-67.5595, 2.6533], [-67.5389, 2.6657], [-67.4947, 2.6572], [-67.4863, 2.6467], [-67.4779, 2.6133], [-67.4493, 2.5949], [-67.4303, 2.5749], [-67.3956, 2.557], [-67.3768, 2.5262], [-67.3418, 2.5114], [-67.3285, 2.4961], [-67.3225, 2.4806], [-67.274, 2.427], [-67.2348, 2.4103], [-67.1996, 2.3826], [-67.1785, 2.34], [-67.1743, 2.3192], [-67.183, 2.3026], [-67.1998, 2.2908], [-67.2052, 2.2391], [-67.1809, 2.1815], [-67.1771, 2.162], [-67.1477, 2.1173], [-67.1336, 2.1077], [-67.1067, 2.112], [-67.0949, 2.0514], [-67.0985, 2.0294], [-67.1221, 1.9912], [-67.1385, 1.9501], [-67.1106, 1.972], [-67.0936, 1.9721], [-67.0319, 1.9911], [-67.0157, 2.0036], [-67.0039, 1.9995], [-67.0038, 1.9837], [-66.9986, 1.9739], [-66.9687, 1.9553], [-66.9547, 1.9516], [-66.9411, 1.954], [-66.921, 1.9675], [-66.8673, 1.9677], [-66.8465, 1.9719], [-66.8239, 1.9835], [-66.7749, 1.9776], [-66.7488, 1.983], [-66.7354, 1.975], [-66.7048, 1.9196], [-66.6554, 1.9036], [-66.6282, 1.883], [-66.6163, 1.883], [-66.5917, 1.9191], [-66.5526, 1.9425], [-66.5267, 1.9907], [-66.5256, 2.0302], [-66.4764, 2.0613], [-66.4692, 2.0809], [-66.4667, 2.1297], [-66.4804, 2.1767], [-66.4879, 2.1891], [-66.5136, 2.2058], [-66.5397, 2.2079], [-66.5383, 2.2196], [-66.5229, 2.2305], [-66.5235, 2.2356], [-66.536, 2.2494], [-66.5598, 2.2421], [-66.5715, 2.2491], [-66.586, 2.3023], [-66.5676, 2.3245], [-66.5533, 2.3172], [-66.5338, 2.3221], [-66.5322, 2.3139], [-66.5163, 2.3177], [-66.5097, 2.347], [-66.5176, 2.3533], [-66.515, 2.3605], [-66.4948, 2.3768], [-66.4801, 2.3603], [-66.4564, 2.3595], [-66.4452, 2.3842], [-66.4438, 2.3927], [-66.4512, 2.4028], [-66.4487, 2.442], [-66.4715, 2.4465], [-66.4933, 2.4777], [-66.5013, 2.48], [-66.4934, 2.511], [-66.4841, 2.5124], [-66.4892, 2.525], [-66.4647, 2.5391], [-66.4452, 2.54], [-66.4336, 2.5486], [-66.4208, 2.5485], [-66.3736, 2.5747], [-66.3498, 2.5814], [-66.3073, 2.5821], [-66.2721, 2.6085], [-66.2653, 2.6015], [-66.2485, 2.6107], [-66.2292, 2.6105], [-66.221, 2.6192], [-66.4094, 3.0289], [-66.4212, 3.0102], [-66.4318, 3.0049], [-66.4883, 3.0087], [-66.5404, 2.987], [-66.5681, 2.9866], [-66.5945, 2.9952], [-66.6442, 2.9906], [-66.6918, 3.0056], [-66.7045, 3.0229], [-66.7163, 3.0276], [-66.7494, 3.0233], [-66.7731, 3.0277], [-66.8187, 3.0187], [-66.8668, 3.0617], [-66.8849, 3.0627], [-66.8833, 3.0736], [-66.9001, 3.0886], [-66.9097, 3.0895], [-66.9222, 3.1059], [-66.9693, 3.1258], [-67.0106, 3.1085], [-67.0276, 3.0802], [-67.0453, 3.0694], [-67.0501, 3.0876], [-67.0567, 3.088], [-67.0586, 3.0998], [-67.0677, 3.1066], [-67.0638, 3.1163], [-67.0671, 3.122], [-67.0762, 3.1206], [-67.0828, 3.1277], [-67.0995, 3.1201], [-67.1087, 3.1323], [-67.1325, 3.1366], [-67.1592, 3.1359], [-67.1647, 3.1163], [-67.1896, 3.1245], [-67.2075, 3.0991], [-67.238, 3.0913], [-67.2806, 3.1081], [-67.3064, 3.1359], [-67.3223, 3.1386], [-67.3362, 3.2042], [-67.3581, 3.2366], [-67.3788, 3.2285], [-67.3787, 3.2442]]]}}, {"type": "Feature", "properties": {"osm_type": "relation", "osm_id": 609821259, "name": "Autónomo Río Negro", "admin_level": "6", "kind": "subdivision_2", "parent_osm_id": 2269815, "parent_name": "Amazonas State", "parent_iso": "VE-Z"}, "geometry": {"type": "Polygon", "coordinates": [[[-65.9222, 2.8162], [-65.9294, 2.8081], [-65.9587, 2.8053], [-65.9696, 2.7939], [-65.972, 2.7827], [-65.9918, 2.7734], [-66.0282, 2.7823], [-66.034, 2.7893], [-66.0729, 2.7895], [-66.0809, 2.7727], [-66.1236, 2.7275], [-66.169, 2.723], [-66.1747, 2.7151], [-66.1786, 2.6889], [-66.156, 2.6756], [-66.1742, 2.6584], [-66.1688, 2.6368], [-66.1593, 2.6237], [-66.1629, 2.6171], [-66.1775, 2.6205], [-66.1872, 2.611], [-66.2063, 2.6354], [-66.2192, 2.6371], [-66.2253, 2.6249], [-66.221, 2.6192], [-66.2292, 2.6105], [-66.2485, 2.6107], [-66.2653, 2.6015], [-66.2721, 2.6085], [-66.3073, 2.5821], [-66.3498, 2.5814], [-66.3736, 2.5747], [-66.4208, 2.5485], [-66.4336, 2.5486], [-66.4452, 2.54], [-66.4647, 2.5391], [-66.4892, 2.525], [-66.4841, 2.5124], [-66.4934, 2.511], [-66.5013, 2.48], [-66.4933, 2.4777], [-66.4715, 2.4465], [-66.4487, 2.442], [-66.4512, 2.4028], [-66.4438, 2.3927], [-66.4452, 2.3842], [-66.4564, 2.3595], [-66.4801, 2.3603], [-66.4948, 2.3768], [-66.515, 2.3605], [-66.5176, 2.3533], [-66.5097, 2.347], [-66.5163, 2.3177], [-66.5322, 2.3139], [-66.5338, 2.3221], [-66.5533, 2.3172], [-66.5676, 2.3245], [-66.586, 2.3023], [-66.5715, 2.2491], [-66.5598, 2.2421], [-66.536, 2.2494], [-66.5235, 2.2356], [-66.5229, 2.2305], [-66.5383, 2.2196], [-66.5397, 2.2079], [-66.5136, 2.2058], [-66.4879, 2.1891], [-66.4804, 2.1767], [-66.4667, 2.1297], [-66.4692, 2.0809], [-66.4764, 2.0613], [-66.5256, 2.0302], [-66.5267, 1.9907], [-66.5526, 1.9425], [-66.5917, 1.9191], [-66.6163, 1.883], [-66.6282, 1.883], [-66.6554, 1.9036], [-66.7048, 1.9196], [-66.7354, 1.975], [-66.7488, 1.983], [-66.7749, 1.9776], [-66.8239, 1.9835], [-66.8465, 1.9719], [-66.8673, 1.9677], [-66.921, 1.9675], [-66.9411, 1.954], [-66.9547, 1.9516], [-66.9687, 1.9553], [-66.9986, 1.9739], [-67.0038, 1.9837], [-67.0039, 1.9995], [-67.0157, 2.0036], [-67.0319, 1.9911], [-67.0936, 1.9721], [-67.1106, 1.972], [-67.1385, 1.9501], [-67.1445, 1.9133], [-67.1047, 1.8833], [-67.0824, 1.8535], [-67.0651, 1.8058], [-67.0493, 1.7827], [-67.0369, 1.7201], [-66.9605, 1.5822], [-66.9613, 1.5398], [-66.9413, 1.5245], [-66.9202, 1.4831], [-66.9089, 1.4506], [-66.907, 1.3794], [-66.8878, 1.3609], [-66.8721, 1.3578], [-66.8519, 1.3266], [-66.8487, 1.2994], [-66.8539, 1.2807], [-66.8723, 1.2581], [-66.8738, 1.2252], [-66.8522, 1.2115], [-66.3127, 0.7345], [-66.22, 0.7981], [-66.1967, 0.785], [-66.1863, 0.747], [-66.1568, 0.7341], [-66.1441, 0.7333], [-66.1223, 0.7461], [-66.0931, 0.743], [-66.0887, 0.7475], [-66.0819, 0.8009], [-66.0287, 0.7904], [-66.0151, 0.7966], [-65.9753, 0.8018], [-65.947, 0.8536], [-65.8941, 0.8928], [-65.8862, 0.9235], [-65.8617, 0.9253], [-65.8297, 0.9415], [-65.7774, 0.9563], [-65.7366, 0.9969], [-65.6842, 0.9843], [-65.6747, 0.9863], [-65.6557, 1.002], [-65.633, 0.9864], [-65.6154, 1.0037], [-65.5878, 0.9801], [-65.5652, 0.9726], [-65.5507, 0.9365], [-65.549, 0.9153], [-65.5368, 0.9228], [-65.5312, 0.919], [-65.5101, 0.8826], [-65.5118, 0.8401], [-65.5318, 0.8198], [-65.5367, 0.8032], [-65.5557, 0.7781], [-65.5845, 0.7499], [-65.5911, 0.7287], [-65.5836, 0.6844], [-65.5462, 0.6406], [-65.5423, 0.6409], [-65.5169, 0.6648], [-65.4423, 0.6896], [-65.4261, 0.7048], [-65.4024, 0.7531], [-65.4101, 0.7864], [-65.4054, 0.814], [-65.3575, 0.8701], [-65.3315, 0.9189], [-65.2969, 0.9325], [-65.2867, 0.9313], [-65.2532, 0.9105], [-65.1883, 0.9211], [-65.1629, 0.9912], [-65.162, 1.0661], [-65.1428, 1.1108], [-65.1239, 1.1295], [-65.0262, 1.1397], [-65.0059, 1.1231], [-64.9698, 1.1756], [-64.9654, 1.2025], [-64.907, 1.2063], [-64.8824, 1.2142], [-64.836, 1.2771], [-64.7898, 1.2791], [-64.7743, 1.2382], [-64.755, 1.232], [-64.726, 1.2323], [-64.6679, 1.2922], [-64.5753, 1.3347], [-64.5637, 1.3929], [-64.5314, 1.4312], [-64.5106, 1.4449], [-64.4593, 1.4669], [-64.4104, 1.5022], [-64.3637, 1.5103], [-64.3511, 1.5052], [-64.3527, 1.482], [-64.363, 1.4586], [-64.3973, 1.4236], [-64.4052, 1.4048], [-64.3821, 1.3712], [-64.3585, 1.3573], [-64.3415, 1.354], [-64.3321, 1.3723], [-64.3297, 1.3935], [-64.3142, 1.4412], [-64.2515, 1.4885], [-64.2048, 1.5136], [-64.187, 1.547], [-64.1649, 1.5681], [-64.1283, 1.5763], [-64.1167, 1.5843], [-64.0924, 1.6234], [-64.0849, 1.6447], [-64.077, 1.6518], [-64.0673, 1.6739], [-64.0658, 1.6954], [-64.0813, 1.756], [-64.0557, 1.8189], [-64.0569, 1.8751], [-64.0627, 1.9116], [-64.055, 1.9319], [-64.0847, 1.9473], [-64.097, 1.9597], [-64.156, 1.9964], [-64.2107, 1.9974], [-64.2372, 2.004], [-64.3448, 2.0011], [-64.3629, 2.0046], [-64.3987, 1.9907], [-64.4048, 1.969], [-64.4196, 1.9563], [-64.4596, 1.9528], [-64.5256, 1.9323], [-64.5724, 1.9306], [-64.6107, 1.9385], [-64.6407, 1.9609], [-64.6803, 1.9803], [-64.7012, 2.0104], [-64.7227, 2.0169], [-64.7529, 1.9995], [-64.7702, 1.948], [-64.7972, 1.9072], [-64.864, 1.8734], [-64.9029, 1.8397], [-64.9756, 1.7945], [-65.1235, 1.6845], [-65.1575, 1.6464], [-65.1766, 1.5893], [-65.2043, 1.56], [-65.2754, 1.5086], [-65.3294, 1.4986], [-65.3992, 1.5191], [-65.4215, 1.5337], [-65.4456, 1.5747], [-65.5275, 1.632], [-65.5358, 1.6488], [-65.5401, 1.6773], [-65.537, 1.6893], [-65.4909, 1.7525], [-65.4721, 1.8144], [-65.4483, 1.8647], [-65.4537, 1.929], [-65.4356, 1.9681], [-65.4292, 2.0041], [-65.4445, 2.0462], [-65.4422, 2.0766], [-65.415, 2.1511], [-65.3816, 2.2131], [-65.3675, 2.25], [-65.3503, 2.3555], [-65.3535, 2.3779], [-65.3704, 2.4082], [-65.3771, 2.4108], [-65.3977, 2.4011], [-65.435, 2.4411], [-65.4421, 2.4582], [-65.4648, 2.4752], [-65.4857, 2.4806], [-65.507, 2.5029], [-65.5086, 2.5144], [-65.522, 2.5256], [-65.5323, 2.5449], [-65.5139, 2.5871], [-65.5163, 2.608], [-65.552, 2.6641], [-65.5603, 2.7005], [-65.5773, 2.7192], [-65.5864, 2.7381], [-65.6177, 2.7649], [-65.6316, 2.7622], [-65.6341, 2.7692], [-65.6406, 2.7707], [-65.6695, 2.7517], [-65.673, 2.7623], [-65.6877, 2.7622], [-65.6919, 2.7398], [-65.7002, 2.7265], [-65.7068, 2.7219], [-65.7317, 2.7197], [-65.7528, 2.7395], [-65.762, 2.735], [-65.7834, 2.7427], [-65.7848, 2.7391], [-65.7958, 2.742], [-65.8367, 2.8057], [-65.852, 2.8074], [-65.8668, 2.8028], [-65.8956, 2.8169], [-65.9222, 2.8162]]]}}]}