{"type": "FeatureCollection", "parent": {"osm_id": 2297418, "name": "Seoul", "admin_level": "4", "kind": "subdivision_1", "child_kind": "subdivision_2", "iso": "KR-11"}, "features": [{"type": "Feature", "properties": {"osm_type": "relation", "osm_id": 758113064, "name": "Gangseo-gu", "admin_level": "6", "kind": "subdivision_2", "parent_osm_id": 2297418, "parent_name": "Seoul", "parent_iso": "KR-11"}, "geometry": {"type": "Polygon", "coordinates": [[[126.7855, 37.5746], [126.7822, 37.5557], [126.7701, 37.5489], [126.7828, 37.5389], [126.8013, 37.5327], [126.8029, 37.5266], [126.807, 37.5262], [126.807, 37.5315], [126.8319, 37.5268], [126.838, 37.5348], [126.8421, 37.5188], [126.8664, 37.5176], [126.8674, 37.5438], [126.8876, 37.5446], [126.859, 37.5654], [126.8029, 37.5925], [126.8046, 37.5841], [126.7855, 37.5746]]]}}, {"type": "Feature", "properties": {"osm_type": "relation", "osm_id": 472822487, "name": "Gangdong-gu", "admin_level": "6", "kind": "subdivision_2", "parent_osm_id": 2297418, "parent_name": "Seoul", "parent_iso": "KR-11"}, "geometry": {"type": "Polygon", "coordinates": [[[127.1807, 37.578], [127.1116, 37.5466], [127.1096, 37.5266], [127.1235, 37.5242], [127.1215, 37.518], [127.1552, 37.5086], [127.1591, 37.5246], [127.1664, 37.5315], [127.1834, 37.5364], [127.1807, 37.578]]]}}, {"type": "Feature", "properties": {"osm_type": "relation", "osm_id": 670550765, "name": "Songpa-gu", "admin_level": "6", "kind": "subdivision_2", "parent_osm_id": 2297418, "parent_name": "Seoul", "parent_iso": "KR-11"}, "geometry": {"type": "Polygon", "coordinates": [[[127.1552, 37.5086], [127.1215, 37.518], [127.1235, 37.5242], [127.1096, 37.5266], [127.0858, 37.5078], [127.0709, 37.5127], [127.0703, 37.4983], [127.0858, 37.4852], [127.107, 37.4865], [127.1168, 37.4697], [127.1341, 37.461], [127.1402, 37.4679], [127.1508, 37.4704], [127.1643, 37.4856], [127.1488, 37.4983], [127.1552, 37.5086]]]}}, {"type": "Feature", "properties": {"osm_type": "relation", "osm_id": 951604691, "name": "Seocho-gu", "admin_level": "6", "kind": "subdivision_2", "parent_osm_id": 2297418, "parent_name": "Seoul", "parent_iso": "KR-11"}, "geometry": {"type": "Polygon", "coordinates": [[[127.1017, 37.4483], [127.0827, 37.4652], [127.0502, 37.4598], [127.0414, 37.4754], [127.0295, 37.4766], [127.0213, 37.5115], [126.9913, 37.5049], [126.9939, 37.4926], [126.9882, 37.4856], [126.9888, 37.4459], [126.9919, 37.4488], [127.0115, 37.4422], [127.0244, 37.4504], [127.0538, 37.415], [127.0788, 37.4266], [127.1017, 37.4483]]]}}, {"type": "Feature", "properties": {"osm_type": "relation", "osm_id": 496410357, "name": "Gangnam-gu", "admin_level": "6", "kind": "subdivision_2", "parent_osm_id": 2297418, "parent_name": "Seoul", "parent_iso": "KR-11"}, "geometry": {"type": "Polygon", "coordinates": [[[127.1341, 37.461], [127.1168, 37.4697], [127.107, 37.4865], [127.0858, 37.4852], [127.074, 37.4926], [127.0709, 37.5127], [127.0647, 37.5188], [127.0326, 37.527], [127.0213, 37.5114], [127.0295, 37.4766], [127.0414, 37.4754], [127.0502, 37.4598], [127.0827, 37.4652], [127.1017, 37.4483], [127.1225, 37.4529], [127.1341, 37.461]]]}}, {"type": "Feature", "properties": {"osm_type": "relation", "osm_id": 526358753, "name": "Nowon-gu", "admin_level": "6", "kind": "subdivision_2", "parent_osm_id": 2297418, "parent_name": "Seoul", "parent_iso": "KR-11"}, "geometry": {"type": "Polygon", "coordinates": [[[127.0552, 37.6815], [127.0538, 37.626], [127.0481, 37.6305], [127.0456, 37.6183], [127.0672, 37.604], [127.0863, 37.6093], [127.1132, 37.6064], [127.1225, 37.6187], [127.1189, 37.6333], [127.1053, 37.6411], [127.0914, 37.6879], [127.0552, 37.6815]]]}}, {"type": "Feature", "properties": {"osm_type": "relation", "osm_id": 535312711, "name": "Dobong-gu", "admin_level": "6", "kind": "subdivision_2", "parent_osm_id": 2297418, "parent_name": "Seoul", "parent_iso": "KR-11"}, "geometry": {"type": "Polygon", "coordinates": [[[127.0102, 37.6812], [127.0239, 37.6579], [127.0203, 37.6371], [127.0373, 37.6285], [127.0456, 37.6183], [127.0481, 37.6305], [127.0538, 37.626], [127.0552, 37.6815], [127.0178, 37.6906], [127.0102, 37.6812]]]}}, {"type": "Feature", "properties": {"osm_type": "relation", "osm_id": 908806075, "name": "Gangbuk-gu", "admin_level": "6", "kind": "subdivision_2", "parent_osm_id": 2297418, "parent_name": "Seoul", "parent_iso": "KR-11"}, "geometry": {"type": "Polygon", "coordinates": [[[126.9913, 37.6291], [127.0192, 37.6019], [127.0419, 37.6048], [127.0499, 37.6152], [127.0373, 37.6285], [127.0203, 37.6371], [127.0239, 37.6579], [127.0102, 37.6812], [126.9996, 37.6646], [126.9902, 37.659], [126.9913, 37.6291]]]}}, {"type": "Feature", "properties": {"osm_type": "relation", "osm_id": 982884870, "name": "Jungnang-gu", "admin_level": "6", "kind": "subdivision_2", "parent_osm_id": 2297418, "parent_name": "Seoul", "parent_iso": "KR-11"}, "geometry": {"type": "Polygon", "coordinates": [[[127.1132, 37.6064], [127.0863, 37.6093], [127.0716, 37.6048], [127.0719, 37.5765], [127.0874, 37.568], [127.1039, 37.5667], [127.1091, 37.5778], [127.1184, 37.5835], [127.1132, 37.6064]]]}}, {"type": "Feature", "properties": {"osm_type": "relation", "osm_id": 822380723, "name": "Eunpyeong-gu", "admin_level": "6", "kind": "subdivision_2", "parent_osm_id": 2297418, "parent_name": "Seoul", "parent_iso": "KR-11"}, "geometry": {"type": "Polygon", "coordinates": [[[126.8888, 37.5806], [126.9025, 37.5696], [126.9129, 37.5765], [126.9247, 37.5749], [126.9552, 37.6011], [126.9583, 37.6125], [126.966, 37.6199], [126.9819, 37.6244], [126.9606, 37.6478], [126.9429, 37.6384], [126.9098, 37.6356], [126.9098, 37.5991], [126.9051, 37.5879], [126.8888, 37.5806]]]}}, {"type": "Feature", "properties": {"osm_type": "relation", "osm_id": 652114167, "name": "Jongno-gu", "admin_level": "6", "kind": "subdivision_2", "parent_osm_id": 2297418, "parent_name": "Seoul", "parent_iso": "KR-11"}, "geometry": {"type": "Polygon", "coordinates": [[[126.9544, 37.6005], [126.965, 37.5855], [126.9666, 37.5745], [126.9614, 37.5688], [126.9712, 37.5561], [127.0197, 37.5581], [127.0197, 37.5647], [127.011, 37.5667], [127.0068, 37.5749], [126.9826, 37.5794], [126.981, 37.5839], [126.9903, 37.5917], [126.9815, 37.6243], [126.966, 37.6199], [126.9544, 37.6005]]]}}, {"type": "Feature", "properties": {"osm_type": "relation", "osm_id": 478318574, "name": "Seongbuk-gu", "admin_level": "6", "kind": "subdivision_2", "parent_osm_id": 2297418, "parent_name": "Seoul", "parent_iso": "KR-11"}, "geometry": {"type": "Polygon", "coordinates": [[[126.9819, 37.6244], [126.9903, 37.5917], [126.981, 37.5839], [126.9826, 37.5794], [127.0068, 37.5749], [127.011, 37.5667], [127.0199, 37.5644], [127.043, 37.5855], [127.0711, 37.5965], [127.0716, 37.6048], [127.0499, 37.6152], [127.0419, 37.6048], [127.0192, 37.6019], [126.9913, 37.6291], [126.9819, 37.6244]]]}}, {"type": "Feature", "properties": {"osm_type": "relation", "osm_id": 150803806, "name": "Dongdaemun-gu", "admin_level": "6", "kind": "subdivision_2", "parent_osm_id": 2297418, "parent_name": "Seoul", "parent_iso": "KR-11"}, "geometry": {"type": "Polygon", "coordinates": [[[127.0711, 37.5965], [127.043, 37.5855], [127.0199, 37.5644], [127.0197, 37.5581], [127.0414, 37.5647], [127.0548, 37.5504], [127.074, 37.5479], [127.0821, 37.5705], [127.0719, 37.5765], [127.0711, 37.5965]]]}}, {"type": "Feature", "properties": {"osm_type": "relation", "osm_id": 816650301, "name": "Gwangjin-gu", "admin_level": "6", "kind": "subdivision_2", "parent_osm_id": 2297418, "parent_name": "Seoul", "parent_iso": "KR-11"}, "geometry": {"type": "Polygon", "coordinates": [[[127.1039, 37.5667], [127.0821, 37.5705], [127.0614, 37.5201], [127.076, 37.5094], [127.0941, 37.5119], [127.1096, 37.5266], [127.1116, 37.5466], [127.1023, 37.5553], [127.1039, 37.5667]]]}}, {"type": "Feature", "properties": {"osm_type": "relation", "osm_id": 516938237, "name": "Seongdong-gu", "admin_level": "6", "kind": "subdivision_2", "parent_osm_id": 2297418, "parent_name": "Seoul", "parent_iso": "KR-11"}, "geometry": {"type": "Polygon", "coordinates": [[[127.0614, 37.5201], [127.0724, 37.5471], [127.0548, 37.5504], [127.0414, 37.5647], [127.0249, 37.5598], [127.0254, 37.5479], [127.0156, 37.5323], [127.0302, 37.5237], [127.0326, 37.527], [127.0614, 37.5201]]]}}, {"type": "Feature", "properties": {"osm_type": "relation", "osm_id": 365126476, "name": "Jung-gu [Central District]", "admin_level": "6", "kind": "subdivision_2", "parent_osm_id": 2297418, "parent_name": "Seoul", "parent_iso": "KR-11"}, "geometry": {"type": "Polygon", "coordinates": [[[126.9717, 37.5561], [126.9769, 37.5504], [126.9743, 37.5397], [126.9955, 37.5405], [127.0169, 37.5316], [127.0254, 37.5479], [127.0249, 37.5598], [126.9717, 37.5561]]]}}, {"type": "Feature", "properties": {"osm_type": "relation", "osm_id": 366128196, "name": "Yongsan-gu", "admin_level": "6", "kind": "subdivision_2", "parent_osm_id": 2297418, "parent_name": "Seoul", "parent_iso": "KR-11"}, "geometry": {"type": "Polygon", "coordinates": [[[127.0213, 37.5114], [127.0302, 37.5237], [126.9955, 37.5405], [126.9743, 37.5397], [126.9506, 37.5229], [126.949, 37.5094], [126.9913, 37.5045], [127.0213, 37.5114]]]}}, {"type": "Feature", "properties": {"osm_type": "relation", "osm_id": 966675053, "name": "Dongjak-gu", "admin_level": "6", "kind": "subdivision_2", "parent_osm_id": 2297418, "parent_name": "Seoul", "parent_iso": "KR-11"}, "geometry": {"type": "Polygon", "coordinates": [[[126.9913, 37.5045], [126.949, 37.5094], [126.9309, 37.5045], [126.9309, 37.4959], [126.9108, 37.4832], [126.9464, 37.4852], [126.966, 37.4816], [126.9691, 37.466], [126.9902, 37.4611], [126.9913, 37.5045]]]}}, {"type": "Feature", "properties": {"osm_type": "relation", "osm_id": 786790616, "name": "Seodaemun-gu", "admin_level": "6", "kind": "subdivision_2", "parent_osm_id": 2297418, "parent_name": "Seoul", "parent_iso": "KR-11"}, "geometry": {"type": "Polygon", "coordinates": [[[126.915, 37.5761], [126.9149, 37.5606], [126.933, 37.5549], [126.9325, 37.5491], [126.9769, 37.5504], [126.9614, 37.5688], [126.9666, 37.5745], [126.965, 37.5855], [126.9544, 37.6005], [126.9284, 37.577], [126.915, 37.5761]]]}}, {"type": "Feature", "properties": {"osm_type": "relation", "osm_id": 998696862, "name": "Mapo-gu", "admin_level": "6", "kind": "subdivision_2", "parent_osm_id": 2297418, "parent_name": "Seoul", "parent_iso": "KR-11"}, "geometry": {"type": "Polygon", "coordinates": [[[126.859, 37.5654], [126.8876, 37.5446], [126.9508, 37.5231], [126.9743, 37.5397], [126.9769, 37.5504], [126.9325, 37.5491], [126.933, 37.5549], [126.9149, 37.5606], [126.915, 37.5761], [126.9025, 37.5696], [126.8888, 37.5806], [126.872, 37.5682], [126.859, 37.5654]]]}}, {"type": "Feature", "properties": {"osm_type": "relation", "osm_id": 403632816, "name": "Yeongdeungpo-gu", "admin_level": "6", "kind": "subdivision_2", "parent_osm_id": 2297418, "parent_name": "Seoul", "parent_iso": "KR-11"}, "geometry": {"type": "Polygon", "coordinates": [[[126.9508, 37.5231], [126.9024, 37.5388], [126.9015, 37.5336], [126.8927, 37.5291], [126.8958, 37.5242], [126.8876, 37.5168], [126.887, 37.5061], [126.902, 37.4926], [126.9046, 37.4844], [126.9108, 37.4832], [126.9309, 37.4959], [126.9309, 37.5045], [126.949, 37.5094], [126.9508, 37.5231]]]}}, {"type": "Feature", "properties": {"osm_type": "relation", "osm_id": 859921559, "name": "Gwanak-gu", "admin_level": "6", "kind": "subdivision_2", "parent_osm_id": 2297418, "parent_name": "Seoul", "parent_iso": "KR-11"}, "geometry": {"type": "Polygon", "coordinates": [[[126.9646, 37.427], [126.9841, 37.4385], [126.9893, 37.4459], [126.9902, 37.4611], [126.9691, 37.466], [126.966, 37.4816], [126.9268, 37.4848], [126.9025, 37.4783], [126.917, 37.4779], [126.9118, 37.4738], [126.9123, 37.4635], [126.9305, 37.4324], [126.9397, 37.4275], [126.9646, 37.427]]]}}, {"type": "Feature", "properties": {"osm_type": "relation", "osm_id": 769427921, "name": "Guro-gu", "admin_level": "6", "kind": "subdivision_2", "parent_osm_id": 2297418, "parent_name": "Seoul", "parent_iso": "KR-11"}, "geometry": {"type": "Polygon", "coordinates": [[[126.8768, 37.4816], [126.8932, 37.4766], [126.9263, 37.4848], [126.9046, 37.4844], [126.902, 37.4926], [126.8878, 37.5056], [126.8731, 37.4955], [126.8442, 37.4992], [126.8344, 37.493], [126.8241, 37.4975], [126.8137, 37.4906], [126.823, 37.4865], [126.8282, 37.4697], [126.8416, 37.4648], [126.8602, 37.4705], [126.8685, 37.4832], [126.8768, 37.4816]]]}}, {"type": "Feature", "properties": {"osm_type": "relation", "osm_id": 922433235, "name": "Yangcheon-gu", "admin_level": "6", "kind": "subdivision_2", "parent_osm_id": 2297418, "parent_name": "Seoul", "parent_iso": "KR-11"}, "geometry": {"type": "Polygon", "coordinates": [[[126.8878, 37.5056], [126.8876, 37.5168], [126.8958, 37.5242], [126.8927, 37.5291], [126.9015, 37.5336], [126.9024, 37.5388], [126.8876, 37.5446], [126.8674, 37.5438], [126.8664, 37.5176], [126.8421, 37.5188], [126.838, 37.5348], [126.8261, 37.5135], [126.8241, 37.4975], [126.8344, 37.493], [126.8442, 37.4992], [126.8731, 37.4955], [126.8878, 37.5056]]]}}, {"type": "Feature", "properties": {"osm_type": "relation", "osm_id": 642364671, "name": "Geumcheon-gu", "admin_level": "6", "kind": "subdivision_2", "parent_osm_id": 2297418, "parent_name": "Seoul", "parent_iso": "KR-11"}, "geometry": {"type": "Polygon", "coordinates": [[[126.9146, 37.4217], [126.917, 37.4283], [126.9278, 37.4336], [126.9462, 37.4271], [126.9305, 37.4324], [126.9123, 37.4635], [126.9118, 37.4738], [126.917, 37.4779], [126.8932, 37.4766], [126.8768, 37.4816], [126.8886, 37.4504], [126.9146, 37.4217]]]}}]}