{"type": "FeatureCollection", "parent": {"osm_id": 2306392, "name": "Gyeonggi", "admin_level": "4", "kind": "subdivision_1", "child_kind": "subdivision_2", "iso": "KR-41"}, "features": [{"type": "Feature", "properties": {"osm_type": "relation", "osm_id": 476855745, "name": "Yeoncheon-gun", "admin_level": "6", "kind": "subdivision_2", "parent_osm_id": 2306392, "parent_name": "Gyeonggi", "parent_iso": "KR-41"}, "geometry": {"type": "Polygon", "coordinates": [[[127.1154, 38.2906], [127.0969, 38.2774], [127.0009, 38.2376], [126.9843, 38.2215], [126.9744, 38.1924], [126.9676, 38.1883], [126.9472, 38.2007], [126.9434, 38.196], [126.9056, 38.1895], [126.8882, 38.2043], [126.8746, 38.2079], [126.8511, 38.199], [126.7558, 38.1264], [126.7574, 38.1145], [126.774, 38.0996], [126.7846, 38.0764], [126.833, 38.0687], [126.8458, 38.0812], [126.8723, 38.074], [126.892, 38.0615], [126.8965, 38.0514], [126.8844, 38.0222], [126.8693, 38.0145], [126.8557, 38.0246], [126.8496, 38.0222], [126.8368, 37.999], [126.8209, 37.9877], [126.8111, 37.9602], [126.8413, 37.9501], [126.8458, 37.9537], [126.8496, 37.9734], [126.8693, 37.9584], [126.8844, 37.9525], [126.8943, 37.9537], [126.8935, 37.9769], [126.898, 37.9865], [126.9253, 37.9728], [126.9616, 37.9692], [126.988, 37.9918], [127.0092, 37.9877], [127.0183, 37.9805], [127.0198, 37.9692], [126.9843, 37.9477], [126.982, 37.9376], [126.9873, 37.9286], [127.0054, 37.925], [127.0251, 37.9322], [127.0561, 37.9668], [127.0712, 37.965], [127.0833, 37.9573], [127.0932, 37.9602], [127.0924, 37.9716], [127.1007, 37.9853], [127.1143, 37.9781], [127.1431, 37.9757], [127.1469, 37.9805], [127.1438, 38.0186], [127.1204, 38.0258], [127.1181, 38.0347], [127.1219, 38.0484], [127.131, 38.0532], [127.1537, 38.0484], [127.1771, 38.0514], [127.1847, 38.0633], [127.1832, 38.105], [127.1756, 38.1199], [127.1794, 38.1228], [127.1771, 38.1359], [127.1908, 38.152], [127.1733, 38.1838], [127.1674, 38.2136], [127.1379, 38.2284], [127.119, 38.2256], [127.1154, 38.2906]]]}}, {"type": "Feature", "properties": {"osm_type": "relation", "osm_id": 485040516, "name": "Dongducheon-si", "admin_level": "6", "kind": "subdivision_2", "parent_osm_id": 2306392, "parent_name": "Gyeonggi", "parent_iso": "KR-41"}, "geometry": {"type": "Polygon", "coordinates": [[[127.0086, 37.9256], [127.013, 37.8982], [127.0274, 37.8874], [127.0455, 37.8886], [127.0523, 37.8839], [127.0531, 37.8683], [127.0637, 37.8612], [127.1022, 37.8606], [127.1158, 37.8546], [127.1423, 37.8713], [127.1529, 37.8904], [127.1506, 37.8988], [127.1287, 37.906], [127.0992, 37.9394], [127.0932, 37.9602], [127.0833, 37.9573], [127.0712, 37.965], [127.0561, 37.9668], [127.0251, 37.9322], [127.0086, 37.9256]]]}}, {"type": "Feature", "properties": {"osm_type": "relation", "osm_id": 725891702, "name": "Pocheon-si", "admin_level": "6", "kind": "subdivision_2", "parent_osm_id": 2306392, "parent_name": "Gyeonggi", "parent_iso": "KR-41"}, "geometry": {"type": "Polygon", "coordinates": [[[127.451, 38.0974], [127.3825, 38.1039], [127.366, 38.1002], [127.34, 38.0825], [127.3258, 38.0788], [127.321, 38.0928], [127.3045, 38.1048], [127.2856, 38.1067], [127.2761, 38.1141], [127.2844, 38.1374], [127.2962, 38.1476], [127.3021, 38.1625], [127.2844, 38.1699], [127.2419, 38.1411], [127.2182, 38.1309], [127.2076, 38.1318], [127.1908, 38.152], [127.1794, 38.1407], [127.1794, 38.1228], [127.1756, 38.1199], [127.1832, 38.105], [127.1847, 38.0633], [127.1771, 38.0514], [127.1537, 38.0484], [127.131, 38.0532], [127.1219, 38.0484], [127.1181, 38.0347], [127.1204, 38.0258], [127.1438, 38.0186], [127.1469, 37.9805], [127.1431, 37.9757], [127.1143, 37.9781], [127.1007, 37.9853], [127.0924, 37.9716], [127.0992, 37.9394], [127.1287, 37.906], [127.1506, 37.8988], [127.1529, 37.8904], [127.1423, 37.8713], [127.1141, 37.8554], [127.1257, 37.8098], [127.1234, 37.7859], [127.1166, 37.7728], [127.1287, 37.7638], [127.1331, 37.7534], [127.1591, 37.7432], [127.1757, 37.7441], [127.1993, 37.7618], [127.2182, 37.7478], [127.236, 37.7478], [127.2667, 37.7721], [127.2761, 37.7927], [127.2844, 37.8431], [127.2903, 37.8543], [127.3293, 37.8608], [127.3293, 37.9028], [127.3376, 37.9121], [127.3778, 37.9233], [127.3884, 37.9457], [127.3884, 37.9699], [127.4156, 37.995], [127.4286, 38.0165], [127.4475, 38.0313], [127.451, 38.0974]]]}}, {"type": "Feature", "properties": {"osm_type": "relation", "osm_id": 631693106, "name": "Gapyeong-gun", "admin_level": "6", "kind": "subdivision_2", "parent_osm_id": 2306392, "parent_name": "Gyeonggi", "parent_iso": "KR-41"}, "geometry": {"type": "Polygon", "coordinates": [[[127.4475, 38.0313], [127.4286, 38.0165], [127.4156, 37.995], [127.3884, 37.9699], [127.3884, 37.9457], [127.3778, 37.9233], [127.3376, 37.9121], [127.3293, 37.9028], [127.3293, 37.8608], [127.2903, 37.8543], [127.2844, 37.8431], [127.2722, 37.78], [127.3305, 37.7506], [127.347, 37.7291], [127.3577, 37.6899], [127.3979, 37.6412], [127.412, 37.645], [127.4298, 37.6581], [127.4404, 37.6553], [127.4463, 37.6375], [127.4699, 37.615], [127.4699, 37.5794], [127.4759, 37.572], [127.4889, 37.5645], [127.5148, 37.5748], [127.5562, 37.5729], [127.5633, 37.5766], [127.5655, 37.6201], [127.542, 37.6253], [127.5444, 37.6431], [127.5527, 37.6487], [127.5491, 37.674], [127.5562, 37.6899], [127.5552, 37.7132], [127.5361, 37.7114], [127.5137, 37.7161], [127.5208, 37.7329], [127.5397, 37.7469], [127.5444, 37.7609], [127.5243, 37.7749], [127.5219, 37.7861], [127.5338, 37.8039], [127.5326, 37.8309], [127.5692, 37.8543], [127.6094, 37.872], [127.6188, 37.9018], [127.62, 37.928], [127.607, 37.9419], [127.5858, 37.9522], [127.5444, 37.9615], [127.5394, 37.9991], [127.5267, 37.9941], [127.4829, 37.9978], [127.4664, 38.0062], [127.4475, 38.0313]]]}}, {"type": "Feature", "properties": {"osm_type": "relation", "osm_id": 702788178, "name": "Yangpyeong-gun", "admin_level": "6", "kind": "subdivision_2", "parent_osm_id": 2306392, "parent_name": "Gyeonggi", "parent_iso": "KR-41"}, "geometry": {"type": "Polygon", "coordinates": [[[127.5655, 37.6201], [127.5633, 37.5766], [127.5562, 37.5729], [127.5148, 37.5748], [127.4889, 37.5645], [127.4699, 37.5794], [127.4699, 37.615], [127.4463, 37.6375], [127.4404, 37.6553], [127.4298, 37.6581], [127.412, 37.645], [127.3979, 37.6412], [127.3848, 37.6568], [127.366, 37.6206], [127.353, 37.6085], [127.3518, 37.5841], [127.3423, 37.5738], [127.34, 37.5588], [127.321, 37.5392], [127.321, 37.527], [127.3612, 37.526], [127.3789, 37.4989], [127.3943, 37.4848], [127.3931, 37.4604], [127.3766, 37.4351], [127.3813, 37.4266], [127.3979, 37.4154], [127.4298, 37.4285], [127.4439, 37.4266], [127.464, 37.4135], [127.4782, 37.4107], [127.4924, 37.4144], [127.4959, 37.4229], [127.5172, 37.4266], [127.529, 37.421], [127.529, 37.4079], [127.5408, 37.405], [127.5952, 37.4107], [127.6177, 37.4088], [127.6578, 37.3966], [127.6897, 37.3994], [127.7039, 37.3919], [127.7016, 37.3806], [127.7075, 37.3637], [127.7784, 37.3656], [127.7878, 37.3957], [127.7996, 37.406], [127.7985, 37.4163], [127.8091, 37.4379], [127.7996, 37.4538], [127.7985, 37.4689], [127.7772, 37.4792], [127.7666, 37.4885], [127.7677, 37.4951], [127.8115, 37.526], [127.8398, 37.5317], [127.8576, 37.5429], [127.8256, 37.5551], [127.8067, 37.5682], [127.7098, 37.5794], [127.6803, 37.6057], [127.6094, 37.6384], [127.5952, 37.6375], [127.5655, 37.6201]]]}}, {"type": "Feature", "properties": {"osm_type": "relation", "osm_id": 475513497, "name": "Gwangju-si", "admin_level": "6", "kind": "subdivision_2", "parent_osm_id": 2306392, "parent_name": "Gyeonggi", "parent_iso": "KR-41"}, "geometry": {"type": "Polygon", "coordinates": [[[127.3237, 37.5262], [127.3072, 37.5008], [127.2655, 37.4951], [127.2549, 37.4735], [127.2466, 37.4689], [127.1934, 37.4726], [127.1792, 37.467], [127.1816, 37.451], [127.197, 37.4388], [127.1958, 37.4154], [127.1911, 37.405], [127.1792, 37.3966], [127.1769, 37.3712], [127.1698, 37.36], [127.1355, 37.3449], [127.1343, 37.3346], [127.1426, 37.3309], [127.1875, 37.3384], [127.2111, 37.3243], [127.223, 37.328], [127.2324, 37.3468], [127.2454, 37.3515], [127.2608, 37.344], [127.2655, 37.3346], [127.2856, 37.3346], [127.2891, 37.3092], [127.2832, 37.2792], [127.2915, 37.266], [127.34, 37.266], [127.353, 37.2707], [127.3577, 37.2782], [127.3612, 37.3017], [127.3719, 37.3092], [127.4179, 37.3233], [127.4463, 37.3449], [127.4516, 37.3747], [127.4237, 37.3765], [127.4037, 37.4163], [127.3884, 37.4191], [127.3766, 37.4351], [127.3931, 37.4604], [127.3943, 37.4848], [127.3789, 37.4989], [127.3612, 37.526], [127.3237, 37.5262]]]}}, {"type": "Feature", "properties": {"osm_type": "relation", "osm_id": 622728961, "name": "Yeoju", "admin_level": "6", "kind": "subdivision_2", "parent_osm_id": 2306392, "parent_name": "Gyeonggi", "parent_iso": "KR-41"}, "geometry": {"type": "Polygon", "coordinates": [[[127.4037, 37.4163], [127.4237, 37.3765], [127.4516, 37.3747], [127.4474, 37.3489], [127.4829, 37.3496], [127.5018, 37.3327], [127.5196, 37.3262], [127.5456, 37.2923], [127.5432, 37.2792], [127.5314, 37.2641], [127.5397, 37.2519], [127.5408, 37.2406], [127.5338, 37.2218], [127.5361, 37.1832], [127.5196, 37.1738], [127.5302, 37.1634], [127.5468, 37.1615], [127.568, 37.1643], [127.5893, 37.1794], [127.6047, 37.1785], [127.6366, 37.1465], [127.6767, 37.1238], [127.7016, 37.1257], [127.7063, 37.1643], [127.7264, 37.1794], [127.7382, 37.2011], [127.7583, 37.2105], [127.7488, 37.2265], [127.7571, 37.2472], [127.7559, 37.2792], [127.7642, 37.3233], [127.7644, 37.3644], [127.7075, 37.3637], [127.7016, 37.3806], [127.7039, 37.3919], [127.6897, 37.3994], [127.6578, 37.3966], [127.6177, 37.4088], [127.5952, 37.4107], [127.5408, 37.405], [127.529, 37.4079], [127.529, 37.421], [127.5172, 37.4266], [127.4959, 37.4229], [127.4924, 37.4144], [127.4782, 37.4107], [127.464, 37.4135], [127.4439, 37.4266], [127.4298, 37.4285], [127.4037, 37.4163]]]}}, {"type": "Feature", "properties": {"osm_type": "relation", "osm_id": 385383693, "name": "Icheon-si", "admin_level": "6", "kind": "subdivision_2", "parent_osm_id": 2306392, "parent_name": "Gyeonggi", "parent_iso": "KR-41"}, "geometry": {"type": "Polygon", "coordinates": [[[127.34, 37.266], [127.3352, 37.2293], [127.3459, 37.2067], [127.3789, 37.1879], [127.386, 37.1775], [127.4239, 37.1709], [127.4274, 37.1436], [127.4617, 37.122], [127.5007, 37.1135], [127.5125, 37.1022], [127.5196, 37.0805], [127.5101, 37.0465], [127.529, 37.0513], [127.5468, 37.0381], [127.5657, 37.0343], [127.5692, 37.0531], [127.5751, 37.0588], [127.6047, 37.0635], [127.6082, 37.0739], [127.6425, 37.0899], [127.6366, 37.1465], [127.6047, 37.1785], [127.5893, 37.1794], [127.568, 37.1643], [127.5468, 37.1615], [127.5302, 37.1634], [127.5196, 37.1738], [127.5361, 37.1832], [127.5338, 37.2218], [127.5408, 37.2406], [127.5397, 37.2519], [127.5314, 37.2641], [127.5432, 37.2792], [127.5456, 37.2923], [127.5196, 37.3262], [127.5018, 37.3327], [127.4829, 37.3496], [127.4474, 37.3489], [127.4179, 37.3233], [127.3719, 37.3092], [127.3612, 37.3017], [127.353, 37.2707], [127.34, 37.266]]]}}, {"type": "Feature", "properties": {"osm_type": "relation", "osm_id": 676056621, "name": "Anseong-si", "admin_level": "6", "kind": "subdivision_2", "parent_osm_id": 2306392, "parent_name": "Gyeonggi", "parent_iso": "KR-41"}, "geometry": {"type": "Polygon", "coordinates": [[[127.4337, 37.1406], [127.4298, 37.1191], [127.4144, 37.1144], [127.4262, 37.0956], [127.4191, 37.0833], [127.4061, 37.0843], [127.3872, 37.0918], [127.3789, 37.1003], [127.3624, 37.1031], [127.36, 37.089], [127.3435, 37.0909], [127.3388, 37.1069], [127.3222, 37.1125], [127.3222, 37.0993], [127.3021, 37.1003], [127.3033, 37.1125], [127.2773, 37.1276], [127.2738, 37.1427], [127.2596, 37.1465], [127.2572, 37.1238], [127.2194, 37.1059], [127.1958, 37.0777], [127.1414, 37.0795], [127.1331, 37.0711], [127.1131, 37.0692], [127.1131, 37.055], [127.1343, 37.0484], [127.1308, 37.0409], [127.1154, 37.0324], [127.1568, 37.0211], [127.1568, 36.9956], [127.1532, 36.988], [127.1414, 36.9824], [127.1432, 36.9658], [127.1662, 36.9626], [127.1934, 36.9503], [127.2206, 36.9257], [127.275, 36.9002], [127.293, 36.8854], [127.2998, 36.9087], [127.2974, 36.9267], [127.3222, 36.9267], [127.3494, 36.9408], [127.3931, 36.9465], [127.4061, 36.9522], [127.4061, 36.9607], [127.3943, 36.9673], [127.3919, 36.9899], [127.4191, 36.9909], [127.4569, 37.0041], [127.4617, 37.0371], [127.4806, 37.0447], [127.5101, 37.0465], [127.5196, 37.0805], [127.5125, 37.1022], [127.5007, 37.1135], [127.4617, 37.122], [127.4337, 37.1406]]]}}, {"type": "Feature", "properties": {"osm_type": "relation", "osm_id": 924304506, "name": "Yongin-si", "admin_level": "6", "kind": "subdivision_2", "parent_osm_id": 2306392, "parent_name": "Gyeonggi", "parent_iso": "KR-41"}, "geometry": {"type": "Polygon", "coordinates": [[[127.1412, 37.3315], [127.1024, 37.329], [127.0894, 37.3337], [127.067, 37.3515], [127.0374, 37.3619], [127.0209, 37.3534], [127.0209, 37.3421], [127.0374, 37.3355], [127.0575, 37.3074], [127.0622, 37.2933], [127.0693, 37.2867], [127.0871, 37.2867], [127.0953, 37.2801], [127.0906, 37.2509], [127.0705, 37.2218], [127.0823, 37.2105], [127.119, 37.2133], [127.1473, 37.2086], [127.1532, 37.2001], [127.1603, 37.1766], [127.1308, 37.1521], [127.1249, 37.1201], [127.1142, 37.1003], [127.1225, 37.089], [127.1414, 37.0795], [127.1958, 37.0777], [127.2194, 37.1059], [127.2572, 37.1238], [127.2596, 37.1465], [127.2738, 37.1427], [127.2773, 37.1276], [127.3033, 37.1125], [127.3021, 37.1003], [127.3222, 37.0993], [127.3222, 37.1125], [127.3388, 37.1069], [127.3435, 37.0909], [127.36, 37.089], [127.3624, 37.1031], [127.3789, 37.1003], [127.3872, 37.0918], [127.4061, 37.0843], [127.4191, 37.0833], [127.4262, 37.0956], [127.4144, 37.1144], [127.4298, 37.1191], [127.4337, 37.1406], [127.4274, 37.1436], [127.4239, 37.1709], [127.386, 37.1775], [127.3789, 37.1879], [127.3459, 37.2067], [127.3352, 37.2293], [127.34, 37.266], [127.2915, 37.266], [127.2832, 37.2792], [127.2891, 37.3092], [127.2856, 37.3346], [127.2655, 37.3346], [127.2608, 37.344], [127.2454, 37.3515], [127.2324, 37.3468], [127.223, 37.328], [127.2111, 37.3243], [127.1804, 37.3393], [127.1412, 37.3315]]]}}, {"type": "Feature", "properties": {"osm_type": "relation", "osm_id": 760127795, "name": "Osan-si", "admin_level": "6", "kind": "subdivision_2", "parent_osm_id": 2306392, "parent_name": "Gyeonggi", "parent_iso": "KR-41"}, "geometry": {"type": "Polygon", "coordinates": [[[127.1, 37.1364], [127.1015, 37.146], [127.0758, 37.1593], [127.0652, 37.1876], [127.0372, 37.1924], [127.0183, 37.1858], [126.9971, 37.1677], [127.0145, 37.1556], [127.0387, 37.1514], [127.0395, 37.1261], [127.0788, 37.1231], [127.0894, 37.1261], [127.0886, 37.1339], [127.1, 37.1364]]]}}, {"type": "Feature", "properties": {"osm_type": "relation", "osm_id": 797703651, "name": "Pyeongtaek-si", "admin_level": "6", "kind": "subdivision_2", "parent_osm_id": 2306392, "parent_name": "Gyeonggi", "parent_iso": "KR-41"}, "geometry": {"type": "Polygon", "coordinates": [[[127.1432, 36.9658], [127.1414, 36.9824], [127.1532, 36.988], [127.1568, 36.9956], [127.1568, 37.0211], [127.1154, 37.0324], [127.1308, 37.0409], [127.1343, 37.0484], [127.1131, 37.055], [127.1131, 37.0692], [127.1331, 37.0711], [127.1414, 37.0795], [127.1225, 37.089], [127.1142, 37.1003], [127.1261, 37.1314], [127.0939, 37.1351], [127.0886, 37.1339], [127.0894, 37.1261], [127.0788, 37.1231], [127.0395, 37.1261], [127.015, 37.1229], [127.002, 37.1022], [127.002, 37.0711], [126.9961, 37.0663], [126.9795, 37.0663], [126.9429, 37.0522], [126.9145, 37.0663], [126.9003, 37.0645], [126.8826, 37.0381], [126.8484, 37.0041], [126.7928, 36.9928], [126.7987, 36.9852], [126.8259, 36.9777], [126.8448, 36.9654], [126.846, 36.9569], [126.8637, 36.9437], [126.8637, 36.9333], [126.9051, 36.9219], [126.911, 36.9153], [126.911, 36.9068], [126.9252, 36.8983], [126.9606, 36.9097], [126.9961, 36.9286], [127.0826, 36.9263], [127.0835, 36.9342], [127.0918, 36.9399], [127.119, 36.9522], [127.1308, 36.9635], [127.1432, 36.9658]]]}}, {"type": "Feature", "properties": {"osm_type": "relation", "osm_id": 393815242, "name": "Ganghwa-gun", "admin_level": "6", "kind": "subdivision_2", "parent_osm_id": 2306392, "parent_name": "Gyeonggi", "parent_iso": "KR-41"}, "geometry": {"type": "MultiPolygon", "coordinates": [[[[126.2433, 37.6468], [126.2339, 37.6562], [126.2279, 37.6412], [126.2468, 37.6216], [126.2669, 37.6169], [126.2681, 37.6244], [126.2799, 37.6272], [126.2835, 37.6356], [126.2717, 37.6478], [126.2433, 37.6468]]], [[[126.2303, 37.6581], [126.2138, 37.6628], [126.2031, 37.6815], [126.1949, 37.6749], [126.1677, 37.6693], [126.1665, 37.6581], [126.1937, 37.6562], [126.1984, 37.6459], [126.2079, 37.6431], [126.2303, 37.6581]]], [[[126.2398, 37.7189], [126.2339, 37.7245], [126.2126, 37.7142], [126.2232, 37.7048], [126.2492, 37.7058], [126.2398, 37.7189]]], [[[126.3402, 37.6319], [126.3804, 37.6609], [126.3792, 37.6721], [126.3721, 37.6833], [126.3284, 37.6974], [126.3213, 37.7058], [126.3284, 37.7142], [126.3343, 37.7385], [126.3213, 37.7432], [126.2906, 37.731], [126.2858, 37.7039], [126.2764, 37.7011], [126.2847, 37.6917], [126.3319, 37.6637], [126.3272, 37.6431], [126.3319, 37.63], [126.3402, 37.6319]]], [[[126.2882, 37.7945], [126.2693, 37.8095], [126.2457, 37.8067], [126.2303, 37.7955], [126.2268, 37.7675], [126.2149, 37.7618], [126.2232, 37.746], [126.2504, 37.746], [126.2669, 37.7562], [126.3142, 37.7637], [126.3178, 37.7731], [126.3355, 37.7787], [126.3308, 37.7955], [126.2882, 37.7945]]], [[[126.51, 37.7694], [126.4915, 37.7767], [126.4288, 37.8175], [126.3881, 37.8015], [126.3715, 37.7898], [126.3641, 37.7738], [126.3678, 37.7343], [126.3568, 37.7095], [126.3881, 37.6876], [126.3992, 37.6715], [126.4103, 37.6423], [126.4029, 37.632], [126.3771, 37.6262], [126.3918, 37.6028], [126.4195, 37.5838], [126.4731, 37.5852], [126.4971, 37.5765], [126.5248, 37.575], [126.5285, 37.5867], [126.5432, 37.594], [126.5562, 37.594], [126.558, 37.6101], [126.5322, 37.635], [126.5322, 37.6701], [126.5285, 37.6891], [126.5192, 37.7051], [126.5266, 37.7227], [126.5248, 37.7402], [126.51, 37.7694]]]]}}, {"type": "Feature", "properties": {"osm_type": "relation", "osm_id": 252962854, "name": "Gimpo-si", "admin_level": "6", "kind": "subdivision_2", "parent_osm_id": 2306392, "parent_name": "Gyeonggi", "parent_iso": "KR-41"}, "geometry": {"type": "Polygon", "coordinates": [[[126.5541, 37.594], [126.5754, 37.5832], [126.5931, 37.5823], [126.6297, 37.5972], [126.6593, 37.6235], [126.6735, 37.6281], [126.7089, 37.5972], [126.7231, 37.5897], [126.7467, 37.5888], [126.7562, 37.5776], [126.7834, 37.5738], [126.8046, 37.5841], [126.8023, 37.5954], [126.6782, 37.6646], [126.6758, 37.688], [126.6876, 37.6964], [126.6888, 37.7114], [126.6746, 37.7675], [126.6463, 37.7646], [126.6297, 37.7432], [126.5754, 37.7469], [126.5423, 37.7628], [126.5281, 37.7796], [126.51, 37.7694], [126.5248, 37.7402], [126.5266, 37.7227], [126.5192, 37.7051], [126.5285, 37.6891], [126.5322, 37.6701], [126.5322, 37.635], [126.558, 37.6101], [126.5541, 37.594]]]}}, {"type": "Feature", "properties": {"osm_type": "relation", "osm_id": 450731618, "name": "Paju-si", "admin_level": "6", "kind": "subdivision_2", "parent_osm_id": 2306392, "parent_name": "Gyeonggi", "parent_iso": "KR-41"}, "geometry": {"type": "Polygon", "coordinates": [[[126.836, 37.9504], [126.8342, 37.9158], [126.8212, 37.886], [126.8105, 37.8795], [126.7964, 37.8869], [126.7893, 37.9056], [126.7751, 37.9084], [126.7704, 37.9252], [126.7751, 37.9578], [126.768, 37.9699], [126.7562, 37.9727], [126.7455, 37.9615], [126.7491, 37.9466], [126.7349, 37.9391], [126.7302, 37.928], [126.7184, 37.9242], [126.6935, 37.9335], [126.6817, 37.9485], [126.6735, 37.9373], [126.6699, 37.9112], [126.6829, 37.9009], [126.7136, 37.8991], [126.7361, 37.8823], [126.7597, 37.8468], [126.7574, 37.8384], [126.6865, 37.8272], [126.6746, 37.8207], [126.6699, 37.8104], [126.6687, 37.7675], [126.6746, 37.7675], [126.6794, 37.7572], [126.6805, 37.7319], [126.6888, 37.7114], [126.6876, 37.6964], [126.6805, 37.6914], [126.7065, 37.688], [126.7314, 37.6974], [126.7751, 37.6964], [126.7822, 37.7114], [126.7952, 37.7235], [126.807, 37.7254], [126.8212, 37.7161], [126.8377, 37.717], [126.846, 37.7291], [126.8614, 37.7282], [126.8743, 37.7151], [126.8897, 37.7133], [126.8956, 37.7273], [126.9074, 37.7366], [126.937, 37.7376], [126.9358, 37.7637], [126.9098, 37.7824], [126.9181, 37.8095], [126.9181, 37.8263], [126.9405, 37.8365], [126.9464, 37.8459], [126.9535, 37.9074], [126.9848, 37.9328], [126.9843, 37.9477], [127.0198, 37.9692], [127.0183, 37.9805], [127.0092, 37.9877], [126.988, 37.9918], [126.9616, 37.9692], [126.9253, 37.9728], [126.898, 37.9865], [126.8935, 37.9769], [126.8943, 37.9537], [126.8844, 37.9525], [126.8693, 37.9584], [126.8496, 37.9734], [126.8458, 37.9537], [126.836, 37.9504]]]}}, {"type": "Feature", "properties": {"osm_type": "relation", "osm_id": 120502063, "name": "Goyang-si", "admin_level": "6", "kind": "subdivision_2", "parent_osm_id": 2306392, "parent_name": "Gyeonggi", "parent_iso": "KR-41"}, "geometry": {"type": "Polygon", "coordinates": [[[126.8029, 37.5925], [126.859, 37.5654], [126.872, 37.5682], [126.8933, 37.5851], [126.9051, 37.5879], [126.9098, 37.5991], [126.9098, 37.6356], [126.9429, 37.6384], [126.9606, 37.6478], [126.9819, 37.6244], [126.9913, 37.6291], [126.9902, 37.659], [126.9996, 37.6646], [126.9949, 37.6721], [126.9713, 37.6796], [126.9571, 37.6787], [126.9453, 37.6712], [126.9417, 37.6618], [126.9323, 37.659], [126.9193, 37.659], [126.9122, 37.6656], [126.937, 37.7376], [126.9074, 37.7366], [126.8956, 37.7273], [126.8897, 37.7133], [126.8743, 37.7151], [126.8614, 37.7282], [126.846, 37.7291], [126.8377, 37.717], [126.8212, 37.7161], [126.807, 37.7254], [126.7952, 37.7235], [126.7822, 37.7114], [126.7751, 37.6964], [126.7314, 37.6974], [126.7065, 37.688], [126.6805, 37.6914], [126.6746, 37.6787], [126.6782, 37.6646], [126.8029, 37.5925]]]}}, {"type": "Feature", "properties": {"osm_type": "relation", "osm_id": 562391197, "name": "Yangju-si", "admin_level": "6", "kind": "subdivision_2", "parent_osm_id": 2306392, "parent_name": "Gyeonggi", "parent_iso": "KR-41"}, "geometry": {"type": "Polygon", "coordinates": [[[126.9848, 37.9328], [126.9535, 37.9074], [126.9464, 37.8459], [126.9405, 37.8365], [126.9181, 37.8263], [126.9181, 37.8095], [126.9098, 37.7824], [126.9358, 37.7637], [126.937, 37.7376], [126.9122, 37.6656], [126.9193, 37.659], [126.9417, 37.6618], [126.9453, 37.6712], [126.9571, 37.6787], [126.9713, 37.6796], [126.9949, 37.6721], [126.998, 37.6672], [127.0138, 37.6852], [127.0221, 37.6974], [127.0197, 37.717], [127.0091, 37.7226], [127.0043, 37.7329], [127.0032, 37.7572], [127.028, 37.76], [127.0646, 37.7497], [127.1166, 37.7728], [127.1234, 37.7859], [127.1257, 37.8098], [127.1141, 37.8554], [127.1022, 37.8606], [127.0637, 37.8612], [127.0531, 37.8683], [127.0523, 37.8839], [127.0455, 37.8886], [127.0274, 37.8874], [127.013, 37.8982], [127.0086, 37.9256], [126.9873, 37.9286], [126.9848, 37.9328]]]}}, {"type": "Feature", "properties": {"osm_type": "relation", "osm_id": 721877462, "name": "Uijeongbu-si", "admin_level": "6", "kind": "subdivision_2", "parent_osm_id": 2306392, "parent_name": "Gyeonggi", "parent_iso": "KR-41"}, "geometry": {"type": "Polygon", "coordinates": [[[127.1166, 37.7728], [127.0646, 37.7497], [127.028, 37.76], [127.0032, 37.7572], [127.0043, 37.7329], [127.0091, 37.7226], [127.0197, 37.717], [127.0221, 37.6974], [127.0178, 37.6906], [127.0552, 37.6815], [127.0918, 37.688], [127.093, 37.6992], [127.1154, 37.7086], [127.1213, 37.7291], [127.1442, 37.7484], [127.1331, 37.7534], [127.1287, 37.7638], [127.1166, 37.7728]]]}}, {"type": "Feature", "properties": {"osm_type": "relation", "osm_id": 860217505, "name": "Namyangju-si", "admin_level": "6", "kind": "subdivision_2", "parent_osm_id": 2306392, "parent_name": "Gyeonggi", "parent_iso": "KR-41"}, "geometry": {"type": "Polygon", "coordinates": [[[127.1442, 37.7484], [127.1213, 37.7291], [127.1154, 37.7086], [127.093, 37.6992], [127.0914, 37.6879], [127.1053, 37.6411], [127.1098, 37.6351], [127.1499, 37.6315], [127.1453, 37.6052], [127.162, 37.5908], [127.1658, 37.5818], [127.1756, 37.577], [127.2036, 37.5788], [127.2301, 37.5536], [127.2384, 37.5392], [127.2837, 37.5134], [127.2859, 37.4988], [127.3072, 37.5008], [127.3237, 37.5262], [127.321, 37.5392], [127.34, 37.5588], [127.3423, 37.5738], [127.3518, 37.5841], [127.353, 37.6085], [127.366, 37.6206], [127.3848, 37.6568], [127.3577, 37.6899], [127.347, 37.7291], [127.3305, 37.7506], [127.2722, 37.78], [127.236, 37.7478], [127.2182, 37.7478], [127.1993, 37.7618], [127.1757, 37.7441], [127.1591, 37.7432], [127.1442, 37.7484]]]}}, {"type": "Feature", "properties": {"osm_type": "relation", "osm_id": 478766697, "name": "Seongnam-si", "admin_level": "6", "kind": "subdivision_2", "parent_osm_id": 2306392, "parent_name": "Gyeonggi", "parent_iso": "KR-41"}, "geometry": {"type": "Polygon", "coordinates": [[[127.1791, 37.4659], [127.1521, 37.4707], [127.1402, 37.4679], [127.132, 37.4585], [127.1012, 37.4482], [127.0788, 37.4266], [127.0492, 37.4126], [127.0457, 37.3938], [127.0303, 37.3712], [127.0344, 37.3608], [127.067, 37.3515], [127.0894, 37.3337], [127.1024, 37.329], [127.1412, 37.3315], [127.1343, 37.3346], [127.1355, 37.3449], [127.1698, 37.36], [127.1769, 37.3712], [127.1792, 37.3966], [127.1911, 37.405], [127.1958, 37.4154], [127.197, 37.4388], [127.1816, 37.451], [127.1791, 37.4659]]]}}, {"type": "Feature", "properties": {"osm_type": "relation", "osm_id": 180077921, "name": "Suwon-si", "admin_level": "6", "kind": "subdivision_2", "parent_osm_id": 2306392, "parent_name": "Gyeonggi", "parent_iso": "KR-41"}, "geometry": {"type": "Polygon", "coordinates": [[[127.0209, 37.3421], [127.0008, 37.3318], [126.9913, 37.3177], [126.9713, 37.3168], [126.9677, 37.298], [126.9476, 37.2914], [126.9346, 37.2792], [126.9311, 37.2594], [126.976, 37.2237], [127.0138, 37.2152], [127.0386, 37.2265], [127.0716, 37.2246], [127.0906, 37.2509], [127.0953, 37.2801], [127.0871, 37.2867], [127.0693, 37.2867], [127.0374, 37.3355], [127.0209, 37.3421]]]}}, {"type": "Feature", "properties": {"osm_type": "relation", "osm_id": 875690219, "name": "Hwaseong-si", "admin_level": "6", "kind": "subdivision_2", "parent_osm_id": 2306392, "parent_name": "Gyeonggi", "parent_iso": "KR-41"}, "geometry": {"type": "Polygon", "coordinates": [[[127.0716, 37.2246], [127.0386, 37.2265], [127.0138, 37.2152], [126.976, 37.2237], [126.9311, 37.2594], [126.9346, 37.2792], [126.901, 37.2781], [126.8834, 37.2657], [126.8587, 37.2571], [126.8447, 37.2587], [126.8204, 37.2719], [126.8039, 37.2587], [126.7833, 37.2287], [126.7693, 37.2333], [126.7678, 37.244], [126.7611, 37.2505], [126.7497, 37.2423], [126.6996, 37.255], [126.6903, 37.2534], [126.6893, 37.2456], [126.6748, 37.2357], [126.6712, 37.2275], [126.6764, 37.2185], [126.6955, 37.209], [126.6976, 37.2028], [126.6754, 37.1893], [126.665, 37.174], [126.6692, 37.1588], [126.6919, 37.1584], [126.6914, 37.1514], [126.6785, 37.137], [126.6847, 37.1177], [126.6945, 37.1164], [126.744, 37.1477], [126.7791, 37.1555], [126.8003, 37.1708], [126.8013, 37.1436], [126.8106, 37.1321], [126.7988, 37.1189], [126.7678, 37.1164], [126.7673, 37.1028], [126.776, 37.0851], [126.7735, 37.0699], [126.7471, 37.0415], [126.7523, 37.0291], [126.7869, 37.0303], [126.7953, 37.026], [126.808, 36.9967], [126.82, 36.9975], [126.8484, 37.0041], [126.8826, 37.0381], [126.9003, 37.0645], [126.9145, 37.0663], [126.9429, 37.0522], [127.002, 37.0711], [127.002, 37.1022], [127.0079, 37.1154], [127.015, 37.1229], [127.0395, 37.1261], [127.0387, 37.1514], [127.0145, 37.1556], [126.9971, 37.1677], [127.0183, 37.1858], [127.0372, 37.1924], [127.0652, 37.1876], [127.0758, 37.1593], [127.1015, 37.146], [127.1, 37.1364], [127.0939, 37.1351], [127.1261, 37.1314], [127.1308, 37.1521], [127.1603, 37.1766], [127.1532, 37.2001], [127.1473, 37.2086], [127.119, 37.2133], [127.0823, 37.2105], [127.0716, 37.2246]]]}}, {"type": "Feature", "properties": {"osm_type": "relation", "osm_id": 309540217, "name": "Siheung-si", "admin_level": "6", "kind": "subdivision_2", "parent_osm_id": 2306392, "parent_name": "Gyeonggi", "parent_iso": "KR-41"}, "geometry": {"type": "Polygon", "coordinates": [[[126.7349, 37.3773], [126.7337, 37.3651], [126.6909, 37.3314], [126.7306, 37.3072], [126.7533, 37.3257], [126.7962, 37.3331], [126.8282, 37.3585], [126.87, 37.3565], [126.8793, 37.3598], [126.8767, 37.3893], [126.8499, 37.4041], [126.8442, 37.418], [126.8437, 37.4447], [126.8303, 37.45], [126.7833, 37.4545], [126.7729, 37.4193], [126.7349, 37.3773]]]}}, {"type": "Feature", "properties": {"osm_type": "relation", "osm_id": 664185936, "name": "Ansan-si", "admin_level": "6", "kind": "subdivision_2", "parent_osm_id": 2306392, "parent_name": "Gyeonggi", "parent_iso": "KR-41"}, "geometry": {"type": "MultiPolygon", "coordinates": [[[[126.3955, 37.103], [126.3939, 37.112], [126.3883, 37.1151], [126.379, 37.1115], [126.3893, 37.1012], [126.3955, 37.103]]], [[[126.5829, 37.2857], [126.5826, 37.2911], [126.578, 37.2922], [126.6083, 37.313], [126.5767, 37.2924], [126.5778, 37.2875], [126.5633, 37.2776], [126.538, 37.2863], [126.5582, 37.2686], [126.5654, 37.2378], [126.5489, 37.2341], [126.5416, 37.2246], [126.5576, 37.2185], [126.5458, 37.2139], [126.5473, 37.2082], [126.5649, 37.1938], [126.5767, 37.2209], [126.6134, 37.2115], [126.601, 37.2259], [126.6098, 37.2329], [126.6196, 37.2308], [126.6227, 37.237], [126.6304, 37.2164], [126.6434, 37.2144], [126.6444, 37.1905], [126.6521, 37.2], [126.6563, 37.2267], [126.6304, 37.2604], [126.5871, 37.2871], [126.5829, 37.2857]]], [[[126.9462, 37.2888], [126.9237, 37.2974], [126.9098, 37.313], [126.8834, 37.3121], [126.8803, 37.3171], [126.8876, 37.3273], [126.8855, 37.3323], [126.8989, 37.3466], [126.8948, 37.3635], [126.8891, 37.3684], [126.8798, 37.3673], [126.8793, 37.3598], [126.87, 37.3565], [126.8282, 37.3585], [126.7962, 37.3331], [126.7533, 37.3257], [126.7306, 37.3072], [126.744, 37.2933], [126.7766, 37.2855], [126.8101, 37.2855], [126.8179, 37.2822], [126.8251, 37.2699], [126.8447, 37.2587], [126.8587, 37.2571], [126.8834, 37.2657], [126.901, 37.2781], [126.9346, 37.2792], [126.9462, 37.2888]]]]}}, {"type": "Feature", "properties": {"osm_type": "relation", "osm_id": 107770634, "name": "Uiwang-si", "admin_level": "6", "kind": "subdivision_2", "parent_osm_id": 2306392, "parent_name": "Gyeonggi", "parent_iso": "KR-41"}, "geometry": {"type": "Polygon", "coordinates": [[[127.0344, 37.3608], [127.0303, 37.3712], [127.0457, 37.3938], [127.0476, 37.4067], [127.0099, 37.4012], [127.0042, 37.393], [126.9939, 37.3914], [126.9712, 37.3655], [126.9676, 37.3425], [126.9397, 37.3109], [126.9363, 37.2928], [126.9462, 37.2888], [126.9677, 37.298], [126.9713, 37.3168], [126.9913, 37.3177], [127.0008, 37.3318], [127.0209, 37.3421], [127.0209, 37.3534], [127.0344, 37.3608]]]}}, {"type": "Feature", "properties": {"osm_type": "relation", "osm_id": 966213430, "name": "Gunpo-si", "admin_level": "6", "kind": "subdivision_2", "parent_osm_id": 2306392, "parent_name": "Gyeonggi", "parent_iso": "KR-41"}, "geometry": {"type": "Polygon", "coordinates": [[[126.9363, 37.2928], [126.9397, 37.3109], [126.9676, 37.3425], [126.9684, 37.3545], [126.9495, 37.3569], [126.9418, 37.3663], [126.9304, 37.3676], [126.916, 37.3602], [126.9118, 37.3524], [126.8988, 37.3483], [126.8855, 37.3323], [126.8876, 37.3273], [126.8803, 37.3171], [126.8834, 37.3121], [126.916, 37.3105], [126.9237, 37.2974], [126.9363, 37.2928]]]}}, {"type": "Feature", "properties": {"osm_type": "relation", "osm_id": 361427069, "name": "Gwacheon-si", "admin_level": "6", "kind": "subdivision_2", "parent_osm_id": 2306392, "parent_name": "Gyeonggi", "parent_iso": "KR-41"}, "geometry": {"type": "Polygon", "coordinates": [[[127.0476, 37.4067], [127.0538, 37.415], [127.0244, 37.4504], [127.0115, 37.4422], [126.9919, 37.4488], [126.9841, 37.4385], [126.9642, 37.4267], [126.9681, 37.4123], [126.9919, 37.3897], [127.0042, 37.393], [127.0099, 37.4012], [127.0476, 37.4067]]]}}, {"type": "Feature", "properties": {"osm_type": "relation", "osm_id": 329443901, "name": "Gwangmyeong-si", "admin_level": "6", "kind": "subdivision_2", "parent_osm_id": 2306392, "parent_name": "Gyeonggi", "parent_iso": "KR-41"}, "geometry": {"type": "Polygon", "coordinates": [[[126.8762, 37.3896], [126.8793, 37.3992], [126.8927, 37.4008], [126.9015, 37.4143], [126.9146, 37.4217], [126.8886, 37.4504], [126.8767, 37.482], [126.8685, 37.4832], [126.8602, 37.4705], [126.8416, 37.4648], [126.8354, 37.449], [126.8457, 37.4389], [126.8442, 37.418], [126.8499, 37.4041], [126.8762, 37.3896]]]}}, {"type": "Feature", "properties": {"osm_type": "relation", "osm_id": 659907993, "name": "Gyeyang-gu", "admin_level": "6", "kind": "subdivision_2", "parent_osm_id": 2306392, "parent_name": "Gyeonggi", "parent_iso": "KR-41"}, "geometry": {"type": "Polygon", "coordinates": [[[126.724, 37.5897], [126.7167, 37.5684], [126.6909, 37.5716], [126.6888, 37.5639], [126.6986, 37.563], [126.7105, 37.5368], [126.7074, 37.5282], [126.6903, 37.5164], [126.7642, 37.5164], [126.7678, 37.5471], [126.7822, 37.5557], [126.7855, 37.5746], [126.7562, 37.5776], [126.7467, 37.5888], [126.724, 37.5897]]]}}, {"type": "Feature", "properties": {"osm_type": "relation", "osm_id": 308834130, "name": "Bucheon-si", "admin_level": "6", "kind": "subdivision_2", "parent_osm_id": 2306392, "parent_name": "Gyeonggi", "parent_iso": "KR-41"}, "geometry": {"type": "Polygon", "coordinates": [[[126.8354, 37.449], [126.8416, 37.4648], [126.8282, 37.4697], [126.823, 37.4865], [126.8137, 37.4881], [126.8241, 37.4975], [126.8318, 37.527], [126.807, 37.5315], [126.807, 37.5262], [126.8029, 37.5266], [126.8013, 37.5327], [126.7828, 37.5389], [126.7701, 37.5489], [126.7652, 37.5057], [126.7466, 37.4943], [126.7451, 37.4881], [126.781, 37.455], [126.8354, 37.449]]]}}, {"type": "Feature", "properties": {"osm_type": "relation", "osm_id": 515158178, "name": "Hanam-si", "admin_level": "6", "kind": "subdivision_2", "parent_osm_id": 2306392, "parent_name": "Gyeonggi", "parent_iso": "KR-41"}, "geometry": {"type": "Polygon", "coordinates": [[[127.2859, 37.4988], [127.2837, 37.5134], [127.2384, 37.5392], [127.2301, 37.5536], [127.2036, 37.5788], [127.1818, 37.5782], [127.1834, 37.5364], [127.1664, 37.5315], [127.1591, 37.5246], [127.1488, 37.4983], [127.1643, 37.4856], [127.1508, 37.4704], [127.1791, 37.4659], [127.1934, 37.4726], [127.2466, 37.4689], [127.2549, 37.4735], [127.2655, 37.4951], [127.2859, 37.4988]]]}}, {"type": "Feature", "properties": {"osm_type": "relation", "osm_id": 438062377, "name": "Guri-si", "admin_level": "6", "kind": "subdivision_2", "parent_osm_id": 2306392, "parent_name": "Gyeonggi", "parent_iso": "KR-41"}, "geometry": {"type": "Polygon", "coordinates": [[[127.1189, 37.6333], [127.1225, 37.6187], [127.1132, 37.6064], [127.1184, 37.5835], [127.1039, 37.5716], [127.1023, 37.5553], [127.1091, 37.5463], [127.1194, 37.5475], [127.138, 37.5614], [127.156, 37.5647], [127.1807, 37.578], [127.1658, 37.5818], [127.162, 37.5908], [127.1453, 37.6052], [127.1499, 37.6315], [127.1431, 37.6351], [127.1189, 37.6333]]]}}, {"type": "Feature", "properties": {"osm_type": "relation", "osm_id": 382279565, "name": "Anyang-si", "admin_level": "6", "kind": "subdivision_2", "parent_osm_id": 2306392, "parent_name": "Gyeonggi", "parent_iso": "KR-41"}, "geometry": {"type": "Polygon", "coordinates": [[[126.8798, 37.3673], [126.8891, 37.3684], [126.8948, 37.3635], [126.8988, 37.3483], [126.9118, 37.3524], [126.916, 37.3602], [126.9304, 37.3676], [126.9418, 37.3663], [126.9495, 37.3569], [126.9684, 37.3545], [126.9712, 37.3655], [126.9919, 37.3897], [126.9681, 37.4123], [126.964, 37.4279], [126.9392, 37.4275], [126.9278, 37.4336], [126.9015, 37.4143], [126.8927, 37.4008], [126.8793, 37.3992], [126.8762, 37.3896], [126.8798, 37.3673]]]}}]}