{"type": "FeatureCollection", "parent": {"osm_id": 2340912, "name": "Colima", "admin_level": "4", "kind": "subdivision_1", "child_kind": "subdivision_2", "iso": "MX-COL"}, "features": [{"type": "Feature", "properties": {"osm_type": "relation", "osm_id": 516611112, "name": "Armería", "admin_level": "6", "kind": "subdivision_2", "parent_osm_id": 2340912, "parent_name": "Colima", "parent_iso": "MX-COL"}, "geometry": {"type": "Polygon", "coordinates": [[[-103.8963, 19.0977], [-103.9371, 19.1189], [-103.9604, 19.1171], [-103.9831, 19.133], [-104.0007, 19.1314], [-104.0368, 19.152], [-104.0609, 19.1517], [-104.0694, 19.1323], [-104.0625, 19.1187], [-104.0679, 19.1019], [-104.0296, 19.0671], [-104.0279, 19.0458], [-104.0231, 19.0388], [-104.0368, 19.0218], [-104.0301, 19.0126], [-104.0508, 19.0087], [-104.0605, 19.0136], [-104.078, 18.9874], [-104.0999, 18.9871], [-104.1186, 18.9485], [-104.1166, 18.9438], [-104.1199, 18.9442], [-103.971, 18.8644], [-103.9675, 18.8744], [-103.9618, 18.873], [-103.9529, 18.8816], [-103.9529, 18.9079], [-103.9448, 18.9196], [-103.9459, 18.943], [-103.9422, 18.9475], [-103.9461, 18.9564], [-103.9291, 18.9595], [-103.9224, 18.9664], [-103.9141, 18.9975], [-103.9184, 19.0167], [-103.9111, 19.0346], [-103.9175, 19.0376], [-103.9145, 19.0598], [-103.8963, 19.0977]]]}}, {"type": "Feature", "properties": {"osm_type": "relation", "osm_id": 818725383, "name": "Colima", "admin_level": "6", "kind": "subdivision_2", "parent_osm_id": 2340912, "parent_name": "Colima", "parent_iso": "MX-COL"}, "geometry": {"type": "Polygon", "coordinates": [[[-103.6615, 19.3153], [-103.6625, 19.3205], [-103.6792, 19.3258], [-103.7087, 19.2945], [-103.7193, 19.2776], [-103.7156, 19.274], [-103.7237, 19.2584], [-103.7301, 19.2607], [-103.7328, 19.2547], [-103.7373, 19.2564], [-103.743, 19.2443], [-103.7837, 19.2337], [-103.7744, 19.2294], [-103.774, 19.2204], [-103.7834, 19.2075], [-103.7791, 19.2057], [-103.7809, 19.1603], [-103.7887, 19.1642], [-103.7968, 19.1485], [-103.8002, 19.1515], [-103.8258, 19.136], [-103.817, 19.1218], [-103.7826, 19.0888], [-103.7845, 19.0782], [-103.773, 19.0787], [-103.7761, 19.072], [-103.7686, 19.0681], [-103.7529, 19.0718], [-103.7511, 19.0612], [-103.7406, 19.0699], [-103.7251, 19.0647], [-103.7277, 19.0715], [-103.7182, 19.0885], [-103.6824, 19.0748], [-103.6584, 19.0626], [-103.6573, 19.0582], [-103.645, 19.0562], [-103.6484, 19.0167], [-103.636, 19.0283], [-103.6118, 19.0285], [-103.6031, 19.0102], [-103.5922, 19.0045], [-103.5889, 18.9853], [-103.5923, 18.981], [-103.5854, 18.9772], [-103.5895, 18.9341], [-103.588, 18.9269], [-103.5797, 18.9284], [-103.58, 18.9171], [-103.5852, 18.9173], [-103.5896, 18.9069], [-103.5962, 18.9042], [-103.5907, 18.9035], [-103.5806, 18.8862], [-103.5812, 18.8759], [-103.5747, 18.8716], [-103.5689, 18.8925], [-103.5596, 18.896], [-103.5581, 18.9066], [-103.5415, 18.9097], [-103.5313, 18.9063], [-103.5284, 18.9123], [-103.5336, 18.927], [-103.5235, 18.9272], [-103.5141, 18.9349], [-103.5219, 18.949], [-103.5058, 18.949], [-103.5029, 18.9578], [-103.5086, 18.9637], [-103.4931, 18.958], [-103.4886, 18.9649], [-103.4957, 18.972], [-103.4899, 18.9808], [-103.4908, 18.9958], [-103.4988, 19.0117], [-103.4885, 19.0276], [-103.497, 19.0352], [-103.5013, 19.0487], [-103.5226, 19.0662], [-103.5222, 19.0767], [-103.5265, 19.0787], [-103.5174, 19.0988], [-103.5236, 19.1156], [-103.511, 19.132], [-103.514, 19.1383], [-103.5092, 19.156], [-103.5021, 19.1625], [-103.5031, 19.1702], [-103.4976, 19.1746], [-103.4986, 19.187], [-103.5109, 19.1997], [-103.5152, 19.2114], [-103.5113, 19.2168], [-103.5661, 19.2166], [-103.5743, 19.2298], [-103.6231, 19.2071], [-103.6442, 19.1883], [-103.649, 19.1906], [-103.6394, 19.2063], [-103.655, 19.2133], [-103.6504, 19.2177], [-103.6509, 19.2327], [-103.6651, 19.2296], [-103.675, 19.2343], [-103.6756, 19.2409], [-103.6587, 19.2555], [-103.6623, 19.2565], [-103.6629, 19.2695], [-103.6727, 19.27], [-103.6823, 19.2639], [-103.6881, 19.2687], [-103.6759, 19.2818], [-103.6615, 19.3153]]]}}, {"type": "Feature", "properties": {"osm_type": "relation", "osm_id": 565146606, "name": "Comala", "admin_level": "6", "kind": "subdivision_2", "parent_osm_id": 2340912, "parent_name": "Colima", "parent_iso": "MX-COL"}, "geometry": {"type": "Polygon", "coordinates": [[[-103.6183, 19.5125], [-103.6515, 19.501], [-103.6649, 19.5026], [-103.69, 19.4924], [-103.7083, 19.4699], [-103.7158, 19.467], [-103.7183, 19.4535], [-103.7353, 19.4434], [-103.7507, 19.4457], [-103.7744, 19.4305], [-103.7927, 19.4275], [-103.8193, 19.4087], [-103.828, 19.4327], [-103.824, 19.4376], [-103.8345, 19.4398], [-103.8565, 19.4313], [-103.8638, 19.4474], [-103.8794, 19.4445], [-103.8869, 19.4616], [-103.8973, 19.4614], [-103.9088, 19.4536], [-103.898, 19.4386], [-103.8995, 19.4328], [-103.8854, 19.4229], [-103.8869, 19.4056], [-103.8811, 19.3935], [-103.8854, 19.368], [-103.8818, 19.3573], [-103.899, 19.343], [-103.8824, 19.3502], [-103.8779, 19.3389], [-103.8542, 19.351], [-103.8325, 19.3389], [-103.8331, 19.3331], [-103.8408, 19.3309], [-103.8321, 19.3085], [-103.8279, 19.3149], [-103.8323, 19.3246], [-103.8195, 19.3185], [-103.8104, 19.3287], [-103.822, 19.3099], [-103.7976, 19.2915], [-103.7867, 19.3009], [-103.7742, 19.2898], [-103.7794, 19.2815], [-103.7744, 19.2783], [-103.7649, 19.2903], [-103.7479, 19.2907], [-103.7542, 19.3032], [-103.7477, 19.3022], [-103.7451, 19.3196], [-103.7395, 19.3198], [-103.7368, 19.3283], [-103.7163, 19.3396], [-103.7109, 19.3344], [-103.7025, 19.3447], [-103.6991, 19.3632], [-103.6852, 19.3818], [-103.6839, 19.3965], [-103.699, 19.3991], [-103.6773, 19.4173], [-103.6941, 19.4309], [-103.6735, 19.4314], [-103.6748, 19.4452], [-103.6709, 19.4454], [-103.6688, 19.4622], [-103.6431, 19.4714], [-103.646, 19.4762], [-103.6386, 19.4801], [-103.6363, 19.4678], [-103.626, 19.4861], [-103.6124, 19.4889], [-103.6145, 19.4947], [-103.6062, 19.5006], [-103.6183, 19.5125]]]}}, {"type": "Feature", "properties": {"osm_type": "relation", "osm_id": 577717534, "name": "Coquimatlán", "admin_level": "6", "kind": "subdivision_2", "parent_osm_id": 2340912, "parent_name": "Colima", "parent_iso": "MX-COL"}, "geometry": {"type": "Polygon", "coordinates": [[[-103.8963, 19.0977], [-103.8969, 19.1032], [-103.8843, 19.1214], [-103.8838, 19.1123], [-103.8678, 19.1011], [-103.8484, 19.1079], [-103.8524, 19.0842], [-103.8612, 19.0868], [-103.856, 19.0806], [-103.8573, 19.0456], [-103.7835, 19.0593], [-103.7907, 19.0742], [-103.785, 19.0751], [-103.7826, 19.0888], [-103.817, 19.1218], [-103.8258, 19.136], [-103.8002, 19.1515], [-103.7968, 19.1485], [-103.7887, 19.1642], [-103.7809, 19.1603], [-103.7791, 19.2057], [-103.7834, 19.2075], [-103.774, 19.2204], [-103.7744, 19.2294], [-103.7837, 19.2337], [-103.7719, 19.2378], [-103.7777, 19.2458], [-103.7814, 19.2415], [-103.7913, 19.2466], [-103.7813, 19.2527], [-103.7885, 19.2518], [-103.8012, 19.2645], [-103.8118, 19.253], [-103.8351, 19.259], [-103.8433, 19.2399], [-103.8365, 19.2202], [-103.8459, 19.2376], [-103.841, 19.251], [-103.8964, 19.2546], [-103.9129, 19.2625], [-103.9138, 19.2674], [-103.9311, 19.2657], [-103.9343, 19.2763], [-103.9571, 19.2907], [-103.988, 19.2822], [-104.005, 19.2907], [-104.0221, 19.2874], [-104.0397, 19.2932], [-104.0518, 19.3063], [-104.063, 19.3018], [-104.0578, 19.2918], [-104.069, 19.2862], [-104.0662, 19.2811], [-104.056, 19.2848], [-104.052, 19.2743], [-104.032, 19.277], [-104.0341, 19.2659], [-104.0447, 19.2502], [-104.0688, 19.2458], [-104.0633, 19.2359], [-104.0766, 19.222], [-104.1041, 19.2134], [-104.0484, 19.1653], [-104.0635, 19.1523], [-104.0368, 19.152], [-104.0007, 19.1314], [-103.9831, 19.133], [-103.9604, 19.1171], [-103.9371, 19.1189], [-103.8963, 19.0977]]]}}, {"type": "Feature", "properties": {"osm_type": "relation", "osm_id": 332028908, "name": "Cuauhtémoc", "admin_level": "6", "kind": "subdivision_2", "parent_osm_id": 2340912, "parent_name": "Colima", "parent_iso": "MX-COL"}, "geometry": {"type": "Polygon", "coordinates": [[[-103.5141, 19.2172], [-103.5065, 19.2278], [-103.5092, 19.2951], [-103.501, 19.2998], [-103.4992, 19.3085], [-103.4899, 19.3107], [-103.4957, 19.3198], [-103.4868, 19.3274], [-103.4865, 19.3379], [-103.4926, 19.3465], [-103.5017, 19.3449], [-103.5222, 19.3578], [-103.5267, 19.3728], [-103.5562, 19.407], [-103.5688, 19.4062], [-103.5743, 19.4116], [-103.5789, 19.4355], [-103.6154, 19.475], [-103.6124, 19.4889], [-103.626, 19.4861], [-103.6363, 19.4678], [-103.6386, 19.4801], [-103.646, 19.4762], [-103.6431, 19.4714], [-103.6688, 19.4622], [-103.6709, 19.4454], [-103.6748, 19.4452], [-103.6735, 19.4314], [-103.6477, 19.4282], [-103.6473, 19.4101], [-103.6534, 19.4028], [-103.6511, 19.3957], [-103.6551, 19.3866], [-103.6698, 19.3953], [-103.6795, 19.3784], [-103.6713, 19.3567], [-103.6781, 19.3429], [-103.6875, 19.3475], [-103.6905, 19.3378], [-103.6736, 19.3383], [-103.6792, 19.3258], [-103.6608, 19.3186], [-103.6759, 19.2818], [-103.6881, 19.2687], [-103.6823, 19.2639], [-103.6727, 19.27], [-103.6629, 19.2695], [-103.6623, 19.2565], [-103.6587, 19.2555], [-103.6756, 19.2409], [-103.675, 19.2343], [-103.6651, 19.2296], [-103.6509, 19.2327], [-103.6504, 19.2177], [-103.655, 19.2133], [-103.6394, 19.2063], [-103.65, 19.1942], [-103.6442, 19.1883], [-103.6231, 19.2071], [-103.5743, 19.2298], [-103.5661, 19.2166], [-103.5141, 19.2172]]]}}, {"type": "Feature", "properties": {"osm_type": "relation", "osm_id": 519242695, "name": "Ixtlahuacán", "admin_level": "6", "kind": "subdivision_2", "parent_osm_id": 2340912, "parent_name": "Colima", "parent_iso": "MX-COL"}, "geometry": {"type": "Polygon", "coordinates": [[[-103.7686, 19.0681], [-103.7741, 19.0599], [-103.7679, 19.027], [-103.7719, 19.0218], [-103.7699, 19.0001], [-103.7807, 18.9999], [-103.7776, 18.9779], [-103.784, 18.9561], [-103.7699, 18.9483], [-103.7763, 18.943], [-103.7651, 18.9406], [-103.7622, 18.9487], [-103.7515, 18.9449], [-103.7753, 18.9161], [-103.767, 18.9227], [-103.7639, 18.9212], [-103.7692, 18.911], [-103.748, 18.909], [-103.7452, 18.9174], [-103.7408, 18.9176], [-103.7411, 18.9008], [-103.732, 18.9077], [-103.728, 18.9039], [-103.7288, 18.9129], [-103.7208, 18.9015], [-103.711, 18.9009], [-103.7109, 18.8942], [-103.7027, 18.8917], [-103.6956, 18.8822], [-103.6867, 18.8816], [-103.6942, 18.8655], [-103.671, 18.8545], [-103.6686, 18.8585], [-103.6522, 18.8489], [-103.6503, 18.8408], [-103.6246, 18.8261], [-103.6262, 18.831], [-103.6178, 18.8445], [-103.6406, 18.8672], [-103.6303, 18.8853], [-103.6196, 18.8932], [-103.6025, 18.8816], [-103.5968, 18.8842], [-103.5882, 18.8758], [-103.587, 18.8656], [-103.5783, 18.8788], [-103.5907, 18.9035], [-103.5962, 18.9042], [-103.5896, 18.9069], [-103.5852, 18.9173], [-103.58, 18.9171], [-103.5797, 18.9284], [-103.588, 18.9269], [-103.5895, 18.9341], [-103.5854, 18.9772], [-103.5923, 18.981], [-103.5889, 18.9853], [-103.5922, 19.0045], [-103.6031, 19.0102], [-103.6161, 19.0302], [-103.636, 19.0283], [-103.6484, 19.0167], [-103.645, 19.0562], [-103.6573, 19.0582], [-103.6584, 19.0626], [-103.6824, 19.0748], [-103.7182, 19.0885], [-103.7277, 19.0715], [-103.7251, 19.0647], [-103.7406, 19.0699], [-103.7511, 19.0612], [-103.7529, 19.0718], [-103.7686, 19.0681]]]}}, {"type": "Feature", "properties": {"osm_type": "relation", "osm_id": 392144707, "name": "Minatitlán", "admin_level": "6", "kind": "subdivision_2", "parent_osm_id": 2340912, "parent_name": "Colima", "parent_iso": "MX-COL"}, "geometry": {"type": "Polygon", "coordinates": [[[-103.8995, 19.4345], [-103.9648, 19.4542], [-103.974, 19.4746], [-104.0, 19.4688], [-104.0391, 19.4847], [-104.0518, 19.4976], [-104.0617, 19.4977], [-104.069, 19.4843], [-104.0767, 19.4802], [-104.0866, 19.442], [-104.0799, 19.4318], [-104.0709, 19.4352], [-104.0838, 19.4156], [-104.0902, 19.393], [-104.1096, 19.3812], [-104.1188, 19.3717], [-104.1203, 19.3601], [-104.1333, 19.3537], [-104.1216, 19.3275], [-104.1255, 19.3243], [-104.1227, 19.3193], [-104.1322, 19.3209], [-104.136, 19.3129], [-104.1402, 19.3162], [-104.1448, 19.3112], [-104.1529, 19.3152], [-104.1616, 19.3027], [-104.1698, 19.313], [-104.1798, 19.3126], [-104.19, 19.302], [-104.1904, 19.2923], [-104.2043, 19.3036], [-104.2273, 19.298], [-104.1766, 19.2855], [-104.1713, 19.2823], [-104.1727, 19.2772], [-104.1448, 19.2687], [-104.1184, 19.2668], [-104.1226, 19.2581], [-104.093, 19.2494], [-104.0759, 19.2512], [-104.0688, 19.2458], [-104.0447, 19.2502], [-104.032, 19.277], [-104.052, 19.2743], [-104.056, 19.2848], [-104.0662, 19.2811], [-104.069, 19.2862], [-104.0578, 19.2918], [-104.063, 19.3018], [-104.0518, 19.3063], [-104.0397, 19.2932], [-104.0293, 19.2922], [-104.0213, 19.3075], [-104.0261, 19.3143], [-104.0235, 19.3186], [-103.9971, 19.3401], [-103.9991, 19.3516], [-103.9837, 19.3486], [-103.9814, 19.3633], [-103.9612, 19.3621], [-103.9565, 19.3545], [-103.9358, 19.3457], [-103.9122, 19.3645], [-103.916, 19.3586], [-103.9061, 19.3395], [-103.8818, 19.3573], [-103.8854, 19.368], [-103.8811, 19.3935], [-103.8869, 19.4056], [-103.8854, 19.4229], [-103.8995, 19.4345]]]}}, {"type": "Feature", "properties": {"osm_type": "relation", "osm_id": 928385918, "name": "Villa de Álvarez", "admin_level": "6", "kind": "subdivision_2", "parent_osm_id": 2340912, "parent_name": "Colima", "parent_iso": "MX-COL"}, "geometry": {"type": "Polygon", "coordinates": [[[-103.6792, 19.3258], [-103.6736, 19.3383], [-103.6905, 19.3378], [-103.6875, 19.3475], [-103.6781, 19.3429], [-103.6713, 19.3567], [-103.6795, 19.3784], [-103.6698, 19.3953], [-103.6551, 19.3866], [-103.6511, 19.3957], [-103.6534, 19.4028], [-103.6473, 19.4101], [-103.6477, 19.4282], [-103.6909, 19.433], [-103.6941, 19.4309], [-103.6773, 19.4173], [-103.699, 19.3991], [-103.6839, 19.3965], [-103.687, 19.3923], [-103.6828, 19.3892], [-103.6991, 19.3632], [-103.7035, 19.3424], [-103.7109, 19.3344], [-103.7163, 19.3396], [-103.7368, 19.3283], [-103.7395, 19.3198], [-103.7451, 19.3196], [-103.7477, 19.3022], [-103.7542, 19.3032], [-103.7479, 19.2907], [-103.7649, 19.2903], [-103.7744, 19.2783], [-103.7794, 19.2815], [-103.7742, 19.2898], [-103.7867, 19.3009], [-103.7976, 19.2915], [-103.8209, 19.3072], [-103.8104, 19.3287], [-103.8195, 19.3185], [-103.8323, 19.3246], [-103.8279, 19.3149], [-103.8321, 19.3085], [-103.8408, 19.3309], [-103.8331, 19.3331], [-103.8325, 19.3389], [-103.8542, 19.351], [-103.8779, 19.3389], [-103.8824, 19.3502], [-103.9061, 19.3395], [-103.916, 19.3586], [-103.9122, 19.3645], [-103.9358, 19.3457], [-103.9565, 19.3545], [-103.9612, 19.3621], [-103.9814, 19.3633], [-103.9837, 19.3486], [-103.9991, 19.3516], [-103.9971, 19.3401], [-104.0235, 19.3186], [-104.0261, 19.3143], [-104.0213, 19.3075], [-104.0293, 19.2922], [-104.0221, 19.2874], [-104.005, 19.2907], [-103.9864, 19.2821], [-103.9571, 19.2907], [-103.9343, 19.2763], [-103.9311, 19.2657], [-103.9138, 19.2674], [-103.9129, 19.2625], [-103.8964, 19.2546], [-103.841, 19.251], [-103.8459, 19.2376], [-103.8365, 19.2202], [-103.8433, 19.2399], [-103.8351, 19.259], [-103.8118, 19.253], [-103.8012, 19.2645], [-103.7885, 19.2518], [-103.7813, 19.2527], [-103.7913, 19.2466], [-103.7814, 19.2415], [-103.7777, 19.2458], [-103.7719, 19.2378], [-103.743, 19.2443], [-103.7373, 19.2564], [-103.7328, 19.2547], [-103.7301, 19.2607], [-103.7237, 19.2584], [-103.7156, 19.274], [-103.7193, 19.2776], [-103.7087, 19.2945], [-103.6792, 19.3258]]]}}]}