{"type": "FeatureCollection", "parent": {"osm_id": 2366873, "name": "Caraș-Severin", "admin_level": "4", "kind": "subdivision_1", "child_kind": "subdivision_2", "iso": "RO-CS"}, "features": [{"type": "Feature", "properties": {"osm_type": "relation", "osm_id": 262777185, "name": "CORONINI", "admin_level": "6", "kind": "subdivision_2", "parent_osm_id": 2366873, "parent_name": "Caraș-Severin", "parent_iso": "RO-CS"}, "geometry": {"type": "Polygon", "coordinates": [[[21.7286, 44.7037], [21.7236, 44.6979], [21.7153, 44.7038], [21.7082, 44.7001], [21.6978, 44.708], [21.6827, 44.6914], [21.6201, 44.6689], [21.6378, 44.6596], [21.689, 44.6653], [21.7188, 44.6539], [21.7439, 44.6554], [21.738, 44.6669], [21.7536, 44.6712], [21.7581, 44.6677], [21.7546, 44.6744], [21.7605, 44.678], [21.7521, 44.6773], [21.7602, 44.6841], [21.7286, 44.7037]]]}}, {"type": "Feature", "properties": {"osm_type": "relation", "osm_id": 828315376, "name": "SICHEVITA", "admin_level": "6", "kind": "subdivision_2", "parent_osm_id": 2366873, "parent_name": "Caraș-Severin", "parent_iso": "RO-CS"}, "geometry": {"type": "Polygon", "coordinates": [[[21.7439, 44.6554], [21.7914, 44.6641], [21.8124, 44.651], [21.8422, 44.6543], [21.8679, 44.6503], [21.8752, 44.6721], [21.8739, 44.6842], [21.8821, 44.6899], [21.8848, 44.7003], [21.8946, 44.7024], [21.8971, 44.699], [21.9043, 44.7191], [21.9237, 44.7173], [21.9314, 44.7247], [21.9292, 44.7275], [21.9384, 44.7323], [21.9396, 44.7414], [21.9356, 44.7459], [21.9251, 44.7436], [21.9193, 44.7544], [21.9022, 44.7528], [21.8933, 44.7593], [21.8613, 44.7509], [21.8475, 44.7576], [21.8354, 44.7713], [21.8248, 44.7666], [21.8174, 44.7716], [21.8113, 44.7626], [21.8235, 44.7462], [21.8113, 44.7426], [21.8216, 44.7303], [21.8163, 44.7285], [21.8009, 44.7392], [21.8035, 44.7362], [21.7906, 44.7296], [21.776, 44.7282], [21.7677, 44.7407], [21.7485, 44.7331], [21.7467, 44.7252], [21.734, 44.7196], [21.7343, 44.7092], [21.7272, 44.7092], [21.7286, 44.7037], [21.7602, 44.6841], [21.7521, 44.6773], [21.7605, 44.678], [21.7546, 44.6744], [21.7581, 44.6677], [21.7536, 44.6712], [21.738, 44.6669], [21.7439, 44.6554]]]}}, {"type": "Feature", "properties": {"osm_type": "relation", "osm_id": 629553166, "name": "GARNIC", "admin_level": "6", "kind": "subdivision_2", "parent_osm_id": 2366873, "parent_name": "Caraș-Severin", "parent_iso": "RO-CS"}, "geometry": {"type": "Polygon", "coordinates": [[[21.8174, 44.7716], [21.7908, 44.7868], [21.7556, 44.7901], [21.7542, 44.7832], [21.747, 44.792], [21.7331, 44.794], [21.7288, 44.79], [21.7303, 44.7808], [21.7222, 44.7758], [21.7268, 44.7717], [21.7228, 44.7617], [21.7282, 44.755], [21.7086, 44.7295], [21.734, 44.7196], [21.7467, 44.7252], [21.7485, 44.7331], [21.7677, 44.7407], [21.776, 44.7282], [21.7906, 44.7296], [21.8035, 44.7362], [21.8009, 44.7392], [21.8188, 44.7289], [21.8216, 44.7331], [21.8113, 44.7426], [21.8235, 44.7462], [21.8113, 44.7626], [21.8174, 44.7716]]]}}, {"type": "Feature", "properties": {"osm_type": "relation", "osm_id": 800213751, "name": "MOLDOVA NOUA", "admin_level": "6", "kind": "subdivision_2", "parent_osm_id": 2366873, "parent_name": "Caraș-Severin", "parent_iso": "RO-CS"}, "geometry": {"type": "Polygon", "coordinates": [[[21.7286, 44.7037], [21.7272, 44.7092], [21.7359, 44.7111], [21.734, 44.7196], [21.7086, 44.7295], [21.7282, 44.755], [21.7228, 44.7617], [21.7268, 44.7717], [21.7222, 44.7758], [21.7303, 44.7808], [21.7288, 44.79], [21.7344, 44.7947], [21.7203, 44.8057], [21.7068, 44.8017], [21.6812, 44.8185], [21.6696, 44.8179], [21.657, 44.824], [21.6451, 44.8095], [21.655, 44.7976], [21.6374, 44.7782], [21.6004, 44.7709], [21.6022, 44.7684], [21.5878, 44.7584], [21.6113, 44.7269], [21.6154, 44.7144], [21.6116, 44.6863], [21.6201, 44.6689], [21.6827, 44.6914], [21.6978, 44.708], [21.7082, 44.7001], [21.7153, 44.7038], [21.7236, 44.6979], [21.7286, 44.7037]]]}}, {"type": "Feature", "properties": {"osm_type": "relation", "osm_id": 669724434, "name": "TOPLET", "admin_level": "6", "kind": "subdivision_2", "parent_osm_id": 2366873, "parent_name": "Caraș-Severin", "parent_iso": "RO-CS"}, "geometry": {"type": "Polygon", "coordinates": [[[22.4297, 44.7807], [22.4237, 44.8005], [22.443, 44.8176], [22.4465, 44.8352], [22.4533, 44.8375], [22.4279, 44.8312], [22.4097, 44.8407], [22.4056, 44.8354], [22.4041, 44.8397], [22.3946, 44.8369], [22.3869, 44.8464], [22.3844, 44.8424], [22.396, 44.8328], [22.3756, 44.8127], [22.3682, 44.817], [22.3181, 44.8203], [22.2919, 44.8345], [22.2661, 44.8279], [22.2556, 44.83], [22.2438, 44.8157], [22.2457, 44.8116], [22.2367, 44.8088], [22.2435, 44.8075], [22.252, 44.7938], [22.2681, 44.7825], [22.3416, 44.7741], [22.3582, 44.7387], [22.3588, 44.7434], [22.3652, 44.7424], [22.3681, 44.7561], [22.3815, 44.7554], [22.391, 44.7619], [22.4014, 44.7533], [22.418, 44.7569], [22.4177, 44.7687], [22.425, 44.7758], [22.4243, 44.7815], [22.4297, 44.7807]]]}}, {"type": "Feature", "properties": {"osm_type": "relation", "osm_id": 654663871, "name": "SOPOTU NOU", "admin_level": "6", "kind": "subdivision_2", "parent_osm_id": 2366873, "parent_name": "Caraș-Severin", "parent_iso": "RO-CS"}, "geometry": {"type": "Polygon", "coordinates": [[[21.9193, 44.7544], [21.92, 44.7588], [21.933, 44.7655], [21.933, 44.771], [21.9438, 44.7764], [21.9436, 44.7809], [21.9266, 44.7824], [21.9154, 44.7942], [21.9049, 44.7895], [21.904, 44.7832], [21.8986, 44.7849], [21.8881, 44.7988], [21.8924, 44.8046], [21.8893, 44.8132], [21.8797, 44.8136], [21.8817, 44.8232], [21.8757, 44.8327], [21.8683, 44.8332], [21.8658, 44.8209], [21.8578, 44.8288], [21.859, 44.8361], [21.8499, 44.8368], [21.8205, 44.8553], [21.815, 44.8366], [21.8188, 44.8275], [21.805, 44.8293], [21.8035, 44.8119], [21.7824, 44.7992], [21.774, 44.7871], [21.8005, 44.7842], [21.8248, 44.7666], [21.8354, 44.7713], [21.8475, 44.7576], [21.8613, 44.7509], [21.8933, 44.7593], [21.9022, 44.7528], [21.9193, 44.7544]]]}}, {"type": "Feature", "properties": {"osm_type": "relation", "osm_id": 866734174, "name": "POJEJENA", "admin_level": "6", "kind": "subdivision_2", "parent_osm_id": 2366873, "parent_name": "Caraș-Severin", "parent_iso": "RO-CS"}, "geometry": {"type": "Polygon", "coordinates": [[[21.657, 44.824], [21.6325, 44.8414], [21.6248, 44.8401], [21.6322, 44.8498], [21.6134, 44.8549], [21.5598, 44.8415], [21.546, 44.8437], [21.5213, 44.8309], [21.5165, 44.8223], [21.5109, 44.8229], [21.5022, 44.8345], [21.4642, 44.8211], [21.4317, 44.8262], [21.4215, 44.8223], [21.4262, 44.818], [21.412, 44.8061], [21.4065, 44.7919], [21.3895, 44.7886], [21.3954, 44.7801], [21.4148, 44.7741], [21.4598, 44.7769], [21.5042, 44.7712], [21.5369, 44.7727], [21.5878, 44.7584], [21.6022, 44.7684], [21.6004, 44.7709], [21.6374, 44.7782], [21.655, 44.7976], [21.6451, 44.8095], [21.657, 44.824]]]}}, {"type": "Feature", "properties": {"osm_type": "relation", "osm_id": 435206617, "name": "CARBUNARI", "admin_level": "6", "kind": "subdivision_2", "parent_osm_id": 2366873, "parent_name": "Caraș-Severin", "parent_iso": "RO-CS"}, "geometry": {"type": "Polygon", "coordinates": [[[21.774, 44.7871], [21.7824, 44.7992], [21.8035, 44.8119], [21.805, 44.8293], [21.8188, 44.8275], [21.815, 44.8366], [21.8205, 44.8553], [21.811, 44.8673], [21.8107, 44.8616], [21.8047, 44.8688], [21.7821, 44.8642], [21.7722, 44.8726], [21.7685, 44.864], [21.7602, 44.8663], [21.7355, 44.8559], [21.7307, 44.8615], [21.7184, 44.8631], [21.7235, 44.8554], [21.7182, 44.8467], [21.688, 44.8391], [21.6596, 44.8246], [21.6696, 44.8179], [21.6812, 44.8185], [21.7068, 44.8017], [21.7203, 44.8057], [21.736, 44.7924], [21.747, 44.792], [21.7542, 44.7832], [21.7556, 44.7901], [21.774, 44.7871]]]}}, {"type": "Feature", "properties": {"osm_type": "relation", "osm_id": 909971223, "name": "SOCOL", "admin_level": "6", "kind": "subdivision_2", "parent_osm_id": 2366873, "parent_name": "Caraș-Severin", "parent_iso": "RO-CS"}, "geometry": {"type": "Polygon", "coordinates": [[[21.5307, 44.8351], [21.5041, 44.8512], [21.5039, 44.8623], [21.4934, 44.8713], [21.4637, 44.8674], [21.4469, 44.874], [21.442, 44.8665], [21.4178, 44.8734], [21.406, 44.8664], [21.388, 44.8698], [21.3841, 44.8653], [21.3721, 44.8669], [21.3576, 44.8502], [21.3614, 44.8404], [21.353, 44.8406], [21.3601, 44.8367], [21.3566, 44.8316], [21.3642, 44.8292], [21.3564, 44.8271], [21.3583, 44.8217], [21.3823, 44.8092], [21.3895, 44.7886], [21.4065, 44.7919], [21.412, 44.8061], [21.4262, 44.818], [21.4215, 44.8223], [21.4317, 44.8262], [21.4642, 44.8211], [21.5022, 44.8345], [21.5109, 44.8229], [21.5165, 44.8223], [21.5213, 44.8309], [21.5307, 44.8351]]]}}, {"type": "Feature", "properties": {"osm_type": "relation", "osm_id": 273186238, "name": "DALBOSET", "admin_level": "6", "kind": "subdivision_2", "parent_osm_id": 2366873, "parent_name": "Caraș-Severin", "parent_iso": "RO-CS"}, "geometry": {"type": "Polygon", "coordinates": [[[21.9411, 44.7737], [21.9567, 44.7679], [21.9528, 44.7576], [21.9692, 44.7564], [21.9835, 44.7494], [21.9841, 44.7442], [21.9916, 44.747], [22.0078, 44.7776], [22.0259, 44.7953], [22.0148, 44.8136], [22.0147, 44.827], [22.0031, 44.8334], [22.0011, 44.8665], [21.9926, 44.8796], [21.9752, 44.8898], [21.9723, 44.8872], [21.9671, 44.891], [21.9664, 44.884], [21.9581, 44.8773], [21.9513, 44.878], [21.9485, 44.8696], [21.938, 44.8702], [21.9381, 44.8661], [21.9315, 44.8654], [21.9346, 44.8636], [21.9194, 44.8579], [21.9151, 44.8456], [21.898, 44.8454], [21.8778, 44.829], [21.8817, 44.8232], [21.8797, 44.8136], [21.8893, 44.8132], [21.8924, 44.8046], [21.8881, 44.7988], [21.8986, 44.7849], [21.904, 44.7832], [21.9049, 44.7895], [21.9154, 44.7942], [21.9266, 44.7824], [21.9436, 44.7809], [21.9411, 44.7737]]]}}, {"type": "Feature", "properties": {"osm_type": "relation", "osm_id": 537018530, "name": "EFTIMIE MURGU", "admin_level": "6", "kind": "subdivision_2", "parent_osm_id": 2366873, "parent_name": "Caraș-Severin", "parent_iso": "RO-CS"}, "geometry": {"type": "Polygon", "coordinates": [[[22.1049, 44.9037], [22.0789, 44.9134], [22.0449, 44.9069], [22.0571, 44.9017], [22.0637, 44.8858], [22.0622, 44.8697], [22.0696, 44.8555], [22.1007, 44.8272], [22.1149, 44.8244], [22.112, 44.8069], [22.1261, 44.7985], [22.1269, 44.7887], [22.137, 44.7832], [22.1499, 44.7874], [22.1742, 44.7844], [22.1819, 44.7599], [22.1929, 44.7457], [22.1919, 44.75], [22.2042, 44.7614], [22.1951, 44.7792], [22.2071, 44.7994], [22.2068, 44.8175], [22.1684, 44.8468], [22.1653, 44.8656], [22.1574, 44.8791], [22.1082, 44.9091], [22.1049, 44.9037]]]}}, {"type": "Feature", "properties": {"osm_type": "relation", "osm_id": 503134795, "name": "BANIA", "admin_level": "6", "kind": "subdivision_2", "parent_osm_id": 2366873, "parent_name": "Caraș-Severin", "parent_iso": "RO-CS"}, "geometry": {"type": "Polygon", "coordinates": [[[21.9841, 44.7442], [22.0112, 44.7355], [22.0191, 44.7396], [22.0439, 44.7354], [22.0755, 44.7092], [22.1046, 44.7096], [22.1297, 44.7181], [22.1391, 44.7147], [22.1413, 44.7054], [22.1493, 44.7046], [22.1557, 44.736], [22.1635, 44.7434], [22.184, 44.7407], [22.1929, 44.7457], [22.1819, 44.7599], [22.1742, 44.7844], [22.1499, 44.7874], [22.137, 44.7832], [22.1269, 44.7887], [22.1261, 44.7985], [22.112, 44.8069], [22.1149, 44.8244], [22.1007, 44.8272], [22.0696, 44.8555], [22.0622, 44.8697], [22.0637, 44.8858], [22.0571, 44.9017], [22.0335, 44.908], [22.02, 44.9172], [22.0017, 44.9129], [22.0017, 44.9085], [21.9908, 44.9061], [21.9752, 44.8898], [21.9926, 44.8796], [22.0011, 44.8665], [22.0031, 44.8334], [22.0147, 44.827], [22.0148, 44.8136], [22.0259, 44.7953], [22.0078, 44.7776], [21.9916, 44.747], [21.9841, 44.7442]]]}}, {"type": "Feature", "properties": {"osm_type": "relation", "osm_id": 819584686, "name": "NAIDAS", "admin_level": "6", "kind": "subdivision_2", "parent_osm_id": 2366873, "parent_name": "Caraș-Severin", "parent_iso": "RO-CS"}, "geometry": {"type": "Polygon", "coordinates": [[[21.6322, 44.8498], [21.6402, 44.8527], [21.6365, 44.8745], [21.6284, 44.8796], [21.6313, 44.8866], [21.6148, 44.8938], [21.6111, 44.9066], [21.6043, 44.9089], [21.6068, 44.9115], [21.5839, 44.9196], [21.5798, 44.9307], [21.5467, 44.9305], [21.5527, 44.9239], [21.5502, 44.9174], [21.5582, 44.9066], [21.5601, 44.889], [21.5108, 44.8801], [21.4934, 44.8713], [21.5039, 44.8623], [21.5041, 44.8512], [21.5307, 44.8351], [21.546, 44.8437], [21.5598, 44.8415], [21.6134, 44.8549], [21.6322, 44.8498]]]}}, {"type": "Feature", "properties": {"osm_type": "relation", "osm_id": 764299871, "name": "BAILE HERCULANE", "admin_level": "6", "kind": "subdivision_2", "parent_osm_id": 2366873, "parent_name": "Caraș-Severin", "parent_iso": "RO-CS"}, "geometry": {"type": "Polygon", "coordinates": [[[22.4533, 44.8375], [22.4597, 44.8433], [22.4573, 44.8501], [22.4781, 44.8726], [22.4763, 44.8765], [22.4865, 44.8812], [22.4888, 44.8941], [22.4822, 44.9069], [22.491, 44.9093], [22.4962, 44.9289], [22.4888, 44.9356], [22.4866, 44.9493], [22.5164, 44.9557], [22.5117, 44.9659], [22.4922, 44.9733], [22.4747, 44.9531], [22.4644, 44.9489], [22.4642, 44.9419], [22.4446, 44.9392], [22.4484, 44.9364], [22.4416, 44.9342], [22.4312, 44.9043], [22.4173, 44.9063], [22.404, 44.8991], [22.399, 44.8648], [22.3952, 44.8689], [22.3874, 44.8673], [22.3838, 44.8449], [22.3869, 44.8464], [22.3946, 44.8369], [22.4041, 44.8397], [22.4056, 44.8354], [22.4097, 44.8407], [22.4279, 44.8312], [22.4533, 44.8375]]]}}, {"type": "Feature", "properties": {"osm_type": "relation", "osm_id": 848489303, "name": "LAPUSNICU MARE", "admin_level": "6", "kind": "subdivision_2", "parent_osm_id": 2366873, "parent_name": "Caraș-Severin", "parent_iso": "RO-CS"}, "geometry": {"type": "Polygon", "coordinates": [[[21.8778, 44.829], [21.898, 44.8454], [21.9151, 44.8456], [21.9194, 44.8579], [21.9346, 44.8636], [21.9315, 44.8654], [21.9381, 44.8661], [21.938, 44.8702], [21.9485, 44.8696], [21.9513, 44.878], [21.9581, 44.8773], [21.9664, 44.884], [21.9671, 44.891], [21.9723, 44.8872], [21.9752, 44.8898], [21.966, 44.9027], [21.9466, 44.9158], [21.9425, 44.9144], [21.9317, 44.924], [21.9322, 44.9305], [21.9149, 44.9394], [21.9108, 44.9527], [21.9007, 44.9583], [21.9004, 44.9778], [21.8877, 44.9774], [21.8836, 44.973], [21.8767, 44.9807], [21.8724, 44.9799], [21.8672, 44.9663], [21.8386, 44.9445], [21.8254, 44.9181], [21.8137, 44.914], [21.8063, 44.9018], [21.7931, 44.8954], [21.8033, 44.8903], [21.7995, 44.8841], [21.8084, 44.8789], [21.8087, 44.8684], [21.8047, 44.8688], [21.8107, 44.8616], [21.811, 44.8673], [21.8205, 44.8553], [21.8499, 44.8368], [21.859, 44.8361], [21.8578, 44.8288], [21.8658, 44.8209], [21.8683, 44.8332], [21.8778, 44.829]]]}}, {"type": "Feature", "properties": {"osm_type": "relation", "osm_id": 333603336, "name": "IABLANITA", "admin_level": "6", "kind": "subdivision_2", "parent_osm_id": 2366873, "parent_name": "Caraș-Severin", "parent_iso": "RO-CS"}, "geometry": {"type": "Polygon", "coordinates": [[[22.2736, 45.0156], [22.2669, 45.018], [22.2541, 45.0046], [22.2504, 44.9997], [22.2532, 44.9809], [22.2311, 44.9691], [22.2237, 44.9485], [22.2128, 44.942], [22.2113, 44.9351], [22.2165, 44.932], [22.2164, 44.9198], [22.2101, 44.9088], [22.216, 44.879], [22.2283, 44.869], [22.242, 44.8692], [22.2411, 44.8628], [22.2507, 44.8527], [22.2827, 44.8611], [22.2936, 44.8707], [22.2972, 44.8789], [22.307, 44.8848], [22.3115, 44.8999], [22.3359, 44.922], [22.3383, 44.9375], [22.3479, 44.9509], [22.3457, 44.9708], [22.3399, 44.9781], [22.3204, 44.9773], [22.3135, 44.9729], [22.3192, 44.9685], [22.3076, 44.9649], [22.3042, 44.9846], [22.2736, 45.0156]]]}}, {"type": "Feature", "properties": {"osm_type": "relation", "osm_id": 761420896, "name": "MEHADIA", "admin_level": "6", "kind": "subdivision_2", "parent_osm_id": 2366873, "parent_name": "Caraș-Severin", "parent_iso": "RO-CS"}, "geometry": {"type": "Polygon", "coordinates": [[[22.3838, 44.8449], [22.3874, 44.8673], [22.3952, 44.8689], [22.399, 44.8648], [22.404, 44.8991], [22.4173, 44.9063], [22.4312, 44.9043], [22.4416, 44.9342], [22.4484, 44.9364], [22.4446, 44.9392], [22.4642, 44.9419], [22.4644, 44.9489], [22.4747, 44.9531], [22.4915, 44.9726], [22.4845, 44.9786], [22.4799, 44.9929], [22.4488, 45.0045], [22.4562, 45.0129], [22.4516, 45.0172], [22.3893, 45.0148], [22.3609, 45.0262], [22.332, 44.9933], [22.3375, 44.986], [22.3356, 44.9792], [22.3457, 44.9708], [22.3479, 44.9509], [22.3383, 44.9375], [22.3359, 44.922], [22.3115, 44.8999], [22.307, 44.8848], [22.2827, 44.8611], [22.2507, 44.8527], [22.2556, 44.83], [22.2661, 44.8279], [22.2919, 44.8345], [22.3181, 44.8203], [22.3682, 44.817], [22.3756, 44.8127], [22.396, 44.8328], [22.3838, 44.8449]]]}}, {"type": "Feature", "properties": {"osm_type": "relation", "osm_id": 398073887, "name": "CICLOVA ROMANA", "admin_level": "6", "kind": "subdivision_2", "parent_osm_id": 2366873, "parent_name": "Caraș-Severin", "parent_iso": "RO-CS"}, "geometry": {"type": "Polygon", "coordinates": [[[21.8024, 44.9903], [21.7894, 44.9895], [21.7877, 45.0009], [21.7774, 45.0059], [21.7734, 45.0141], [21.7484, 45.0148], [21.7061, 45.0269], [21.6881, 45.0252], [21.6891, 45.0194], [21.6782, 45.0238], [21.6727, 45.0159], [21.6375, 45.0023], [21.6534, 44.9688], [21.6436, 44.9584], [21.6758, 44.9458], [21.6841, 44.9477], [21.6859, 44.9531], [21.7225, 44.9351], [21.7456, 44.9302], [21.7629, 44.9364], [21.7791, 44.9259], [21.786, 44.927], [21.7904, 44.9352], [21.8155, 44.9379], [21.8171, 44.9479], [21.8246, 44.9544], [21.8369, 44.9454], [21.8363, 44.9913], [21.8024, 44.9903]]]}}, {"type": "Feature", "properties": {"osm_type": "relation", "osm_id": 398203275, "name": "RACASDIA", "admin_level": "6", "kind": "subdivision_2", "parent_osm_id": 2366873, "parent_name": "Caraș-Severin", "parent_iso": "RO-CS"}, "geometry": {"type": "Polygon", "coordinates": [[[21.6493, 45.0087], [21.6432, 45.019], [21.6056, 45.0329], [21.5724, 45.0275], [21.5481, 45.0319], [21.5079, 44.991], [21.5224, 44.985], [21.5189, 44.9761], [21.5398, 44.968], [21.5602, 44.9647], [21.5563, 44.9744], [21.5647, 44.9738], [21.57, 44.9788], [21.5886, 44.9693], [21.6255, 44.9683], [21.6443, 44.9607], [21.6534, 44.9688], [21.6375, 45.0023], [21.6493, 45.0087]]]}}, {"type": "Feature", "properties": {"osm_type": "relation", "osm_id": 415473587, "name": "BERLISTE", "admin_level": "6", "kind": "subdivision_2", "parent_osm_id": 2366873, "parent_name": "Caraș-Severin", "parent_iso": "RO-CS"}, "geometry": {"type": "Polygon", "coordinates": [[[21.5079, 44.991], [21.4979, 44.9917], [21.4814, 45.0036], [21.4628, 45.0048], [21.4494, 45.0162], [21.423, 45.0149], [21.3971, 45.0315], [21.3826, 45.0256], [21.374, 45.0281], [21.3602, 45.0204], [21.377, 45.0067], [21.3868, 45.0044], [21.383, 45.0018], [21.3884, 44.9981], [21.4147, 44.9868], [21.4068, 44.9785], [21.4382, 44.9606], [21.4693, 44.9585], [21.5197, 44.938], [21.5255, 44.9395], [21.5398, 44.968], [21.5189, 44.9761], [21.5224, 44.985], [21.5079, 44.991]]]}}, {"type": "Feature", "properties": {"osm_type": "relation", "osm_id": 591667775, "name": "CORNEA", "admin_level": "6", "kind": "subdivision_2", "parent_osm_id": 2366873, "parent_name": "Caraș-Severin", "parent_iso": "RO-CS"}, "geometry": {"type": "Polygon", "coordinates": [[[22.3356, 44.9792], [22.3375, 44.986], [22.332, 44.9933], [22.344, 45.0081], [22.3609, 45.0262], [22.3714, 45.0206], [22.3746, 45.0591], [22.3521, 45.0552], [22.3293, 45.0591], [22.3159, 45.0507], [22.2964, 45.0489], [22.2994, 45.0344], [22.2736, 45.0156], [22.3042, 44.9846], [22.3076, 44.9649], [22.3192, 44.9685], [22.3135, 44.9729], [22.3204, 44.9773], [22.3356, 44.9792]]]}}, {"type": "Feature", "properties": {"osm_type": "relation", "osm_id": 267929380, "name": "LAPUSNICEL", "admin_level": "6", "kind": "subdivision_2", "parent_osm_id": 2366873, "parent_name": "Caraș-Severin", "parent_iso": "RO-CS"}, "geometry": {"type": "Polygon", "coordinates": [[[22.2541, 45.0046], [22.2362, 45.0123], [22.2273, 44.9914], [22.2157, 44.9908], [22.2103, 44.9952], [22.2297, 45.0167], [22.2045, 45.0268], [22.1932, 45.0438], [22.1801, 45.0365], [22.1632, 45.0361], [22.1172, 45.0588], [22.0835, 45.0612], [22.0914, 45.0544], [22.0898, 45.0387], [22.1067, 45.0368], [22.1117, 45.0298], [22.1216, 45.0268], [22.1378, 45.0034], [22.1543, 44.9975], [22.1661, 44.9772], [22.1783, 44.9714], [22.1714, 44.9545], [22.1834, 44.9458], [22.2003, 44.9517], [22.2076, 44.9435], [22.2206, 44.9454], [22.2311, 44.9691], [22.2532, 44.9809], [22.2504, 44.9997], [22.2541, 45.0046]]]}}, {"type": "Feature", "properties": {"osm_type": "relation", "osm_id": 846456754, "name": "VRANI", "admin_level": "6", "kind": "subdivision_2", "parent_osm_id": 2366873, "parent_name": "Caraș-Severin", "parent_iso": "RO-CS"}, "geometry": {"type": "Polygon", "coordinates": [[[21.5481, 45.0319], [21.4889, 45.0549], [21.4543, 45.0563], [21.4472, 45.0548], [21.4561, 45.0404], [21.4229, 45.0324], [21.4207, 45.0365], [21.4058, 45.037], [21.3996, 45.0291], [21.423, 45.0149], [21.4494, 45.0162], [21.4628, 45.0048], [21.4814, 45.0036], [21.5043, 44.99], [21.5239, 45.0037], [21.5481, 45.0319]]]}}, {"type": "Feature", "properties": {"osm_type": "relation", "osm_id": 703747465, "name": "DOMASNEA", "admin_level": "6", "kind": "subdivision_2", "parent_osm_id": 2366873, "parent_name": "Caraș-Severin", "parent_iso": "RO-CS"}, "geometry": {"type": "Polygon", "coordinates": [[[22.3746, 45.0591], [22.3841, 45.0713], [22.3761, 45.0906], [22.3838, 45.1128], [22.3786, 45.1217], [22.3665, 45.1205], [22.3636, 45.1273], [22.3331, 45.123], [22.3148, 45.1141], [22.3083, 45.1164], [22.308, 45.1263], [22.3029, 45.1271], [22.2981, 45.1093], [22.2883, 45.0967], [22.2808, 45.0955], [22.2969, 45.0683], [22.2873, 45.0637], [22.2964, 45.0489], [22.3159, 45.0507], [22.3293, 45.0591], [22.3521, 45.0552], [22.3746, 45.0591]]]}}, {"type": "Feature", "properties": {"osm_type": "relation", "osm_id": 380893874, "name": "BOZOVICI", "admin_level": "6", "kind": "subdivision_2", "parent_osm_id": 2366873, "parent_name": "Caraș-Severin", "parent_iso": "RO-CS"}, "geometry": {"type": "Polygon", "coordinates": [[[22.1049, 44.9037], [22.0774, 44.9226], [22.0701, 44.9412], [22.049, 44.9452], [22.0415, 44.9513], [22.05, 44.9599], [22.0338, 44.9947], [22.0408, 45.0081], [22.0332, 45.0213], [21.9987, 45.0298], [22.0005, 45.036], [21.9914, 45.0445], [21.9847, 45.0717], [22.0069, 45.1003], [22.0005, 45.1128], [21.9777, 45.1222], [21.9567, 45.101], [21.9458, 45.0975], [21.9397, 45.0877], [21.9446, 45.0779], [21.9395, 45.0623], [21.9096, 45.0679], [21.9074, 45.0438], [21.9154, 45.0366], [21.9044, 45.017], [21.9178, 45.0142], [21.9033, 45.0055], [21.8949, 44.9779], [21.9004, 44.9778], [21.9007, 44.9583], [21.9108, 44.9527], [21.9149, 44.9394], [21.9322, 44.9305], [21.9317, 44.924], [21.9425, 44.9144], [21.9466, 44.9158], [21.966, 44.9027], [21.9752, 44.8898], [21.9908, 44.9061], [22.0017, 44.9085], [22.0017, 44.9129], [22.02, 44.9172], [22.0335, 44.908], [22.0789, 44.9134], [22.1049, 44.9037]]]}}, {"type": "Feature", "properties": {"osm_type": "relation", "osm_id": 701762739, "name": "ORAVITA", "admin_level": "6", "kind": "subdivision_2", "parent_osm_id": 2366873, "parent_name": "Caraș-Severin", "parent_iso": "RO-CS"}, "geometry": {"type": "Polygon", "coordinates": [[[21.8024, 44.9903], [21.8091, 44.9967], [21.8109, 45.0098], [21.8235, 45.024], [21.8015, 45.0312], [21.8208, 45.0627], [21.8188, 45.0727], [21.8003, 45.0746], [21.8035, 45.1063], [21.7918, 45.0983], [21.7874, 45.1044], [21.7484, 45.1101], [21.7272, 45.1196], [21.7148, 45.1331], [21.6928, 45.1256], [21.6795, 45.1085], [21.675, 45.1093], [21.6683, 45.0942], [21.6714, 45.0913], [21.6443, 45.0943], [21.6382, 45.077], [21.6284, 45.0782], [21.6145, 45.0705], [21.6081, 45.0567], [21.5895, 45.0628], [21.5862, 45.0551], [21.5936, 45.0465], [21.5895, 45.0465], [21.5915, 45.0318], [21.6056, 45.0329], [21.6432, 45.019], [21.6493, 45.0087], [21.6727, 45.0159], [21.6782, 45.0238], [21.6891, 45.0194], [21.6881, 45.0252], [21.7167, 45.0257], [21.7484, 45.0148], [21.7734, 45.0141], [21.7774, 45.0059], [21.7877, 45.0009], [21.7894, 44.9895], [21.8024, 44.9903]]]}}, {"type": "Feature", "properties": {"osm_type": "relation", "osm_id": 273455431, "name": "CORNEREVA", "admin_level": "6", "kind": "subdivision_2", "parent_osm_id": 2366873, "parent_name": "Caraș-Severin", "parent_iso": "RO-CS"}, "geometry": {"type": "Polygon", "coordinates": [[[22.4922, 44.9733], [22.537, 45.0023], [22.559, 45.0219], [22.5708, 45.0409], [22.5858, 45.0437], [22.6378, 45.0949], [22.6546, 45.1031], [22.6575, 45.115], [22.6495, 45.1278], [22.6397, 45.1272], [22.6284, 45.1349], [22.581, 45.1375], [22.5592, 45.1569], [22.5485, 45.1546], [22.5485, 45.1429], [22.5358, 45.1242], [22.5283, 45.1205], [22.4656, 45.1331], [22.4544, 45.1271], [22.449, 45.1377], [22.4283, 45.1431], [22.4144, 45.13], [22.4012, 45.1247], [22.3965, 45.1153], [22.3917, 45.1156], [22.3882, 45.1239], [22.3636, 45.1273], [22.3665, 45.1205], [22.3786, 45.1217], [22.3838, 45.1128], [22.3761, 45.0906], [22.3841, 45.0713], [22.3746, 45.0591], [22.3714, 45.0206], [22.3893, 45.0148], [22.4516, 45.0172], [22.4562, 45.0129], [22.4488, 45.0045], [22.4799, 44.9929], [22.4845, 44.9786], [22.4922, 44.9733]]]}}, {"type": "Feature", "properties": {"osm_type": "relation", "osm_id": 897757403, "name": "ANINA", "admin_level": "6", "kind": "subdivision_2", "parent_osm_id": 2366873, "parent_name": "Caraș-Severin", "parent_iso": "RO-CS"}, "geometry": {"type": "Polygon", "coordinates": [[[21.8949, 44.9779], [21.9033, 45.0055], [21.9178, 45.0142], [21.9044, 45.017], [21.9154, 45.0366], [21.9074, 45.0438], [21.9096, 45.0679], [21.9395, 45.0623], [21.9446, 45.0779], [21.9397, 45.0877], [21.9602, 45.1085], [21.9326, 45.1131], [21.9181, 45.1251], [21.8821, 45.1246], [21.8704, 45.1404], [21.852, 45.1392], [21.8471, 45.1289], [21.8333, 45.1288], [21.8397, 45.1141], [21.832, 45.1072], [21.8035, 45.1063], [21.8003, 45.0746], [21.8188, 45.0727], [21.8208, 45.0627], [21.8015, 45.0312], [21.8235, 45.024], [21.8109, 45.0098], [21.8091, 44.9967], [21.8024, 44.9903], [21.8363, 44.9913], [21.8337, 44.9829], [21.8386, 44.9445], [21.8672, 44.9663], [21.8724, 44.9799], [21.8836, 44.973], [21.8949, 44.9779]]]}}, {"type": "Feature", "properties": {"osm_type": "relation", "osm_id": 422796819, "name": "MEHADICA", "admin_level": "6", "kind": "subdivision_2", "parent_osm_id": 2366873, "parent_name": "Caraș-Severin", "parent_iso": "RO-CS"}, "geometry": {"type": "Polygon", "coordinates": [[[22.2736, 45.0156], [22.2994, 45.0344], [22.2964, 45.0489], [22.2768, 45.0747], [22.2699, 45.0714], [22.2771, 45.0539], [22.2544, 45.0574], [22.2462, 45.0647], [22.2357, 45.0621], [22.2396, 45.0501], [22.2305, 45.0551], [22.2247, 45.0521], [22.1984, 45.0893], [22.2001, 45.1013], [22.1915, 45.1054], [22.1823, 45.1193], [22.1877, 45.126], [22.1683, 45.1336], [22.1578, 45.1241], [22.1426, 45.1236], [22.1401, 45.1395], [22.1294, 45.1399], [22.1234, 45.1482], [22.1108, 45.1498], [22.114, 45.1346], [22.0955, 45.1132], [22.0908, 45.0783], [22.081, 45.0688], [22.0816, 45.0626], [22.1172, 45.0588], [22.1632, 45.0361], [22.1801, 45.0365], [22.1932, 45.0438], [22.2045, 45.0268], [22.2297, 45.0167], [22.2103, 44.9952], [22.2209, 44.9895], [22.2273, 44.9914], [22.2362, 45.0123], [22.2559, 45.0047], [22.2669, 45.018], [22.2736, 45.0156]]]}}, {"type": "Feature", "properties": {"osm_type": "relation", "osm_id": 736303941, "name": "LUNCAVITA", "admin_level": "6", "kind": "subdivision_2", "parent_osm_id": 2366873, "parent_name": "Caraș-Severin", "parent_iso": "RO-CS"}, "geometry": {"type": "Polygon", "coordinates": [[[22.2808, 45.0955], [22.2717, 45.1144], [22.2543, 45.1222], [22.2414, 45.118], [22.2254, 45.1295], [22.2137, 45.13], [22.1693, 45.1519], [22.1601, 45.1474], [22.1683, 45.1336], [22.1877, 45.126], [22.1823, 45.1193], [22.1915, 45.1054], [22.2001, 45.1013], [22.1984, 45.0893], [22.2247, 45.0521], [22.2305, 45.0551], [22.2396, 45.0501], [22.2357, 45.0621], [22.2462, 45.0647], [22.2544, 45.0574], [22.2771, 45.0539], [22.2699, 45.0714], [22.2768, 45.0747], [22.2873, 45.0637], [22.2969, 45.0683], [22.2808, 45.0955]]]}}, {"type": "Feature", "properties": {"osm_type": "relation", "osm_id": 595556921, "name": "VARADIA", "admin_level": "6", "kind": "subdivision_2", "parent_osm_id": 2366873, "parent_name": "Caraș-Severin", "parent_iso": "RO-CS"}, "geometry": {"type": "Polygon", "coordinates": [[[21.5915, 45.0318], [21.5895, 45.0465], [21.5936, 45.0465], [21.5862, 45.0551], [21.5925, 45.0717], [21.5756, 45.0828], [21.5603, 45.0817], [21.5519, 45.1013], [21.563, 45.1135], [21.5659, 45.1296], [21.5622, 45.1433], [21.5442, 45.158], [21.5273, 45.151], [21.5275, 45.1379], [21.4784, 45.1213], [21.4698, 45.1047], [21.4833, 45.0913], [21.4476, 45.0575], [21.4562, 45.0533], [21.4889, 45.0549], [21.5481, 45.0319], [21.5724, 45.0275], [21.5915, 45.0318]]]}}, {"type": "Feature", "properties": {"osm_type": "relation", "osm_id": 440615916, "name": "CIUDANOVITA", "admin_level": "6", "kind": "subdivision_2", "parent_osm_id": 2366873, "parent_name": "Caraș-Severin", "parent_iso": "RO-CS"}, "geometry": {"type": "Polygon", "coordinates": [[[21.8035, 45.1063], [21.832, 45.1072], [21.8397, 45.1141], [21.8244, 45.1382], [21.8044, 45.1469], [21.7813, 45.1699], [21.764, 45.1625], [21.7571, 45.1674], [21.7394, 45.1612], [21.7266, 45.1658], [21.7109, 45.1546], [21.679, 45.1551], [21.6683, 45.1511], [21.6963, 45.1335], [21.7148, 45.1331], [21.7272, 45.1196], [21.7484, 45.1101], [21.7874, 45.1044], [21.7918, 45.0983], [21.8035, 45.1063]]]}}, {"type": "Feature", "properties": {"osm_type": "relation", "osm_id": 490041365, "name": "PRIGOR", "admin_level": "6", "kind": "subdivision_2", "parent_osm_id": 2366873, "parent_name": "Caraș-Severin", "parent_iso": "RO-CS"}, "geometry": {"type": "Polygon", "coordinates": [[[22.2556, 44.83], [22.2507, 44.8527], [22.2411, 44.8628], [22.242, 44.8692], [22.2283, 44.869], [22.216, 44.879], [22.2101, 44.9088], [22.2164, 44.9198], [22.2128, 44.942], [22.2003, 44.9517], [22.1834, 44.9458], [22.1714, 44.9545], [22.1783, 44.9714], [22.1661, 44.9772], [22.1543, 44.9975], [22.1378, 45.0034], [22.1216, 45.0268], [22.1117, 45.0298], [22.1067, 45.0368], [22.0898, 45.0387], [22.0914, 45.0544], [22.0816, 45.0626], [22.081, 45.0688], [22.0908, 45.0783], [22.0955, 45.1132], [22.114, 45.1346], [22.1132, 45.1478], [22.0888, 45.1617], [22.0725, 45.183], [22.0495, 45.1771], [22.0504, 45.1685], [22.0297, 45.145], [22.0293, 45.1391], [22.0163, 45.1292], [22.0119, 45.1102], [22.0045, 45.1039], [22.0069, 45.1003], [21.9847, 45.0717], [21.9914, 45.0445], [22.0005, 45.036], [21.9998, 45.0276], [22.0332, 45.0213], [22.0408, 45.0081], [22.0338, 44.9947], [22.05, 44.9599], [22.0415, 44.9513], [22.049, 44.9452], [22.0701, 44.9412], [22.0774, 44.9226], [22.0905, 44.9114], [22.1049, 44.9037], [22.1082, 44.9091], [22.1574, 44.8791], [22.1653, 44.8656], [22.1684, 44.8468], [22.2068, 44.8175], [22.2367, 44.8088], [22.2457, 44.8116], [22.2438, 44.8157], [22.2556, 44.83]]]}}, {"type": "Feature", "properties": {"osm_type": "relation", "osm_id": 190203795, "name": "GRADINARI", "admin_level": "6", "kind": "subdivision_2", "parent_osm_id": 2366873, "parent_name": "Caraș-Severin", "parent_iso": "RO-CS"}, "geometry": {"type": "Polygon", "coordinates": [[[21.6443, 45.0943], [21.6096, 45.1096], [21.6035, 45.1243], [21.6063, 45.1272], [21.5855, 45.1732], [21.571, 45.1633], [21.5442, 45.158], [21.5622, 45.1433], [21.5659, 45.1296], [21.563, 45.1135], [21.5519, 45.0968], [21.5603, 45.0817], [21.5756, 45.0828], [21.5925, 45.0717], [21.5895, 45.0628], [21.6081, 45.0567], [21.6145, 45.0705], [21.6284, 45.0782], [21.6382, 45.077], [21.6443, 45.0943]]]}}, {"type": "Feature", "properties": {"osm_type": "relation", "osm_id": 580121395, "name": "GORUIA", "admin_level": "6", "kind": "subdivision_2", "parent_osm_id": 2366873, "parent_name": "Caraș-Severin", "parent_iso": "RO-CS"}, "geometry": {"type": "Polygon", "coordinates": [[[21.852, 45.1392], [21.859, 45.1528], [21.8515, 45.1659], [21.8395, 45.1645], [21.8381, 45.1843], [21.7851, 45.2127], [21.754, 45.2226], [21.7362, 45.213], [21.7323, 45.2178], [21.7116, 45.1924], [21.707, 45.1792], [21.6929, 45.1689], [21.72, 45.1598], [21.7266, 45.1658], [21.7394, 45.1612], [21.7571, 45.1674], [21.764, 45.1625], [21.7813, 45.1699], [21.8044, 45.1469], [21.8244, 45.1382], [21.8367, 45.1261], [21.8471, 45.1289], [21.852, 45.1392]]]}}, {"type": "Feature", "properties": {"osm_type": "relation", "osm_id": 349682084, "name": "CARASOVA", "admin_level": "6", "kind": "subdivision_2", "parent_osm_id": 2366873, "parent_name": "Caraș-Severin", "parent_iso": "RO-CS"}, "geometry": {"type": "Polygon", "coordinates": [[[21.9758, 45.1207], [21.968, 45.1315], [21.9767, 45.1388], [21.9808, 45.1513], [21.9768, 45.172], [21.9869, 45.1777], [21.9812, 45.1883], [21.9876, 45.1999], [21.9809, 45.2132], [21.9698, 45.2099], [21.9599, 45.2131], [21.9329, 45.2346], [21.8904, 45.2511], [21.8721, 45.2532], [21.8479, 45.2365], [21.8089, 45.2265], [21.8058, 45.2222], [21.8048, 45.2058], [21.7998, 45.2052], [21.8381, 45.1843], [21.8395, 45.1645], [21.8515, 45.1659], [21.859, 45.1528], [21.852, 45.1392], [21.8704, 45.1404], [21.8821, 45.1246], [21.9181, 45.1251], [21.9326, 45.1131], [21.9602, 45.1085], [21.9758, 45.1207]]]}}, {"type": "Feature", "properties": {"osm_type": "relation", "osm_id": 283364178, "name": "TICVANIU MARE", "admin_level": "6", "kind": "subdivision_2", "parent_osm_id": 2366873, "parent_name": "Caraș-Severin", "parent_iso": "RO-CS"}, "geometry": {"type": "Polygon", "coordinates": [[[21.7148, 45.1331], [21.6963, 45.1335], [21.6683, 45.1511], [21.679, 45.1551], [21.7109, 45.1546], [21.72, 45.1598], [21.6929, 45.1689], [21.707, 45.1792], [21.7116, 45.1924], [21.7195, 45.1991], [21.7054, 45.2078], [21.6863, 45.2084], [21.6822, 45.2125], [21.6863, 45.2169], [21.6837, 45.2207], [21.6724, 45.2256], [21.6806, 45.2399], [21.6755, 45.2514], [21.6626, 45.2463], [21.6481, 45.2519], [21.6396, 45.2476], [21.6189, 45.2267], [21.5875, 45.206], [21.5878, 45.1971], [21.5806, 45.1975], [21.5769, 45.1835], [21.6063, 45.1272], [21.6052, 45.1173], [21.6096, 45.1096], [21.6273, 45.1004], [21.6466, 45.0926], [21.6714, 45.0913], [21.6683, 45.0942], [21.675, 45.1093], [21.6795, 45.1085], [21.6928, 45.1256], [21.7148, 45.1331]]]}}, {"type": "Feature", "properties": {"osm_type": "relation", "osm_id": 939670149, "name": "ARMENIS", "admin_level": "6", "kind": "subdivision_2", "parent_osm_id": 2366873, "parent_name": "Caraș-Severin", "parent_iso": "RO-CS"}, "geometry": {"type": "Polygon", "coordinates": [[[22.5361, 45.2803], [22.5183, 45.2847], [22.5157, 45.2745], [22.5012, 45.2714], [22.4884, 45.2617], [22.4548, 45.2595], [22.4404, 45.2502], [22.4172, 45.2533], [22.3949, 45.2431], [22.3563, 45.2484], [22.3149, 45.2385], [22.2989, 45.2332], [22.3025, 45.2232], [22.2839, 45.2196], [22.2804, 45.2067], [22.2929, 45.1945], [22.3112, 45.195], [22.3049, 45.1902], [22.3086, 45.1801], [22.3449, 45.1615], [22.3862, 45.1758], [22.3998, 45.1709], [22.4428, 45.179], [22.4574, 45.1956], [22.4728, 45.1991], [22.4739, 45.2069], [22.5099, 45.2181], [22.5196, 45.2318], [22.5447, 45.2495], [22.5519, 45.2628], [22.5361, 45.2803]]]}}, {"type": "Feature", "properties": {"osm_type": "relation", "osm_id": 837975488, "name": "TEREGOVA", "admin_level": "6", "kind": "subdivision_2", "parent_osm_id": 2366873, "parent_name": "Caraș-Severin", "parent_iso": "RO-CS"}, "geometry": {"type": "Polygon", "coordinates": [[[22.3636, 45.1273], [22.3882, 45.1239], [22.3917, 45.1156], [22.3965, 45.1153], [22.4012, 45.1247], [22.4144, 45.13], [22.4283, 45.1431], [22.449, 45.1377], [22.4544, 45.1271], [22.4656, 45.1331], [22.5283, 45.1205], [22.5358, 45.1242], [22.5485, 45.1429], [22.5485, 45.1546], [22.5592, 45.1569], [22.5602, 45.1636], [22.5745, 45.1757], [22.5756, 45.1834], [22.596, 45.1985], [22.5765, 45.2333], [22.5782, 45.2409], [22.5992, 45.256], [22.6034, 45.2702], [22.5983, 45.2931], [22.5928, 45.2985], [22.5778, 45.292], [22.5559, 45.3027], [22.546, 45.2928], [22.545, 45.2843], [22.5361, 45.2803], [22.5519, 45.2628], [22.5447, 45.2495], [22.5196, 45.2318], [22.5099, 45.2181], [22.4739, 45.2069], [22.4728, 45.1991], [22.4574, 45.1956], [22.4428, 45.179], [22.3998, 45.1709], [22.3862, 45.1758], [22.3519, 45.1615], [22.3449, 45.1615], [22.3314, 45.1718], [22.3217, 45.1714], [22.3054, 45.1836], [22.3049, 45.1902], [22.3112, 45.195], [22.2929, 45.1945], [22.2838, 45.2033], [22.2669, 45.1997], [22.2528, 45.2054], [22.2186, 45.2042], [22.2115, 45.1973], [22.1901, 45.2108], [22.1762, 45.2095], [22.1714, 45.204], [22.1589, 45.2119], [22.13, 45.2155], [22.1195, 45.2211], [22.0901, 45.2156], [22.0753, 45.2248], [22.0569, 45.2101], [22.0569, 45.2036], [22.066, 45.1927], [22.0704, 45.1942], [22.0725, 45.183], [22.0888, 45.1617], [22.1108, 45.1498], [22.1234, 45.1482], [22.1294, 45.1399], [22.1401, 45.1395], [22.1426, 45.1236], [22.1578, 45.1241], [22.1683, 45.1336], [22.1601, 45.1474], [22.1693, 45.1519], [22.2137, 45.13], [22.2254, 45.1295], [22.2414, 45.118], [22.2543, 45.1222], [22.2717, 45.1144], [22.2808, 45.0955], [22.2883, 45.0967], [22.2981, 45.1093], [22.3029, 45.1271], [22.308, 45.1263], [22.3083, 45.1164], [22.3148, 45.1141], [22.3331, 45.123], [22.3636, 45.1273]]]}}, {"type": "Feature", "properties": {"osm_type": "relation", "osm_id": 438074982, "name": "SLATINA-TIMIS", "admin_level": "6", "kind": "subdivision_2", "parent_osm_id": 2366873, "parent_name": "Caraș-Severin", "parent_iso": "RO-CS"}, "geometry": {"type": "Polygon", "coordinates": [[[22.5183, 45.2847], [22.5004, 45.2897], [22.4876, 45.284], [22.464, 45.2836], [22.4028, 45.2979], [22.3507, 45.2889], [22.3306, 45.2941], [22.3151, 45.2927], [22.3016, 45.2986], [22.2748, 45.2885], [22.2775, 45.2849], [22.2695, 45.2711], [22.2415, 45.2733], [22.2287, 45.2651], [22.2174, 45.2708], [22.2022, 45.2683], [22.17, 45.2542], [22.1645, 45.238], [22.18, 45.2293], [22.1656, 45.2201], [22.1681, 45.2068], [22.1714, 45.204], [22.1762, 45.2095], [22.1901, 45.2108], [22.2115, 45.1973], [22.2186, 45.2042], [22.2528, 45.2054], [22.2743, 45.1998], [22.2838, 45.2033], [22.2804, 45.2067], [22.2839, 45.2196], [22.3025, 45.2232], [22.2989, 45.2332], [22.3019, 45.2348], [22.3563, 45.2484], [22.3949, 45.2431], [22.4172, 45.2533], [22.4404, 45.2502], [22.4548, 45.2595], [22.4884, 45.2617], [22.5012, 45.2714], [22.5157, 45.2745], [22.5183, 45.2847]]]}}, {"type": "Feature", "properties": {"osm_type": "relation", "osm_id": 709099954, "name": "LUPAC", "admin_level": "6", "kind": "subdivision_2", "parent_osm_id": 2366873, "parent_name": "Caraș-Severin", "parent_iso": "RO-CS"}, "geometry": {"type": "Polygon", "coordinates": [[[21.7998, 45.2052], [21.8048, 45.2058], [21.8089, 45.2265], [21.8619, 45.2436], [21.8766, 45.2613], [21.8611, 45.2724], [21.8587, 45.288], [21.8472, 45.293], [21.843, 45.3021], [21.8308, 45.3057], [21.8234, 45.3148], [21.7931, 45.3192], [21.7844, 45.2952], [21.7689, 45.2762], [21.7773, 45.2671], [21.7713, 45.2423], [21.7566, 45.2387], [21.754, 45.2226], [21.7998, 45.2052]]]}}, {"type": "Feature", "properties": {"osm_type": "relation", "osm_id": 616672757, "name": "DOGNECEA", "admin_level": "6", "kind": "subdivision_2", "parent_osm_id": 2366873, "parent_name": "Caraș-Severin", "parent_iso": "RO-CS"}, "geometry": {"type": "Polygon", "coordinates": [[[21.754, 45.2226], [21.7566, 45.2387], [21.7713, 45.2423], [21.7762, 45.2572], [21.7773, 45.2671], [21.7689, 45.2762], [21.7905, 45.307], [21.7931, 45.3192], [21.7865, 45.3222], [21.7854, 45.3286], [21.7766, 45.3255], [21.7652, 45.3292], [21.7514, 45.3226], [21.7257, 45.32], [21.7268, 45.311], [21.7219, 45.3084], [21.7216, 45.2983], [21.7128, 45.2932], [21.7103, 45.2769], [21.6906, 45.268], [21.6899, 45.2615], [21.6844, 45.2619], [21.6735, 45.2517], [21.6806, 45.2399], [21.6724, 45.2256], [21.6837, 45.2207], [21.6863, 45.2169], [21.6822, 45.2125], [21.6863, 45.2084], [21.7054, 45.2078], [21.7195, 45.1991], [21.7323, 45.2178], [21.7362, 45.213], [21.754, 45.2226]]]}}, {"type": "Feature", "properties": {"osm_type": "relation", "osm_id": 268360010, "name": "BOLVASNITA", "admin_level": "6", "kind": "subdivision_2", "parent_osm_id": 2366873, "parent_name": "Caraș-Severin", "parent_iso": "RO-CS"}, "geometry": {"type": "Polygon", "coordinates": [[[22.5361, 45.2803], [22.545, 45.2843], [22.546, 45.2928], [22.5559, 45.3027], [22.5399, 45.321], [22.5293, 45.3225], [22.5266, 45.3274], [22.5235, 45.3243], [22.5107, 45.3294], [22.5049, 45.3272], [22.504, 45.32], [22.5006, 45.3244], [22.4896, 45.3175], [22.4515, 45.3134], [22.4142, 45.3251], [22.4116, 45.3332], [22.3762, 45.3479], [22.3625, 45.3426], [22.3319, 45.3426], [22.3243, 45.3468], [22.3191, 45.3666], [22.3129, 45.3714], [22.2878, 45.3522], [22.2953, 45.3358], [22.2896, 45.3341], [22.3007, 45.3316], [22.3268, 45.3121], [22.3158, 45.3069], [22.3105, 45.294], [22.3151, 45.2927], [22.36, 45.2891], [22.3702, 45.2951], [22.4028, 45.2979], [22.464, 45.2836], [22.4876, 45.284], [22.5004, 45.2897], [22.5361, 45.2803]]]}}, {"type": "Feature", "properties": {"osm_type": "relation", "osm_id": 883974543, "name": "TARNOVA", "admin_level": "6", "kind": "subdivision_2", "parent_osm_id": 2366873, "parent_name": "Caraș-Severin", "parent_iso": "RO-CS"}, "geometry": {"type": "Polygon", "coordinates": [[[22.0648, 45.3313], [22.0584, 45.3321], [22.0568, 45.338], [22.0395, 45.3514], [22.0239, 45.3552], [22.0195, 45.3671], [22.0138, 45.3702], [21.9978, 45.3677], [21.9806, 45.3538], [21.9713, 45.3541], [21.9624, 45.3428], [21.9437, 45.3431], [21.9309, 45.3379], [21.9282, 45.3209], [21.9406, 45.3194], [21.9558, 45.3], [21.9933, 45.3089], [22.0055, 45.302], [22.0029, 45.3062], [22.0106, 45.3047], [22.0155, 45.3066], [22.0129, 45.3093], [22.0275, 45.3053], [22.0248, 45.3075], [22.0332, 45.3134], [22.0343, 45.3231], [22.0513, 45.3131], [22.0711, 45.3183], [22.0648, 45.3313]]]}}, {"type": "Feature", "properties": {"osm_type": "relation", "osm_id": 109904168, "name": "OCNA DE FIER", "admin_level": "6", "kind": "subdivision_2", "parent_osm_id": 2366873, "parent_name": "Caraș-Severin", "parent_iso": "RO-CS"}, "geometry": {"type": "Polygon", "coordinates": [[[21.8055, 45.3187], [21.8081, 45.3293], [21.8028, 45.3461], [21.792, 45.3486], [21.7773, 45.3666], [21.7333, 45.3615], [21.7311, 45.3532], [21.7478, 45.341], [21.7424, 45.3317], [21.7248, 45.3277], [21.7257, 45.32], [21.7514, 45.3226], [21.7652, 45.3292], [21.7766, 45.3255], [21.7854, 45.3286], [21.7865, 45.3222], [21.8055, 45.3187]]]}}, {"type": "Feature", "properties": {"osm_type": "relation", "osm_id": 539234375, "name": "RESITA", "admin_level": "6", "kind": "subdivision_2", "parent_osm_id": 2366873, "parent_name": "Caraș-Severin", "parent_iso": "RO-CS"}, "geometry": {"type": "Polygon", "coordinates": [[[21.9809, 45.2132], [21.9893, 45.2191], [21.9874, 45.2364], [21.9912, 45.2414], [22.0268, 45.2497], [22.0302, 45.2658], [22.0469, 45.2833], [22.0956, 45.2712], [22.0963, 45.2816], [22.1127, 45.288], [22.1043, 45.305], [22.0843, 45.3194], [22.0513, 45.3131], [22.0343, 45.3231], [22.0332, 45.3134], [22.0248, 45.3075], [22.0275, 45.3053], [22.0129, 45.3093], [22.0155, 45.3066], [22.0106, 45.3047], [22.0029, 45.3062], [22.0055, 45.302], [21.9933, 45.3089], [21.9558, 45.3], [21.9406, 45.3194], [21.9282, 45.3209], [21.9309, 45.3379], [21.9265, 45.3449], [21.9158, 45.3477], [21.9075, 45.358], [21.9026, 45.3563], [21.8951, 45.3856], [21.886, 45.3817], [21.8578, 45.3819], [21.8488, 45.3879], [21.811, 45.3683], [21.8222, 45.3608], [21.7997, 45.3475], [21.8071, 45.3382], [21.8055, 45.3187], [21.8234, 45.3148], [21.8308, 45.3057], [21.843, 45.3021], [21.8472, 45.293], [21.8587, 45.288], [21.8611, 45.2724], [21.8766, 45.2613], [21.8721, 45.2532], [21.8904, 45.2511], [21.9329, 45.2346], [21.9599, 45.2131], [21.9698, 45.2099], [21.9809, 45.2132]]]}}, {"type": "Feature", "properties": {"osm_type": "relation", "osm_id": 553236258, "name": "TURNU RUIENI", "admin_level": "6", "kind": "subdivision_2", "parent_osm_id": 2366873, "parent_name": "Caraș-Severin", "parent_iso": "RO-CS"}, "geometry": {"type": "Polygon", "coordinates": [[[22.4839, 45.3179], [22.4945, 45.348], [22.4993, 45.3396], [22.5099, 45.339], [22.5034, 45.3423], [22.5072, 45.3508], [22.5017, 45.3622], [22.4861, 45.3591], [22.4773, 45.3631], [22.4651, 45.3822], [22.4331, 45.3993], [22.4203, 45.4249], [22.3905, 45.4227], [22.3773, 45.4376], [22.3543, 45.439], [22.3288, 45.4326], [22.2936, 45.4315], [22.2874, 45.4366], [22.285, 45.4311], [22.274, 45.4322], [22.2717, 45.4015], [22.2673, 45.3981], [22.2804, 45.3876], [22.2609, 45.3881], [22.2561, 45.3842], [22.2768, 45.3726], [22.2965, 45.3664], [22.2992, 45.3708], [22.3109, 45.3678], [22.3129, 45.3714], [22.3191, 45.3666], [22.3243, 45.3468], [22.3319, 45.3426], [22.3625, 45.3426], [22.3762, 45.3479], [22.4116, 45.3332], [22.4142, 45.3251], [22.4515, 45.3134], [22.4839, 45.3179]]]}}, {"type": "Feature", "properties": {"osm_type": "relation", "osm_id": 886218595, "name": "PALTINIS", "admin_level": "6", "kind": "subdivision_2", "parent_osm_id": 2366873, "parent_name": "Caraș-Severin", "parent_iso": "RO-CS"}, "geometry": {"type": "Polygon", "coordinates": [[[22.0711, 45.3183], [22.0843, 45.3194], [22.0988, 45.3372], [22.1346, 45.362], [22.1386, 45.3608], [22.1474, 45.3705], [22.173, 45.3823], [22.1737, 45.391], [22.1826, 45.4016], [22.1717, 45.4012], [22.1726, 45.4084], [22.1793, 45.4105], [22.1742, 45.4143], [22.1881, 45.4138], [22.1934, 45.4369], [22.2007, 45.4402], [22.1935, 45.4444], [22.1964, 45.4505], [22.1609, 45.4503], [22.1476, 45.4469], [22.1401, 45.4396], [22.1219, 45.4494], [22.1051, 45.439], [22.0915, 45.4492], [22.0817, 45.4503], [22.0783, 45.4397], [22.0707, 45.4341], [22.0782, 45.4249], [22.0945, 45.4181], [22.0924, 45.4093], [22.0837, 45.413], [22.0713, 45.4082], [22.0538, 45.4168], [22.0426, 45.411], [22.0524, 45.3955], [22.0591, 45.3936], [22.0497, 45.3719], [22.0561, 45.3685], [22.0519, 45.3604], [22.0543, 45.3514], [22.063, 45.3498], [22.0606, 45.339], [22.0711, 45.3183]]]}}, {"type": "Feature", "properties": {"osm_type": "relation", "osm_id": 210878306, "name": "BREBU", "admin_level": "6", "kind": "subdivision_2", "parent_osm_id": 2366873, "parent_name": "Caraș-Severin", "parent_iso": "RO-CS"}, "geometry": {"type": "Polygon", "coordinates": [[[22.0648, 45.3313], [22.0606, 45.339], [22.063, 45.3498], [22.0543, 45.3514], [22.0519, 45.3604], [22.0561, 45.3685], [22.0497, 45.3719], [22.0591, 45.3936], [22.0524, 45.3955], [22.0426, 45.411], [22.0538, 45.4168], [22.0713, 45.4082], [22.0837, 45.413], [22.0924, 45.4093], [22.0945, 45.4181], [22.0782, 45.4249], [22.0707, 45.4341], [22.0539, 45.4364], [22.0341, 45.4518], [21.9975, 45.4362], [21.9701, 45.435], [21.9419, 45.4181], [21.948, 45.3951], [21.953, 45.392], [21.9459, 45.3907], [21.9769, 45.3649], [21.9893, 45.3602], [21.9978, 45.3677], [22.0138, 45.3702], [22.0195, 45.3671], [22.0239, 45.3552], [22.0395, 45.3514], [22.0568, 45.338], [22.0584, 45.3321], [22.0648, 45.3313]]]}}, {"type": "Feature", "properties": {"osm_type": "relation", "osm_id": 358073051, "name": "BOCSA", "admin_level": "6", "kind": "subdivision_2", "parent_osm_id": 2366873, "parent_name": "Caraș-Severin", "parent_iso": "RO-CS"}, "geometry": {"type": "Polygon", "coordinates": [[[21.7997, 45.3475], [21.8222, 45.3608], [21.811, 45.3683], [21.8488, 45.3879], [21.8411, 45.3942], [21.8379, 45.4088], [21.8475, 45.4192], [21.8394, 45.4227], [21.8164, 45.4207], [21.8147, 45.4301], [21.8014, 45.4322], [21.8019, 45.4576], [21.7846, 45.4588], [21.7828, 45.4529], [21.7577, 45.4458], [21.7439, 45.4345], [21.7492, 45.4424], [21.737, 45.4346], [21.7324, 45.4351], [21.7352, 45.4399], [21.7295, 45.4388], [21.7242, 45.4078], [21.729, 45.4033], [21.7096, 45.4086], [21.6936, 45.4062], [21.6776, 45.4172], [21.6685, 45.4056], [21.6615, 45.4235], [21.647, 45.4145], [21.6534, 45.4097], [21.6478, 45.4097], [21.6268, 45.3872], [21.6412, 45.3843], [21.647, 45.3695], [21.6629, 45.3682], [21.6936, 45.3508], [21.7136, 45.3465], [21.7137, 45.3526], [21.7201, 45.3473], [21.7251, 45.3262], [21.7424, 45.3317], [21.7478, 45.341], [21.7311, 45.3532], [21.7333, 45.3615], [21.7471, 45.3655], [21.7661, 45.3628], [21.7773, 45.3666], [21.792, 45.3486], [21.7997, 45.3475]]]}}, {"type": "Feature", "properties": {"osm_type": "relation", "osm_id": 850362451, "name": "EZERIS", "admin_level": "6", "kind": "subdivision_2", "parent_osm_id": 2366873, "parent_name": "Caraș-Severin", "parent_iso": "RO-CS"}, "geometry": {"type": "Polygon", "coordinates": [[[21.9893, 45.3602], [21.9769, 45.3649], [21.9459, 45.3907], [21.953, 45.392], [21.9463, 45.4046], [21.9183, 45.415], [21.9124, 45.4415], [21.8913, 45.4549], [21.8633, 45.4564], [21.8591, 45.4608], [21.8525, 45.458], [21.8553, 45.4508], [21.8456, 45.442], [21.846, 45.4315], [21.8282, 45.4367], [21.8238, 45.4313], [21.83, 45.4265], [21.8265, 45.4218], [21.8475, 45.4192], [21.8379, 45.4088], [21.8385, 45.3996], [21.8507, 45.3853], [21.886, 45.3817], [21.8951, 45.3856], [21.9026, 45.3563], [21.9111, 45.3558], [21.9309, 45.3379], [21.9437, 45.3431], [21.9624, 45.3428], [21.9713, 45.3541], [21.9806, 45.3538], [21.9893, 45.3602]]]}}, {"type": "Feature", "properties": {"osm_type": "relation", "osm_id": 326037728, "name": "CARANSEBES", "admin_level": "6", "kind": "subdivision_2", "parent_osm_id": 2366873, "parent_name": "Caraș-Severin", "parent_iso": "RO-CS"}, "geometry": {"type": "Polygon", "coordinates": [[[22.274, 45.4322], [22.2615, 45.4458], [22.1986, 45.458], [22.1942, 45.4679], [22.1822, 45.4771], [22.1622, 45.4645], [22.1464, 45.4662], [22.1254, 45.461], [22.1219, 45.4494], [22.1401, 45.4396], [22.1476, 45.4469], [22.1609, 45.4503], [22.1964, 45.4505], [22.1935, 45.4444], [22.2007, 45.4402], [22.1934, 45.4369], [22.1881, 45.4138], [22.1742, 45.4143], [22.1793, 45.4105], [22.1726, 45.4084], [22.1717, 45.4012], [22.1823, 45.4], [22.1737, 45.391], [22.173, 45.3823], [22.1649, 45.3785], [22.1789, 45.3757], [22.1911, 45.3665], [22.2024, 45.373], [22.2096, 45.3717], [22.2194, 45.3869], [22.2376, 45.3797], [22.24, 45.3848], [22.251, 45.3748], [22.2571, 45.3778], [22.254, 45.3826], [22.2609, 45.3881], [22.2804, 45.3876], [22.2673, 45.3981], [22.2717, 45.4015], [22.274, 45.4322]]]}}, {"type": "Feature", "properties": {"osm_type": "relation", "osm_id": 174373981, "name": "BERZOVIA", "admin_level": "6", "kind": "subdivision_2", "parent_osm_id": 2366873, "parent_name": "Caraș-Severin", "parent_iso": "RO-CS"}, "geometry": {"type": "Polygon", "coordinates": [[[21.6776, 45.4172], [21.6689, 45.4318], [21.6487, 45.4319], [21.6296, 45.4484], [21.6113, 45.4524], [21.6165, 45.4611], [21.6096, 45.4679], [21.5975, 45.4744], [21.5773, 45.4741], [21.5924, 45.458], [21.5647, 45.4604], [21.5544, 45.4394], [21.5391, 45.4398], [21.5412, 45.4282], [21.5464, 45.426], [21.5368, 45.4001], [21.5219, 45.4022], [21.4939, 45.3429], [21.535, 45.3261], [21.5345, 45.3291], [21.5424, 45.3255], [21.5654, 45.3292], [21.569, 45.3376], [21.5746, 45.3357], [21.589, 45.3493], [21.6049, 45.352], [21.6062, 45.3593], [21.647, 45.3695], [21.6412, 45.3843], [21.6268, 45.3872], [21.6478, 45.4097], [21.6534, 45.4097], [21.647, 45.4145], [21.6615, 45.4235], [21.6685, 45.4056], [21.6776, 45.4172]]]}}, {"type": "Feature", "properties": {"osm_type": "relation", "osm_id": 203678485, "name": "MAURENI", "admin_level": "6", "kind": "subdivision_2", "parent_osm_id": 2366873, "parent_name": "Caraș-Severin", "parent_iso": "RO-CS"}, "geometry": {"type": "Polygon", "coordinates": [[[21.5773, 45.4741], [21.56, 45.4917], [21.5466, 45.4883], [21.5291, 45.4943], [21.5115, 45.4936], [21.4587, 45.4768], [21.4642, 45.4429], [21.47, 45.4416], [21.4693, 45.4357], [21.4756, 45.4312], [21.485, 45.4347], [21.4887, 45.4186], [21.4405, 45.4071], [21.4451, 45.3904], [21.4886, 45.3532], [21.4924, 45.3553], [21.4976, 45.3504], [21.5219, 45.4022], [21.5368, 45.4001], [21.5464, 45.426], [21.5412, 45.4282], [21.5391, 45.4398], [21.5544, 45.4394], [21.5647, 45.4604], [21.5924, 45.458], [21.5773, 45.4741]]]}}, {"type": "Feature", "properties": {"osm_type": "relation", "osm_id": 940125985, "name": "ZORLENTU MARE", "admin_level": "6", "kind": "subdivision_2", "parent_osm_id": 2366873, "parent_name": "Caraș-Severin", "parent_iso": "RO-CS"}, "geometry": {"type": "Polygon", "coordinates": [[[22.0341, 45.4518], [22.0234, 45.4641], [22.0423, 45.4757], [22.0205, 45.4896], [22.0309, 45.4919], [22.0305, 45.4974], [22.0091, 45.5103], [22.0083, 45.5044], [21.9927, 45.5091], [21.9909, 45.5031], [21.9749, 45.5124], [21.9539, 45.5073], [21.9553, 45.4983], [21.9472, 45.4865], [21.9233, 45.4856], [21.9275, 45.4806], [21.9084, 45.4446], [21.9183, 45.415], [21.9463, 45.4046], [21.9419, 45.4181], [21.9676, 45.4338], [21.9975, 45.4362], [22.0341, 45.4518]]]}}, {"type": "Feature", "properties": {"osm_type": "relation", "osm_id": 183657443, "name": "RAMNA", "admin_level": "6", "kind": "subdivision_2", "parent_osm_id": 2366873, "parent_name": "Caraș-Severin", "parent_iso": "RO-CS"}, "geometry": {"type": "Polygon", "coordinates": [[[21.7932, 45.4586], [21.7822, 45.4663], [21.7785, 45.473], [21.7805, 45.4844], [21.7606, 45.5025], [21.7562, 45.5183], [21.7411, 45.5276], [21.6889, 45.5097], [21.6849, 45.5023], [21.6793, 45.5054], [21.6757, 45.4904], [21.654, 45.4912], [21.6522, 45.4771], [21.6263, 45.4694], [21.623, 45.461], [21.6165, 45.4611], [21.6113, 45.4524], [21.6296, 45.4484], [21.6487, 45.4319], [21.6689, 45.4318], [21.6797, 45.4135], [21.689, 45.4076], [21.7096, 45.4086], [21.729, 45.4033], [21.7242, 45.4078], [21.7295, 45.4388], [21.7352, 45.4399], [21.7324, 45.4351], [21.737, 45.4346], [21.7492, 45.4424], [21.7439, 45.4345], [21.7577, 45.4458], [21.7828, 45.4529], [21.7846, 45.4588], [21.7932, 45.4586]]]}}, {"type": "Feature", "properties": {"osm_type": "relation", "osm_id": 460199217, "name": "ZAVOI", "admin_level": "6", "kind": "subdivision_2", "parent_osm_id": 2366873, "parent_name": "Caraș-Severin", "parent_iso": "RO-CS"}, "geometry": {"type": "Polygon", "coordinates": [[[22.6862, 45.258], [22.6888, 45.2745], [22.6773, 45.2826], [22.6871, 45.2885], [22.6966, 45.3031], [22.6923, 45.32], [22.6992, 45.3287], [22.6833, 45.3316], [22.6669, 45.3522], [22.6688, 45.3614], [22.6566, 45.3713], [22.6683, 45.3827], [22.6666, 45.3975], [22.6397, 45.4095], [22.6234, 45.4244], [22.6223, 45.4323], [22.5574, 45.436], [22.5422, 45.449], [22.5257, 45.4528], [22.5191, 45.4621], [22.5101, 45.464], [22.5058, 45.4773], [22.4723, 45.4825], [22.4633, 45.4928], [22.4553, 45.4918], [22.4492, 45.5036], [22.4518, 45.5088], [22.4809, 45.5328], [22.4826, 45.5431], [22.4958, 45.5476], [22.4989, 45.5541], [22.4958, 45.562], [22.4712, 45.5544], [22.4653, 45.548], [22.4483, 45.5535], [22.4408, 45.5626], [22.4161, 45.5661], [22.4051, 45.5543], [22.3934, 45.5237], [22.4013, 45.517], [22.3937, 45.5134], [22.3935, 45.5076], [22.4121, 45.4965], [22.401, 45.4826], [22.4085, 45.4718], [22.3973, 45.4642], [22.3836, 45.4623], [22.3773, 45.4376], [22.3853, 45.4269], [22.4011, 45.4213], [22.4203, 45.4249], [22.4331, 45.3993], [22.4651, 45.3822], [22.4773, 45.3631], [22.4861, 45.3591], [22.5017, 45.3622], [22.5072, 45.3508], [22.5034, 45.3423], [22.5099, 45.339], [22.4993, 45.3396], [22.4945, 45.348], [22.4839, 45.3179], [22.5006, 45.3244], [22.5055, 45.3205], [22.5049, 45.3272], [22.5107, 45.3294], [22.5235, 45.3243], [22.5266, 45.3274], [22.5293, 45.3225], [22.5399, 45.321], [22.5522, 45.3036], [22.5677, 45.2941], [22.5778, 45.292], [22.5928, 45.2985], [22.5983, 45.2931], [22.6034, 45.2702], [22.5992, 45.256], [22.5782, 45.2409], [22.5765, 45.2333], [22.596, 45.1985], [22.6011, 45.2057], [22.6256, 45.2084], [22.6464, 45.2202], [22.6499, 45.2266], [22.6446, 45.2337], [22.6732, 45.2403], [22.6862, 45.258]]]}}, {"type": "Feature", "properties": {"osm_type": "relation", "osm_id": 419145881, "name": "MARGA", "admin_level": "6", "kind": "subdivision_2", "parent_osm_id": 2366873, "parent_name": "Caraș-Severin", "parent_iso": "RO-CS"}, "geometry": {"type": "Polygon", "coordinates": [[[22.5853, 45.4367], [22.5669, 45.4639], [22.5288, 45.4891], [22.5274, 45.5], [22.5131, 45.5238], [22.5154, 45.5511], [22.5352, 45.5616], [22.5332, 45.5752], [22.4958, 45.562], [22.4989, 45.5541], [22.4958, 45.5476], [22.4826, 45.5431], [22.4809, 45.5328], [22.4518, 45.5088], [22.4492, 45.5036], [22.4553, 45.4918], [22.4633, 45.4928], [22.4723, 45.4825], [22.5058, 45.4773], [22.5101, 45.464], [22.5191, 45.4621], [22.5257, 45.4528], [22.5422, 45.449], [22.5574, 45.436], [22.5853, 45.4367]]]}}, {"type": "Feature", "properties": {"osm_type": "relation", "osm_id": 331734575, "name": "BAUTAR", "admin_level": "6", "kind": "subdivision_2", "parent_osm_id": 2366873, "parent_name": "Caraș-Severin", "parent_iso": "RO-CS"}, "geometry": {"type": "Polygon", "coordinates": [[[22.677, 45.5158], [22.6527, 45.5268], [22.648, 45.5417], [22.6272, 45.5361], [22.6278, 45.5425], [22.641, 45.5531], [22.6416, 45.5648], [22.6366, 45.5711], [22.593, 45.5607], [22.5955, 45.5747], [22.5827, 45.5844], [22.5722, 45.5793], [22.571, 45.5851], [22.5626, 45.587], [22.55, 45.5809], [22.5477, 45.5841], [22.5332, 45.5752], [22.5352, 45.5616], [22.5154, 45.5511], [22.5131, 45.5238], [22.5274, 45.5], [22.5288, 45.4891], [22.5669, 45.4639], [22.5853, 45.4367], [22.6011, 45.4317], [22.6223, 45.4323], [22.6234, 45.4244], [22.6397, 45.4095], [22.6666, 45.3975], [22.6683, 45.3827], [22.691, 45.3918], [22.7128, 45.4157], [22.7042, 45.4328], [22.7066, 45.461], [22.6975, 45.4624], [22.6897, 45.4927], [22.6762, 45.4966], [22.6734, 45.5067], [22.6687, 45.5066], [22.677, 45.5158]]]}}, {"type": "Feature", "properties": {"osm_type": "relation", "osm_id": 323990201, "name": "OTELU ROSU", "admin_level": "6", "kind": "subdivision_2", "parent_osm_id": 2366873, "parent_name": "Caraș-Severin", "parent_iso": "RO-CS"}, "geometry": {"type": "Polygon", "coordinates": [[[22.4161, 45.5661], [22.3732, 45.586], [22.3427, 45.5878], [22.3352, 45.5581], [22.3441, 45.5392], [22.3456, 45.5232], [22.3262, 45.5028], [22.3377, 45.5026], [22.3327, 45.4953], [22.3377, 45.4877], [22.3691, 45.4842], [22.3737, 45.4794], [22.3689, 45.4728], [22.3705, 45.4663], [22.3836, 45.4623], [22.3973, 45.4642], [22.4085, 45.4718], [22.401, 45.4826], [22.4121, 45.4965], [22.3935, 45.5076], [22.3937, 45.5134], [22.4013, 45.517], [22.3934, 45.5237], [22.4051, 45.5543], [22.4161, 45.5661]]]}}, {"type": "Feature", "properties": {"osm_type": "relation", "osm_id": 403418689, "name": "GLIMBOCA", "admin_level": "6", "kind": "subdivision_2", "parent_osm_id": 2366873, "parent_name": "Caraș-Severin", "parent_iso": "RO-CS"}, "geometry": {"type": "Polygon", "coordinates": [[[22.3427, 45.5878], [22.3354, 45.5936], [22.3165, 45.593], [22.3123, 45.5676], [22.2954, 45.5607], [22.2962, 45.5515], [22.2896, 45.5412], [22.2902, 45.5302], [22.2993, 45.5131], [22.2962, 45.5056], [22.2827, 45.4974], [22.2848, 45.4863], [22.2812, 45.4857], [22.3091, 45.4782], [22.3134, 45.4659], [22.3529, 45.4729], [22.3672, 45.4652], [22.3737, 45.4794], [22.3691, 45.4842], [22.3377, 45.4877], [22.3327, 45.4953], [22.3377, 45.5026], [22.3262, 45.5028], [22.3456, 45.5232], [22.3441, 45.5392], [22.3352, 45.5581], [22.3427, 45.5878]]]}}, {"type": "Feature", "properties": {"osm_type": "relation", "osm_id": 425871831, "name": "OBREJA", "admin_level": "6", "kind": "subdivision_2", "parent_osm_id": 2366873, "parent_name": "Caraș-Severin", "parent_iso": "RO-CS"}, "geometry": {"type": "Polygon", "coordinates": [[[22.3773, 45.4376], [22.3836, 45.4623], [22.3739, 45.4676], [22.3672, 45.4652], [22.3529, 45.4729], [22.3134, 45.4659], [22.3091, 45.4782], [22.2812, 45.4857], [22.2848, 45.4863], [22.2827, 45.4974], [22.2962, 45.5056], [22.2993, 45.5131], [22.2884, 45.5354], [22.2962, 45.5515], [22.2954, 45.5607], [22.3123, 45.5676], [22.3182, 45.589], [22.3132, 45.5948], [22.2968, 45.592], [22.2839, 45.6001], [22.2701, 45.5848], [22.25, 45.5857], [22.2441, 45.5794], [22.2487, 45.5741], [22.2413, 45.5452], [22.2276, 45.5318], [22.2316, 45.5237], [22.2265, 45.5108], [22.1997, 45.4955], [22.1917, 45.4963], [22.1884, 45.4902], [22.1839, 45.4934], [22.1805, 45.4879], [22.1846, 45.484], [22.1822, 45.4771], [22.1942, 45.4679], [22.1986, 45.458], [22.2615, 45.4458], [22.2779, 45.4307], [22.285, 45.4311], [22.2874, 45.4366], [22.2936, 45.4315], [22.3173, 45.4318], [22.3543, 45.439], [22.3773, 45.4376]]]}}, {"type": "Feature", "properties": {"osm_type": "relation", "osm_id": 208443508, "name": "VERMES", "admin_level": "6", "kind": "subdivision_2", "parent_osm_id": 2366873, "parent_name": "Caraș-Severin", "parent_iso": "RO-CS"}, "geometry": {"type": "Polygon", "coordinates": [[[21.6165, 45.4611], [21.623, 45.461], [21.6263, 45.4694], [21.6522, 45.4771], [21.654, 45.4912], [21.6757, 45.4904], [21.6793, 45.5054], [21.6849, 45.5023], [21.6889, 45.5097], [21.711, 45.5147], [21.7253, 45.5249], [21.7477, 45.5258], [21.7527, 45.5329], [21.7449, 45.5522], [21.729, 45.5559], [21.7241, 45.5628], [21.7049, 45.5614], [21.6985, 45.5675], [21.7021, 45.5737], [21.6938, 45.5731], [21.6744, 45.5858], [21.6479, 45.5802], [21.6284, 45.5682], [21.5999, 45.5711], [21.5978, 45.5566], [21.5778, 45.5444], [21.5725, 45.5347], [21.5852, 45.5304], [21.5708, 45.5203], [21.5824, 45.5142], [21.579, 45.5092], [21.5844, 45.509], [21.5662, 45.4964], [21.5591, 45.5001], [21.5519, 45.4934], [21.56, 45.4917], [21.5773, 45.4741], [21.5975, 45.4744], [21.6165, 45.4611]]]}}, {"type": "Feature", "properties": {"osm_type": "relation", "osm_id": 772013022, "name": "RUSCA MONTANA", "admin_level": "6", "kind": "subdivision_2", "parent_osm_id": 2366873, "parent_name": "Caraș-Severin", "parent_iso": "RO-CS"}, "geometry": {"type": "Polygon", "coordinates": [[[22.4958, 45.562], [22.5457, 45.582], [22.5449, 45.5949], [22.5068, 45.5984], [22.5058, 45.6084], [22.4981, 45.6096], [22.4977, 45.6156], [22.4897, 45.6205], [22.4743, 45.6239], [22.4614, 45.6435], [22.4535, 45.6472], [22.4576, 45.6537], [22.4539, 45.6604], [22.4265, 45.6689], [22.4194, 45.6637], [22.4008, 45.6688], [22.3893, 45.6625], [22.3581, 45.6674], [22.3175, 45.6607], [22.2975, 45.6361], [22.291, 45.6053], [22.2839, 45.6001], [22.2968, 45.592], [22.3354, 45.5936], [22.3427, 45.5878], [22.3732, 45.586], [22.4238, 45.5628], [22.4408, 45.5626], [22.4483, 45.5535], [22.46, 45.5522], [22.4595, 45.5486], [22.4688, 45.5481], [22.4712, 45.5544], [22.4958, 45.562]]]}}, {"type": "Feature", "properties": {"osm_type": "relation", "osm_id": 538488739, "name": "CONSTANTIN DAICOVICIU", "admin_level": "6", "kind": "subdivision_2", "parent_osm_id": 2366873, "parent_name": "Caraș-Severin", "parent_iso": "RO-CS"}, "geometry": {"type": "Polygon", "coordinates": [[[22.1822, 45.4771], [22.1824, 45.4926], [22.1884, 45.4902], [22.1917, 45.4963], [22.1997, 45.4955], [22.2265, 45.5108], [22.2316, 45.5237], [22.2276, 45.5318], [22.2413, 45.5452], [22.2487, 45.5741], [22.2441, 45.5794], [22.2553, 45.5864], [22.2367, 45.6043], [22.2168, 45.6054], [22.2199, 45.6006], [22.2131, 45.5927], [22.1979, 45.5928], [22.1783, 45.5831], [22.1699, 45.5731], [22.1691, 45.5591], [22.1624, 45.5548], [22.1387, 45.5555], [22.1279, 45.5426], [22.0845, 45.5315], [22.0832, 45.5228], [22.0919, 45.5239], [22.0911, 45.5179], [22.0984, 45.5204], [22.0974, 45.5033], [22.1124, 45.5028], [22.1117, 45.4976], [22.1166, 45.497], [22.1054, 45.4803], [22.1073, 45.4769], [22.1173, 45.4813], [22.1281, 45.4752], [22.1254, 45.461], [22.1464, 45.4662], [22.1622, 45.4645], [22.1822, 45.4771]]]}}, {"type": "Feature", "properties": {"osm_type": "relation", "osm_id": 205278168, "name": "VALIUG", "admin_level": "6", "kind": "subdivision_2", "parent_osm_id": 2366873, "parent_name": "Caraș-Severin", "parent_iso": "RO-CS"}, "geometry": {"type": "Polygon", "coordinates": [[[22.0059, 45.1066], [22.0119, 45.1102], [22.0163, 45.1292], [22.0293, 45.1391], [22.0297, 45.145], [22.0504, 45.1685], [22.0495, 45.1771], [22.0725, 45.183], [22.0704, 45.1942], [22.066, 45.1927], [22.0569, 45.2036], [22.0569, 45.2101], [22.0753, 45.2248], [22.0759, 45.2328], [22.0944, 45.2432], [22.0956, 45.2712], [22.0469, 45.2833], [22.0302, 45.2658], [22.0268, 45.2497], [21.9944, 45.2431], [21.9874, 45.2364], [21.9893, 45.2191], [21.9801, 45.2108], [21.9876, 45.1999], [21.9812, 45.1883], [21.9869, 45.1777], [21.9768, 45.172], [21.9808, 45.1513], [21.9767, 45.1388], [21.968, 45.1315], [21.9758, 45.1207], [21.9837, 45.1212], [22.0059, 45.1066]]]}}, {"type": "Feature", "properties": {"osm_type": "relation", "osm_id": 164440313, "name": "BUCHIN", "admin_level": "6", "kind": "subdivision_2", "parent_osm_id": 2366873, "parent_name": "Caraș-Severin", "parent_iso": "RO-CS"}, "geometry": {"type": "Polygon", "coordinates": [[[22.3075, 45.3688], [22.2992, 45.3708], [22.2965, 45.3664], [22.2561, 45.3842], [22.2571, 45.3778], [22.251, 45.3748], [22.24, 45.3848], [22.2376, 45.3797], [22.2221, 45.3874], [22.2096, 45.3717], [22.2024, 45.373], [22.1911, 45.3665], [22.169, 45.3791], [22.1474, 45.3705], [22.1386, 45.3608], [22.1346, 45.362], [22.0988, 45.3372], [22.0843, 45.3194], [22.111, 45.2952], [22.1127, 45.288], [22.0963, 45.2816], [22.0956, 45.2712], [22.1295, 45.2716], [22.1311, 45.277], [22.1263, 45.2827], [22.1433, 45.3077], [22.1532, 45.3093], [22.1582, 45.3191], [22.1831, 45.319], [22.2035, 45.3362], [22.2392, 45.3341], [22.2525, 45.3376], [22.2565, 45.3444], [22.263, 45.3399], [22.2953, 45.3358], [22.2878, 45.3522], [22.2968, 45.3554], [22.3075, 45.3688]]]}}, {"type": "Feature", "properties": {"osm_type": "relation", "osm_id": 538956504, "name": "BREBU NOU", "admin_level": "6", "kind": "subdivision_2", "parent_osm_id": 2366873, "parent_name": "Caraș-Severin", "parent_iso": "RO-CS"}, "geometry": {"type": "Polygon", "coordinates": [[[22.1681, 45.2068], [22.1656, 45.2201], [22.1799, 45.2318], [22.1645, 45.238], [22.1663, 45.2503], [22.1498, 45.2564], [22.1399, 45.2577], [22.1263, 45.2506], [22.0962, 45.26], [22.0944, 45.2432], [22.0759, 45.2328], [22.0753, 45.2248], [22.0901, 45.2156], [22.1195, 45.2211], [22.1681, 45.2068]]]}}, {"type": "Feature", "properties": {"osm_type": "relation", "osm_id": 434082260, "name": "BUCOSNITA", "admin_level": "6", "kind": "subdivision_2", "parent_osm_id": 2366873, "parent_name": "Caraș-Severin", "parent_iso": "RO-CS"}, "geometry": {"type": "Polygon", "coordinates": [[[22.3105, 45.294], [22.3158, 45.3069], [22.3268, 45.3121], [22.2959, 45.334], [22.2565, 45.3444], [22.2525, 45.3376], [22.2392, 45.3341], [22.2035, 45.3362], [22.1831, 45.319], [22.1561, 45.318], [22.1532, 45.3093], [22.1433, 45.3077], [22.1263, 45.2827], [22.1311, 45.277], [22.1295, 45.2716], [22.0956, 45.2712], [22.0962, 45.26], [22.1263, 45.2506], [22.1399, 45.2577], [22.1663, 45.2503], [22.2022, 45.2683], [22.2174, 45.2708], [22.2287, 45.2651], [22.2415, 45.2733], [22.2695, 45.2711], [22.2759, 45.2892], [22.3016, 45.2986], [22.3105, 45.294]]]}}, {"type": "Feature", "properties": {"osm_type": "relation", "osm_id": 975518693, "name": "SASCA MONTANA", "admin_level": "6", "kind": "subdivision_2", "parent_osm_id": 2366873, "parent_name": "Caraș-Severin", "parent_iso": "RO-CS"}, "geometry": {"type": "Polygon", "coordinates": [[[21.6596, 44.8246], [21.688, 44.8391], [21.7182, 44.8467], [21.7235, 44.8554], [21.7184, 44.8631], [21.7307, 44.8615], [21.7355, 44.8559], [21.7602, 44.8663], [21.7685, 44.864], [21.7722, 44.8726], [21.7821, 44.8642], [21.8087, 44.8684], [21.8084, 44.8789], [21.7995, 44.8841], [21.8033, 44.8903], [21.7931, 44.8954], [21.8063, 44.9018], [21.8137, 44.914], [21.8254, 44.9181], [21.8386, 44.9445], [21.8246, 44.9544], [21.8171, 44.9479], [21.8155, 44.9379], [21.7904, 44.9352], [21.786, 44.927], [21.7791, 44.9259], [21.7629, 44.9364], [21.7456, 44.9302], [21.7225, 44.9351], [21.6859, 44.9531], [21.6826, 44.9346], [21.6488, 44.9226], [21.6526, 44.9205], [21.6379, 44.9028], [21.6454, 44.8887], [21.6377, 44.8881], [21.6374, 44.8817], [21.6306, 44.8764], [21.6365, 44.8745], [21.6402, 44.8527], [21.6248, 44.8401], [21.6325, 44.8414], [21.6596, 44.8246]]]}}, {"type": "Feature", "properties": {"osm_type": "relation", "osm_id": 300881466, "name": "CIUCHICI", "admin_level": "6", "kind": "subdivision_2", "parent_osm_id": 2366873, "parent_name": "Caraș-Severin", "parent_iso": "RO-CS"}, "geometry": {"type": "Polygon", "coordinates": [[[21.6306, 44.8764], [21.6374, 44.8817], [21.6377, 44.8881], [21.6454, 44.8887], [21.6379, 44.9028], [21.6526, 44.9205], [21.6488, 44.9226], [21.6826, 44.9346], [21.6841, 44.9477], [21.6758, 44.9458], [21.6255, 44.9683], [21.5886, 44.9693], [21.57, 44.9788], [21.5647, 44.9738], [21.5563, 44.9744], [21.5602, 44.9647], [21.5398, 44.968], [21.5255, 44.9395], [21.5467, 44.9305], [21.5798, 44.9307], [21.5839, 44.9196], [21.6068, 44.9115], [21.6043, 44.9089], [21.6111, 44.9066], [21.6148, 44.8938], [21.6313, 44.8866], [21.6306, 44.8764]]]}}, {"type": "Feature", "properties": {"osm_type": "relation", "osm_id": 526174592, "name": "SACU", "admin_level": "6", "kind": "subdivision_2", "parent_osm_id": 2366873, "parent_name": "Caraș-Severin", "parent_iso": "RO-CS"}, "geometry": {"type": "Polygon", "coordinates": [[[22.0457, 45.5523], [22.0574, 45.5521], [22.0665, 45.5355], [22.0931, 45.5316], [22.1279, 45.5426], [22.1387, 45.5555], [22.1624, 45.5548], [22.1691, 45.5591], [22.1699, 45.5731], [22.1783, 45.5831], [22.1979, 45.5928], [22.2131, 45.5927], [22.2199, 45.6006], [22.1878, 45.6178], [22.1739, 45.6047], [22.1623, 45.6077], [22.1501, 45.5984], [22.1481, 45.616], [22.1346, 45.5941], [22.1229, 45.5959], [22.1149, 45.5909], [22.1061, 45.5953], [22.074, 45.5719], [22.0453, 45.5915], [22.0366, 45.5871], [22.0492, 45.574], [22.0442, 45.5718], [22.0495, 45.5614], [22.0449, 45.5607], [22.0457, 45.5523]]]}}, {"type": "Feature", "properties": {"osm_type": "relation", "osm_id": 930683563, "name": "COPACELE", "admin_level": "6", "kind": "subdivision_2", "parent_osm_id": 2366873, "parent_name": "Caraș-Severin", "parent_iso": "RO-CS"}, "geometry": {"type": "Polygon", "coordinates": [[[22.1219, 45.4494], [22.1281, 45.4752], [22.1173, 45.4813], [22.1073, 45.4769], [22.1054, 45.4803], [22.1166, 45.497], [22.1117, 45.4976], [22.1124, 45.5028], [22.0974, 45.5033], [22.0984, 45.5204], [22.0911, 45.5179], [22.0919, 45.5239], [22.0832, 45.5228], [22.0845, 45.5315], [22.0649, 45.5287], [22.0662, 45.5211], [22.0601, 45.5201], [22.0657, 45.5147], [22.0643, 45.5086], [22.0433, 45.5054], [22.0428, 45.4983], [22.0305, 45.4974], [22.0309, 45.4919], [22.0205, 45.4896], [22.0423, 45.4757], [22.0234, 45.4641], [22.0254, 45.4591], [22.0539, 45.4364], [22.0707, 45.4341], [22.0783, 45.4397], [22.0817, 45.4503], [22.0915, 45.4492], [22.1051, 45.439], [22.1219, 45.4494]]]}}, {"type": "Feature", "properties": {"osm_type": "relation", "osm_id": 413984813, "name": "FARLIUG", "admin_level": "6", "kind": "subdivision_2", "parent_osm_id": 2366873, "parent_name": "Caraș-Severin", "parent_iso": "RO-CS"}, "geometry": {"type": "Polygon", "coordinates": [[[21.8265, 45.4218], [21.83, 45.4265], [21.8238, 45.4313], [21.8282, 45.4367], [21.846, 45.4315], [21.8456, 45.442], [21.8553, 45.4508], [21.8525, 45.458], [21.8591, 45.4608], [21.8633, 45.4564], [21.8913, 45.4549], [21.9084, 45.4446], [21.9275, 45.4806], [21.9233, 45.4856], [21.9472, 45.4865], [21.9553, 45.4983], [21.9539, 45.5073], [21.9453, 45.5057], [21.9412, 45.514], [21.9444, 45.521], [21.9402, 45.5314], [21.9229, 45.5475], [21.9205, 45.5531], [21.9351, 45.5565], [21.9235, 45.5669], [21.8717, 45.5614], [21.8757, 45.5357], [21.8391, 45.5362], [21.8314, 45.5286], [21.817, 45.5271], [21.7485, 45.5443], [21.7527, 45.5329], [21.7477, 45.5258], [21.7562, 45.5183], [21.7606, 45.5025], [21.7805, 45.4844], [21.7785, 45.473], [21.7822, 45.4663], [21.804, 45.4544], [21.8014, 45.4322], [21.8147, 45.4301], [21.8164, 45.4207], [21.8265, 45.4218]]]}}, {"type": "Feature", "properties": {"osm_type": "relation", "osm_id": 335069826, "name": "FOROTIC", "admin_level": "6", "kind": "subdivision_2", "parent_osm_id": 2366873, "parent_name": "Caraș-Severin", "parent_iso": "RO-CS"}, "geometry": {"type": "Polygon", "coordinates": [[[21.5442, 45.158], [21.571, 45.1633], [21.5806, 45.1697], [21.5837, 45.1729], [21.5769, 45.1835], [21.5806, 45.1975], [21.5878, 45.1971], [21.5875, 45.206], [21.6481, 45.2519], [21.6318, 45.2598], [21.6328, 45.2715], [21.6216, 45.2752], [21.5898, 45.2998], [21.5714, 45.3018], [21.5607, 45.2896], [21.5428, 45.2997], [21.5313, 45.2914], [21.5561, 45.2724], [21.5343, 45.2639], [21.5306, 45.2485], [21.5213, 45.2449], [21.5271, 45.2318], [21.5114, 45.2176], [21.5043, 45.2174], [21.504, 45.2128], [21.5099, 45.2122], [21.5075, 45.2037], [21.5147, 45.2021], [21.4774, 45.1945], [21.4932, 45.1732], [21.5164, 45.1689], [21.5273, 45.151], [21.5442, 45.158]]]}}, {"type": "Feature", "properties": {"osm_type": "relation", "osm_id": 938365026, "name": "DOCLIN", "admin_level": "6", "kind": "subdivision_2", "parent_osm_id": 2366873, "parent_name": "Caraș-Severin", "parent_iso": "RO-CS"}, "geometry": {"type": "Polygon", "coordinates": [[[21.6735, 45.2517], [21.6844, 45.2619], [21.6899, 45.2615], [21.6906, 45.268], [21.7103, 45.2769], [21.7128, 45.2932], [21.7216, 45.2983], [21.7219, 45.3084], [21.7268, 45.311], [21.7201, 45.3473], [21.7137, 45.3526], [21.7136, 45.3465], [21.7067, 45.3473], [21.6629, 45.3682], [21.647, 45.3695], [21.6062, 45.3593], [21.6049, 45.352], [21.589, 45.3493], [21.5746, 45.3357], [21.569, 45.3376], [21.5654, 45.3292], [21.5424, 45.3255], [21.5233, 45.3325], [21.5447, 45.2952], [21.5607, 45.2896], [21.5714, 45.3018], [21.5898, 45.2998], [21.6216, 45.2752], [21.6328, 45.2715], [21.6318, 45.2598], [21.6626, 45.2463], [21.6735, 45.2517]]]}}, {"type": "Feature", "properties": {"osm_type": "relation", "osm_id": 917297348, "name": "BERZASCA", "admin_level": "6", "kind": "subdivision_2", "parent_osm_id": 2366873, "parent_name": "Caraș-Severin", "parent_iso": "RO-CS"}, "geometry": {"type": "Polygon", "coordinates": [[[21.8679, 44.6503], [21.8957, 44.6448], [21.9174, 44.6474], [21.9508, 44.6351], [21.9916, 44.6332], [21.9996, 44.6267], [22.0044, 44.608], [22.0161, 44.5992], [22.0235, 44.6077], [22.062, 44.61], [22.0638, 44.6151], [22.0823, 44.6219], [22.0844, 44.618], [22.0923, 44.6191], [22.096, 44.6095], [22.1177, 44.5917], [22.1292, 44.5932], [22.133, 44.6006], [22.1475, 44.5853], [22.1763, 44.6245], [22.1728, 44.6339], [22.1774, 44.6399], [22.1714, 44.6486], [22.1535, 44.6501], [22.1387, 44.6599], [22.1492, 44.6825], [22.1458, 44.6895], [22.1493, 44.7046], [22.1413, 44.7054], [22.1391, 44.7147], [22.1297, 44.7181], [22.1046, 44.7096], [22.0755, 44.7092], [22.0439, 44.7354], [22.0191, 44.7396], [22.0112, 44.7355], [21.9841, 44.7442], [21.9835, 44.7494], [21.9692, 44.7564], [21.9528, 44.7576], [21.9567, 44.7679], [21.9387, 44.774], [21.9193, 44.7544], [21.9251, 44.7436], [21.9356, 44.7459], [21.9396, 44.7414], [21.9384, 44.7323], [21.9292, 44.7275], [21.9314, 44.7247], [21.9237, 44.7173], [21.9043, 44.7191], [21.8971, 44.699], [21.8946, 44.7024], [21.8848, 44.7003], [21.8821, 44.6899], [21.8739, 44.6842], [21.8752, 44.6721], [21.8679, 44.6503]]]}}]}