{"type": "FeatureCollection", "parent": {"osm_id": 2388361, "name": "West Java", "admin_level": "4", "kind": "subdivision_1", "child_kind": "subdivision_2", "iso": "ID-JB"}, "features": [{"type": "Feature", "properties": {"osm_type": "relation", "osm_id": 165531620, "name": "Bandung", "admin_level": "6", "kind": "subdivision_2", "parent_osm_id": 2388361, "parent_name": "West Java", "parent_iso": "ID-JB"}, "geometry": {"type": "Polygon", "coordinates": [[[107.75, -6.8128], [107.7265, -6.8108], [107.7176, -6.8347], [107.7128, -6.8333], [107.7034, -6.8403], [107.6949, -6.8362], [107.6924, -6.8291], [107.6609, -6.8321], [107.6371, -6.855], [107.6252, -6.8583], [107.6234, -6.8643], [107.6309, -6.8721], [107.6326, -6.8893], [107.6365, -6.886], [107.6423, -6.8938], [107.6465, -6.8885], [107.6565, -6.8943], [107.6636, -6.8836], [107.6653, -6.8901], [107.6702, -6.884], [107.6681, -6.891], [107.6808, -6.8894], [107.7, -6.9082], [107.704, -6.9076], [107.7006, -6.9016], [107.7076, -6.8897], [107.7146, -6.8902], [107.7152, -6.9036], [107.7261, -6.895], [107.7382, -6.8996], [107.7369, -6.9088], [107.7262, -6.9176], [107.7258, -6.9283], [107.7131, -6.9475], [107.716, -6.9617], [107.6943, -6.9697], [107.6168, -6.9609], [107.5848, -6.9624], [107.5626, -6.9508], [107.5438, -6.919], [107.5308, -6.9165], [107.5243, -6.9203], [107.5226, -6.9355], [107.532, -6.9417], [107.5184, -6.9556], [107.5219, -6.957], [107.5188, -6.9637], [107.5129, -6.9649], [107.5038, -6.9828], [107.4983, -6.9774], [107.4881, -6.9798], [107.4865, -7.0], [107.475, -7.0072], [107.4753, -7.0182], [107.4817, -7.0238], [107.4753, -7.0404], [107.4771, -7.0574], [107.448, -7.0484], [107.4255, -7.057], [107.4194, -7.0623], [107.4221, -7.0752], [107.4071, -7.0913], [107.4073, -7.1091], [107.3922, -7.1209], [107.3678, -7.1147], [107.3624, -7.1185], [107.3463, -7.1082], [107.3118, -7.1081], [107.3084, -7.1181], [107.3153, -7.1288], [107.3152, -7.1532], [107.3055, -7.1635], [107.297, -7.1639], [107.2771, -7.179], [107.2763, -7.184], [107.2534, -7.1955], [107.2514, -7.2077], [107.3016, -7.2094], [107.3253, -7.2038], [107.3375, -7.216], [107.3461, -7.2385], [107.3568, -7.2356], [107.3798, -7.2417], [107.4243, -7.2602], [107.4326, -7.257], [107.4551, -7.2603], [107.4608, -7.2536], [107.4685, -7.254], [107.4697, -7.258], [107.4801, -7.2515], [107.5007, -7.2572], [107.534, -7.2513], [107.546, -7.2578], [107.5573, -7.2514], [107.5737, -7.2629], [107.5822, -7.2767], [107.5992, -7.283], [107.6052, -7.3078], [107.62, -7.307], [107.6275, -7.2986], [107.641, -7.304], [107.6577, -7.2898], [107.6655, -7.2945], [107.6702, -7.3128], [107.6762, -7.3161], [107.6796, -7.3108], [107.6916, -7.309], [107.7094, -7.3087], [107.7229, -7.3142], [107.7247, -7.2993], [107.7313, -7.294], [107.7224, -7.2897], [107.7383, -7.2738], [107.739, -7.2667], [107.7101, -7.2483], [107.7071, -7.2285], [107.7311, -7.2132], [107.7216, -7.198], [107.7398, -7.1673], [107.766, -7.1717], [107.7708, -7.1681], [107.7708, -7.1568], [107.7783, -7.1557], [107.7856, -7.1616], [107.798, -7.1574], [107.8113, -7.1365], [107.8099, -7.1018], [107.8307, -7.0908], [107.83, -7.0818], [107.8355, -7.0805], [107.838, -7.0666], [107.8499, -7.0588], [107.8741, -7.0549], [107.8766, -7.0503], [107.9234, -7.0534], [107.9316, -7.0407], [107.9308, -7.033], [107.9102, -7.0363], [107.9075, -6.9925], [107.8974, -6.9829], [107.8894, -6.9826], [107.9022, -6.9694], [107.9166, -6.9674], [107.9184, -6.954], [107.9002, -6.953], [107.8899, -6.9639], [107.8802, -6.9611], [107.8478, -6.9697], [107.8313, -6.9645], [107.829, -6.972], [107.8265, -6.9672], [107.8009, -6.9648], [107.7814, -6.9551], [107.774, -6.956], [107.7742, -6.9595], [107.7649, -6.9522], [107.763, -6.9563], [107.7599, -6.9528], [107.7552, -6.956], [107.7604, -6.8971], [107.7445, -6.8764], [107.7408, -6.855], [107.75, -6.8128]]]}}, {"type": "Feature", "properties": {"osm_type": "relation", "osm_id": 679685276, "name": "Bandung Barat", "admin_level": "6", "kind": "subdivision_2", "parent_osm_id": 2388361, "parent_name": "West Java", "parent_iso": "ID-JB"}, "geometry": {"type": "Polygon", "coordinates": [[[107.5251, -6.9207], [107.5102, -6.8983], [107.517, -6.8921], [107.5187, -6.875], [107.5252, -6.8728], [107.5231, -6.8653], [107.5359, -6.8585], [107.5376, -6.8521], [107.5323, -6.8501], [107.5396, -6.8338], [107.5503, -6.8335], [107.5493, -6.8401], [107.555, -6.841], [107.5509, -6.8484], [107.5635, -6.8561], [107.5666, -6.8616], [107.5618, -6.8729], [107.5707, -6.8772], [107.5715, -6.8822], [107.5767, -6.8656], [107.5892, -6.8572], [107.5976, -6.8369], [107.5969, -6.8426], [107.6035, -6.8436], [107.6045, -6.8594], [107.6161, -6.8471], [107.6219, -6.856], [107.625, -6.8482], [107.6286, -6.8557], [107.6371, -6.855], [107.6609, -6.8321], [107.6924, -6.8291], [107.6949, -6.8362], [107.7034, -6.8403], [107.7215, -6.8289], [107.7189, -6.8247], [107.7265, -6.8108], [107.7242, -6.8024], [107.7076, -6.7929], [107.688, -6.7983], [107.6711, -6.7763], [107.629, -6.7741], [107.6185, -6.7601], [107.6006, -6.7611], [107.6024, -6.7361], [107.5955, -6.7292], [107.579, -6.729], [107.5684, -6.7433], [107.5726, -6.7458], [107.5716, -6.7618], [107.5766, -6.7625], [107.5783, -6.7759], [107.5705, -6.7709], [107.5536, -6.7748], [107.5403, -6.7639], [107.5302, -6.762], [107.5176, -6.7439], [107.4874, -6.7353], [107.4521, -6.7003], [107.4251, -6.7], [107.4095, -6.6885], [107.396, -6.6957], [107.3728, -6.6899], [107.3715, -6.7007], [107.3669, -6.7024], [107.3525, -6.6969], [107.3427, -6.6997], [107.3429, -6.719], [107.3351, -6.7191], [107.3354, -6.7246], [107.327, -6.7271], [107.3364, -6.7353], [107.3269, -6.737], [107.3452, -6.7559], [107.3522, -6.7543], [107.3478, -6.7579], [107.3323, -6.7508], [107.3323, -6.7553], [107.3448, -6.7588], [107.3343, -6.7582], [107.3346, -6.7551], [107.3324, -6.7624], [107.3391, -6.7653], [107.3329, -6.7662], [107.3289, -6.761], [107.3337, -6.7703], [107.3271, -6.7644], [107.3302, -6.7695], [107.3239, -6.7715], [107.316, -6.7643], [107.3254, -6.7648], [107.3233, -6.756], [107.305, -6.7622], [107.3067, -6.7563], [107.3144, -6.7533], [107.3081, -6.75], [107.3007, -6.7606], [107.3034, -6.7464], [107.2951, -6.7428], [107.3012, -6.7499], [107.2983, -6.7638], [107.2959, -6.7591], [107.2934, -6.7639], [107.2994, -6.7748], [107.2885, -6.7766], [107.2955, -6.7783], [107.2924, -6.7873], [107.299, -6.7868], [107.302, -6.793], [107.3187, -6.8018], [107.3145, -6.8032], [107.3229, -6.8171], [107.3193, -6.8158], [107.3165, -6.823], [107.3229, -6.8254], [107.3251, -6.8527], [107.3303, -6.8563], [107.335, -6.8533], [107.3376, -6.8576], [107.3429, -6.849], [107.3429, -6.8534], [107.3495, -6.8535], [107.3417, -6.8862], [107.3232, -6.8879], [107.3117, -6.904], [107.2935, -6.9101], [107.2784, -6.9255], [107.2552, -6.9271], [107.2328, -6.9387], [107.2188, -6.9401], [107.2151, -6.9429], [107.2193, -6.9493], [107.1902, -6.9682], [107.1849, -6.9831], [107.1902, -6.9928], [107.1846, -6.9961], [107.1881, -7.0116], [107.1956, -7.0211], [107.1819, -7.058], [107.1904, -7.0619], [107.2093, -7.054], [107.2237, -7.0585], [107.2246, -7.0491], [107.2527, -7.0487], [107.2565, -7.0577], [107.2833, -7.078], [107.2853, -7.0848], [107.2957, -7.0905], [107.2993, -7.0839], [107.3064, -7.0903], [107.3118, -7.1081], [107.3463, -7.1082], [107.3624, -7.1185], [107.3678, -7.1147], [107.3922, -7.1209], [107.4073, -7.1091], [107.4071, -7.0913], [107.4221, -7.0752], [107.4194, -7.0623], [107.4255, -7.057], [107.448, -7.0484], [107.4771, -7.0574], [107.4753, -7.0404], [107.4817, -7.0238], [107.4753, -7.0182], [107.475, -7.0072], [107.4865, -7.0], [107.4881, -6.9798], [107.4983, -6.9774], [107.5038, -6.9828], [107.5129, -6.9649], [107.5188, -6.9637], [107.5219, -6.957], [107.5184, -6.9556], [107.5258, -6.9448], [107.532, -6.9417], [107.5226, -6.9355], [107.5251, -6.9207]]]}}, {"type": "Feature", "properties": {"osm_type": "relation", "osm_id": 795182760, "name": "Bekasi", "admin_level": "6", "kind": "subdivision_2", "parent_osm_id": 2388361, "parent_name": "West Java", "parent_iso": "ID-JB"}, "geometry": {"type": "Polygon", "coordinates": [[[107.0982, -5.9401], [107.0204, -5.9181], [107.0083, -5.9197], [106.991, -5.9364], [106.9986, -5.9356], [106.9911, -5.9419], [107.0017, -5.9404], [107.0087, -5.9451], [107.0178, -5.9706], [107.0078, -5.9982], [106.9894, -6.0032], [106.9845, -6.0109], [106.9928, -6.0145], [106.9931, -6.0281], [107.0101, -6.0238], [107.0155, -6.0338], [107.0055, -6.038], [107.0056, -6.0499], [106.9894, -6.0496], [106.9946, -6.0516], [106.9915, -6.0537], [107.0009, -6.0679], [107.0166, -6.0785], [107.0073, -6.0821], [106.9979, -6.0768], [106.9909, -6.0874], [106.9696, -6.0885], [106.9716, -6.1722], [107.0107, -6.1724], [107.0059, -6.1959], [107.0325, -6.1984], [107.0304, -6.2267], [107.0425, -6.2328], [107.0415, -6.2462], [107.0306, -6.2499], [107.0164, -6.2656], [107.0166, -6.2762], [107.0225, -6.2804], [107.0281, -6.2779], [107.0401, -6.2877], [107.0371, -6.3215], [107.0289, -6.3304], [107.0164, -6.3304], [107.0172, -6.3536], [107.0068, -6.3626], [107.0046, -6.3554], [106.9943, -6.3553], [106.993, -6.3705], [106.9957, -6.3786], [107.0059, -6.3782], [107.0103, -6.4026], [107.02, -6.4005], [107.0232, -6.4097], [107.0415, -6.4069], [107.0515, -6.3943], [107.0621, -6.3995], [107.0545, -6.4051], [107.0576, -6.4156], [107.0512, -6.4172], [107.0584, -6.4231], [107.0546, -6.4293], [107.0594, -6.4336], [107.0554, -6.4357], [107.0667, -6.4357], [107.0808, -6.4441], [107.08, -6.4489], [107.0997, -6.4537], [107.1075, -6.4623], [107.126, -6.4592], [107.1227, -6.4674], [107.1348, -6.4661], [107.1717, -6.482], [107.1808, -6.4781], [107.1818, -6.4678], [107.1885, -6.4703], [107.1894, -6.4641], [107.1954, -6.4611], [107.2089, -6.4686], [107.2169, -6.4614], [107.2054, -6.4519], [107.2117, -6.4493], [107.202, -6.4361], [107.2067, -6.4349], [107.2037, -6.4261], [107.1962, -6.423], [107.2054, -6.4217], [107.202, -6.4139], [107.2122, -6.4172], [107.213, -6.4092], [107.2214, -6.4081], [107.2212, -6.3842], [107.2128, -6.3745], [107.2105, -6.3796], [107.2048, -6.3757], [107.2104, -6.3659], [107.2075, -6.3615], [107.2153, -6.3618], [107.215, -6.3499], [107.2266, -6.3492], [107.2236, -6.3354], [107.2147, -6.33], [107.2186, -6.3214], [107.2247, -6.3206], [107.2174, -6.3151], [107.2239, -6.3163], [107.2276, -6.3093], [107.2238, -6.3061], [107.233, -6.3037], [107.2331, -6.299], [107.2355, -6.3071], [107.2385, -6.3061], [107.2365, -6.2967], [107.2457, -6.2996], [107.2487, -6.2933], [107.255, -6.2948], [107.2551, -6.2905], [107.2643, -6.286], [107.2633, -6.2801], [107.2671, -6.2846], [107.2667, -6.2738], [107.2761, -6.2671], [107.2734, -6.2584], [107.2778, -6.2536], [107.2691, -6.232], [107.2744, -6.2336], [107.2837, -6.2259], [107.2722, -6.2169], [107.291, -6.217], [107.2966, -6.2029], [107.2908, -6.2006], [107.2921, -6.1902], [107.2862, -6.1839], [107.286, -6.1753], [107.2794, -6.1711], [107.2786, -6.162], [107.2885, -6.1563], [107.2927, -6.1414], [107.2824, -6.148], [107.2812, -6.1276], [107.2706, -6.1297], [107.2653, -6.1113], [107.2485, -6.1161], [107.2468, -6.1011], [107.2216, -6.1039], [107.1891, -6.0893], [107.1857, -6.0766], [107.177, -6.0817], [107.1596, -6.0677], [107.1516, -6.0728], [107.1436, -6.0713], [107.1405, -6.0572], [107.1344, -6.0635], [107.1303, -6.0615], [107.1368, -6.0556], [107.1362, -6.0496], [107.1266, -6.0543], [107.1278, -6.0474], [107.1133, -6.0388], [107.1113, -6.0289], [107.0939, -6.0274], [107.1016, -6.0162], [107.0936, -6.0143], [107.092, -6.0058], [107.0846, -6.0023], [107.0883, -5.9954], [107.0844, -5.9908], [107.0849, -5.9849], [107.0899, -5.9835], [107.0856, -5.9795], [107.09, -5.9764], [107.0895, -5.9686], [107.0971, -5.9613], [107.0936, -5.9579], [107.0982, -5.9401]]]}}, {"type": "Feature", "properties": {"osm_type": "relation", "osm_id": 827974046, "name": "Bogor", "admin_level": "6", "kind": "subdivision_2", "parent_osm_id": 2388361, "parent_name": "West Java", "parent_iso": "ID-JB"}, "geometry": {"type": "Polygon", "coordinates": [[[106.994, -6.3671], [106.9797, -6.3643], [106.9819, -6.3579], [106.9662, -6.3424], [106.9757, -6.3409], [106.9725, -6.3319], [106.977, -6.3314], [106.9763, -6.3192], [106.9809, -6.3151], [106.9733, -6.3116], [106.9708, -6.3023], [106.97, -6.3056], [106.9667, -6.303], [106.9602, -6.3125], [106.9637, -6.3169], [106.9603, -6.3214], [106.9647, -6.3249], [106.9608, -6.3264], [106.9618, -6.3358], [106.9503, -6.3442], [106.954, -6.3495], [106.9487, -6.3587], [106.9439, -6.358], [106.9455, -6.3685], [106.9297, -6.38], [106.9338, -6.3836], [106.9218, -6.3889], [106.9147, -6.415], [106.9053, -6.4127], [106.8991, -6.426], [106.8919, -6.4273], [106.8871, -6.4429], [106.8825, -6.4437], [106.882, -6.4541], [106.8788, -6.4536], [106.882, -6.4567], [106.8557, -6.4563], [106.8502, -6.436], [106.8433, -6.4383], [106.8442, -6.4474], [106.8352, -6.4492], [106.8353, -6.4547], [106.8287, -6.4552], [106.8254, -6.4613], [106.8206, -6.4523], [106.8231, -6.4443], [106.805, -6.4428], [106.8016, -6.452], [106.7932, -6.4518], [106.7941, -6.4417], [106.7882, -6.4382], [106.7384, -6.4389], [106.7328, -6.4293], [106.7372, -6.4191], [106.7303, -6.4143], [106.7328, -6.4056], [106.7265, -6.3964], [106.728, -6.386], [106.7219, -6.386], [106.7238, -6.3766], [106.7169, -6.37], [106.7205, -6.3605], [106.6662, -6.3579], [106.6512, -6.3622], [106.6034, -6.3619], [106.5981, -6.3587], [106.5939, -6.3627], [106.588, -6.3562], [106.5885, -6.3475], [106.5773, -6.3386], [106.5746, -6.3419], [106.5592, -6.337], [106.5579, -6.3406], [106.5516, -6.3331], [106.5341, -6.3323], [106.5269, -6.3246], [106.5156, -6.3243], [106.5151, -6.3323], [106.5319, -6.3396], [106.5297, -6.3468], [106.5191, -6.3552], [106.5111, -6.3551], [106.5024, -6.3462], [106.499, -6.3559], [106.4763, -6.3509], [106.4764, -6.3441], [106.4835, -6.3428], [106.4841, -6.325], [106.4762, -6.3089], [106.4662, -6.3051], [106.4421, -6.3257], [106.4255, -6.3501], [106.4294, -6.3505], [106.4268, -6.3539], [106.432, -6.3668], [106.4274, -6.3765], [106.438, -6.3879], [106.4384, -6.3943], [106.4342, -6.3942], [106.442, -6.3963], [106.4393, -6.4044], [106.447, -6.4107], [106.451, -6.407], [106.4499, -6.413], [106.4539, -6.4138], [106.454, -6.4187], [106.4446, -6.4223], [106.4496, -6.4213], [106.4547, -6.4269], [106.4499, -6.4269], [106.4503, -6.4341], [106.4379, -6.4442], [106.4424, -6.4451], [106.4399, -6.4501], [106.4011, -6.4528], [106.4117, -6.4674], [106.4126, -6.4831], [106.4035, -6.5166], [106.4087, -6.5345], [106.4233, -6.5505], [106.4163, -6.5598], [106.4244, -6.569], [106.4304, -6.5905], [106.4294, -6.6821], [106.4491, -6.7071], [106.4506, -6.7269], [106.4632, -6.7369], [106.4666, -6.7509], [106.4984, -6.7522], [106.5248, -6.7623], [106.5333, -6.7515], [106.5479, -6.7508], [106.5759, -6.7174], [106.5827, -6.7219], [106.589, -6.7437], [106.5991, -6.7488], [106.623, -6.749], [106.6317, -6.755], [106.6561, -6.7477], [106.6591, -6.7318], [106.6675, -6.7366], [106.6732, -6.7316], [106.6829, -6.7459], [106.6938, -6.7448], [106.7027, -6.7334], [106.7252, -6.7184], [106.7406, -6.7153], [106.7578, -6.7275], [106.7776, -6.7548], [106.7932, -6.7526], [106.8013, -6.7629], [106.8144, -6.7687], [106.8313, -6.767], [106.8446, -6.7759], [106.8873, -6.7854], [106.921, -6.7866], [106.9345, -6.7685], [106.947, -6.7608], [106.9583, -6.7614], [106.9652, -6.7703], [106.9743, -6.7653], [106.9742, -6.7506], [106.9784, -6.7434], [106.9881, -6.7398], [106.9879, -6.7306], [106.9965, -6.7378], [106.994, -6.7062], [107.0066, -6.6921], [106.991, -6.6685], [107.0094, -6.6647], [107.0159, -6.668], [107.0513, -6.6566], [107.0685, -6.6652], [107.1211, -6.6633], [107.1346, -6.6705], [107.1504, -6.663], [107.1525, -6.6498], [107.165, -6.647], [107.1697, -6.6389], [107.1797, -6.6465], [107.2151, -6.6373], [107.2146, -6.6201], [107.2271, -6.6021], [107.2205, -6.5907], [107.2078, -6.5883], [107.1931, -6.5783], [107.1896, -6.5616], [107.1787, -6.552], [107.1765, -6.533], [107.1647, -6.5109], [107.1646, -6.5009], [107.1744, -6.4906], [107.1708, -6.4807], [107.1348, -6.4661], [107.1227, -6.4674], [107.126, -6.4592], [107.1075, -6.4623], [107.0997, -6.4537], [107.08, -6.4489], [107.0808, -6.4441], [107.0667, -6.4357], [107.0554, -6.4357], [107.0594, -6.4336], [107.0546, -6.4293], [107.0584, -6.4231], [107.0512, -6.4172], [107.0576, -6.4156], [107.0545, -6.4051], [107.0621, -6.3995], [107.0515, -6.3943], [107.0415, -6.4069], [107.0232, -6.4097], [107.02, -6.4005], [107.0103, -6.4026], [107.0059, -6.3782], [106.9957, -6.3786], [106.994, -6.3671]], [[106.7789, -6.5117], [106.7888, -6.5182], [106.7932, -6.546], [106.7992, -6.5465], [106.8057, -6.5399], [106.8089, -6.5461], [106.8114, -6.5393], [106.8184, -6.5381], [106.8182, -6.5426], [106.8257, -6.544], [106.829, -6.5501], [106.8372, -6.5778], [106.8396, -6.5748], [106.8314, -6.6027], [106.8336, -6.6183], [106.8486, -6.6467], [106.8452, -6.6615], [106.8481, -6.6762], [106.8434, -6.6788], [106.8304, -6.6792], [106.8191, -6.6719], [106.8088, -6.6563], [106.8097, -6.6462], [106.8061, -6.6519], [106.7994, -6.6457], [106.787, -6.6592], [106.7716, -6.6537], [106.783, -6.645], [106.7903, -6.6278], [106.7746, -6.6005], [106.7666, -6.5948], [106.7631, -6.5831], [106.7498, -6.5723], [106.7411, -6.5754], [106.7385, -6.571], [106.7423, -6.5683], [106.7354, -6.5653], [106.7408, -6.5428], [106.7564, -6.5518], [106.7646, -6.5459], [106.7649, -6.521], [106.7789, -6.5117]]]}}, {"type": "Feature", "properties": {"osm_type": "relation", "osm_id": 147854315, "name": "Ciamis", "admin_level": "6", "kind": "subdivision_2", "parent_osm_id": 2388361, "parent_name": "West Java", "parent_iso": "ID-JB"}, "geometry": {"type": "Polygon", "coordinates": [[[108.3857, -7.073], [108.3778, -7.0599], [108.3676, -7.0596], [108.36, -7.0516], [108.3481, -7.0554], [108.3407, -7.0713], [108.3266, -7.0643], [108.3219, -7.0556], [108.3203, -7.0595], [108.3137, -7.0567], [108.3036, -7.0622], [108.282, -7.0581], [108.2734, -7.0649], [108.2455, -7.0667], [108.2267, -7.0546], [108.2193, -7.0587], [108.2131, -7.056], [108.2083, -7.0625], [108.2048, -7.0589], [108.2, -7.0663], [108.1936, -7.0587], [108.1928, -7.0626], [108.1881, -7.0586], [108.1699, -7.0592], [108.1806, -7.0701], [108.204, -7.0772], [108.209, -7.0877], [108.2134, -7.0816], [108.2219, -7.0859], [108.2154, -7.0987], [108.219, -7.1041], [108.2147, -7.1043], [108.2133, -7.1114], [108.2198, -7.1235], [108.2137, -7.1347], [108.2011, -7.1377], [108.2031, -7.1522], [108.1907, -7.1675], [108.1949, -7.1745], [108.1921, -7.1874], [108.1996, -7.1897], [108.1953, -7.2059], [108.1989, -7.2316], [108.1941, -7.2338], [108.1949, -7.2505], [108.1885, -7.2552], [108.1881, -7.2625], [108.1916, -7.2619], [108.2018, -7.2862], [108.2192, -7.2932], [108.2427, -7.313], [108.2495, -7.3131], [108.2526, -7.3213], [108.27, -7.3198], [108.278, -7.3341], [108.2985, -7.3318], [108.2997, -7.3355], [108.3241, -7.3403], [108.3298, -7.3502], [108.3373, -7.3459], [108.3414, -7.3565], [108.3624, -7.3525], [108.3726, -7.3599], [108.3804, -7.3559], [108.3903, -7.3619], [108.4055, -7.3608], [108.4117, -7.3769], [108.4007, -7.3899], [108.3953, -7.4113], [108.4098, -7.4223], [108.4203, -7.4225], [108.4264, -7.4741], [108.4212, -7.4879], [108.4425, -7.4887], [108.4295, -7.5005], [108.4341, -7.5058], [108.4724, -7.5182], [108.4762, -7.5315], [108.4851, -7.5361], [108.4957, -7.5308], [108.5027, -7.5343], [108.5187, -7.5259], [108.5276, -7.5269], [108.5423, -7.5379], [108.5282, -7.5376], [108.5209, -7.5443], [108.5251, -7.5529], [108.5192, -7.5548], [108.5288, -7.5711], [108.5447, -7.5698], [108.5495, -7.5569], [108.5773, -7.5666], [108.5839, -7.5608], [108.5952, -7.5632], [108.6069, -7.5539], [108.6226, -7.555], [108.6223, -7.5501], [108.6482, -7.5379], [108.654, -7.5292], [108.6579, -7.4982], [108.65, -7.4881], [108.6471, -7.4688], [108.657, -7.4681], [108.6681, -7.4599], [108.6967, -7.4611], [108.6962, -7.4676], [108.7042, -7.4767], [108.7065, -7.4705], [108.716, -7.4663], [108.7125, -7.4576], [108.7233, -7.431], [108.6997, -7.4149], [108.6969, -7.3998], [108.6871, -7.3995], [108.6852, -7.3798], [108.6779, -7.3767], [108.6832, -7.3695], [108.677, -7.366], [108.676, -7.3573], [108.6672, -7.3535], [108.6619, -7.3525], [108.6505, -7.3873], [108.6306, -7.3818], [108.6215, -7.3904], [108.6244, -7.3947], [108.6184, -7.3932], [108.6154, -7.406], [108.6071, -7.4032], [108.6, -7.3937], [108.5906, -7.395], [108.5947, -7.4072], [108.5797, -7.4175], [108.5753, -7.4233], [108.5777, -7.4299], [108.5697, -7.4372], [108.5652, -7.4376], [108.5657, -7.4299], [108.5552, -7.425], [108.555, -7.4192], [108.5491, -7.422], [108.5442, -7.4121], [108.5342, -7.4161], [108.5248, -7.4068], [108.5124, -7.4055], [108.4939, -7.3913], [108.486, -7.3932], [108.4694, -7.3817], [108.4674, -7.3783], [108.4726, -7.3749], [108.4681, -7.3717], [108.4757, -7.3647], [108.4698, -7.3618], [108.4777, -7.3611], [108.4895, -7.3498], [108.4967, -7.349], [108.496, -7.3544], [108.5014, -7.3584], [108.5062, -7.3542], [108.5227, -7.3585], [108.535, -7.3436], [108.5504, -7.3418], [108.5556, -7.3317], [108.5517, -7.3235], [108.5594, -7.3265], [108.5636, -7.3202], [108.5591, -7.3072], [108.5644, -7.3041], [108.5559, -7.2882], [108.567, -7.2787], [108.5742, -7.2536], [108.5814, -7.2541], [108.5852, -7.2186], [108.5812, -7.2065], [108.5728, -7.2061], [108.5551, -7.1904], [108.5406, -7.1897], [108.5423, -7.1864], [108.5278, -7.182], [108.5291, -7.1781], [108.5204, -7.1744], [108.5265, -7.1737], [108.5213, -7.1638], [108.5161, -7.1643], [108.519, -7.1606], [108.5089, -7.1589], [108.5155, -7.1455], [108.5086, -7.13], [108.4953, -7.1311], [108.4935, -7.1248], [108.4812, -7.1238], [108.4794, -7.119], [108.4725, -7.1235], [108.4571, -7.1179], [108.4424, -7.1188], [108.437, -7.1126], [108.4388, -7.1077], [108.4259, -7.1024], [108.4266, -7.0955], [108.4133, -7.0943], [108.417, -7.0901], [108.3857, -7.073]]]}}, {"type": "Feature", "properties": {"osm_type": "relation", "osm_id": 206833207, "name": "Cianjur", "admin_level": "6", "kind": "subdivision_2", "parent_osm_id": 2388361, "parent_name": "West Java", "parent_iso": "ID-JB"}, "geometry": {"type": "Polygon", "coordinates": [[[107.3118, -7.1081], [107.3064, -7.0903], [107.2993, -7.0839], [107.2957, -7.0905], [107.2853, -7.0848], [107.2833, -7.078], [107.2565, -7.0577], [107.2527, -7.0487], [107.2246, -7.0491], [107.2237, -7.0585], [107.2093, -7.054], [107.1904, -7.0619], [107.1819, -7.058], [107.1956, -7.0211], [107.1881, -7.0116], [107.1846, -6.9961], [107.1902, -6.9928], [107.1849, -6.9831], [107.1902, -6.9682], [107.2193, -6.9493], [107.2151, -6.9429], [107.2188, -6.9401], [107.2328, -6.9387], [107.2552, -6.9271], [107.2784, -6.9255], [107.2935, -6.9101], [107.3117, -6.904], [107.3232, -6.8879], [107.3417, -6.8862], [107.3412, -6.8754], [107.3494, -6.8658], [107.3495, -6.8535], [107.3429, -6.8534], [107.3429, -6.849], [107.3376, -6.8576], [107.335, -6.8533], [107.3303, -6.8563], [107.3251, -6.8527], [107.3229, -6.8254], [107.3149, -6.8195], [107.3192, -6.8146], [107.3117, -6.8096], [107.3134, -6.8008], [107.2957, -6.788], [107.2901, -6.7901], [107.2881, -6.7814], [107.2829, -6.7796], [107.2794, -6.7838], [107.2821, -6.7747], [107.2767, -6.7744], [107.2736, -6.7678], [107.2636, -6.7724], [107.2531, -6.7887], [107.2504, -6.8057], [107.2511, -6.7891], [107.259, -6.7734], [107.2623, -6.7744], [107.2582, -6.7683], [107.2616, -6.7671], [107.2611, -6.7562], [107.2843, -6.7515], [107.2711, -6.7529], [107.266, -6.7418], [107.2606, -6.7434], [107.256, -6.7548], [107.2501, -6.7557], [107.2587, -6.7482], [107.2535, -6.7385], [107.2591, -6.7436], [107.2637, -6.7384], [107.2706, -6.7443], [107.2755, -6.7406], [107.2703, -6.7352], [107.2605, -6.7354], [107.2617, -6.732], [107.2545, -6.7341], [107.258, -6.7302], [107.2503, -6.726], [107.2507, -6.7139], [107.2572, -6.7101], [107.2598, -6.7159], [107.2693, -6.7084], [107.2853, -6.7157], [107.2843, -6.707], [107.2504, -6.6967], [107.2468, -6.6903], [107.2594, -6.68], [107.2638, -6.6358], [107.2271, -6.6021], [107.2146, -6.6201], [107.2151, -6.6373], [107.1797, -6.6465], [107.1697, -6.6389], [107.165, -6.647], [107.1525, -6.6498], [107.1504, -6.663], [107.1346, -6.6705], [107.1211, -6.6633], [107.0685, -6.6652], [107.0513, -6.6566], [107.0159, -6.668], [107.0094, -6.6647], [106.991, -6.6685], [107.0066, -6.6921], [106.994, -6.7062], [106.9989, -6.7317], [106.9945, -6.738], [106.9879, -6.7306], [106.9881, -6.7398], [106.9784, -6.7434], [106.9742, -6.7506], [106.9743, -6.7653], [106.9652, -6.7703], [106.9929, -6.8047], [106.9954, -6.8245], [107.0053, -6.8484], [107.0238, -6.8608], [107.0329, -6.8737], [107.0352, -6.8867], [107.0287, -6.8916], [107.0402, -6.8998], [107.0418, -6.9091], [107.0473, -6.9098], [107.0487, -6.9424], [107.0627, -6.9563], [107.065, -6.965], [107.0578, -6.9676], [107.0468, -6.9608], [107.0334, -6.9764], [107.033, -6.9872], [107.0497, -7.0048], [107.049, -7.0178], [107.0429, -7.0232], [107.0475, -7.0315], [107.0394, -7.0374], [107.0388, -7.0434], [107.0282, -7.0445], [107.0225, -7.0373], [107.0075, -7.0367], [106.9947, -7.0284], [106.9891, -7.017], [106.9757, -7.0136], [106.9592, -7.0335], [106.9539, -7.0684], [106.9436, -7.0748], [106.9483, -7.086], [106.944, -7.087], [106.9459, -7.0909], [106.9366, -7.1091], [106.937, -7.1228], [106.9453, -7.1282], [106.9424, -7.1329], [106.9525, -7.1328], [106.9659, -7.1449], [106.9674, -7.156], [106.9605, -7.1564], [106.9578, -7.1645], [106.9641, -7.1778], [106.9704, -7.1759], [106.9747, -7.1856], [106.9737, -7.19], [106.9671, -7.1896], [106.9679, -7.1962], [106.973, -7.1992], [106.9752, -7.2151], [106.9826, -7.2222], [106.98, -7.2412], [106.967, -7.2455], [106.9603, -7.2603], [106.97, -7.2663], [106.976, -7.2844], [106.9672, -7.3122], [106.9537, -7.3211], [106.9406, -7.3178], [106.9339, -7.3244], [106.9341, -7.3341], [106.9276, -7.333], [106.9195, -7.322], [106.9151, -7.323], [106.908, -7.3395], [106.9094, -7.3493], [106.9035, -7.3513], [106.9032, -7.3426], [106.8953, -7.3414], [106.8949, -7.3476], [106.8768, -7.3535], [106.8754, -7.364], [106.8686, -7.3556], [106.8611, -7.3634], [106.8557, -7.362], [106.8586, -7.3542], [106.8508, -7.3607], [106.8449, -7.3564], [106.8319, -7.358], [106.8268, -7.3654], [106.8231, -7.3625], [106.8197, -7.3724], [106.8052, -7.3881], [106.7956, -7.3916], [106.7951, -7.3968], [106.7828, -7.3969], [106.7771, -7.402], [106.7808, -7.4156], [106.7892, -7.4088], [106.7928, -7.4151], [106.7913, -7.4376], [106.862, -7.4343], [106.8636, -7.4306], [106.8814, -7.4333], [106.8839, -7.43], [106.8832, -7.4351], [107.1076, -7.4569], [107.2476, -7.4891], [107.3522, -7.4999], [107.3848, -7.4999], [107.3935, -7.4948], [107.4078, -7.5032], [107.4231, -7.5056], [107.4263, -7.4949], [107.4215, -7.4883], [107.4203, -7.4624], [107.4281, -7.4496], [107.4297, -7.4414], [107.4262, -7.4397], [107.4319, -7.4236], [107.4738, -7.4015], [107.4737, -7.3821], [107.4846, -7.3569], [107.4832, -7.3485], [107.4659, -7.327], [107.4549, -7.2921], [107.4766, -7.2565], [107.4697, -7.258], [107.4641, -7.2524], [107.4551, -7.2603], [107.4326, -7.257], [107.4243, -7.2602], [107.3798, -7.2417], [107.3568, -7.2356], [107.3461, -7.2385], [107.3375, -7.216], [107.3253, -7.2038], [107.3016, -7.2094], [107.2514, -7.2077], [107.2534, -7.1955], [107.2763, -7.184], [107.2771, -7.179], [107.297, -7.1639], [107.3055, -7.1635], [107.3152, -7.1532], [107.3153, -7.1288], [107.3084, -7.1181], [107.3118, -7.1081]]]}}, {"type": "Feature", "properties": {"osm_type": "relation", "osm_id": 297297644, "name": "Cirebon", "admin_level": "6", "kind": "subdivision_2", "parent_osm_id": 2388361, "parent_name": "West Java", "parent_iso": "ID-JB"}, "geometry": {"type": "MultiPolygon", "coordinates": [[[[108.685, -6.7699], [108.6814, -6.7711], [108.685, -6.7699]]], [[[108.8338, -6.758], [108.8352, -6.7467], [108.8464, -6.7347], [108.8243, -6.7387], [108.8279, -6.7472], [108.8047, -6.7587], [108.8081, -6.7753], [108.796, -6.7915], [108.7726, -6.8078], [108.7499, -6.8147], [108.7299, -6.8055], [108.7124, -6.8102], [108.6851, -6.8007], [108.6767, -6.7855], [108.6766, -6.7644], [108.6618, -6.7593], [108.6515, -6.7485], [108.642, -6.7649], [108.6294, -6.7705], [108.6192, -6.7644], [108.6111, -6.7687], [108.6025, -6.7636], [108.5949, -6.7454], [108.5701, -6.7503], [108.5554, -6.7659], [108.5499, -6.7929], [108.5417, -6.7937], [108.5296, -6.7791], [108.5349, -6.7579], [108.5289, -6.7568], [108.5187, -6.7369], [108.5349, -6.7298], [108.5343, -6.7256], [108.5472, -6.7266], [108.5491, -6.7074], [108.5429, -6.7083], [108.5429, -6.6964], [108.5481, -6.701], [108.5623, -6.6912], [108.5561, -6.6593], [108.5603, -6.6441], [108.5433, -6.5907], [108.5463, -6.5603], [108.539, -6.5162], [108.5255, -6.5175], [108.519, -6.5276], [108.5028, -6.534], [108.5009, -6.542], [108.4907, -6.5455], [108.487, -6.5593], [108.4753, -6.5583], [108.4675, -6.5699], [108.4602, -6.5684], [108.4546, -6.5731], [108.4485, -6.5708], [108.4454, -6.5294], [108.4301, -6.5203], [108.4175, -6.5245], [108.4041, -6.5357], [108.3908, -6.5361], [108.3856, -6.5475], [108.3778, -6.5459], [108.3717, -6.5544], [108.3605, -6.5554], [108.3536, -6.5756], [108.3286, -6.5984], [108.3307, -6.6079], [108.3235, -6.6208], [108.346, -6.625], [108.3473, -6.6387], [108.3395, -6.6741], [108.3585, -6.6812], [108.3682, -6.6977], [108.3687, -6.703], [108.3583, -6.7138], [108.3629, -6.7229], [108.3685, -6.7235], [108.3704, -6.7319], [108.359, -6.7439], [108.365, -6.7594], [108.3866, -6.7637], [108.3993, -6.7741], [108.3981, -6.7841], [108.403, -6.7827], [108.4043, -6.7878], [108.4192, -6.7819], [108.4315, -6.7864], [108.4538, -6.7841], [108.4559, -6.7991], [108.4693, -6.7984], [108.471, -6.7874], [108.4783, -6.7991], [108.486, -6.7892], [108.5006, -6.7939], [108.5125, -6.7912], [108.5124, -6.8118], [108.505, -6.8229], [108.5119, -6.8286], [108.5081, -6.852], [108.5115, -6.8578], [108.5247, -6.8576], [108.5232, -6.8704], [108.5365, -6.8684], [108.5337, -6.8801], [108.5534, -6.8819], [108.5767, -6.8932], [108.5789, -6.8988], [108.593, -6.898], [108.5992, -6.9038], [108.612, -6.8964], [108.6114, -6.9005], [108.6374, -6.9112], [108.6559, -6.9018], [108.6658, -6.9172], [108.6524, -6.9316], [108.656, -6.9367], [108.6661, -6.9406], [108.6664, -6.935], [108.6691, -6.9375], [108.6829, -6.9233], [108.6832, -6.9315], [108.7055, -6.9362], [108.7155, -6.9438], [108.7155, -6.9534], [108.7256, -6.9627], [108.7224, -6.9891], [108.7175, -6.9943], [108.7366, -7.0063], [108.7427, -7.0003], [108.744, -6.987], [108.7587, -6.9836], [108.7629, -6.9709], [108.7598, -6.969], [108.7628, -6.9621], [108.7597, -6.9636], [108.7571, -6.9578], [108.7624, -6.9524], [108.7641, -6.9392], [108.7598, -6.9388], [108.7622, -6.9347], [108.7529, -6.9202], [108.7611, -6.9116], [108.7591, -6.9048], [108.7669, -6.902], [108.7615, -6.896], [108.7707, -6.8959], [108.7719, -6.8832], [108.7803, -6.8834], [108.7785, -6.875], [108.7926, -6.8804], [108.8183, -6.8358], [108.8248, -6.8323], [108.8255, -6.8028], [108.8327, -6.8007], [108.8274, -6.7938], [108.8315, -6.7848], [108.8269, -6.7699], [108.8338, -6.758]]]]}}, {"type": "Feature", "properties": {"osm_type": "relation", "osm_id": 554966779, "name": "Garut", "admin_level": "6", "kind": "subdivision_2", "parent_osm_id": 2388361, "parent_name": "West Java", "parent_iso": "ID-JB"}, "geometry": {"type": "Polygon", "coordinates": [[[107.4766, -7.2565], [107.4549, -7.2921], [107.4659, -7.327], [107.4832, -7.3485], [107.4846, -7.3569], [107.4737, -7.3821], [107.4738, -7.4015], [107.4319, -7.4236], [107.4262, -7.4397], [107.4297, -7.4414], [107.4281, -7.4496], [107.4203, -7.4624], [107.4215, -7.4883], [107.4263, -7.4949], [107.4231, -7.5056], [107.446, -7.5082], [107.4739, -7.5189], [107.4833, -7.5391], [107.4988, -7.5354], [107.521, -7.5421], [107.5328, -7.5513], [107.6056, -7.5734], [107.6235, -7.589], [107.625, -7.598], [107.6397, -7.6017], [107.6739, -7.6267], [107.6883, -7.6512], [107.686, -7.6617], [107.6907, -7.6685], [107.7209, -7.6668], [107.8101, -7.6876], [107.8347, -7.7054], [107.8376, -7.7135], [107.8343, -7.7215], [107.8433, -7.7352], [107.875, -7.7401], [107.8941, -7.7354], [107.8999, -7.7396], [107.9068, -7.7372], [107.9313, -7.686], [107.9236, -7.6767], [107.9278, -7.6714], [107.9235, -7.6647], [107.9284, -7.666], [107.9261, -7.6621], [107.9303, -7.6573], [107.9233, -7.652], [107.9258, -7.6427], [107.9211, -7.637], [107.9258, -7.6342], [107.9252, -7.6179], [107.9187, -7.6133], [107.917, -7.597], [107.9406, -7.5814], [107.9405, -7.5698], [107.9314, -7.5605], [107.9466, -7.5418], [107.9418, -7.5025], [107.9504, -7.4867], [107.9468, -7.4734], [107.9533, -7.4602], [107.949, -7.4456], [107.9514, -7.4217], [107.9419, -7.4096], [107.949, -7.4015], [107.9362, -7.3999], [107.9338, -7.3884], [107.9045, -7.3626], [107.9283, -7.3506], [107.9293, -7.3386], [107.938, -7.3307], [107.9463, -7.3305], [107.9402, -7.3162], [107.9285, -7.3126], [107.9316, -7.303], [107.9268, -7.3018], [107.9226, -7.2888], [107.932, -7.2824], [107.9794, -7.2729], [107.9824, -7.2621], [107.9945, -7.2586], [107.9948, -7.2528], [108.0135, -7.2411], [108.0186, -7.2309], [108.0624, -7.2232], [108.0688, -7.2007], [108.0751, -7.1982], [108.067, -7.1872], [108.0699, -7.1771], [108.0845, -7.1621], [108.0807, -7.1429], [108.068, -7.1301], [108.0858, -7.109], [108.099, -7.1029], [108.1137, -7.1026], [108.1225, -7.1146], [108.126, -7.102], [108.118, -7.0779], [108.1347, -7.0628], [108.1355, -7.0503], [108.1254, -7.037], [108.1001, -7.0195], [108.0877, -6.9805], [108.0738, -6.9821], [108.0646, -6.995], [108.0479, -6.9927], [108.0427, -6.9966], [108.0305, -6.9916], [108.0232, -6.9818], [107.9907, -6.982], [107.9665, -6.9587], [107.9466, -6.9578], [107.9429, -6.9531], [107.9314, -6.9559], [107.9261, -6.9487], [107.9159, -6.9457], [107.9166, -6.9674], [107.9022, -6.9694], [107.8894, -6.9826], [107.8974, -6.9829], [107.9075, -6.9925], [107.9102, -7.0363], [107.9308, -7.033], [107.9262, -7.0521], [107.8943, -7.0543], [107.8868, -7.0494], [107.8766, -7.0503], [107.8615, -7.0597], [107.8499, -7.0588], [107.8349, -7.0695], [107.8307, -7.0908], [107.8099, -7.1018], [107.8113, -7.1365], [107.798, -7.1574], [107.7856, -7.1616], [107.7783, -7.1557], [107.7708, -7.1568], [107.7708, -7.1681], [107.766, -7.1717], [107.7398, -7.1673], [107.7216, -7.198], [107.7311, -7.2132], [107.7071, -7.2285], [107.7101, -7.2483], [107.739, -7.2667], [107.7383, -7.2738], [107.7224, -7.2897], [107.7313, -7.294], [107.7247, -7.2993], [107.7229, -7.3142], [107.7094, -7.3087], [107.6916, -7.309], [107.6796, -7.3108], [107.6762, -7.3161], [107.6702, -7.3128], [107.6655, -7.2945], [107.6577, -7.2898], [107.641, -7.304], [107.6275, -7.2986], [107.62, -7.307], [107.6052, -7.3078], [107.5992, -7.283], [107.5822, -7.2767], [107.5737, -7.2629], [107.5573, -7.2514], [107.546, -7.2578], [107.534, -7.2513], [107.5007, -7.2572], [107.4801, -7.2515], [107.4766, -7.2565]]]}}, {"type": "Feature", "properties": {"osm_type": "relation", "osm_id": 663932636, "name": "Indramayu", "admin_level": "6", "kind": "subdivision_2", "parent_osm_id": 2388361, "parent_name": "West Java", "parent_iso": "ID-JB"}, "geometry": {"type": "Polygon", "coordinates": [[[108.539, -6.5162], [108.5348, -6.4808], [108.4935, -6.4644], [108.4482, -6.4312], [108.4103, -6.3888], [108.3926, -6.36], [108.3852, -6.3576], [108.3689, -6.314], [108.3718, -6.3046], [108.3609, -6.2575], [108.3585, -6.2613], [108.3529, -6.2589], [108.349, -6.2469], [108.3397, -6.2526], [108.3389, -6.2727], [108.3349, -6.2748], [108.32, -6.2543], [108.286, -6.2481], [108.2557, -6.2486], [108.2205, -6.2401], [108.1987, -6.2212], [108.1895, -6.2266], [108.1737, -6.2249], [108.168, -6.2314], [108.1932, -6.2368], [108.1902, -6.2441], [108.2023, -6.2425], [108.2103, -6.2736], [108.1952, -6.2811], [108.1901, -6.2953], [108.1815, -6.2953], [108.1583, -6.315], [108.1389, -6.32], [108.1278, -6.3351], [108.1209, -6.3342], [108.1241, -6.3305], [108.1209, -6.3288], [108.092, -6.3268], [108.0888, -6.3192], [108.0744, -6.3197], [108.0313, -6.3066], [107.949, -6.2572], [107.9237, -6.252], [107.9253, -6.2629], [107.9118, -6.2698], [107.9254, -6.2796], [107.9215, -6.2834], [107.925, -6.2909], [107.9219, -6.3108], [107.9305, -6.3097], [107.928, -6.3249], [107.918, -6.3235], [107.9283, -6.3275], [107.9166, -6.3475], [107.9235, -6.3599], [107.9154, -6.3754], [107.9083, -6.3776], [107.8981, -6.3903], [107.8948, -6.3972], [107.8989, -6.4062], [107.8905, -6.4036], [107.8931, -6.4079], [107.8879, -6.4163], [107.8931, -6.4165], [107.897, -6.4257], [107.89, -6.4433], [107.8948, -6.4489], [107.8889, -6.4578], [107.8789, -6.4572], [107.8951, -6.4627], [107.8983, -6.485], [107.9117, -6.4825], [107.9123, -6.4884], [107.9188, -6.4858], [107.9131, -6.4912], [107.9195, -6.4939], [107.9078, -6.4961], [107.9057, -6.5054], [107.911, -6.5069], [107.9155, -6.501], [107.9202, -6.5145], [107.9162, -6.5246], [107.9083, -6.5287], [107.9093, -6.5394], [107.8939, -6.5465], [107.8983, -6.5496], [107.8924, -6.5531], [107.8937, -6.5571], [107.8867, -6.5553], [107.881, -6.5666], [107.8631, -6.5677], [107.8513, -6.5748], [107.9091, -6.596], [107.9271, -6.6141], [107.9352, -6.6148], [107.9403, -6.6256], [107.9702, -6.6388], [107.9888, -6.6696], [107.9966, -6.6672], [108.0256, -6.6778], [108.0287, -6.6564], [108.0348, -6.6546], [108.0312, -6.6385], [108.0427, -6.6407], [108.0441, -6.6312], [108.0476, -6.6332], [108.0459, -6.6293], [108.0523, -6.6269], [108.0491, -6.6234], [108.0709, -6.6141], [108.0726, -6.6022], [108.0692, -6.6014], [108.0743, -6.5965], [108.071, -6.5882], [108.0766, -6.5825], [108.0734, -6.5752], [108.0858, -6.5729], [108.0939, -6.5628], [108.1048, -6.5621], [108.1064, -6.5555], [108.116, -6.5533], [108.1206, -6.541], [108.1278, -6.5445], [108.1322, -6.555], [108.1276, -6.5652], [108.1421, -6.5653], [108.1421, -6.5745], [108.1477, -6.578], [108.1459, -6.6004], [108.1583, -6.6122], [108.1646, -6.6135], [108.1735, -6.6057], [108.1877, -6.6098], [108.2101, -6.5732], [108.2763, -6.5915], [108.2752, -6.6165], [108.2925, -6.6209], [108.2939, -6.6154], [108.2855, -6.6135], [108.293, -6.6092], [108.3086, -6.6239], [108.3154, -6.6078], [108.3235, -6.6208], [108.3307, -6.6079], [108.3286, -6.5984], [108.3536, -6.5756], [108.3605, -6.5554], [108.3717, -6.5544], [108.3778, -6.5459], [108.3856, -6.5475], [108.3937, -6.5345], [108.4041, -6.5357], [108.4175, -6.5245], [108.4376, -6.5221], [108.4489, -6.5371], [108.4485, -6.5708], [108.4546, -6.5731], [108.4602, -6.5684], [108.4675, -6.5699], [108.4753, -6.5583], [108.487, -6.5593], [108.4907, -6.5455], [108.5009, -6.542], [108.5028, -6.534], [108.519, -6.5276], [108.5255, -6.5175], [108.539, -6.5162]]]}}, {"type": "Feature", "properties": {"osm_type": "relation", "osm_id": 827988201, "name": "Karawang", "admin_level": "6", "kind": "subdivision_2", "parent_osm_id": 2388361, "parent_name": "West Java", "parent_iso": "ID-JB"}, "geometry": {"type": "Polygon", "coordinates": [[[107.1717, -6.482], [107.1744, -6.4906], [107.1646, -6.5009], [107.1647, -6.5109], [107.1765, -6.533], [107.1787, -6.552], [107.1896, -6.5616], [107.1931, -6.5783], [107.2135, -6.5905], [107.2205, -6.5907], [107.236, -6.5772], [107.2504, -6.5734], [107.265, -6.5553], [107.2726, -6.536], [107.2839, -6.5299], [107.2855, -6.5048], [107.3058, -6.491], [107.3278, -6.4844], [107.3403, -6.4881], [107.3504, -6.4856], [107.3664, -6.4966], [107.3903, -6.4998], [107.3892, -6.4912], [107.3724, -6.4738], [107.3732, -6.4683], [107.4333, -6.4595], [107.4375, -6.4479], [107.4519, -6.4441], [107.4589, -6.4369], [107.4612, -6.4267], [107.4783, -6.4319], [107.5028, -6.4079], [107.5137, -6.4213], [107.5348, -6.415], [107.5396, -6.4038], [107.5378, -6.387], [107.5483, -6.3795], [107.5535, -6.3633], [107.5581, -6.3646], [107.562, -6.3587], [107.5705, -6.341], [107.568, -6.3363], [107.5827, -6.3124], [107.5789, -6.3064], [107.5861, -6.2945], [107.5789, -6.2804], [107.5782, -6.2678], [107.5839, -6.2603], [107.5806, -6.2564], [107.5921, -6.2509], [107.5994, -6.253], [107.6004, -6.2379], [107.6223, -6.2221], [107.63, -6.2242], [107.6436, -6.215], [107.621, -6.1874], [107.5801, -6.1873], [107.5414, -6.1784], [107.4765, -6.1498], [107.4676, -6.1419], [107.4455, -6.1011], [107.4406, -6.1016], [107.4316, -6.0909], [107.3889, -6.0176], [107.343, -5.9705], [107.3056, -5.9585], [107.2801, -5.9592], [107.2028, -5.9795], [107.1859, -5.988], [107.1678, -5.9888], [107.1335, -5.9759], [107.0982, -5.9401], [107.0936, -5.9579], [107.0971, -5.9613], [107.0895, -5.9686], [107.09, -5.9764], [107.0856, -5.9795], [107.0899, -5.9835], [107.0849, -5.9849], [107.0844, -5.9908], [107.0883, -5.9954], [107.0846, -6.0023], [107.092, -6.0058], [107.0936, -6.0143], [107.1016, -6.0162], [107.0939, -6.0274], [107.1113, -6.0289], [107.1133, -6.0388], [107.1278, -6.0474], [107.1266, -6.0543], [107.1362, -6.0496], [107.1368, -6.0556], [107.1303, -6.0615], [107.1344, -6.0635], [107.1405, -6.0572], [107.1436, -6.0713], [107.1516, -6.0728], [107.1596, -6.0677], [107.177, -6.0817], [107.1857, -6.0766], [107.1891, -6.0893], [107.2216, -6.1039], [107.2468, -6.1011], [107.2485, -6.1161], [107.2653, -6.1113], [107.2706, -6.1297], [107.2812, -6.1276], [107.2824, -6.148], [107.2927, -6.1414], [107.2885, -6.1563], [107.2786, -6.162], [107.2794, -6.1711], [107.286, -6.1753], [107.2862, -6.1839], [107.2921, -6.1902], [107.2908, -6.2006], [107.2966, -6.2029], [107.291, -6.217], [107.2722, -6.2169], [107.2837, -6.2259], [107.2744, -6.2336], [107.2691, -6.232], [107.2778, -6.2536], [107.2734, -6.2584], [107.2761, -6.2671], [107.2667, -6.2738], [107.2671, -6.2846], [107.2633, -6.2801], [107.2643, -6.286], [107.2551, -6.2905], [107.255, -6.2948], [107.2487, -6.2933], [107.2457, -6.2996], [107.2365, -6.2967], [107.2385, -6.3061], [107.2355, -6.3071], [107.2331, -6.299], [107.233, -6.3037], [107.2238, -6.3061], [107.2276, -6.3093], [107.2239, -6.3163], [107.2174, -6.3151], [107.2247, -6.3206], [107.2186, -6.3214], [107.2147, -6.33], [107.2236, -6.3354], [107.2266, -6.3492], [107.215, -6.3499], [107.2153, -6.3618], [107.2075, -6.3615], [107.2104, -6.3659], [107.2048, -6.3757], [107.2105, -6.3796], [107.2128, -6.3745], [107.2212, -6.3842], [107.2214, -6.4081], [107.213, -6.4092], [107.2122, -6.4172], [107.202, -6.4139], [107.2054, -6.4217], [107.1962, -6.423], [107.2037, -6.4261], [107.2067, -6.4349], [107.202, -6.4361], [107.2117, -6.4493], [107.2054, -6.4519], [107.2169, -6.4614], [107.2089, -6.4686], [107.1954, -6.4611], [107.1894, -6.4641], [107.1885, -6.4703], [107.1818, -6.4678], [107.1808, -6.4781], [107.1717, -6.482]]]}}, {"type": "Feature", "properties": {"osm_type": "relation", "osm_id": 771148648, "name": "Kota Bandung", "admin_level": "6", "kind": "subdivision_2", "parent_osm_id": 2388361, "parent_name": "West Java", "parent_iso": "ID-JB"}, "geometry": {"type": "Polygon", "coordinates": [[[107.6286, -6.8557], [107.625, -6.8482], [107.6219, -6.856], [107.6161, -6.8471], [107.6045, -6.8594], [107.6035, -6.8436], [107.5969, -6.8426], [107.5976, -6.8369], [107.5892, -6.8572], [107.5758, -6.8677], [107.5715, -6.8822], [107.5763, -6.8907], [107.5561, -6.889], [107.569, -6.9103], [107.5646, -6.9159], [107.5652, -6.9297], [107.5643, -6.9327], [107.5587, -6.9262], [107.5579, -6.9298], [107.5459, -6.9281], [107.5626, -6.9508], [107.5848, -6.9624], [107.6168, -6.9609], [107.6943, -6.9697], [107.716, -6.9617], [107.7131, -6.9475], [107.7258, -6.9283], [107.7262, -6.9176], [107.7369, -6.9088], [107.7382, -6.8996], [107.7261, -6.895], [107.7152, -6.9036], [107.7146, -6.8902], [107.7076, -6.8897], [107.7006, -6.9016], [107.704, -6.9076], [107.7, -6.9082], [107.6808, -6.8894], [107.6681, -6.891], [107.6702, -6.884], [107.6653, -6.8901], [107.6636, -6.8836], [107.6565, -6.8943], [107.6465, -6.8885], [107.6423, -6.8938], [107.6365, -6.886], [107.6326, -6.8893], [107.6309, -6.8721], [107.6234, -6.8643], [107.6286, -6.8557]]]}}, {"type": "Feature", "properties": {"osm_type": "relation", "osm_id": 491890251, "name": "Kota Banjar", "admin_level": "6", "kind": "subdivision_2", "parent_osm_id": 2388361, "parent_name": "West Java", "parent_iso": "ID-JB"}, "geometry": {"type": "Polygon", "coordinates": [[[108.6619, -7.3525], [108.6618, -7.3421], [108.6511, -7.3415], [108.6475, -7.337], [108.6454, -7.3456], [108.6369, -7.3421], [108.6184, -7.3446], [108.6174, -7.3502], [108.6122, -7.3439], [108.5992, -7.3506], [108.5907, -7.3445], [108.5834, -7.3498], [108.5754, -7.3343], [108.5585, -7.3351], [108.5594, -7.3265], [108.5517, -7.3235], [108.5556, -7.3317], [108.5504, -7.3418], [108.535, -7.3436], [108.5227, -7.3585], [108.5062, -7.3542], [108.5014, -7.3584], [108.496, -7.3544], [108.4967, -7.349], [108.4895, -7.3498], [108.4777, -7.3611], [108.4698, -7.3618], [108.4757, -7.3647], [108.4674, -7.3783], [108.486, -7.3932], [108.4939, -7.3913], [108.5058, -7.4024], [108.5248, -7.4068], [108.5342, -7.4161], [108.5442, -7.4121], [108.5491, -7.422], [108.555, -7.4192], [108.5552, -7.425], [108.5657, -7.4299], [108.5652, -7.4376], [108.5697, -7.4372], [108.5777, -7.4299], [108.5753, -7.4233], [108.5797, -7.4175], [108.5947, -7.4072], [108.5906, -7.395], [108.6, -7.3937], [108.6071, -7.4032], [108.6154, -7.406], [108.6184, -7.3932], [108.6244, -7.3947], [108.6215, -7.3904], [108.6306, -7.3818], [108.6505, -7.3873], [108.6619, -7.3525]]]}}, {"type": "Feature", "properties": {"osm_type": "relation", "osm_id": 338298492, "name": "Kota Bekasi", "admin_level": "6", "kind": "subdivision_2", "parent_osm_id": 2388361, "parent_name": "West Java", "parent_iso": "ID-JB"}, "geometry": {"type": "Polygon", "coordinates": [[[106.9716, -6.1722], [106.9662, -6.2069], [106.9624, -6.2145], [106.9508, -6.2191], [106.9418, -6.2382], [106.9439, -6.2523], [106.9279, -6.2546], [106.9199, -6.2503], [106.9157, -6.2584], [106.9097, -6.2555], [106.9044, -6.2621], [106.9043, -6.2703], [106.9101, -6.2728], [106.9102, -6.2943], [106.9207, -6.3002], [106.9228, -6.3142], [106.9136, -6.3588], [106.9162, -6.3628], [106.9076, -6.3708], [106.9003, -6.3978], [106.9062, -6.3944], [106.921, -6.3969], [106.9218, -6.3889], [106.9338, -6.3836], [106.9297, -6.38], [106.9455, -6.3685], [106.9439, -6.358], [106.9487, -6.3587], [106.954, -6.3495], [106.9503, -6.3442], [106.9618, -6.3358], [106.9608, -6.3264], [106.9647, -6.3249], [106.9603, -6.3214], [106.9637, -6.3169], [106.9602, -6.3125], [106.9667, -6.303], [106.97, -6.3056], [106.9708, -6.3023], [106.9733, -6.3116], [106.9809, -6.3151], [106.9763, -6.3192], [106.977, -6.3314], [106.9725, -6.3319], [106.9757, -6.3409], [106.9662, -6.3424], [106.9819, -6.3579], [106.9797, -6.3643], [106.994, -6.3671], [106.9943, -6.3553], [107.0046, -6.3554], [107.0068, -6.3626], [107.0172, -6.3536], [107.0164, -6.3304], [107.0289, -6.3304], [107.0411, -6.3094], [107.0375, -6.2837], [107.0166, -6.2762], [107.0178, -6.2628], [107.0306, -6.2499], [107.0415, -6.2462], [107.0425, -6.2328], [107.0304, -6.2267], [107.0325, -6.1984], [107.0059, -6.1959], [107.0107, -6.1724], [106.9716, -6.1722]]]}}, {"type": "Feature", "properties": {"osm_type": "relation", "osm_id": 243823959, "name": "Kota Bogor", "admin_level": "6", "kind": "subdivision_2", "parent_osm_id": 2388361, "parent_name": "West Java", "parent_iso": "ID-JB"}, "geometry": {"type": "Polygon", "coordinates": [[[106.7789, -6.5117], [106.7649, -6.521], [106.7646, -6.5459], [106.7564, -6.5518], [106.7408, -6.5428], [106.7354, -6.5653], [106.7423, -6.5683], [106.7385, -6.571], [106.7411, -6.5754], [106.7498, -6.5723], [106.7631, -6.5831], [106.7666, -6.5948], [106.7746, -6.6005], [106.7903, -6.6278], [106.783, -6.645], [106.7716, -6.6537], [106.787, -6.6592], [106.7994, -6.6457], [106.8061, -6.6519], [106.8097, -6.6462], [106.8088, -6.6563], [106.8191, -6.6719], [106.8304, -6.6792], [106.8434, -6.6788], [106.8481, -6.6762], [106.8452, -6.6615], [106.8486, -6.6467], [106.8336, -6.6183], [106.8314, -6.6027], [106.8396, -6.5748], [106.8372, -6.5778], [106.829, -6.5501], [106.8257, -6.544], [106.8182, -6.5426], [106.8184, -6.5381], [106.8114, -6.5393], [106.8089, -6.5461], [106.8057, -6.5399], [106.7992, -6.5465], [106.7932, -6.546], [106.7888, -6.5182], [106.7789, -6.5117]]]}}, {"type": "Feature", "properties": {"osm_type": "relation", "osm_id": 746711238, "name": "Kota Cimahi", "admin_level": "6", "kind": "subdivision_2", "parent_osm_id": 2388361, "parent_name": "West Java", "parent_iso": "ID-JB"}, "geometry": {"type": "Polygon", "coordinates": [[[107.5473, -6.9267], [107.5579, -6.9298], [107.5587, -6.9262], [107.5643, -6.9327], [107.5646, -6.9159], [107.569, -6.9103], [107.5561, -6.889], [107.5763, -6.8907], [107.5707, -6.8772], [107.5618, -6.8729], [107.5666, -6.8616], [107.5509, -6.8484], [107.555, -6.841], [107.5493, -6.8401], [107.5503, -6.8335], [107.5456, -6.8317], [107.5396, -6.8338], [107.5323, -6.8501], [107.5376, -6.8521], [107.5359, -6.8585], [107.5231, -6.8653], [107.5252, -6.8728], [107.5187, -6.875], [107.517, -6.8921], [107.5102, -6.8983], [107.5251, -6.9207], [107.5308, -6.9165], [107.5438, -6.919], [107.5473, -6.9267]]]}}, {"type": "Feature", "properties": {"osm_type": "relation", "osm_id": 440393456, "name": "Kota Cirebon", "admin_level": "6", "kind": "subdivision_2", "parent_osm_id": 2388361, "parent_name": "West Java", "parent_iso": "ID-JB"}, "geometry": {"type": "Polygon", "coordinates": [[[108.5949, -6.7454], [108.587, -6.7393], [108.5858, -6.7315], [108.5822, -6.7329], [108.5851, -6.7309], [108.5732, -6.7114], [108.5736, -6.7158], [108.5696, -6.7145], [108.5724, -6.7073], [108.5623, -6.6912], [108.5481, -6.701], [108.5429, -6.6964], [108.5429, -6.7083], [108.5491, -6.7074], [108.5472, -6.7266], [108.5343, -6.7256], [108.5349, -6.7298], [108.5187, -6.7369], [108.5289, -6.7568], [108.5349, -6.7579], [108.5305, -6.7832], [108.541, -6.7883], [108.545, -6.7962], [108.5548, -6.7825], [108.5604, -6.7569], [108.5701, -6.7503], [108.5949, -6.7454]]]}}, {"type": "Feature", "properties": {"osm_type": "relation", "osm_id": 219912148, "name": "Kota Depok", "admin_level": "6", "kind": "subdivision_2", "parent_osm_id": 2388361, "parent_name": "West Java", "parent_iso": "ID-JB"}, "geometry": {"type": "Polygon", "coordinates": [[[106.9188, -6.3956], [106.8977, -6.3964], [106.9041, -6.3922], [106.9039, -6.3803], [106.9144, -6.3655], [106.9066, -6.3608], [106.9012, -6.3695], [106.8835, -6.3702], [106.8836, -6.3651], [106.8715, -6.36], [106.8712, -6.3529], [106.8622, -6.3573], [106.8556, -6.3524], [106.8516, -6.3366], [106.8353, -6.3441], [106.8398, -6.3439], [106.8353, -6.355], [106.8159, -6.356], [106.8106, -6.364], [106.7947, -6.3649], [106.7924, -6.3484], [106.7994, -6.3432], [106.7991, -6.334], [106.8092, -6.3149], [106.7786, -6.3174], [106.7711, -6.3572], [106.7205, -6.3605], [106.7167, -6.3653], [106.7238, -6.3766], [106.7219, -6.386], [106.728, -6.386], [106.7265, -6.3964], [106.7328, -6.4056], [106.7303, -6.4143], [106.7372, -6.4191], [106.7328, -6.4293], [106.7384, -6.4389], [106.7882, -6.4382], [106.7941, -6.4417], [106.7932, -6.4518], [106.8016, -6.452], [106.805, -6.4428], [106.8231, -6.4443], [106.8206, -6.4523], [106.8254, -6.4613], [106.8287, -6.4552], [106.8353, -6.4547], [106.8352, -6.4492], [106.8442, -6.4474], [106.8433, -6.4383], [106.8502, -6.436], [106.8557, -6.4563], [106.882, -6.4567], [106.8788, -6.4536], [106.882, -6.4541], [106.8825, -6.4437], [106.8871, -6.4429], [106.8919, -6.4273], [106.8991, -6.426], [106.9053, -6.4127], [106.9147, -6.415], [106.9188, -6.3956]]]}}, {"type": "Feature", "properties": {"osm_type": "relation", "osm_id": 644169332, "name": "Kota Sukabumi", "admin_level": "6", "kind": "subdivision_2", "parent_osm_id": 2388361, "parent_name": "West Java", "parent_iso": "ID-JB"}, "geometry": {"type": "Polygon", "coordinates": [[[106.9154, -6.8932], [106.9101, -6.894], [106.9062, -6.9149], [106.9009, -6.914], [106.9006, -6.9335], [106.9074, -6.9385], [106.9116, -6.9521], [106.9009, -6.9581], [106.8866, -6.956], [106.8738, -6.963], [106.8713, -6.9724], [106.8752, -6.9762], [106.8864, -6.974], [106.8888, -6.9694], [106.8958, -6.972], [106.8972, -6.9782], [106.9117, -6.9784], [106.9314, -6.9654], [106.9466, -6.9691], [106.9557, -6.9585], [106.9598, -6.9187], [106.9499, -6.9207], [106.9552, -6.9153], [106.9542, -6.9052], [106.9289, -6.9041], [106.9243, -6.8983], [106.9181, -6.9028], [106.9154, -6.8932]]]}}, {"type": "Feature", "properties": {"osm_type": "relation", "osm_id": 647251055, "name": "Kota Tasikmalaya", "admin_level": "6", "kind": "subdivision_2", "parent_osm_id": 2388361, "parent_name": "West Java", "parent_iso": "ID-JB"}, "geometry": {"type": "Polygon", "coordinates": [[[108.1931, -7.2693], [108.1789, -7.2721], [108.1814, -7.2789], [108.1761, -7.2886], [108.1497, -7.2877], [108.1605, -7.3034], [108.1614, -7.3181], [108.1603, -7.3239], [108.1533, -7.3259], [108.1526, -7.335], [108.1682, -7.3467], [108.1634, -7.3632], [108.1723, -7.3768], [108.1712, -7.386], [108.1742, -7.3928], [108.1855, -7.3952], [108.1864, -7.4034], [108.1809, -7.4089], [108.1861, -7.4144], [108.1873, -7.4361], [108.1936, -7.439], [108.1872, -7.4463], [108.1982, -7.4507], [108.2128, -7.435], [108.2308, -7.4307], [108.2291, -7.4255], [108.2655, -7.434], [108.2673, -7.423], [108.2713, -7.4256], [108.2763, -7.417], [108.2737, -7.4047], [108.2778, -7.4048], [108.278, -7.3995], [108.2711, -7.3936], [108.2825, -7.3852], [108.2725, -7.3802], [108.2724, -7.3746], [108.2637, -7.3742], [108.2767, -7.3718], [108.2936, -7.3587], [108.2835, -7.357], [108.2821, -7.3515], [108.2922, -7.3407], [108.3011, -7.3444], [108.3091, -7.3376], [108.313, -7.3396], [108.2985, -7.3318], [108.278, -7.3341], [108.2669, -7.3182], [108.2526, -7.3213], [108.2495, -7.3131], [108.2427, -7.313], [108.2192, -7.2932], [108.2018, -7.2862], [108.1931, -7.2693]]]}}, {"type": "Feature", "properties": {"osm_type": "relation", "osm_id": 799129641, "name": "Kuningan", "admin_level": "6", "kind": "subdivision_2", "parent_osm_id": 2388361, "parent_name": "West Java", "parent_iso": "ID-JB"}, "geometry": {"type": "Polygon", "coordinates": [[[108.7587, -6.9836], [108.744, -6.987], [108.7427, -7.0003], [108.7366, -7.0063], [108.7175, -6.9943], [108.7224, -6.9891], [108.7256, -6.9627], [108.7155, -6.9534], [108.7155, -6.9438], [108.7055, -6.9362], [108.6832, -6.9315], [108.6829, -6.9233], [108.6691, -6.9375], [108.6664, -6.935], [108.6661, -6.9406], [108.656, -6.9367], [108.6524, -6.9316], [108.6658, -6.9172], [108.6559, -6.9018], [108.6374, -6.9112], [108.6114, -6.9005], [108.612, -6.8964], [108.5992, -6.9038], [108.593, -6.898], [108.5789, -6.8988], [108.5767, -6.8932], [108.5534, -6.8819], [108.5337, -6.8801], [108.5365, -6.8684], [108.5232, -6.8704], [108.5247, -6.8576], [108.5115, -6.8578], [108.5081, -6.852], [108.5119, -6.8286], [108.505, -6.8229], [108.5124, -6.8118], [108.5125, -6.7912], [108.5006, -6.7939], [108.486, -6.7892], [108.4783, -6.7991], [108.471, -6.7874], [108.4693, -6.7984], [108.4559, -6.7991], [108.4538, -6.7841], [108.4498, -6.7828], [108.4315, -6.7864], [108.4192, -6.7819], [108.4092, -6.7902], [108.4133, -6.803], [108.4083, -6.8055], [108.4078, -6.8192], [108.401, -6.8299], [108.4076, -6.8931], [108.4015, -6.9345], [108.3887, -6.9471], [108.385, -6.959], [108.3882, -6.9681], [108.3831, -7.0067], [108.3914, -7.0212], [108.3859, -7.0421], [108.3902, -7.0632], [108.3857, -7.073], [108.417, -7.0901], [108.4133, -7.0943], [108.4266, -7.0955], [108.4259, -7.1024], [108.4388, -7.1077], [108.437, -7.1126], [108.4424, -7.1188], [108.4571, -7.1179], [108.4725, -7.1235], [108.4794, -7.119], [108.4812, -7.1238], [108.4935, -7.1248], [108.4953, -7.1311], [108.5086, -7.13], [108.5155, -7.1455], [108.5095, -7.1608], [108.519, -7.1606], [108.5161, -7.1643], [108.5213, -7.1638], [108.5265, -7.1737], [108.5204, -7.1744], [108.5291, -7.1781], [108.5278, -7.182], [108.5423, -7.1864], [108.5406, -7.1897], [108.561, -7.1911], [108.5657, -7.1807], [108.5622, -7.1714], [108.5708, -7.1642], [108.5808, -7.164], [108.5917, -7.1504], [108.6098, -7.1498], [108.6193, -7.1411], [108.6349, -7.1387], [108.6458, -7.1423], [108.6586, -7.1556], [108.6749, -7.1567], [108.6982, -7.1504], [108.7235, -7.1238], [108.726, -7.1153], [108.7709, -7.1118], [108.7786, -7.0945], [108.7744, -7.0835], [108.7842, -7.0695], [108.7855, -7.0573], [108.7747, -7.0351], [108.7797, -7.0263], [108.7907, -7.0249], [108.7906, -7.0123], [108.7815, -7.0046], [108.7782, -6.9934], [108.7699, -6.9939], [108.7587, -6.9836]]]}}, {"type": "Feature", "properties": {"osm_type": "relation", "osm_id": 764829815, "name": "Majalengka", "admin_level": "6", "kind": "subdivision_2", "parent_osm_id": 2388361, "parent_name": "West Java", "parent_iso": "ID-JB"}, "geometry": {"type": "Polygon", "coordinates": [[[108.3857, -7.073], [108.3902, -7.0632], [108.3859, -7.0421], [108.3914, -7.0212], [108.3831, -7.0067], [108.3882, -6.9681], [108.385, -6.959], [108.3887, -6.9471], [108.4015, -6.9345], [108.4078, -6.8808], [108.4013, -6.8548], [108.4047, -6.8456], [108.401, -6.8299], [108.4078, -6.8192], [108.4083, -6.8055], [108.4133, -6.803], [108.4098, -6.7979], [108.4127, -6.7929], [108.4096, -6.7845], [108.4075, -6.7882], [108.403, -6.7827], [108.3981, -6.7841], [108.3993, -6.7741], [108.3866, -6.7637], [108.365, -6.7594], [108.3594, -6.7518], [108.359, -6.7439], [108.3704, -6.7319], [108.3685, -6.7235], [108.3629, -6.7229], [108.3583, -6.7138], [108.3687, -6.703], [108.3585, -6.6812], [108.3395, -6.6741], [108.3473, -6.6387], [108.346, -6.625], [108.3235, -6.6208], [108.3154, -6.6078], [108.3086, -6.6239], [108.2894, -6.6087], [108.2855, -6.6135], [108.2939, -6.6154], [108.2925, -6.6209], [108.2808, -6.6206], [108.2726, -6.6096], [108.2763, -6.5915], [108.2101, -6.5732], [108.1877, -6.6098], [108.1735, -6.6057], [108.1646, -6.6135], [108.1583, -6.6122], [108.1459, -6.6004], [108.1477, -6.578], [108.1421, -6.5745], [108.1421, -6.5653], [108.1276, -6.5652], [108.1322, -6.555], [108.1278, -6.5445], [108.1206, -6.541], [108.116, -6.5533], [108.1064, -6.5555], [108.1048, -6.5621], [108.0939, -6.5628], [108.0858, -6.5729], [108.0734, -6.5752], [108.0766, -6.5825], [108.071, -6.5882], [108.0743, -6.5965], [108.0692, -6.6014], [108.0726, -6.6022], [108.0709, -6.6141], [108.0491, -6.6234], [108.0523, -6.6269], [108.0422, -6.6371], [108.0505, -6.6382], [108.0539, -6.6531], [108.07, -6.6571], [108.0688, -6.6657], [108.0919, -6.6727], [108.1019, -6.6877], [108.1079, -6.6876], [108.1181, -6.7066], [108.1225, -6.7035], [108.1238, -6.7074], [108.1259, -6.7038], [108.1381, -6.7073], [108.1529, -6.7231], [108.1588, -6.7206], [108.162, -6.7246], [108.1637, -6.7293], [108.1487, -6.7549], [108.1541, -6.7623], [108.1643, -6.7614], [108.1636, -6.7739], [108.1696, -6.7871], [108.1648, -6.7888], [108.1652, -6.7971], [108.1558, -6.7965], [108.1528, -6.8026], [108.1605, -6.8098], [108.1595, -6.8258], [108.1648, -6.8353], [108.1667, -6.8297], [108.1796, -6.8338], [108.1798, -6.8523], [108.1888, -6.853], [108.1895, -6.8654], [108.194, -6.8638], [108.1993, -6.8718], [108.1942, -6.8862], [108.2064, -6.8931], [108.2145, -6.8892], [108.2099, -6.9066], [108.2161, -6.9027], [108.2114, -6.9152], [108.2198, -6.928], [108.2051, -6.9372], [108.199, -6.947], [108.1809, -6.9561], [108.171, -6.9687], [108.165, -6.9985], [108.1345, -7.0416], [108.1459, -7.0479], [108.1621, -7.0741], [108.1762, -7.0677], [108.1699, -7.0592], [108.1881, -7.0586], [108.1928, -7.0626], [108.1936, -7.0587], [108.2, -7.0663], [108.2048, -7.0589], [108.2083, -7.0625], [108.2131, -7.056], [108.2193, -7.0587], [108.2267, -7.0546], [108.2455, -7.0667], [108.2734, -7.0649], [108.282, -7.0581], [108.3036, -7.0622], [108.3137, -7.0567], [108.3203, -7.0595], [108.3219, -7.0556], [108.3266, -7.0643], [108.3407, -7.0713], [108.3481, -7.0554], [108.36, -7.0516], [108.3676, -7.0596], [108.3778, -7.0599], [108.3857, -7.073]]]}}, {"type": "Feature", "properties": {"osm_type": "relation", "osm_id": 675991674, "name": "Pangandaran", "admin_level": "6", "kind": "subdivision_2", "parent_osm_id": 2388361, "parent_name": "West Java", "parent_iso": "ID-JB"}, "geometry": {"type": "Polygon", "coordinates": [[[108.4295, -7.5005], [108.4173, -7.4882], [108.4104, -7.4981], [108.4006, -7.4782], [108.3736, -7.4786], [108.352, -7.4931], [108.3518, -7.5003], [108.3331, -7.5135], [108.3365, -7.5283], [108.3275, -7.5508], [108.3341, -7.5489], [108.3536, -7.5622], [108.3566, -7.5957], [108.3612, -7.6004], [108.3534, -7.6387], [108.3551, -7.6446], [108.3617, -7.6454], [108.3606, -7.6548], [108.3662, -7.6586], [108.3542, -7.6722], [108.3548, -7.6837], [108.3403, -7.6797], [108.3319, -7.6853], [108.3364, -7.6913], [108.3293, -7.6907], [108.3237, -7.683], [108.3245, -7.6931], [108.3143, -7.6904], [108.3235, -7.7022], [108.3238, -7.7128], [108.3297, -7.7096], [108.3319, -7.7126], [108.3237, -7.7201], [108.3155, -7.7124], [108.312, -7.7187], [108.3217, -7.723], [108.3127, -7.7244], [108.3166, -7.7422], [108.3236, -7.7467], [108.325, -7.7786], [108.3178, -7.7863], [108.3303, -7.7978], [108.3293, -7.8039], [108.3394, -7.8097], [108.343, -7.8197], [108.3754, -7.8136], [108.4406, -7.8208], [108.447, -7.8192], [108.4485, -7.813], [108.4754, -7.8059], [108.4956, -7.7945], [108.5032, -7.7854], [108.5078, -7.7625], [108.5044, -7.7496], [108.4976, -7.747], [108.5034, -7.7283], [108.5004, -7.7233], [108.5018, -7.7282], [108.4986, -7.7281], [108.4978, -7.719], [108.5006, -7.7213], [108.5037, -7.7092], [108.5152, -7.6995], [108.5401, -7.691], [108.5959, -7.6822], [108.6414, -7.6879], [108.6558, -7.6998], [108.6555, -7.706], [108.6481, -7.7105], [108.6509, -7.719], [108.6698, -7.731], [108.678, -7.7215], [108.6591, -7.7044], [108.6591, -7.6992], [108.6725, -7.6841], [108.6877, -7.678], [108.723, -7.6795], [108.7624, -7.6965], [108.7653, -7.691], [108.7715, -7.6936], [108.7758, -7.6891], [108.7767, -7.6995], [108.7969, -7.6878], [108.7943, -7.6808], [108.8014, -7.6744], [108.7995, -7.6679], [108.7864, -7.6681], [108.7853, -7.6589], [108.7792, -7.6581], [108.7777, -7.6523], [108.768, -7.653], [108.7553, -7.6351], [108.75, -7.6345], [108.7417, -7.6137], [108.7322, -7.6137], [108.7372, -7.6105], [108.741, -7.5925], [108.7506, -7.5919], [108.7485, -7.5673], [108.7547, -7.5592], [108.7512, -7.5451], [108.7441, -7.5398], [108.7355, -7.505], [108.7234, -7.4893], [108.716, -7.4663], [108.7065, -7.4705], [108.7042, -7.4767], [108.6962, -7.4676], [108.6967, -7.4611], [108.6681, -7.4599], [108.657, -7.4681], [108.6471, -7.4688], [108.65, -7.4881], [108.6579, -7.4982], [108.654, -7.5292], [108.6482, -7.5379], [108.6223, -7.5501], [108.6226, -7.555], [108.6069, -7.5539], [108.5952, -7.5632], [108.5839, -7.5608], [108.5773, -7.5666], [108.5495, -7.5569], [108.5447, -7.5698], [108.5288, -7.5711], [108.5192, -7.5548], [108.5251, -7.5529], [108.5209, -7.5443], [108.5282, -7.5376], [108.5423, -7.5379], [108.5276, -7.5269], [108.4851, -7.5361], [108.4762, -7.5315], [108.4724, -7.5182], [108.4607, -7.5175], [108.4557, -7.5102], [108.4388, -7.5086], [108.4295, -7.5005]]]}}, {"type": "Feature", "properties": {"osm_type": "relation", "osm_id": 423184235, "name": "Purwakarta", "admin_level": "6", "kind": "subdivision_2", "parent_osm_id": 2388361, "parent_name": "West Java", "parent_iso": "ID-JB"}, "geometry": {"type": "Polygon", "coordinates": [[[107.5955, -6.7292], [107.5943, -6.7198], [107.5883, -6.7153], [107.5949, -6.7066], [107.5888, -6.6859], [107.6021, -6.6635], [107.6016, -6.654], [107.5928, -6.6505], [107.5795, -6.6339], [107.5842, -6.6093], [107.5904, -6.5998], [107.5828, -6.5959], [107.5858, -6.5916], [107.5812, -6.5905], [107.5786, -6.5819], [107.5739, -6.5841], [107.5683, -6.5784], [107.5645, -6.5676], [107.5539, -6.5666], [107.5624, -6.5468], [107.5558, -6.5398], [107.5637, -6.5279], [107.5548, -6.5173], [107.5607, -6.5147], [107.5596, -6.4904], [107.5655, -6.4872], [107.559, -6.4872], [107.5593, -6.4759], [107.5453, -6.4702], [107.5421, -6.4458], [107.5267, -6.437], [107.5294, -6.4184], [107.5124, -6.4209], [107.5028, -6.4079], [107.4783, -6.4319], [107.4612, -6.4267], [107.4589, -6.4369], [107.4519, -6.4441], [107.4375, -6.4479], [107.4333, -6.4595], [107.3732, -6.4683], [107.3724, -6.4738], [107.3892, -6.4912], [107.3903, -6.4998], [107.3664, -6.4966], [107.3504, -6.4856], [107.3403, -6.4881], [107.3278, -6.4844], [107.2891, -6.5017], [107.2855, -6.5048], [107.2839, -6.5299], [107.2726, -6.536], [107.265, -6.5553], [107.2504, -6.5734], [107.236, -6.5772], [107.2205, -6.5907], [107.2383, -6.6158], [107.2638, -6.6358], [107.2594, -6.68], [107.2468, -6.6903], [107.2504, -6.6967], [107.2802, -6.7078], [107.2878, -6.7053], [107.2804, -6.7], [107.2898, -6.7032], [107.2924, -6.709], [107.2931, -6.7034], [107.2955, -6.7082], [107.3006, -6.7073], [107.3018, -6.7115], [107.2972, -6.7139], [107.3015, -6.7207], [107.3055, -6.7164], [107.3064, -6.7207], [107.3119, -6.7207], [107.3155, -6.7142], [107.314, -6.7177], [107.3195, -6.7202], [107.3264, -6.7092], [107.3254, -6.6927], [107.3293, -6.6898], [107.3332, -6.6933], [107.3359, -6.6874], [107.3678, -6.7007], [107.3715, -6.7007], [107.3728, -6.6899], [107.396, -6.6957], [107.4095, -6.6885], [107.4251, -6.7], [107.4521, -6.7003], [107.4874, -6.7353], [107.5176, -6.7439], [107.5302, -6.762], [107.5403, -6.7639], [107.5493, -6.773], [107.5705, -6.7709], [107.5749, -6.7768], [107.579, -6.7737], [107.5766, -6.7625], [107.5716, -6.7618], [107.5713, -6.7362], [107.5848, -6.7268], [107.5955, -6.7292]]]}}, {"type": "Feature", "properties": {"osm_type": "relation", "osm_id": 196018839, "name": "Subang", "admin_level": "6", "kind": "subdivision_2", "parent_osm_id": 2388361, "parent_name": "West Java", "parent_iso": "ID-JB"}, "geometry": {"type": "Polygon", "coordinates": [[[107.75, -6.8128], [107.7803, -6.8007], [107.785, -6.8043], [107.7977, -6.8023], [107.8041, -6.8087], [107.8167, -6.7997], [107.8256, -6.7823], [107.8374, -6.7761], [107.8419, -6.7584], [107.8364, -6.7382], [107.8396, -6.7228], [107.8334, -6.7173], [107.8404, -6.6917], [107.8292, -6.684], [107.8218, -6.6864], [107.8099, -6.6775], [107.8193, -6.6771], [107.8142, -6.674], [107.8181, -6.6697], [107.8409, -6.6652], [107.8518, -6.6524], [107.8489, -6.6424], [107.855, -6.6254], [107.8507, -6.607], [107.8568, -6.5999], [107.8479, -6.5862], [107.8556, -6.5789], [107.8514, -6.5716], [107.8777, -6.5684], [107.8844, -6.5568], [107.8937, -6.5571], [107.8924, -6.5531], [107.8983, -6.5496], [107.8939, -6.5465], [107.9093, -6.5394], [107.9083, -6.5287], [107.9162, -6.5246], [107.9202, -6.5145], [107.9155, -6.501], [107.911, -6.5069], [107.9057, -6.5054], [107.9078, -6.4961], [107.9195, -6.4939], [107.9131, -6.4912], [107.9188, -6.4858], [107.9123, -6.4884], [107.9117, -6.4825], [107.8983, -6.485], [107.8951, -6.4627], [107.8789, -6.4572], [107.8889, -6.4578], [107.8948, -6.4489], [107.89, -6.4433], [107.897, -6.4257], [107.8931, -6.4165], [107.8879, -6.4163], [107.8931, -6.4079], [107.8905, -6.4036], [107.8989, -6.4062], [107.8948, -6.3972], [107.8981, -6.3903], [107.9189, -6.371], [107.9146, -6.3705], [107.9235, -6.3599], [107.9166, -6.3475], [107.9283, -6.3275], [107.918, -6.3235], [107.928, -6.3249], [107.9305, -6.3097], [107.9219, -6.3108], [107.925, -6.2909], [107.9215, -6.2834], [107.9254, -6.2796], [107.9118, -6.2698], [107.9253, -6.2629], [107.9264, -6.2564], [107.9206, -6.2493], [107.9031, -6.2435], [107.888, -6.2266], [107.8865, -6.2056], [107.8972, -6.2072], [107.894, -6.1965], [107.9, -6.1869], [107.8912, -6.1824], [107.8819, -6.1848], [107.8857, -6.1934], [107.8761, -6.1936], [107.8714, -6.2068], [107.8569, -6.2126], [107.8482, -6.1973], [107.8503, -6.1894], [107.8186, -6.186], [107.8013, -6.2045], [107.7648, -6.2128], [107.7505, -6.2276], [107.721, -6.2374], [107.7067, -6.2319], [107.6958, -6.2209], [107.6876, -6.2329], [107.6676, -6.239], [107.6678, -6.2343], [107.6528, -6.2264], [107.6436, -6.215], [107.63, -6.2242], [107.6223, -6.2221], [107.6004, -6.2379], [107.5994, -6.253], [107.5921, -6.2509], [107.5806, -6.2564], [107.5839, -6.2603], [107.5782, -6.2678], [107.5789, -6.2804], [107.5861, -6.2945], [107.5789, -6.3064], [107.5827, -6.3124], [107.568, -6.3363], [107.5705, -6.341], [107.562, -6.3587], [107.5581, -6.3646], [107.5535, -6.3633], [107.5483, -6.3795], [107.5378, -6.387], [107.5396, -6.4038], [107.5265, -6.4258], [107.5267, -6.437], [107.5421, -6.4458], [107.5453, -6.4702], [107.5593, -6.4759], [107.559, -6.4872], [107.5655, -6.4872], [107.5596, -6.4904], [107.5607, -6.5147], [107.5548, -6.5173], [107.5637, -6.5279], [107.5558, -6.5398], [107.5624, -6.5468], [107.5539, -6.5666], [107.5645, -6.5676], [107.5683, -6.5784], [107.5739, -6.5841], [107.5786, -6.5819], [107.5812, -6.5905], [107.5858, -6.5916], [107.5828, -6.5959], [107.5904, -6.5998], [107.5842, -6.6093], [107.5795, -6.6339], [107.5928, -6.6505], [107.6016, -6.654], [107.6021, -6.6635], [107.5888, -6.6859], [107.5949, -6.7066], [107.5883, -6.7153], [107.5943, -6.7198], [107.5923, -6.7266], [107.6024, -6.7361], [107.6006, -6.7611], [107.6185, -6.7601], [107.629, -6.7741], [107.6711, -6.7763], [107.688, -6.7983], [107.7076, -6.7929], [107.7242, -6.8024], [107.7265, -6.8108], [107.7335, -6.8143], [107.75, -6.8128]]]}}, {"type": "Feature", "properties": {"osm_type": "relation", "osm_id": 329928679, "name": "Sukabumi", "admin_level": "6", "kind": "subdivision_2", "parent_osm_id": 2388361, "parent_name": "West Java", "parent_iso": "ID-JB"}, "geometry": {"type": "Polygon", "coordinates": [[[106.5248, -6.7623], [106.5255, -6.7687], [106.4977, -6.791], [106.4572, -6.8036], [106.45, -6.8163], [106.436, -6.8198], [106.431, -6.8622], [106.4192, -6.8743], [106.4195, -6.8804], [106.4063, -6.8864], [106.4018, -6.8964], [106.3929, -6.9006], [106.4002, -6.9242], [106.3911, -6.9324], [106.3896, -6.942], [106.395, -6.9507], [106.3931, -6.9713], [106.3975, -6.9788], [106.4146, -6.9757], [106.4168, -6.9632], [106.4432, -6.9526], [106.4775, -6.9634], [106.487, -6.9609], [106.5122, -6.9654], [106.5402, -6.9817], [106.5439, -6.988], [106.5399, -7.0208], [106.5447, -7.0557], [106.5294, -7.066], [106.5067, -7.0953], [106.4838, -7.1037], [106.4825, -7.1115], [106.4691, -7.12], [106.467, -7.1267], [106.4568, -7.1295], [106.4475, -7.1527], [106.4656, -7.1713], [106.4575, -7.1849], [106.4477, -7.1854], [106.4441, -7.191], [106.4344, -7.1839], [106.4248, -7.1904], [106.4007, -7.1864], [106.3954, -7.1985], [106.3994, -7.2059], [106.3861, -7.2163], [106.3907, -7.2288], [106.381, -7.2392], [106.3731, -7.2369], [106.3849, -7.2639], [106.3827, -7.2709], [106.3703, -7.2799], [106.3797, -7.2989], [106.375, -7.3], [106.3727, -7.3078], [106.3979, -7.3316], [106.403, -7.3523], [106.3993, -7.3709], [106.4049, -7.3821], [106.4056, -7.3701], [106.4138, -7.3636], [106.4435, -7.3608], [106.4492, -7.3664], [106.4905, -7.3763], [106.4994, -7.3898], [106.5231, -7.4078], [106.5601, -7.4172], [106.6033, -7.4139], [106.7913, -7.4376], [106.7928, -7.4151], [106.7892, -7.4088], [106.7808, -7.4156], [106.7771, -7.402], [106.7828, -7.3969], [106.7951, -7.3968], [106.7956, -7.3916], [106.8052, -7.3881], [106.8197, -7.3724], [106.8231, -7.3625], [106.8268, -7.3654], [106.8319, -7.358], [106.8449, -7.3564], [106.8508, -7.3607], [106.8586, -7.3542], [106.8557, -7.362], [106.8611, -7.3634], [106.8686, -7.3556], [106.8754, -7.364], [106.8768, -7.3535], [106.8949, -7.3476], [106.8953, -7.3414], [106.9032, -7.3426], [106.9035, -7.3513], [106.9094, -7.3493], [106.908, -7.3395], [106.9151, -7.323], [106.9195, -7.322], [106.9276, -7.333], [106.9341, -7.3341], [106.9339, -7.3244], [106.9406, -7.3178], [106.9537, -7.3211], [106.9672, -7.3122], [106.976, -7.2844], [106.97, -7.2663], [106.9603, -7.2603], [106.967, -7.2455], [106.98, -7.2412], [106.9826, -7.2222], [106.9752, -7.2151], [106.973, -7.1992], [106.9679, -7.1962], [106.9671, -7.1896], [106.9737, -7.19], [106.9747, -7.1856], [106.9704, -7.1759], [106.9641, -7.1778], [106.9578, -7.1645], [106.9605, -7.1564], [106.9674, -7.156], [106.9659, -7.1449], [106.9525, -7.1328], [106.9424, -7.1329], [106.9453, -7.1282], [106.937, -7.1228], [106.9366, -7.1091], [106.9459, -7.0909], [106.944, -7.087], [106.9483, -7.086], [106.9436, -7.0748], [106.9539, -7.0684], [106.9592, -7.0335], [106.9757, -7.0136], [106.9891, -7.017], [106.9947, -7.0284], [107.0075, -7.0367], [107.0225, -7.0373], [107.0282, -7.0445], [107.0388, -7.0434], [107.0394, -7.0374], [107.0475, -7.0315], [107.0429, -7.0232], [107.049, -7.0178], [107.0497, -7.0048], [107.033, -6.9872], [107.0334, -6.9764], [107.0468, -6.9608], [107.0578, -6.9676], [107.065, -6.965], [107.0627, -6.9563], [107.0487, -6.9424], [107.0473, -6.9098], [107.0418, -6.9091], [107.0402, -6.8998], [107.0287, -6.8916], [107.0352, -6.8867], [107.0329, -6.8737], [107.0005, -6.8405], [106.9929, -6.8047], [106.9583, -6.7614], [106.947, -6.7608], [106.9345, -6.7685], [106.921, -6.7866], [106.8998, -6.7881], [106.8446, -6.7759], [106.8313, -6.767], [106.8144, -6.7687], [106.8013, -6.7629], [106.7932, -6.7526], [106.7776, -6.7548], [106.7578, -6.7275], [106.7406, -6.7153], [106.7252, -6.7184], [106.7027, -6.7334], [106.6938, -6.7448], [106.6829, -6.7459], [106.6732, -6.7316], [106.6675, -6.7366], [106.6591, -6.7318], [106.6561, -6.7477], [106.6317, -6.755], [106.623, -6.749], [106.5991, -6.7488], [106.589, -6.7437], [106.5827, -6.7219], [106.5759, -6.7174], [106.5479, -6.7508], [106.5333, -6.7515], [106.5248, -6.7623]], [[106.9154, -6.8932], [106.9181, -6.9028], [106.9243, -6.8983], [106.9289, -6.9041], [106.9542, -6.9052], [106.9552, -6.9153], [106.9499, -6.9207], [106.9598, -6.9187], [106.9557, -6.9585], [106.9466, -6.9691], [106.9314, -6.9654], [106.9117, -6.9784], [106.8972, -6.9782], [106.8958, -6.972], [106.8888, -6.9694], [106.8864, -6.974], [106.8752, -6.9762], [106.8713, -6.9724], [106.8738, -6.963], [106.8866, -6.956], [106.9009, -6.9581], [106.9116, -6.9521], [106.9074, -6.9385], [106.9006, -6.9335], [106.9009, -6.914], [106.9062, -6.9149], [106.9101, -6.894], [106.9154, -6.8932]]]}}, {"type": "Feature", "properties": {"osm_type": "relation", "osm_id": 201611450, "name": "Sumedang", "admin_level": "6", "kind": "subdivision_2", "parent_osm_id": 2388361, "parent_name": "West Java", "parent_iso": "ID-JB"}, "geometry": {"type": "Polygon", "coordinates": [[[107.9147, -6.9528], [107.9159, -6.9457], [107.9261, -6.9487], [107.9314, -6.9559], [107.9429, -6.9531], [107.9466, -6.9578], [107.9665, -6.9587], [107.9907, -6.982], [108.0232, -6.9818], [108.0305, -6.9916], [108.0427, -6.9966], [108.0479, -6.9927], [108.0646, -6.995], [108.0738, -6.9821], [108.0877, -6.9805], [108.1001, -7.0195], [108.1305, -7.0414], [108.1433, -7.0317], [108.165, -6.9985], [108.171, -6.9687], [108.1809, -6.9561], [108.199, -6.947], [108.2051, -6.9372], [108.2198, -6.928], [108.2114, -6.9152], [108.2161, -6.9027], [108.2099, -6.9066], [108.2145, -6.8892], [108.2064, -6.8931], [108.1942, -6.8862], [108.1993, -6.8718], [108.194, -6.8638], [108.1895, -6.8654], [108.1888, -6.853], [108.1798, -6.8523], [108.1796, -6.8338], [108.1667, -6.8297], [108.1648, -6.8353], [108.1595, -6.8258], [108.1605, -6.8098], [108.1528, -6.8026], [108.1558, -6.7965], [108.1652, -6.7971], [108.1648, -6.7888], [108.1696, -6.7871], [108.1636, -6.7739], [108.1643, -6.7614], [108.1493, -6.7595], [108.1518, -6.7449], [108.1637, -6.7293], [108.1588, -6.7206], [108.1529, -6.7231], [108.1381, -6.7073], [108.1259, -6.7038], [108.1238, -6.7074], [108.1225, -6.7035], [108.1181, -6.7066], [108.1079, -6.6876], [108.1019, -6.6877], [108.0919, -6.6727], [108.0688, -6.6657], [108.07, -6.6571], [108.0539, -6.6531], [108.0505, -6.6382], [108.0378, -6.6415], [108.0312, -6.6385], [108.0348, -6.6546], [108.0287, -6.6564], [108.0256, -6.6778], [107.9966, -6.6672], [107.9888, -6.6696], [107.9702, -6.6388], [107.9403, -6.6256], [107.9352, -6.6148], [107.9271, -6.6141], [107.9091, -6.596], [107.8556, -6.5789], [107.8479, -6.5862], [107.8568, -6.5999], [107.8507, -6.607], [107.855, -6.6254], [107.8489, -6.6424], [107.8518, -6.6524], [107.8409, -6.6652], [107.8181, -6.6697], [107.8142, -6.674], [107.8193, -6.6771], [107.8099, -6.6775], [107.8218, -6.6864], [107.8292, -6.684], [107.8404, -6.6917], [107.8334, -6.7173], [107.8396, -6.7228], [107.8364, -6.7382], [107.8419, -6.7584], [107.8374, -6.7761], [107.8256, -6.7823], [107.8167, -6.7997], [107.8041, -6.8087], [107.7977, -6.8023], [107.7764, -6.8012], [107.75, -6.8128], [107.7446, -6.828], [107.7408, -6.855], [107.7445, -6.8764], [107.7604, -6.8971], [107.759, -6.9439], [107.7539, -6.9512], [107.7552, -6.956], [107.7599, -6.9528], [107.763, -6.9563], [107.7649, -6.9522], [107.7742, -6.9595], [107.774, -6.956], [107.7814, -6.9551], [107.8009, -6.9648], [107.8265, -6.9672], [107.829, -6.972], [107.8313, -6.9645], [107.8448, -6.97], [107.8621, -6.9678], [107.8802, -6.9611], [107.8899, -6.9639], [107.9002, -6.953], [107.9147, -6.9528]]]}}, {"type": "Feature", "properties": {"osm_type": "relation", "osm_id": 681863845, "name": "Tasikmalaya", "admin_level": "6", "kind": "subdivision_2", "parent_osm_id": 2388361, "parent_name": "West Java", "parent_iso": "ID-JB"}, "geometry": {"type": "Polygon", "coordinates": [[[108.313, -7.3396], [108.3091, -7.3376], [108.3011, -7.3444], [108.2922, -7.3407], [108.2821, -7.3515], [108.2835, -7.357], [108.2936, -7.3587], [108.2767, -7.3718], [108.2637, -7.3742], [108.2724, -7.3746], [108.2725, -7.3802], [108.2825, -7.3852], [108.2711, -7.3936], [108.278, -7.3995], [108.2778, -7.4048], [108.2737, -7.4047], [108.2763, -7.417], [108.2713, -7.4256], [108.2673, -7.423], [108.2655, -7.434], [108.2291, -7.4255], [108.2308, -7.4307], [108.2128, -7.435], [108.2009, -7.4499], [108.1872, -7.4463], [108.1936, -7.439], [108.1873, -7.4361], [108.1861, -7.4144], [108.1809, -7.4089], [108.1864, -7.4034], [108.1855, -7.3952], [108.1742, -7.3928], [108.1723, -7.3768], [108.1634, -7.3632], [108.1682, -7.3467], [108.1526, -7.335], [108.1533, -7.3259], [108.1603, -7.3239], [108.1614, -7.3181], [108.1605, -7.3034], [108.1497, -7.2877], [108.1761, -7.2886], [108.1814, -7.2789], [108.1789, -7.2721], [108.1931, -7.2693], [108.1885, -7.2552], [108.1949, -7.2505], [108.1941, -7.2338], [108.1989, -7.2316], [108.1953, -7.2059], [108.1996, -7.1897], [108.1921, -7.1874], [108.1949, -7.1745], [108.1907, -7.1675], [108.2031, -7.1522], [108.2011, -7.1377], [108.2137, -7.1347], [108.2198, -7.1235], [108.2133, -7.1114], [108.2147, -7.1043], [108.219, -7.1041], [108.2154, -7.0987], [108.2219, -7.0859], [108.2134, -7.0816], [108.209, -7.0877], [108.204, -7.0772], [108.1909, -7.0701], [108.1762, -7.0677], [108.1621, -7.0741], [108.1459, -7.0479], [108.1335, -7.0392], [108.1291, -7.0408], [108.1361, -7.0605], [108.118, -7.0779], [108.126, -7.102], [108.1225, -7.1146], [108.1137, -7.1026], [108.099, -7.1029], [108.0858, -7.109], [108.068, -7.1301], [108.0807, -7.1429], [108.0845, -7.1621], [108.0699, -7.1771], [108.067, -7.1872], [108.0751, -7.1982], [108.0688, -7.2007], [108.0624, -7.2232], [108.0186, -7.2309], [108.0135, -7.2411], [107.9948, -7.2528], [107.9945, -7.2586], [107.9824, -7.2621], [107.9794, -7.2729], [107.932, -7.2824], [107.9226, -7.2888], [107.9268, -7.3018], [107.9316, -7.303], [107.9285, -7.3126], [107.9402, -7.3162], [107.9463, -7.3305], [107.938, -7.3307], [107.9293, -7.3386], [107.9283, -7.3506], [107.9045, -7.3626], [107.9338, -7.3884], [107.9362, -7.3999], [107.949, -7.4015], [107.9419, -7.4096], [107.9514, -7.4217], [107.949, -7.4456], [107.9533, -7.4602], [107.9468, -7.4734], [107.9504, -7.4867], [107.9418, -7.5025], [107.9466, -7.5418], [107.9314, -7.5605], [107.9405, -7.5698], [107.9406, -7.5814], [107.917, -7.597], [107.9187, -7.6133], [107.9252, -7.6179], [107.9258, -7.6342], [107.9211, -7.637], [107.9258, -7.6427], [107.9233, -7.652], [107.9303, -7.6573], [107.9261, -7.6621], [107.9284, -7.666], [107.9235, -7.6647], [107.9278, -7.6714], [107.9236, -7.6767], [107.9313, -7.686], [107.9097, -7.7317], [108.0059, -7.7441], [108.0829, -7.7727], [108.1023, -7.7718], [108.1242, -7.7806], [108.1336, -7.7757], [108.1441, -7.7856], [108.2999, -7.8149], [108.3026, -7.8112], [108.3405, -7.8166], [108.3394, -7.8097], [108.3293, -7.8039], [108.3303, -7.7978], [108.3178, -7.7863], [108.325, -7.7786], [108.3236, -7.7467], [108.3166, -7.7422], [108.3127, -7.7244], [108.3217, -7.723], [108.312, -7.7187], [108.3155, -7.7124], [108.3237, -7.7201], [108.3319, -7.7126], [108.3297, -7.7096], [108.3238, -7.7128], [108.3235, -7.7022], [108.3143, -7.6904], [108.3245, -7.6931], [108.3237, -7.683], [108.3293, -7.6907], [108.3364, -7.6913], [108.3319, -7.6853], [108.3403, -7.6797], [108.3548, -7.6837], [108.3542, -7.6722], [108.3662, -7.6586], [108.3606, -7.6548], [108.3617, -7.6454], [108.3551, -7.6446], [108.3534, -7.6387], [108.3612, -7.6004], [108.3566, -7.5957], [108.3536, -7.5622], [108.3341, -7.5489], [108.3275, -7.5508], [108.3365, -7.5283], [108.3331, -7.5135], [108.3518, -7.5003], [108.352, -7.4931], [108.3736, -7.4786], [108.4006, -7.4782], [108.4104, -7.4981], [108.4173, -7.4882], [108.4295, -7.5005], [108.4425, -7.4887], [108.4212, -7.4879], [108.4264, -7.4741], [108.4203, -7.4225], [108.4098, -7.4223], [108.3953, -7.4113], [108.4007, -7.3899], [108.4117, -7.3769], [108.4055, -7.3608], [108.3903, -7.3619], [108.3804, -7.3559], [108.3726, -7.3599], [108.3624, -7.3525], [108.3414, -7.3565], [108.3373, -7.3459], [108.3298, -7.3502], [108.3241, -7.3403], [108.313, -7.3396]]]}}, {"type": "Feature", "properties": {"osm_type": "relation", "osm_id": 562560154, "name": "Waduk Cirata", "admin_level": "6", "kind": "subdivision_2", "parent_osm_id": 2388361, "parent_name": "West Java", "parent_iso": "ID-JB"}, "geometry": {"type": "Polygon", "coordinates": [[[107.3678, -6.7007], [107.3359, -6.6874], [107.3332, -6.6933], [107.3293, -6.6898], [107.3254, -6.6927], [107.3264, -6.7092], [107.3195, -6.7202], [107.314, -6.7177], [107.3155, -6.7142], [107.3119, -6.7207], [107.3064, -6.7207], [107.3055, -6.7164], [107.3015, -6.7207], [107.2972, -6.7139], [107.3018, -6.7115], [107.3006, -6.7073], [107.2955, -6.7082], [107.2931, -6.7034], [107.2924, -6.709], [107.2898, -6.7032], [107.2804, -6.7], [107.2878, -6.7053], [107.284, -6.7054], [107.2843, -6.7168], [107.2693, -6.7084], [107.2598, -6.7159], [107.2572, -6.7101], [107.2517, -6.7128], [107.2503, -6.726], [107.258, -6.7302], [107.2545, -6.7341], [107.2617, -6.732], [107.2605, -6.7354], [107.2703, -6.7352], [107.2755, -6.7406], [107.2706, -6.7443], [107.2637, -6.7384], [107.2591, -6.7436], [107.2535, -6.7385], [107.2587, -6.7482], [107.2501, -6.7557], [107.256, -6.7548], [107.2606, -6.7434], [107.266, -6.7418], [107.2711, -6.7529], [107.2843, -6.7515], [107.2611, -6.7562], [107.2616, -6.7671], [107.2582, -6.7683], [107.2623, -6.7744], [107.259, -6.7734], [107.2511, -6.7891], [107.2504, -6.8057], [107.2531, -6.7887], [107.2636, -6.7724], [107.2736, -6.7678], [107.2767, -6.7744], [107.2821, -6.7747], [107.2794, -6.7838], [107.2829, -6.7796], [107.2881, -6.7814], [107.2901, -6.7901], [107.2957, -6.788], [107.3134, -6.8008], [107.3117, -6.8096], [107.3192, -6.8146], [107.3165, -6.823], [107.3193, -6.8158], [107.3229, -6.8171], [107.3145, -6.8032], [107.3187, -6.8018], [107.302, -6.793], [107.299, -6.7868], [107.2924, -6.7873], [107.2955, -6.7783], [107.2885, -6.7766], [107.2994, -6.7748], [107.2934, -6.7639], [107.2959, -6.7591], [107.2983, -6.7638], [107.3012, -6.7499], [107.2951, -6.7428], [107.3034, -6.7464], [107.3007, -6.7606], [107.3081, -6.75], [107.3144, -6.7533], [107.3067, -6.7563], [107.305, -6.7622], [107.3233, -6.756], [107.3254, -6.7648], [107.316, -6.7643], [107.3239, -6.7715], [107.3302, -6.7695], [107.3271, -6.7644], [107.3337, -6.7703], [107.3289, -6.761], [107.3349, -6.767], [107.3391, -6.7653], [107.3324, -6.7624], [107.3346, -6.7551], [107.3343, -6.7582], [107.3448, -6.7588], [107.3323, -6.7553], [107.3323, -6.7508], [107.3478, -6.7579], [107.3522, -6.7543], [107.3452, -6.7559], [107.3304, -6.7448], [107.3269, -6.737], [107.3364, -6.7353], [107.327, -6.7271], [107.3354, -6.7246], [107.3351, -6.7191], [107.3429, -6.719], [107.3427, -6.6997], [107.3525, -6.6969], [107.3605, -6.7026], [107.3678, -6.7007]]]}}]}