{"type": "FeatureCollection", "parent": {"osm_id": 2388665, "name": "Gorontalo", "admin_level": "4", "kind": "subdivision_1", "child_kind": "subdivision_2", "iso": "ID-GO"}, "features": [{"type": "Feature", "properties": {"osm_type": "relation", "osm_id": 431924407, "name": "Boalemo", "admin_level": "6", "kind": "subdivision_2", "parent_osm_id": 2388665, "parent_name": "Gorontalo", "parent_iso": "ID-GO"}, "geometry": {"type": "MultiPolygon", "coordinates": [[[[122.2321, 0.4341], [122.2253, 0.4319], [122.2319, 0.4306], [122.2321, 0.4341]]], [[[122.331, 0.4542], [122.3309, 0.4629], [122.331, 0.4542]]], [[[122.3492, 0.4636], [122.3499, 0.4679], [122.3465, 0.4664], [122.3492, 0.4636]]], [[[122.3638, 0.4749], [122.3549, 0.4679], [122.3633, 0.4702], [122.3638, 0.4749]]], [[[122.1297, 0.4802], [122.1247, 0.4815], [122.126, 0.477], [122.1297, 0.4802]]], [[[122.3556, 0.4856], [122.3544, 0.4851], [122.355, 0.4828], [122.3563, 0.4843], [122.3556, 0.4856]]], [[[122.5299, 0.5008], [122.5213, 0.4966], [122.5287, 0.4885], [122.5357, 0.4942], [122.5299, 0.5008]]], [[[122.3866, 0.5008], [122.385, 0.5], [122.3857, 0.4987], [122.387, 0.4991], [122.3866, 0.5008]]], [[[122.4452, 0.502], [122.4401, 0.5], [122.4437, 0.4945], [122.4517, 0.4962], [122.4506, 0.5013], [122.4452, 0.502]]], [[[122.2481, 0.914], [122.2094, 0.8993], [122.1992, 0.8996], [122.1833, 0.9113], [122.1699, 0.9135], [122.1594, 0.9059], [122.1429, 0.9121], [122.1322, 0.9056], [122.1174, 0.9054], [122.1148, 0.9215], [122.1054, 0.9332], [122.0841, 0.9207], [122.0769, 0.904], [122.0881, 0.8921], [122.0818, 0.8436], [122.09, 0.8229], [122.1148, 0.8187], [122.1345, 0.5955], [122.1299, 0.5571], [122.1186, 0.5429], [122.1195, 0.4969], [122.1475, 0.481], [122.1519, 0.4678], [122.1481, 0.4631], [122.1527, 0.4615], [122.155, 0.4706], [122.1694, 0.4687], [122.1913, 0.4798], [122.2022, 0.4741], [122.2204, 0.4844], [122.2281, 0.4799], [122.2336, 0.4875], [122.2381, 0.484], [122.2338, 0.4797], [122.256, 0.4858], [122.2614, 0.479], [122.267, 0.4805], [122.2688, 0.474], [122.2751, 0.4735], [122.2758, 0.4802], [122.2815, 0.475], [122.2798, 0.4806], [122.2936, 0.481], [122.2847, 0.4867], [122.2993, 0.484], [122.3048, 0.491], [122.316, 0.49], [122.3122, 0.4939], [122.3177, 0.4948], [122.318, 0.5084], [122.3243, 0.4924], [122.3326, 0.5096], [122.3344, 0.5013], [122.3383, 0.5077], [122.3408, 0.5037], [122.3352, 0.4975], [122.3384, 0.4992], [122.3384, 0.4923], [122.3398, 0.4969], [122.3438, 0.4931], [122.3438, 0.4977], [122.3522, 0.4931], [122.3477, 0.5021], [122.3514, 0.509], [122.364, 0.5068], [122.3618, 0.5041], [122.366, 0.502], [122.3798, 0.5189], [122.3883, 0.5132], [122.3887, 0.5209], [122.3955, 0.5168], [122.4027, 0.5223], [122.4011, 0.5157], [122.4105, 0.5189], [122.4058, 0.5165], [122.4055, 0.5094], [122.4147, 0.5145], [122.4174, 0.5114], [122.4136, 0.5019], [122.4234, 0.5057], [122.4375, 0.5], [122.4397, 0.5059], [122.4473, 0.5064], [122.4406, 0.5115], [122.4469, 0.5177], [122.4498, 0.5078], [122.4694, 0.5059], [122.4625, 0.5035], [122.4653, 0.5015], [122.4758, 0.5026], [122.4723, 0.5062], [122.4767, 0.5069], [122.4815, 0.5015], [122.4925, 0.501], [122.496, 0.5078], [122.5021, 0.5051], [122.5124, 0.5133], [122.5056, 0.5062], [122.513, 0.498], [122.5179, 0.4996], [122.5133, 0.5064], [122.516, 0.5128], [122.52, 0.5017], [122.5285, 0.5067], [122.5328, 0.5007], [122.5442, 0.5081], [122.547, 0.505], [122.5403, 0.4946], [122.5458, 0.4903], [122.5578, 0.5003], [122.5498, 0.5086], [122.5525, 0.5143], [122.5665, 0.5141], [122.57, 0.5086], [122.5606, 0.4997], [122.5782, 0.4931], [122.5897, 0.4963], [122.595, 0.5032], [122.5852, 0.5113], [122.5955, 0.5074], [122.6002, 0.513], [122.6055, 0.5054], [122.5922, 0.4958], [122.609, 0.4879], [122.6198, 0.4979], [122.6181, 0.4897], [122.6356, 0.4858], [122.6435, 0.4762], [122.6534, 0.486], [122.6555, 0.4947], [122.6474, 0.5213], [122.637, 0.5347], [122.6294, 0.5342], [122.6333, 0.5613], [122.6395, 0.5665], [122.6278, 0.5836], [122.6315, 0.5893], [122.6174, 0.5966], [122.6116, 0.6072], [122.602, 0.6312], [122.6066, 0.6325], [122.6039, 0.6408], [122.5954, 0.639], [122.6015, 0.6497], [122.595, 0.6478], [122.598, 0.6512], [122.5943, 0.6569], [122.5883, 0.6533], [122.5862, 0.6626], [122.5799, 0.6558], [122.5784, 0.6624], [122.569, 0.6602], [122.5666, 0.6646], [122.572, 0.6648], [122.563, 0.6729], [122.5669, 0.6766], [122.5469, 0.6915], [122.5463, 0.7008], [122.5403, 0.6944], [122.542, 0.7008], [122.5213, 0.7046], [122.5192, 0.7125], [122.5142, 0.7068], [122.511, 0.7146], [122.5068, 0.7088], [122.5053, 0.7185], [122.4971, 0.7196], [122.4934, 0.7284], [122.5015, 0.7355], [122.4933, 0.74], [122.4895, 0.735], [122.4856, 0.7418], [122.4817, 0.735], [122.4809, 0.7474], [122.4776, 0.7429], [122.4645, 0.7582], [122.453, 0.7543], [122.4436, 0.7653], [122.4302, 0.7555], [122.4102, 0.7641], [122.4086, 0.7579], [122.4023, 0.7636], [122.3986, 0.7611], [122.3947, 0.773], [122.3907, 0.7707], [122.3805, 0.7808], [122.3586, 0.7826], [122.3407, 0.7949], [122.3163, 0.7962], [122.3017, 0.7893], [122.3026, 0.7862], [122.2839, 0.7845], [122.2825, 0.7797], [122.2723, 0.7811], [122.2744, 0.7848], [122.2678, 0.7844], [122.2558, 0.7949], [122.2512, 0.791], [122.2528, 0.8013], [122.245, 0.8132], [122.2539, 0.8251], [122.2494, 0.8281], [122.2565, 0.8361], [122.2547, 0.8393], [122.2642, 0.8442], [122.2476, 0.8536], [122.2554, 0.863], [122.2448, 0.9006], [122.2481, 0.914]]]]}}, {"type": "Feature", "properties": {"osm_type": "relation", "osm_id": 501983302, "name": "Bone Bolango", "admin_level": "6", "kind": "subdivision_2", "parent_osm_id": 2388665, "parent_name": "Gorontalo", "parent_iso": "ID-GO"}, "geometry": {"type": "Polygon", "coordinates": [[[123.5334, 0.5769], [123.5207, 0.5843], [123.5091, 0.5844], [123.4878, 0.6014], [123.4922, 0.6191], [123.4862, 0.6265], [123.429, 0.6414], [123.3842, 0.6397], [123.3594, 0.6514], [123.3422, 0.6796], [123.3224, 0.6985], [123.2736, 0.6982], [123.252, 0.7176], [123.2471, 0.717], [123.2514, 0.7536], [123.2274, 0.7628], [123.168, 0.7532], [123.1599, 0.7761], [123.1342, 0.7652], [123.1255, 0.7722], [123.1232, 0.7879], [123.0991, 0.7957], [123.0847, 0.8058], [123.0699, 0.8031], [123.0636, 0.7806], [123.0781, 0.7732], [123.0736, 0.7637], [123.0738, 0.7421], [123.0788, 0.728], [123.0756, 0.7044], [123.0806, 0.695], [123.0366, 0.6282], [123.074, 0.6082], [123.0697, 0.6072], [123.0611, 0.5891], [123.091, 0.5803], [123.0892, 0.5524], [123.0792, 0.523], [123.0876, 0.509], [123.1002, 0.5029], [123.0961, 0.4855], [123.0864, 0.4782], [123.0999, 0.4755], [123.1217, 0.4564], [123.1254, 0.4433], [123.1319, 0.4409], [123.1381, 0.4246], [123.1463, 0.4227], [123.1445, 0.4156], [123.1524, 0.4137], [123.1565, 0.4037], [123.1945, 0.3938], [123.2167, 0.372], [123.2159, 0.3652], [123.222, 0.3637], [123.2281, 0.3485], [123.2466, 0.3417], [123.2676, 0.3223], [123.2768, 0.3241], [123.279, 0.3188], [123.292, 0.3157], [123.2958, 0.3205], [123.3452, 0.3063], [123.3587, 0.3146], [123.4159, 0.3118], [123.4354, 0.317], [123.4592, 0.3376], [123.4658, 0.3368], [123.4638, 0.3294], [123.477, 0.317], [123.4823, 0.3219], [123.4803, 0.3537], [123.4942, 0.3574], [123.4916, 0.3657], [123.4979, 0.3821], [123.53, 0.4085], [123.5399, 0.426], [123.5501, 0.4335], [123.5474, 0.4429], [123.5259, 0.4536], [123.5236, 0.463], [123.523, 0.4904], [123.5452, 0.4968], [123.5523, 0.5107], [123.5473, 0.523], [123.5279, 0.5409], [123.5334, 0.5769]]]}}, {"type": "Feature", "properties": {"osm_type": "relation", "osm_id": 256888663, "name": "Gorontalo", "admin_level": "6", "kind": "subdivision_2", "parent_osm_id": 2388665, "parent_name": "Gorontalo", "parent_iso": "ID-GO"}, "geometry": {"type": "Polygon", "coordinates": [[[122.6474, 0.5213], [122.6518, 0.5151], [122.6739, 0.512], [122.6849, 0.5044], [122.6925, 0.4732], [122.7008, 0.4813], [122.7064, 0.4788], [122.7235, 0.4854], [122.7266, 0.4825], [122.7376, 0.4863], [122.7435, 0.4806], [122.75, 0.4847], [122.7705, 0.4834], [122.7862, 0.4946], [122.8043, 0.4951], [122.8156, 0.4889], [122.8222, 0.4981], [122.8235, 0.4947], [122.8642, 0.4924], [122.8882, 0.4858], [122.9036, 0.4928], [122.9133, 0.4864], [122.918, 0.4924], [122.9293, 0.4859], [122.9616, 0.4933], [122.989, 0.4848], [123.0001, 0.4954], [123.0034, 0.4895], [123.0103, 0.489], [123.0178, 0.4966], [123.0275, 0.4914], [123.0352, 0.4978], [123.0423, 0.4961], [123.0446, 0.5003], [123.039, 0.5133], [123.0257, 0.523], [123.0119, 0.5262], [122.9968, 0.5424], [122.9949, 0.5519], [123.0065, 0.5548], [123.0306, 0.5468], [123.0245, 0.5583], [123.027, 0.5637], [123.0391, 0.5756], [123.0438, 0.5742], [123.0533, 0.588], [123.0611, 0.5891], [123.0697, 0.6072], [123.074, 0.6082], [123.0366, 0.6282], [123.0806, 0.695], [123.0756, 0.7044], [123.0788, 0.728], [123.0738, 0.7421], [123.0736, 0.7637], [123.0781, 0.7732], [123.0636, 0.7806], [123.0699, 0.8031], [123.0385, 0.7884], [123.0373, 0.7823], [123.0256, 0.7814], [123.0143, 0.7908], [122.9974, 0.7691], [122.9851, 0.7625], [122.9786, 0.7465], [122.9788, 0.7306], [122.9672, 0.7163], [122.9525, 0.7113], [122.9311, 0.7125], [122.9259, 0.6937], [122.9166, 0.6896], [122.9006, 0.6995], [122.9073, 0.744], [122.9018, 0.7584], [122.8765, 0.7651], [122.8446, 0.7624], [122.8212, 0.7521], [122.8057, 0.7518], [122.7958, 0.7619], [122.7778, 0.7578], [122.7727, 0.7664], [122.7557, 0.7647], [122.7304, 0.7847], [122.7095, 0.7916], [122.699, 0.8095], [122.6574, 0.8346], [122.6447, 0.8485], [122.6091, 0.8524], [122.5998, 0.8478], [122.5958, 0.8628], [122.5825, 0.8723], [122.5531, 0.875], [122.5359, 0.8711], [122.5112, 0.8842], [122.4888, 0.8851], [122.4737, 0.8775], [122.4562, 0.8881], [122.4186, 0.8852], [122.4008, 0.8964], [122.3599, 0.9068], [122.3512, 0.9221], [122.3343, 0.9211], [122.3132, 0.931], [122.3055, 0.9281], [122.2953, 0.9126], [122.2792, 0.9117], [122.26, 0.9256], [122.2553, 0.9231], [122.2448, 0.9006], [122.2549, 0.8737], [122.251, 0.8695], [122.2554, 0.863], [122.2476, 0.8536], [122.2642, 0.8442], [122.2547, 0.8393], [122.2565, 0.8361], [122.2494, 0.8281], [122.2539, 0.8251], [122.245, 0.8132], [122.2528, 0.8013], [122.2512, 0.791], [122.2558, 0.7949], [122.2678, 0.7844], [122.2744, 0.7848], [122.2723, 0.7811], [122.2825, 0.7797], [122.2839, 0.7845], [122.3026, 0.7862], [122.3017, 0.7893], [122.3163, 0.7962], [122.3407, 0.7949], [122.3586, 0.7826], [122.3805, 0.7808], [122.3907, 0.7707], [122.3947, 0.773], [122.3986, 0.7611], [122.4023, 0.7636], [122.4086, 0.7579], [122.4102, 0.7641], [122.4302, 0.7555], [122.4436, 0.7653], [122.453, 0.7543], [122.4645, 0.7582], [122.4776, 0.7429], [122.4809, 0.7474], [122.4817, 0.735], [122.4856, 0.7418], [122.4895, 0.735], [122.4933, 0.74], [122.5015, 0.7355], [122.4934, 0.7284], [122.4971, 0.7196], [122.5053, 0.7185], [122.5068, 0.7088], [122.511, 0.7146], [122.5142, 0.7068], [122.5192, 0.7125], [122.5213, 0.7046], [122.542, 0.7008], [122.5403, 0.6944], [122.5463, 0.7008], [122.5469, 0.6915], [122.5669, 0.6766], [122.563, 0.6729], [122.572, 0.6648], [122.5666, 0.6646], [122.569, 0.6602], [122.5784, 0.6624], [122.5799, 0.6558], [122.5862, 0.6626], [122.5883, 0.6533], [122.5943, 0.6569], [122.598, 0.6512], [122.595, 0.6478], [122.6015, 0.6497], [122.5954, 0.639], [122.6039, 0.6408], [122.6066, 0.6325], [122.602, 0.6312], [122.6116, 0.6072], [122.6174, 0.5966], [122.6315, 0.5893], [122.6278, 0.5836], [122.6395, 0.5665], [122.6333, 0.5613], [122.6294, 0.5342], [122.637, 0.5347], [122.6474, 0.5213]]]}}, {"type": "Feature", "properties": {"osm_type": "relation", "osm_id": 202477407, "name": "Gorontalo Utara", "admin_level": "6", "kind": "subdivision_2", "parent_osm_id": 2388665, "parent_name": "Gorontalo", "parent_iso": "ID-GO"}, "geometry": {"type": "MultiPolygon", "coordinates": [[[[122.8069, 0.865], [122.8095, 0.8608], [122.8069, 0.865]]], [[[122.8006, 0.8688], [122.803, 0.8666], [122.8006, 0.8688]]], [[[122.7196, 0.8834], [122.7184, 0.8826], [122.7193, 0.8811], [122.7205, 0.8824], [122.7196, 0.8834]]], [[[122.7412, 0.8854], [122.7386, 0.8852], [122.742, 0.8828], [122.7424, 0.8855], [122.7412, 0.8854]]], [[[122.8578, 0.8996], [122.8523, 0.8968], [122.8565, 0.8941], [122.8806, 0.8896], [122.8841, 0.8781], [122.8783, 0.8645], [122.8956, 0.8544], [122.8982, 0.8678], [122.8895, 0.874], [122.8913, 0.8904], [122.8861, 0.8904], [122.883, 0.8967], [122.8698, 0.8939], [122.8578, 0.8996]]], [[[122.7716, 0.9135], [122.7564, 0.9091], [122.7599, 0.9014], [122.7713, 0.8896], [122.7757, 0.8915], [122.7865, 0.8758], [122.8066, 0.8745], [122.806, 0.8834], [122.8134, 0.8924], [122.7979, 0.8926], [122.7987, 0.8967], [122.7935, 0.8955], [122.788, 0.9035], [122.7779, 0.8995], [122.7766, 0.9097], [122.7716, 0.9135]]], [[[122.5273, 0.9874], [122.5228, 0.9932], [122.5221, 0.9866], [122.5273, 0.9874]]], [[[122.499, 0.992], [122.4958, 0.9923], [122.499, 0.992]]], [[[122.5065, 1.004], [122.5064, 1.0026], [122.5075, 1.0038], [122.5065, 1.004]]], [[[122.4371, 1.0076], [122.4403, 1.003], [122.4371, 1.0076]]], [[[122.2481, 0.914], [122.26, 0.9256], [122.2792, 0.9117], [122.2953, 0.9126], [122.3055, 0.9281], [122.3132, 0.931], [122.3343, 0.9211], [122.3512, 0.9221], [122.3599, 0.9068], [122.4008, 0.8964], [122.4186, 0.8852], [122.4562, 0.8881], [122.4737, 0.8775], [122.4888, 0.8851], [122.5112, 0.8842], [122.5359, 0.8711], [122.5531, 0.875], [122.5825, 0.8723], [122.5958, 0.8628], [122.5998, 0.8478], [122.6091, 0.8524], [122.6447, 0.8485], [122.6574, 0.8346], [122.699, 0.8095], [122.7095, 0.7916], [122.7304, 0.7847], [122.7557, 0.7647], [122.7727, 0.7664], [122.7778, 0.7578], [122.7958, 0.7619], [122.8057, 0.7518], [122.8212, 0.7521], [122.8446, 0.7624], [122.8765, 0.7651], [122.9018, 0.7584], [122.9073, 0.744], [122.9006, 0.6995], [122.9166, 0.6896], [122.9259, 0.6937], [122.9311, 0.7125], [122.9525, 0.7113], [122.9672, 0.7163], [122.9788, 0.7306], [122.9786, 0.7465], [122.9851, 0.7625], [122.9974, 0.7691], [123.0143, 0.7908], [123.0256, 0.7814], [123.0373, 0.7823], [123.0385, 0.7884], [123.0743, 0.8059], [123.0847, 0.8058], [123.0991, 0.7957], [123.1232, 0.7879], [123.1255, 0.7722], [123.1342, 0.7652], [123.1599, 0.7761], [123.168, 0.7532], [123.2274, 0.7628], [123.2514, 0.7536], [123.2686, 0.7681], [123.2744, 0.7878], [123.2676, 0.7945], [123.2714, 0.8029], [123.2529, 0.8161], [123.2434, 0.8308], [123.2316, 0.834], [123.2061, 0.8568], [123.1785, 0.8619], [123.1757, 0.8684], [123.1638, 0.8742], [123.1517, 0.871], [123.1497, 0.878], [123.1428, 0.8761], [123.1272, 0.8906], [123.121, 0.8899], [123.1198, 0.9037], [123.1132, 0.908], [123.1156, 0.9194], [123.1109, 0.9207], [123.1144, 0.9266], [123.0945, 0.9302], [123.0912, 0.9247], [123.0986, 0.9208], [123.0981, 0.9167], [123.087, 0.9066], [123.0799, 0.9159], [123.0854, 0.9231], [123.0839, 0.9302], [123.0751, 0.917], [123.0671, 0.9166], [123.0648, 0.9246], [123.0582, 0.9196], [123.0536, 0.9344], [123.05, 0.9332], [123.0469, 0.9396], [123.0351, 0.9314], [123.0198, 0.9331], [123.0122, 0.9441], [122.995, 0.9469], [123.0024, 0.9567], [122.9862, 0.9679], [122.9457, 0.9646], [122.9389, 0.9581], [122.943, 0.9518], [122.94, 0.945], [122.9458, 0.9378], [122.9764, 0.9403], [122.9754, 0.9363], [122.9655, 0.9321], [122.9567, 0.9197], [122.9503, 0.9229], [122.9459, 0.9132], [122.9509, 0.8941], [122.9308, 0.8849], [122.9237, 0.875], [122.9264, 0.8686], [122.9219, 0.8674], [122.9213, 0.8606], [122.9126, 0.855], [122.9062, 0.8567], [122.9055, 0.8524], [122.898, 0.8543], [122.8967, 0.845], [122.8802, 0.8308], [122.8611, 0.8276], [122.8587, 0.8091], [122.8519, 0.8087], [122.8486, 0.8006], [122.8442, 0.8028], [122.8391, 0.8223], [122.8324, 0.8183], [122.8241, 0.8244], [122.8233, 0.8395], [122.8229, 0.8327], [122.8182, 0.8314], [122.81, 0.8421], [122.8094, 0.8347], [122.7966, 0.8346], [122.7895, 0.8496], [122.8038, 0.8472], [122.7742, 0.8782], [122.7661, 0.8737], [122.7663, 0.8617], [122.7601, 0.8666], [122.7558, 0.8644], [122.7526, 0.8752], [122.7395, 0.8806], [122.7291, 0.8685], [122.7266, 0.8746], [122.7219, 0.8671], [122.7131, 0.8673], [122.7156, 0.8814], [122.7224, 0.8867], [122.7115, 0.8921], [122.6985, 0.8891], [122.6924, 0.8973], [122.6881, 0.8933], [122.664, 0.9345], [122.6579, 0.9339], [122.6568, 0.942], [122.6496, 0.9488], [122.6397, 0.9414], [122.6293, 0.9552], [122.6221, 0.9545], [122.6242, 0.964], [122.6147, 0.9566], [122.6145, 0.9455], [122.6095, 0.9442], [122.6018, 0.952], [122.5601, 0.9603], [122.5514, 0.9658], [122.5521, 0.9713], [122.5391, 0.9697], [122.4927, 0.9878], [122.484, 0.9993], [122.4758, 1.0002], [122.4701, 1.0102], [122.4716, 1.0165], [122.4625, 1.0168], [122.4643, 1.0229], [122.4523, 1.0318], [122.4395, 1.0214], [122.4447, 1.0177], [122.4404, 1.0127], [122.4449, 0.9989], [122.4219, 0.9914], [122.4109, 0.9941], [122.4076, 1.006], [122.4027, 1.0036], [122.3936, 1.0136], [122.3894, 1.0032], [122.3832, 1.0039], [122.3739, 0.9942], [122.3643, 0.9951], [122.3598, 1.0101], [122.35, 1.0143], [122.3511, 1.0204], [122.336, 1.0312], [122.3355, 1.0406], [122.3288, 1.0368], [122.3304, 1.0212], [122.3187, 1.0199], [122.3152, 1.0058], [122.3014, 1.0026], [122.2917, 1.0081], [122.2841, 1.0045], [122.2681, 1.0131], [122.2616, 1.0123], [122.252, 1.0016], [122.2413, 1.01], [122.2367, 1.0062], [122.2376, 0.9939], [122.2268, 0.9934], [122.2202, 1.0016], [122.2282, 1.0138], [122.2222, 1.025], [122.2093, 1.0206], [122.1928, 1.0334], [122.1953, 1.0384], [122.1892, 1.0393], [122.1755, 1.0363], [122.1753, 1.0302], [122.1703, 1.0278], [122.1606, 1.0299], [122.1413, 1.0184], [122.1255, 1.0182], [122.123, 1.0123], [122.1131, 1.0131], [122.0927, 0.9998], [122.0844, 0.9986], [122.0759, 1.0062], [122.0423, 0.9895], [122.0231, 0.9581], [121.9939, 0.9422], [121.9833, 0.9265], [121.9865, 0.9184], [121.9824, 0.9073], [121.9993, 0.8901], [122.0389, 0.8884], [122.0579, 0.9012], [122.0793, 0.9055], [122.0841, 0.9207], [122.1054, 0.9332], [122.1148, 0.9215], [122.1174, 0.9054], [122.1322, 0.9056], [122.1429, 0.9121], [122.1594, 0.9059], [122.1699, 0.9135], [122.1833, 0.9113], [122.1992, 0.8996], [122.2094, 0.8993], [122.2481, 0.914]]]]}}, {"type": "Feature", "properties": {"osm_type": "relation", "osm_id": 579731098, "name": "Kota Gorontalo", "admin_level": "6", "kind": "subdivision_2", "parent_osm_id": 2388665, "parent_name": "Gorontalo", "parent_iso": "ID-GO"}, "geometry": {"type": "Polygon", "coordinates": [[[123.0611, 0.5891], [123.0533, 0.588], [123.0438, 0.5742], [123.0391, 0.5756], [123.027, 0.5637], [123.0245, 0.5583], [123.0306, 0.5468], [123.0065, 0.5548], [122.9949, 0.5519], [122.9968, 0.5424], [123.0119, 0.5262], [123.0257, 0.523], [123.039, 0.5133], [123.0473, 0.4905], [123.049, 0.5019], [123.059, 0.5074], [123.0665, 0.5292], [123.0629, 0.5054], [123.0854, 0.4868], [123.0869, 0.4799], [123.0961, 0.4855], [123.1002, 0.5029], [123.0876, 0.509], [123.0792, 0.523], [123.0892, 0.5524], [123.091, 0.5803], [123.0611, 0.5891]]]}}, {"type": "Feature", "properties": {"osm_type": "relation", "osm_id": 536953677, "name": "Pohuwato", "admin_level": "6", "kind": "subdivision_2", "parent_osm_id": 2388665, "parent_name": "Gorontalo", "parent_iso": "ID-GO"}, "geometry": {"type": "MultiPolygon", "coordinates": [[[[121.4254, 0.4124], [121.4194, 0.4148], [121.4254, 0.4124]]], [[[121.4432, 0.4153], [121.4471, 0.4186], [121.4432, 0.4153]]], [[[121.5009, 0.4375], [121.504, 0.4354], [121.5009, 0.4375]]], [[[121.5163, 0.4348], [121.52, 0.4403], [121.5163, 0.4348]]], [[[121.967, 0.442], [121.9715, 0.443], [121.9709, 0.4473], [121.967, 0.442]]], [[[121.9814, 0.4484], [121.9834, 0.4436], [121.9814, 0.4484]]], [[[121.667, 0.4554], [121.6655, 0.4588], [121.667, 0.4554]]], [[[121.5591, 0.4594], [121.5567, 0.4635], [121.5591, 0.4594]]], [[[121.5306, 0.4764], [121.531, 0.4778], [121.5294, 0.4772], [121.5306, 0.4764]]], [[[122.1114, 0.4756], [122.1035, 0.4791], [122.1013, 0.4742], [122.1129, 0.4726], [122.1114, 0.4756]]], [[[121.5615, 0.4859], [121.5606, 0.4734], [121.5646, 0.4838], [121.5615, 0.4859]]], [[[121.5128, 0.4865], [121.5108, 0.4836], [121.5128, 0.4865]]], [[[121.6354, 0.4859], [121.6324, 0.4816], [121.6384, 0.4832], [121.6354, 0.4859]]], [[[121.5835, 0.4849], [121.5796, 0.4857], [121.5803, 0.4816], [121.5872, 0.4833], [121.5835, 0.4849]]], [[[121.7161, 0.4867], [121.7161, 0.4879], [121.7143, 0.4879], [121.7146, 0.4864], [121.7161, 0.4867]]], [[[122.1202, 0.4902], [122.1169, 0.4857], [122.1225, 0.487], [122.1202, 0.4902]]], [[[121.6255, 0.4898], [121.6205, 0.4891], [121.6228, 0.4834], [121.6124, 0.4886], [121.6104, 0.4846], [121.6294, 0.4825], [121.6255, 0.4898]]], [[[121.5201, 0.4902], [121.5146, 0.4869], [121.5248, 0.4806], [121.5201, 0.4902]]], [[[121.6365, 0.4907], [121.6329, 0.4906], [121.6365, 0.4907]]], [[[121.5824, 0.5011], [121.5799, 0.4976], [121.5851, 0.4982], [121.5824, 0.5011]]], [[[121.6592, 0.5011], [121.6553, 0.5018], [121.6592, 0.5011]]], [[[121.6695, 0.5059], [121.6682, 0.5057], [121.6704, 0.5049], [121.6695, 0.5059]]], [[[121.5742, 0.5086], [121.5728, 0.5079], [121.5748, 0.5078], [121.5742, 0.5086]]], [[[121.6311, 0.509], [121.6286, 0.5042], [121.6335, 0.5059], [121.6311, 0.509]]], [[[121.6398, 0.5104], [121.6422, 0.5061], [121.6398, 0.5104]]], [[[121.646, 0.5114], [121.6438, 0.5085], [121.6487, 0.505], [121.646, 0.5114]]], [[[121.6615, 0.5075], [121.6574, 0.5124], [121.6615, 0.5075]]], [[[121.6941, 0.5126], [121.6831, 0.5094], [121.6809, 0.4968], [121.6906, 0.4865], [121.7071, 0.4846], [121.707, 0.4993], [121.6941, 0.5126]]], [[[121.6768, 0.5157], [121.6729, 0.5098], [121.6763, 0.5063], [121.6821, 0.5098], [121.6768, 0.5157]]], [[[121.6623, 0.5139], [121.6631, 0.5155], [121.6606, 0.516], [121.6623, 0.5139]]], [[[121.6178, 0.5163], [121.6215, 0.5123], [121.6178, 0.5163]]], [[[121.5534, 0.5134], [121.5569, 0.5166], [121.5534, 0.5134]]], [[[121.5238, 0.519], [121.521, 0.5216], [121.5238, 0.519]]], [[[121.6463, 0.5265], [121.6454, 0.5231], [121.6463, 0.5265]]], [[[121.5259, 0.5383], [121.5236, 0.5318], [121.5259, 0.5383]]], [[[121.5366, 0.5373], [121.5379, 0.5385], [121.5359, 0.5386], [121.5366, 0.5373]]], [[[121.5256, 0.5423], [121.5247, 0.5434], [121.5231, 0.5422], [121.5242, 0.5407], [121.5275, 0.5411], [121.5256, 0.5423]]], [[[122.0769, 0.904], [122.0579, 0.9012], [122.0305, 0.8858], [122.0113, 0.8915], [121.9993, 0.8901], [121.9824, 0.9073], [121.9758, 0.9042], [121.9547, 0.9077], [121.9382, 0.9278], [121.9217, 0.9278], [121.9021, 0.9639], [121.8842, 0.9788], [121.8515, 0.9927], [121.8479, 0.9785], [121.8374, 0.9738], [121.8307, 0.9608], [121.8212, 0.9616], [121.8119, 0.9502], [121.7941, 0.9482], [121.7856, 0.9397], [121.7617, 0.9322], [121.7354, 0.9297], [121.7092, 0.9173], [121.7015, 0.9071], [121.6913, 0.9026], [121.6734, 0.9035], [121.6581, 0.8918], [121.6458, 0.8952], [121.6233, 0.8821], [121.6104, 0.8822], [121.6031, 0.8729], [121.574, 0.8706], [121.557, 0.878], [121.5369, 0.8759], [121.5324, 0.8527], [121.4808, 0.8376], [121.4668, 0.8475], [121.4263, 0.8435], [121.4165, 0.8479], [121.4013, 0.8434], [121.386, 0.8543], [121.3672, 0.8492], [121.359, 0.8534], [121.347, 0.8483], [121.3532, 0.8345], [121.3505, 0.8213], [121.3614, 0.8149], [121.3645, 0.8068], [121.3634, 0.801], [121.3533, 0.7953], [121.3324, 0.7946], [121.3175, 0.7845], [121.3032, 0.7955], [121.2892, 0.7982], [121.2702, 0.7958], [121.2375, 0.8012], [121.2159, 0.792], [121.2136, 0.7734], [121.2083, 0.7677], [121.192, 0.7666], [121.1864, 0.7572], [121.1821, 0.7432], [121.1874, 0.7221], [121.1806, 0.7138], [121.173, 0.6854], [121.1612, 0.6787], [121.1792, 0.6551], [121.1967, 0.6419], [121.2189, 0.6384], [121.228, 0.6454], [121.2307, 0.6432], [121.2279, 0.6261], [121.2394, 0.6022], [121.25, 0.6009], [121.2753, 0.5826], [121.2949, 0.5801], [121.3038, 0.5679], [121.3164, 0.5785], [121.3353, 0.5753], [121.3457, 0.5658], [121.3503, 0.5552], [121.344, 0.5474], [121.3473, 0.5352], [121.3426, 0.5268], [121.3313, 0.5227], [121.3337, 0.5117], [121.3444, 0.5054], [121.3446, 0.497], [121.3517, 0.492], [121.3375, 0.4738], [121.3503, 0.4758], [121.3617, 0.4716], [121.3898, 0.4818], [121.396, 0.4774], [121.401, 0.485], [121.41, 0.4876], [121.4045, 0.4789], [121.4094, 0.4726], [121.4109, 0.4854], [121.4238, 0.4817], [121.4393, 0.5009], [121.4424, 0.4971], [121.4308, 0.4757], [121.4404, 0.4653], [121.4746, 0.4835], [121.4841, 0.4845], [121.4944, 0.4788], [121.5017, 0.488], [121.508, 0.4869], [121.5193, 0.4965], [121.5137, 0.5125], [121.5193, 0.5189], [121.5127, 0.5289], [121.5216, 0.5327], [121.5242, 0.5501], [121.5307, 0.5494], [121.5334, 0.5558], [121.5346, 0.5463], [121.553, 0.5432], [121.5559, 0.5373], [121.5703, 0.5329], [121.5887, 0.5367], [121.5924, 0.5313], [121.5928, 0.537], [121.5983, 0.5393], [121.6014, 0.5276], [121.6074, 0.5339], [121.6017, 0.5457], [121.6063, 0.5464], [121.6078, 0.5531], [121.6062, 0.5385], [121.6137, 0.5474], [121.6204, 0.5472], [121.6172, 0.5244], [121.6213, 0.5223], [121.6256, 0.5247], [121.6235, 0.5362], [121.6324, 0.533], [121.6371, 0.5246], [121.6424, 0.5253], [121.6423, 0.5299], [121.6281, 0.5389], [121.6349, 0.5379], [121.6353, 0.545], [121.6492, 0.5335], [121.655, 0.5419], [121.657, 0.5365], [121.6619, 0.5387], [121.66, 0.5319], [121.6661, 0.5296], [121.6666, 0.5231], [121.6841, 0.5192], [121.6838, 0.5136], [121.7021, 0.5224], [121.7079, 0.5181], [121.7126, 0.5192], [121.712, 0.524], [121.7224, 0.5222], [121.7144, 0.5143], [121.7188, 0.5062], [121.732, 0.5025], [121.7345, 0.4919], [121.7618, 0.4521], [121.784, 0.4372], [121.806, 0.4124], [121.8144, 0.4217], [121.8341, 0.4236], [121.8478, 0.4354], [121.8482, 0.4319], [121.855, 0.4357], [121.8579, 0.4324], [121.8688, 0.4418], [121.8789, 0.4372], [121.9003, 0.4439], [121.9143, 0.4425], [121.92, 0.4478], [121.938, 0.4447], [121.974, 0.4598], [121.98, 0.4525], [121.9876, 0.4613], [122.0002, 0.4594], [122.0489, 0.4775], [122.0808, 0.4766], [122.0929, 0.4849], [122.1173, 0.4891], [122.112, 0.4965], [122.1195, 0.4969], [122.1218, 0.5079], [122.1186, 0.5429], [122.1299, 0.5571], [122.1345, 0.5955], [122.1148, 0.8187], [122.09, 0.8229], [122.0818, 0.8436], [122.0881, 0.8921], [122.0769, 0.904]]]]}}]}