{"type": "FeatureCollection", "parent": {"osm_id": 2388669, "name": "West Sulawesi", "admin_level": "4", "kind": "subdivision_1", "child_kind": "subdivision_2", "iso": "ID-SR"}, "features": [{"type": "Feature", "properties": {"osm_type": "relation", "osm_id": 294883356, "name": "Majene", "admin_level": "6", "kind": "subdivision_2", "parent_osm_id": 2388669, "parent_name": "West Sulawesi", "parent_iso": "ID-SR"}, "geometry": {"type": "Polygon", "coordinates": [[[119.0272, -2.9637], [119.0075, -2.955], [118.9942, -2.9275], [118.9814, -2.9276], [118.9769, -2.923], [118.9565, -2.9275], [118.9435, -2.9153], [118.917, -2.9283], [118.8937, -2.9328], [118.876, -2.9231], [118.8694, -2.9569], [118.8484, -2.9898], [118.8477, -3.0075], [118.8606, -3.0217], [118.8607, -3.0318], [118.8418, -3.068], [118.8396, -3.0814], [118.8245, -3.089], [118.8073, -3.0822], [118.7976, -3.0706], [118.7944, -3.0836], [118.783, -3.0784], [118.7774, -3.085], [118.7804, -3.1212], [118.789, -3.135], [118.8267, -3.1651], [118.8397, -3.2084], [118.838, -3.2194], [118.8286, -3.2322], [118.8401, -3.2507], [118.8467, -3.2827], [118.8575, -3.2964], [118.8568, -3.3071], [118.8451, -3.3154], [118.8418, -3.3277], [118.8431, -3.3396], [118.8515, -3.3436], [118.8454, -3.3582], [118.849, -3.3716], [118.8453, -3.3773], [118.8783, -3.4408], [118.8786, -3.4755], [118.8851, -3.4846], [118.8946, -3.4859], [118.895, -3.5036], [118.9128, -3.5347], [118.9237, -3.5422], [118.9274, -3.5582], [118.9369, -3.5699], [118.9448, -3.5663], [118.9475, -3.5517], [118.9608, -3.5502], [118.9656, -3.5448], [118.9781, -3.5493], [118.985, -3.5605], [119.0005, -3.5633], [118.9951, -3.5533], [119.0057, -3.533], [118.9948, -3.5203], [118.9848, -3.4973], [118.9732, -3.4997], [118.9659, -3.4939], [118.9501, -3.4517], [118.9158, -3.4091], [118.9192, -3.3715], [118.9137, -3.3649], [118.9051, -3.3275], [118.9101, -3.3117], [118.9212, -3.2974], [118.9091, -3.2435], [118.9132, -3.2221], [118.8979, -3.1933], [118.9109, -3.1695], [118.9435, -3.1579], [118.9535, -3.1587], [118.9541, -3.1408], [118.9491, -3.1361], [118.9533, -3.1265], [118.9461, -3.1059], [118.9588, -3.0864], [118.9839, -3.0925], [119.0434, -3.0863], [119.0648, -3.1049], [119.0689, -3.1008], [119.0595, -3.0497], [119.0755, -3.0394], [119.0833, -3.0281], [119.0823, -3.0128], [119.0968, -3.0036], [119.0695, -2.9939], [119.0676, -2.9869], [119.0272, -2.9637]]]}}, {"type": "Feature", "properties": {"osm_type": "relation", "osm_id": 676173541, "name": "Mamasa", "admin_level": "6", "kind": "subdivision_2", "parent_osm_id": 2388669, "parent_name": "West Sulawesi", "parent_iso": "ID-SR"}, "geometry": {"type": "Polygon", "coordinates": [[[119.0648, -3.1049], [119.0812, -3.1131], [119.0891, -3.1044], [119.0979, -3.1054], [119.1091, -3.0935], [119.123, -3.0941], [119.148, -3.1173], [119.1767, -3.1053], [119.2141, -3.074], [119.2238, -3.0724], [119.2264, -3.0932], [119.2538, -3.1265], [119.2562, -3.1658], [119.2798, -3.1854], [119.2889, -3.2013], [119.2928, -3.2226], [119.2894, -3.2327], [119.2952, -3.2527], [119.3043, -3.2632], [119.3168, -3.2668], [119.3453, -3.289], [119.4016, -3.3064], [119.4119, -3.3197], [119.4229, -3.3182], [119.4327, -3.3227], [119.4429, -3.3375], [119.4439, -3.3288], [119.4343, -3.3159], [119.4398, -3.3029], [119.4306, -3.2632], [119.4212, -3.249], [119.3908, -3.2324], [119.3745, -3.2142], [119.3715, -3.1971], [119.3945, -3.1979], [119.4301, -3.1725], [119.4386, -3.1836], [119.4585, -3.1823], [119.4639, -3.1886], [119.4756, -3.1911], [119.5156, -3.1717], [119.5362, -3.1393], [119.567, -3.1295], [119.5796, -3.1309], [119.5867, -3.1252], [119.5978, -3.1279], [119.6066, -3.1192], [119.6144, -3.1246], [119.6365, -3.128], [119.6316, -3.1246], [119.6321, -3.1096], [119.6191, -3.0792], [119.6069, -3.0666], [119.5948, -3.0633], [119.5655, -2.9972], [119.5767, -2.9511], [119.5687, -2.9265], [119.5566, -2.9208], [119.5507, -2.8978], [119.5688, -2.8704], [119.5679, -2.858], [119.5614, -2.8508], [119.5667, -2.8216], [119.5615, -2.8121], [119.5732, -2.7752], [119.5845, -2.7646], [119.5779, -2.7553], [119.5834, -2.7476], [119.5696, -2.7416], [119.5693, -2.7323], [119.5528, -2.7285], [119.5268, -2.742], [119.4849, -2.7405], [119.4797, -2.7501], [119.4579, -2.7622], [119.4219, -2.7806], [119.4096, -2.7818], [119.3896, -2.7676], [119.3769, -2.7469], [119.3493, -2.7441], [119.3353, -2.7357], [119.3051, -2.729], [119.2982, -2.7084], [119.232, -2.7124], [119.192, -2.6619], [119.1654, -2.6619], [119.1612, -2.6709], [119.152, -2.6718], [119.1411, -2.6662], [119.1385, -2.6548], [119.1229, -2.6568], [119.1015, -2.6705], [119.0829, -2.6922], [119.0808, -2.7024], [119.0612, -2.7046], [119.0397, -2.7514], [119.0246, -2.7504], [119.0132, -2.774], [119.0251, -2.8061], [119.0211, -2.8129], [119.0216, -2.8399], [119.0108, -2.854], [119.0138, -2.8709], [119.0252, -2.8841], [119.0248, -2.9094], [119.0337, -2.9287], [119.0289, -2.9352], [119.0257, -2.9606], [119.0676, -2.9869], [119.0695, -2.9939], [119.0968, -3.0036], [119.0823, -3.0128], [119.0833, -3.0281], [119.0755, -3.0394], [119.0595, -3.0497], [119.0658, -3.0684], [119.0639, -3.086], [119.069, -3.0892], [119.0648, -3.1049]]]}}, {"type": "Feature", "properties": {"osm_type": "relation", "osm_id": 286960279, "name": "Mamuju Tengah", "admin_level": "6", "kind": "subdivision_2", "parent_osm_id": 2388669, "parent_name": "West Sulawesi", "parent_iso": "ID-SR"}, "geometry": {"type": "MultiPolygon", "coordinates": [[[[119.3273, -1.9351], [119.3226, -1.9367], [119.3243, -1.9452], [119.3356, -1.9418], [119.3273, -1.9351]]], [[[119.3306, -1.9333], [119.3294, -1.9335], [119.3305, -1.9356], [119.3329, -1.9351], [119.3306, -1.9333]]], [[[119.8703, -2.0181], [119.8661, -2.0114], [119.8704, -1.9998], [119.8638, -1.9612], [119.8708, -1.9382], [119.8605, -1.928], [119.8691, -1.8904], [119.8658, -1.8813], [119.8569, -1.8765], [119.8754, -1.8626], [119.8579, -1.8221], [119.8627, -1.8168], [119.8608, -1.8003], [119.8713, -1.7809], [119.8514, -1.7866], [119.8393, -1.8034], [119.8279, -1.8046], [119.818, -1.7921], [119.7988, -1.7944], [119.7821, -1.8059], [119.7632, -1.8059], [119.7248, -1.8195], [119.7104, -1.8286], [119.705, -1.8376], [119.6739, -1.8277], [119.6723, -1.8329], [119.6599, -1.8373], [119.6352, -1.8285], [119.6321, -1.8216], [119.5953, -1.8094], [119.5849, -1.8162], [119.5549, -1.8026], [119.5379, -1.8005], [119.5285, -1.7922], [119.5107, -1.7931], [119.5093, -1.7863], [119.4907, -1.7789], [119.4855, -1.771], [119.4778, -1.7712], [119.4701, -1.76], [119.467, -1.7628], [119.4479, -1.7521], [119.4506, -1.7449], [119.4449, -1.7315], [119.4385, -1.7281], [119.4307, -1.7368], [119.4133, -1.7319], [119.4147, -1.7422], [119.4094, -1.7414], [119.3905, -1.756], [119.3767, -1.7536], [119.3749, -1.7591], [119.3714, -1.757], [119.3724, -1.7616], [119.3673, -1.7606], [119.3647, -1.7695], [119.3568, -1.7741], [119.3526, -1.7716], [119.353, -1.7824], [119.3468, -1.7772], [119.349, -1.7862], [119.3432, -1.784], [119.3452, -1.7942], [119.3398, -1.7931], [119.3454, -1.7982], [119.3401, -1.8056], [119.3427, -1.8156], [119.3521, -1.8176], [119.3565, -1.8241], [119.3642, -1.8564], [119.3512, -1.8707], [119.3515, -1.9021], [119.3355, -1.914], [119.3387, -1.9192], [119.3343, -1.9262], [119.3415, -1.9347], [119.333, -1.9616], [119.3215, -1.963], [119.3174, -1.9528], [119.2965, -1.9598], [119.2964, -1.9537], [119.2899, -1.9525], [119.2127, -1.9978], [119.2233, -2.0131], [119.2098, -2.0282], [119.2045, -2.0634], [119.1925, -2.0952], [119.2004, -2.1069], [119.1896, -2.12], [119.1879, -2.1525], [119.1659, -2.1611], [119.1566, -2.1855], [119.1454, -2.2005], [119.1522, -2.2394], [119.1302, -2.2768], [119.1286, -2.2959], [119.1338, -2.3077], [119.1421, -2.2981], [119.1475, -2.3089], [119.1568, -2.299], [119.1623, -2.3053], [119.1732, -2.303], [119.1762, -2.3079], [119.1939, -2.3056], [119.1982, -2.3139], [119.2059, -2.3015], [119.2043, -2.2905], [119.2263, -2.286], [119.2325, -2.2735], [119.2291, -2.2679], [119.252, -2.2634], [119.2616, -2.2424], [119.2666, -2.2465], [119.2742, -2.243], [119.2895, -2.2196], [119.2951, -2.2274], [119.3039, -2.227], [119.3062, -2.2227], [119.3047, -2.2277], [119.3073, -2.2241], [119.3132, -2.2281], [119.3175, -2.2219], [119.3154, -2.2165], [119.3185, -2.2184], [119.3224, -2.2088], [119.3294, -2.2104], [119.3291, -2.2046], [119.3328, -2.2075], [119.3351, -2.2014], [119.3429, -2.2056], [119.349, -2.2008], [119.3554, -2.2088], [119.3638, -2.2], [119.3678, -2.2015], [119.3659, -2.1982], [119.372, -2.1918], [119.3741, -2.1958], [119.3797, -2.1921], [119.3912, -2.196], [119.4117, -2.1847], [119.4186, -2.1909], [119.421, -2.1882], [119.4339, -2.1941], [119.4458, -2.1719], [119.4515, -2.175], [119.4653, -2.1585], [119.4689, -2.1597], [119.4685, -2.1495], [119.4783, -2.1398], [119.5084, -2.1481], [119.5206, -2.1443], [119.6373, -2.1468], [119.639, -2.1737], [119.6524, -2.1911], [119.6516, -2.1977], [119.6743, -2.2103], [119.6912, -2.209], [119.727, -2.1774], [119.7293, -2.1663], [119.7619, -2.1454], [119.7664, -2.124], [119.7918, -2.1087], [119.8046, -2.1119], [119.8151, -2.1009], [119.8206, -2.0551], [119.827, -2.0474], [119.8515, -2.0418], [119.8703, -2.0181]]]]}}, {"type": "Feature", "properties": {"osm_type": "relation", "osm_id": 380669582, "name": "Mamuju Utara", "admin_level": "6", "kind": "subdivision_2", "parent_osm_id": 2388669, "parent_name": "West Sulawesi", "parent_iso": "ID-SR"}, "geometry": {"type": "Polygon", "coordinates": [[[119.5615, -0.8514], [119.5657, -0.8469], [119.5598, -0.8488], [119.5524, -0.8615], [119.5436, -0.8646], [119.5353, -0.8867], [119.526, -0.8973], [119.5202, -0.9392], [119.5075, -0.9536], [119.498, -0.985], [119.4809, -0.9985], [119.4606, -1.0738], [119.44, -1.1034], [119.4221, -1.1073], [119.4176, -1.1208], [119.4097, -1.12], [119.4093, -1.1283], [119.4003, -1.1276], [119.3933, -1.1413], [119.3884, -1.1435], [119.389, -1.1369], [119.3857, -1.1371], [119.3796, -1.1588], [119.3735, -1.16], [119.367, -1.1712], [119.3591, -1.1739], [119.34, -1.1679], [119.3371, -1.1924], [119.3028, -1.2735], [119.3213, -1.2978], [119.3324, -1.3495], [119.2905, -1.3923], [119.2878, -1.4109], [119.2927, -1.4226], [119.2881, -1.45], [119.3107, -1.5344], [119.3251, -1.5673], [119.3255, -1.59], [119.316, -1.608], [119.3027, -1.6106], [119.2997, -1.6214], [119.3104, -1.629], [119.3042, -1.6348], [119.3053, -1.6443], [119.2908, -1.647], [119.2944, -1.6589], [119.2849, -1.6582], [119.2874, -1.6807], [119.2814, -1.6886], [119.3009, -1.7068], [119.3151, -1.7684], [119.3117, -1.7983], [119.3205, -1.8002], [119.3375, -1.8194], [119.3418, -1.8184], [119.3439, -1.8104], [119.3401, -1.8056], [119.3454, -1.7982], [119.3398, -1.7931], [119.3452, -1.7942], [119.3432, -1.784], [119.349, -1.7862], [119.3468, -1.7772], [119.353, -1.7824], [119.3526, -1.7716], [119.3568, -1.7741], [119.3647, -1.7695], [119.3673, -1.7606], [119.3724, -1.7616], [119.3703, -1.7581], [119.3749, -1.7591], [119.3767, -1.7536], [119.3905, -1.756], [119.4094, -1.7414], [119.4147, -1.7422], [119.4133, -1.7319], [119.4307, -1.7368], [119.4385, -1.7281], [119.4449, -1.7315], [119.4506, -1.7449], [119.4479, -1.7521], [119.467, -1.7628], [119.4701, -1.76], [119.4778, -1.7712], [119.4855, -1.771], [119.4907, -1.7789], [119.5093, -1.7863], [119.5107, -1.7931], [119.5285, -1.7922], [119.5379, -1.8005], [119.5549, -1.8026], [119.5849, -1.8162], [119.5953, -1.8094], [119.6321, -1.8216], [119.6352, -1.8285], [119.6599, -1.8373], [119.6723, -1.8329], [119.6739, -1.8277], [119.705, -1.8376], [119.7104, -1.8286], [119.735, -1.8148], [119.7632, -1.8059], [119.7821, -1.8059], [119.7988, -1.7944], [119.8123, -1.7922], [119.818, -1.7921], [119.8279, -1.8046], [119.8393, -1.8034], [119.8514, -1.7866], [119.8713, -1.7809], [119.8664, -1.7709], [119.8548, -1.7699], [119.8438, -1.7755], [119.8269, -1.7674], [119.8146, -1.755], [119.809, -1.7413], [119.8045, -1.7437], [119.7975, -1.7392], [119.792, -1.7211], [119.7765, -1.7091], [119.7789, -1.69], [119.7643, -1.6786], [119.7505, -1.6434], [119.7278, -1.6435], [119.727, -1.6223], [119.7357, -1.6139], [119.7334, -1.605], [119.7153, -1.5922], [119.7013, -1.5661], [119.692, -1.5648], [119.6865, -1.5547], [119.6711, -1.544], [119.6735, -1.5356], [119.6666, -1.5305], [119.6693, -1.5142], [119.7005, -1.4587], [119.6925, -1.4498], [119.6861, -1.4501], [119.682, -1.4405], [119.6709, -1.4426], [119.6716, -1.4352], [119.6659, -1.4342], [119.6723, -1.4315], [119.6637, -1.4225], [119.6552, -1.4229], [119.6414, -1.4041], [119.6313, -1.4007], [119.6298, -1.4066], [119.622, -1.397], [119.6099, -1.4061], [119.5922, -1.3965], [119.5894, -1.4092], [119.582, -1.4096], [119.5829, -1.4256], [119.5687, -1.4213], [119.5689, -1.428], [119.5507, -1.4322], [119.5466, -1.4374], [119.5487, -1.4266], [119.5421, -1.4218], [119.5406, -1.4318], [119.5331, -1.4283], [119.5204, -1.4454], [119.5083, -1.4508], [119.5107, -1.4382], [119.5172, -1.4389], [119.5201, -1.4335], [119.5187, -1.412], [119.5144, -1.4101], [119.5094, -1.4169], [119.5095, -1.4047], [119.5034, -1.4013], [119.5022, -1.3929], [119.4905, -1.3909], [119.4784, -1.3983], [119.4476, -1.3577], [119.4479, -1.3409], [119.4643, -1.3186], [119.4919, -1.3218], [119.5106, -1.313], [119.5195, -1.3154], [119.5225, -1.3107], [119.5266, -1.3007], [119.5236, -1.2944], [119.5165, -1.2972], [119.517, -1.3024], [119.4986, -1.299], [119.4954, -1.3058], [119.4817, -1.3094], [119.4749, -1.308], [119.4733, -1.2978], [119.5038, -1.2765], [119.524, -1.2515], [119.5422, -1.223], [119.5421, -1.2005], [119.5541, -1.2048], [119.5648, -1.2013], [119.5722, -1.149], [119.6, -1.1591], [119.6073, -1.1541], [119.6091, -1.1204], [119.6015, -1.1183], [119.593, -1.1243], [119.589, -1.0883], [119.5825, -1.0854], [119.5779, -1.0672], [119.5802, -1.0555], [119.5725, -1.0499], [119.5775, -1.0453], [119.574, -1.0394], [119.5781, -1.0299], [119.5754, -1.0186], [119.5659, -1.0187], [119.5569, -1.0095], [119.56, -0.9847], [119.5532, -0.9382], [119.5632, -0.9143], [119.5603, -0.8994], [119.5728, -0.8797], [119.5716, -0.866], [119.568, -0.8685], [119.5688, -0.8636], [119.5625, -0.8634], [119.5657, -0.8545], [119.5615, -0.8514]]]}}, {"type": "Feature", "properties": {"osm_type": "relation", "osm_id": 447484821, "name": "Polewali Mandar", "admin_level": "6", "kind": "subdivision_2", "parent_osm_id": 2388669, "parent_name": "West Sulawesi", "parent_iso": "ID-SR"}, "geometry": {"type": "MultiPolygon", "coordinates": [[[[119.3589, -3.4863], [119.3551, -3.488], [119.3589, -3.4863]]], [[[119.3712, -3.4673], [119.3627, -3.4712], [119.3649, -3.4848], [119.3739, -3.4821], [119.3696, -3.4772], [119.3712, -3.4673]]], [[[119.4185, -3.4691], [119.4147, -3.4672], [119.408, -3.4741], [119.4141, -3.4778], [119.4185, -3.4691]]], [[[119.3765, -3.4673], [119.3747, -3.466], [119.3755, -3.4685], [119.3765, -3.4673]]], [[[119.3907, -3.4649], [119.3892, -3.4707], [119.3944, -3.477], [119.3946, -3.4664], [119.3907, -3.4649]]], [[[119.0057, -3.533], [119.0222, -3.5156], [119.0396, -3.5163], [119.0647, -3.5025], [119.111, -3.5168], [119.1356, -3.4941], [119.1689, -3.4881], [119.197, -3.4938], [119.2208, -3.4857], [119.2334, -3.4868], [119.246, -3.4663], [119.287, -3.449], [119.2895, -3.4406], [119.2782, -3.449], [119.2794, -3.4379], [119.2831, -3.4404], [119.2855, -3.4294], [119.2929, -3.4311], [119.2994, -3.4249], [119.3304, -3.4346], [119.3428, -3.4336], [119.3588, -3.445], [119.373, -3.4632], [119.3754, -3.4574], [119.381, -3.4611], [119.3768, -3.455], [119.3865, -3.4498], [119.3889, -3.4567], [119.3979, -3.4568], [119.4114, -3.4667], [119.4192, -3.4582], [119.4278, -3.4596], [119.4264, -3.4727], [119.4356, -3.4739], [119.4417, -3.4841], [119.4443, -3.4764], [119.4524, -3.4782], [119.4741, -3.5029], [119.4871, -3.4848], [119.4926, -3.4838], [119.4924, -3.4746], [119.475, -3.4576], [119.4785, -3.4505], [119.4688, -3.4333], [119.4733, -3.4132], [119.467, -3.4062], [119.4654, -3.3899], [119.459, -3.3847], [119.4653, -3.3774], [119.45, -3.3554], [119.43, -3.3452], [119.4312, -3.3392], [119.4408, -3.3361], [119.4327, -3.3227], [119.4229, -3.3182], [119.4119, -3.3197], [119.4016, -3.3064], [119.3453, -3.289], [119.3168, -3.2668], [119.3043, -3.2632], [119.2952, -3.2527], [119.2894, -3.2327], [119.2928, -3.2226], [119.2889, -3.2013], [119.2798, -3.1854], [119.2562, -3.1658], [119.2538, -3.1265], [119.2264, -3.0932], [119.2238, -3.0724], [119.2141, -3.074], [119.1767, -3.1053], [119.148, -3.1173], [119.123, -3.0941], [119.1091, -3.0935], [119.0979, -3.1054], [119.0891, -3.1044], [119.0812, -3.1131], [119.0674, -3.1092], [119.0434, -3.0863], [118.9839, -3.0925], [118.9588, -3.0864], [118.9461, -3.1059], [118.9533, -3.1265], [118.9491, -3.1361], [118.9541, -3.1408], [118.9535, -3.1587], [118.9236, -3.1639], [118.9033, -3.1783], [118.8981, -3.1977], [118.9132, -3.2221], [118.9091, -3.2435], [118.9212, -3.2974], [118.9101, -3.3117], [118.9051, -3.3275], [118.9137, -3.3649], [118.9192, -3.3715], [118.9158, -3.4091], [118.9501, -3.4517], [118.9659, -3.4939], [118.9732, -3.4997], [118.9848, -3.4973], [118.9948, -3.5203], [119.0057, -3.533]]]]}}]}