{"type": "FeatureCollection", "parent": {"osm_id": 2395867, "name": "Ulsan", "admin_level": "4", "kind": "subdivision_1", "child_kind": "subdivision_2", "iso": "KR-31"}, "features": [{"type": "Feature", "properties": {"osm_type": "relation", "osm_id": 862957454, "name": "Buk-gu", "admin_level": "6", "kind": "subdivision_2", "parent_osm_id": 2395867, "parent_name": "Ulsan", "parent_iso": "KR-31"}, "geometry": {"type": "Polygon", "coordinates": [[[129.2969, 35.6465], [129.2942, 35.5888], [129.3494, 35.5841], [129.3533, 35.5538], [129.3736, 35.5427], [129.3944, 35.5171], [129.4021, 35.5171], [129.4099, 35.5447], [129.423, 35.5589], [129.4573, 35.5636], [129.4544, 35.5809], [129.4636, 35.5916], [129.4626, 35.5975], [129.4554, 35.6156], [129.4428, 35.6297], [129.4434, 35.6465], [129.3855, 35.6657], [129.3477, 35.6724], [129.3217, 35.6638], [129.2969, 35.6465]]]}}, {"type": "Feature", "properties": {"osm_type": "relation", "osm_id": 312406326, "name": "Ulju-gun", "admin_level": "6", "kind": "subdivision_2", "parent_osm_id": 2395867, "parent_name": "Ulsan", "parent_iso": "KR-31"}, "geometry": {"type": "Polygon", "coordinates": [[[129.0499, 35.6388], [129.0112, 35.6178], [129.0081, 35.6098], [129.0255, 35.5963], [129.0255, 35.5901], [129.018, 35.5809], [128.9854, 35.5655], [128.9771, 35.5538], [129.0006, 35.5274], [129.0928, 35.4972], [129.114, 35.4812], [129.1269, 35.4553], [129.167, 35.4282], [129.2025, 35.4282], [129.2101, 35.419], [129.2123, 35.4048], [129.1995, 35.3857], [129.1995, 35.3789], [129.2123, 35.3709], [129.2592, 35.3789], [129.2812, 35.3554], [129.294, 35.3227], [129.3107, 35.3289], [129.3349, 35.3548], [129.3575, 35.3561], [129.3591, 35.3647], [129.3409, 35.3807], [129.3651, 35.3974], [129.3591, 35.4233], [129.3636, 35.4344], [129.3613, 35.4418], [129.3175, 35.4787], [129.2917, 35.4929], [129.2842, 35.5083], [129.2721, 35.5194], [129.2426, 35.5329], [129.2539, 35.5557], [129.2942, 35.5895], [129.2969, 35.6465], [129.2709, 35.6484], [129.2603, 35.6657], [129.2638, 35.6734], [129.2744, 35.6791], [129.2709, 35.6887], [129.2059, 35.7108], [129.1421, 35.7127], [129.1019, 35.7031], [129.0795, 35.6926], [129.07, 35.6724], [129.07, 35.6446], [129.0499, 35.6388]]]}}, {"type": "Feature", "properties": {"osm_type": "relation", "osm_id": 384033404, "name": "Dong-gu [East District]", "admin_level": "6", "kind": "subdivision_2", "parent_osm_id": 2395867, "parent_name": "Ulsan", "parent_iso": "KR-31"}, "geometry": {"type": "Polygon", "coordinates": [[[129.3978, 35.5171], [129.3958, 35.503], [129.4084, 35.497], [129.405, 35.475], [129.4133, 35.4722], [129.4157, 35.4797], [129.4375, 35.4836], [129.4428, 35.4947], [129.4307, 35.4923], [129.4423, 35.5061], [129.4326, 35.5061], [129.4341, 35.5108], [129.4452, 35.51], [129.4481, 35.523], [129.4394, 35.5211], [129.4384, 35.5278], [129.4539, 35.529], [129.4525, 35.5455], [129.4573, 35.5636], [129.423, 35.5589], [129.4099, 35.5447], [129.4021, 35.5171], [129.3978, 35.5171]]]}}, {"type": "Feature", "properties": {"osm_type": "relation", "osm_id": 715351787, "name": "Nam-gu [South District]", "admin_level": "6", "kind": "subdivision_2", "parent_osm_id": 2395867, "parent_name": "Ulsan", "parent_iso": "KR-31"}, "geometry": {"type": "Polygon", "coordinates": [[[129.3573, 35.5498], [129.2647, 35.5443], [129.246, 35.5385], [129.2426, 35.5329], [129.2753, 35.5203], [129.2927, 35.4966], [129.3271, 35.4785], [129.3397, 35.4769], [129.3566, 35.4584], [129.3668, 35.4541], [129.3813, 35.4667], [129.3862, 35.4911], [129.3624, 35.5057], [129.3871, 35.5033], [129.3847, 35.5163], [129.3755, 35.5183], [129.3745, 35.5309], [129.3573, 35.5498]]]}}, {"type": "Feature", "properties": {"osm_type": "relation", "osm_id": 466134718, "name": "Jung-gu [Central District]", "admin_level": "6", "kind": "subdivision_2", "parent_osm_id": 2395867, "parent_name": "Ulsan", "parent_iso": "KR-31"}, "geometry": {"type": "Polygon", "coordinates": [[[129.2942, 35.5895], [129.2539, 35.5557], [129.246, 35.5385], [129.2647, 35.5443], [129.3573, 35.5498], [129.3533, 35.5538], [129.3494, 35.5841], [129.3426, 35.5876], [129.3034, 35.5853], [129.2942, 35.5895]]]}}]}