{"type": "FeatureCollection", "parent": {"osm_id": 239882, "name": "Maule Region", "admin_level": "4", "kind": "subdivision_1", "child_kind": "subdivision_2", "iso": "CL-ML"}, "features": [{"type": "Feature", "properties": {"osm_type": "relation", "osm_id": 155008572, "name": "Provincia de Talca", "admin_level": "6", "kind": "subdivision_2", "parent_osm_id": 239882, "parent_name": "Maule Region", "parent_iso": "CL-ML"}, "geometry": {"type": "Polygon", "coordinates": [[[-72.6188, -35.5615], [-72.6169, -35.5667], [-72.6065, -35.5642], [-72.5861, -35.5728], [-72.5602, -35.569], [-72.5322, -35.5725], [-72.5286, -35.5782], [-72.5185, -35.5741], [-72.52, -35.5673], [-72.5149, -35.5603], [-72.5085, -35.5628], [-72.5034, -35.5571], [-72.4953, -35.5579], [-72.4955, -35.5525], [-72.4869, -35.548], [-72.4558, -35.5567], [-72.4364, -35.5413], [-72.4369, -35.5666], [-72.4419, -35.5792], [-72.4323, -35.6062], [-72.4505, -35.6171], [-72.4433, -35.6267], [-72.4433, -35.6358], [-72.4591, -35.6399], [-72.4563, -35.6443], [-72.438, -35.6489], [-72.436, -35.6586], [-72.4195, -35.6718], [-72.372, -35.6934], [-72.3516, -35.6893], [-72.3234, -35.674], [-72.31, -35.6943], [-72.2963, -35.698], [-72.2778, -35.6925], [-72.2711, -35.6949], [-72.2537, -35.7136], [-72.2543, -35.7226], [-72.2399, -35.734], [-72.2229, -35.7242], [-72.204, -35.7214], [-72.2017, -35.7167], [-72.1847, -35.7191], [-72.1471, -35.7102], [-72.138, -35.6994], [-72.1315, -35.7001], [-72.1133, -35.7168], [-72.0831, -35.7181], [-72.0723, -35.7109], [-72.0627, -35.7152], [-72.06, -35.705], [-72.0425, -35.6954], [-72.0367, -35.674], [-72.0849, -35.674], [-72.0776, -35.6655], [-72.0847, -35.6588], [-72.085, -35.6492], [-72.0915, -35.6457], [-72.1271, -35.6466], [-72.1391, -35.6655], [-72.1379, -35.6593], [-72.1492, -35.6357], [-72.1882, -35.616], [-72.1781, -35.6069], [-72.1703, -35.585], [-72.1794, -35.575], [-72.1878, -35.5771], [-72.1249, -35.4878], [-72.1291, -35.4754], [-72.1085, -35.4388], [-72.0935, -35.4423], [-72.0913, -35.4325], [-72.0716, -35.4177], [-72.057, -35.4332], [-72.0391, -35.4365], [-72.0316, -35.4493], [-72.0193, -35.4464], [-71.9978, -35.4519], [-71.9633, -35.4707], [-71.9425, -35.471], [-71.9233, -35.4633], [-71.9047, -35.4703], [-71.8839, -35.4629], [-71.8699, -35.4828], [-71.8494, -35.4984], [-71.7939, -35.5169], [-71.769, -35.5471], [-71.7673, -35.5627], [-71.7543, -35.572], [-71.718, -35.5657], [-71.6969, -35.554], [-71.6818, -35.5531], [-71.5943, -35.5891], [-71.5501, -35.5913], [-71.5047, -35.6079], [-71.4809, -35.6027], [-71.4146, -35.6128], [-71.3813, -35.6279], [-71.3561, -35.6554], [-71.3494, -35.6724], [-71.3404, -35.6784], [-71.313, -35.6821], [-71.2903, -35.6764], [-71.2785, -35.6851], [-71.267, -35.6833], [-71.2522, -35.7], [-71.2076, -35.7252], [-71.1841, -35.7227], [-71.1444, -35.7272], [-71.1101, -35.7041], [-71.067, -35.7146], [-71.0505, -35.738], [-71.0421, -35.765], [-71.0334, -35.7769], [-71.0368, -35.7862], [-71.0347, -35.8092], [-71.0157, -35.832], [-71.0097, -35.8288], [-70.9996, -35.8341], [-71.0016, -35.8654], [-70.9786, -35.8725], [-70.9566, -35.9118], [-70.9391, -35.9256], [-70.9357, -35.9405], [-70.9048, -35.9491], [-70.8909, -35.9587], [-70.8715, -35.9908], [-70.8533, -35.9931], [-70.8439, -35.9892], [-70.8334, -35.974], [-70.7872, -35.9705], [-70.7606, -35.9742], [-70.745, -35.9815], [-70.6952, -35.983], [-70.6827, -35.9879], [-70.6527, -35.9826], [-70.6242, -35.9978], [-70.6077, -35.9929], [-70.5972, -36.0049], [-70.5934, -36.0177], [-70.586, -36.0208], [-70.5927, -36.0251], [-70.6104, -36.0206], [-70.6124, -36.0337], [-70.6222, -36.0401], [-70.6047, -36.0491], [-70.6003, -36.0577], [-70.6099, -36.0783], [-70.6096, -36.0881], [-70.6218, -36.092], [-70.6233, -36.1085], [-70.6123, -36.1096], [-70.6087, -36.1168], [-70.5775, -36.1173], [-70.5718, -36.1219], [-70.5701, -36.1331], [-70.5313, -36.1428], [-70.5107, -36.1561], [-70.5066, -36.1668], [-70.4982, -36.1709], [-70.4475, -36.1716], [-70.4216, -36.1526], [-70.418, -36.1361], [-70.4214, -36.123], [-70.4149, -36.1098], [-70.4202, -36.0881], [-70.418, -36.074], [-70.4094, -36.0553], [-70.4034, -36.0513], [-70.3916, -36.0545], [-70.3737, -36.0403], [-70.3815, -36.0194], [-70.3818, -35.9963], [-70.4046, -35.9669], [-70.4176, -35.9604], [-70.3941, -35.9503], [-70.3667, -35.9238], [-70.408, -35.9228], [-70.4231, -35.9155], [-70.4255, -35.9013], [-70.4209, -35.8742], [-70.4039, -35.8666], [-70.3825, -35.8674], [-70.379, -35.8513], [-70.3694, -35.8418], [-70.3461, -35.8368], [-70.3248, -35.82], [-70.3076, -35.8129], [-70.3228, -35.8106], [-70.3361, -35.7968], [-70.3584, -35.8002], [-70.3794, -35.7872], [-70.3744, -35.7577], [-70.3582, -35.7489], [-70.3697, -35.7373], [-70.3759, -35.7005], [-70.3994, -35.686], [-70.4063, -35.6726], [-70.4035, -35.6646], [-70.4088, -35.649], [-70.4238, -35.6401], [-70.4186, -35.624], [-70.4301, -35.6075], [-70.4272, -35.6], [-70.4392, -35.5943], [-70.4663, -35.5991], [-70.4814, -35.5842], [-70.4904, -35.5814], [-70.4897, -35.575], [-70.499, -35.5666], [-70.4924, -35.5542], [-70.4983, -35.5148], [-70.5091, -35.499], [-70.5275, -35.4959], [-70.5376, -35.4664], [-70.5549, -35.4758], [-70.5721, -35.4687], [-70.5903, -35.4782], [-70.6069, -35.5003], [-70.6191, -35.5073], [-70.6184, -35.5149], [-70.6461, -35.5184], [-70.667, -35.529], [-70.6766, -35.5215], [-70.695, -35.5197], [-70.7053, -35.5323], [-70.7425, -35.5525], [-70.7487, -35.5648], [-70.7455, -35.5768], [-70.7515, -35.5832], [-70.7666, -35.5694], [-70.7714, -35.5313], [-70.7892, -35.5183], [-70.7861, -35.5046], [-70.8186, -35.5089], [-70.8318, -35.4938], [-70.8438, -35.491], [-70.8671, -35.4983], [-70.9324, -35.4999], [-70.9555, -35.4847], [-70.9931, -35.4773], [-71.0092, -35.4719], [-71.0165, -35.4633], [-71.0347, -35.4595], [-71.0573, -35.4229], [-71.0576, -35.4131], [-71.0888, -35.402], [-71.0935, -35.3896], [-71.1132, -35.3716], [-71.1154, -35.3495], [-71.1107, -35.3353], [-71.118, -35.3016], [-71.1348, -35.2916], [-71.1452, -35.2754], [-71.159, -35.2651], [-71.1618, -35.2541], [-71.2038, -35.2239], [-71.216, -35.1943], [-71.2259, -35.1823], [-71.2575, -35.1742], [-71.2616, -35.1635], [-71.2964, -35.1486], [-71.3086, -35.1351], [-71.3371, -35.1314], [-71.3428, -35.1394], [-71.3615, -35.1421], [-71.3709, -35.1606], [-71.3775, -35.1601], [-71.384, -35.1701], [-71.3815, -35.1749], [-71.3852, -35.1801], [-71.3961, -35.1848], [-71.4115, -35.2039], [-71.4376, -35.2162], [-71.4472, -35.2132], [-71.4811, -35.2216], [-71.4832, -35.2293], [-71.5006, -35.2362], [-71.5, -35.2413], [-71.5094, -35.241], [-71.5071, -35.2446], [-71.558, -35.2265], [-71.5662, -35.2122], [-71.5757, -35.2111], [-71.5772, -35.2061], [-71.5902, -35.2129], [-71.599, -35.2244], [-71.6219, -35.2262], [-71.6391, -35.2136], [-71.6677, -35.2088], [-71.673, -35.198], [-71.6727, -35.1744], [-71.6792, -35.1673], [-71.6714, -35.1488], [-71.6848, -35.1276], [-71.6849, -35.1099], [-71.6914, -35.1092], [-71.7087, -35.0924], [-71.7209, -35.0887], [-71.7308, -35.0578], [-71.753, -35.034], [-71.7563, -35.0187], [-71.7702, -34.9985], [-71.7803, -34.9934], [-71.8087, -34.992], [-71.8173, -34.9711], [-71.8445, -34.9761], [-71.8526, -34.9906], [-71.9015, -34.9965], [-71.9094, -35.0031], [-71.9406, -34.9974], [-71.9626, -35.009], [-71.9851, -34.9997], [-71.9984, -34.981], [-72.0287, -34.9957], [-72.063, -35.0362], [-72.0936, -35.0493], [-72.1222, -35.0358], [-72.1299, -35.0531], [-72.1414, -35.0592], [-72.16, -35.0555], [-72.1704, -35.0428], [-72.1811, -35.0014], [-72.1846, -35.0004], [-72.1895, -35.0716], [-72.2065, -35.1146], [-72.2325, -35.1336], [-72.3181, -35.1761], [-72.3832, -35.2221], [-72.4027, -35.2536], [-72.4076, -35.3191], [-72.4163, -35.3165], [-72.4352, -35.3276], [-72.4391, -35.3479], [-72.4569, -35.3593], [-72.4721, -35.3617], [-72.478, -35.3752], [-72.4983, -35.3912], [-72.4901, -35.4098], [-72.4863, -35.4624], [-72.5097, -35.477], [-72.532, -35.5063], [-72.56, -35.5131], [-72.5755, -35.5354], [-72.5993, -35.5502], [-72.6129, -35.5531], [-72.6188, -35.5615]]]}}, {"type": "Feature", "properties": {"osm_type": "relation", "osm_id": 728667082, "name": "Provincia de Cauquenes", "admin_level": "6", "kind": "subdivision_2", "parent_osm_id": 239882, "parent_name": "Maule Region", "parent_iso": "CL-ML"}, "geometry": {"type": "Polygon", "coordinates": [[[-72.6188, -35.5615], [-72.6207, -35.5812], [-72.6311, -35.5915], [-72.6345, -35.6062], [-72.6028, -35.658], [-72.5989, -35.6561], [-72.6008, -35.6626], [-72.5814, -35.705], [-72.5621, -35.7681], [-72.568, -35.7996], [-72.5787, -35.814], [-72.6147, -35.8265], [-72.6322, -35.8419], [-72.649, -35.8472], [-72.6605, -35.869], [-72.6826, -35.8825], [-72.6899, -35.9125], [-72.722, -35.9352], [-72.737, -35.9397], [-72.7516, -35.9553], [-72.7714, -35.9611], [-72.7857, -35.9781], [-72.777, -36.0044], [-72.7788, -36.0136], [-72.7598, -36.0054], [-72.739, -36.0096], [-72.7189, -36.0234], [-72.7089, -36.0231], [-72.7048, -36.0172], [-72.6963, -36.022], [-72.6869, -36.0186], [-72.665, -36.0322], [-72.6554, -36.0475], [-72.6447, -36.0155], [-72.6308, -36.0251], [-72.6289, -36.0293], [-72.6344, -36.0308], [-72.6205, -36.0352], [-72.6247, -36.0485], [-72.6202, -36.0553], [-72.6141, -36.0526], [-72.601, -36.0568], [-72.6022, -36.06], [-72.5883, -36.0651], [-72.5909, -36.072], [-72.5837, -36.0777], [-72.5759, -36.0741], [-72.5473, -36.0777], [-72.5386, -36.0696], [-72.5308, -36.069], [-72.5124, -36.0804], [-72.4929, -36.0721], [-72.4875, -36.0798], [-72.4933, -36.086], [-72.5015, -36.0853], [-72.4973, -36.0943], [-72.501, -36.1003], [-72.4932, -36.1065], [-72.4889, -36.1251], [-72.5016, -36.1433], [-72.4782, -36.1528], [-72.4672, -36.148], [-72.4267, -36.1571], [-72.4218, -36.1693], [-72.4049, -36.1757], [-72.3736, -36.1698], [-72.359, -36.1572], [-72.3451, -36.1733], [-72.3354, -36.1747], [-72.3376, -36.2056], [-72.3602, -36.2149], [-72.4122, -36.2079], [-72.4124, -36.2232], [-72.3912, -36.2336], [-72.3863, -36.2453], [-72.3892, -36.2484], [-72.3725, -36.2575], [-72.3511, -36.2453], [-72.3454, -36.2371], [-72.3157, -36.2326], [-72.2949, -36.2538], [-72.2777, -36.2615], [-72.2383, -36.207], [-72.2205, -36.208], [-72.2237, -36.2152], [-72.211, -36.2107], [-72.2111, -36.2152], [-72.1872, -36.2215], [-72.1832, -36.2282], [-72.1542, -36.2353], [-72.1527, -36.2475], [-72.1388, -36.2461], [-72.1323, -36.2312], [-72.1362, -36.2212], [-72.1291, -36.2156], [-72.1314, -36.1919], [-72.1218, -36.1869], [-72.0986, -36.1559], [-72.1031, -36.1229], [-72.0965, -36.1168], [-72.1052, -36.1064], [-72.1024, -36.0938], [-72.1075, -36.0893], [-72.1065, -36.0808], [-72.1028, -36.0777], [-72.0991, -36.0811], [-72.0941, -36.0732], [-72.0828, -36.073], [-72.0693, -36.0447], [-72.0763, -36.0267], [-72.0584, -35.997], [-72.0691, -35.9886], [-72.0555, -35.9796], [-72.0648, -35.9675], [-72.0496, -35.9497], [-72.0466, -35.9356], [-72.0327, -35.9282], [-72.0325, -35.9193], [-72.0178, -35.907], [-72.024, -35.8981], [-72.0232, -35.8875], [-72.037, -35.8805], [-72.0391, -35.8729], [-72.0334, -35.8624], [-72.0105, -35.8562], [-72.0231, -35.849], [-72.0219, -35.8344], [-71.9973, -35.8424], [-71.9823, -35.8361], [-71.9896, -35.8272], [-71.9782, -35.8222], [-71.9998, -35.8155], [-72.001, -35.8068], [-72.0126, -35.8114], [-72.0277, -35.8025], [-72.0279, -35.7975], [-72.0392, -35.7934], [-72.0311, -35.7848], [-72.0439, -35.7804], [-72.0408, -35.7719], [-72.0512, -35.7635], [-72.067, -35.7595], [-72.0641, -35.7466], [-72.0684, -35.7372], [-72.0592, -35.7211], [-72.0654, -35.7111], [-72.1025, -35.7195], [-72.138, -35.6994], [-72.1471, -35.7102], [-72.1847, -35.7191], [-72.2017, -35.7167], [-72.204, -35.7214], [-72.2229, -35.7242], [-72.2399, -35.734], [-72.2543, -35.7226], [-72.2537, -35.7136], [-72.2711, -35.6949], [-72.2778, -35.6925], [-72.2963, -35.698], [-72.31, -35.6943], [-72.3234, -35.674], [-72.3516, -35.6893], [-72.372, -35.6934], [-72.4195, -35.6718], [-72.436, -35.6586], [-72.438, -35.6489], [-72.4563, -35.6443], [-72.4591, -35.6399], [-72.4433, -35.6358], [-72.4433, -35.6267], [-72.4505, -35.6171], [-72.4323, -35.6062], [-72.4419, -35.5792], [-72.4369, -35.5666], [-72.4364, -35.5413], [-72.4558, -35.5567], [-72.4869, -35.548], [-72.4955, -35.5525], [-72.4953, -35.5579], [-72.5034, -35.5571], [-72.5085, -35.5628], [-72.5149, -35.5603], [-72.52, -35.5673], [-72.5185, -35.5741], [-72.5286, -35.5782], [-72.5322, -35.5725], [-72.5602, -35.569], [-72.5861, -35.5728], [-72.6065, -35.5642], [-72.6169, -35.5667], [-72.6188, -35.5615]]]}}, {"type": "Feature", "properties": {"osm_type": "relation", "osm_id": 192181462, "name": "Provincia de Linares", "admin_level": "6", "kind": "subdivision_2", "parent_osm_id": 239882, "parent_name": "Maule Region", "parent_iso": "CL-ML"}, "geometry": {"type": "Polygon", "coordinates": [[[-72.0627, -35.7152], [-72.0592, -35.7211], [-72.0684, -35.7372], [-72.0641, -35.7466], [-72.067, -35.7595], [-72.0512, -35.7635], [-72.0408, -35.7719], [-72.0439, -35.7804], [-72.0311, -35.7848], [-72.0392, -35.7934], [-72.0279, -35.7975], [-72.0277, -35.8025], [-72.0126, -35.8114], [-72.001, -35.8068], [-71.9998, -35.8155], [-71.9782, -35.8222], [-71.9896, -35.8272], [-71.9823, -35.8361], [-71.9973, -35.8424], [-72.0219, -35.8344], [-72.0231, -35.849], [-72.0105, -35.8562], [-72.0334, -35.8624], [-72.0391, -35.8729], [-72.037, -35.8805], [-72.0232, -35.8875], [-72.024, -35.8981], [-72.0178, -35.907], [-72.0325, -35.9193], [-72.0327, -35.9282], [-72.0466, -35.9356], [-72.0496, -35.9497], [-72.0648, -35.9675], [-72.0555, -35.9796], [-72.0691, -35.9886], [-72.0584, -35.997], [-72.0763, -36.0267], [-72.0693, -36.0447], [-72.0828, -36.073], [-72.0941, -36.0732], [-72.0991, -36.0811], [-72.1028, -36.0777], [-72.1065, -36.0808], [-72.1075, -36.0893], [-72.1024, -36.0938], [-72.1052, -36.1064], [-72.0965, -36.1168], [-72.1031, -36.1229], [-72.0984, -36.1259], [-72.1018, -36.1387], [-72.0889, -36.1307], [-72.0772, -36.1308], [-72.0718, -36.1348], [-72.0796, -36.1393], [-72.071, -36.1487], [-72.073, -36.1562], [-72.0596, -36.1564], [-72.0358, -36.1765], [-72.0229, -36.1748], [-72.0245, -36.1838], [-72.021, -36.1893], [-72.012, -36.1911], [-72.0125, -36.1986], [-72.0008, -36.203], [-71.9988, -36.2085], [-71.9903, -36.2089], [-71.9998, -36.2163], [-71.9998, -36.2262], [-71.9935, -36.2315], [-71.993, -36.2417], [-71.9799, -36.2396], [-71.9806, -36.2527], [-71.9733, -36.2592], [-71.9655, -36.2594], [-71.9646, -36.2527], [-71.9566, -36.2499], [-71.9447, -36.259], [-71.9209, -36.2591], [-71.91, -36.2687], [-71.8746, -36.2584], [-71.8637, -36.2459], [-71.8476, -36.246], [-71.8473, -36.2553], [-71.8345, -36.2511], [-71.823, -36.256], [-71.8134, -36.2544], [-71.8047, -36.2631], [-71.8036, -36.2731], [-71.7969, -36.2755], [-71.7863, -36.2931], [-71.7747, -36.2967], [-71.7618, -36.3181], [-71.7419, -36.3268], [-71.7324, -36.3253], [-71.7137, -36.3454], [-71.7026, -36.3481], [-71.7008, -36.3538], [-71.6918, -36.3534], [-71.6898, -36.3586], [-71.641, -36.3741], [-71.6272, -36.3727], [-71.5921, -36.3927], [-71.5836, -36.3923], [-71.572, -36.4046], [-71.5493, -36.4026], [-71.545, -36.4073], [-71.5229, -36.4092], [-71.5165, -36.4048], [-71.5024, -36.4155], [-71.4677, -36.4123], [-71.4503, -36.4244], [-71.4489, -36.4301], [-71.4395, -36.432], [-71.4384, -36.4525], [-71.433, -36.4544], [-71.4341, -36.4608], [-71.4106, -36.503], [-71.3936, -36.5102], [-71.3536, -36.5126], [-71.3464, -36.5203], [-71.3452, -36.5357], [-71.3388, -36.5434], [-71.3302, -36.5421], [-71.3204, -36.5319], [-71.309, -36.503], [-71.3083, -36.4862], [-71.2958, -36.4786], [-71.2942, -36.464], [-71.2862, -36.4591], [-71.2819, -36.4485], [-71.2674, -36.4405], [-71.2412, -36.4628], [-71.2278, -36.464], [-71.2216, -36.4522], [-71.1979, -36.4393], [-71.1924, -36.4129], [-71.1809, -36.4041], [-71.1554, -36.4034], [-71.1392, -36.3766], [-71.114, -36.3611], [-71.0972, -36.3693], [-71.0802, -36.3712], [-71.0645, -36.3814], [-71.0616, -36.3915], [-71.0651, -36.4091], [-71.0586, -36.4213], [-71.0687, -36.4518], [-71.0605, -36.4552], [-71.0602, -36.4647], [-71.0351, -36.4733], [-71.0192, -36.4735], [-71.0106, -36.4875], [-70.9975, -36.4871], [-70.9897, -36.4964], [-70.979, -36.4936], [-70.973, -36.5035], [-70.9595, -36.5058], [-70.9444, -36.4909], [-70.9348, -36.4936], [-70.9279, -36.4834], [-70.9283, -36.4752], [-70.9021, -36.474], [-70.8887, -36.4661], [-70.8949, -36.4518], [-70.8869, -36.4386], [-70.892, -36.4258], [-70.8901, -36.4034], [-70.8839, -36.3961], [-70.8664, -36.397], [-70.8713, -36.4055], [-70.8692, -36.4107], [-70.8509, -36.4162], [-70.8364, -36.414], [-70.8318, -36.4059], [-70.8158, -36.3963], [-70.7874, -36.4288], [-70.7731, -36.4282], [-70.7537, -36.407], [-70.7436, -36.406], [-70.7353, -36.4164], [-70.7393, -36.4298], [-70.7129, -36.4269], [-70.6794, -36.3894], [-70.6825, -36.372], [-70.6943, -36.36], [-70.7034, -36.3587], [-70.7034, -36.3518], [-70.7099, -36.3495], [-70.7123, -36.3423], [-70.7029, -36.3209], [-70.6847, -36.3047], [-70.6887, -36.2994], [-70.6849, -36.2852], [-70.7024, -36.2798], [-70.705, -36.2723], [-70.6914, -36.2579], [-70.6806, -36.2561], [-70.6647, -36.2424], [-70.6396, -36.2429], [-70.6322, -36.2387], [-70.6254, -36.2267], [-70.6333, -36.2171], [-70.6068, -36.2062], [-70.5996, -36.1917], [-70.5866, -36.1898], [-70.5713, -36.1748], [-70.5723, -36.1576], [-70.5833, -36.1472], [-70.5701, -36.1331], [-70.5718, -36.1219], [-70.5842, -36.115], [-70.6087, -36.1168], [-70.6123, -36.1096], [-70.6207, -36.1098], [-70.6252, -36.1035], [-70.6218, -36.092], [-70.6096, -36.0881], [-70.6099, -36.0783], [-70.6003, -36.0577], [-70.6047, -36.0491], [-70.6222, -36.0401], [-70.6124, -36.0337], [-70.6104, -36.0206], [-70.5927, -36.0251], [-70.586, -36.0208], [-70.5934, -36.0177], [-70.5972, -36.0049], [-70.6077, -35.9929], [-70.6242, -35.9978], [-70.6527, -35.9826], [-70.6827, -35.9879], [-70.6952, -35.983], [-70.745, -35.9815], [-70.7606, -35.9742], [-70.7872, -35.9705], [-70.8334, -35.974], [-70.8439, -35.9892], [-70.8533, -35.9931], [-70.8715, -35.9908], [-70.8909, -35.9587], [-70.9048, -35.9491], [-70.9357, -35.9405], [-70.9391, -35.9256], [-70.9566, -35.9118], [-70.9786, -35.8725], [-71.0016, -35.8654], [-70.9996, -35.8341], [-71.0097, -35.8288], [-71.0157, -35.832], [-71.0347, -35.8092], [-71.0368, -35.7862], [-71.0334, -35.7769], [-71.0421, -35.765], [-71.0505, -35.738], [-71.067, -35.7146], [-71.0825, -35.708], [-71.1101, -35.7041], [-71.1444, -35.7272], [-71.1841, -35.7227], [-71.2076, -35.7252], [-71.2522, -35.7], [-71.267, -35.6833], [-71.2785, -35.6851], [-71.2903, -35.6764], [-71.313, -35.6821], [-71.3404, -35.6784], [-71.3494, -35.6724], [-71.3561, -35.6554], [-71.3813, -35.6279], [-71.4146, -35.6128], [-71.4809, -35.6027], [-71.5047, -35.6079], [-71.5501, -35.5913], [-71.5943, -35.5891], [-71.6818, -35.5531], [-71.6969, -35.554], [-71.718, -35.5657], [-71.7543, -35.572], [-71.7673, -35.5627], [-71.769, -35.5471], [-71.7939, -35.5169], [-71.8494, -35.4984], [-71.8699, -35.4828], [-71.8839, -35.4629], [-71.9047, -35.4703], [-71.9233, -35.4633], [-71.9425, -35.471], [-71.9633, -35.4707], [-71.9978, -35.4519], [-72.0193, -35.4464], [-72.0316, -35.4493], [-72.0391, -35.4365], [-72.057, -35.4332], [-72.0716, -35.4177], [-72.0913, -35.4325], [-72.0935, -35.4423], [-72.1085, -35.4388], [-72.1291, -35.4754], [-72.1249, -35.4878], [-72.1878, -35.5771], [-72.1794, -35.575], [-72.1703, -35.585], [-72.1781, -35.6069], [-72.1882, -35.616], [-72.1492, -35.6357], [-72.1379, -35.6593], [-72.1391, -35.6655], [-72.1271, -35.6466], [-72.0915, -35.6457], [-72.085, -35.6492], [-72.0847, -35.6588], [-72.0776, -35.6655], [-72.0849, -35.674], [-72.0367, -35.674], [-72.0425, -35.6954], [-72.06, -35.705], [-72.0627, -35.7152]]]}}, {"type": "Feature", "properties": {"osm_type": "relation", "osm_id": 826849734, "name": "Provincia de Curicó", "admin_level": "6", "kind": "subdivision_2", "parent_osm_id": 239882, "parent_name": "Maule Region", "parent_iso": "CL-ML"}, "geometry": {"type": "Polygon", "coordinates": [[[-71.7963, -34.8267], [-71.818, -34.8408], [-71.8289, -34.8357], [-71.8428, -34.8363], [-71.8467, -34.8253], [-71.8649, -34.8181], [-71.9154, -34.814], [-71.9329, -34.8018], [-71.9391, -34.7912], [-71.9383, -34.7762], [-71.9557, -34.7574], [-71.9621, -34.7519], [-71.9804, -34.7523], [-71.9978, -34.7403], [-71.9944, -34.7173], [-72.0026, -34.713], [-72.0054, -34.7052], [-72.021, -34.6987], [-72.0345, -34.7003], [-72.0365, -34.6854], [-72.059, -34.6875], [-72.0652, -34.6959], [-72.0705, -34.7284], [-72.0802, -34.7499], [-72.0924, -34.7558], [-72.1066, -34.7791], [-72.1263, -34.7946], [-72.1434, -34.821], [-72.1505, -34.8682], [-72.1625, -34.8845], [-72.1803, -34.8945], [-72.1829, -34.9363], [-72.1874, -34.9422], [-72.1846, -35.0004], [-72.1811, -35.0014], [-72.1761, -35.0321], [-72.16, -35.0555], [-72.1414, -35.0592], [-72.1299, -35.0531], [-72.1222, -35.0358], [-72.0893, -35.049], [-72.063, -35.0362], [-72.0287, -34.9957], [-71.9984, -34.981], [-71.9851, -34.9997], [-71.9626, -35.009], [-71.9406, -34.9974], [-71.9094, -35.0031], [-71.9015, -34.9965], [-71.8526, -34.9906], [-71.8445, -34.9761], [-71.8173, -34.9711], [-71.8087, -34.992], [-71.7803, -34.9934], [-71.7702, -34.9985], [-71.7563, -35.0187], [-71.753, -35.034], [-71.7308, -35.0578], [-71.7209, -35.0887], [-71.7087, -35.0924], [-71.6914, -35.1092], [-71.6849, -35.1099], [-71.6848, -35.1276], [-71.6714, -35.1488], [-71.6792, -35.1673], [-71.6727, -35.1744], [-71.673, -35.198], [-71.6677, -35.2088], [-71.6391, -35.2136], [-71.6219, -35.2262], [-71.599, -35.2244], [-71.5902, -35.2129], [-71.5772, -35.2061], [-71.5757, -35.2111], [-71.5662, -35.2122], [-71.558, -35.2265], [-71.5071, -35.2446], [-71.5094, -35.241], [-71.5, -35.2413], [-71.5006, -35.2362], [-71.4832, -35.2293], [-71.4811, -35.2216], [-71.4472, -35.2132], [-71.4376, -35.2162], [-71.4115, -35.2039], [-71.3961, -35.1848], [-71.3852, -35.1801], [-71.3815, -35.1749], [-71.384, -35.1701], [-71.3775, -35.1601], [-71.3709, -35.1606], [-71.3615, -35.1421], [-71.3428, -35.1394], [-71.3371, -35.1314], [-71.3086, -35.1351], [-71.2964, -35.1486], [-71.2616, -35.1635], [-71.2575, -35.1742], [-71.2259, -35.1823], [-71.216, -35.1943], [-71.2038, -35.2239], [-71.1618, -35.2541], [-71.159, -35.2651], [-71.1452, -35.2754], [-71.1348, -35.2916], [-71.118, -35.3016], [-71.1107, -35.3353], [-71.1154, -35.3495], [-71.1132, -35.3716], [-71.0935, -35.3896], [-71.0888, -35.402], [-71.0576, -35.4131], [-71.0573, -35.4229], [-71.0347, -35.4595], [-71.0165, -35.4633], [-71.0092, -35.4719], [-70.9931, -35.4773], [-70.9555, -35.4847], [-70.9324, -35.4999], [-70.8671, -35.4983], [-70.8438, -35.491], [-70.8318, -35.4938], [-70.8186, -35.5089], [-70.7861, -35.5046], [-70.7892, -35.5183], [-70.7714, -35.5313], [-70.7666, -35.5694], [-70.7515, -35.5832], [-70.7455, -35.5768], [-70.7487, -35.5648], [-70.7425, -35.5525], [-70.7053, -35.5323], [-70.695, -35.5197], [-70.6766, -35.5215], [-70.667, -35.529], [-70.6461, -35.5184], [-70.6184, -35.5149], [-70.6191, -35.5073], [-70.6069, -35.5003], [-70.5903, -35.4782], [-70.5721, -35.4687], [-70.5549, -35.4758], [-70.5412, -35.4652], [-70.5275, -35.4959], [-70.5091, -35.499], [-70.4983, -35.5148], [-70.4924, -35.5542], [-70.499, -35.5666], [-70.4897, -35.575], [-70.4904, -35.5814], [-70.4814, -35.5842], [-70.4663, -35.5991], [-70.4348, -35.5947], [-70.4272, -35.6], [-70.4301, -35.6075], [-70.4186, -35.624], [-70.419, -35.6304], [-70.4021, -35.6267], [-70.3865, -35.6069], [-70.4088, -35.5595], [-70.4082, -35.5392], [-70.4126, -35.5299], [-70.3924, -35.5168], [-70.3987, -35.508], [-70.3963, -35.502], [-70.4248, -35.4831], [-70.4392, -35.4606], [-70.4336, -35.436], [-70.4533, -35.4271], [-70.4509, -35.4207], [-70.4396, -35.4145], [-70.4529, -35.3952], [-70.4461, -35.3858], [-70.4231, -35.3713], [-70.4246, -35.3625], [-70.4186, -35.3544], [-70.4202, -35.3495], [-70.4281, -35.3478], [-70.4366, -35.3299], [-70.4368, -35.3222], [-70.432, -35.3184], [-70.4505, -35.3156], [-70.4596, -35.3203], [-70.4675, -35.3128], [-70.5003, -35.3224], [-70.512, -35.3105], [-70.5669, -35.2993], [-70.5836, -35.2783], [-70.5802, -35.2573], [-70.5727, -35.2561], [-70.5728, -35.2503], [-70.5648, -35.2425], [-70.5673, -35.2244], [-70.5367, -35.1994], [-70.5295, -35.1981], [-70.5256, -35.2054], [-70.4705, -35.2031], [-70.4543, -35.1891], [-70.4516, -35.1949], [-70.4404, -35.194], [-70.388, -35.1708], [-70.3761, -35.1727], [-70.3715, -35.1508], [-70.362, -35.1365], [-70.3702, -35.1119], [-70.3577, -35.0992], [-70.3713, -35.0929], [-70.3742, -35.081], [-70.3711, -35.0671], [-70.3754, -35.0461], [-70.3608, -35.0342], [-70.3601, -35.0287], [-70.3658, -35.0182], [-70.3656, -35.0059], [-70.3754, -34.9996], [-70.3893, -34.9979], [-70.4135, -34.9839], [-70.4444, -34.9921], [-70.4559, -34.9893], [-70.4767, -34.9929], [-70.4918, -34.9744], [-70.5264, -34.9651], [-70.5231, -34.9512], [-70.5376, -34.9504], [-70.5412, -34.9331], [-70.5684, -34.9397], [-70.5685, -34.9533], [-70.5858, -34.9618], [-70.5986, -34.9568], [-70.6156, -34.9612], [-70.6217, -34.9881], [-70.6636, -34.9646], [-70.6678, -34.9491], [-70.686, -34.9239], [-70.6953, -34.9262], [-70.7112, -34.9155], [-70.7146, -34.9024], [-70.7383, -34.8904], [-70.7723, -34.8585], [-70.788, -34.8599], [-70.7957, -34.8531], [-70.8153, -34.8501], [-70.8165, -34.8667], [-70.8269, -34.869], [-70.8545, -34.8601], [-70.8581, -34.8547], [-70.8829, -34.8501], [-70.9577, -34.8716], [-70.9635, -34.8685], [-70.9695, -34.8484], [-70.9759, -34.8478], [-70.9807, -34.8395], [-71.0004, -34.8278], [-71.0152, -34.8258], [-71.026, -34.8079], [-71.0491, -34.7923], [-71.0535, -34.8048], [-71.0676, -34.8195], [-71.0988, -34.8275], [-71.1342, -34.7867], [-71.1424, -34.7885], [-71.1537, -34.7994], [-71.1904, -34.8055], [-71.1944, -34.8226], [-71.2127, -34.8356], [-71.2314, -34.8251], [-71.2464, -34.8275], [-71.2615, -34.8238], [-71.2678, -34.7968], [-71.2799, -34.7921], [-71.303, -34.7959], [-71.3145, -34.8025], [-71.313, -34.8102], [-71.3226, -34.821], [-71.3418, -34.8307], [-71.3569, -34.8266], [-71.3593, -34.8318], [-71.3746, -34.8345], [-71.3815, -34.8418], [-71.383, -34.8503], [-71.3784, -34.8544], [-71.387, -34.8642], [-71.3865, -34.8842], [-71.379, -34.8946], [-71.3699, -34.8939], [-71.3671, -34.9136], [-71.3833, -34.9078], [-71.397, -34.8949], [-71.4193, -34.9039], [-71.4262, -34.8854], [-71.4398, -34.8804], [-71.4658, -34.8997], [-71.4839, -34.8916], [-71.4945, -34.8926], [-71.5131, -34.8765], [-71.5269, -34.8761], [-71.534, -34.8696], [-71.5422, -34.8762], [-71.5513, -34.8723], [-71.5671, -34.8761], [-71.5788, -34.8674], [-71.5898, -34.8801], [-71.6051, -34.8831], [-71.6133, -34.8673], [-71.6583, -34.8547], [-71.6691, -34.8741], [-71.6799, -34.8816], [-71.684, -34.8944], [-71.6674, -34.9064], [-71.6748, -34.9239], [-71.7089, -34.937], [-71.7148, -34.9163], [-71.7271, -34.9135], [-71.7269, -34.9037], [-71.7325, -34.8974], [-71.7551, -34.8837], [-71.7725, -34.861], [-71.7764, -34.8438], [-71.7963, -34.8267]]]}}]}