{"type": "FeatureCollection", "parent": {"osm_id": 241038, "name": "Hamadan Province", "admin_level": "4", "kind": "subdivision_1", "child_kind": "subdivision_2", "iso": "IR-13"}, "features": [{"type": "Feature", "properties": {"osm_type": "relation", "osm_id": 920420195, "name": "Iranshahr", "admin_level": "6", "kind": "subdivision_2", "parent_osm_id": 241038, "parent_name": "Hamadan Province", "parent_iso": "IR-13"}, "geometry": {"type": "Polygon", "coordinates": [[[60.1811, 28.6104], [60.0841, 28.6099], [59.9654, 28.5432], [59.9098, 28.6025], [59.8538, 28.5851], [59.811, 28.6316], [59.7634, 28.6016], [59.675, 28.6503], [59.611, 28.726], [59.5616, 28.724], [59.5627, 28.6904], [59.5458, 28.6345], [59.5661, 28.5184], [59.5608, 28.4898], [59.5477, 28.4776], [59.5163, 28.4723], [59.4061, 28.4834], [59.3247, 28.4843], [59.2305, 28.4765], [59.1722, 28.464], [59.0623, 28.4172], [59.0628, 28.4115], [59.0995, 28.3879], [59.1225, 28.3632], [59.1262, 28.2985], [59.1614, 28.2507], [59.1648, 28.2299], [59.1551, 28.1963], [59.1484, 28.1274], [59.1281, 28.1124], [59.0339, 28.1151], [59.0146, 28.1071], [58.9569, 28.0601], [59.0215, 28.0541], [59.0875, 28.0634], [59.1484, 28.0801], [59.223, 28.0503], [59.266, 28.0417], [59.3677, 28.0409], [59.4525, 28.052], [59.6972, 28.0434], [59.6897, 27.8942], [59.673, 27.7848], [59.6489, 27.7287], [59.5808, 27.6567], [59.5566, 27.6059], [59.67, 27.4973], [59.7527, 27.4415], [59.8808, 27.322], [59.9158, 27.2784], [59.9497, 27.2462], [59.8897, 27.1709], [59.8116, 27.0601], [59.9616, 27.0145], [60.0764, 27.007], [60.3636, 27.0064], [60.385, 27.0031], [60.4644, 26.9473], [60.5131, 26.8989], [60.6198, 26.7587], [60.6945, 26.8528], [60.7189, 26.8967], [60.7542, 26.9251], [60.792, 26.9417], [60.8489, 26.9498], [60.9475, 26.9848], [61.0634, 27.0453], [61.1411, 27.0631], [61.1273, 27.0799], [61.1355, 27.0858], [61.1357, 27.095], [61.1811, 27.1428], [61.1947, 27.1507], [61.2061, 27.1783], [61.245, 27.197], [61.2345, 27.2303], [61.2223, 27.247], [61.1436, 27.3039], [61.0931, 27.3578], [61.1109, 27.3948], [61.1431, 27.4323], [61.1467, 27.4576], [61.1175, 27.4576], [61.0578, 27.4817], [61.0106, 27.4862], [60.9928, 27.4984], [60.8422, 27.5076], [60.7403, 27.5445], [60.7245, 27.5592], [60.6892, 27.667], [60.6825, 27.7123], [60.6622, 27.7559], [60.5883, 27.8209], [60.4344, 27.9134], [60.3494, 27.9754], [60.3378, 27.9951], [60.3317, 28.0737], [60.3005, 28.1523], [60.2692, 28.277], [60.2664, 28.4287], [60.2239, 28.5598], [60.2042, 28.5893], [60.1811, 28.6104]]]}}, {"type": "Feature", "properties": {"osm_type": "relation", "osm_id": 760653534, "name": "Khash", "admin_level": "6", "kind": "subdivision_2", "parent_osm_id": 241038, "parent_name": "Hamadan Province", "parent_iso": "IR-13"}, "geometry": {"type": "Polygon", "coordinates": [[[61.1467, 27.4576], [61.1961, 27.4765], [61.2259, 27.4995], [61.2725, 27.5028], [61.3036, 27.5106], [61.3644, 27.5549], [61.2559, 27.6792], [61.1842, 27.7731], [61.1814, 27.8009], [61.1889, 27.8498], [61.2, 27.8659], [61.2189, 27.8773], [61.2845, 27.8926], [61.4617, 27.9009], [61.5303, 27.8951], [61.6989, 27.8973], [61.8839, 27.8853], [62.0498, 27.8909], [62.0553, 27.9076], [62.0634, 27.9917], [62.0565, 28.0037], [62.0517, 28.0434], [62.0623, 28.0712], [62.1273, 28.0595], [62.2284, 28.0284], [62.3026, 28.012], [62.4495, 28.0015], [62.5159, 28.0087], [62.6937, 28.0745], [62.7711, 28.087], [62.7944, 28.2273], [62.793, 28.2789], [62.5972, 28.2484], [62.5246, 28.3185], [62.5123, 28.3229], [62.5007, 28.3455], [62.5018, 28.3534], [62.494, 28.3598], [62.4888, 28.3734], [62.4631, 28.3779], [62.3907, 28.4317], [62.3536, 28.4351], [62.3256, 28.4502], [62.2787, 28.4507], [62.2498, 28.4627], [62.2071, 28.4699], [62.1683, 28.4888], [62.0564, 28.5086], [62.048, 28.4919], [62.0095, 28.4443], [61.9942, 28.4382], [61.9581, 28.3979], [61.8999, 28.3636], [61.8438, 28.3644], [61.8014, 28.3819], [61.767, 28.3579], [61.6862, 28.332], [61.6774, 28.3386], [61.6526, 28.3947], [61.616, 28.4454], [61.6077, 28.4796], [61.5854, 28.5012], [61.593, 28.5115], [61.5859, 28.5281], [61.5892, 28.5433], [61.573, 28.5566], [61.5792, 28.5612], [61.5201, 28.582], [61.5003, 28.6012], [61.4275, 28.6504], [61.3984, 28.6923], [61.4017, 28.7131], [61.3981, 28.7406], [61.3873, 28.7384], [61.3489, 28.7081], [61.3223, 28.6617], [61.2742, 28.6151], [61.2556, 28.6051], [61.1828, 28.5973], [61.102, 28.6015], [60.9511, 28.6484], [60.8925, 28.6868], [60.8828, 28.729], [60.8825, 28.7568], [60.8611, 28.787], [60.8417, 28.8354], [60.8358, 28.8429], [60.7948, 28.8625], [60.8038, 28.9005], [60.7843, 28.8906], [60.774, 28.8912], [60.7489, 28.8614], [60.7002, 28.8202], [60.6968, 28.8021], [60.673, 28.7888], [60.663, 28.7655], [60.5993, 28.7453], [60.5764, 28.7447], [60.5016, 28.6847], [60.4886, 28.647], [60.4566, 28.6341], [60.3609, 28.6136], [60.3326, 28.5925], [60.317, 28.5707], [60.3001, 28.5682], [60.2867, 28.5587], [60.2595, 28.5556], [60.2402, 28.611], [60.1811, 28.6104], [60.2042, 28.5893], [60.2239, 28.5598], [60.2664, 28.4287], [60.2692, 28.277], [60.3005, 28.1523], [60.3317, 28.0737], [60.3378, 27.9951], [60.3494, 27.9754], [60.4344, 27.9134], [60.5883, 27.8209], [60.6622, 27.7559], [60.6825, 27.7123], [60.6892, 27.667], [60.7245, 27.5592], [60.7403, 27.5445], [60.8422, 27.5076], [60.9928, 27.4984], [61.0106, 27.4862], [61.0578, 27.4817], [61.1175, 27.4576], [61.1467, 27.4576]]]}}, {"type": "Feature", "properties": {"osm_type": "relation", "osm_id": 296720262, "name": "Dalagan", "admin_level": "6", "kind": "subdivision_2", "parent_osm_id": 241038, "parent_name": "Hamadan Province", "parent_iso": "IR-13"}, "geometry": {"type": "Polygon", "coordinates": [[[58.9569, 28.0601], [58.9316, 28.0223], [58.9344, 27.9937], [58.9288, 27.9637], [58.8905, 27.8981], [58.9022, 27.819], [58.9058, 27.6706], [58.9002, 27.6253], [58.901, 27.5765], [58.8541, 27.3931], [58.831, 27.2537], [58.8335, 27.1642], [58.8485, 27.1017], [58.8702, 27.0487], [58.8894, 27.0203], [58.913, 26.9999], [58.9119, 26.9887], [58.8644, 26.9087], [58.8494, 26.8576], [58.8535, 26.8248], [58.8994, 26.7912], [58.9585, 26.7662], [58.9905, 26.7587], [59.1274, 26.8281], [59.2419, 26.8712], [59.3127, 26.9067], [59.4169, 26.8484], [59.4738, 26.8248], [59.4977, 26.8262], [59.5188, 26.8501], [59.5558, 26.8698], [59.6041, 26.8728], [59.6577, 26.867], [59.7, 26.9345], [59.7941, 27.0459], [59.8116, 27.0601], [59.8897, 27.1709], [59.9497, 27.2462], [59.9158, 27.2784], [59.8808, 27.322], [59.7527, 27.4415], [59.67, 27.4973], [59.5566, 27.6059], [59.5808, 27.6567], [59.6489, 27.7287], [59.673, 27.7848], [59.6897, 27.8942], [59.6972, 28.0434], [59.4525, 28.052], [59.3677, 28.0409], [59.266, 28.0417], [59.223, 28.0503], [59.1484, 28.0801], [59.0875, 28.0634], [59.0215, 28.0541], [58.9569, 28.0601]]]}}, {"type": "Feature", "properties": {"osm_type": "relation", "osm_id": 618355892, "name": "Rigan", "admin_level": "6", "kind": "subdivision_2", "parent_osm_id": 241038, "parent_name": "Hamadan Province", "parent_iso": "IR-13"}, "geometry": {"type": "Polygon", "coordinates": [[[59.5616, 28.724], [59.5515, 28.8009], [59.5272, 28.7934], [59.4236, 28.7818], [59.2197, 28.7693], [59.04, 28.7275], [58.95, 28.7808], [58.9022, 28.7923], [58.8622, 28.7793], [58.8363, 28.7845], [58.7502, 28.8265], [58.7141, 28.8581], [58.6646, 28.8604], [58.5938, 28.8454], [58.5871, 28.8045], [58.5899, 28.7345], [58.5805, 28.669], [58.5635, 28.629], [58.506, 28.5315], [58.5002, 28.5284], [58.4532, 28.549], [58.3661, 28.5698], [58.4199, 28.5018], [58.443, 28.4604], [58.4507, 28.4218], [58.463, 28.2618], [58.4677, 28.2493], [58.4805, 28.2437], [58.5227, 28.2418], [58.633, 28.2037], [58.6986, 28.2013], [58.762, 28.1788], [58.8784, 28.1471], [58.9209, 28.1257], [58.9793, 28.0788], [59.0146, 28.1071], [59.0339, 28.1151], [59.1281, 28.1124], [59.1484, 28.1274], [59.1551, 28.1963], [59.1648, 28.2299], [59.1614, 28.2507], [59.1262, 28.2985], [59.1225, 28.3632], [59.0995, 28.3879], [59.0628, 28.4115], [59.0623, 28.4172], [59.1722, 28.464], [59.2305, 28.4765], [59.3247, 28.4843], [59.4061, 28.4834], [59.5163, 28.4723], [59.5477, 28.4776], [59.5608, 28.4898], [59.5661, 28.5184], [59.5458, 28.6345], [59.5627, 28.6904], [59.5616, 28.724]]]}}, {"type": "Feature", "properties": {"osm_type": "relation", "osm_id": 955111432, "name": "Zabol", "admin_level": "6", "kind": "subdivision_2", "parent_osm_id": 241038, "parent_name": "Hamadan Province", "parent_iso": "IR-13"}, "geometry": {"type": "Polygon", "coordinates": [[[61.7351, 30.9818], [61.722, 31.0007], [61.679, 31.0199], [61.6653, 31.0574], [61.654, 31.0735], [61.5844, 31.1515], [61.4987, 31.1257], [61.5137, 31.1115], [61.5251, 31.0793], [61.5184, 31.0532], [61.5064, 31.0399], [61.4898, 31.0057], [61.4873, 30.9879], [61.4914, 30.9676], [61.5003, 30.9582], [61.5012, 30.929], [61.5216, 30.9114], [61.5937, 30.9604], [61.6453, 30.9574], [61.7351, 30.9818]]]}}, {"type": "Feature", "properties": {"osm_type": "relation", "osm_id": 557032757, "name": "Zahedan", "admin_level": "6", "kind": "subdivision_2", "parent_osm_id": 241038, "parent_name": "Hamadan Province", "parent_iso": "IR-13"}, "geometry": {"type": "Polygon", "coordinates": [[[60.1811, 28.6104], [60.2402, 28.611], [60.2595, 28.5556], [60.2867, 28.5587], [60.3001, 28.5682], [60.317, 28.5707], [60.3326, 28.5925], [60.3609, 28.6136], [60.4566, 28.6341], [60.4886, 28.647], [60.5016, 28.6847], [60.5764, 28.7447], [60.5993, 28.7453], [60.663, 28.7655], [60.673, 28.7888], [60.6968, 28.8021], [60.7002, 28.8202], [60.7489, 28.8614], [60.774, 28.8912], [60.7843, 28.8906], [60.8038, 28.9005], [60.8108, 28.9301], [60.779, 28.9649], [60.7418, 28.9698], [60.7183, 28.9904], [60.7102, 29.0373], [60.7506, 29.0353], [60.8139, 29.0519], [60.8325, 29.0456], [60.8562, 29.0241], [60.8724, 29.0189], [60.9109, 29.0171], [60.92, 29.0223], [60.9261, 29.0314], [60.922, 29.1128], [60.9152, 29.1278], [60.9137, 29.1487], [60.9345, 29.1626], [60.9473, 29.1518], [60.9727, 29.1471], [60.9785, 29.1342], [61.0202, 29.129], [61.0301, 29.131], [61.0333, 29.1452], [61.0473, 29.1401], [61.0612, 29.1458], [61.0628, 29.1574], [61.0574, 29.1663], [61.0416, 29.1739], [61.041, 29.1783], [61.049, 29.1992], [61.0644, 29.2199], [61.0567, 29.2439], [61.0574, 29.2569], [61.0862, 29.2583], [61.1002, 29.2692], [61.0989, 29.2807], [61.0868, 29.3022], [61.0907, 29.3175], [61.1078, 29.3231], [61.133, 29.3441], [61.1486, 29.3388], [61.1792, 29.3414], [61.2135, 29.353], [61.2257, 29.3628], [61.2373, 29.3561], [61.2668, 29.3526], [61.2915, 29.3641], [61.3217, 29.3888], [61.3013, 29.4014], [61.2994, 29.4132], [61.1625, 29.5333], [60.8729, 29.8585], [61.0948, 30.0955], [61.0706, 30.1087], [61.0534, 30.1279], [61.0323, 30.1685], [61.0234, 30.1721], [60.9806, 30.169], [60.9042, 30.1487], [60.8647, 30.1457], [60.7511, 30.2204], [60.6853, 30.2321], [60.6125, 30.2729], [60.5839, 30.3051], [60.5653, 30.3515], [60.5625, 30.4112], [60.5222, 30.4843], [60.4431, 30.5807], [60.3967, 30.6162], [60.3553, 30.6435], [60.2911, 30.6765], [60.2228, 30.7012], [60.0955, 30.7262], [60.0678, 30.7446], [60.0461, 30.7668], [60.0005, 30.7604], [59.9397, 30.7612], [59.8775, 30.7098], [59.7853, 30.6632], [59.4636, 30.5168], [59.468, 30.4898], [59.4422, 30.3687], [59.425, 30.2526], [59.4352, 30.0709], [59.4494, 29.9934], [59.4322, 29.9079], [59.4486, 29.7354], [59.448, 29.6507], [59.4561, 29.5882], [59.4552, 29.5043], [59.4633, 29.4337], [59.4636, 29.3743], [59.4944, 29.2445], [59.5175, 29.1834], [59.5697, 29.0909], [59.5708, 29.082], [59.5641, 29.0693], [59.5375, 29.0454], [59.5055, 28.9998], [59.4969, 28.9609], [59.5394, 28.8704], [59.5616, 28.724], [59.611, 28.726], [59.675, 28.6503], [59.7634, 28.6016], [59.811, 28.6316], [59.8538, 28.5851], [59.9098, 28.6025], [59.9654, 28.5432], [60.0841, 28.6099], [60.1811, 28.6104]]]}}, {"type": "Feature", "properties": {"osm_type": "relation", "osm_id": 780254418, "name": "Zahak", "admin_level": "6", "kind": "subdivision_2", "parent_osm_id": 241038, "parent_name": "Hamadan Province", "parent_iso": "IR-13"}, "geometry": {"type": "Polygon", "coordinates": [[[61.5216, 30.9114], [61.5023, 30.8965], [61.4995, 30.8893], [61.5039, 30.8604], [61.5006, 30.7721], [61.5045, 30.7382], [61.5242, 30.7149], [61.5206, 30.7012], [61.5317, 30.6596], [61.5847, 30.613], [61.7715, 30.8086], [61.8036, 30.8353], [61.7927, 30.8673], [61.7962, 30.8834], [61.7856, 30.8966], [61.782, 30.9112], [61.7881, 30.9404], [61.7787, 30.9415], [61.7351, 30.9818], [61.6453, 30.9574], [61.5937, 30.9604], [61.5216, 30.9114]]]}}, {"type": "Feature", "properties": {"osm_type": "relation", "osm_id": 908647264, "name": "Saravan", "admin_level": "6", "kind": "subdivision_2", "parent_osm_id": 241038, "parent_name": "Hamadan Province", "parent_iso": "IR-13"}, "geometry": {"type": "Polygon", "coordinates": [[[61.7278, 27.8946], [61.7359, 27.839], [61.7751, 27.7698], [61.8628, 27.6376], [61.9198, 27.5681], [62.0084, 27.5048], [62.0901, 27.4648], [62.1203, 27.3159], [62.2284, 27.2775], [62.279, 27.2673], [62.334, 27.2373], [62.3737, 27.2023], [62.4195, 27.1859], [62.4687, 27.1512], [62.4137, 27.1037], [62.3726, 27.0303], [62.3312, 26.992], [62.3126, 26.9487], [62.3145, 26.9384], [62.3426, 26.907], [62.3665, 26.86], [62.3681, 26.8256], [62.3609, 26.7942], [62.3838, 26.7903], [62.4191, 26.7761], [62.484, 26.7152], [62.4926, 26.6849], [62.52, 26.6228], [62.5257, 26.599], [62.5245, 26.5866], [62.517, 26.5758], [62.5209, 26.572], [62.6041, 26.5763], [62.6093, 26.5825], [62.635, 26.5922], [62.6516, 26.611], [62.6721, 26.6123], [62.6892, 26.6005], [62.697, 26.6093], [62.7101, 26.6091], [62.7273, 26.6183], [62.7381, 26.6132], [62.7333, 26.6295], [62.7435, 26.6334], [62.7535, 26.645], [62.7623, 26.6462], [62.779, 26.639], [62.7947, 26.651], [62.798, 26.647], [62.81, 26.6498], [62.8244, 26.638], [62.8316, 26.6452], [62.8388, 26.6413], [62.8646, 26.6413], [62.887, 26.6464], [62.9006, 26.6404], [62.9187, 26.6456], [62.9337, 26.6392], [62.9373, 26.6445], [62.9459, 26.6411], [62.952, 26.6477], [62.9777, 26.6456], [62.99, 26.6499], [62.9986, 26.6392], [63.0159, 26.6464], [63.0364, 26.6297], [63.0489, 26.6275], [63.0642, 26.6419], [63.0754, 26.6363], [63.0922, 26.6398], [63.099, 26.6491], [63.1081, 26.6524], [63.1199, 26.6484], [63.1387, 26.6512], [63.1969, 26.6471], [63.1903, 26.6656], [63.201, 26.6742], [63.1885, 26.6953], [63.1907, 26.7105], [63.2011, 26.7103], [63.204, 26.7184], [63.1944, 26.7409], [63.2018, 26.7509], [63.1994, 26.7669], [63.1915, 26.7705], [63.2089, 26.7733], [63.1982, 26.7762], [63.1919, 26.7863], [63.1951, 26.7928], [63.1876, 26.7982], [63.1947, 26.8012], [63.1914, 26.8045], [63.1949, 26.8111], [63.1908, 26.8223], [63.1939, 26.8239], [63.1862, 26.8268], [63.186, 26.8367], [63.2432, 26.8414], [63.2463, 26.8499], [63.2495, 26.8677], [63.237, 26.8812], [63.2421, 26.8915], [63.2392, 26.898], [63.2533, 26.9035], [63.2511, 27.0922], [63.2629, 27.0942], [63.2654, 27.1087], [63.2759, 27.113], [63.2762, 27.1178], [63.2842, 27.1211], [63.2972, 27.1156], [63.3071, 27.1296], [63.3333, 27.1184], [63.2818, 27.2137], [63.2508, 27.2273], [63.2247, 27.2256], [63.2113, 27.2364], [63.1987, 27.2594], [63.1759, 27.2584], [63.145, 27.2426], [63.1378, 27.2447], [63.1167, 27.2361], [63.1061, 27.2388], [63.0896, 27.2354], [63.0861, 27.245], [63.0552, 27.2339], [63.0406, 27.2373], [63.0317, 27.2299], [62.9934, 27.2158], [62.9733, 27.2164], [62.9675, 27.2087], [62.937, 27.2014], [62.9139, 27.2086], [62.9096, 27.2155], [62.8909, 27.2131], [62.873, 27.2289], [62.8515, 27.216], [62.8207, 27.2185], [62.7989, 27.2348], [62.8004, 27.2379], [62.7843, 27.2532], [62.7756, 27.2529], [62.7756, 27.2604], [62.8088, 27.2642], [62.8093, 27.2727], [62.8172, 27.2786], [62.8135, 27.2838], [62.8167, 27.2933], [62.8248, 27.2992], [62.8217, 27.3017], [62.8263, 27.31], [62.8112, 27.3173], [62.8029, 27.327], [62.8077, 27.3303], [62.7913, 27.3388], [62.798, 27.3487], [62.7955, 27.3611], [62.8024, 27.3645], [62.8484, 27.4629], [62.829, 27.7645], [62.761, 28.0259], [62.7711, 28.087], [62.6937, 28.0745], [62.5159, 28.0087], [62.4495, 28.0015], [62.3026, 28.012], [62.2284, 28.0284], [62.1273, 28.0595], [62.0623, 28.0712], [62.0517, 28.0434], [62.0565, 28.0037], [62.0634, 27.9917], [62.0553, 27.9076], [62.0498, 27.8909], [61.8839, 27.8853], [61.7278, 27.8946]]]}}, {"type": "Feature", "properties": {"osm_type": "relation", "osm_id": 745133356, "name": "Sarbaz", "admin_level": "6", "kind": "subdivision_2", "parent_osm_id": 241038, "parent_name": "Hamadan Province", "parent_iso": "IR-13"}, "geometry": {"type": "Polygon", "coordinates": [[[60.6198, 26.7587], [60.6231, 26.755], [60.7086, 26.7509], [60.7625, 26.7403], [60.8264, 26.7192], [60.8708, 26.6969], [60.8834, 26.6603], [60.8932, 26.6026], [60.8947, 26.5593], [60.8909, 26.5498], [60.8814, 26.5364], [60.7854, 26.5037], [60.8111, 26.4956], [60.8322, 26.4425], [60.8597, 26.4059], [60.8767, 26.3739], [60.8903, 26.36], [60.9158, 26.345], [60.9806, 26.2589], [61.06, 26.2506], [61.1942, 26.2603], [61.2061, 26.2498], [61.2111, 26.1973], [61.2509, 26.1284], [61.2578, 26.1075], [61.2575, 26.0828], [61.2434, 26.0064], [61.2472, 25.9306], [61.257, 25.9236], [61.3128, 25.9089], [61.4281, 25.9023], [61.6359, 25.9089], [61.6514, 25.897], [61.7053, 25.835], [61.7275, 25.82], [61.7517, 25.8114], [61.7898, 25.8103], [61.8489, 25.8224], [61.8381, 25.8257], [61.843, 25.8397], [61.8235, 25.84], [61.8204, 25.8492], [61.832, 25.8541], [61.8322, 25.8654], [61.8435, 25.8661], [61.8387, 25.8721], [61.8422, 25.8777], [61.8907, 25.8832], [61.8905, 25.8912], [61.8722, 25.8943], [61.865, 25.9094], [61.8588, 25.9087], [61.8568, 25.9148], [61.8317, 25.9114], [61.8251, 25.9612], [61.8184, 25.9672], [61.8197, 25.9737], [61.8339, 25.9826], [61.8304, 25.9929], [61.8385, 26.0025], [61.8363, 26.0094], [61.8443, 26.0115], [61.8464, 26.0187], [61.8287, 26.0312], [61.8411, 26.0356], [61.834, 26.0449], [61.8383, 26.0506], [61.8328, 26.0594], [61.8414, 26.0652], [61.8602, 26.176], [61.8932, 26.2335], [61.8893, 26.252], [61.8948, 26.2534], [61.8963, 26.2614], [61.9067, 26.2612], [61.9166, 26.2537], [61.9527, 26.2655], [61.9611, 26.2602], [61.9679, 26.2693], [61.981, 26.275], [61.9829, 26.2812], [61.9971, 26.2805], [62.0104, 26.3002], [62.0218, 26.3028], [62.0214, 26.3086], [62.0286, 26.3126], [62.0264, 26.3261], [62.0334, 26.3345], [62.0711, 26.3267], [62.0852, 26.3189], [62.0978, 26.3067], [62.0983, 26.2858], [62.1254, 26.274], [62.1781, 26.2655], [62.215, 26.2679], [62.2245, 26.2837], [62.2176, 26.2916], [62.227, 26.3], [62.2344, 26.3167], [62.2282, 26.3295], [62.2344, 26.3305], [62.2501, 26.3198], [62.2719, 26.328], [62.2707, 26.3339], [62.2522, 26.3406], [62.2531, 26.3597], [62.2637, 26.3712], [62.2847, 26.3803], [62.2696, 26.4041], [62.2595, 26.4083], [62.2651, 26.4395], [62.2578, 26.4462], [62.2849, 26.4397], [62.2882, 26.4497], [62.2979, 26.4542], [62.2975, 26.4618], [62.3069, 26.4628], [62.3046, 26.4684], [62.3142, 26.4734], [62.3106, 26.4799], [62.3149, 26.4865], [62.3056, 26.4855], [62.2991, 26.4921], [62.3033, 26.5083], [62.311, 26.5165], [62.3084, 26.5183], [62.2768, 26.512], [62.2638, 26.5134], [62.2485, 26.5226], [62.236, 26.5213], [62.1411, 26.4866], [62.1303, 26.4863], [62.1231, 26.4927], [62.1117, 26.4902], [62.1015, 26.4958], [62.0603, 26.4954], [62.0311, 26.5033], [61.9901, 26.4895], [61.9574, 26.4842], [61.9467, 26.4849], [61.9436, 26.49], [61.9116, 26.4911], [61.911, 26.5126], [61.9041, 26.5158], [61.9044, 26.526], [61.8903, 26.521], [61.8637, 26.5239], [61.843, 26.5124], [61.8351, 26.5177], [61.8186, 26.5065], [61.7844, 26.4964], [61.7361, 26.5045], [61.73, 26.5242], [61.7096, 26.5299], [61.6849, 26.5567], [61.6682, 26.5562], [61.6598, 26.5493], [61.6369, 26.5615], [61.6118, 26.5605], [61.5855, 26.5756], [61.5733, 26.6054], [61.5418, 26.6292], [61.5095, 26.6422], [61.5052, 26.6644], [61.5248, 26.6822], [61.5319, 26.6954], [61.5341, 26.7226], [61.5311, 26.761], [61.5134, 26.7676], [61.5268, 26.7831], [61.5034, 26.7955], [61.5078, 26.8498], [61.5478, 26.8555], [61.6216, 26.851], [61.5853, 26.8659], [61.5417, 26.9298], [61.5243, 26.947], [61.469, 26.9564], [61.4356, 26.9549], [61.4032, 26.9599], [61.3878, 26.9523], [61.3707, 26.9507], [61.3645, 26.9523], [61.3582, 26.9642], [61.3413, 26.9678], [61.2974, 26.9958], [61.2386, 27.0003], [61.1158, 26.9982], [61.1144, 27.0309], [61.1397, 27.0628], [61.0634, 27.0453], [60.9475, 26.9848], [60.8489, 26.9498], [60.792, 26.9417], [60.7542, 26.9251], [60.7189, 26.8967], [60.6945, 26.8528], [60.6198, 26.7587]]]}}, {"type": "Feature", "properties": {"osm_type": "relation", "osm_id": 388941125, "name": "Sib and Suran", "admin_level": "6", "kind": "subdivision_2", "parent_osm_id": 241038, "parent_name": "Hamadan Province", "parent_iso": "IR-13"}, "geometry": {"type": "Polygon", "coordinates": [[[61.3644, 27.5549], [61.3836, 27.5234], [61.4434, 27.4473], [61.4675, 27.3959], [61.582, 27.2564], [61.5864, 27.2556], [61.5925, 27.2642], [61.5939, 27.2873], [61.5859, 27.3101], [61.5539, 27.3612], [61.5525, 27.3756], [61.6, 27.3934], [61.6664, 27.4281], [61.7053, 27.3476], [61.7678, 27.2809], [61.8667, 27.1853], [61.8845, 27.1764], [61.9314, 27.1651], [61.9353, 27.1212], [61.8248, 27.057], [61.8176, 27.047], [61.8109, 27.0098], [61.8167, 26.9037], [61.8327, 26.8367], [61.8509, 26.839], [61.8891, 26.8186], [61.9198, 26.8284], [61.9911, 26.8072], [62.0005, 26.7811], [62.0286, 26.7598], [62.0576, 26.7489], [62.0577, 26.7116], [62.1388, 26.7089], [62.178, 26.7017], [62.2016, 26.706], [62.2297, 26.7041], [62.2506, 26.6966], [62.2682, 26.67], [62.3003, 26.6767], [62.3633, 26.6573], [62.3958, 26.6684], [62.414, 26.6685], [62.41, 26.642], [62.3724, 26.6298], [62.3604, 26.6067], [62.3727, 26.5954], [62.3913, 26.5628], [62.4095, 26.5614], [62.4112, 26.5352], [62.4215, 26.5333], [62.4232, 26.5502], [62.4404, 26.5604], [62.4415, 26.5656], [62.4614, 26.5627], [62.4929, 26.5689], [62.5083, 26.5777], [62.517, 26.5758], [62.5245, 26.5866], [62.5257, 26.599], [62.484, 26.7152], [62.4191, 26.7761], [62.3838, 26.7903], [62.3609, 26.7942], [62.3681, 26.8256], [62.3665, 26.86], [62.3426, 26.907], [62.3145, 26.9384], [62.3126, 26.9487], [62.3312, 26.992], [62.3726, 27.0303], [62.4137, 27.1037], [62.4687, 27.1512], [62.4195, 27.1859], [62.3737, 27.2023], [62.334, 27.2373], [62.279, 27.2673], [62.2284, 27.2775], [62.1203, 27.3159], [62.0901, 27.4648], [62.0084, 27.5048], [61.9198, 27.5681], [61.8628, 27.6376], [61.7751, 27.7698], [61.7359, 27.839], [61.7278, 27.8946], [61.5303, 27.8951], [61.4617, 27.9009], [61.4062, 27.8959], [61.345, 27.8984], [61.2845, 27.8926], [61.2303, 27.8815], [61.2, 27.8659], [61.1856, 27.8392], [61.1814, 27.8009], [61.1842, 27.7731], [61.1898, 27.7626], [61.3209, 27.6009], [61.3644, 27.5549]]]}}, {"type": "Feature", "properties": {"osm_type": "relation", "osm_id": 781316820, "name": "Fanuj", "admin_level": "6", "kind": "subdivision_2", "parent_osm_id": 241038, "parent_name": "Hamadan Province", "parent_iso": "IR-13"}, "geometry": {"type": "Polygon", "coordinates": [[[59.8116, 27.0601], [59.7941, 27.0459], [59.7, 26.9345], [59.6577, 26.867], [59.6041, 26.8728], [59.5558, 26.8698], [59.5188, 26.8501], [59.4977, 26.8262], [59.4738, 26.8248], [59.4169, 26.8484], [59.3127, 26.9067], [59.2419, 26.8712], [59.1274, 26.8281], [58.9905, 26.7587], [58.9963, 26.7342], [58.998, 26.6853], [59.0177, 26.6562], [59.0149, 26.6367], [59.001, 26.6159], [58.9997, 26.5964], [59.0044, 26.5853], [59.0352, 26.5609], [59.0777, 26.5695], [59.1641, 26.5339], [59.2147, 26.5231], [59.2636, 26.5275], [59.348, 26.5603], [59.4166, 26.5392], [59.5136, 26.4995], [59.5977, 26.4378], [59.6529, 26.3879], [59.7019, 26.3884], [59.7619, 26.3809], [59.7644, 26.4003], [59.7297, 26.437], [59.7286, 26.4442], [59.7414, 26.4556], [59.7933, 26.4803], [59.7969, 26.5048], [59.808, 26.5262], [59.8855, 26.602], [59.9169, 26.6437], [59.9636, 26.727], [59.9714, 26.7692], [59.9744, 26.9437], [59.9808, 27.014], [59.93, 27.0214], [59.8116, 27.0601]]]}}, {"type": "Feature", "properties": {"osm_type": "relation", "osm_id": 516441200, "name": "Qasr-e-Ghand", "admin_level": "6", "kind": "subdivision_2", "parent_osm_id": 241038, "parent_name": "Hamadan Province", "parent_iso": "IR-13"}, "geometry": {"type": "Polygon", "coordinates": [[[60.7854, 26.5037], [60.7653, 26.4967], [60.7406, 26.5089], [60.6661, 26.527], [60.6625, 26.5064], [60.6703, 26.4817], [60.6597, 26.4609], [60.6583, 26.4398], [60.6197, 26.3995], [60.5911, 26.3612], [60.5442, 26.3525], [60.5183, 26.3417], [60.4522, 26.3317], [60.4475, 26.3242], [60.455, 26.3128], [60.4686, 26.3095], [60.4925, 26.3156], [60.4992, 26.3109], [60.4636, 26.2789], [60.4469, 26.252], [60.438, 26.2453], [60.4297, 26.2453], [60.3994, 26.2587], [60.3683, 26.2475], [60.4028, 26.1992], [60.415, 26.1711], [60.365, 26.142], [60.3683, 26.1123], [60.3636, 26.1012], [60.3283, 26.0709], [60.3397, 26.0128], [60.3294, 25.917], [60.4039, 25.8792], [60.4711, 25.8526], [60.6014, 25.8925], [60.6603, 25.9059], [60.7611, 25.9459], [60.7942, 25.8728], [60.8292, 25.8403], [60.8717, 25.8156], [60.9264, 25.7714], [60.9822, 25.7425], [61.0633, 25.7181], [61.1753, 25.7036], [61.2372, 25.7084], [61.2809, 25.7247], [61.3, 25.75], [61.3039, 25.7686], [61.3036, 25.9028], [61.3023, 25.9111], [61.257, 25.9236], [61.2472, 25.9306], [61.2442, 25.94], [61.2434, 26.0064], [61.2575, 26.0828], [61.2578, 26.1075], [61.2509, 26.1284], [61.2111, 26.1973], [61.2061, 26.2498], [61.1942, 26.2603], [61.06, 26.2506], [60.9806, 26.2589], [60.9158, 26.345], [60.8903, 26.36], [60.8767, 26.3739], [60.8597, 26.4059], [60.8322, 26.4425], [60.8111, 26.4956], [60.7854, 26.5037]]]}}, {"type": "Feature", "properties": {"osm_type": "relation", "osm_id": 471132346, "name": "Konarak", "admin_level": "6", "kind": "subdivision_2", "parent_osm_id": 241038, "parent_name": "Hamadan Province", "parent_iso": "IR-13"}, "geometry": {"type": "Polygon", "coordinates": [[[59.2144, 25.5171], [59.218, 25.4677], [59.2264, 25.468], [59.2593, 25.4973], [59.2431, 25.4719], [59.2309, 25.4659], [59.2568, 25.4618], [59.2839, 25.4663], [59.2933, 25.4614], [59.2716, 25.4601], [59.2638, 25.4551], [59.2598, 25.4406], [59.2638, 25.437], [59.3094, 25.4527], [59.3894, 25.4643], [59.3422, 25.4915], [59.3532, 25.4881], [59.3575, 25.4809], [59.3643, 25.4826], [59.3558, 25.4888], [59.3652, 25.4837], [59.3628, 25.4879], [59.3724, 25.477], [59.3557, 25.5041], [59.3594, 25.5179], [59.3559, 25.5473], [59.3608, 25.5082], [59.3688, 25.5], [59.3673, 25.491], [59.3706, 25.4878], [59.3723, 25.4962], [59.3741, 25.4841], [59.3877, 25.4728], [59.4047, 25.4639], [59.4402, 25.4725], [59.4865, 25.4659], [59.5028, 25.4533], [59.5053, 25.4557], [59.5037, 25.4523], [59.521, 25.4399], [59.5274, 25.4262], [59.5428, 25.4128], [59.5943, 25.3926], [59.6531, 25.3919], [59.6434, 25.3932], [59.6513, 25.393], [59.6489, 25.3981], [59.6545, 25.3979], [59.6531, 25.4035], [59.6576, 25.3924], [59.6952, 25.3988], [59.6967, 25.4026], [59.7008, 25.4027], [59.6953, 25.3988], [59.7888, 25.405], [59.8196, 25.4027], [59.848, 25.3935], [59.8557, 25.3822], [59.8459, 25.3785], [59.8478, 25.3732], [59.8558, 25.366], [59.8688, 25.3636], [59.8724, 25.3573], [59.8907, 25.3515], [59.8921, 25.3442], [59.8866, 25.3416], [59.9018, 25.342], [59.8956, 25.3448], [59.8926, 25.3555], [59.9086, 25.371], [59.9584, 25.3862], [59.9557, 25.3809], [59.9339, 25.3762], [59.8962, 25.3564], [59.894, 25.3525], [59.8974, 25.3522], [59.9142, 25.3608], [59.9745, 25.3742], [60.0723, 25.3802], [60.1083, 25.3713], [60.1144, 25.3601], [60.1069, 25.3542], [60.1161, 25.3461], [60.1812, 25.3352], [60.1984, 25.3243], [60.2097, 25.3316], [60.2004, 25.3425], [60.1894, 25.3459], [60.2017, 25.3685], [60.2189, 25.3785], [60.2746, 25.388], [60.2963, 25.3837], [60.3105, 25.3693], [60.3133, 25.3598], [60.3062, 25.3539], [60.2959, 25.354], [60.3136, 25.3323], [60.3497, 25.3294], [60.4201, 25.3142], [60.428, 25.3102], [60.4303, 25.3009], [60.4329, 25.3027], [60.4247, 25.2985], [60.4677, 25.2873], [60.4721, 25.2974], [60.4479, 25.3154], [60.4537, 25.3308], [60.4405, 25.3372], [60.4095, 25.3377], [60.403, 25.3501], [60.4072, 25.3771], [60.4343, 25.4091], [60.4301, 25.4096], [60.4334, 25.4146], [60.425, 25.4067], [60.4356, 25.4199], [60.4399, 25.4192], [60.4382, 25.4231], [60.4421, 25.4199], [60.4481, 25.4253], [60.4462, 25.4286], [60.4507, 25.4262], [60.4513, 25.4307], [60.4645, 25.4351], [60.4369, 25.4109], [60.474, 25.4344], [60.5302, 25.4432], [60.5741, 25.4312], [60.5852, 25.4184], [60.6122, 25.4509], [60.6347, 25.4672], [60.7039, 25.4967], [60.7733, 25.5161], [60.7778, 25.5486], [60.7686, 25.6036], [60.7183, 25.6634], [60.6931, 25.6861], [60.6569, 25.6964], [60.4711, 25.8526], [60.4039, 25.8792], [60.3294, 25.917], [60.1936, 25.9323], [60.1105, 25.9578], [60.0272, 25.9556], [59.9933, 25.952], [59.8822, 25.9167], [59.79, 25.8942], [59.7483, 25.8886], [59.6727, 25.895], [59.6152, 25.9086], [59.6025, 25.917], [59.5669, 25.9592], [59.5402, 25.9756], [59.5238, 25.9792], [59.4605, 25.9778], [59.3922, 25.9639], [59.3652, 25.9634], [59.2866, 25.9764], [59.1349, 25.9861], [59.0805, 25.9962], [59.0522, 25.9909], [59.0191, 25.9734], [59.0024, 25.9545], [58.9977, 25.9378], [59.001, 25.9317], [59.0233, 25.9211], [59.0324, 25.9075], [59.0413, 25.9086], [59.0722, 25.8945], [59.0835, 25.8509], [59.1163, 25.8242], [59.1399, 25.8128], [59.1858, 25.7703], [59.2102, 25.7545], [59.2177, 25.7434], [59.2205, 25.7145], [59.213, 25.7011], [59.2119, 25.6881], [59.2358, 25.6367], [59.2105, 25.5578], [59.2144, 25.5171]]]}}, {"type": "Feature", "properties": {"osm_type": "relation", "osm_id": 652031510, "name": "Mehrestan", "admin_level": "6", "kind": "subdivision_2", "parent_osm_id": 241038, "parent_name": "Hamadan Province", "parent_iso": "IR-13"}, "geometry": {"type": "Polygon", "coordinates": [[[61.1397, 27.0628], [61.1144, 27.0309], [61.1158, 26.9982], [61.2386, 27.0003], [61.2974, 26.9958], [61.3413, 26.9678], [61.3582, 26.9642], [61.3645, 26.9523], [61.3707, 26.9507], [61.3878, 26.9523], [61.4032, 26.9599], [61.4356, 26.9549], [61.469, 26.9564], [61.5243, 26.947], [61.5417, 26.9298], [61.5853, 26.8659], [61.6216, 26.851], [61.5478, 26.8555], [61.5078, 26.8498], [61.5034, 26.7955], [61.5268, 26.7831], [61.5134, 26.7676], [61.5311, 26.761], [61.5341, 26.7226], [61.5319, 26.6954], [61.5248, 26.6822], [61.5052, 26.6644], [61.5095, 26.6422], [61.5418, 26.6292], [61.5733, 26.6054], [61.5855, 26.5756], [61.6118, 26.5605], [61.6369, 26.5615], [61.6598, 26.5493], [61.6682, 26.5562], [61.6849, 26.5567], [61.7096, 26.5299], [61.73, 26.5242], [61.7361, 26.5045], [61.7844, 26.4964], [61.8186, 26.5065], [61.8351, 26.5177], [61.843, 26.5124], [61.8637, 26.5239], [61.8903, 26.521], [61.9044, 26.526], [61.9041, 26.5158], [61.911, 26.5126], [61.9116, 26.4911], [61.9436, 26.49], [61.9467, 26.4849], [61.9901, 26.4895], [62.0311, 26.5033], [62.0603, 26.4954], [62.1015, 26.4958], [62.1117, 26.4902], [62.1231, 26.4927], [62.1303, 26.4863], [62.1411, 26.4866], [62.236, 26.5213], [62.2485, 26.5226], [62.2638, 26.5134], [62.2768, 26.512], [62.3305, 26.5206], [62.3702, 26.5394], [62.3903, 26.5321], [62.4001, 26.5379], [62.4112, 26.5352], [62.4095, 26.5614], [62.3913, 26.5628], [62.3727, 26.5954], [62.3604, 26.6067], [62.3724, 26.6298], [62.41, 26.642], [62.414, 26.6685], [62.3958, 26.6684], [62.3633, 26.6573], [62.3003, 26.6767], [62.2682, 26.67], [62.2506, 26.6966], [62.2297, 26.7041], [62.2016, 26.706], [62.178, 26.7017], [62.1388, 26.7089], [62.0577, 26.7116], [62.0576, 26.7489], [62.0286, 26.7598], [62.0005, 26.7811], [61.9911, 26.8072], [61.9198, 26.8284], [61.8891, 26.8186], [61.8509, 26.839], [61.8327, 26.8367], [61.8167, 26.9037], [61.8109, 27.0098], [61.8176, 27.047], [61.8248, 27.057], [61.9353, 27.1212], [61.9314, 27.1651], [61.8845, 27.1764], [61.8667, 27.1853], [61.7678, 27.2809], [61.7053, 27.3476], [61.6664, 27.4281], [61.6, 27.3934], [61.5525, 27.3756], [61.5539, 27.3612], [61.5859, 27.3101], [61.5939, 27.2873], [61.5925, 27.2642], [61.5864, 27.2556], [61.582, 27.2564], [61.4675, 27.3959], [61.4434, 27.4473], [61.3836, 27.5234], [61.3644, 27.5549], [61.3036, 27.5106], [61.2725, 27.5028], [61.2259, 27.4995], [61.1961, 27.4765], [61.1467, 27.4576], [61.1431, 27.4323], [61.1109, 27.3948], [61.0956, 27.3664], [61.095, 27.3528], [61.1436, 27.3039], [61.2223, 27.247], [61.2345, 27.2303], [61.245, 27.197], [61.2061, 27.1783], [61.1947, 27.1507], [61.1811, 27.1428], [61.1357, 27.095], [61.1355, 27.0858], [61.1273, 27.0799], [61.1397, 27.0628]]]}}, {"type": "Feature", "properties": {"osm_type": "relation", "osm_id": 879115478, "name": "Mirjaveh", "admin_level": "6", "kind": "subdivision_2", "parent_osm_id": 241038, "parent_name": "Hamadan Province", "parent_iso": "IR-13"}, "geometry": {"type": "Polygon", "coordinates": [[[62.0564, 28.5086], [62.0439, 28.5101], [61.9882, 28.5413], [61.9625, 28.54], [61.9114, 28.5633], [61.8918, 28.58], [61.8879, 28.5931], [61.8654, 28.6073], [61.8567, 28.6187], [61.8363, 28.6255], [61.8231, 28.6413], [61.8091, 28.6491], [61.7873, 28.681], [61.7336, 28.734], [61.6858, 28.7659], [61.6456, 28.8029], [61.5762, 28.9154], [61.5757, 28.928], [61.5334, 29.0102], [61.4789, 29.0236], [61.4924, 29.0438], [61.5068, 29.043], [61.5115, 29.0485], [61.5036, 29.0558], [61.5073, 29.0617], [61.5035, 29.0667], [61.4858, 29.0725], [61.4799, 29.0789], [61.4811, 29.0841], [61.4714, 29.0909], [61.4802, 29.1008], [61.4735, 29.1073], [61.4773, 29.1097], [61.4744, 29.1234], [61.4579, 29.1234], [61.4502, 29.1319], [61.4279, 29.1279], [61.4168, 29.1415], [61.4128, 29.1642], [61.4209, 29.164], [61.4129, 29.1763], [61.4212, 29.1833], [61.4227, 29.1963], [61.4302, 29.1991], [61.399, 29.2161], [61.3749, 29.2399], [61.3721, 29.245], [61.3755, 29.2478], [61.3618, 29.2597], [61.3605, 29.2738], [61.3529, 29.276], [61.3523, 29.2887], [61.3631, 29.2906], [61.3703, 29.2975], [61.3646, 29.3101], [61.3662, 29.319], [61.3722, 29.3211], [61.3694, 29.3319], [61.3731, 29.3393], [61.361, 29.3589], [61.3671, 29.3618], [61.3601, 29.3785], [61.3504, 29.3883], [61.35, 29.3817], [61.3418, 29.3843], [61.335, 29.3795], [61.3217, 29.3888], [61.2915, 29.3641], [61.2668, 29.3526], [61.2373, 29.3561], [61.2257, 29.3628], [61.2135, 29.353], [61.1792, 29.3414], [61.1486, 29.3388], [61.133, 29.3441], [61.1078, 29.3231], [61.0907, 29.3175], [61.0868, 29.3022], [61.0989, 29.2807], [61.1002, 29.2692], [61.0862, 29.2583], [61.0574, 29.2569], [61.0567, 29.2439], [61.0644, 29.2199], [61.049, 29.1992], [61.041, 29.1783], [61.0416, 29.1739], [61.0574, 29.1663], [61.0628, 29.1574], [61.0612, 29.1458], [61.0473, 29.1401], [61.0333, 29.1452], [61.0301, 29.131], [61.0202, 29.129], [60.9785, 29.1342], [60.9727, 29.1471], [60.9473, 29.1518], [60.9345, 29.1626], [60.9137, 29.1487], [60.9152, 29.1278], [60.922, 29.1128], [60.9261, 29.0314], [60.9109, 29.0171], [60.8724, 29.0189], [60.8562, 29.0241], [60.8325, 29.0456], [60.8139, 29.0519], [60.7506, 29.0353], [60.7102, 29.0373], [60.7183, 28.9904], [60.7418, 28.9698], [60.779, 28.9649], [60.8108, 28.9301], [60.7948, 28.8625], [60.8358, 28.8429], [60.8417, 28.8354], [60.8611, 28.787], [60.8825, 28.7568], [60.8828, 28.729], [60.8925, 28.6868], [60.9511, 28.6484], [61.102, 28.6015], [61.1336, 28.5973], [61.2345, 28.6001], [61.2742, 28.6151], [61.3223, 28.6617], [61.3489, 28.7081], [61.3873, 28.7384], [61.3981, 28.7406], [61.4017, 28.7131], [61.3984, 28.6923], [61.4275, 28.6504], [61.5003, 28.6012], [61.5201, 28.582], [61.5792, 28.5612], [61.573, 28.5566], [61.5892, 28.5433], [61.5859, 28.5281], [61.593, 28.5115], [61.5854, 28.5012], [61.6077, 28.4796], [61.616, 28.4454], [61.6526, 28.3947], [61.681, 28.3339], [61.6922, 28.3323], [61.767, 28.3579], [61.8014, 28.3819], [61.8438, 28.3644], [61.8999, 28.3636], [61.9581, 28.3979], [61.9942, 28.4382], [62.0095, 28.4443], [62.048, 28.4919], [62.0564, 28.5086]]]}}, {"type": "Feature", "properties": {"osm_type": "relation", "osm_id": 209982825, "name": "Nikshahr", "admin_level": "6", "kind": "subdivision_2", "parent_osm_id": 241038, "parent_name": "Hamadan Province", "parent_iso": "IR-13"}, "geometry": {"type": "Polygon", "coordinates": [[[59.9808, 27.014], [59.9744, 26.9437], [59.9714, 26.7692], [59.9636, 26.727], [59.945, 26.6878], [59.8855, 26.602], [59.808, 26.5262], [59.7969, 26.5048], [59.7933, 26.4803], [59.7414, 26.4556], [59.7286, 26.4442], [59.7297, 26.437], [59.7644, 26.4003], [59.7619, 26.3809], [59.7019, 26.3884], [59.6529, 26.3879], [59.5977, 26.4378], [59.5136, 26.4995], [59.4166, 26.5392], [59.348, 26.5603], [59.2636, 26.5275], [59.2147, 26.5231], [59.1641, 26.5339], [59.0777, 26.5695], [59.0519, 26.5667], [59.0352, 26.5609], [59.0374, 26.5475], [59.0333, 26.5412], [59.006, 26.5281], [59.0077, 26.5106], [59.0004, 26.5003], [58.9224, 26.515], [58.9049, 26.5128], [58.8794, 26.4945], [58.8438, 26.4831], [58.8844, 26.4237], [58.8833, 26.3975], [58.876, 26.3742], [58.8797, 26.3534], [58.9008, 26.3373], [58.9433, 26.3356], [58.9599, 26.3017], [58.976, 26.2867], [58.9816, 26.2617], [58.983, 26.2173], [58.9908, 26.2023], [59.0288, 26.167], [59.0219, 26.1309], [59.0413, 26.0906], [59.078, 26.0453], [59.0835, 26.0253], [59.0805, 25.9962], [59.1349, 25.9861], [59.2866, 25.9764], [59.3652, 25.9634], [59.3922, 25.9639], [59.4605, 25.9778], [59.5238, 25.9792], [59.5402, 25.9756], [59.5669, 25.9592], [59.6025, 25.917], [59.6152, 25.9086], [59.6727, 25.895], [59.7483, 25.8886], [59.79, 25.8942], [59.8822, 25.9167], [59.9933, 25.952], [60.0272, 25.9556], [60.1105, 25.9578], [60.1936, 25.9323], [60.3294, 25.917], [60.3397, 26.0128], [60.3283, 26.0709], [60.3636, 26.1012], [60.3683, 26.1123], [60.365, 26.142], [60.415, 26.1711], [60.4028, 26.1992], [60.3683, 26.2475], [60.3994, 26.2587], [60.4297, 26.2453], [60.438, 26.2453], [60.4469, 26.252], [60.4636, 26.2789], [60.4992, 26.3109], [60.4925, 26.3156], [60.4686, 26.3095], [60.455, 26.3128], [60.4475, 26.3242], [60.4522, 26.3317], [60.5183, 26.3417], [60.5442, 26.3525], [60.5911, 26.3612], [60.6197, 26.3995], [60.6583, 26.4398], [60.6597, 26.4609], [60.6703, 26.4817], [60.6625, 26.5064], [60.6661, 26.527], [60.7406, 26.5089], [60.7653, 26.4967], [60.8872, 26.5416], [60.8947, 26.5593], [60.8932, 26.6026], [60.8834, 26.6603], [60.8708, 26.6969], [60.8264, 26.7192], [60.7625, 26.7403], [60.7086, 26.7509], [60.6231, 26.755], [60.5131, 26.8989], [60.4644, 26.9473], [60.3928, 26.9998], [60.3636, 27.0064], [60.1266, 27.0059], [59.9808, 27.014]]]}}, {"type": "Feature", "properties": {"osm_type": "relation", "osm_id": 558216143, "name": "Hamun", "admin_level": "6", "kind": "subdivision_2", "parent_osm_id": 241038, "parent_name": "Hamadan Province", "parent_iso": "IR-13"}, "geometry": {"type": "Polygon", "coordinates": [[[61.4914, 30.9676], [61.4576, 30.9876], [61.4406, 30.9876], [61.4303, 30.9943], [61.4223, 30.9915], [61.4181, 30.9999], [61.4062, 31.0051], [61.0834, 31.0012], [61.1173, 30.9457], [61.1189, 30.9299], [61.1231, 30.716], [61.1128, 30.6871], [61.0725, 30.6332], [60.9939, 30.5576], [60.892, 30.5285], [60.802, 30.4929], [60.6478, 30.4821], [60.5906, 30.4423], [60.5625, 30.4112], [60.5653, 30.3515], [60.5839, 30.3051], [60.6125, 30.2729], [60.6853, 30.2321], [60.7511, 30.2204], [60.8647, 30.1457], [60.9042, 30.1487], [60.9806, 30.169], [61.0234, 30.1721], [61.0323, 30.1685], [61.0534, 30.1279], [61.0706, 30.1087], [61.0948, 30.0955], [61.5847, 30.613], [61.5317, 30.6596], [61.5206, 30.7012], [61.5242, 30.7149], [61.5045, 30.7382], [61.5006, 30.7721], [61.5039, 30.8604], [61.4995, 30.8893], [61.5023, 30.8965], [61.5216, 30.9114], [61.5012, 30.929], [61.5003, 30.9582], [61.4914, 30.9676]]]}}, {"type": "Feature", "properties": {"osm_type": "relation", "osm_id": 475218697, "name": "Hirmand", "admin_level": "6", "kind": "subdivision_2", "parent_osm_id": 241038, "parent_name": "Hamadan Province", "parent_iso": "IR-13"}, "geometry": {"type": "Polygon", "coordinates": [[[61.7351, 30.9818], [61.7787, 30.9415], [61.7881, 30.9404], [61.814, 30.9553], [61.8224, 30.9673], [61.8347, 30.9741], [61.835, 30.9781], [61.8268, 30.9809], [61.8238, 31.0009], [61.8272, 31.0137], [61.833, 31.0178], [61.828, 31.0325], [61.839, 31.0365], [61.8276, 31.0522], [61.8266, 31.0744], [61.8316, 31.0885], [61.8112, 31.1139], [61.8023, 31.1505], [61.8045, 31.1658], [61.7879, 31.1945], [61.7716, 31.2063], [61.7769, 31.2139], [61.7699, 31.2509], [61.7784, 31.3023], [61.7067, 31.3759], [61.4515, 31.4095], [61.4562, 31.4049], [61.4687, 31.3471], [61.4703, 31.3185], [61.4831, 31.2896], [61.5914, 31.1399], [61.654, 31.0735], [61.6653, 31.0574], [61.679, 31.0199], [61.722, 31.0007], [61.7351, 30.9818]]]}}, {"type": "Feature", "properties": {"osm_type": "relation", "osm_id": 675406826, "name": "Chabahar", "admin_level": "6", "kind": "subdivision_2", "parent_osm_id": 241038, "parent_name": "Hamadan Province", "parent_iso": "IR-13"}, "geometry": {"type": "Polygon", "coordinates": [[[61.3023, 25.9111], [61.3039, 25.7686], [61.3, 25.75], [61.2723, 25.7197], [61.2103, 25.7047], [61.1222, 25.7075], [61.0633, 25.7181], [60.9822, 25.7425], [60.9531, 25.7567], [60.9156, 25.7792], [60.8717, 25.8156], [60.8292, 25.8403], [60.7942, 25.8728], [60.7611, 25.9459], [60.6603, 25.9059], [60.6014, 25.8925], [60.4711, 25.8526], [60.6569, 25.6964], [60.6931, 25.6861], [60.7611, 25.6147], [60.7733, 25.5911], [60.7778, 25.5486], [60.7733, 25.5161], [60.7039, 25.4967], [60.6347, 25.4672], [60.6122, 25.4509], [60.5852, 25.4184], [60.6017, 25.4027], [60.6119, 25.3816], [60.6048, 25.3549], [60.5999, 25.3559], [60.6004, 25.35], [60.5951, 25.3476], [60.6072, 25.3387], [60.6017, 25.3376], [60.613, 25.3348], [60.6234, 25.3154], [60.6141, 25.3147], [60.6232, 25.3131], [60.6266, 25.3042], [60.6251, 25.2956], [60.6216, 25.2978], [60.6101, 25.2887], [60.6039, 25.2979], [60.6108, 25.2851], [60.7498, 25.2701], [60.7554, 25.2641], [60.8473, 25.2473], [60.8519, 25.2407], [61.0506, 25.2019], [61.1744, 25.1624], [61.17, 25.1675], [61.1732, 25.1706], [61.1703, 25.1674], [61.1805, 25.152], [61.1751, 25.1488], [61.182, 25.1486], [61.1757, 25.1455], [61.1732, 25.1504], [61.1734, 25.1452], [61.1819, 25.1375], [61.1784, 25.1258], [61.1824, 25.1237], [61.422, 25.0594], [61.4232, 25.065], [61.4088, 25.0707], [61.4163, 25.0857], [61.4538, 25.0993], [61.4819, 25.1019], [61.4798, 25.1068], [61.4864, 25.1129], [61.4775, 25.1263], [61.5024, 25.1565], [61.5024, 25.1653], [61.4956, 25.1688], [61.4915, 25.1618], [61.4895, 25.1646], [61.4958, 25.1807], [61.4999, 25.1804], [61.4951, 25.17], [61.5086, 25.1785], [61.5481, 25.1791], [61.565, 25.1856], [61.5605, 25.1987], [61.5633, 25.2204], [61.5693, 25.2271], [61.5391, 25.2309], [61.5496, 25.2358], [61.5236, 25.2497], [61.5146, 25.2458], [61.5236, 25.2518], [61.5338, 25.2431], [61.5369, 25.2449], [61.5384, 25.2638], [61.533, 25.2729], [61.5365, 25.2709], [61.5381, 25.2756], [61.5321, 25.2838], [61.5362, 25.2808], [61.5368, 25.2865], [61.5379, 25.2811], [61.5382, 25.2887], [61.5392, 25.2747], [61.5451, 25.2772], [61.5426, 25.2978], [61.5317, 25.3007], [61.5394, 25.3024], [61.5439, 25.2983], [61.5454, 25.283], [61.5491, 25.2896], [61.5461, 25.276], [61.5376, 25.2675], [61.5365, 25.2538], [61.5491, 25.26], [61.5377, 25.2496], [61.5516, 25.237], [61.5487, 25.2301], [61.5574, 25.2302], [61.5602, 25.2346], [61.5608, 25.2293], [61.5663, 25.2346], [61.5698, 25.2304], [61.5777, 25.2373], [61.5715, 25.2571], [61.5806, 25.2387], [61.5725, 25.2302], [61.5747, 25.2199], [61.5655, 25.2204], [61.5679, 25.1926], [61.5745, 25.1922], [61.5834, 25.2085], [61.5834, 25.2043], [61.5953, 25.1987], [61.5837, 25.2014], [61.5683, 25.1876], [61.5702, 25.1799], [61.6178, 25.1769], [61.6295, 25.2093], [61.6541, 25.3327], [61.6502, 25.3332], [61.6765, 25.6452], [61.6723, 25.6478], [61.6796, 25.6528], [61.6804, 25.6609], [61.6963, 25.668], [61.6912, 25.6761], [61.6962, 25.6825], [61.6914, 25.6935], [61.704, 25.6909], [61.7141, 25.708], [61.7294, 25.7136], [61.725, 25.7263], [61.7363, 25.7417], [61.7462, 25.7331], [61.7737, 25.7311], [61.7706, 25.7279], [61.7812, 25.7211], [61.7982, 25.7179], [61.8051, 25.7223], [61.8086, 25.7379], [61.8401, 25.7448], [61.8432, 25.7603], [61.8376, 25.7629], [61.8421, 25.7819], [61.8364, 25.7854], [61.836, 25.7966], [61.8429, 25.7984], [61.8458, 25.8137], [61.8515, 25.8164], [61.8489, 25.8224], [61.8256, 25.815], [61.7701, 25.8095], [61.7275, 25.82], [61.7053, 25.835], [61.6514, 25.897], [61.6359, 25.9089], [61.4281, 25.9023], [61.3023, 25.9111]]]}}]}