{"type": "FeatureCollection", "parent": {"osm_id": 241472, "name": "Gilan Province", "admin_level": "4", "kind": "subdivision_1", "child_kind": "subdivision_2", "iso": "IR-01"}, "features": [{"type": "Feature", "properties": {"osm_type": "relation", "osm_id": 866963807, "name": "Azarshahr", "admin_level": "6", "kind": "subdivision_2", "parent_osm_id": 241472, "parent_name": "Gilan Province", "parent_iso": "IR-01"}, "geometry": {"type": "Polygon", "coordinates": [[[46.166, 37.6836], [46.1516, 37.725], [46.1432, 37.735], [46.1135, 37.7478], [46.0741, 37.7481], [46.0632, 37.7547], [46.0557, 37.7711], [46.0482, 37.8317], [46.0413, 37.8534], [45.9985, 37.8934], [45.9743, 37.8939], [45.8752, 37.8572], [45.8113, 37.8645], [45.6582, 37.8686], [45.6568, 37.7671], [45.6914, 37.7453], [45.7829, 37.7173], [45.7935, 37.7026], [45.8094, 37.6933], [45.8234, 37.6697], [45.8228, 37.6554], [45.8082, 37.6345], [45.7996, 37.6247], [45.7835, 37.6197], [45.7199, 37.6245], [45.6968, 37.635], [45.6664, 37.6317], [45.6603, 37.6373], [45.6672, 37.6216], [45.7022, 37.6044], [45.708, 37.5909], [45.784, 37.5792], [45.8168, 37.5667], [45.9093, 37.565], [46.0141, 37.5964], [46.0343, 37.6142], [46.066, 37.6117], [46.1182, 37.6375], [46.166, 37.6836]]]}}, {"type": "Feature", "properties": {"osm_type": "relation", "osm_id": 991083894, "name": "Osku", "admin_level": "6", "kind": "subdivision_2", "parent_osm_id": 241472, "parent_name": "Gilan Province", "parent_iso": "IR-01"}, "geometry": {"type": "Polygon", "coordinates": [[[46.166, 37.6836], [46.2063, 37.6883], [46.2568, 37.6872], [46.2982, 37.6947], [46.3331, 37.708], [46.3402, 37.7509], [46.3499, 37.7789], [46.3435, 37.7967], [46.3302, 37.8109], [46.2993, 37.832], [46.2777, 37.8553], [46.2257, 37.8895], [46.2021, 37.9311], [46.1491, 37.9734], [46.0757, 37.9572], [46.0329, 37.9159], [45.9996, 37.9536], [45.9027, 37.9909], [45.8546, 38.0473], [45.8193, 38.0259], [45.7499, 38.0009], [45.5271, 38.0048], [45.5313, 37.9967], [45.5204, 37.9831], [45.5343, 37.9614], [45.5096, 37.9414], [45.5115, 37.9334], [45.4738, 37.9297], [45.4245, 37.9141], [45.4079, 37.8874], [45.4058, 37.8731], [45.4115, 37.8675], [45.4091, 37.8574], [45.4147, 37.8502], [45.4193, 37.8239], [45.4185, 37.8158], [45.4118, 37.8101], [45.4261, 37.7952], [45.4244, 37.7873], [45.4468, 37.7708], [45.4481, 37.7657], [45.4432, 37.7637], [45.449, 37.7599], [45.4474, 37.7553], [45.451, 37.76], [45.4602, 37.7581], [45.4696, 37.7487], [45.4651, 37.7453], [45.4696, 37.7389], [45.4736, 37.7408], [45.4725, 37.7461], [45.4786, 37.7476], [45.4842, 37.7398], [45.4916, 37.7391], [45.4876, 37.7285], [45.4938, 37.7192], [45.5019, 37.7218], [45.4969, 37.727], [45.5003, 37.7332], [45.5053, 37.7293], [45.5074, 37.7353], [45.519, 37.7325], [45.507, 37.7485], [45.5074, 37.7546], [45.5281, 37.7622], [45.5361, 37.7562], [45.538, 37.7635], [45.5625, 37.7734], [45.6203, 37.7766], [45.6568, 37.7671], [45.6582, 37.8686], [45.8113, 37.8645], [45.8752, 37.8572], [45.9743, 37.8939], [45.9985, 37.8934], [46.0413, 37.8534], [46.0482, 37.8317], [46.0557, 37.7711], [46.0632, 37.7547], [46.0741, 37.7481], [46.1135, 37.7478], [46.1432, 37.735], [46.1516, 37.725], [46.166, 37.6836]]]}}, {"type": "Feature", "properties": {"osm_type": "relation", "osm_id": 550930374, "name": "Ahar", "admin_level": "6", "kind": "subdivision_2", "parent_osm_id": 241472, "parent_name": "Gilan Province", "parent_iso": "IR-01"}, "geometry": {"type": "Polygon", "coordinates": [[[47.5497, 38.8881], [47.5405, 38.8956], [47.5197, 38.8992], [47.5116, 38.9159], [47.5211, 38.9359], [47.5363, 38.9501], [47.5266, 38.9587], [47.5527, 38.9656], [47.5627, 38.9734], [47.5583, 38.9834], [47.5116, 38.9912], [47.5022, 39.0001], [47.523, 39.0142], [47.5183, 39.0226], [47.505, 39.0295], [47.5066, 39.0378], [47.5238, 39.0492], [47.5211, 39.0601], [47.5275, 39.0806], [47.5238, 39.0856], [47.4966, 39.0737], [47.4566, 39.0828], [47.433, 39.0734], [47.4152, 39.0545], [47.3858, 39.0506], [47.3622, 39.0273], [47.3386, 39.0192], [47.3036, 38.9956], [47.2644, 38.9778], [47.2487, 38.9615], [47.2458, 38.9526], [47.2533, 38.9395], [47.2577, 38.9139], [47.2513, 38.8542], [47.2052, 38.8128], [47.2061, 38.7648], [47.2124, 38.7495], [47.2683, 38.7062], [47.2691, 38.6981], [47.2511, 38.6842], [47.2227, 38.6778], [47.2194, 38.6581], [47.2102, 38.6498], [47.163, 38.6473], [47.1541, 38.6384], [47.1522, 38.6143], [47.1355, 38.6187], [47.1049, 38.6167], [47.1074, 38.6298], [47.1027, 38.6384], [47.0666, 38.6573], [47.0258, 38.6648], [46.993, 38.6781], [46.8919, 38.6964], [46.8555, 38.7353], [46.8299, 38.7506], [46.8046, 38.7292], [46.7988, 38.73], [46.7913, 38.7237], [46.778, 38.7056], [46.7808, 38.697], [46.8255, 38.6812], [46.8535, 38.6609], [46.8583, 38.652], [46.8613, 38.6189], [46.843, 38.5828], [46.7838, 38.5564], [46.7735, 38.5425], [46.7724, 38.5267], [46.7513, 38.4978], [46.7444, 38.447], [46.7658, 38.4275], [46.7588, 38.3936], [46.7735, 38.39], [46.7827, 38.375], [46.8024, 38.3606], [46.8208, 38.3684], [46.8346, 38.3614], [46.8813, 38.3723], [46.948, 38.3623], [46.9774, 38.3514], [47.0805, 38.3398], [47.1544, 38.3425], [47.2872, 38.3045], [47.2908, 38.332], [47.3458, 38.357], [47.3802, 38.3961], [47.4152, 38.4156], [47.4641, 38.4781], [47.4811, 38.5406], [47.4986, 38.5812], [47.5183, 38.5956], [47.5689, 38.6117], [47.565, 38.6423], [47.5008, 38.6823], [47.4758, 38.6895], [47.4561, 38.6887], [47.4486, 38.6964], [47.4361, 38.7001], [47.433, 38.7192], [47.4222, 38.7378], [47.433, 38.7584], [47.448, 38.7667], [47.4486, 38.7778], [47.4697, 38.7914], [47.5458, 38.8162], [47.5966, 38.8159], [47.5963, 38.8267], [47.5611, 38.8481], [47.5516, 38.8603], [47.5497, 38.8881]]]}}, {"type": "Feature", "properties": {"osm_type": "relation", "osm_id": 809172633, "name": "Bostanabad", "admin_level": "6", "kind": "subdivision_2", "parent_osm_id": 241472, "parent_name": "Gilan Province", "parent_iso": "IR-01"}, "geometry": {"type": "Polygon", "coordinates": [[[47.0073, 38.0653], [46.9891, 38.0703], [46.9613, 38.0653], [46.9349, 38.0703], [46.868, 38.07], [46.8074, 38.0803], [46.6963, 38.0803], [46.6633, 38.0898], [46.6629, 38.0759], [46.6731, 38.0482], [46.6674, 38.0254], [46.6529, 38.0046], [46.5856, 38.0184], [46.545, 38.0168], [46.5299, 37.9981], [46.5221, 37.977], [46.5119, 37.8839], [46.5027, 37.8556], [46.5038, 37.7911], [46.4924, 37.7453], [46.4966, 37.7228], [46.4741, 37.6967], [46.4796, 37.6797], [46.468, 37.6572], [46.4696, 37.6414], [46.4646, 37.6264], [46.4677, 37.6153], [46.5024, 37.6153], [46.5396, 37.6022], [46.5774, 37.6111], [46.6152, 37.6061], [46.648, 37.5806], [46.6783, 37.547], [46.7096, 37.5392], [46.7391, 37.5467], [46.7547, 37.5778], [46.7841, 37.6031], [46.8388, 37.5984], [46.9005, 37.577], [46.9297, 37.5797], [46.9463, 37.5956], [46.9444, 37.625], [46.963, 37.6375], [46.9913, 37.642], [47.1191, 37.6031], [47.1552, 37.5759], [47.2249, 37.5528], [47.2413, 37.5597], [47.2405, 37.5775], [47.2138, 37.6339], [47.2069, 37.6734], [47.2141, 37.7303], [47.223, 37.757], [47.1619, 37.7692], [47.1269, 37.7714], [47.1224, 37.7809], [47.1252, 37.7953], [47.1049, 37.8036], [47.0555, 37.7934], [47.0385, 37.7939], [46.996, 37.8247], [47.0041, 37.8509], [47.0394, 37.8875], [47.0427, 37.9214], [47.0308, 37.9717], [47.0349, 37.9856], [47.0472, 38.0], [47.0316, 38.0253], [47.0297, 38.0459], [47.0073, 38.0653]]]}}, {"type": "Feature", "properties": {"osm_type": "relation", "osm_id": 107622298, "name": "Bonab", "admin_level": "6", "kind": "subdivision_2", "parent_osm_id": 241472, "parent_name": "Gilan Province", "parent_iso": "IR-01"}, "geometry": {"type": "Polygon", "coordinates": [[[46.2049, 37.5211], [46.1718, 37.532], [46.1371, 37.5283], [46.1041, 37.505], [46.0763, 37.502], [46.0496, 37.4836], [46.0027, 37.4753], [45.9874, 37.4622], [45.964, 37.3955], [45.9818, 37.3779], [45.9695, 37.3606], [45.9399, 37.3367], [45.9377, 37.3193], [45.9261, 37.3018], [45.9067, 37.3014], [45.8572, 37.3112], [45.8559, 37.2917], [45.8663, 37.2565], [45.8552, 37.2454], [45.8347, 37.2366], [45.7809, 37.2285], [45.7768, 37.2061], [45.7588, 37.1964], [45.7507, 37.1842], [45.8518, 37.1628], [45.9229, 37.1706], [45.9154, 37.1858], [45.9229, 37.1903], [45.9254, 37.1986], [45.9479, 37.2003], [45.9866, 37.2311], [46.0291, 37.2419], [46.0624, 37.2428], [46.0832, 37.2564], [46.1291, 37.2486], [46.1918, 37.2483], [46.1904, 37.2775], [46.1766, 37.3014], [46.1602, 37.3114], [46.1499, 37.3261], [46.1532, 37.3392], [46.1727, 37.3578], [46.1749, 37.3675], [46.1499, 37.3889], [46.1527, 37.41], [46.1366, 37.4353], [46.1538, 37.4581], [46.1524, 37.4889], [46.1652, 37.4992], [46.1938, 37.5075], [46.2049, 37.5211]]]}}, {"type": "Feature", "properties": {"osm_type": "relation", "osm_id": 258261923, "name": "Tabriz", "admin_level": "6", "kind": "subdivision_2", "parent_osm_id": 241472, "parent_name": "Gilan Province", "parent_iso": "IR-01"}, "geometry": {"type": "Polygon", "coordinates": [[[46.3385, 37.7322], [46.3794, 37.735], [46.4291, 37.7225], [46.497, 37.7289], [46.4924, 37.7453], [46.5038, 37.7911], [46.5027, 37.8556], [46.5119, 37.8839], [46.5202, 37.9656], [46.5299, 37.9981], [46.545, 38.0168], [46.5566, 38.018], [46.5856, 38.0184], [46.6529, 38.0046], [46.6674, 38.0254], [46.6731, 38.0482], [46.6629, 38.0759], [46.6633, 38.0898], [46.6469, 38.0939], [46.623, 38.0909], [46.5891, 38.07], [46.5819, 38.0703], [46.5582, 38.0836], [46.5346, 38.0836], [46.4927, 38.1017], [46.436, 38.0948], [46.418, 38.1039], [46.3874, 38.1109], [46.3735, 38.1203], [46.3935, 38.1689], [46.3957, 38.1934], [46.4305, 38.2359], [46.4313, 38.2548], [46.4474, 38.2875], [46.4257, 38.3239], [46.4236, 38.3491], [46.4266, 38.3575], [46.4649, 38.3948], [46.4655, 38.4011], [46.4469, 38.4242], [46.4444, 38.4495], [46.4352, 38.4639], [46.416, 38.4773], [46.3869, 38.4745], [46.3446, 38.4867], [46.3377, 38.4834], [46.3443, 38.4659], [46.3382, 38.4462], [46.2999, 38.4195], [46.2796, 38.3764], [46.2763, 38.3559], [46.268, 38.3411], [46.2732, 38.3195], [46.2638, 38.3011], [46.2685, 38.29], [46.2605, 38.255], [46.2655, 38.2398], [46.261, 38.235], [46.2624, 38.2267], [46.2477, 38.2039], [46.1902, 38.1831], [46.1432, 38.1786], [46.0916, 38.1859], [46.0596, 38.1775], [45.9077, 38.1037], [45.8888, 38.0781], [45.8546, 38.0473], [45.9027, 37.9909], [45.9996, 37.9536], [46.0329, 37.9159], [46.0757, 37.9572], [46.1491, 37.9734], [46.2021, 37.9311], [46.2257, 37.8895], [46.2777, 37.8553], [46.2993, 37.832], [46.3435, 37.7967], [46.3499, 37.7709], [46.3402, 37.7509], [46.3385, 37.7322]]]}}, {"type": "Feature", "properties": {"osm_type": "relation", "osm_id": 143173332, "name": "Jolfa", "admin_level": "6", "kind": "subdivision_2", "parent_osm_id": 241472, "parent_name": "Gilan Province", "parent_iso": "IR-01"}, "geometry": {"type": "Polygon", "coordinates": [[[46.5243, 38.8882], [46.5069, 38.8849], [46.4991, 38.8893], [46.4838, 38.8851], [46.4742, 38.8902], [46.4653, 38.8885], [46.4538, 38.8985], [46.4317, 38.8941], [46.4226, 38.883], [46.4159, 38.8924], [46.3943, 38.9037], [46.3711, 38.9088], [46.3632, 38.9163], [46.3393, 38.9164], [46.3174, 38.9015], [46.3031, 38.9063], [46.2979, 38.9003], [46.2826, 38.9005], [46.2671, 38.893], [46.2665, 38.8866], [46.2478, 38.874], [46.2162, 38.8644], [46.2146, 38.8557], [46.1936, 38.8519], [46.1841, 38.8415], [46.1476, 38.8418], [46.1291, 38.8464], [46.1281, 38.8511], [46.1117, 38.8584], [46.1122, 38.8651], [46.0804, 38.8715], [46.0654, 38.8874], [46.0589, 38.8878], [46.0541, 38.878], [46.0416, 38.8719], [46.0327, 38.875], [46.012, 38.8719], [45.9792, 38.8788], [45.9668, 38.8901], [45.9581, 38.8886], [45.9445, 38.8966], [45.9267, 38.8779], [45.9087, 38.8739], [45.894, 38.8767], [45.8904, 38.8848], [45.8796, 38.8892], [45.8609, 38.8931], [45.8641, 38.9003], [45.8467, 38.9104], [45.8321, 38.9024], [45.8153, 38.9053], [45.8111, 38.912], [45.7998, 38.915], [45.798, 38.9249], [45.7858, 38.9195], [45.7842, 38.9252], [45.7724, 38.9237], [45.7589, 38.9302], [45.7368, 38.9275], [45.7174, 38.9365], [45.7102, 38.945], [45.6989, 38.9442], [45.6924, 38.9515], [45.6787, 38.9464], [45.6474, 38.9519], [45.6444, 38.9464], [45.6159, 38.9414], [45.6131, 38.9579], [45.5853, 38.9672], [45.5819, 38.9785], [45.5693, 38.9761], [45.5657, 38.9691], [45.5531, 38.9645], [45.5415, 38.9648], [45.4984, 38.9841], [45.4529, 38.993], [45.4432, 38.9845], [45.3926, 38.9714], [45.3779, 38.9626], [45.3618, 38.9445], [45.359, 38.9298], [45.3293, 38.8923], [45.3079, 38.8803], [45.2815, 38.8737], [45.2926, 38.8612], [45.3054, 38.8584], [45.3501, 38.8659], [45.3612, 38.8762], [45.3768, 38.8756], [45.3937, 38.8823], [45.404, 38.862], [45.4032, 38.8487], [45.4257, 38.8248], [45.4287, 38.8067], [45.4412, 38.7937], [45.4418, 38.7753], [45.4501, 38.7584], [45.4635, 38.7523], [45.5157, 38.7631], [45.5538, 38.7653], [45.591, 38.7584], [45.6585, 38.7689], [45.6738, 38.7675], [45.6871, 38.7592], [45.7199, 38.7559], [45.7401, 38.7359], [45.814, 38.7559], [45.839, 38.7684], [45.8574, 38.7864], [45.864, 38.7864], [45.8896, 38.767], [45.9474, 38.7437], [45.9657, 38.7217], [45.9563, 38.7067], [45.9765, 38.7], [46.0096, 38.6772], [46.0151, 38.6551], [46.0231, 38.649], [46.0607, 38.6714], [46.0666, 38.6848], [46.0624, 38.7017], [46.1199, 38.7492], [46.1527, 38.755], [46.1591, 38.7684], [46.1727, 38.7545], [46.1816, 38.7609], [46.1938, 38.7578], [46.1991, 38.7628], [46.2221, 38.7675], [46.2446, 38.7962], [46.2571, 38.7914], [46.271, 38.7695], [46.2793, 38.7653], [46.3066, 38.7787], [46.3549, 38.7837], [46.4007, 38.7748], [46.4402, 38.7548], [46.4524, 38.7559], [46.4896, 38.8067], [46.4952, 38.8184], [46.4852, 38.8267], [46.5044, 38.8509], [46.5243, 38.8882]]]}}, {"type": "Feature", "properties": {"osm_type": "relation", "osm_id": 546221733, "name": "Khoda Afarin", "admin_level": "6", "kind": "subdivision_2", "parent_osm_id": 241472, "parent_name": "Gilan Province", "parent_iso": "IR-01"}, "geometry": {"type": "Polygon", "coordinates": [[[46.4524, 38.7559], [46.4924, 38.7539], [46.5274, 38.7584], [46.5394, 38.7459], [46.5605, 38.7409], [46.6249, 38.7584], [46.666, 38.7914], [46.6849, 38.7867], [46.6863, 38.7995], [46.7277, 38.8689], [46.7574, 38.8781], [46.8344, 38.8831], [46.8452, 38.8892], [46.8541, 38.9264], [46.8738, 38.9459], [46.9283, 38.9448], [46.9416, 38.9476], [46.9624, 38.9617], [47.023, 38.9609], [47.0669, 38.9723], [47.0738, 38.9867], [47.1016, 39.0128], [47.1108, 39.0353], [47.1116, 39.0412], [47.0988, 39.0467], [47.0941, 39.0576], [47.0994, 39.0831], [47.1277, 39.0928], [47.1344, 39.1184], [47.1027, 39.1301], [47.108, 39.1445], [47.1505, 39.1581], [47.1816, 39.152], [47.2227, 39.1687], [47.2319, 39.1845], [47.2347, 39.2092], [47.2587, 39.2219], [47.2797, 39.2461], [47.3168, 39.2631], [47.338, 39.2798], [47.4921, 39.2866], [47.5049, 39.2954], [47.4343, 39.316], [47.4306, 39.325], [47.4391, 39.3373], [47.4049, 39.3684], [47.3797, 39.4059], [47.3634, 39.4217], [47.35, 39.4127], [47.3416, 39.4135], [47.3412, 39.4061], [47.3355, 39.4036], [47.3151, 39.3692], [47.296, 39.3671], [47.2754, 39.3589], [47.268, 39.3505], [47.2519, 39.3482], [47.2459, 39.3372], [47.2265, 39.3335], [47.2157, 39.319], [47.195, 39.3199], [47.1658, 39.3075], [47.1591, 39.3115], [47.1469, 39.2962], [47.1328, 39.2918], [47.1256, 39.2784], [47.1163, 39.2806], [47.1068, 39.2726], [47.0983, 39.2767], [47.0947, 39.266], [47.0814, 39.2636], [47.0728, 39.2453], [47.0631, 39.2454], [47.0581, 39.2398], [47.0548, 39.2157], [47.0609, 39.2053], [47.0539, 39.1939], [47.0226, 39.1755], [47.0191, 39.167], [46.9976, 39.1672], [46.9919, 39.1624], [46.9935, 39.1545], [46.9625, 39.1404], [46.9499, 39.1395], [46.9478, 39.1475], [46.9255, 39.1647], [46.8665, 39.1407], [46.839, 39.1375], [46.8415, 39.1305], [46.8342, 39.1144], [46.8155, 39.1099], [46.8212, 39.1055], [46.812, 39.1031], [46.8134, 39.0972], [46.7907, 39.0871], [46.788, 39.0783], [46.7757, 39.0699], [46.7683, 39.0704], [46.7679, 39.0589], [46.7585, 39.0571], [46.7618, 39.0369], [46.7531, 39.0259], [46.7479, 39.0286], [46.7368, 39.0176], [46.714, 39.0128], [46.6969, 39.019], [46.6832, 39.0063], [46.689, 39.0016], [46.6893, 38.9935], [46.6634, 38.9709], [46.655, 38.9541], [46.6404, 38.9511], [46.6407, 38.9442], [46.6282, 38.9371], [46.6275, 38.9304], [46.6134, 38.9207], [46.6076, 38.9214], [46.601, 38.9061], [46.5653, 38.8857], [46.5544, 38.8842], [46.534, 38.8672], [46.524, 38.8781], [46.5243, 38.8882], [46.5044, 38.8509], [46.4852, 38.8267], [46.4952, 38.8184], [46.4896, 38.8067], [46.4524, 38.7559]]]}}, {"type": "Feature", "properties": {"osm_type": "relation", "osm_id": 431491239, "name": "Sarab", "admin_level": "6", "kind": "subdivision_2", "parent_osm_id": 241472, "parent_name": "Gilan Province", "parent_iso": "IR-01"}, "geometry": {"type": "Polygon", "coordinates": [[[47.2244, 37.7522], [47.2525, 37.7572], [47.2722, 37.7534], [47.2952, 37.7586], [47.3255, 37.7534], [47.3391, 37.76], [47.3766, 37.7597], [47.4172, 37.7445], [47.4638, 37.7553], [47.5069, 37.7422], [47.5597, 37.7392], [47.6183, 37.7506], [47.6691, 37.7717], [47.6927, 37.7872], [47.7052, 37.7792], [47.7586, 37.7959], [47.7755, 37.7886], [47.8097, 37.802], [47.8522, 37.7984], [47.8636, 37.8334], [47.8786, 37.8423], [47.898, 37.8636], [47.8847, 37.892], [47.8878, 37.8978], [47.9011, 37.9064], [47.9119, 37.9284], [47.9358, 37.9406], [47.9378, 37.9467], [47.9097, 37.9909], [47.8753, 37.9948], [47.8622, 38.0067], [47.8464, 38.0917], [47.8522, 38.1467], [47.845, 38.1664], [47.8266, 38.1892], [47.8083, 38.2025], [47.7875, 38.2514], [47.7805, 38.2506], [47.7719, 38.2348], [47.7466, 38.2328], [47.7247, 38.2123], [47.6986, 38.217], [47.6558, 38.2131], [47.6172, 38.2184], [47.5714, 38.2084], [47.5394, 38.1914], [47.5086, 38.1959], [47.4869, 38.182], [47.4744, 38.1861], [47.4808, 38.23], [47.4777, 38.2425], [47.4688, 38.2495], [47.4072, 38.237], [47.3749, 38.252], [47.3469, 38.2206], [47.3077, 38.1978], [47.1586, 38.1578], [47.1168, 38.1545], [47.1053, 38.144], [47.1068, 38.1257], [47.1175, 38.109], [47.0976, 38.1055], [47.093, 38.0661], [47.0844, 38.057], [47.031, 38.0689], [47.0073, 38.0653], [47.0297, 38.0459], [47.0316, 38.0253], [47.0472, 38.0], [47.0349, 37.9856], [47.0308, 37.9717], [47.0427, 37.9214], [47.0394, 37.8875], [47.0041, 37.8509], [46.996, 37.8247], [47.0385, 37.7939], [47.0555, 37.7934], [47.0922, 37.8034], [47.1191, 37.8006], [47.1252, 37.7953], [47.1224, 37.7809], [47.1269, 37.7714], [47.2152, 37.7603], [47.2244, 37.7522]]]}}, {"type": "Feature", "properties": {"osm_type": "relation", "osm_id": 426247455, "name": "Shabestar", "admin_level": "6", "kind": "subdivision_2", "parent_osm_id": 241472, "parent_name": "Gilan Province", "parent_iso": "IR-01"}, "geometry": {"type": "Polygon", "coordinates": [[[45.8546, 38.0473], [45.8888, 38.0781], [45.9077, 38.1037], [46.0596, 38.1775], [46.0916, 38.1859], [46.1432, 38.1786], [46.1902, 38.1831], [46.2477, 38.2039], [46.2624, 38.2267], [46.261, 38.235], [46.2655, 38.2398], [46.2605, 38.255], [46.2685, 38.29], [46.2638, 38.3011], [46.2732, 38.3195], [46.268, 38.3411], [46.2763, 38.3559], [46.2796, 38.3764], [46.2999, 38.4195], [46.3382, 38.4462], [46.3443, 38.4659], [46.3396, 38.4723], [46.3121, 38.4731], [46.3052, 38.4803], [46.293, 38.4834], [46.2621, 38.4695], [46.2463, 38.4712], [46.1955, 38.4506], [46.1963, 38.4449], [46.1896, 38.4373], [46.1451, 38.4084], [46.0866, 38.3853], [46.0766, 38.3851], [46.0532, 38.4054], [46.0334, 38.3832], [46.0072, 38.391], [45.9943, 38.377], [45.9513, 38.3739], [45.9346, 38.3667], [45.9096, 38.3434], [45.8952, 38.3095], [45.866, 38.3136], [45.8285, 38.3114], [45.7868, 38.2936], [45.7707, 38.3017], [45.7679, 38.315], [45.7363, 38.3092], [45.689, 38.3284], [45.6574, 38.3189], [45.631, 38.3336], [45.5738, 38.3086], [45.5404, 38.3073], [45.5324, 38.3125], [45.5265, 38.3517], [45.486, 38.3778], [45.4504, 38.3786], [45.4274, 38.3936], [45.3999, 38.3895], [45.3565, 38.4073], [45.3174, 38.3953], [45.286, 38.407], [45.2357, 38.405], [45.2223, 38.4159], [45.1998, 38.42], [45.1887, 38.4009], [45.1718, 38.3881], [45.1182, 38.3698], [45.0821, 38.3325], [45.0935, 38.3211], [45.1032, 38.2636], [45.1293, 38.2675], [45.1965, 38.2573], [45.2583, 38.2603], [45.3587, 38.2525], [45.3785, 38.2474], [45.3933, 38.238], [45.4037, 38.2243], [45.4453, 38.2038], [45.4938, 38.153], [45.5143, 38.1411], [45.531, 38.1228], [45.5393, 38.0758], [45.5332, 38.0618], [45.516, 38.0471], [45.5351, 38.0331], [45.5364, 38.0257], [45.5271, 38.0048], [45.7499, 38.0009], [45.8193, 38.0259], [45.8546, 38.0473]]]}}, {"type": "Feature", "properties": {"osm_type": "relation", "osm_id": 202201764, "name": "Ajabshir", "admin_level": "6", "kind": "subdivision_2", "parent_osm_id": 241472, "parent_name": "Gilan Province", "parent_iso": "IR-01"}, "geometry": {"type": "Polygon", "coordinates": [[[45.708, 37.5909], [45.7107, 37.5832], [45.725, 37.5741], [45.725, 37.5521], [45.748, 37.5447], [45.7565, 37.5295], [45.7726, 37.52], [45.7928, 37.5157], [45.7912, 37.5036], [45.7996, 37.5027], [45.8169, 37.4836], [45.8234, 37.459], [45.8559, 37.438], [45.8885, 37.3996], [45.9187, 37.3842], [45.9572, 37.3975], [45.964, 37.3955], [45.9874, 37.4622], [46.0027, 37.4753], [46.0496, 37.4836], [46.0763, 37.502], [46.1041, 37.505], [46.1371, 37.5283], [46.1718, 37.532], [46.2049, 37.5211], [46.2187, 37.5268], [46.2565, 37.5893], [46.289, 37.6226], [46.3087, 37.6618], [46.3237, 37.6756], [46.3331, 37.708], [46.2982, 37.6947], [46.2568, 37.6872], [46.2063, 37.6883], [46.166, 37.6836], [46.1182, 37.6375], [46.066, 37.6117], [46.0343, 37.6142], [46.0141, 37.5964], [45.9093, 37.565], [45.8168, 37.5667], [45.784, 37.5792], [45.708, 37.5909]]]}}, {"type": "Feature", "properties": {"osm_type": "relation", "osm_id": 608981694, "name": "Maragheh", "admin_level": "6", "kind": "subdivision_2", "parent_osm_id": 241472, "parent_name": "Gilan Province", "parent_iso": "IR-01"}, "geometry": {"type": "Polygon", "coordinates": [[[46.3331, 37.708], [46.3237, 37.6756], [46.3087, 37.6618], [46.289, 37.6226], [46.2565, 37.5893], [46.2187, 37.5268], [46.2049, 37.5211], [46.1938, 37.5075], [46.1652, 37.4992], [46.1524, 37.4889], [46.1538, 37.4581], [46.1366, 37.4353], [46.1527, 37.41], [46.1499, 37.3889], [46.1749, 37.3675], [46.1727, 37.3578], [46.1532, 37.3392], [46.1499, 37.3261], [46.1535, 37.3178], [46.173, 37.3056], [46.1904, 37.2775], [46.1918, 37.2483], [46.2346, 37.2295], [46.2516, 37.2478], [46.2655, 37.2728], [46.2793, 37.2843], [46.2852, 37.2745], [46.3169, 37.2486], [46.3271, 37.2261], [46.3665, 37.2119], [46.3734, 37.2047], [46.3604, 37.1679], [46.3367, 37.1524], [46.4102, 37.1286], [46.4407, 37.0986], [46.4494, 37.1017], [46.4921, 37.0981], [46.4957, 37.0936], [46.4949, 37.0647], [46.4599, 37.0428], [46.4616, 37.035], [46.4535, 37.0239], [46.4574, 37.0208], [46.5288, 37.0197], [46.5613, 37.0303], [46.6494, 37.0428], [46.6671, 37.0511], [46.6733, 37.0592], [46.6569, 37.0792], [46.6569, 37.1075], [46.6691, 37.1436], [46.6541, 37.1692], [46.6563, 37.1764], [46.7105, 37.19], [46.7219, 37.1997], [46.6871, 37.2303], [46.6313, 37.2328], [46.6099, 37.2514], [46.6066, 37.2667], [46.6216, 37.2903], [46.6238, 37.3089], [46.6352, 37.3175], [46.658, 37.3211], [46.6633, 37.3295], [46.6624, 37.34], [46.6116, 37.3981], [46.5652, 37.4417], [46.5391, 37.4917], [46.4766, 37.5709], [46.473, 37.602], [46.4646, 37.6264], [46.4696, 37.6414], [46.468, 37.6572], [46.4796, 37.6797], [46.4741, 37.6967], [46.4966, 37.7228], [46.497, 37.7289], [46.4291, 37.7225], [46.3682, 37.7361], [46.3385, 37.7322], [46.3331, 37.708]]]}}, {"type": "Feature", "properties": {"osm_type": "relation", "osm_id": 497130938, "name": "Marand", "admin_level": "6", "kind": "subdivision_2", "parent_osm_id": 241472, "parent_name": "Gilan Province", "parent_iso": "IR-01"}, "geometry": {"type": "Polygon", "coordinates": [[[45.2815, 38.8737], [45.2651, 38.8539], [45.2612, 38.8248], [45.2662, 38.8173], [45.2648, 38.7675], [45.2757, 38.732], [45.2518, 38.6956], [45.2498, 38.6842], [45.2357, 38.6723], [45.2335, 38.665], [45.2535, 38.6453], [45.259, 38.6317], [45.2565, 38.6231], [45.264, 38.6123], [45.2624, 38.59], [45.2704, 38.5736], [45.2857, 38.5584], [45.2929, 38.5339], [45.3085, 38.525], [45.3271, 38.4973], [45.3404, 38.4889], [45.3185, 38.4798], [45.2699, 38.4417], [45.2435, 38.4348], [45.2187, 38.4342], [45.2018, 38.4184], [45.2223, 38.4159], [45.2357, 38.405], [45.286, 38.407], [45.3174, 38.3953], [45.3565, 38.4073], [45.3999, 38.3895], [45.4274, 38.3936], [45.4504, 38.3786], [45.486, 38.3778], [45.5265, 38.3517], [45.5324, 38.3125], [45.5404, 38.3073], [45.5738, 38.3086], [45.631, 38.3336], [45.6574, 38.3189], [45.689, 38.3284], [45.7363, 38.3092], [45.7679, 38.315], [45.7707, 38.3017], [45.7868, 38.2936], [45.8285, 38.3114], [45.866, 38.3136], [45.8952, 38.3095], [45.9096, 38.3434], [45.9346, 38.3667], [45.9513, 38.3739], [45.9943, 38.377], [46.0072, 38.391], [46.0334, 38.3832], [46.0532, 38.4054], [46.0766, 38.3851], [46.0866, 38.3853], [46.1451, 38.4084], [46.1963, 38.4449], [46.1955, 38.4506], [46.1821, 38.4503], [46.1614, 38.4652], [46.1112, 38.4696], [46.0698, 38.4933], [46.0671, 38.5044], [46.0768, 38.5278], [46.0482, 38.5678], [46.0498, 38.5967], [46.0648, 38.611], [46.0477, 38.6187], [46.0349, 38.6437], [46.0151, 38.6551], [46.0096, 38.6772], [45.9765, 38.7], [45.9563, 38.7067], [45.9657, 38.7217], [45.9474, 38.7437], [45.8896, 38.767], [45.864, 38.7864], [45.8574, 38.7864], [45.839, 38.7684], [45.814, 38.7559], [45.7401, 38.7359], [45.7199, 38.7559], [45.6871, 38.7592], [45.6738, 38.7675], [45.6585, 38.7689], [45.591, 38.7584], [45.5538, 38.7653], [45.5157, 38.7631], [45.4635, 38.7523], [45.4501, 38.7584], [45.4418, 38.7753], [45.4412, 38.7937], [45.4287, 38.8067], [45.4257, 38.8248], [45.4032, 38.8487], [45.404, 38.862], [45.3937, 38.8823], [45.3768, 38.8756], [45.3612, 38.8762], [45.3501, 38.8659], [45.3054, 38.8584], [45.2926, 38.8612], [45.2815, 38.8737]]]}}, {"type": "Feature", "properties": {"osm_type": "relation", "osm_id": 925126713, "name": "Malekan", "admin_level": "6", "kind": "subdivision_2", "parent_osm_id": 241472, "parent_name": "Gilan Province", "parent_iso": "IR-01"}, "geometry": {"type": "Polygon", "coordinates": [[[45.9229, 37.1706], [45.9827, 37.1622], [46.0293, 37.1311], [46.0563, 37.0881], [46.0802, 37.0783], [46.1082, 37.0519], [46.1288, 37.0408], [46.1377, 37.0228], [46.1755, 36.9956], [46.1774, 36.9553], [46.1988, 36.9444], [46.2435, 36.9703], [46.2863, 36.9717], [46.3247, 37.0091], [46.3799, 37.0436], [46.4124, 37.0564], [46.4291, 37.0736], [46.4407, 37.0986], [46.4102, 37.1286], [46.3367, 37.1524], [46.3604, 37.1679], [46.3734, 37.2047], [46.3665, 37.2119], [46.3271, 37.2261], [46.3169, 37.2486], [46.2852, 37.2745], [46.2793, 37.2843], [46.2655, 37.2728], [46.2516, 37.2478], [46.2346, 37.2295], [46.1918, 37.2483], [46.1291, 37.2486], [46.0832, 37.2564], [46.0624, 37.2428], [46.0291, 37.2419], [45.9785, 37.2283], [45.9479, 37.2003], [45.9254, 37.1986], [45.9229, 37.1903], [45.9154, 37.1858], [45.9229, 37.1706]]]}}, {"type": "Feature", "properties": {"osm_type": "relation", "osm_id": 983320924, "name": "Miandoab", "admin_level": "6", "kind": "subdivision_2", "parent_osm_id": 241472, "parent_name": "Gilan Province", "parent_iso": "IR-01"}, "geometry": {"type": "Polygon", "coordinates": [[[45.7809, 37.2285], [45.7517, 37.2246], [45.7126, 37.2304], [45.7028, 37.2246], [45.6976, 37.1959], [45.6827, 37.1686], [45.6827, 37.1608], [45.6625, 37.1497], [45.6507, 37.1334], [45.6527, 37.1223], [45.6703, 37.1106], [45.6761, 37.0885], [45.6605, 37.065], [45.6286, 37.0676], [45.6259, 37.057], [45.6496, 37.0489], [45.6593, 37.0389], [45.7454, 37.0428], [45.7296, 37.0002], [45.7388, 36.9878], [45.7935, 36.9761], [45.8635, 36.9875], [45.8802, 36.9833], [45.921, 36.9572], [45.9466, 36.9197], [45.9982, 36.8969], [46.0546, 36.8647], [46.0849, 36.8669], [46.1324, 36.8542], [46.3269, 36.8375], [46.3138, 36.8597], [46.3021, 36.86], [46.2921, 36.8719], [46.276, 36.8714], [46.2594, 36.8833], [46.2413, 36.8853], [46.2388, 36.8936], [46.2438, 36.9144], [46.3132, 36.9111], [46.3666, 36.9156], [46.4094, 36.9092], [46.4669, 36.8964], [46.5101, 36.8653], [46.558, 36.9108], [46.5721, 36.91], [46.6244, 36.9283], [46.6583, 36.9344], [46.6671, 36.9272], [46.6571, 36.9092], [46.661, 36.9003], [46.7197, 36.9133], [46.7524, 36.9069], [46.7627, 36.895], [46.7833, 36.8347], [46.8122, 36.8067], [46.8262, 36.7849], [46.8382, 36.7932], [46.8571, 36.7965], [46.8727, 36.7904], [46.8808, 36.8364], [46.8988, 36.8947], [46.8938, 36.905], [46.8558, 36.9183], [46.8427, 36.9275], [46.8324, 36.9533], [46.8319, 36.9761], [46.8627, 36.9997], [46.8019, 37.0493], [46.7094, 37.0725], [46.6733, 37.0592], [46.6671, 37.0511], [46.6494, 37.0428], [46.5613, 37.0303], [46.5288, 37.0197], [46.4574, 37.0208], [46.4535, 37.0239], [46.4616, 37.035], [46.4599, 37.0428], [46.4949, 37.0647], [46.4957, 37.0936], [46.4874, 37.0997], [46.4494, 37.1017], [46.4407, 37.0986], [46.4291, 37.0736], [46.4124, 37.0564], [46.3799, 37.0436], [46.3247, 37.0091], [46.2863, 36.9717], [46.2435, 36.9703], [46.1988, 36.9444], [46.1774, 36.9553], [46.1755, 36.9956], [46.1377, 37.0228], [46.1288, 37.0408], [46.1082, 37.0519], [46.0802, 37.0783], [46.0563, 37.0881], [46.0293, 37.1311], [46.0143, 37.1381], [46.0093, 37.1472], [45.9827, 37.1622], [45.9229, 37.1706], [45.8518, 37.1628], [45.7524, 37.1822], [45.7588, 37.1964], [45.7768, 37.2061], [45.7809, 37.2285]]]}}, {"type": "Feature", "properties": {"osm_type": "relation", "osm_id": 974071132, "name": "Mianeh", "admin_level": "6", "kind": "subdivision_2", "parent_osm_id": 241472, "parent_name": "Gilan Province", "parent_iso": "IR-01"}, "geometry": {"type": "Polygon", "coordinates": [[[47.2249, 37.5528], [47.2358, 37.5297], [47.2194, 37.5081], [47.2255, 37.4945], [47.2844, 37.475], [47.3, 37.465], [47.2641, 37.4042], [47.27, 37.395], [47.2936, 37.382], [47.2925, 37.375], [47.2763, 37.3647], [47.2666, 37.3508], [47.3016, 37.3322], [47.3066, 37.317], [47.3055, 37.3122], [47.2833, 37.3028], [47.2819, 37.2903], [47.2722, 37.2781], [47.2788, 37.2725], [47.2969, 37.2708], [47.3025, 37.2595], [47.3519, 37.2106], [47.3575, 37.1958], [47.3491, 37.1725], [47.4341, 37.1581], [47.5072, 37.185], [47.5202, 37.1836], [47.5747, 37.1461], [47.618, 37.0981], [47.6252, 37.0842], [47.6339, 37.0792], [47.663, 37.0994], [47.6875, 37.0864], [47.72, 37.0936], [47.7422, 37.0786], [47.7683, 37.0772], [47.7758, 37.092], [47.7789, 37.1322], [47.7936, 37.1445], [47.8425, 37.1692], [47.8719, 37.1747], [47.9469, 37.1656], [47.9725, 37.1553], [47.9833, 37.1478], [47.9993, 37.1122], [48.0411, 37.1494], [48.0997, 37.1558], [48.1169, 37.1883], [48.1503, 37.2211], [48.2378, 37.2378], [48.2758, 37.2375], [48.2947, 37.2453], [48.3325, 37.2425], [48.3383, 37.2483], [48.3353, 37.2664], [48.3214, 37.2708], [48.3183, 37.277], [48.3081, 37.2764], [48.2953, 37.2864], [48.2925, 37.2972], [48.2831, 37.2992], [48.2811, 37.305], [48.2703, 37.3081], [48.2714, 37.3133], [48.26, 37.3175], [48.26, 37.3295], [48.2497, 37.3228], [48.2442, 37.327], [48.2431, 37.3322], [48.2486, 37.337], [48.2314, 37.352], [48.2256, 37.3661], [48.1914, 37.3811], [48.1494, 37.4161], [48.1458, 37.4334], [48.1553, 37.4784], [48.1255, 37.49], [48.1164, 37.4895], [48.0908, 37.5097], [48.0608, 37.5147], [48.053, 37.5334], [48.058, 37.5445], [48.0789, 37.565], [48.0792, 37.5784], [48.0747, 37.5903], [48.0678, 37.595], [48.0217, 37.6122], [48.0189, 37.6181], [48.0278, 37.6611], [48.063, 37.7064], [48.0667, 37.7295], [48.1153, 37.7392], [48.1353, 37.7522], [48.1475, 37.7806], [48.1511, 37.8097], [48.1461, 37.8178], [48.1147, 37.8303], [48.0992, 37.8525], [48.0886, 37.8536], [48.0739, 37.8475], [48.0572, 37.85], [48.0467, 37.8711], [47.9994, 37.895], [47.9775, 37.8759], [47.9444, 37.8747], [47.898, 37.8636], [47.8786, 37.8423], [47.8636, 37.8334], [47.8522, 37.7984], [47.8097, 37.802], [47.7755, 37.7886], [47.7586, 37.7959], [47.7052, 37.7792], [47.6927, 37.7872], [47.6691, 37.7717], [47.6183, 37.7506], [47.5597, 37.7392], [47.5069, 37.7422], [47.4638, 37.7553], [47.4172, 37.7445], [47.3766, 37.7597], [47.3391, 37.76], [47.3255, 37.7534], [47.2952, 37.7586], [47.2722, 37.7534], [47.2525, 37.7572], [47.2244, 37.7522], [47.2141, 37.7303], [47.2069, 37.6734], [47.2138, 37.6339], [47.2405, 37.5775], [47.2413, 37.5597], [47.2249, 37.5528]]]}}, {"type": "Feature", "properties": {"osm_type": "relation", "osm_id": 445661399, "name": "Heris", "admin_level": "6", "kind": "subdivision_2", "parent_osm_id": 241472, "parent_name": "Gilan Province", "parent_iso": "IR-01"}, "geometry": {"type": "Polygon", "coordinates": [[[46.7588, 38.3936], [46.7338, 38.4037], [46.7177, 38.4048], [46.6571, 38.3906], [46.6116, 38.3898], [46.5755, 38.3973], [46.5282, 38.3736], [46.5105, 38.38], [46.4996, 38.3906], [46.4655, 38.3984], [46.4266, 38.3575], [46.4236, 38.3491], [46.4257, 38.3239], [46.4474, 38.2875], [46.4313, 38.2548], [46.4305, 38.2359], [46.3957, 38.1934], [46.3935, 38.1689], [46.3735, 38.1203], [46.3874, 38.1109], [46.418, 38.1039], [46.436, 38.0948], [46.4927, 38.1017], [46.5346, 38.0836], [46.5582, 38.0836], [46.5819, 38.0703], [46.5891, 38.07], [46.623, 38.0909], [46.6469, 38.0939], [46.6963, 38.0803], [46.8074, 38.0803], [46.868, 38.07], [46.9349, 38.0703], [46.9613, 38.0653], [46.9891, 38.0703], [47.0073, 38.0653], [47.031, 38.0689], [47.0844, 38.057], [47.093, 38.0661], [47.0976, 38.1055], [47.1175, 38.109], [47.1068, 38.1257], [47.1053, 38.144], [47.1168, 38.1545], [47.1586, 38.1578], [47.3077, 38.1978], [47.3469, 38.2206], [47.3749, 38.252], [47.3533, 38.2745], [47.325, 38.2903], [47.2519, 38.3164], [47.1544, 38.3425], [47.0805, 38.3398], [46.9774, 38.3514], [46.948, 38.3623], [46.8813, 38.3723], [46.8346, 38.3614], [46.8208, 38.3684], [46.8024, 38.3606], [46.7827, 38.375], [46.7735, 38.39], [46.7588, 38.3936]]]}}, {"type": "Feature", "properties": {"osm_type": "relation", "osm_id": 608225022, "name": "Hashtrud", "admin_level": "6", "kind": "subdivision_2", "parent_osm_id": 241472, "parent_name": "Gilan Province", "parent_iso": "IR-01"}, "geometry": {"type": "Polygon", "coordinates": [[[46.4677, 37.6153], [46.4766, 37.5709], [46.5391, 37.4917], [46.5652, 37.4417], [46.6116, 37.3981], [46.6624, 37.34], [46.6633, 37.3295], [46.658, 37.3211], [46.6352, 37.3175], [46.6238, 37.3089], [46.6216, 37.2903], [46.6066, 37.2667], [46.6099, 37.2514], [46.6313, 37.2328], [46.6871, 37.2303], [46.7219, 37.1997], [46.7105, 37.19], [46.6952, 37.1856], [46.7279, 37.1492], [46.7736, 37.1487], [46.808, 37.1704], [46.8146, 37.2044], [46.856, 37.2], [46.875, 37.2262], [46.8818, 37.2625], [46.9077, 37.2775], [46.9158, 37.3022], [46.9594, 37.3617], [46.993, 37.3647], [47.0574, 37.3508], [47.0955, 37.3586], [47.1291, 37.3022], [47.1322, 37.2775], [47.1524, 37.2489], [47.1465, 37.2355], [47.1654, 37.2262], [47.3175, 37.2453], [47.2969, 37.2708], [47.2788, 37.2725], [47.2722, 37.2781], [47.2819, 37.2903], [47.2833, 37.3028], [47.3055, 37.3122], [47.3066, 37.317], [47.3016, 37.3322], [47.2666, 37.3508], [47.2763, 37.3647], [47.2925, 37.375], [47.2936, 37.382], [47.27, 37.395], [47.2641, 37.4042], [47.3, 37.465], [47.2844, 37.475], [47.2255, 37.4945], [47.2194, 37.5081], [47.2358, 37.5297], [47.2249, 37.5528], [47.1552, 37.5759], [47.1191, 37.6031], [46.9913, 37.642], [46.9783, 37.6414], [46.9538, 37.6336], [46.9444, 37.625], [46.9463, 37.5956], [46.9297, 37.5797], [46.9005, 37.577], [46.8388, 37.5984], [46.7841, 37.6031], [46.7547, 37.5778], [46.7391, 37.5467], [46.728, 37.5414], [46.7008, 37.5392], [46.6674, 37.5547], [46.648, 37.5806], [46.6152, 37.6061], [46.5774, 37.6111], [46.5396, 37.6022], [46.5024, 37.6153], [46.4677, 37.6153]]]}}, {"type": "Feature", "properties": {"osm_type": "relation", "osm_id": 896198838, "name": "Varzaqan", "admin_level": "6", "kind": "subdivision_2", "parent_osm_id": 241472, "parent_name": "Gilan Province", "parent_iso": "IR-01"}, "geometry": {"type": "Polygon", "coordinates": [[[46.7988, 38.73], [46.7863, 38.7362], [46.781, 38.7528], [46.7713, 38.7639], [46.6716, 38.7917], [46.6588, 38.7878], [46.6249, 38.7584], [46.5605, 38.7409], [46.5394, 38.7459], [46.5274, 38.7584], [46.4402, 38.7548], [46.4007, 38.7748], [46.3549, 38.7837], [46.3066, 38.7787], [46.2793, 38.7653], [46.271, 38.7695], [46.2571, 38.7914], [46.2466, 38.7964], [46.236, 38.7898], [46.2221, 38.7675], [46.1991, 38.7628], [46.1938, 38.7578], [46.1816, 38.7609], [46.1727, 38.7545], [46.1591, 38.7684], [46.1527, 38.755], [46.1199, 38.7492], [46.0624, 38.7017], [46.0657, 38.6787], [46.0291, 38.6492], [46.0446, 38.6217], [46.0648, 38.611], [46.0498, 38.5967], [46.0482, 38.5678], [46.0768, 38.5278], [46.0669, 38.4993], [46.081, 38.4853], [46.1112, 38.4696], [46.1614, 38.4652], [46.1821, 38.4503], [46.1955, 38.4506], [46.2463, 38.4712], [46.2713, 38.472], [46.288, 38.4831], [46.3052, 38.4803], [46.3121, 38.4731], [46.3396, 38.4723], [46.3377, 38.4834], [46.3446, 38.4867], [46.3869, 38.4745], [46.416, 38.4773], [46.4352, 38.4639], [46.4444, 38.4495], [46.4469, 38.4242], [46.4655, 38.3984], [46.4996, 38.3906], [46.5105, 38.38], [46.5282, 38.3736], [46.5755, 38.3973], [46.6116, 38.3898], [46.6571, 38.3906], [46.7177, 38.4048], [46.7338, 38.4037], [46.7588, 38.3936], [46.7658, 38.4275], [46.7444, 38.447], [46.7513, 38.4978], [46.7724, 38.5267], [46.7735, 38.5425], [46.7838, 38.5564], [46.843, 38.5828], [46.8624, 38.6256], [46.8583, 38.652], [46.8433, 38.6703], [46.7808, 38.697], [46.778, 38.7056], [46.7988, 38.73]]]}}, {"type": "Feature", "properties": {"osm_type": "relation", "osm_id": 523332684, "name": "Charuymaq", "admin_level": "6", "kind": "subdivision_2", "parent_osm_id": 241472, "parent_name": "Gilan Province", "parent_iso": "IR-01"}, "geometry": {"type": "Polygon", "coordinates": [[[47.1741, 36.7917], [47.1983, 36.7994], [47.2405, 36.8383], [47.2569, 36.8658], [47.2911, 36.8781], [47.3027, 36.8972], [47.3713, 36.9367], [47.4282, 36.9573], [47.4586, 36.9833], [47.4925, 37.0], [47.5127, 37.0214], [47.5155, 37.0569], [47.5241, 37.0672], [47.5566, 37.0575], [47.5697, 37.0592], [47.5922, 37.0478], [47.5964, 37.0375], [47.6175, 37.055], [47.63, 37.0586], [47.6339, 37.0792], [47.6252, 37.0842], [47.618, 37.0981], [47.5747, 37.1461], [47.5536, 37.1633], [47.5133, 37.1856], [47.4341, 37.1581], [47.3491, 37.1725], [47.3577, 37.2003], [47.3175, 37.2453], [47.1654, 37.2262], [47.1465, 37.2355], [47.1524, 37.2489], [47.1322, 37.2775], [47.1291, 37.3022], [47.0955, 37.3586], [47.0574, 37.3508], [46.993, 37.3647], [46.9594, 37.3617], [46.9158, 37.3022], [46.9077, 37.2775], [46.8818, 37.2625], [46.8693, 37.214], [46.856, 37.2], [46.8146, 37.2044], [46.808, 37.1704], [46.7736, 37.1487], [46.7279, 37.1492], [46.6952, 37.1856], [46.6563, 37.1764], [46.6541, 37.1692], [46.6691, 37.1436], [46.6569, 37.1075], [46.6569, 37.0792], [46.6733, 37.0592], [46.7094, 37.0725], [46.7894, 37.0542], [46.8019, 37.0493], [46.8627, 36.9997], [46.8369, 36.9836], [46.8308, 36.9675], [46.8427, 36.9275], [46.8558, 36.9183], [46.8938, 36.905], [46.8988, 36.8947], [46.8808, 36.8364], [46.8727, 36.7904], [46.878, 36.78], [46.9122, 36.7719], [46.928, 36.7567], [46.9466, 36.7494], [46.9605, 36.7472], [46.9872, 36.7553], [46.998, 36.7453], [47.0116, 36.7544], [47.0177, 36.765], [47.0219, 36.7908], [47.1024, 36.8325], [47.1183, 36.8269], [47.1308, 36.8331], [47.1405, 36.8322], [47.1533, 36.8114], [47.1741, 36.7917]]]}}]}