{"type": "FeatureCollection", "parent": {"osm_id": 2424034, "name": "Drâa-Tafilalet", "admin_level": "4", "kind": "subdivision_1", "child_kind": "subdivision_2", "iso": "MA-08"}, "features": [{"type": "Feature", "properties": {"osm_type": "relation", "osm_id": 558600376, "name": "Médiouna Province", "admin_level": "6", "kind": "subdivision_2", "parent_osm_id": 2424034, "parent_name": "Drâa-Tafilalet", "parent_iso": "MA-08"}, "geometry": {"type": "Polygon", "coordinates": [[[-7.3801, 33.51], [-7.385, 33.5178], [-7.3788, 33.5237], [-7.3955, 33.5345], [-7.3927, 33.5372], [-7.4029, 33.5429], [-7.4168, 33.5617], [-7.4299, 33.5552], [-7.4348, 33.5545], [-7.4344, 33.5587], [-7.4528, 33.5567], [-7.4781, 33.5808], [-7.484, 33.5652], [-7.4968, 33.5621], [-7.5149, 33.5684], [-7.5146, 33.5651], [-7.5432, 33.5514], [-7.5469, 33.5476], [-7.5344, 33.5324], [-7.5442, 33.5316], [-7.5582, 33.5204], [-7.543, 33.5021], [-7.5994, 33.4731], [-7.5866, 33.4628], [-7.5957, 33.4558], [-7.5632, 33.4422], [-7.5588, 33.4381], [-7.5639, 33.4343], [-7.5539, 33.4251], [-7.5235, 33.4108], [-7.5177, 33.4182], [-7.4875, 33.4259], [-7.4572, 33.4512], [-7.4358, 33.4515], [-7.3534, 33.4679], [-7.373, 33.4728], [-7.3778, 33.4813], [-7.3801, 33.51]]]}}, {"type": "Feature", "properties": {"osm_type": "relation", "osm_id": 543651018, "name": "Nouaceur Province", "admin_level": "6", "kind": "subdivision_2", "parent_osm_id": 2424034, "parent_name": "Drâa-Tafilalet", "parent_iso": "MA-08"}, "geometry": {"type": "Polygon", "coordinates": [[[-7.5582, 33.5204], [-7.5666, 33.5286], [-7.6299, 33.5], [-7.6676, 33.4941], [-7.6732, 33.4959], [-7.6707, 33.5071], [-7.6975, 33.5151], [-7.7017, 33.5307], [-7.7316, 33.5539], [-7.7399, 33.5497], [-7.7464, 33.5557], [-7.7862, 33.5369], [-7.7947, 33.5399], [-7.7951, 33.5332], [-7.8097, 33.5276], [-7.8169, 33.5273], [-7.8238, 33.5371], [-7.8535, 33.518], [-7.8709, 33.5163], [-7.8702, 33.5125], [-7.8812, 33.5067], [-7.8653, 33.4988], [-7.8495, 33.4819], [-7.8205, 33.4751], [-7.7977, 33.4623], [-7.7581, 33.475], [-7.7545, 33.4626], [-7.7562, 33.3655], [-7.7508, 33.3552], [-7.7248, 33.3245], [-7.6256, 33.2682], [-7.6001, 33.292], [-7.5863, 33.2893], [-7.575, 33.2975], [-7.571, 33.3326], [-7.5607, 33.3501], [-7.5461, 33.3621], [-7.5363, 33.39], [-7.5332, 33.4126], [-7.5613, 33.4312], [-7.5639, 33.4343], [-7.5588, 33.4381], [-7.5632, 33.4422], [-7.5957, 33.4558], [-7.5866, 33.4628], [-7.5994, 33.4731], [-7.543, 33.5021], [-7.5582, 33.5204]]]}}, {"type": "Feature", "properties": {"osm_type": "relation", "osm_id": 680492306, "name": "Prefecture of Mohammédia", "admin_level": "6", "kind": "subdivision_2", "parent_osm_id": 2424034, "parent_name": "Drâa-Tafilalet", "parent_iso": "MA-08"}, "geometry": {"type": "Polygon", "coordinates": [[[-7.3428, 33.7212], [-7.3721, 33.7091], [-7.3991, 33.7117], [-7.3917, 33.7148], [-7.3969, 33.721], [-7.3908, 33.7242], [-7.396, 33.7239], [-7.3875, 33.7338], [-7.412, 33.7045], [-7.4035, 33.7069], [-7.4151, 33.7035], [-7.4386, 33.6841], [-7.4368, 33.6899], [-7.4448, 33.6788], [-7.5018, 33.6409], [-7.4769, 33.6214], [-7.4664, 33.6246], [-7.4574, 33.6199], [-7.4781, 33.5808], [-7.4705, 33.5748], [-7.4736, 33.5735], [-7.4528, 33.5567], [-7.4344, 33.5587], [-7.4348, 33.5545], [-7.4299, 33.5552], [-7.4168, 33.5617], [-7.4029, 33.5429], [-7.3927, 33.5372], [-7.3955, 33.5345], [-7.3788, 33.5237], [-7.385, 33.5178], [-7.3801, 33.51], [-7.3663, 33.4999], [-7.3549, 33.4982], [-7.3322, 33.5027], [-7.3401, 33.5071], [-7.3466, 33.5028], [-7.3488, 33.5068], [-7.3467, 33.5163], [-7.3309, 33.5271], [-7.3422, 33.5402], [-7.3409, 33.5696], [-7.2892, 33.6098], [-7.2762, 33.6564], [-7.2872, 33.6625], [-7.2891, 33.6698], [-7.2991, 33.6696], [-7.3012, 33.678], [-7.3145, 33.6855], [-7.3158, 33.6939], [-7.3202, 33.6916], [-7.3298, 33.6979], [-7.3327, 33.7099], [-7.3428, 33.7212]]]}}, {"type": "Feature", "properties": {"osm_type": "relation", "osm_id": 368811745, "name": "Prefecture of Casablanca", "admin_level": "6", "kind": "subdivision_2", "parent_osm_id": 2424034, "parent_name": "Drâa-Tafilalet", "parent_iso": "MA-08"}, "geometry": {"type": "Polygon", "coordinates": [[[-7.4781, 33.5808], [-7.4574, 33.6199], [-7.4664, 33.6246], [-7.4769, 33.6214], [-7.5018, 33.6409], [-7.536, 33.6209], [-7.5615, 33.6176], [-7.575, 33.6073], [-7.5853, 33.6055], [-7.5907, 33.6139], [-7.588, 33.604], [-7.5945, 33.6132], [-7.5979, 33.6127], [-7.5956, 33.6056], [-7.6055, 33.6105], [-7.6001, 33.6022], [-7.6059, 33.6078], [-7.6073, 33.6023], [-7.6114, 33.6089], [-7.6105, 33.6027], [-7.6142, 33.6056], [-7.6169, 33.6013], [-7.6186, 33.6052], [-7.5916, 33.6207], [-7.6171, 33.6076], [-7.6256, 33.611], [-7.6399, 33.6048], [-7.6488, 33.6072], [-7.6523, 33.6139], [-7.6609, 33.6035], [-7.6725, 33.5975], [-7.6791, 33.5989], [-7.68, 33.5923], [-7.7043, 33.5831], [-7.7096, 33.5755], [-7.7464, 33.5557], [-7.7399, 33.5497], [-7.7316, 33.5539], [-7.7017, 33.5307], [-7.6975, 33.5151], [-7.6707, 33.5071], [-7.6732, 33.4959], [-7.6596, 33.4939], [-7.6299, 33.5], [-7.5666, 33.5286], [-7.5556, 33.5208], [-7.5442, 33.5316], [-7.5344, 33.5324], [-7.5469, 33.5476], [-7.5432, 33.5514], [-7.5146, 33.5651], [-7.5149, 33.5684], [-7.4968, 33.5621], [-7.484, 33.5652], [-7.4781, 33.5808]]]}}]}