{"type": "FeatureCollection", "parent": {"osm_id": 253256, "name": "Republic of Adygea", "admin_level": "4", "kind": "subdivision_1", "child_kind": "subdivision_2", "iso": "RU-AD"}, "features": [{"type": "Feature", "properties": {"osm_type": "relation", "osm_id": 749528391, "name": "Maykopsky District", "admin_level": "6", "kind": "subdivision_2", "parent_osm_id": 253256, "parent_name": "Republic of Adygea", "parent_iso": "RU-AD"}, "geometry": {"type": "Polygon", "coordinates": [[[39.8799, 44.5912], [39.8742, 44.5914], [39.8724, 44.5556], [39.8848, 44.5551], [39.8794, 44.4328], [39.8706, 44.4317], [39.8626, 44.4143], [39.8631, 44.407], [39.8791, 44.3965], [39.8443, 44.3534], [39.8698, 44.3382], [39.8785, 44.3469], [39.8955, 44.3516], [39.9073, 44.351], [39.9223, 44.3373], [39.9406, 44.3408], [39.9445, 44.348], [39.9619, 44.3479], [39.9746, 44.3386], [39.9772, 44.3268], [39.9663, 44.3065], [39.9685, 44.2935], [39.9746, 44.2911], [39.9741, 44.2754], [39.9898, 44.2613], [40.0102, 44.2671], [40.061, 44.2687], [40.0772, 44.252], [40.0935, 44.2468], [40.0763, 44.23], [40.0804, 44.2215], [40.0758, 44.2147], [40.0759, 44.1985], [40.0876, 44.1787], [40.0733, 44.1711], [40.0705, 44.1609], [40.0765, 44.1542], [40.0688, 44.1457], [40.0872, 44.1392], [40.093, 44.1296], [40.0871, 44.1239], [40.0745, 44.122], [40.0547, 44.1365], [40.0161, 44.1064], [40.0179, 44.0878], [39.9878, 44.0762], [39.966, 44.0895], [39.9707, 44.098], [39.9648, 44.1047], [39.9503, 44.0995], [39.9209, 44.1171], [39.8954, 44.1249], [39.878, 44.1481], [39.8771, 44.1683], [39.865, 44.1843], [39.7686, 44.1803], [39.7763, 44.1698], [39.7646, 44.1635], [39.7618, 44.1488], [39.7767, 44.1295], [39.8012, 44.1224], [39.831, 44.0788], [39.8285, 44.0653], [39.8086, 44.0432], [39.7968, 44.0175], [39.7971, 43.9972], [39.8191, 43.9837], [39.7778, 43.9618], [39.7906, 43.9545], [39.8077, 43.9336], [39.8515, 43.9242], [39.9127, 43.9395], [39.9027, 43.9537], [39.9089, 43.9739], [39.923, 43.9725], [39.9281, 43.9613], [39.9421, 43.9563], [39.9426, 43.9481], [39.9535, 43.9333], [40.0028, 43.8988], [40.0124, 43.8846], [40.0269, 43.8797], [40.0435, 43.8807], [40.0681, 43.8677], [40.0879, 43.8461], [40.0991, 43.8495], [40.1046, 43.8669], [40.1509, 43.8577], [40.1684, 43.8717], [40.1899, 43.8724], [40.1971, 43.8609], [40.1888, 43.8458], [40.1997, 43.835], [40.2005, 43.8237], [40.2081, 43.8188], [40.2055, 43.8015], [40.2144, 43.7922], [40.2169, 43.7791], [40.2331, 43.7754], [40.2494, 43.7621], [40.2763, 43.7608], [40.306, 43.782], [40.3196, 43.7819], [40.3477, 43.7722], [40.3657, 43.7733], [40.382, 43.802], [40.3802, 43.8201], [40.3937, 43.8278], [40.4042, 43.8649], [40.4199, 43.8804], [40.4028, 43.8948], [40.4097, 43.9388], [40.4455, 43.9465], [40.4553, 43.9579], [40.4767, 43.9591], [40.4805, 43.9645], [40.4726, 43.9695], [40.4683, 43.9856], [40.4506, 44.0074], [40.4488, 44.0177], [40.4402, 44.0213], [40.4295, 44.0373], [40.4294, 44.0524], [40.4133, 44.0633], [40.4205, 44.0754], [40.4259, 44.1063], [40.4327, 44.114], [40.4184, 44.1277], [40.4055, 44.1328], [40.4102, 44.1496], [40.4029, 44.1521], [40.3996, 44.1596], [40.4061, 44.1673], [40.3951, 44.1844], [40.3962, 44.1914], [40.3598, 44.2467], [40.4243, 44.2812], [40.4423, 44.2854], [40.4546, 44.3054], [40.4829, 44.3154], [40.4628, 44.3482], [40.4349, 44.4215], [40.412, 44.4229], [40.4156, 44.4248], [40.4084, 44.4355], [40.4108, 44.4385], [40.4036, 44.4438], [40.4093, 44.4469], [40.4079, 44.4516], [40.3968, 44.4585], [40.4004, 44.4607], [40.3886, 44.4716], [40.3908, 44.4772], [40.3834, 44.4773], [40.384, 44.4825], [40.3978, 44.4877], [40.4029, 44.4995], [40.4099, 44.5025], [40.4068, 44.5051], [40.4243, 44.5139], [40.418, 44.5145], [40.4196, 44.5232], [40.4104, 44.5277], [40.415, 44.535], [40.3969, 44.5325], [40.3873, 44.5489], [40.3496, 44.5479], [40.3497, 44.5579], [40.3422, 44.558], [40.3414, 44.5675], [40.3366, 44.5676], [40.3545, 44.5973], [40.3483, 44.6033], [40.3519, 44.613], [40.3397, 44.6293], [40.3429, 44.6453], [40.3505, 44.6493], [40.3777, 44.6353], [40.3878, 44.6428], [40.3865, 44.6473], [40.4018, 44.655], [40.3976, 44.6597], [40.4043, 44.6732], [40.3972, 44.676], [40.3924, 44.6713], [40.3885, 44.6785], [40.382, 44.6767], [40.3844, 44.6805], [40.3662, 44.689], [40.3707, 44.6981], [40.3645, 44.6971], [40.3732, 44.704], [40.3675, 44.7109], [40.3436, 44.7123], [40.3485, 44.7199], [40.3442, 44.7272], [40.2551, 44.7252], [40.254, 44.7449], [40.1971, 44.7443], [40.1998, 44.7273], [40.1465, 44.7117], [40.1412, 44.7188], [40.1131, 44.7124], [40.1179, 44.7038], [40.0851, 44.6943], [40.092, 44.6866], [40.0739, 44.6773], [40.0652, 44.6839], [40.0767, 44.692], [40.0621, 44.7023], [40.0515, 44.6944], [40.0603, 44.6872], [40.0502, 44.6791], [40.0727, 44.663], [40.0779, 44.6668], [40.0891, 44.6565], [40.1064, 44.6727], [40.1267, 44.6744], [40.1187, 44.6867], [40.1261, 44.6894], [40.1244, 44.6947], [40.1331, 44.6964], [40.1285, 44.6726], [40.1146, 44.663], [40.1297, 44.6465], [40.1424, 44.6141], [40.1611, 44.6156], [40.1562, 44.6106], [40.1673, 44.6062], [40.15, 44.5789], [40.1683, 44.5673], [40.1645, 44.5645], [40.1463, 44.5601], [40.1392, 44.5667], [40.1236, 44.5646], [40.1099, 44.5676], [40.0978, 44.5791], [40.0517, 44.5869], [40.0399, 44.6047], [40.0176, 44.6078], [40.0032, 44.6183], [40.0032, 44.6244], [39.9969, 44.6194], [39.9906, 44.6207], [39.986, 44.6069], [39.9696, 44.592], [39.9436, 44.6105], [39.924, 44.6108], [39.9329, 44.6029], [39.9291, 44.5903], [39.8799, 44.5912]]]}}, {"type": "Feature", "properties": {"osm_type": "relation", "osm_id": 477944799, "name": "Takhtamukaysky District", "admin_level": "6", "kind": "subdivision_2", "parent_osm_id": 253256, "parent_name": "Republic of Adygea", "parent_iso": "RU-AD"}, "geometry": {"type": "Polygon", "coordinates": [[[39.1458, 44.8359], [39.163, 44.8392], [39.1486, 44.8425], [39.1502, 44.8548], [39.1344, 44.8521], [39.1319, 44.8469], [39.1258, 44.8486], [39.1276, 44.8686], [39.1171, 44.8743], [39.121, 44.8749], [39.1139, 44.8825], [39.1193, 44.8867], [39.1105, 44.8918], [39.1019, 44.9057], [39.1261, 44.9082], [39.1318, 44.9198], [39.112, 44.9193], [39.1064, 44.946], [39.1015, 44.9464], [39.1072, 44.9566], [39.1029, 44.9657], [39.0939, 44.9629], [39.0634, 44.968], [39.061, 44.9745], [39.0415, 44.9849], [39.0286, 44.9701], [39.0216, 44.9683], [39.0152, 44.9956], [39.0191, 45.0007], [38.9966, 45.0036], [38.9844, 45.0102], [38.9734, 45.0074], [38.9715, 44.9941], [38.9647, 44.9914], [38.9528, 44.9994], [38.9473, 45.0155], [38.9573, 45.0324], [38.9384, 45.0356], [38.9013, 45.0216], [38.8999, 45.0309], [38.9094, 45.0444], [38.9083, 45.0516], [38.9015, 45.0539], [38.8881, 45.0487], [38.878, 45.038], [38.8569, 45.0328], [38.8535, 45.0249], [38.8661, 45.0119], [38.8604, 45.0016], [38.8463, 45.0081], [38.8305, 45.0058], [38.8174, 45.0125], [38.8118, 44.9982], [38.8061, 44.9957], [38.7859, 45.0046], [38.77, 45.0274], [38.7565, 45.0331], [38.7559, 45.0389], [38.7687, 45.0489], [38.7679, 45.0566], [38.748, 45.0596], [38.7328, 45.0432], [38.7233, 45.0403], [38.7156, 45.0596], [38.7078, 45.0646], [38.699, 45.0667], [38.6897, 45.06], [38.684, 44.9514], [38.7571, 44.948], [38.7538, 44.9511], [38.7585, 44.955], [38.7755, 44.9606], [38.7819, 44.9677], [38.7879, 44.9644], [38.7823, 44.9526], [38.7863, 44.944], [38.807, 44.939], [38.8157, 44.9439], [38.8343, 44.9323], [38.836, 44.9265], [38.8454, 44.9244], [38.8438, 44.9173], [38.8531, 44.9156], [38.8508, 44.9094], [38.8623, 44.9031], [38.8548, 44.8938], [38.8957, 44.8858], [38.979, 44.8586], [38.9863, 44.8553], [38.988, 44.8442], [39.0226, 44.8412], [39.0754, 44.8231], [39.0872, 44.8246], [39.0908, 44.8172], [39.1458, 44.8359]]]}}, {"type": "Feature", "properties": {"osm_type": "relation", "osm_id": 886455734, "name": "Shovgenovsky District", "admin_level": "6", "kind": "subdivision_2", "parent_osm_id": 253256, "parent_name": "Republic of Adygea", "parent_iso": "RU-AD"}, "geometry": {"type": "Polygon", "coordinates": [[[40.0883, 45.1093], [40.0895, 45.0991], [40.0738, 45.1099], [40.0707, 45.1079], [40.0763, 45.1036], [40.0676, 45.0955], [40.0506, 45.1006], [40.047, 45.0944], [40.0404, 45.1032], [40.0265, 45.0927], [40.0152, 45.0964], [40.0097, 45.0911], [40.0173, 45.059], [40.0056, 45.0554], [40.0155, 45.0196], [39.94, 45.0122], [39.9377, 45.0183], [39.9083, 45.0142], [39.9036, 45.0226], [39.9089, 45.025], [39.9044, 45.0291], [39.8841, 45.0268], [39.8912, 45.0005], [39.9037, 45.0021], [39.9244, 44.9271], [39.9929, 44.9368], [40.0047, 44.9245], [40.0334, 44.9284], [40.0212, 44.9735], [40.0564, 44.9816], [40.0824, 44.9359], [40.1564, 44.9575], [40.1696, 44.973], [40.2463, 44.9408], [40.2281, 44.9321], [40.228, 44.9112], [40.2957, 44.9157], [40.2668, 44.9393], [40.3186, 44.9736], [40.3219, 44.9697], [40.3147, 44.9681], [40.3187, 44.967], [40.3163, 44.9619], [40.334, 44.9552], [40.3756, 44.9863], [40.3624, 44.991], [40.3607, 44.9981], [40.3528, 44.9982], [40.3523, 45.0028], [40.335, 45.0066], [40.331, 45.0133], [40.3346, 45.0193], [40.3281, 45.0172], [40.3211, 45.0252], [40.3507, 45.0452], [40.3372, 45.046], [40.3471, 45.0558], [40.337, 45.0512], [40.3295, 45.0576], [40.3218, 45.0523], [40.3224, 45.0605], [40.2882, 45.0658], [40.2938, 45.0697], [40.2863, 45.0726], [40.2932, 45.0759], [40.2845, 45.0785], [40.2905, 45.0822], [40.284, 45.0862], [40.2947, 45.0861], [40.2795, 45.1001], [40.2808, 45.1039], [40.2699, 45.1057], [40.2487, 45.0973], [40.2494, 45.1034], [40.2388, 45.1091], [40.2432, 45.1131], [40.227, 45.1178], [40.2049, 45.1125], [40.1885, 45.1183], [40.1741, 45.1106], [40.1663, 45.1219], [40.1624, 45.1145], [40.1539, 45.1214], [40.1414, 45.122], [40.131, 45.1127], [40.1193, 45.1166], [40.102, 45.1092], [40.0883, 45.1093]]]}}, {"type": "Feature", "properties": {"osm_type": "relation", "osm_id": 369815056, "name": "Krasnogvardeysky District", "admin_level": "6", "kind": "subdivision_2", "parent_osm_id": 253256, "parent_name": "Republic of Adygea", "parent_iso": "RU-AD"}, "geometry": {"type": "Polygon", "coordinates": [[[39.3135, 45.0295], [39.3195, 45.0183], [39.3425, 45.0026], [39.3554, 45.0027], [39.367, 45.0149], [39.3727, 45.0153], [39.3697, 45.005], [39.3825, 45.0049], [39.3946, 44.9916], [39.3989, 44.9953], [39.3928, 45.0007], [39.395, 45.0062], [39.3999, 44.9985], [39.3992, 45.005], [39.4136, 45.0136], [39.4169, 45.0072], [39.4467, 44.9945], [39.4769, 44.9918], [39.4705, 44.9948], [39.4764, 44.9992], [39.4712, 45.0357], [39.4874, 45.0323], [39.4908, 45.0446], [39.5091, 45.0366], [39.5131, 45.0393], [39.5062, 45.0452], [39.5184, 45.0429], [39.5137, 45.0487], [39.524, 45.0479], [39.5232, 45.0546], [39.5443, 45.0551], [39.532, 45.0516], [39.5298, 45.0432], [39.5545, 45.0468], [39.5454, 45.0336], [39.5569, 45.0299], [39.5569, 45.0397], [39.562, 45.0326], [39.5687, 45.0333], [39.5718, 45.0381], [39.5661, 45.0471], [39.5792, 45.0462], [39.583, 45.0551], [39.5881, 45.05], [39.5822, 45.047], [39.5964, 45.0435], [39.6047, 45.0476], [39.608, 45.0424], [39.6221, 45.049], [39.6524, 45.0337], [39.6509, 45.0232], [39.6355, 45.0175], [39.6533, 45.0185], [39.6568, 45.0144], [39.6446, 45.0143], [39.64, 45.0072], [39.6442, 45.0049], [39.5986, 44.9828], [39.62, 44.9603], [39.6516, 44.9756], [39.6446, 44.9832], [39.6776, 44.9937], [39.6772, 44.9848], [39.6715, 44.9801], [39.6909, 44.9814], [39.6785, 44.9734], [39.6962, 44.9684], [39.6886, 44.9626], [39.6817, 44.9637], [39.6854, 44.9579], [39.6919, 44.9589], [39.6883, 44.954], [39.6924, 44.9514], [39.7738, 44.9737], [39.7641, 44.9904], [39.8564, 45.015], [39.8613, 45.0199], [39.8851, 45.023], [39.8841, 45.0268], [39.9044, 45.0291], [39.9089, 45.025], [39.9036, 45.0226], [39.9083, 45.0142], [39.9377, 45.0183], [39.94, 45.0122], [40.0155, 45.0196], [40.0056, 45.0554], [40.0173, 45.059], [40.0097, 45.0911], [40.0, 45.0939], [39.9945, 45.0953], [39.9848, 45.0869], [39.9765, 45.0914], [39.9694, 45.0808], [39.9637, 45.0857], [39.95, 45.0851], [39.9532, 45.0914], [39.9484, 45.0945], [39.9364, 45.0921], [39.9335, 45.096], [39.8997, 45.0912], [39.9008, 45.0871], [39.8941, 45.0847], [39.9001, 45.0967], [39.8737, 45.1054], [39.8706, 45.1126], [39.8588, 45.1124], [39.8518, 45.118], [39.8443, 45.107], [39.8407, 45.1103], [39.8443, 45.1168], [39.8313, 45.1132], [39.8282, 45.1216], [39.8224, 45.1153], [39.8156, 45.1226], [39.8151, 45.1147], [39.8109, 45.1142], [39.8007, 45.1306], [39.7807, 45.1236], [39.7809, 45.1332], [39.761, 45.1372], [39.7478, 45.1322], [39.7271, 45.1518], [39.7176, 45.1496], [39.7152, 45.1435], [39.7108, 45.1462], [39.7118, 45.1532], [39.6998, 45.147], [39.7021, 45.1561], [39.6879, 45.1548], [39.6883, 45.1608], [39.6796, 45.1669], [39.6874, 45.1748], [39.6853, 45.1821], [39.6774, 45.1871], [39.6895, 45.1858], [39.6881, 45.1928], [39.6705, 45.204], [39.6163, 45.2168], [39.5456, 45.1886], [39.5403, 45.1625], [39.5133, 45.1612], [39.4966, 45.1393], [39.4689, 45.1313], [39.4694, 45.1201], [39.4545, 45.1212], [39.4673, 45.1107], [39.4629, 45.102], [39.4399, 45.1109], [39.4295, 45.1041], [39.424, 45.0897], [39.4049, 45.0943], [39.3995, 45.0893], [39.4008, 45.0775], [39.3851, 45.0777], [39.3761, 45.0566], [39.3448, 45.0425], [39.3261, 45.0448], [39.3262, 45.0329], [39.3135, 45.0295]]]}}, {"type": "Feature", "properties": {"osm_type": "relation", "osm_id": 777688227, "name": "Koshekhablsky District", "admin_level": "6", "kind": "subdivision_2", "parent_osm_id": 253256, "parent_name": "Republic of Adygea", "parent_iso": "RU-AD"}, "geometry": {"type": "Polygon", "coordinates": [[[40.3507, 45.0452], [40.3211, 45.0252], [40.3281, 45.0172], [40.3346, 45.0193], [40.331, 45.0133], [40.335, 45.0066], [40.3523, 45.0028], [40.3528, 44.9982], [40.3607, 44.9981], [40.3624, 44.991], [40.3756, 44.9863], [40.334, 44.9552], [40.3163, 44.9619], [40.3187, 44.967], [40.3147, 44.9681], [40.3219, 44.9697], [40.3186, 44.9736], [40.2668, 44.9393], [40.2974, 44.917], [40.3349, 44.9171], [40.3772, 44.9033], [40.4178, 44.9003], [40.4181, 44.8879], [40.434, 44.8763], [40.4282, 44.8718], [40.4379, 44.8647], [40.3993, 44.846], [40.4062, 44.8404], [40.3924, 44.8353], [40.3923, 44.8256], [40.4151, 44.8252], [40.4425, 44.7988], [40.4656, 44.7624], [40.5275, 44.7626], [40.5187, 44.7412], [40.5641, 44.7442], [40.5686, 44.7389], [40.5684, 44.6544], [40.6187, 44.6538], [40.6185, 44.6358], [40.6437, 44.6358], [40.6434, 44.5843], [40.6702, 44.546], [40.6588, 44.5304], [40.6612, 44.4827], [40.6197, 44.4832], [40.6195, 44.4651], [40.7757, 44.465], [40.7756, 44.4847], [40.7585, 44.4915], [40.7424, 44.5206], [40.7461, 44.5248], [40.7359, 44.5296], [40.7308, 44.5522], [40.7244, 44.5576], [40.7237, 44.5665], [40.7286, 44.5678], [40.7307, 44.5754], [40.7335, 44.6082], [40.7149, 44.627], [40.6961, 44.6345], [40.6836, 44.6485], [40.6798, 44.6645], [40.6696, 44.6706], [40.6726, 44.6771], [40.6644, 44.6804], [40.6638, 44.6858], [40.6528, 44.6875], [40.649, 44.6963], [40.6532, 44.7008], [40.6504, 44.7143], [40.6368, 44.7397], [40.6392, 44.7467], [40.6264, 44.7614], [40.6331, 44.776], [40.6197, 44.7981], [40.6005, 44.8082], [40.5965, 44.8243], [40.5865, 44.8288], [40.5795, 44.8553], [40.5879, 44.8635], [40.5679, 44.8675], [40.5332, 44.9004], [40.5396, 44.9064], [40.5309, 44.9169], [40.5278, 44.9335], [40.5139, 44.9442], [40.4504, 44.9801], [40.4337, 45.0008], [40.4245, 45.0033], [40.3708, 45.0458], [40.3595, 45.0523], [40.3507, 45.0452]]]}}, {"type": "Feature", "properties": {"osm_type": "relation", "osm_id": 320412876, "name": "Teuchezhsky District", "admin_level": "6", "kind": "subdivision_2", "parent_osm_id": 253256, "parent_name": "Republic of Adygea", "parent_iso": "RU-AD"}, "geometry": {"type": "Polygon", "coordinates": [[[39.1859, 44.8308], [39.1848, 44.8545], [39.1903, 44.8561], [39.1863, 44.8624], [39.1917, 44.8643], [39.1794, 44.8769], [39.1685, 44.8722], [39.1784, 44.8785], [39.165, 44.8945], [39.2367, 44.9056], [39.2463, 44.9035], [39.2455, 44.8844], [39.2281, 44.8698], [39.2382, 44.866], [39.2327, 44.862], [39.2389, 44.8589], [39.2397, 44.8529], [39.2305, 44.8528], [39.2124, 44.8406], [39.2254, 44.825], [39.2481, 44.8203], [39.2563, 44.8249], [39.3049, 44.8255], [39.3537, 44.816], [39.3533, 44.8094], [39.3572, 44.8087], [39.3684, 44.8094], [39.3698, 44.8149], [39.4561, 44.8175], [39.4596, 44.8064], [39.4698, 44.8118], [39.4843, 44.8044], [39.4868, 44.8095], [39.478, 44.8153], [39.483, 44.8202], [39.5596, 44.807], [39.5658, 44.8125], [39.5689, 44.8277], [39.5578, 44.8366], [39.6021, 44.8485], [39.6076, 44.8462], [39.6071, 44.8518], [39.6185, 44.8602], [39.6419, 44.8656], [39.6437, 44.8712], [39.651, 44.8687], [39.6529, 44.8742], [39.6371, 44.8785], [39.6456, 44.8863], [39.6409, 44.8956], [39.6266, 44.8961], [39.6307, 44.898], [39.6162, 44.9056], [39.6177, 44.9091], [39.5975, 44.9111], [39.6007, 44.9141], [39.5917, 44.9186], [39.5939, 44.9233], [39.573, 44.9259], [39.5773, 44.9341], [39.5749, 44.9416], [39.5664, 44.9343], [39.5595, 44.9391], [39.5653, 44.9432], [39.5514, 44.9449], [39.5478, 44.952], [39.537, 44.9558], [39.5354, 44.9624], [39.5045, 44.968], [39.5228, 44.9801], [39.5113, 44.9836], [39.519, 44.9872], [39.5107, 44.9877], [39.5043, 44.9832], [39.5063, 44.9793], [39.4945, 44.9752], [39.487, 44.9803], [39.4915, 44.9819], [39.4859, 44.9904], [39.478, 44.9866], [39.4739, 44.9895], [39.4769, 44.9918], [39.4467, 44.9945], [39.4169, 45.0072], [39.4136, 45.0136], [39.3992, 45.005], [39.3999, 44.9985], [39.395, 45.0062], [39.3928, 45.0007], [39.3989, 44.9953], [39.3946, 44.9916], [39.3825, 45.0049], [39.3697, 45.005], [39.3727, 45.0153], [39.367, 45.0149], [39.3554, 45.0027], [39.3425, 45.0026], [39.3195, 45.0183], [39.3135, 45.0295], [39.3019, 45.0302], [39.2891, 45.0178], [39.2798, 45.016], [39.2727, 45.0192], [39.277, 45.0304], [39.2687, 45.0279], [39.2645, 45.0056], [39.2576, 45.002], [39.2327, 45.01], [39.2393, 45.0161], [39.2305, 45.018], [39.2237, 45.0093], [39.2214, 44.989], [39.2022, 45.0006], [39.1792, 44.9898], [39.14, 44.9989], [39.1277, 44.995], [39.1168, 44.9982], [39.0989, 44.9881], [39.0787, 44.9886], [39.075, 44.9779], [39.061, 44.9745], [39.0634, 44.968], [39.0939, 44.9629], [39.1029, 44.9657], [39.1072, 44.9566], [39.1015, 44.9464], [39.1064, 44.946], [39.112, 44.9193], [39.1318, 44.9198], [39.1261, 44.9082], [39.1019, 44.9057], [39.1105, 44.8918], [39.1193, 44.8867], [39.1139, 44.8825], [39.121, 44.8749], [39.1171, 44.8743], [39.1276, 44.8686], [39.1258, 44.8486], [39.1319, 44.8469], [39.1344, 44.8521], [39.1502, 44.8548], [39.1486, 44.8425], [39.164, 44.8365], [39.1458, 44.8359], [39.1859, 44.8308]]]}}, {"type": "Feature", "properties": {"osm_type": "relation", "osm_id": 182889714, "name": "Giaginsky District", "admin_level": "6", "kind": "subdivision_2", "parent_osm_id": 253256, "parent_name": "Republic of Adygea", "parent_iso": "RU-AD"}, "geometry": {"type": "Polygon", "coordinates": [[[40.3675, 44.7109], [40.3694, 44.7173], [40.404, 44.7175], [40.406, 44.735], [40.4298, 44.7354], [40.43, 44.7625], [40.4656, 44.7624], [40.4425, 44.7988], [40.4151, 44.8252], [40.3923, 44.8256], [40.3924, 44.8353], [40.4062, 44.8404], [40.3993, 44.846], [40.4379, 44.8647], [40.4282, 44.8718], [40.434, 44.8763], [40.4181, 44.8879], [40.4178, 44.9003], [40.3772, 44.9033], [40.3349, 44.9171], [40.228, 44.9112], [40.2281, 44.9321], [40.2463, 44.9408], [40.1696, 44.973], [40.1564, 44.9575], [40.0824, 44.9359], [40.0564, 44.9816], [40.0212, 44.9735], [40.0334, 44.9284], [40.0047, 44.9245], [39.9929, 44.9368], [39.9419, 44.9298], [39.9635, 44.8924], [39.9339, 44.8839], [39.9577, 44.8423], [39.9757, 44.8474], [39.9854, 44.8305], [39.9555, 44.8221], [39.9508, 44.8305], [39.9391, 44.827], [39.9576, 44.7936], [39.9814, 44.8004], [39.9907, 44.784], [40.0291, 44.794], [40.0391, 44.7779], [40.0243, 44.7733], [40.0325, 44.7601], [40.08, 44.7728], [40.0893, 44.7538], [40.101, 44.757], [40.1255, 44.7147], [40.1412, 44.7188], [40.1465, 44.7117], [40.1998, 44.7273], [40.1971, 44.7443], [40.23, 44.7456], [40.254, 44.7449], [40.2551, 44.7252], [40.3442, 44.7272], [40.3485, 44.7199], [40.3436, 44.7123], [40.3675, 44.7109]]]}}, {"type": "Feature", "properties": {"osm_type": "relation", "osm_id": 434456881, "name": "городской округ Майкоп", "admin_level": "6", "kind": "subdivision_2", "parent_osm_id": 253256, "parent_name": "Republic of Adygea", "parent_iso": "RU-AD"}, "geometry": {"type": "Polygon", "coordinates": [[[40.1255, 44.7147], [40.101, 44.757], [40.0893, 44.7538], [40.08, 44.7728], [40.0325, 44.7601], [40.0243, 44.7733], [40.0391, 44.7779], [40.0291, 44.794], [39.9942, 44.7851], [40.0083, 44.7599], [40.029, 44.747], [39.9875, 44.7175], [39.9695, 44.7301], [39.9608, 44.7236], [39.9428, 44.7363], [39.9101, 44.713], [39.9088, 44.6987], [39.9159, 44.7009], [39.9162, 44.6896], [39.9251, 44.6918], [39.9274, 44.6873], [39.8962, 44.6618], [39.916, 44.6511], [39.9044, 44.6418], [39.9204, 44.6261], [39.9111, 44.6209], [39.9149, 44.6085], [39.9436, 44.6105], [39.9696, 44.592], [39.986, 44.6069], [39.9906, 44.6207], [39.9969, 44.6194], [40.0032, 44.6244], [40.0032, 44.6183], [40.0176, 44.6078], [40.0399, 44.6047], [40.0517, 44.5869], [40.0978, 44.5791], [40.1099, 44.5676], [40.1236, 44.5646], [40.1392, 44.5667], [40.1463, 44.5601], [40.1645, 44.5645], [40.1683, 44.5673], [40.15, 44.5789], [40.1673, 44.6062], [40.1562, 44.6106], [40.1611, 44.6156], [40.1424, 44.6141], [40.1297, 44.6465], [40.1146, 44.663], [40.1285, 44.6726], [40.1331, 44.6964], [40.1244, 44.6947], [40.1261, 44.6894], [40.1187, 44.6867], [40.1267, 44.6744], [40.1064, 44.6727], [40.0891, 44.6565], [40.0779, 44.6668], [40.0727, 44.663], [40.0502, 44.6791], [40.0603, 44.6872], [40.0515, 44.6944], [40.0621, 44.7023], [40.0767, 44.692], [40.0652, 44.6839], [40.0739, 44.6773], [40.092, 44.6866], [40.0851, 44.6943], [40.1179, 44.7038], [40.1131, 44.7124], [40.1255, 44.7147]]]}}, {"type": "Feature", "properties": {"osm_type": "relation", "osm_id": 424294658, "name": "городской округ Адыгейск", "admin_level": "6", "kind": "subdivision_2", "parent_osm_id": 253256, "parent_name": "Republic of Adygea", "parent_iso": "RU-AD"}, "geometry": {"type": "Polygon", "coordinates": [[[39.2254, 44.825], [39.2124, 44.8406], [39.2305, 44.8528], [39.2397, 44.8529], [39.2389, 44.8589], [39.2327, 44.862], [39.2382, 44.866], [39.2281, 44.8698], [39.2455, 44.8844], [39.2463, 44.9035], [39.2367, 44.9056], [39.165, 44.8945], [39.1784, 44.8785], [39.1685, 44.8722], [39.1794, 44.8769], [39.1917, 44.8643], [39.1863, 44.8624], [39.1903, 44.8561], [39.1848, 44.8545], [39.1859, 44.8308], [39.2254, 44.825]]]}}]}