{"type": "FeatureCollection", "parent": {"osm_id": 2589611, "name": "Baja California Sur", "admin_level": "4", "kind": "subdivision_1", "child_kind": "subdivision_2", "iso": "MX-BCS"}, "features": [{"type": "Feature", "properties": {"osm_type": "relation", "osm_id": 434813055, "name": "Mulegé", "admin_level": "6", "kind": "subdivision_2", "parent_osm_id": 2589611, "parent_name": "Baja California Sur", "parent_iso": "MX-BCS"}, "geometry": {"type": "MultiPolygon", "coordinates": [[[[-111.436, 26.6416], [-111.4304, 26.6241], [-111.4251, 26.6245], [-111.4282, 26.6369], [-111.436, 26.6416]]], [[[-111.9109, 27.0363], [-111.9088, 27.0429], [-111.9162, 27.0373], [-111.9159, 27.0339], [-111.9109, 27.0363]]], [[[-112.0802, 27.2511], [-112.0928, 27.2583], [-112.1085, 27.2372], [-112.0977, 27.2305], [-112.0891, 27.2154], [-112.0848, 27.1857], [-112.0756, 27.1776], [-112.0654, 27.1836], [-112.0594, 27.1797], [-112.0434, 27.2084], [-112.0506, 27.2174], [-112.0467, 27.2246], [-112.0802, 27.2511]]], [[[-114.2933, 27.1106], [-114.2953, 27.1015], [-114.291, 27.0983], [-114.2933, 27.1106]]], [[[-114.3742, 27.149], [-114.3848, 27.146], [-114.3725, 27.1452], [-114.3742, 27.149]]], [[[-111.9449, 27.4346], [-111.9663, 27.4331], [-111.967, 27.4203], [-111.9521, 27.4072], [-111.9318, 27.4073], [-111.9285, 27.4126], [-111.9449, 27.4346]]], [[[-112.7395, 27.8426], [-112.7365, 27.8412], [-112.7395, 27.8426]]], [[[-115.2226, 27.8937], [-115.2238, 27.8935], [-115.2221, 27.8923], [-115.2226, 27.8937]]], [[[-115.1928, 27.8853], [-115.2135, 27.8966], [-115.2203, 27.8906], [-115.1888, 27.8761], [-115.1766, 27.8564], [-115.1783, 27.8502], [-115.1673, 27.8522], [-115.1589, 27.8633], [-115.1614, 27.8703], [-115.1828, 27.8757], [-115.1928, 27.8853]]], [[[-114.2049, 28.0], [-114.2653, 27.9424], [-114.2754, 27.9069], [-114.2744, 27.8976], [-114.2656, 27.8884], [-114.2948, 27.8641], [-114.3111, 27.8737], [-114.3344, 27.8695], [-114.3715, 27.843], [-114.39, 27.8219], [-114.4993, 27.772], [-114.5333, 27.7861], [-114.5697, 27.7833], [-114.6053, 27.7735], [-114.6339, 27.7761], [-114.6423, 27.7817], [-114.6605, 27.7813], [-114.6686, 27.7883], [-114.7049, 27.7888], [-114.7186, 27.7958], [-114.7191, 27.8035], [-114.7375, 27.8086], [-114.7627, 27.806], [-114.7872, 27.8156], [-114.8387, 27.8101], [-114.8531, 27.8265], [-114.8658, 27.8302], [-114.8816, 27.8279], [-114.9226, 27.8342], [-114.9692, 27.8256], [-115.0063, 27.8284], [-115.0165, 27.832], [-115.0279, 27.8476], [-115.0552, 27.8618], [-115.0823, 27.8474], [-115.0526, 27.8209], [-115.0461, 27.7952], [-115.0376, 27.7867], [-115.0315, 27.7705], [-115.0342, 27.7597], [-115.0244, 27.749], [-115.0262, 27.741], [-115.0139, 27.7357], [-115.0063, 27.7177], [-114.9984, 27.7176], [-114.9971, 27.7254], [-114.9895, 27.7289], [-114.9537, 27.7165], [-114.9382, 27.7017], [-114.9304, 27.676], [-114.8715, 27.6499], [-114.8734, 27.6432], [-114.8627, 27.638], [-114.8609, 27.6269], [-114.8476, 27.6178], [-114.8404, 27.6299], [-114.8212, 27.6299], [-114.7848, 27.6075], [-114.7656, 27.5765], [-114.7622, 27.555], [-114.7444, 27.5328], [-114.7397, 27.5328], [-114.7373, 27.5242], [-114.7145, 27.5221], [-114.6871, 27.5084], [-114.6694, 27.5067], [-114.644, 27.4962], [-114.6322, 27.4869], [-114.601, 27.4785], [-114.5766, 27.452], [-114.5646, 27.451], [-114.5135, 27.4172], [-114.5002, 27.3938], [-114.4886, 27.3504], [-114.4851, 27.2986], [-114.4885, 27.279], [-114.4846, 27.26], [-114.488, 27.2287], [-114.4779, 27.2163], [-114.4563, 27.2206], [-114.4349, 27.2098], [-114.4272, 27.195], [-114.4349, 27.1775], [-114.431, 27.1744], [-114.4154, 27.1689], [-114.3986, 27.1761], [-114.3966, 27.182], [-114.3847, 27.1802], [-114.362, 27.1632], [-114.3335, 27.1569], [-114.2983, 27.1288], [-114.2967, 27.1229], [-114.2957, 27.1378], [-114.2905, 27.1435], [-114.2595, 27.1517], [-114.1949, 27.1427], [-114.1471, 27.1241], [-114.0902, 27.0861], [-114.0602, 27.0497], [-114.0521, 27.0201], [-114.0384, 27.0118], [-114.0025, 26.9711], [-113.9834, 26.9734], [-113.9741, 26.9946], [-113.947, 26.9994], [-113.9005, 26.9898], [-113.8528, 26.9704], [-113.8082, 26.9404], [-113.7855, 26.9173], [-113.7623, 26.876], [-113.7337, 26.7995], [-113.7263, 26.801], [-113.7158, 26.7903], [-113.7046, 26.7919], [-113.686, 26.7809], [-113.6578, 26.7564], [-113.6384, 26.7297], [-113.6072, 26.7137], [-113.577, 26.7047], [-113.5709, 26.7142], [-113.5475, 26.7202], [-113.5489, 26.7384], [-113.5218, 26.7532], [-113.5092, 26.7915], [-113.4605, 26.8092], [-113.4557, 26.8055], [-113.3958, 26.8036], [-113.3627, 26.7961], [-113.3386, 26.7867], [-113.2833, 26.7532], [-113.2698, 26.7126], [-113.2737, 26.7087], [-113.269, 26.7036], [-113.188, 26.6861], [-113.1383, 26.6598], [-113.1253, 26.6371], [-113.0832, 26.6187], [-113.0278, 26.5687], [-112.9779, 26.5336], [-112.8894, 26.4855], [-112.7871, 26.406], [-112.8188, 26.4326], [-112.8185, 26.4378], [-112.7895, 26.424], [-112.7619, 26.4349], [-112.7787, 26.5], [-112.775, 26.5493], [-112.7685, 26.5373], [-112.7518, 26.5389], [-112.7392, 26.5294], [-112.718, 26.5021], [-112.7089, 26.5071], [-112.6692, 26.5058], [-112.6612, 26.5098], [-112.649, 26.5274], [-112.6365, 26.5083], [-112.6294, 26.5044], [-112.6344, 26.5115], [-112.6242, 26.5147], [-112.6214, 26.508], [-112.6117, 26.5031], [-112.5991, 26.5825], [-112.5577, 26.5778], [-112.4088, 26.5818], [-112.409, 26.5664], [-112.3806, 26.5903], [-112.3643, 26.5884], [-112.36, 26.5831], [-112.3561, 26.5886], [-112.339, 26.5845], [-112.3295, 26.587], [-112.3082, 26.5709], [-112.2934, 26.5749], [-112.275, 26.5603], [-112.2756, 26.5533], [-112.2524, 26.5551], [-112.227, 26.5373], [-112.226, 26.5318], [-112.1172, 26.5303], [-112.117, 26.5161], [-112.1089, 26.5145], [-112.1036, 26.524], [-112.0972, 26.5237], [-112.0743, 26.5383], [-112.0602, 26.5325], [-112.0565, 26.5189], [-112.0408, 26.5324], [-111.9756, 26.5078], [-111.9639, 26.4982], [-111.9553, 26.5138], [-111.9469, 26.5133], [-111.9285, 26.5277], [-111.9165, 26.5271], [-111.9141, 26.5366], [-111.8921, 26.5413], [-111.8662, 26.5598], [-111.8489, 26.5632], [-111.8385, 26.5557], [-111.8152, 26.5634], [-111.805, 26.5492], [-111.7947, 26.5441], [-111.7666, 26.5542], [-111.7675, 26.5501], [-111.7483, 26.5471], [-111.7392, 26.5379], [-111.693, 26.5663], [-111.6792, 26.5529], [-111.6554, 26.5619], [-111.6468, 26.5589], [-111.6495, 26.5564], [-111.64, 26.5391], [-111.6306, 26.54], [-111.6137, 26.5237], [-111.5612, 26.5557], [-111.5675, 26.5632], [-111.5702, 26.5854], [-111.564, 26.6172], [-111.5672, 26.6182], [-111.5632, 26.6208], [-111.5679, 26.6322], [-111.5674, 26.67], [-111.5609, 26.692], [-111.562, 26.6973], [-111.5711, 26.7004], [-111.5724, 26.708], [-111.594, 26.7119], [-111.6076, 26.7188], [-111.6109, 26.7275], [-111.6269, 26.7326], [-111.6265, 26.7403], [-111.647, 26.7448], [-111.6492, 26.7535], [-111.6558, 26.756], [-111.6672, 26.7729], [-111.6663, 26.7799], [-111.6814, 26.78], [-111.721, 26.8066], [-111.748, 26.846], [-111.8166, 26.8966], [-111.8221, 26.8962], [-111.8328, 26.8838], [-111.8461, 26.882], [-111.8531, 26.8744], [-111.9023, 26.8532], [-111.9121, 26.8581], [-111.9158, 26.8775], [-111.9389, 26.8841], [-111.9544, 26.8999], [-111.9729, 26.8971], [-111.9827, 26.8889], [-111.9715, 26.8985], [-111.9566, 26.9039], [-111.9523, 26.9014], [-111.9569, 26.9052], [-111.9562, 26.9147], [-111.9641, 26.9153], [-111.9758, 26.9364], [-112.0081, 26.9579], [-112.0146, 26.9735], [-112.0153, 26.9998], [-112.0058, 27.0336], [-111.9887, 27.0561], [-111.9699, 27.0701], [-111.9586, 27.0648], [-111.946, 27.07], [-111.9477, 27.0766], [-111.944, 27.0797], [-111.9535, 27.0844], [-111.9522, 27.0948], [-111.9915, 27.0961], [-112.0092, 27.1165], [-112.0628, 27.126], [-112.0708, 27.1338], [-112.0889, 27.1308], [-112.1043, 27.136], [-112.1323, 27.1581], [-112.1659, 27.1656], [-112.1667, 27.1719], [-112.1931, 27.1963], [-112.2133, 27.2046], [-112.2153, 27.2146], [-112.1983, 27.2414], [-112.2022, 27.2465], [-112.1991, 27.2516], [-112.231, 27.2954], [-112.241, 27.3253], [-112.262, 27.3329], [-112.266, 27.3412], [-112.2605, 27.338], [-112.2685, 27.3446], [-112.27, 27.3572], [-112.2868, 27.3643], [-112.3032, 27.386], [-112.3039, 27.3956], [-112.2981, 27.4032], [-112.3061, 27.4194], [-112.3181, 27.4291], [-112.3181, 27.4351], [-112.3126, 27.4335], [-112.3217, 27.4438], [-112.3183, 27.4609], [-112.3243, 27.4708], [-112.3243, 27.498], [-112.33, 27.5177], [-112.3527, 27.5318], [-112.3594, 27.5523], [-112.4183, 27.5903], [-112.4362, 27.5902], [-112.4471, 27.5978], [-112.4674, 27.5996], [-112.4745, 27.6131], [-112.4869, 27.6209], [-112.5183, 27.6298], [-112.5294, 27.6377], [-112.5606, 27.6449], [-112.5727, 27.6426], [-112.5954, 27.6505], [-112.6001, 27.6566], [-112.598, 27.6648], [-112.623, 27.6782], [-112.6232, 27.6874], [-112.6336, 27.695], [-112.6366, 27.7052], [-112.644, 27.7104], [-112.661, 27.7094], [-112.7016, 27.7518], [-112.7078, 27.7646], [-112.7062, 27.7763], [-112.716, 27.7859], [-112.7139, 27.8051], [-112.7199, 27.8254], [-112.7286, 27.8233], [-112.7358, 27.8271], [-112.7425, 27.8381], [-112.7582, 27.8462], [-112.7714, 27.862], [-112.7677, 27.8902], [-112.7613, 27.8969], [-112.7658, 27.9043], [-112.7618, 27.9209], [-112.7668, 27.9403], [-112.7564, 27.9679], [-112.7649, 28.0], [-114.2049, 28.0]]]]}}, {"type": "Feature", "properties": {"osm_type": "relation", "osm_id": 707323090, "name": "Comondú", "admin_level": "6", "kind": "subdivision_2", "parent_osm_id": 2589611, "parent_name": "Baja California Sur", "parent_iso": "MX-BCS"}, "geometry": {"type": "MultiPolygon", "coordinates": [[[[-111.7726, 26.5541], [-111.7815, 26.5461], [-111.7947, 26.5441], [-111.805, 26.5492], [-111.8152, 26.5634], [-111.8385, 26.5557], [-111.8489, 26.5632], [-111.8662, 26.5598], [-111.8921, 26.5413], [-111.9141, 26.5366], [-111.9165, 26.5271], [-111.9285, 26.5277], [-111.9469, 26.5133], [-111.9553, 26.5138], [-111.9639, 26.4982], [-111.9756, 26.5078], [-112.0408, 26.5324], [-112.0565, 26.5189], [-112.0602, 26.5325], [-112.0743, 26.5383], [-112.0972, 26.5237], [-112.1036, 26.524], [-112.1089, 26.5145], [-112.117, 26.5161], [-112.1172, 26.5303], [-112.226, 26.5318], [-112.227, 26.5373], [-112.2524, 26.5551], [-112.2756, 26.5533], [-112.275, 26.5603], [-112.2934, 26.5749], [-112.3082, 26.5709], [-112.3295, 26.587], [-112.339, 26.5845], [-112.3561, 26.5886], [-112.36, 26.5831], [-112.3643, 26.5884], [-112.3806, 26.5903], [-112.409, 26.5664], [-112.4088, 26.5818], [-112.5577, 26.5778], [-112.5991, 26.5825], [-112.6117, 26.5031], [-112.6214, 26.508], [-112.6242, 26.5147], [-112.6344, 26.5115], [-112.6294, 26.5044], [-112.6365, 26.5083], [-112.649, 26.5274], [-112.6612, 26.5098], [-112.6692, 26.5058], [-112.7089, 26.5071], [-112.718, 26.5021], [-112.7392, 26.5294], [-112.7518, 26.5389], [-112.7685, 26.5373], [-112.775, 26.5493], [-112.7787, 26.5], [-112.7619, 26.4349], [-112.7895, 26.424], [-112.8185, 26.4378], [-112.8188, 26.4326], [-112.7871, 26.406], [-112.7129, 26.3585], [-112.6839, 26.327], [-112.6799, 26.3153], [-112.653, 26.3254], [-112.635, 26.3211], [-112.6162, 26.3043], [-112.5927, 26.2943], [-112.5762, 26.2784], [-112.5406, 26.2617], [-112.4975, 26.2315], [-112.4803, 26.2364], [-112.4755, 26.2436], [-112.4757, 26.2565], [-112.4606, 26.2624], [-112.4152, 26.2486], [-112.3971, 26.2362], [-112.3384, 26.1678], [-112.3182, 26.1232], [-112.3081, 26.0719], [-112.2907, 26.0555], [-112.2805, 26.062], [-112.2342, 26.0367], [-112.1922, 25.9876], [-112.162, 25.899], [-112.1379, 25.8512], [-112.1294, 25.8156], [-112.1074, 25.7825], [-112.101, 25.7515], [-112.0987, 25.6923], [-112.0944, 25.6843], [-112.0979, 25.6745], [-112.0974, 25.5909], [-112.1029, 25.5163], [-112.0973, 25.4889], [-112.1051, 25.4828], [-112.1017, 25.4576], [-112.1177, 25.3507], [-112.1274, 25.3144], [-112.1371, 25.2977], [-112.1248, 25.2819], [-112.1282, 25.2676], [-112.1366, 25.2633], [-112.1402, 25.2544], [-112.1582, 25.1707], [-112.2154, 24.9883], [-112.2748, 24.8402], [-112.2883, 24.814], [-112.3023, 24.8091], [-112.3045, 24.7943], [-112.2773, 24.7766], [-112.2694, 24.759], [-112.2595, 24.7501], [-112.2611, 24.7794], [-112.2381, 24.7895], [-112.2161, 24.7873], [-112.1749, 24.7653], [-112.1432, 24.7333], [-112.1353, 24.7007], [-112.142, 24.6714], [-112.1508, 24.6665], [-112.1611, 24.673], [-112.1667, 24.6705], [-112.1748, 24.6533], [-112.1576, 24.6443], [-112.1587, 24.6396], [-112.1457, 24.6209], [-112.1304, 24.6167], [-112.1164, 24.6029], [-112.1026, 24.5794], [-112.0991, 24.5633], [-112.1021, 24.5588], [-112.088, 24.5479], [-112.0601, 24.5418], [-111.9968, 24.5072], [-111.9473, 24.489], [-111.9273, 24.4691], [-111.9207, 24.4702], [-111.9086, 24.4573], [-111.8762, 24.4425], [-111.7458, 24.3483], [-111.7253, 24.3279], [-111.7113, 24.3033], [-111.7099, 24.3207], [-111.7041, 24.3247], [-111.6946, 24.3508], [-111.6992, 24.3571], [-111.6983, 24.366], [-111.6865, 24.3795], [-111.6915, 24.3814], [-111.7036, 24.3703], [-111.711, 24.3865], [-111.7231, 24.3943], [-111.743, 24.4188], [-111.7403, 24.4248], [-111.7497, 24.4342], [-111.7501, 24.4419], [-111.7696, 24.4564], [-111.8208, 24.4702], [-111.7297, 24.5558], [-111.7054, 24.5523], [-111.7069, 24.5463], [-111.7132, 24.5513], [-111.7191, 24.5478], [-111.7159, 24.5428], [-111.7283, 24.5481], [-111.73, 24.5421], [-111.734, 24.5469], [-111.7323, 24.5415], [-111.7003, 24.538], [-111.7086, 24.5386], [-111.7035, 24.5411], [-111.7097, 24.5457], [-111.7031, 24.5449], [-111.6909, 24.5573], [-111.6995, 24.5651], [-111.7029, 24.5641], [-111.6981, 24.5581], [-111.708, 24.5618], [-111.7146, 24.5696], [-111.7053, 24.5731], [-111.7, 24.5699], [-111.6975, 24.5879], [-111.6822, 24.5836], [-111.6666, 24.6122], [-111.6679, 24.6505], [-111.5787, 24.685], [-111.5785, 24.7216], [-111.5422, 24.7478], [-111.5356, 24.7335], [-111.4818, 24.7674], [-111.4598, 24.7684], [-111.4447, 24.7753], [-111.4175, 24.7641], [-111.3625, 24.7739], [-111.3443, 24.7602], [-111.318, 24.8755], [-111.3003, 24.862], [-111.2733, 24.8704], [-111.2767, 24.8518], [-111.2293, 24.8632], [-111.2285, 24.8494], [-111.1904, 24.8491], [-111.1894, 24.8762], [-111.1768, 24.8777], [-111.1766, 24.8731], [-111.1723, 24.8767], [-111.1672, 24.8721], [-111.1643, 24.8762], [-111.1591, 24.8673], [-111.155, 24.8709], [-111.1505, 24.8677], [-111.148, 24.8754], [-111.137, 24.8765], [-111.1355, 24.8815], [-111.1477, 24.8868], [-111.1338, 24.9093], [-111.1395, 24.9163], [-111.1402, 24.9326], [-111.1246, 24.9598], [-111.0887, 24.9586], [-111.078, 24.9489], [-111.0737, 24.9531], [-111.0651, 24.9486], [-111.0517, 24.936], [-111.0345, 24.9332], [-111.0252, 24.922], [-111.0191, 24.9273], [-111.0007, 24.9241], [-110.9892, 24.9429], [-110.9905, 24.9742], [-111.0014, 24.986], [-110.9914, 24.9875], [-110.9928, 25.0197], [-110.9764, 25.021], [-110.8786, 25.0709], [-110.8845, 25.0832], [-110.8692, 25.1055], [-110.8799, 25.1263], [-110.8934, 25.1308], [-110.9076, 25.1458], [-110.9125, 25.1748], [-110.9066, 25.1835], [-110.916, 25.1909], [-110.9207, 25.203], [-111.0388, 25.2186], [-111.0517, 25.3378], [-111.0178, 25.3471], [-111.0157, 25.3594], [-111.045, 25.4294], [-111.0604, 25.4312], [-111.0584, 25.4391], [-111.0805, 25.4425], [-111.0762, 25.4604], [-111.0983, 25.4742], [-111.1575, 25.4798], [-111.2318, 25.4235], [-111.2521, 25.416], [-111.3076, 25.4402], [-111.3304, 25.4613], [-111.3496, 25.4881], [-111.3672, 25.4843], [-111.3744, 25.4934], [-111.3821, 25.4899], [-111.3866, 25.498], [-111.4085, 25.4916], [-111.4282, 25.5375], [-111.4428, 25.5348], [-111.4786, 25.5764], [-111.5234, 25.5743], [-111.5218, 25.5877], [-111.5577, 25.5916], [-111.5873, 25.6018], [-111.5978, 25.6217], [-111.6249, 25.6494], [-111.6534, 25.7079], [-111.6366, 25.7211], [-111.6493, 25.7543], [-111.6705, 25.9097], [-111.6761, 25.9095], [-111.6709, 25.9211], [-111.6754, 25.9308], [-111.6761, 26.0019], [-111.6826, 26.0144], [-111.6647, 26.013], [-111.6762, 26.024], [-111.691, 26.0238], [-111.6623, 26.0478], [-111.6668, 26.0696], [-111.6642, 26.0848], [-111.7109, 26.1214], [-111.7253, 26.1778], [-111.7132, 26.1821], [-111.7631, 26.2744], [-111.7571, 26.2796], [-111.7563, 26.2921], [-111.734, 26.2979], [-111.7231, 26.3151], [-111.7887, 26.4092], [-111.7726, 26.5541]]], [[[-110.6874, 25.3057], [-110.6849, 25.3117], [-110.6946, 25.3051], [-110.7118, 25.3046], [-110.7272, 25.2921], [-110.7313, 25.2825], [-110.7259, 25.2619], [-110.7153, 25.2609], [-110.7065, 25.2676], [-110.6991, 25.2905], [-110.6874, 25.3057]]], [[[-110.695, 25.2036], [-110.6975, 25.2056], [-110.7047, 25.1941], [-110.695, 25.2036]]], [[[-110.8602, 25.1275], [-110.859, 25.1305], [-110.8627, 25.1294], [-110.8602, 25.1275]]], [[[-110.9218, 25.2471], [-110.9229, 25.2467], [-110.9208, 25.2466], [-110.9218, 25.2471]]]]}}, {"type": "Feature", "properties": {"osm_type": "relation", "osm_id": 123439337, "name": "Los Cabos", "admin_level": "6", "kind": "subdivision_2", "parent_osm_id": 2589611, "parent_name": "Baja California Sur", "parent_iso": "MX-BCS"}, "geometry": {"type": "Polygon", "coordinates": [[[-110.1204, 23.1142], [-110.1132, 23.0963], [-110.0987, 23.0194], [-110.0915, 23.0132], [-110.0855, 22.9916], [-110.0611, 22.9496], [-110.0182, 22.9057], [-109.9638, 22.8722], [-109.8994, 22.8745], [-109.894, 22.877], [-109.91, 22.8788], [-109.9114, 22.8857], [-109.9054, 22.8817], [-109.9034, 22.8884], [-109.8901, 22.8963], [-109.845, 22.9016], [-109.8424, 22.9086], [-109.8091, 22.9336], [-109.8075, 22.9495], [-109.7924, 22.9662], [-109.7639, 22.9782], [-109.7595, 22.9847], [-109.7315, 22.9909], [-109.7136, 23.0063], [-109.7181, 23.0128], [-109.7153, 23.027], [-109.7031, 23.0391], [-109.6804, 23.0494], [-109.6688, 23.0603], [-109.6081, 23.0813], [-109.5765, 23.084], [-109.567, 23.0953], [-109.5362, 23.1094], [-109.5176, 23.1271], [-109.5088, 23.1425], [-109.495, 23.1505], [-109.4853, 23.1686], [-109.4549, 23.2028], [-109.4503, 23.2209], [-109.4373, 23.2396], [-109.4396, 23.2736], [-109.4254, 23.3048], [-109.428, 23.3208], [-109.4244, 23.3382], [-109.4322, 23.3769], [-109.4235, 23.3831], [-109.4158, 23.382], [-109.4156, 23.4034], [-109.4278, 23.4055], [-109.432, 23.4137], [-109.424, 23.4452], [-109.4292, 23.4582], [-109.4386, 23.4619], [-109.4476, 23.4783], [-109.461, 23.4874], [-109.4794, 23.5192], [-109.479, 23.5349], [-109.4684, 23.5546], [-109.5122, 23.5691], [-109.5205, 23.5846], [-109.5756, 23.6], [-109.6075, 23.6211], [-109.6357, 23.6264], [-109.6407, 23.6326], [-109.677, 23.6455], [-109.6964, 23.6617], [-109.6977, 23.6715], [-109.7038, 23.6699], [-109.6974, 23.653], [-109.7176, 23.6412], [-109.7399, 23.641], [-109.7502, 23.6321], [-109.7668, 23.6289], [-109.7693, 23.6189], [-109.7809, 23.6081], [-109.7968, 23.6039], [-109.8129, 23.6147], [-109.8193, 23.6007], [-109.8564, 23.6142], [-109.8654, 23.598], [-109.8637, 23.5844], [-109.8958, 23.578], [-109.9314, 23.6101], [-109.9338, 23.4892], [-109.8741, 23.4604], [-109.8458, 23.4567], [-109.853, 23.4214], [-109.9357, 23.4791], [-109.9881, 23.4568], [-109.9947, 23.4005], [-110.0256, 23.3909], [-110.0127, 23.3834], [-109.9693, 23.384], [-109.9631, 23.3427], [-109.9253, 23.2739], [-109.9374, 23.2747], [-109.9497, 23.2614], [-109.9519, 23.2275], [-109.9585, 23.2217], [-109.9772, 23.2363], [-109.9505, 23.1849], [-109.9643, 23.1771], [-109.9751, 23.1792], [-109.9396, 23.1641], [-109.9457, 23.1351], [-109.9959, 23.1592], [-110.0004, 23.1426], [-110.0056, 23.1451], [-110.0032, 23.1697], [-110.048, 23.1387], [-110.1204, 23.1142]]]}}]}