{"type": "FeatureCollection", "parent": {"osm_id": 272670, "name": "Monagas State", "admin_level": "4", "kind": "subdivision_1", "child_kind": "subdivision_2", "iso": "VE-N"}, "features": [{"type": "Feature", "properties": {"osm_type": "relation", "osm_id": 348604988, "name": "Aguasay", "admin_level": "6", "kind": "subdivision_2", "parent_osm_id": 272670, "parent_name": "Monagas State", "parent_iso": "VE-N"}, "geometry": {"type": "Polygon", "coordinates": [[[-63.5096, 9.4982], [-63.5427, 9.5203], [-63.5667, 9.5133], [-63.5733, 9.5024], [-63.5873, 9.495], [-63.6282, 9.4988], [-63.6551, 9.4915], [-63.7047, 9.5153], [-63.7117, 9.5163], [-63.7206, 9.5098], [-63.731, 9.5212], [-63.7332, 9.5134], [-63.7461, 9.5102], [-63.7509, 9.5151], [-63.7633, 9.5163], [-63.7718, 9.5298], [-63.7873, 9.5237], [-63.7953, 9.5331], [-63.8129, 9.5333], [-63.8263, 9.5409], [-63.9744, 9.4112], [-63.9813, 9.3404], [-63.9642, 9.3273], [-63.9623, 9.3082], [-63.9553, 9.293], [-63.9411, 9.2852], [-63.92, 9.2556], [-63.91, 9.1855], [-63.9083, 9.1936], [-63.901, 9.1978], [-63.8614, 9.2109], [-63.8347, 9.2257], [-63.809, 9.2136], [-63.8041, 9.2183], [-63.7739, 9.2241], [-63.7581, 9.2196], [-63.7445, 9.1962], [-63.7178, 9.1936], [-63.7105, 9.1845], [-63.6969, 9.1797], [-63.6984, 9.174], [-63.6884, 9.1591], [-63.6842, 9.1632], [-63.6788, 9.1599], [-63.681, 9.1546], [-63.6524, 9.155], [-63.6317, 9.1461], [-63.6257, 9.1502], [-63.6098, 9.1405], [-63.6031, 9.1203], [-63.6096, 9.1154], [-63.6021, 9.0944], [-63.5944, 9.1001], [-63.5896, 9.0963], [-63.589, 9.1022], [-63.5681, 9.0993], [-63.5717, 9.0936], [-63.5684, 9.0888], [-63.5622, 9.0914], [-63.5586, 9.0841], [-63.5484, 9.0816], [-63.5446, 9.0883], [-63.536, 9.0737], [-63.5249, 9.0706], [-63.5286, 9.0631], [-63.5223, 9.0626], [-63.5195, 9.0706], [-63.512, 9.0672], [-63.5151, 9.0617], [-63.5041, 9.0454], [-63.4925, 9.0528], [-63.4955, 9.0567], [-63.4875, 9.0548], [-63.4836, 9.0453], [-63.4919, 9.0304], [-63.4799, 9.0311], [-63.4765, 9.0144], [-63.4706, 9.0206], [-63.4609, 9.0085], [-63.4555, 9.0226], [-63.4441, 9.0003], [-63.4336, 9.0101], [-63.4289, 9.0073], [-63.4294, 9.0005], [-63.4201, 9.0044], [-63.417, 8.997], [-63.4111, 8.9989], [-63.4087, 8.9938], [-63.4038, 9.0002], [-63.3968, 8.9938], [-63.3998, 8.9881], [-63.3962, 8.9841], [-63.3894, 8.986], [-63.3886, 8.974], [-63.3825, 8.9744], [-63.3846, 8.9621], [-63.3676, 8.9468], [-63.3575, 9.1747], [-63.4694, 9.4224], [-63.5096, 9.4982]]]}}, {"type": "Feature", "properties": {"osm_type": "relation", "osm_id": 358214826, "name": "Caripe", "admin_level": "6", "kind": "subdivision_2", "parent_osm_id": 272670, "parent_name": "Monagas State", "parent_iso": "VE-N"}, "geometry": {"type": "Polygon", "coordinates": [[[-63.4275, 10.2848], [-63.4475, 10.2859], [-63.4553, 10.3024], [-63.4743, 10.312], [-63.4947, 10.2949], [-63.5163, 10.2924], [-63.5446, 10.2716], [-63.551, 10.2619], [-63.5467, 10.2443], [-63.5582, 10.236], [-63.5603, 10.2124], [-63.569, 10.1991], [-63.5784, 10.1999], [-63.623, 10.1637], [-63.6205, 10.1443], [-63.6258, 10.1345], [-63.619, 10.123], [-63.623, 10.1132], [-63.6197, 10.0994], [-63.5858, 10.1086], [-63.5702, 10.1269], [-63.5592, 10.1114], [-63.5442, 10.1173], [-63.5411, 10.1247], [-63.5175, 10.1248], [-63.4677, 10.14], [-63.4573, 10.1352], [-63.4512, 10.1207], [-63.456, 10.1014], [-63.4442, 10.1055], [-63.4281, 10.1008], [-63.4042, 10.1037], [-63.3904, 10.0949], [-63.3843, 10.0832], [-63.3484, 10.0888], [-63.3255, 10.0696], [-63.3058, 10.0653], [-63.2462, 10.097], [-63.2408, 10.1111], [-63.1994, 10.1579], [-63.2207, 10.1641], [-63.2252, 10.1871], [-63.2543, 10.1885], [-63.2583, 10.1981], [-63.293, 10.2085], [-63.3339, 10.2102], [-63.3568, 10.2407], [-63.3867, 10.2352], [-63.3972, 10.243], [-63.4032, 10.2566], [-63.4294, 10.253], [-63.4136, 10.2828], [-63.4275, 10.2848]]]}}, {"type": "Feature", "properties": {"osm_type": "relation", "osm_id": 449034543, "name": "Maturín", "admin_level": "6", "kind": "subdivision_2", "parent_osm_id": 272670, "parent_name": "Monagas State", "parent_iso": "VE-N"}, "geometry": {"type": "Polygon", "coordinates": [[[-63.3676, 8.9468], [-63.3433, 8.763], [-63.3207, 8.7824], [-63.2959, 8.7793], [-63.2879, 8.7653], [-63.2745, 8.7606], [-63.2537, 8.762], [-63.2314, 8.7717], [-63.2154, 8.7614], [-62.9346, 8.7742], [-62.912, 8.8016], [-62.8833, 8.8236], [-62.8661, 8.8508], [-62.8356, 8.8827], [-62.8216, 8.8911], [-62.8094, 8.9148], [-62.7955, 8.969], [-62.7778, 8.9967], [-62.7736, 9.0375], [-62.7795, 9.0452], [-62.7778, 9.0671], [-62.7931, 9.0833], [-62.7942, 9.0965], [-62.8085, 9.1274], [-62.8066, 9.1368], [-62.7916, 9.1545], [-62.7956, 9.1548], [-62.7924, 9.1639], [-62.7978, 9.1904], [-62.7893, 9.203], [-62.7816, 9.2057], [-62.7823, 9.2148], [-62.7759, 9.2158], [-62.7683, 9.2326], [-62.7372, 9.2448], [-62.7308, 9.2353], [-62.7187, 9.2313], [-62.7111, 9.2398], [-62.705, 9.2366], [-62.6903, 9.2437], [-62.6895, 9.238], [-62.6805, 9.2322], [-62.6768, 9.2359], [-62.6752, 9.2313], [-62.6716, 9.2351], [-62.6651, 9.2326], [-62.6681, 9.2302], [-62.6637, 9.213], [-62.6503, 9.2114], [-62.6435, 9.2025], [-62.6251, 9.1957], [-62.6231, 9.188], [-62.6139, 9.1893], [-62.6153, 9.1933], [-62.6095, 9.1973], [-62.5979, 9.1915], [-62.59, 9.2019], [-62.5746, 9.1963], [-62.5728, 9.2041], [-62.5632, 9.2098], [-62.5596, 9.2051], [-62.5574, 9.2082], [-62.5443, 9.2049], [-62.5421, 9.2101], [-62.5494, 9.2227], [-62.5465, 9.2308], [-62.5531, 9.2426], [-62.5498, 9.2507], [-62.5422, 9.2518], [-62.5411, 9.2713], [-62.5226, 9.2692], [-62.5115, 9.2599], [-62.512, 9.2716], [-62.5035, 9.2771], [-62.508, 9.282], [-62.5088, 9.3109], [-62.4884, 9.3301], [-62.3743, 9.3875], [-62.3983, 9.3964], [-62.411, 9.4064], [-62.4001, 9.4671], [-62.4108, 9.4813], [-62.4314, 9.478], [-62.4417, 9.4841], [-62.4445, 9.4917], [-62.4407, 9.513], [-62.4475, 9.5315], [-62.4357, 9.5584], [-62.3855, 9.6135], [-62.3784, 9.6573], [-62.3685, 9.6765], [-62.3306, 9.7123], [-62.3131, 9.7418], [-62.305, 9.7741], [-62.3088, 9.7852], [-62.346, 9.8149], [-62.3616, 9.8492], [-62.3605, 9.9819], [-62.4025, 10.008], [-62.413, 10.0054], [-62.4205, 10.0203], [-62.4183, 10.0288], [-62.4324, 10.0483], [-62.448, 10.0508], [-62.4558, 10.0437], [-62.4634, 10.0435], [-62.4737, 10.0549], [-62.4719, 10.0644], [-62.4793, 10.0888], [-62.491, 10.1072], [-62.5032, 10.1472], [-62.5038, 10.1767], [-62.5404, 10.2128], [-62.5989, 10.2401], [-62.6256, 10.2287], [-62.6354, 10.2124], [-62.6381, 10.1974], [-62.6238, 10.1654], [-62.6138, 10.1245], [-62.6142, 10.1063], [-62.6745, 10.0625], [-62.7208, 10.0568], [-62.7334, 10.0594], [-62.7499, 10.0767], [-62.7669, 10.0786], [-62.7846, 10.0683], [-62.7945, 10.0298], [-62.8212, 10.0308], [-62.8281, 10.0333], [-62.8388, 10.0659], [-62.8471, 10.0725], [-62.8573, 10.0687], [-62.8664, 10.0488], [-62.8975, 10.0518], [-62.903, 10.0574], [-62.8974, 10.0865], [-62.9013, 10.0907], [-62.913, 10.09], [-62.9376, 10.074], [-63.0479, 9.9022], [-63.0662, 9.8845], [-63.0913, 9.8825], [-63.1112, 9.8919], [-63.1252, 9.8957], [-63.1268, 9.8926], [-63.135, 9.9007], [-63.1741, 9.8928], [-63.2072, 9.8961], [-63.2079, 9.8823], [-63.2264, 9.8596], [-63.2636, 9.8581], [-63.2805, 9.8487], [-63.2945, 9.8469], [-63.3156, 9.8543], [-63.3359, 9.8536], [-63.3059, 9.7848], [-63.3423, 9.7916], [-63.3544, 9.7862], [-63.3641, 9.7901], [-63.3798, 9.785], [-63.3836, 9.7877], [-63.3831, 9.7838], [-63.3951, 9.7786], [-63.4079, 9.7812], [-63.4214, 9.7769], [-63.4249, 9.7818], [-63.4316, 9.7803], [-63.4641, 9.7918], [-63.4773, 9.8168], [-63.4961, 9.8216], [-63.4996, 9.8142], [-63.4976, 9.7819], [-63.4858, 9.7707], [-63.4832, 9.7283], [-63.526, 9.6338], [-63.4847, 9.635], [-63.4738, 9.6494], [-63.4567, 9.6518], [-63.446, 9.5037], [-63.4567, 9.4943], [-63.4764, 9.4889], [-63.4955, 9.4995], [-63.5096, 9.4982], [-63.4694, 9.4224], [-63.3575, 9.1747], [-63.3676, 8.9468]]]}}, {"type": "Feature", "properties": {"osm_type": "relation", "osm_id": 728392965, "name": "Punceres", "admin_level": "6", "kind": "subdivision_2", "parent_osm_id": 272670, "parent_name": "Monagas State", "parent_iso": "VE-N"}, "geometry": {"type": "Polygon", "coordinates": [[[-63.022, 10.0965], [-63.0303, 10.0789], [-63.0518, 10.0695], [-63.0708, 10.0366], [-63.0981, 10.0373], [-63.1006, 10.0302], [-63.1096, 10.0262], [-63.1109, 10.0189], [-63.1293, 10.0148], [-63.1349, 10.0059], [-63.1397, 10.0116], [-63.1477, 10.0105], [-63.147, 10.0197], [-63.1513, 10.015], [-63.1556, 10.0187], [-63.1589, 10.0419], [-63.1879, 10.0844], [-63.2154, 10.1036], [-63.2284, 10.1189], [-63.2408, 10.1111], [-63.2462, 10.097], [-63.255, 10.0891], [-63.3058, 10.0653], [-63.3255, 10.0696], [-63.3341, 10.0387], [-63.3022, 10.0257], [-63.2916, 10.0111], [-63.2936, 9.9347], [-63.2767, 9.9329], [-63.2644, 9.9212], [-63.2546, 9.9244], [-63.2392, 9.9084], [-63.2207, 9.9056], [-63.2122, 9.8952], [-63.1947, 9.8975], [-63.1741, 9.8928], [-63.135, 9.9007], [-63.1268, 9.8926], [-63.1252, 9.8957], [-63.084, 9.881], [-63.0662, 9.8845], [-63.0479, 9.9022], [-62.9376, 10.074], [-62.9462, 10.0893], [-62.9601, 10.0915], [-62.9716, 10.0847], [-62.9742, 10.0675], [-62.9814, 10.0642], [-63.0014, 10.0863], [-63.022, 10.0965]]]}}, {"type": "Feature", "properties": {"osm_type": "relation", "osm_id": 433717133, "name": "Santa Bárbara", "admin_level": "6", "kind": "subdivision_2", "parent_osm_id": 272670, "parent_name": "Monagas State", "parent_iso": "VE-N"}, "geometry": {"type": "Polygon", "coordinates": [[[-63.5096, 9.4982], [-63.4955, 9.4995], [-63.4764, 9.4889], [-63.4567, 9.4943], [-63.446, 9.5037], [-63.4567, 9.6518], [-63.4738, 9.6494], [-63.4847, 9.635], [-63.5404, 9.6322], [-63.5462, 9.6279], [-63.5572, 9.6366], [-63.5998, 9.627], [-63.6146, 9.6288], [-63.6614, 9.6595], [-63.6552, 9.6424], [-63.6551, 9.4915], [-63.6282, 9.4988], [-63.5873, 9.495], [-63.5733, 9.5024], [-63.5667, 9.5133], [-63.5427, 9.5203], [-63.5096, 9.4982]]]}}, {"type": "Feature", "properties": {"osm_type": "relation", "osm_id": 898604241, "name": "Sotillo", "admin_level": "6", "kind": "subdivision_2", "parent_osm_id": 272670, "parent_name": "Monagas State", "parent_iso": "VE-N"}, "geometry": {"type": "Polygon", "coordinates": [[[-62.6197, 8.4499], [-62.596, 8.4716], [-62.5663, 8.4883], [-62.5544, 8.509], [-62.5367, 8.5187], [-62.5102, 8.5156], [-62.468, 8.5441], [-62.4485, 8.5468], [-62.4329, 8.5333], [-62.4133, 8.5248], [-62.4017, 8.5277], [-62.3727, 8.5507], [-62.3655, 8.5516], [-62.3562, 8.5667], [-62.3283, 8.5841], [-62.3107, 8.6054], [-62.2952, 8.6119], [-62.2848, 8.6096], [-62.2784, 8.5934], [-62.2609, 8.5895], [-62.2469, 8.607], [-62.2416, 8.6281], [-62.2004, 8.656], [-62.1964, 8.6668], [-62.1666, 8.6913], [-62.0707, 8.7538], [-62.0617, 8.7774], [-62.0614, 8.8147], [-62.0244, 8.8388], [-62.2481, 8.8317], [-62.4613, 8.696], [-62.5002, 8.7599], [-62.5276, 8.7373], [-62.5514, 8.7274], [-62.5645, 8.7116], [-62.5944, 8.6949], [-62.6203, 8.6888], [-62.6445, 8.6686], [-62.6822, 8.6755], [-62.7111, 8.4477], [-62.7029, 8.4116], [-62.7072, 8.4031], [-62.7014, 8.403], [-62.7012, 8.3965], [-62.6946, 8.3959], [-62.6921, 8.3878], [-62.6813, 8.3972], [-62.6815, 8.3927], [-62.6711, 8.3877], [-62.6513, 8.4044], [-62.6197, 8.4499]]]}}, {"type": "Feature", "properties": {"osm_type": "relation", "osm_id": 750021444, "name": "Uracoa", "admin_level": "6", "kind": "subdivision_2", "parent_osm_id": 272670, "parent_name": "Monagas State", "parent_iso": "VE-N"}, "geometry": {"type": "Polygon", "coordinates": [[[-62.0244, 8.8388], [-62.0182, 8.8611], [-61.9998, 8.8767], [-61.9981, 8.8858], [-62.0105, 8.8934], [-62.04, 8.8739], [-62.0531, 8.8757], [-62.0917, 8.9616], [-62.0869, 8.985], [-62.0579, 9.0216], [-62.0591, 9.0473], [-62.098, 9.0727], [-62.1136, 9.0622], [-62.1123, 9.0415], [-62.1262, 9.0455], [-62.1475, 9.0614], [-62.1501, 9.0715], [-62.1433, 9.0916], [-62.1583, 9.1021], [-62.1665, 9.0994], [-62.1614, 9.0868], [-62.1641, 9.0835], [-62.1889, 9.0822], [-62.1894, 9.0613], [-62.2053, 9.0617], [-62.2219, 9.0547], [-62.2283, 9.0625], [-62.2252, 9.0845], [-62.2406, 9.0885], [-62.2669, 9.1098], [-62.2636, 9.1282], [-62.2848, 9.1266], [-62.3018, 9.1336], [-62.3158, 9.1246], [-62.326, 9.1239], [-62.3307, 9.1124], [-62.3257, 9.1086], [-62.3254, 9.0921], [-62.3378, 9.0777], [-62.3475, 9.0813], [-62.3537, 9.0766], [-62.3487, 9.0738], [-62.3488, 9.0653], [-62.3568, 9.0615], [-62.3609, 9.0506], [-62.3486, 9.0457], [-62.3487, 9.0369], [-62.3779, 9.0342], [-62.3832, 9.0284], [-62.3921, 9.0308], [-62.3904, 9.0255], [-62.4086, 9.002], [-62.4258, 8.9943], [-62.4413, 9.002], [-62.4719, 8.981], [-62.5038, 8.9857], [-62.5253, 8.973], [-62.5413, 8.9744], [-62.5562, 8.9676], [-62.5754, 8.9415], [-62.5829, 8.9199], [-62.6178, 8.9006], [-62.6438, 8.8976], [-62.6455, 8.8912], [-62.6647, 8.8782], [-62.632, 8.8197], [-62.6822, 8.6755], [-62.6445, 8.6686], [-62.6203, 8.6888], [-62.5944, 8.6949], [-62.5645, 8.7116], [-62.5514, 8.7274], [-62.5276, 8.7373], [-62.5002, 8.7599], [-62.4613, 8.696], [-62.2481, 8.8317], [-62.0244, 8.8388]]]}}, {"type": "Feature", "properties": {"osm_type": "relation", "osm_id": 590459678, "name": "Acosta", "admin_level": "6", "kind": "subdivision_2", "parent_osm_id": 272670, "parent_name": "Monagas State", "parent_iso": "VE-N"}, "geometry": {"type": "Polygon", "coordinates": [[[-63.5861, 10.194], [-63.5959, 10.1982], [-63.6037, 10.2137], [-63.6259, 10.2123], [-63.6432, 10.22], [-63.6633, 10.2145], [-63.702, 10.1938], [-63.7525, 10.1766], [-63.7716, 10.1747], [-63.7766, 10.1548], [-63.7867, 10.1536], [-63.7956, 10.1455], [-63.7971, 10.133], [-63.8122, 10.1181], [-63.8123, 10.1082], [-63.8179, 10.1015], [-63.8282, 10.1066], [-63.8717, 10.102], [-63.9353, 10.0817], [-63.9121, 10.0611], [-63.9094, 10.0472], [-63.8926, 10.0452], [-63.901, 10.0322], [-63.8975, 10.0244], [-63.8832, 10.0227], [-63.8422, 10.0418], [-63.8048, 10.0087], [-63.7983, 10.0199], [-63.78, 10.0325], [-63.7351, 10.045], [-63.7226, 10.0417], [-63.7253, 10.0361], [-63.717, 10.0342], [-63.7103, 10.0237], [-63.695, 10.0292], [-63.6849, 10.0245], [-63.648, 10.0452], [-63.6314, 10.0641], [-63.62, 10.09], [-63.623, 10.1132], [-63.619, 10.123], [-63.6258, 10.1345], [-63.6205, 10.1443], [-63.623, 10.1637], [-63.5861, 10.194]]]}}, {"type": "Feature", "properties": {"osm_type": "relation", "osm_id": 290934127, "name": "Bolívar", "admin_level": "6", "kind": "subdivision_2", "parent_osm_id": 272670, "parent_name": "Monagas State", "parent_iso": "VE-N"}, "geometry": {"type": "Polygon", "coordinates": [[[-63.121, 10.2177], [-63.1332, 10.2218], [-63.1596, 10.1601], [-63.1895, 10.1413], [-63.1994, 10.1579], [-63.2373, 10.1147], [-63.224, 10.1172], [-63.2154, 10.1036], [-63.1879, 10.0844], [-63.1589, 10.0419], [-63.1556, 10.0187], [-63.1513, 10.015], [-63.147, 10.0197], [-63.1477, 10.0105], [-63.1397, 10.0116], [-63.1349, 10.0059], [-63.1293, 10.0148], [-63.1109, 10.0189], [-63.1096, 10.0262], [-63.1006, 10.0302], [-63.0981, 10.0373], [-63.0708, 10.0366], [-63.0518, 10.0695], [-63.0303, 10.0789], [-63.022, 10.0965], [-63.0475, 10.1199], [-63.0469, 10.1389], [-63.0588, 10.1531], [-63.0549, 10.1704], [-63.0676, 10.1754], [-63.0661, 10.1958], [-63.0833, 10.1969], [-63.0913, 10.1831], [-63.1022, 10.1824], [-63.1168, 10.1959], [-63.121, 10.2177]]]}}, {"type": "Feature", "properties": {"osm_type": "relation", "osm_id": 127030228, "name": "Cedeño", "admin_level": "6", "kind": "subdivision_2", "parent_osm_id": 272670, "parent_name": "Monagas State", "parent_iso": "VE-N"}, "geometry": {"type": "Polygon", "coordinates": [[[-63.4961, 9.8216], [-63.4956, 9.8469], [-63.5119, 9.8603], [-63.5158, 9.8858], [-63.5274, 9.8955], [-63.5436, 9.9004], [-63.5694, 9.9242], [-63.5708, 9.9339], [-63.5622, 9.9514], [-63.5772, 9.9713], [-63.5756, 9.9772], [-63.5899, 10.0166], [-63.6138, 10.0364], [-63.622, 10.0621], [-63.6314, 10.0641], [-63.648, 10.0452], [-63.6849, 10.0245], [-63.695, 10.0292], [-63.7103, 10.0237], [-63.717, 10.0342], [-63.7253, 10.0361], [-63.7226, 10.0417], [-63.7351, 10.045], [-63.78, 10.0325], [-63.7983, 10.0199], [-63.8048, 10.0087], [-63.8422, 10.0418], [-63.8832, 10.0227], [-63.8975, 10.0244], [-63.901, 10.0322], [-63.8926, 10.0452], [-63.9094, 10.0472], [-63.9121, 10.0611], [-63.9247, 10.0747], [-63.9456, 10.0845], [-63.9614, 10.0771], [-63.9561, 10.0682], [-63.9576, 10.0466], [-63.9823, 10.041], [-63.9864, 10.0348], [-64.0185, 10.0347], [-64.0349, 10.038], [-64.056, 10.0501], [-64.0635, 10.0479], [-64.0649, 10.0422], [-64.058, 10.0297], [-64.0644, 9.998], [-64.0497, 9.9788], [-64.0463, 9.9422], [-64.0391, 9.9358], [-64.04, 9.9263], [-64.0228, 9.9287], [-64.0151, 9.9346], [-64.0067, 9.9276], [-63.987, 9.9371], [-63.9872, 9.9098], [-63.9779, 9.897], [-63.959, 9.8943], [-63.913, 9.8474], [-63.9373, 9.8422], [-63.9564, 9.822], [-63.9469, 9.7948], [-63.9491, 9.7851], [-63.9626, 9.769], [-63.9627, 9.741], [-63.9557, 9.7316], [-63.9496, 9.7014], [-63.936, 9.6811], [-63.8263, 9.5409], [-63.7059, 9.6812], [-63.7041, 9.7467], [-63.6071, 9.7394], [-63.546, 9.6714], [-63.5439, 9.6636], [-63.5252, 9.6496], [-63.5241, 9.6371], [-63.4832, 9.7283], [-63.4858, 9.7707], [-63.4976, 9.7819], [-63.4996, 9.8142], [-63.4961, 9.8216]]]}}, {"type": "Feature", "properties": {"osm_type": "relation", "osm_id": 641252071, "name": "Ezequiel Zamora", "admin_level": "6", "kind": "subdivision_2", "parent_osm_id": 272670, "parent_name": "Monagas State", "parent_iso": "VE-N"}, "geometry": {"type": "Polygon", "coordinates": [[[-63.6571, 9.4937], [-63.6552, 9.6424], [-63.6614, 9.6595], [-63.6091, 9.6275], [-63.5572, 9.6366], [-63.5462, 9.6279], [-63.5404, 9.6322], [-63.5357, 9.6295], [-63.5241, 9.6371], [-63.5252, 9.6496], [-63.5439, 9.6636], [-63.546, 9.6714], [-63.6071, 9.7394], [-63.7041, 9.7467], [-63.7059, 9.6812], [-63.8263, 9.5409], [-63.8129, 9.5333], [-63.7953, 9.5331], [-63.7873, 9.5237], [-63.7718, 9.5298], [-63.7633, 9.5163], [-63.7509, 9.5151], [-63.7461, 9.5102], [-63.7332, 9.5134], [-63.7281, 9.5213], [-63.7206, 9.5098], [-63.7117, 9.5163], [-63.7047, 9.5153], [-63.6788, 9.5048], [-63.6684, 9.4946], [-63.6571, 9.4937]]]}}, {"type": "Feature", "properties": {"osm_type": "relation", "osm_id": 909464832, "name": "Libertador", "admin_level": "6", "kind": "subdivision_2", "parent_osm_id": 272670, "parent_name": "Monagas State", "parent_iso": "VE-N"}, "geometry": {"type": "Polygon", "coordinates": [[[-62.9346, 8.7742], [-62.954, 8.7507], [-62.9589, 8.7519], [-62.9701, 8.7417], [-62.9866, 8.7397], [-63.015, 8.7486], [-63.0294, 8.7445], [-63.0482, 8.6995], [-63.0487, 8.654], [-63.0412, 8.5958], [-63.0035, 8.5504], [-62.7111, 8.4477], [-62.6822, 8.6755], [-62.632, 8.8197], [-62.6647, 8.8782], [-62.6455, 8.8912], [-62.6438, 8.8976], [-62.6178, 8.9006], [-62.5829, 8.9199], [-62.5754, 8.9415], [-62.5562, 8.9676], [-62.5413, 8.9744], [-62.5253, 8.973], [-62.5038, 8.9857], [-62.4719, 8.981], [-62.4413, 9.002], [-62.4258, 8.9943], [-62.4086, 9.002], [-62.3904, 9.0255], [-62.3921, 9.0308], [-62.3832, 9.0284], [-62.3779, 9.0342], [-62.3487, 9.0369], [-62.3486, 9.0457], [-62.3588, 9.0474], [-62.3607, 9.0558], [-62.3488, 9.0653], [-62.3515, 9.0806], [-62.3378, 9.0777], [-62.3254, 9.0921], [-62.3257, 9.1086], [-62.3307, 9.1124], [-62.326, 9.1239], [-62.3304, 9.1266], [-62.3293, 9.1531], [-62.3213, 9.1716], [-62.3031, 9.1833], [-62.3049, 9.2025], [-62.311, 9.2101], [-62.3011, 9.2216], [-62.3278, 9.2569], [-62.3297, 9.2777], [-62.3238, 9.2889], [-62.3408, 9.31], [-62.3453, 9.3248], [-62.3442, 9.3306], [-62.321, 9.3514], [-62.3278, 9.3638], [-62.3609, 9.3909], [-62.4884, 9.3301], [-62.5106, 9.3082], [-62.508, 9.282], [-62.5035, 9.2771], [-62.512, 9.2716], [-62.5115, 9.2599], [-62.5226, 9.2692], [-62.5427, 9.2686], [-62.5422, 9.2518], [-62.5498, 9.2507], [-62.5533, 9.2369], [-62.5465, 9.2308], [-62.5494, 9.2227], [-62.5421, 9.2101], [-62.5443, 9.2049], [-62.5574, 9.2082], [-62.5596, 9.2051], [-62.5632, 9.2098], [-62.5728, 9.2041], [-62.5746, 9.1963], [-62.59, 9.2019], [-62.5979, 9.1915], [-62.6095, 9.1973], [-62.6153, 9.1933], [-62.6139, 9.1893], [-62.6231, 9.188], [-62.6251, 9.1957], [-62.6435, 9.2025], [-62.6503, 9.2114], [-62.6637, 9.213], [-62.6681, 9.2302], [-62.6651, 9.2326], [-62.6716, 9.2351], [-62.6752, 9.2313], [-62.6768, 9.2359], [-62.6805, 9.2322], [-62.6895, 9.238], [-62.6903, 9.2437], [-62.705, 9.2366], [-62.7111, 9.2398], [-62.7187, 9.2313], [-62.7308, 9.2353], [-62.7372, 9.2448], [-62.7683, 9.2326], [-62.7759, 9.2158], [-62.7823, 9.2148], [-62.7816, 9.2057], [-62.7893, 9.203], [-62.7978, 9.1904], [-62.7924, 9.1639], [-62.7956, 9.1548], [-62.7916, 9.1545], [-62.8066, 9.1368], [-62.8085, 9.1274], [-62.7942, 9.0965], [-62.7931, 9.0833], [-62.7778, 9.0671], [-62.7795, 9.0452], [-62.7736, 9.0375], [-62.7778, 8.9967], [-62.7955, 8.969], [-62.8094, 8.9148], [-62.8216, 8.8911], [-62.8356, 8.8827], [-62.8661, 8.8508], [-62.8833, 8.8236], [-62.912, 8.8016], [-62.9346, 8.7742]]]}}, {"type": "Feature", "properties": {"osm_type": "relation", "osm_id": 963685166, "name": "Piar", "admin_level": "6", "kind": "subdivision_2", "parent_osm_id": 272670, "parent_name": "Monagas State", "parent_iso": "VE-N"}, "geometry": {"type": "Polygon", "coordinates": [[[-63.6197, 10.0994], [-63.6314, 10.0641], [-63.618, 10.0592], [-63.6138, 10.0364], [-63.5899, 10.0166], [-63.5756, 9.9772], [-63.5772, 9.9713], [-63.5622, 9.9514], [-63.5708, 9.9339], [-63.5694, 9.9242], [-63.5436, 9.9004], [-63.5274, 9.8955], [-63.5158, 9.8858], [-63.5119, 9.8603], [-63.4956, 9.8469], [-63.4961, 9.8216], [-63.4773, 9.8168], [-63.4641, 9.7918], [-63.4316, 9.7803], [-63.4249, 9.7818], [-63.4214, 9.7769], [-63.4079, 9.7812], [-63.3951, 9.7786], [-63.3831, 9.7838], [-63.3836, 9.7877], [-63.3798, 9.785], [-63.3641, 9.7901], [-63.3544, 9.7862], [-63.3423, 9.7916], [-63.3059, 9.7848], [-63.3359, 9.8536], [-63.3156, 9.8543], [-63.2945, 9.8469], [-63.2805, 9.8487], [-63.2636, 9.8581], [-63.2264, 9.8596], [-63.2079, 9.8823], [-63.2072, 9.8961], [-63.2166, 9.8972], [-63.2207, 9.9056], [-63.2392, 9.9084], [-63.2546, 9.9244], [-63.2644, 9.9212], [-63.2767, 9.9329], [-63.295, 9.9361], [-63.2916, 10.0111], [-63.3022, 10.0257], [-63.3341, 10.0387], [-63.3255, 10.0696], [-63.3484, 10.0888], [-63.3843, 10.0832], [-63.3904, 10.0949], [-63.4042, 10.1037], [-63.4281, 10.1008], [-63.4442, 10.1055], [-63.456, 10.1014], [-63.4512, 10.1207], [-63.4573, 10.1352], [-63.4677, 10.14], [-63.5175, 10.1248], [-63.5411, 10.1247], [-63.5442, 10.1173], [-63.5592, 10.1114], [-63.5702, 10.1269], [-63.5858, 10.1086], [-63.6197, 10.0994]]]}}]}