{"type": "FeatureCollection", "parent": {"osm_id": 272662, "name": "Cojedes State", "admin_level": "4", "kind": "subdivision_1", "child_kind": "subdivision_2", "iso": "VE-H"}, "features": [{"type": "Feature", "properties": {"osm_type": "relation", "osm_id": 961700986, "name": "Anzoátegui", "admin_level": "6", "kind": "subdivision_2", "parent_osm_id": 272662, "parent_name": "Cojedes State", "parent_iso": "VE-H"}, "geometry": {"type": "Polygon", "coordinates": [[[-68.731, 9.5252], [-68.7415, 9.5559], [-68.7584, 9.5723], [-68.764, 9.5846], [-68.7929, 9.5853], [-68.8046, 9.5918], [-68.8139, 9.59], [-68.8234, 9.5972], [-68.8194, 9.6047], [-68.8207, 9.6184], [-68.8396, 9.6417], [-68.8329, 9.6558], [-68.8372, 9.664], [-68.835, 9.6783], [-68.8427, 9.6908], [-68.8368, 9.699], [-68.8374, 9.7088], [-68.8285, 9.7145], [-68.829, 9.7239], [-68.7743, 9.8335], [-68.7771, 9.8428], [-68.7598, 9.8593], [-68.7633, 9.8654], [-68.775, 9.8656], [-68.7873, 9.8592], [-68.8071, 9.8396], [-68.8287, 9.8444], [-68.8558, 9.832], [-68.8784, 9.839], [-68.9089, 9.8382], [-68.9198, 9.8465], [-68.9377, 9.8382], [-68.95, 9.848], [-68.9688, 9.8384], [-68.9767, 9.8393], [-68.981, 9.8355], [-68.9763, 9.8302], [-68.9759, 9.8198], [-68.9803, 9.8173], [-68.9756, 9.795], [-68.9781, 9.784], [-68.9872, 9.7844], [-68.9857, 9.7743], [-68.9788, 9.7683], [-68.988, 9.7581], [-68.9825, 9.749], [-68.9856, 9.7419], [-68.9813, 9.7322], [-68.9886, 9.7327], [-68.9894, 9.7177], [-68.9843, 9.7197], [-68.9777, 9.7134], [-68.9724, 9.7186], [-68.9643, 9.6907], [-68.9685, 9.6718], [-68.9632, 9.6706], [-68.9654, 9.6672], [-68.9526, 9.6561], [-68.9494, 9.6466], [-68.9473, 9.6498], [-68.9436, 9.645], [-68.9454, 9.6414], [-68.9404, 9.6374], [-68.9438, 9.6341], [-68.9391, 9.6354], [-68.9343, 9.6215], [-68.9268, 9.6166], [-68.9246, 9.5928], [-68.905, 9.5619], [-68.9107, 9.5319], [-68.895, 9.513], [-68.8948, 9.5074], [-68.9001, 9.5049], [-68.8959, 9.5005], [-68.8981, 9.4903], [-68.9048, 9.4793], [-68.8932, 9.4593], [-68.8985, 9.4358], [-68.8956, 9.4272], [-68.8907, 9.4226], [-68.7411, 9.4192], [-68.7362, 9.4341], [-68.7431, 9.4508], [-68.7371, 9.455], [-68.7368, 9.4781], [-68.7412, 9.4842], [-68.7547, 9.4867], [-68.7631, 9.4952], [-68.7755, 9.499], [-68.738, 9.5171], [-68.731, 9.5252]]]}}, {"type": "Feature", "properties": {"osm_type": "relation", "osm_id": 152143097, "name": "Lima Blanco", "admin_level": "6", "kind": "subdivision_2", "parent_osm_id": 272662, "parent_name": "Cojedes State", "parent_iso": "VE-H"}, "geometry": {"type": "Polygon", "coordinates": [[[-68.3038, 9.795], [-68.3323, 9.8001], [-68.3368, 9.7958], [-68.3413, 9.8002], [-68.3525, 9.7932], [-68.3765, 9.7954], [-68.3816, 9.82], [-68.3693, 9.8485], [-68.3988, 9.8479], [-68.4323, 9.8694], [-68.47, 9.8747], [-68.4731, 9.8848], [-68.4854, 9.8896], [-68.4813, 9.9033], [-68.4939, 9.902], [-68.5006, 9.8682], [-68.4988, 9.8553], [-68.5041, 9.8476], [-68.5093, 9.8522], [-68.5124, 9.8483], [-68.5045, 9.8302], [-68.4859, 9.827], [-68.4816, 9.8156], [-68.4635, 9.7963], [-68.4667, 9.7846], [-68.477, 9.7806], [-68.4768, 9.7679], [-68.4843, 9.7578], [-68.4815, 9.7554], [-68.4695, 9.7674], [-68.4563, 9.7596], [-68.4436, 9.768], [-68.4389, 9.7802], [-68.4302, 9.7835], [-68.383, 9.7722], [-68.379, 9.756], [-68.373, 9.7529], [-68.3621, 9.7566], [-68.3274, 9.7559], [-68.3219, 9.7705], [-68.3048, 9.7686], [-68.3038, 9.795]]]}}, {"type": "Feature", "properties": {"osm_type": "relation", "osm_id": 287186590, "name": "Pao de San Juan Bautista", "admin_level": "6", "kind": "subdivision_2", "parent_osm_id": 272662, "parent_name": "Cojedes State", "parent_iso": "VE-H"}, "geometry": {"type": "Polygon", "coordinates": [[[-68.3048, 9.7686], [-68.3092, 9.6604], [-68.1993, 9.6602], [-68.2516, 9.504], [-68.2804, 9.484], [-68.2888, 9.472], [-68.3012, 9.4683], [-68.304, 9.4481], [-68.3097, 9.4452], [-68.3155, 9.4303], [-68.3184, 9.3944], [-68.3079, 9.3827], [-68.3107, 9.3772], [-68.304, 9.3603], [-68.2947, 9.3521], [-68.2953, 9.3395], [-68.2783, 9.3261], [-68.2866, 9.3238], [-68.2903, 9.3136], [-68.3114, 9.3054], [-68.3247, 9.2922], [-68.3309, 9.2939], [-68.34, 9.3097], [-68.3455, 9.3045], [-68.3484, 9.3067], [-68.3571, 9.2956], [-68.3565, 9.2817], [-68.3435, 9.2745], [-68.3433, 9.2637], [-68.3346, 9.2632], [-68.3374, 9.2256], [-68.3279, 9.199], [-68.3356, 9.1687], [-68.3541, 9.1439], [-68.3521, 9.1228], [-68.3649, 9.0925], [-68.3752, 9.0864], [-68.3672, 9.0783], [-68.3764, 9.077], [-68.3755, 9.0693], [-68.3592, 9.0599], [-68.3504, 9.0643], [-68.3378, 9.0524], [-68.3197, 9.0525], [-68.3094, 9.042], [-68.2995, 9.0428], [-68.2829, 9.0327], [-68.2569, 9.004], [-68.2512, 8.9913], [-68.2089, 8.9574], [-68.1965, 8.9546], [-68.1232, 8.9649], [-68.1007, 8.9476], [-68.0646, 8.9295], [-68.0394, 8.9048], [-68.0244, 8.883], [-68.0302, 8.8792], [-68.0295, 8.8631], [-68.044, 8.8626], [-68.0586, 8.8557], [-68.0558, 8.8473], [-68.0596, 8.8372], [-68.0559, 8.8322], [-68.06, 8.8194], [-68.0525, 8.8162], [-68.0549, 8.8007], [-68.0581, 8.8027], [-68.0621, 8.7925], [-68.0744, 8.7873], [-68.0734, 8.7821], [-68.0781, 8.7837], [-68.0742, 8.7668], [-68.0808, 8.7681], [-68.0797, 8.7615], [-68.0846, 8.7644], [-68.0856, 8.7582], [-68.1, 8.7573], [-68.1022, 8.7518], [-68.0945, 8.7474], [-68.0956, 8.7418], [-68.0851, 8.7225], [-68.0712, 8.7252], [-68.0749, 8.7146], [-68.067, 8.7156], [-68.0654, 8.7097], [-68.0601, 8.7105], [-68.0564, 8.6998], [-68.0619, 8.6977], [-68.0616, 8.6909], [-68.0546, 8.6796], [-68.0504, 8.6769], [-68.0433, 8.6808], [-68.0343, 8.6744], [-68.0255, 8.6771], [-68.0238, 8.6713], [-68.0288, 8.6659], [-68.0232, 8.6571], [-68.0291, 8.6536], [-68.0278, 8.6458], [-68.0226, 8.6445], [-68.0223, 8.6373], [-68.0098, 8.6337], [-68.0037, 8.6507], [-68.0102, 8.6505], [-68.0185, 8.6603], [-68.0124, 8.6689], [-68.0207, 8.6828], [-68.0125, 8.6833], [-68.0037, 8.6957], [-68.0196, 8.6977], [-68.0133, 8.7043], [-68.0153, 8.7102], [-68.0211, 8.7103], [-68.0181, 8.7153], [-68.022, 8.717], [-68.0216, 8.7274], [-68.027, 8.7239], [-68.0326, 8.7266], [-68.0283, 8.7383], [-68.0225, 8.7392], [-68.0185, 8.7318], [-68.0084, 8.7422], [-68.0191, 8.7443], [-68.0155, 8.7496], [-68.0193, 8.7562], [-68.0272, 8.7562], [-68.0239, 8.7592], [-68.0281, 8.7642], [-68.0158, 8.7633], [-68.0115, 8.7716], [-68.0159, 8.7715], [-68.0152, 8.7755], [-68.0088, 8.7878], [-68.0037, 8.7889], [-68.0075, 8.791], [-67.9961, 8.7999], [-67.9955, 8.8234], [-67.9877, 8.828], [-67.992, 8.8354], [-67.9792, 8.8416], [-67.9727, 8.8533], [-67.9742, 8.8602], [-67.9691, 8.8617], [-67.9655, 8.878], [-67.9785, 8.8796], [-67.9825, 8.8934], [-67.9782, 8.9181], [-67.9525, 8.9321], [-67.9452, 8.9273], [-67.9306, 8.932], [-67.9215, 8.9413], [-67.9084, 8.9616], [-67.9017, 8.9946], [-67.8659, 9.0472], [-67.8509, 9.0898], [-67.8635, 9.1066], [-67.8569, 9.1186], [-67.8624, 9.1409], [-67.8605, 9.1552], [-67.8746, 9.1789], [-67.8781, 9.2193], [-67.8864, 9.2423], [-67.8982, 9.2442], [-67.9055, 9.2649], [-67.9172, 9.2763], [-67.9142, 9.2799], [-67.9369, 9.2971], [-67.9415, 9.3042], [-67.9393, 9.3129], [-67.9468, 9.3164], [-67.9422, 9.334], [-67.9234, 9.3511], [-67.9274, 9.357], [-67.9221, 9.3672], [-67.9241, 9.3789], [-67.9194, 9.3841], [-67.9229, 9.3846], [-67.9228, 9.3946], [-67.917, 9.3973], [-67.9161, 9.4091], [-67.9222, 9.418], [-67.9211, 9.4374], [-67.9272, 9.4446], [-67.9271, 9.4523], [-67.922, 9.4515], [-67.9273, 9.4551], [-67.9285, 9.4777], [-67.9554, 9.4952], [-67.9565, 9.508], [-67.9638, 9.5113], [-67.9595, 9.5277], [-67.9703, 9.5263], [-67.9744, 9.5383], [-67.9372, 9.5506], [-67.9414, 9.5572], [-67.9288, 9.5595], [-67.9372, 9.5739], [-67.9405, 9.5973], [-67.9273, 9.5982], [-67.9182, 9.6132], [-67.8953, 9.6174], [-67.8895, 9.6159], [-67.885, 9.6072], [-67.8756, 9.614], [-67.8526, 9.6163], [-67.8392, 9.6253], [-67.8289, 9.6225], [-67.8274, 9.6273], [-67.8168, 9.6283], [-67.8185, 9.6359], [-67.8084, 9.6477], [-67.789, 9.6535], [-67.78, 9.6656], [-67.7564, 9.6791], [-67.7539, 9.6986], [-67.7641, 9.7138], [-67.7582, 9.7197], [-67.7698, 9.7396], [-67.7629, 9.7571], [-67.7838, 9.7607], [-67.7982, 9.7786], [-67.7976, 9.7991], [-67.8036, 9.8167], [-67.7987, 9.8291], [-67.8072, 9.8461], [-67.8349, 9.8323], [-67.8638, 9.8358], [-67.8786, 9.8316], [-67.9196, 9.8086], [-67.9583, 9.8275], [-67.9793, 9.8241], [-68.0073, 9.8284], [-68.0172, 9.8454], [-68.0039, 9.8587], [-68.0069, 9.8783], [-68.0281, 9.8603], [-68.0551, 9.8584], [-68.0668, 9.849], [-68.098, 9.8369], [-68.1194, 9.8389], [-68.1302, 9.8592], [-68.1387, 9.8491], [-68.1372, 9.8387], [-68.1491, 9.8258], [-68.1376, 9.814], [-68.1315, 9.8153], [-68.1249, 9.8083], [-68.127, 9.8056], [-68.2512, 9.807], [-68.3038, 9.795], [-68.3048, 9.7686]]]}}, {"type": "Feature", "properties": {"osm_type": "relation", "osm_id": 262866461, "name": "Ricaurte", "admin_level": "6", "kind": "subdivision_2", "parent_osm_id": 272662, "parent_name": "Cojedes State", "parent_iso": "VE-H"}, "geometry": {"type": "Polygon", "coordinates": [[[-68.8907, 9.4226], [-68.8892, 9.4005], [-68.8825, 9.4018], [-68.883, 9.3969], [-68.8779, 9.4043], [-68.8673, 9.4057], [-68.8636, 9.3979], [-68.8696, 9.3892], [-68.86, 9.382], [-68.8587, 9.3741], [-68.816, 9.3439], [-68.8018, 9.3412], [-68.7978, 9.3332], [-68.7903, 9.3344], [-68.7873, 9.327], [-68.7912, 9.3231], [-68.7864, 9.3175], [-68.784, 9.3199], [-68.7841, 9.3129], [-68.7803, 9.317], [-68.7806, 9.3118], [-68.7711, 9.3099], [-68.7715, 9.3041], [-68.7658, 9.3067], [-68.7632, 9.2969], [-68.7661, 9.2903], [-68.7794, 9.2853], [-68.7755, 9.2744], [-68.7804, 9.2713], [-68.7704, 9.2688], [-68.7685, 9.2738], [-68.7644, 9.267], [-68.7503, 9.2649], [-68.7456, 9.2566], [-68.7294, 9.2586], [-68.7289, 9.2498], [-68.7108, 9.2487], [-68.7073, 9.2426], [-68.6953, 9.2448], [-68.6959, 9.2374], [-68.6889, 9.2333], [-68.6858, 9.2388], [-68.6823, 9.231], [-68.6697, 9.2273], [-68.671, 9.2222], [-68.6661, 9.2182], [-68.6608, 9.228], [-68.6572, 9.223], [-68.6513, 9.2255], [-68.6463, 9.2128], [-68.6355, 9.2199], [-68.6335, 9.2141], [-68.6242, 9.2122], [-68.615, 9.1907], [-68.5974, 9.178], [-68.5969, 9.1703], [-68.5861, 9.1752], [-68.5859, 9.1653], [-68.5741, 9.1681], [-68.5793, 9.1526], [-68.5693, 9.1442], [-68.5649, 9.1314], [-68.5684, 9.124], [-68.5636, 9.1233], [-68.5642, 9.1178], [-68.5702, 9.1144], [-68.5665, 9.1111], [-68.569, 9.1074], [-68.5604, 9.107], [-68.5641, 9.1028], [-68.5523, 9.1071], [-68.5505, 9.112], [-68.5463, 9.1073], [-68.5451, 9.1139], [-68.5402, 9.1017], [-68.5271, 9.0966], [-68.5308, 9.0897], [-68.5162, 9.0924], [-68.5114, 9.0892], [-68.5122, 9.0819], [-68.5074, 9.0832], [-68.5074, 9.0743], [-68.502, 9.0746], [-68.502, 9.0804], [-68.4961, 9.0769], [-68.4966, 9.0666], [-68.4903, 9.0656], [-68.4947, 9.0591], [-68.4809, 9.0587], [-68.4789, 9.0626], [-68.4727, 9.0532], [-68.4721, 9.0565], [-68.3968, 9.0553], [-68.4375, 9.0955], [-68.4409, 9.1253], [-68.4341, 9.1332], [-68.444, 9.1791], [-68.4644, 9.1922], [-68.4691, 9.2109], [-68.475, 9.2159], [-68.4826, 9.2152], [-68.487, 9.2299], [-68.496, 9.2286], [-68.4957, 9.2351], [-68.5099, 9.2438], [-68.512, 9.2556], [-68.5192, 9.2643], [-68.5063, 9.2739], [-68.5093, 9.2801], [-68.5239, 9.2975], [-68.5374, 9.2972], [-68.5516, 9.3063], [-68.5516, 9.3177], [-68.5655, 9.3209], [-68.5685, 9.3308], [-68.5787, 9.3354], [-68.5812, 9.345], [-68.5851, 9.3434], [-68.5881, 9.3637], [-68.6252, 9.3947], [-68.6202, 9.4163], [-68.6306, 9.4319], [-68.6544, 9.4333], [-68.6653, 9.4718], [-68.6691, 9.5118], [-68.6603, 9.5218], [-68.6622, 9.5293], [-68.6562, 9.5431], [-68.6684, 9.5534], [-68.6879, 9.5418], [-68.6944, 9.5433], [-68.6978, 9.5364], [-68.7194, 9.5345], [-68.738, 9.5171], [-68.7746, 9.5016], [-68.7728, 9.4964], [-68.7412, 9.4842], [-68.7368, 9.4781], [-68.7371, 9.455], [-68.7431, 9.4508], [-68.7362, 9.4341], [-68.7411, 9.4192], [-68.8907, 9.4226]]]}}, {"type": "Feature", "properties": {"osm_type": "relation", "osm_id": 866888956, "name": "San Carlos", "admin_level": "6", "kind": "subdivision_2", "parent_osm_id": 272662, "parent_name": "Cojedes State", "parent_iso": "VE-H"}, "geometry": {"type": "Polygon", "coordinates": [[[-68.731, 9.5252], [-68.7194, 9.5345], [-68.6978, 9.5364], [-68.6944, 9.5433], [-68.6879, 9.5418], [-68.6684, 9.5534], [-68.6562, 9.5431], [-68.6528, 9.546], [-68.651, 9.5547], [-68.6378, 9.5658], [-68.6427, 9.5668], [-68.6384, 9.5809], [-68.6461, 9.5897], [-68.6427, 9.5939], [-68.6471, 9.5995], [-68.6367, 9.611], [-68.6321, 9.6101], [-68.6325, 9.6144], [-68.5921, 9.5578], [-68.5272, 9.5175], [-68.4771, 9.5665], [-68.4952, 9.5864], [-68.5011, 9.5994], [-68.5, 9.6148], [-68.5143, 9.6262], [-68.5167, 9.6363], [-68.5084, 9.6439], [-68.5056, 9.6644], [-68.5201, 9.6816], [-68.5184, 9.6931], [-68.5114, 9.6968], [-68.4985, 9.7573], [-68.4815, 9.7599], [-68.477, 9.7806], [-68.4667, 9.7846], [-68.4635, 9.7963], [-68.4816, 9.8156], [-68.4859, 9.827], [-68.5045, 9.8302], [-68.5106, 9.8414], [-68.5116, 9.8508], [-68.5041, 9.8476], [-68.4988, 9.8553], [-68.4949, 9.8999], [-68.5191, 9.8833], [-68.5265, 9.8924], [-68.5403, 9.8836], [-68.5372, 9.9096], [-68.5283, 9.9201], [-68.5335, 9.9339], [-68.5487, 9.9273], [-68.5811, 9.9317], [-68.6013, 9.9268], [-68.612, 9.9377], [-68.6152, 9.9643], [-68.6416, 9.9596], [-68.6542, 9.9705], [-68.6634, 9.9721], [-68.6897, 9.9487], [-68.7189, 9.9359], [-68.7249, 9.8998], [-68.7166, 9.8919], [-68.7187, 9.8858], [-68.7328, 9.8723], [-68.7633, 9.8654], [-68.7598, 9.8593], [-68.7771, 9.8428], [-68.7743, 9.8335], [-68.829, 9.7239], [-68.8285, 9.7145], [-68.8374, 9.7088], [-68.8368, 9.699], [-68.8417, 9.6953], [-68.8329, 9.6558], [-68.8396, 9.6417], [-68.8207, 9.6184], [-68.8194, 9.6047], [-68.8234, 9.5972], [-68.8139, 9.59], [-68.8046, 9.5918], [-68.7929, 9.5853], [-68.764, 9.5846], [-68.7584, 9.5723], [-68.7415, 9.5559], [-68.731, 9.5252]]]}}, {"type": "Feature", "properties": {"osm_type": "relation", "osm_id": 625709948, "name": "Tinaco", "admin_level": "6", "kind": "subdivision_2", "parent_osm_id": 272662, "parent_name": "Cojedes State", "parent_iso": "VE-H"}, "geometry": {"type": "Polygon", "coordinates": [[[-68.4843, 9.7578], [-68.4985, 9.7573], [-68.5114, 9.6968], [-68.5184, 9.6931], [-68.5201, 9.6816], [-68.5056, 9.6644], [-68.5084, 9.6439], [-68.5167, 9.6363], [-68.5124, 9.6231], [-68.5, 9.6148], [-68.5011, 9.5994], [-68.4952, 9.5864], [-68.4725, 9.5623], [-68.4395, 9.5604], [-68.4364, 9.5527], [-68.4289, 9.5497], [-68.3828, 9.5482], [-68.3645, 9.5352], [-68.3739, 9.5185], [-68.3663, 9.5061], [-68.3708, 9.5019], [-68.3671, 9.4892], [-68.3797, 9.4856], [-68.3798, 9.4803], [-68.3933, 9.4673], [-68.3896, 9.4602], [-68.3937, 9.4371], [-68.4085, 9.4125], [-68.3988, 9.4011], [-68.4002, 9.3853], [-68.3943, 9.3783], [-68.4011, 9.3469], [-68.4091, 9.3399], [-68.4015, 9.3234], [-68.408, 9.3099], [-68.4063, 9.3025], [-68.4271, 9.2608], [-68.4213, 9.2517], [-68.4245, 9.2475], [-68.4195, 9.2465], [-68.4224, 9.21], [-68.4183, 9.2071], [-68.4148, 9.2102], [-68.4101, 9.2035], [-68.4129, 9.1988], [-68.4028, 9.1926], [-68.4104, 9.1864], [-68.4051, 9.1881], [-68.3896, 9.1788], [-68.3889, 9.1634], [-68.3741, 9.1488], [-68.3742, 9.1356], [-68.3681, 9.1341], [-68.3631, 9.1248], [-68.3632, 9.1176], [-68.374, 9.1109], [-68.381, 9.0987], [-68.3771, 9.0933], [-68.3818, 9.0885], [-68.3752, 9.0914], [-68.3731, 9.0877], [-68.3649, 9.0925], [-68.3571, 9.108], [-68.3521, 9.1228], [-68.3541, 9.1439], [-68.3356, 9.1687], [-68.3279, 9.199], [-68.3374, 9.2256], [-68.3346, 9.2632], [-68.3433, 9.2637], [-68.3435, 9.2745], [-68.3565, 9.2817], [-68.3571, 9.2956], [-68.3484, 9.3067], [-68.3455, 9.3045], [-68.34, 9.3097], [-68.3309, 9.2939], [-68.3247, 9.2922], [-68.3114, 9.3054], [-68.2903, 9.3136], [-68.2866, 9.3238], [-68.2783, 9.3261], [-68.2953, 9.3395], [-68.2947, 9.3521], [-68.304, 9.3603], [-68.3107, 9.3772], [-68.3079, 9.3827], [-68.3184, 9.3944], [-68.3155, 9.4303], [-68.3097, 9.4452], [-68.304, 9.4481], [-68.3012, 9.4683], [-68.2888, 9.472], [-68.2804, 9.484], [-68.2516, 9.504], [-68.1993, 9.6602], [-68.3092, 9.6604], [-68.3048, 9.7686], [-68.3079, 9.7708], [-68.3219, 9.7705], [-68.3274, 9.7559], [-68.3621, 9.7566], [-68.373, 9.7529], [-68.379, 9.756], [-68.383, 9.7722], [-68.4302, 9.7835], [-68.4389, 9.7802], [-68.4436, 9.768], [-68.4563, 9.7596], [-68.4695, 9.7674], [-68.4793, 9.7555], [-68.4843, 9.7578]]]}}, {"type": "Feature", "properties": {"osm_type": "relation", "osm_id": 751867883, "name": "Falcón", "admin_level": "6", "kind": "subdivision_2", "parent_osm_id": 272662, "parent_name": "Cojedes State", "parent_iso": "VE-H"}, "geometry": {"type": "Polygon", "coordinates": [[[-68.3433, 10.0244], [-68.3377, 10.0085], [-68.3446, 9.9977], [-68.3738, 9.987], [-68.3959, 9.9637], [-68.407, 9.965], [-68.41, 9.9527], [-68.422, 9.9491], [-68.4342, 9.9353], [-68.4895, 9.9071], [-68.4813, 9.9033], [-68.4854, 9.8896], [-68.4824, 9.8858], [-68.4731, 9.8848], [-68.47, 9.8747], [-68.4323, 9.8694], [-68.3988, 9.8479], [-68.3693, 9.8485], [-68.382, 9.8118], [-68.3765, 9.7954], [-68.3705, 9.7934], [-68.3454, 9.7948], [-68.3413, 9.8002], [-68.3368, 9.7958], [-68.3323, 9.8001], [-68.3038, 9.795], [-68.2512, 9.807], [-68.127, 9.8056], [-68.1249, 9.8083], [-68.1315, 9.8153], [-68.1376, 9.814], [-68.1491, 9.8258], [-68.1372, 9.8387], [-68.1387, 9.8491], [-68.1302, 9.8592], [-68.148, 9.9145], [-68.1664, 9.9179], [-68.1724, 9.9347], [-68.1863, 9.941], [-68.2074, 9.9366], [-68.2089, 9.9504], [-68.2116, 9.9483], [-68.2191, 9.9557], [-68.2161, 9.9624], [-68.2422, 9.9627], [-68.2505, 9.9777], [-68.2529, 10.0047], [-68.2471, 10.0225], [-68.2411, 10.0232], [-68.2264, 10.0419], [-68.2209, 10.0412], [-68.203, 10.0585], [-68.2086, 10.0582], [-68.2143, 10.07], [-68.2403, 10.0818], [-68.2662, 10.0617], [-68.2768, 10.0612], [-68.2911, 10.069], [-68.2948, 10.0594], [-68.3159, 10.0466], [-68.3257, 10.0302], [-68.3433, 10.0244]]]}}, {"type": "Feature", "properties": {"osm_type": "relation", "osm_id": 542536721, "name": "Girardot", "admin_level": "6", "kind": "subdivision_2", "parent_osm_id": 272662, "parent_name": "Cojedes State", "parent_iso": "VE-H"}, "geometry": {"type": "Polygon", "coordinates": [[[-68.5325, 8.5956], [-68.5143, 8.6018], [-68.5078, 8.5962], [-68.4969, 8.5995], [-68.4898, 8.5941], [-68.4771, 8.5951], [-68.4687, 8.6057], [-68.4554, 8.5998], [-68.4445, 8.6037], [-68.4243, 8.5902], [-68.4176, 8.5975], [-68.3889, 8.6029], [-68.3816, 8.6107], [-68.3627, 8.6008], [-68.351, 8.6027], [-68.3321, 8.5901], [-68.3263, 8.5912], [-68.3251, 8.6031], [-68.3115, 8.6057], [-68.2998, 8.5951], [-68.3004, 8.5898], [-68.2829, 8.5839], [-68.2659, 8.5919], [-68.2639, 8.6], [-68.2485, 8.597], [-68.2344, 8.5866], [-68.2075, 8.6014], [-68.1989, 8.5961], [-68.1866, 8.6014], [-68.1804, 8.5974], [-68.1637, 8.6007], [-68.1592, 8.5956], [-68.1411, 8.597], [-68.1364, 8.5913], [-68.1276, 8.599], [-68.119, 8.5924], [-68.1149, 8.601], [-68.1082, 8.5954], [-68.1103, 8.5891], [-68.1002, 8.5897], [-68.1038, 8.5829], [-68.0885, 8.5857], [-68.0914, 8.5751], [-68.0807, 8.5801], [-68.0706, 8.5685], [-68.055, 8.5744], [-68.0584, 8.5614], [-68.0511, 8.5576], [-68.0553, 8.5502], [-68.0535, 8.5355], [-68.0473, 8.5311], [-68.0336, 8.53], [-68.03, 8.5348], [-68.0239, 8.5313], [-68.0242, 8.5377], [-68.0163, 8.5383], [-68.0174, 8.546], [-68.0114, 8.5478], [-68.0151, 8.5583], [-68.0061, 8.5505], [-67.9984, 8.555], [-68.0036, 8.5561], [-67.9972, 8.5763], [-68.0022, 8.5813], [-68.0118, 8.5713], [-68.016, 8.5721], [-68.009, 8.5905], [-68.0126, 8.5851], [-68.0214, 8.5912], [-68.0149, 8.5937], [-68.0188, 8.6], [-68.012, 8.6055], [-68.0181, 8.6054], [-68.0143, 8.6106], [-68.0204, 8.62], [-68.0046, 8.6312], [-68.0223, 8.6373], [-68.0226, 8.6445], [-68.0278, 8.6458], [-68.0291, 8.6536], [-68.0232, 8.6571], [-68.0288, 8.6659], [-68.0238, 8.6713], [-68.0255, 8.6771], [-68.0343, 8.6744], [-68.0433, 8.6808], [-68.0504, 8.6769], [-68.0546, 8.6796], [-68.0616, 8.6909], [-68.0619, 8.6977], [-68.0564, 8.6998], [-68.0601, 8.7105], [-68.0654, 8.7097], [-68.067, 8.7156], [-68.0749, 8.7146], [-68.0712, 8.7252], [-68.0851, 8.7225], [-68.0956, 8.7418], [-68.0945, 8.7474], [-68.1022, 8.7518], [-68.1, 8.7573], [-68.0856, 8.7582], [-68.0846, 8.7644], [-68.0797, 8.7615], [-68.0808, 8.7681], [-68.0742, 8.7668], [-68.0781, 8.7837], [-68.0734, 8.7821], [-68.0744, 8.7873], [-68.0573, 8.7973], [-68.0528, 8.8099], [-68.0525, 8.8162], [-68.06, 8.8194], [-68.0559, 8.8322], [-68.0596, 8.8372], [-68.0558, 8.8473], [-68.0586, 8.8557], [-68.044, 8.8626], [-68.0295, 8.8631], [-68.0302, 8.8792], [-68.0244, 8.883], [-68.0559, 8.9226], [-68.1232, 8.9649], [-68.1965, 8.9546], [-68.2089, 8.9574], [-68.2512, 8.9913], [-68.2569, 9.004], [-68.2829, 9.0327], [-68.2995, 9.0428], [-68.3094, 9.042], [-68.3197, 9.0525], [-68.3378, 9.0524], [-68.3504, 9.0643], [-68.3694, 9.0564], [-68.3736, 9.0637], [-68.3851, 9.0676], [-68.3853, 9.0626], [-68.3968, 9.0553], [-68.4721, 9.0565], [-68.4727, 9.0532], [-68.4789, 9.0626], [-68.4809, 9.0587], [-68.4947, 9.0591], [-68.4903, 9.0656], [-68.4966, 9.0666], [-68.4961, 9.0769], [-68.502, 9.0804], [-68.502, 9.0746], [-68.5074, 9.0743], [-68.5074, 9.0832], [-68.5122, 9.0819], [-68.5114, 9.0892], [-68.5162, 9.0924], [-68.5308, 9.0897], [-68.5271, 9.0966], [-68.5402, 9.1017], [-68.5451, 9.1139], [-68.5463, 9.1073], [-68.5505, 9.112], [-68.5612, 9.1017], [-68.5645, 9.1047], [-68.5604, 9.107], [-68.569, 9.1074], [-68.5665, 9.1111], [-68.5702, 9.1144], [-68.5661, 9.1147], [-68.5636, 9.1233], [-68.5684, 9.124], [-68.5649, 9.1314], [-68.5693, 9.1442], [-68.5793, 9.1526], [-68.5741, 9.1681], [-68.5859, 9.1653], [-68.5861, 9.1752], [-68.5969, 9.1703], [-68.5974, 9.178], [-68.615, 9.1907], [-68.6176, 9.2023], [-68.63, 9.2145], [-68.6626, 8.9833], [-68.6564, 8.967], [-68.6592, 8.9592], [-68.6339, 8.9441], [-68.6338, 8.9354], [-68.622, 8.9256], [-68.6235, 8.9085], [-68.6179, 8.8941], [-68.6126, 8.8966], [-68.604, 8.8897], [-68.6073, 8.8827], [-68.597, 8.8822], [-68.5999, 8.8738], [-68.59, 8.8739], [-68.5869, 8.8618], [-68.578, 8.8579], [-68.5789, 8.8489], [-68.5494, 8.8376], [-68.5593, 8.8252], [-68.5866, 8.8138], [-68.6, 8.815], [-68.6099, 8.8221], [-68.6121, 8.8129], [-68.6211, 8.8145], [-68.624, 8.8], [-68.6425, 8.7924], [-68.6454, 8.774], [-68.6573, 8.7742], [-68.6603, 8.7672], [-68.6885, 8.7586], [-68.6915, 8.7459], [-68.6987, 8.7407], [-68.7128, 8.7413], [-68.7262, 8.7335], [-68.729, 8.7427], [-68.7362, 8.7419], [-68.7362, 8.7363], [-68.7257, 8.7263], [-68.7285, 8.722], [-68.7169, 8.7217], [-68.7237, 8.7164], [-68.7161, 8.7042], [-68.699, 8.6959], [-68.6883, 8.6949], [-68.674, 8.7056], [-68.6592, 8.7091], [-68.6508, 8.7008], [-68.6541, 8.6939], [-68.648, 8.6885], [-68.6494, 8.6659], [-68.635, 8.6583], [-68.6363, 8.6472], [-68.6478, 8.6399], [-68.6439, 8.6322], [-68.6343, 8.6353], [-68.6011, 8.6243], [-68.5966, 8.6256], [-68.5965, 8.6328], [-68.5865, 8.6348], [-68.5812, 8.6313], [-68.5832, 8.6209], [-68.5757, 8.6125], [-68.5623, 8.6161], [-68.549, 8.6103], [-68.549, 8.6039], [-68.542, 8.5984], [-68.5325, 8.5956]]]}}, {"type": "Feature", "properties": {"osm_type": "relation", "osm_id": 241779234, "name": "Rómulo Gallegos", "admin_level": "6", "kind": "subdivision_2", "parent_osm_id": 272662, "parent_name": "Cojedes State", "parent_iso": "VE-H"}, "geometry": {"type": "Polygon", "coordinates": [[[-68.3731, 9.0877], [-68.3752, 9.0914], [-68.3818, 9.0885], [-68.3771, 9.0933], [-68.381, 9.0987], [-68.374, 9.1109], [-68.3632, 9.1176], [-68.3631, 9.1248], [-68.3681, 9.1341], [-68.3742, 9.1356], [-68.3741, 9.1488], [-68.3889, 9.1634], [-68.3896, 9.1788], [-68.4051, 9.1881], [-68.4104, 9.1864], [-68.4028, 9.1926], [-68.4129, 9.1988], [-68.4101, 9.2035], [-68.4148, 9.2102], [-68.4183, 9.2071], [-68.4224, 9.21], [-68.4195, 9.2465], [-68.4245, 9.2475], [-68.4213, 9.2517], [-68.4271, 9.2608], [-68.4063, 9.3025], [-68.408, 9.3099], [-68.4015, 9.3234], [-68.4091, 9.3399], [-68.4011, 9.3469], [-68.3943, 9.3783], [-68.4002, 9.3853], [-68.3988, 9.4011], [-68.4085, 9.4125], [-68.3937, 9.4371], [-68.3896, 9.4602], [-68.3933, 9.4673], [-68.3798, 9.4803], [-68.3797, 9.4856], [-68.3671, 9.4892], [-68.3708, 9.5019], [-68.3663, 9.5061], [-68.3739, 9.5185], [-68.3645, 9.5352], [-68.3828, 9.5482], [-68.4289, 9.5497], [-68.4364, 9.5527], [-68.4395, 9.5604], [-68.4725, 9.5623], [-68.4771, 9.5665], [-68.5272, 9.5175], [-68.5921, 9.5578], [-68.6325, 9.6144], [-68.6321, 9.6101], [-68.6367, 9.611], [-68.6479, 9.5967], [-68.6384, 9.5809], [-68.6427, 9.5668], [-68.6378, 9.5658], [-68.654, 9.5495], [-68.6622, 9.5293], [-68.6603, 9.5218], [-68.6691, 9.5118], [-68.6653, 9.4718], [-68.6544, 9.4333], [-68.6306, 9.4319], [-68.6202, 9.4163], [-68.6252, 9.3947], [-68.5881, 9.3637], [-68.5851, 9.3434], [-68.5812, 9.345], [-68.5787, 9.3354], [-68.5685, 9.3308], [-68.5655, 9.3209], [-68.5516, 9.3177], [-68.5516, 9.3063], [-68.5374, 9.2972], [-68.5239, 9.2975], [-68.5158, 9.2892], [-68.5063, 9.2739], [-68.5192, 9.2643], [-68.512, 9.2556], [-68.5099, 9.2438], [-68.4957, 9.2351], [-68.496, 9.2286], [-68.487, 9.2299], [-68.4826, 9.2152], [-68.475, 9.2159], [-68.4691, 9.2109], [-68.4644, 9.1922], [-68.444, 9.1791], [-68.4341, 9.1332], [-68.4409, 9.1253], [-68.4375, 9.0955], [-68.3968, 9.0553], [-68.3853, 9.0626], [-68.3851, 9.0676], [-68.3736, 9.0637], [-68.3694, 9.0564], [-68.3592, 9.0599], [-68.3755, 9.0693], [-68.3764, 9.077], [-68.3672, 9.0783], [-68.3755, 9.0839], [-68.3731, 9.0877]]]}}]}