{"type": "FeatureCollection", "parent": {"osm_id": 272663, "name": "Guarico State", "admin_level": "4", "kind": "subdivision_1", "child_kind": "subdivision_2", "iso": "VE-J"}, "features": [{"type": "Feature", "properties": {"osm_type": "relation", "osm_id": 230848621, "name": "Camaguán", "admin_level": "6", "kind": "subdivision_2", "parent_osm_id": 272663, "parent_name": "Guarico State", "parent_iso": "VE-J"}, "geometry": {"type": "Polygon", "coordinates": [[[-67.4974, 7.8982], [-67.461, 7.895], [-67.4376, 7.8814], [-67.4255, 7.8892], [-67.4164, 7.9045], [-67.4017, 7.9082], [-67.398, 7.9046], [-67.3974, 7.9114], [-67.3829, 7.8961], [-67.3774, 7.8971], [-67.3799, 7.9132], [-67.366, 7.9247], [-67.3648, 7.9415], [-67.3698, 7.9464], [-67.3633, 7.9457], [-67.3603, 7.9516], [-67.3615, 7.9568], [-67.3723, 7.9588], [-67.3764, 7.9661], [-67.3781, 7.9625], [-67.3868, 7.9649], [-67.395, 7.9777], [-67.3932, 7.9884], [-67.4031, 7.997], [-67.434, 8.003], [-67.4331, 8.0162], [-67.4256, 8.0257], [-67.4294, 8.0349], [-67.4187, 8.0529], [-67.4181, 8.0653], [-67.4328, 8.0704], [-67.4327, 8.0776], [-67.4462, 8.0792], [-67.463, 8.0964], [-67.4624, 8.116], [-67.4775, 8.1175], [-67.4716, 8.1115], [-67.475, 8.1084], [-67.4811, 8.1183], [-67.4772, 8.1232], [-67.4804, 8.127], [-67.4725, 8.1336], [-67.4753, 8.1393], [-67.4567, 8.1492], [-67.4472, 8.1675], [-67.4336, 8.173], [-67.4317, 8.1852], [-67.4191, 8.1844], [-67.4199, 8.1962], [-67.4072, 8.2011], [-67.4186, 8.2076], [-67.4051, 8.2211], [-67.4061, 8.2315], [-67.4108, 8.236], [-67.4194, 8.2282], [-67.4289, 8.2565], [-67.4388, 8.2582], [-67.4369, 8.2619], [-67.433, 8.2582], [-67.4153, 8.2588], [-67.414, 8.2644], [-67.4288, 8.2719], [-67.4336, 8.301], [-67.4206, 8.3038], [-67.4101, 8.32], [-67.4168, 8.3266], [-67.4164, 8.3332], [-67.4057, 8.3287], [-67.4017, 8.3365], [-67.4053, 8.3428], [-67.4142, 8.3399], [-67.4193, 8.3525], [-67.435, 8.3417], [-67.4419, 8.3468], [-67.4369, 8.3518], [-67.4385, 8.3596], [-67.4509, 8.3482], [-67.4665, 8.3539], [-67.4656, 8.3603], [-67.4606, 8.3555], [-67.4549, 8.3575], [-67.4593, 8.3656], [-67.4718, 8.3689], [-67.4672, 8.382], [-67.489, 8.3775], [-67.4832, 8.384], [-67.4895, 8.3812], [-67.486, 8.3901], [-67.495, 8.3913], [-67.4829, 8.3964], [-67.4813, 8.4023], [-67.4998, 8.401], [-67.501, 8.4053], [-67.4904, 8.407], [-67.4935, 8.419], [-67.5016, 8.4137], [-67.5028, 8.4177], [-67.5157, 8.4189], [-67.5206, 8.4271], [-67.5199, 8.4377], [-67.8367, 8.2865], [-67.8297, 8.2738], [-67.834, 8.2551], [-67.8227, 8.2532], [-67.8132, 8.2586], [-67.798, 8.2502], [-67.7938, 8.2542], [-67.7957, 8.2659], [-67.7892, 8.2656], [-67.7728, 8.2144], [-67.7613, 8.2151], [-67.7518, 8.2281], [-67.7137, 8.2245], [-67.7092, 8.2233], [-67.6984, 8.1987], [-67.6827, 8.1975], [-67.6806, 8.1837], [-67.6689, 8.1771], [-67.6768, 8.1474], [-67.6667, 8.1461], [-67.6644, 8.1331], [-67.6306, 8.1172], [-67.6196, 8.0972], [-67.6212, 8.0893], [-67.6319, 8.0853], [-67.6158, 8.0833], [-67.6118, 8.0972], [-67.6055, 8.0876], [-67.5883, 8.0857], [-67.5782, 8.0727], [-67.5818, 8.0561], [-67.5894, 8.0486], [-67.577, 8.0406], [-67.5871, 8.0375], [-67.5988, 8.0458], [-67.604, 8.044], [-67.6059, 8.0353], [-67.5907, 8.0308], [-67.5963, 8.0224], [-67.5882, 8.0207], [-67.5883, 8.014], [-67.581, 8.0191], [-67.5733, 8.003], [-67.5635, 8.0066], [-67.5625, 7.9966], [-67.5749, 7.9866], [-67.555, 7.9778], [-67.5585, 7.9625], [-67.5493, 7.9716], [-67.5389, 7.9665], [-67.5341, 7.9721], [-67.5227, 7.9727], [-67.5081, 7.9634], [-67.5052, 7.9567], [-67.5086, 7.9513], [-67.5467, 7.9388], [-67.5293, 7.9292], [-67.5196, 7.9056], [-67.4974, 7.8982]]]}}, {"type": "Feature", "properties": {"osm_type": "relation", "osm_id": 972392546, "name": "Chaguaramas", "admin_level": "6", "kind": "subdivision_2", "parent_osm_id": 272663, "parent_name": "Guarico State", "parent_iso": "VE-J"}, "geometry": {"type": "Polygon", "coordinates": [[[-66.0008, 9.6089], [-66.0209, 9.6258], [-66.0407, 9.6276], [-66.0579, 9.6363], [-66.0582, 9.6417], [-66.0816, 9.6629], [-66.0774, 9.6739], [-66.0885, 9.6865], [-66.0905, 9.6988], [-66.107, 9.7075], [-66.1094, 9.6906], [-66.1235, 9.6662], [-66.114, 9.6479], [-66.1407, 9.6443], [-66.1501, 9.6268], [-66.1639, 9.62], [-66.1786, 9.5637], [-66.3494, 9.5537], [-66.3561, 9.5287], [-66.3616, 9.5278], [-66.366, 9.5198], [-66.3833, 9.5233], [-66.3958, 9.5171], [-66.405, 9.5055], [-66.4093, 9.4721], [-66.405, 9.468], [-66.409, 9.4518], [-66.4212, 9.4394], [-66.4194, 9.4354], [-66.4277, 9.4263], [-66.4344, 9.4278], [-66.435, 9.4172], [-66.448, 9.4166], [-66.4531, 9.4005], [-66.4857, 9.3857], [-66.4878, 9.3745], [-66.4999, 9.3772], [-66.5086, 9.3641], [-66.5314, 9.3572], [-66.5402, 9.3338], [-66.5541, 9.3282], [-66.5573, 9.3169], [-66.5535, 9.3091], [-66.5633, 9.2943], [-66.5696, 9.2916], [-66.581, 9.2983], [-66.5829, 9.2926], [-66.587, 9.2941], [-66.5914, 9.284], [-66.5882, 9.2767], [-66.5931, 9.2776], [-66.5985, 9.2688], [-66.6031, 9.2717], [-66.6083, 9.2671], [-66.6175, 9.2734], [-66.6223, 9.2645], [-66.62, 9.2585], [-66.626, 9.2571], [-66.6298, 9.2456], [-66.6323, 9.2499], [-66.6412, 9.2433], [-66.6464, 9.2528], [-66.6478, 9.2455], [-66.6591, 9.2498], [-66.6604, 9.2466], [-66.6626, 9.2522], [-66.6723, 9.2484], [-66.68, 9.2572], [-66.678, 9.2527], [-66.6848, 9.2505], [-66.6892, 9.2565], [-66.6925, 9.2496], [-66.708, 9.2428], [-66.7061, 9.2377], [-66.7178, 9.2252], [-66.7187, 9.2117], [-66.4076, 9.1668], [-66.2494, 9.0239], [-66.242, 9.0378], [-66.2411, 9.0548], [-66.235, 9.0571], [-66.2358, 9.0631], [-66.2266, 9.0712], [-66.2326, 9.0927], [-66.2246, 9.0948], [-66.2284, 9.1174], [-66.2159, 9.1277], [-66.2202, 9.1344], [-66.218, 9.144], [-66.1913, 9.1703], [-66.1815, 9.1763], [-66.1655, 9.1773], [-66.1609, 9.1887], [-66.1478, 9.1962], [-66.1377, 9.2118], [-66.1143, 9.2171], [-66.1021, 9.2576], [-66.1008, 9.2822], [-66.1265, 9.3132], [-66.1118, 9.3213], [-66.1377, 9.3468], [-66.0008, 9.6089]]]}}, {"type": "Feature", "properties": {"osm_type": "relation", "osm_id": 772450201, "name": "El Socorro", "admin_level": "6", "kind": "subdivision_2", "parent_osm_id": 272663, "parent_name": "Guarico State", "parent_iso": "VE-J"}, "geometry": {"type": "Polygon", "coordinates": [[[-65.5994, 9.1428], [-65.6012, 9.1354], [-65.6279, 9.1169], [-65.6341, 9.1168], [-65.6369, 9.1063], [-65.655, 9.1035], [-65.6566, 9.0968], [-65.6859, 9.077], [-65.7156, 9.0835], [-65.747, 9.0648], [-65.7642, 9.0725], [-65.7786, 9.0672], [-65.9168, 8.9661], [-65.9024, 8.9415], [-65.8845, 8.9303], [-65.8817, 8.9205], [-65.8891, 8.914], [-65.865, 8.8854], [-65.8374, 8.8729], [-65.8288, 8.8584], [-65.8063, 8.8449], [-65.8105, 8.8172], [-65.8187, 8.8131], [-65.8063, 8.793], [-65.8147, 8.776], [-65.8092, 8.7704], [-65.7907, 8.7707], [-65.7833, 8.7643], [-65.7482, 8.7586], [-65.7415, 8.7456], [-65.7109, 8.7272], [-65.707, 8.716], [-65.6947, 8.7042], [-65.6871, 8.6771], [-65.6728, 8.6714], [-65.6695, 8.6606], [-65.6553, 8.6505], [-65.6656, 8.64], [-65.6668, 8.6149], [-65.6749, 8.605], [-65.6896, 8.5987], [-65.6881, 8.5814], [-65.6991, 8.576], [-65.7082, 8.5631], [-65.7108, 8.5414], [-65.7049, 8.5388], [-65.7046, 8.5271], [-65.6946, 8.5211], [-65.6956, 8.5069], [-65.6854, 8.5048], [-65.6844, 8.4883], [-65.6801, 8.4903], [-65.677, 8.4855], [-65.6827, 8.4797], [-65.673, 8.4714], [-65.6782, 8.4513], [-65.6697, 8.4341], [-65.6717, 8.4278], [-65.6662, 8.4297], [-65.6524, 8.4145], [-65.6543, 8.4112], [-65.6389, 8.4091], [-65.6464, 8.3924], [-65.6408, 8.3892], [-65.6412, 8.3816], [-65.634, 8.3797], [-65.6367, 8.3724], [-65.6108, 8.3538], [-65.6262, 8.3296], [-65.6202, 8.3239], [-65.6326, 8.3208], [-65.6298, 8.3151], [-65.6336, 8.3086], [-65.6262, 8.3008], [-65.6294, 8.3009], [-65.6322, 8.2744], [-65.6432, 8.2627], [-65.6434, 8.2688], [-65.6487, 8.2711], [-65.6551, 8.2629], [-65.6537, 8.2561], [-65.6585, 8.2553], [-65.6538, 8.2437], [-65.6598, 8.2428], [-65.6612, 8.2341], [-65.656, 8.2331], [-65.6572, 8.217], [-65.6675, 8.2164], [-65.664, 8.2122], [-65.6694, 8.2091], [-65.6661, 8.2039], [-65.674, 8.2007], [-65.6691, 8.1881], [-65.6756, 8.1842], [-65.6716, 8.1817], [-65.676, 8.1806], [-65.6742, 8.1763], [-65.6823, 8.1734], [-65.6781, 8.1622], [-65.6855, 8.1553], [-65.6791, 8.1475], [-65.6849, 8.1455], [-65.6804, 8.1203], [-65.6763, 8.1188], [-65.6756, 8.1006], [-65.6795, 8.1006], [-65.6788, 8.0854], [-65.6849, 8.0777], [-65.6776, 8.0694], [-65.6809, 8.0705], [-65.6861, 8.0629], [-65.685, 8.0551], [-65.6896, 8.0544], [-65.6882, 8.0467], [-65.6816, 8.0426], [-65.6804, 8.0262], [-65.6887, 8.02], [-65.6802, 8.0142], [-65.6849, 8.0081], [-65.6805, 8.0008], [-65.6727, 7.9995], [-65.682, 7.993], [-65.6757, 7.9856], [-65.6762, 7.9763], [-65.6707, 7.9795], [-65.6614, 7.9745], [-65.6615, 7.9632], [-65.6523, 7.9599], [-65.6511, 7.9522], [-65.6559, 7.9511], [-65.6515, 7.9482], [-65.6615, 7.9481], [-65.6607, 7.9409], [-65.6675, 7.9402], [-65.6656, 7.9354], [-65.6592, 7.9349], [-65.663, 7.9265], [-65.6564, 7.9309], [-65.6567, 7.9154], [-65.6391, 7.9122], [-65.6353, 7.9054], [-65.5893, 7.9103], [-65.5708, 7.9166], [-65.5653, 7.9304], [-65.5494, 7.9313], [-65.5483, 7.9468], [-65.5238, 7.9935], [-65.5083, 8.0648], [-65.5033, 8.1565], [-65.4971, 8.1644], [-65.5027, 8.167], [-65.5053, 8.2077], [-65.5033, 8.2382], [-65.4939, 8.2604], [-65.4993, 8.2776], [-65.4956, 8.2924], [-65.5003, 8.331], [-65.4909, 8.3548], [-65.502, 8.3806], [-65.5216, 8.3793], [-65.5388, 8.3934], [-65.5571, 8.3997], [-65.5653, 8.4254], [-65.5814, 8.4496], [-65.5964, 8.5023], [-65.6061, 8.514], [-65.5986, 8.5191], [-65.5763, 8.5184], [-65.5679, 8.5569], [-65.5746, 8.5879], [-65.5923, 8.62], [-65.6025, 8.6586], [-65.622, 8.673], [-65.6231, 8.6813], [-65.6132, 8.6903], [-65.6137, 8.6958], [-65.5834, 8.7416], [-65.5629, 8.7419], [-65.5273, 8.7566], [-65.5301, 8.7972], [-65.5111, 8.8493], [-65.5249, 8.8804], [-65.5248, 8.9027], [-65.5313, 8.9134], [-65.5445, 8.969], [-65.5398, 8.9778], [-65.5398, 9.0139], [-65.5297, 9.0169], [-65.5272, 9.0268], [-65.5197, 9.0299], [-65.5011, 9.0211], [-65.4731, 9.0234], [-65.4433, 9.0352], [-65.4272, 9.0498], [-65.597, 9.123], [-65.5994, 9.1428]]]}}, {"type": "Feature", "properties": {"osm_type": "relation", "osm_id": 767815989, "name": "José Félix Ribas", "admin_level": "6", "kind": "subdivision_2", "parent_osm_id": 272663, "parent_name": "Guarico State", "parent_iso": "VE-J"}, "geometry": {"type": "Polygon", "coordinates": [[[-65.5994, 9.1428], [-65.5476, 9.2726], [-65.6376, 9.4442], [-65.505, 9.554], [-65.6192, 9.5925], [-65.6513, 9.6247], [-65.6521, 9.6396], [-65.6998, 9.6828], [-65.7124, 9.6787], [-65.7152, 9.6833], [-65.7194, 9.6803], [-65.7482, 9.6852], [-65.7545, 9.6836], [-65.7535, 9.6765], [-65.7761, 9.6696], [-65.7852, 9.6624], [-65.7821, 9.6563], [-65.7934, 9.6484], [-65.8176, 9.6063], [-65.8327, 9.6037], [-65.8392, 9.5889], [-65.9622, 9.584], [-65.9132, 9.468], [-65.8815, 9.3304], [-65.8859, 9.2479], [-65.9204, 9.169], [-65.9317, 9.1648], [-65.9294, 9.1574], [-65.9388, 9.1541], [-65.9451, 9.1434], [-65.9379, 9.1431], [-65.9317, 9.1304], [-65.9365, 9.1257], [-65.9316, 9.1166], [-65.9342, 9.1114], [-65.9213, 9.086], [-65.9103, 9.0343], [-65.9159, 9.0263], [-65.9125, 9.0088], [-65.9269, 8.9895], [-65.9168, 8.9661], [-65.7786, 9.0672], [-65.7642, 9.0725], [-65.747, 9.0648], [-65.7156, 9.0835], [-65.6859, 9.077], [-65.6566, 9.0968], [-65.655, 9.1035], [-65.6369, 9.1063], [-65.6341, 9.1168], [-65.6279, 9.1169], [-65.6012, 9.1354], [-65.5994, 9.1428]]]}}, {"type": "Feature", "properties": {"osm_type": "relation", "osm_id": 791930752, "name": "José Tadeo Monagas", "admin_level": "6", "kind": "subdivision_2", "parent_osm_id": 272663, "parent_name": "Guarico State", "parent_iso": "VE-J"}, "geometry": {"type": "Polygon", "coordinates": [[[-66.4876, 10.0144], [-66.4884, 9.9925], [-66.501, 9.9804], [-66.5099, 9.9752], [-66.5259, 9.9746], [-66.5413, 9.9631], [-66.5516, 9.9635], [-66.5644, 9.976], [-66.5733, 9.9736], [-66.5847, 9.9797], [-66.6134, 9.9685], [-66.611, 9.9517], [-66.6044, 9.9436], [-66.6084, 9.9213], [-66.6027, 9.8963], [-66.5964, 9.8885], [-66.6028, 9.8818], [-66.603, 9.863], [-66.595, 9.845], [-66.5757, 9.836], [-66.5784, 9.8298], [-66.5866, 9.8294], [-66.595, 9.8215], [-66.598, 9.8111], [-66.5865, 9.8024], [-66.6035, 9.7972], [-66.6044, 9.7914], [-66.5994, 9.7878], [-66.6068, 9.7718], [-66.6237, 9.7739], [-66.6262, 9.7625], [-66.62, 9.7523], [-66.6288, 9.7512], [-66.6247, 9.7382], [-66.6288, 9.7342], [-66.6221, 9.7282], [-66.6326, 9.7187], [-66.6341, 9.7101], [-66.6131, 9.7056], [-66.6038, 9.6923], [-66.5754, 9.6734], [-66.5733, 9.6622], [-66.56, 9.6587], [-66.5569, 9.6523], [-66.5589, 9.6429], [-66.5505, 9.6326], [-66.5551, 9.6181], [-66.5494, 9.6094], [-66.5606, 9.6022], [-66.5551, 9.5991], [-66.5556, 9.5926], [-66.5663, 9.5886], [-66.5631, 9.5788], [-66.5708, 9.5738], [-66.5699, 9.5657], [-66.5771, 9.5559], [-66.5684, 9.5455], [-66.5761, 9.5401], [-66.5781, 9.5433], [-66.5793, 9.5367], [-66.5883, 9.5318], [-66.5847, 9.5231], [-66.5786, 9.5226], [-66.5834, 9.5158], [-66.5673, 9.4951], [-66.5602, 9.4951], [-66.5592, 9.4842], [-66.5655, 9.4753], [-66.5677, 9.4514], [-66.5776, 9.439], [-66.5693, 9.4339], [-66.5788, 9.4332], [-66.5767, 9.422], [-66.5882, 9.4082], [-66.5838, 9.4007], [-66.5888, 9.3932], [-66.592, 9.3946], [-66.5923, 9.3849], [-66.5967, 9.3856], [-66.596, 9.3747], [-66.6101, 9.3607], [-66.6102, 9.3522], [-66.6139, 9.3563], [-66.6215, 9.3519], [-66.6215, 9.3461], [-66.6364, 9.3405], [-66.6335, 9.3342], [-66.6402, 9.3339], [-66.6364, 9.3302], [-66.6373, 9.3242], [-66.6435, 9.3217], [-66.6422, 9.3119], [-66.647, 9.3131], [-66.6482, 9.3014], [-66.6582, 9.2864], [-66.6809, 9.2725], [-66.6892, 9.2565], [-66.6848, 9.2505], [-66.678, 9.2527], [-66.68, 9.2572], [-66.6723, 9.2484], [-66.6626, 9.2522], [-66.6604, 9.2466], [-66.6591, 9.2498], [-66.6478, 9.2455], [-66.6464, 9.2528], [-66.6412, 9.2433], [-66.6323, 9.2499], [-66.6298, 9.2456], [-66.626, 9.2571], [-66.62, 9.2585], [-66.6223, 9.2645], [-66.6175, 9.2734], [-66.6083, 9.2671], [-66.6031, 9.2717], [-66.5985, 9.2688], [-66.5931, 9.2776], [-66.5882, 9.2767], [-66.5914, 9.284], [-66.587, 9.2941], [-66.5829, 9.2926], [-66.581, 9.2983], [-66.5696, 9.2916], [-66.5633, 9.2943], [-66.5535, 9.3091], [-66.5573, 9.3169], [-66.5541, 9.3282], [-66.5402, 9.3338], [-66.5314, 9.3572], [-66.5086, 9.3641], [-66.4999, 9.3772], [-66.4878, 9.3745], [-66.4857, 9.3857], [-66.4531, 9.4005], [-66.448, 9.4166], [-66.435, 9.4172], [-66.4344, 9.4278], [-66.4277, 9.4263], [-66.4194, 9.4354], [-66.4212, 9.4394], [-66.409, 9.4518], [-66.405, 9.468], [-66.4093, 9.4721], [-66.405, 9.5055], [-66.3958, 9.5171], [-66.3833, 9.5233], [-66.366, 9.5198], [-66.3616, 9.5278], [-66.3561, 9.5287], [-66.3494, 9.5537], [-66.1786, 9.5637], [-66.1639, 9.62], [-66.1501, 9.6268], [-66.1407, 9.6443], [-66.114, 9.6479], [-66.1235, 9.6662], [-66.1094, 9.6906], [-66.107, 9.7075], [-66.0905, 9.6988], [-66.0885, 9.6865], [-66.0774, 9.6739], [-66.0816, 9.6629], [-66.0582, 9.6417], [-66.0579, 9.6363], [-66.0407, 9.6276], [-66.0209, 9.6258], [-66.0162, 9.6182], [-65.9604, 9.584], [-65.9612, 9.604], [-65.9915, 9.6382], [-65.9924, 9.656], [-65.9879, 9.6668], [-65.9955, 9.6745], [-65.9995, 9.6888], [-65.9926, 9.7619], [-65.9975, 9.7903], [-65.9912, 9.8066], [-66.0039, 9.8227], [-65.9928, 9.8239], [-65.9916, 9.8321], [-65.9724, 9.8493], [-65.9745, 9.8589], [-65.967, 9.8663], [-65.9733, 9.8824], [-65.9708, 9.8939], [-65.9817, 9.9148], [-65.9813, 9.9362], [-66.0007, 9.9358], [-66.0355, 9.951], [-66.0608, 9.9534], [-66.0643, 9.966], [-66.0807, 9.9681], [-66.0872, 9.9661], [-66.0977, 9.9513], [-66.1217, 9.9524], [-66.1489, 9.975], [-66.1618, 9.9452], [-66.1713, 9.9448], [-66.1908, 9.954], [-66.2078, 9.9495], [-66.2252, 9.9669], [-66.2342, 9.9663], [-66.2449, 9.9854], [-66.2604, 9.9804], [-66.2779, 9.9821], [-66.2884, 9.9745], [-66.3186, 9.9991], [-66.3379, 9.9959], [-66.3433, 10.0173], [-66.3681, 10.0252], [-66.386, 10.0366], [-66.4093, 10.0353], [-66.4325, 10.0272], [-66.4353, 10.0149], [-66.444, 10.0098], [-66.4648, 10.0102], [-66.4752, 10.0189], [-66.4876, 10.0144]]]}}, {"type": "Feature", "properties": {"osm_type": "relation", "osm_id": 286938024, "name": "Juan Germán Roscio", "admin_level": "6", "kind": "subdivision_2", "parent_osm_id": 272663, "parent_name": "Guarico State", "parent_iso": "VE-J"}, "geometry": {"type": "Polygon", "coordinates": [[[-67.121, 9.8258], [-67.1433, 9.8262], [-67.1516, 9.8368], [-67.1493, 9.8564], [-67.1605, 9.8664], [-67.1602, 9.8887], [-67.1706, 9.9003], [-67.1633, 9.9083], [-67.1644, 9.9252], [-67.2179, 9.9313], [-67.2323, 9.9194], [-67.2527, 9.911], [-67.2575, 9.9135], [-67.2676, 9.9021], [-67.2766, 9.9119], [-67.2742, 9.9312], [-67.3023, 9.9329], [-67.3045, 9.937], [-67.3372, 9.9223], [-67.3397, 9.9293], [-67.3535, 9.9341], [-67.3558, 9.9395], [-67.3648, 9.9392], [-67.3664, 9.9458], [-67.3882, 9.9643], [-67.4305, 9.9892], [-67.4392, 9.9889], [-67.4508, 9.9731], [-67.4718, 9.9747], [-67.4797, 9.9631], [-67.4954, 9.9641], [-67.5096, 9.9521], [-67.526, 9.9473], [-67.5363, 9.9518], [-67.5164, 9.8656], [-67.5272, 9.8467], [-67.5376, 9.7962], [-67.5497, 9.7745], [-67.52, 9.7215], [-67.5112, 9.7201], [-67.4909, 9.6919], [-67.4774, 9.6856], [-67.454, 9.6589], [-67.4539, 9.6491], [-67.4613, 9.6436], [-67.4588, 9.6378], [-67.4633, 9.6341], [-67.4523, 9.6298], [-67.4503, 9.6197], [-67.3667, 9.6227], [-67.3428, 9.6286], [-67.3139, 9.6205], [-67.2858, 9.6357], [-67.2414, 9.6405], [-67.2301, 9.6323], [-67.2526, 9.6118], [-67.253, 9.5988], [-67.2315, 9.5847], [-67.2047, 9.5562], [-67.1887, 9.572], [-67.1646, 9.5772], [-67.1345, 9.5738], [-67.0774, 9.609], [-67.0585, 9.613], [-67.0417, 9.6232], [-67.0235, 9.6223], [-66.9872, 9.6479], [-66.9814, 9.6742], [-66.9665, 9.6917], [-66.9611, 9.7069], [-66.9596, 9.7186], [-66.9649, 9.7231], [-66.9668, 9.7382], [-66.9841, 9.755], [-66.9931, 9.749], [-67.0298, 9.7583], [-67.0381, 9.7814], [-67.0464, 9.7893], [-67.056, 9.783], [-67.0694, 9.7893], [-67.0817, 9.7818], [-67.1033, 9.7807], [-67.1155, 9.7974], [-67.1084, 9.8156], [-67.1141, 9.8241], [-67.121, 9.8258]]]}}, {"type": "Feature", "properties": {"osm_type": "relation", "osm_id": 913229828, "name": "Julián Mellado", "admin_level": "6", "kind": "subdivision_2", "parent_osm_id": 272663, "parent_name": "Guarico State", "parent_iso": "VE-J"}, "geometry": {"type": "Polygon", "coordinates": [[[-66.9665, 9.6917], [-66.9814, 9.6742], [-66.9872, 9.6479], [-67.0235, 9.6223], [-67.0417, 9.6232], [-67.0585, 9.613], [-67.0774, 9.609], [-67.1345, 9.5738], [-67.1766, 9.5757], [-67.2002, 9.5638], [-67.2471, 9.4718], [-67.2593, 9.4588], [-67.2588, 9.4497], [-67.2543, 9.4499], [-67.2608, 9.4457], [-67.2613, 9.4279], [-67.2563, 9.4261], [-67.262, 9.4224], [-67.2528, 9.4084], [-67.2454, 9.4067], [-67.254, 9.3644], [-67.2615, 9.356], [-67.2528, 9.3499], [-67.258, 9.3424], [-67.2636, 9.3471], [-67.2669, 9.3411], [-67.2728, 9.3415], [-67.2672, 9.3379], [-67.2737, 9.3318], [-67.2688, 9.3262], [-67.2822, 9.3188], [-67.2859, 9.3255], [-67.2952, 9.3182], [-67.304, 9.321], [-67.3035, 9.3103], [-67.3138, 9.3179], [-67.3182, 9.3055], [-67.3129, 9.3026], [-67.3287, 9.2996], [-67.3282, 9.2918], [-67.3355, 9.2901], [-67.3346, 9.3023], [-67.339, 9.303], [-67.3411, 9.2946], [-67.3371, 9.2912], [-67.3461, 9.2753], [-67.3551, 9.2793], [-67.3647, 9.2713], [-67.3684, 9.2732], [-67.3664, 9.2778], [-67.3727, 9.2769], [-67.3772, 9.2543], [-67.3704, 9.2383], [-67.3648, 9.2381], [-67.3594, 9.23], [-67.3695, 9.229], [-67.3695, 9.2208], [-67.376, 9.222], [-67.3738, 9.2138], [-67.3797, 9.22], [-67.3843, 9.2157], [-67.3817, 9.2089], [-67.3886, 9.2054], [-67.393, 9.2083], [-67.4023, 9.1816], [-67.3982, 9.1745], [-67.402, 9.1671], [-67.3862, 9.1509], [-67.3486, 9.1311], [-67.3481, 9.1494], [-67.3349, 9.1523], [-67.3097, 9.1681], [-67.2877, 9.1673], [-67.2729, 9.1749], [-67.2581, 9.1744], [-67.2471, 9.1802], [-67.241, 9.191], [-67.2024, 9.2028], [-67.1884, 9.1948], [-67.1701, 9.1977], [-67.1506, 9.193], [-67.1497, 9.1753], [-67.139, 9.1711], [-67.14, 9.1539], [-67.1201, 9.1588], [-67.1149, 9.1735], [-67.0973, 9.1906], [-67.027, 9.1978], [-67.0228, 9.1893], [-67.0069, 9.1875], [-67.004, 9.1803], [-66.7793, 9.2538], [-66.7286, 9.2329], [-66.7187, 9.2117], [-66.7178, 9.2252], [-66.7061, 9.2377], [-66.709, 9.24], [-66.7047, 9.2468], [-66.7575, 9.3004], [-66.7724, 9.2936], [-66.7832, 9.2951], [-66.8274, 9.3189], [-66.8394, 9.3376], [-66.8524, 9.3424], [-66.861, 9.3358], [-66.8944, 9.3352], [-66.9843, 9.433], [-66.9993, 9.4075], [-67.0132, 9.4102], [-67.0181, 9.4177], [-67.0113, 9.4293], [-67.0183, 9.4343], [-67.0121, 9.4362], [-67.0135, 9.4448], [-67.0065, 9.4407], [-67.0022, 9.4466], [-67.0037, 9.4663], [-66.9982, 9.4705], [-66.9971, 9.4641], [-66.9913, 9.4687], [-66.9924, 9.4737], [-66.9829, 9.4819], [-66.9861, 9.4855], [-66.9765, 9.4912], [-66.9881, 9.5025], [-66.9853, 9.5069], [-66.9699, 9.5114], [-66.9699, 9.5194], [-66.9637, 9.5168], [-66.9471, 9.5301], [-66.952, 9.5319], [-66.9465, 9.5395], [-66.9368, 9.5304], [-66.9354, 9.5354], [-66.9186, 9.5333], [-66.9132, 9.54], [-66.9105, 9.5357], [-66.905, 9.5408], [-66.9008, 9.5326], [-66.8923, 9.5373], [-66.8823, 9.5471], [-66.8605, 9.587], [-66.8625, 9.5926], [-66.8574, 9.5927], [-66.8588, 9.5982], [-66.8544, 9.5965], [-66.8475, 9.6042], [-66.85, 9.6109], [-66.8414, 9.6145], [-66.8466, 9.6163], [-66.8489, 9.6318], [-66.8556, 9.6402], [-66.8475, 9.654], [-66.8546, 9.6565], [-66.8526, 9.6605], [-66.8773, 9.6745], [-66.9053, 9.6743], [-66.9177, 9.6832], [-66.9378, 9.6823], [-66.9469, 9.6899], [-66.9665, 9.6917]]]}}, {"type": "Feature", "properties": {"osm_type": "relation", "osm_id": 321668669, "name": "Las Mercedes", "admin_level": "6", "kind": "subdivision_2", "parent_osm_id": 272663, "parent_name": "Guarico State", "parent_iso": "VE-J"}, "geometry": {"type": "Polygon", "coordinates": [[[-66.7139, 9.2093], [-66.6833, 9.112], [-66.6653, 9.0325], [-66.6676, 8.9849], [-66.6569, 8.9602], [-66.6553, 8.9034], [-66.6711, 8.8883], [-66.674, 8.8711], [-66.6651, 8.8292], [-66.6801, 8.7815], [-66.6924, 8.7661], [-66.6877, 8.6948], [-66.6998, 8.6835], [-66.7051, 8.6682], [-66.7001, 8.6467], [-66.7072, 8.6277], [-66.7047, 8.6225], [-66.7195, 8.6053], [-66.7179, 8.5986], [-66.7274, 8.5977], [-66.7286, 8.5771], [-66.7372, 8.5725], [-66.7424, 8.5581], [-66.7394, 8.5395], [-66.7443, 8.5393], [-66.7428, 8.5335], [-66.75, 8.5215], [-66.7426, 8.5014], [-66.7464, 8.4926], [-66.7416, 8.4718], [-66.7481, 8.4633], [-66.7448, 8.4597], [-66.7474, 8.4537], [-66.7564, 8.4496], [-66.7541, 8.4382], [-66.7623, 8.435], [-66.7662, 8.4275], [-66.7584, 8.4205], [-66.744, 8.383], [-66.7424, 8.3742], [-66.7464, 8.3719], [-66.7344, 8.3342], [-66.7417, 8.3221], [-66.7358, 8.3134], [-66.7429, 8.3082], [-66.7401, 8.2963], [-66.746, 8.2844], [-66.74, 8.2763], [-66.743, 8.265], [-66.7384, 8.2588], [-66.7419, 8.2492], [-66.7663, 8.2299], [-66.7729, 8.2004], [-66.7619, 8.1865], [-66.7699, 8.17], [-66.7752, 8.1113], [-66.762, 8.0602], [-66.768, 8.0418], [-66.7789, 8.0273], [-66.784, 8.0037], [-66.7826, 7.9973], [-66.7717, 7.9914], [-66.7894, 7.9787], [-66.801, 7.9793], [-66.8012, 7.9678], [-66.7751, 7.9413], [-66.7662, 7.9389], [-66.766, 7.9423], [-66.7504, 7.9461], [-66.7368, 7.9415], [-66.7337, 7.945], [-66.7232, 7.9357], [-66.7192, 7.9422], [-66.7146, 7.939], [-66.7181, 7.9356], [-66.7066, 7.9252], [-66.702, 7.9358], [-66.6975, 7.9291], [-66.7008, 7.9194], [-66.7075, 7.9209], [-66.6936, 7.9028], [-66.6743, 7.9107], [-66.6623, 7.9057], [-66.6544, 7.9099], [-66.6505, 7.9005], [-66.6453, 7.9167], [-66.6356, 7.9131], [-66.6397, 7.9038], [-66.6395, 7.8882], [-66.6355, 7.89], [-66.6401, 7.8712], [-66.6289, 7.8837], [-66.6169, 7.8738], [-66.6142, 7.8638], [-66.6038, 7.8679], [-66.6095, 7.8575], [-66.5964, 7.859], [-66.6039, 7.8491], [-66.5907, 7.8352], [-66.5779, 7.8355], [-66.5794, 7.8256], [-66.575, 7.8227], [-66.5625, 7.8224], [-66.5399, 7.8356], [-66.5318, 7.8353], [-66.5286, 7.8249], [-66.5424, 7.8197], [-66.5302, 7.812], [-66.524, 7.79], [-66.5162, 7.7877], [-66.5146, 7.7755], [-66.4799, 7.7572], [-66.4791, 7.7459], [-66.4901, 7.7338], [-66.4868, 7.7289], [-66.4712, 7.7265], [-66.4432, 7.7129], [-66.4063, 7.7075], [-66.3598, 7.7207], [-66.3434, 7.6897], [-66.3309, 7.6817], [-66.3383, 7.6661], [-66.331, 7.6444], [-66.3028, 7.6501], [-66.2821, 7.6441], [-66.276, 7.6352], [-66.2487, 7.6232], [-66.2193, 7.6279], [-66.185, 7.6556], [-66.1516, 7.6744], [-66.1079, 7.6848], [-66.1124, 7.697], [-66.1082, 7.7022], [-66.1101, 7.7089], [-66.1228, 7.7111], [-66.1359, 7.7061], [-66.138, 7.701], [-66.143, 7.7023], [-66.141, 7.71], [-66.1474, 7.7141], [-66.1415, 7.7186], [-66.1509, 7.7198], [-66.1483, 7.7284], [-66.153, 7.7226], [-66.1617, 7.7264], [-66.1574, 7.732], [-66.1661, 7.7472], [-66.1765, 7.7504], [-66.1791, 7.7471], [-66.1858, 7.7538], [-66.1876, 7.7471], [-66.1932, 7.7531], [-66.1823, 7.7683], [-66.1977, 7.7848], [-66.1817, 7.7929], [-66.1836, 7.8], [-66.1938, 7.8075], [-66.1848, 7.8146], [-66.1945, 7.8228], [-66.2047, 7.8243], [-66.1974, 7.8304], [-66.2021, 7.8399], [-66.2055, 7.8333], [-66.2098, 7.8348], [-66.2053, 7.842], [-66.2065, 7.8555], [-66.2114, 7.8566], [-66.2131, 7.8642], [-66.2063, 7.8734], [-66.2076, 7.885], [-66.2128, 7.8885], [-66.1819, 7.8985], [-66.1776, 7.9045], [-66.1783, 7.9147], [-66.1829, 7.9169], [-66.1787, 7.9189], [-66.1789, 7.9328], [-66.1853, 7.9332], [-66.1845, 7.9409], [-66.193, 7.9398], [-66.1968, 7.9493], [-66.193, 7.9534], [-66.1973, 7.9511], [-66.201, 7.9578], [-66.1966, 7.9583], [-66.2005, 7.9626], [-66.1945, 7.9643], [-66.1928, 7.9706], [-66.2001, 7.9703], [-66.1972, 7.9774], [-66.2102, 7.9882], [-66.2081, 7.9927], [-66.2127, 7.999], [-66.2019, 8.0057], [-66.2105, 8.0073], [-66.2065, 8.0185], [-66.2083, 8.0265], [-66.2128, 8.0273], [-66.2091, 8.0309], [-66.2165, 8.0391], [-66.2126, 8.0423], [-66.2173, 8.0493], [-66.225, 8.0505], [-66.2203, 8.0532], [-66.2203, 8.0604], [-66.2291, 8.0583], [-66.2284, 8.0703], [-66.2388, 8.0841], [-66.232, 8.0889], [-66.23, 8.1], [-66.2441, 8.1073], [-66.2469, 8.119], [-66.2538, 8.1221], [-66.2465, 8.1304], [-66.2467, 8.1408], [-66.2554, 8.1434], [-66.2489, 8.1603], [-66.2591, 8.1645], [-66.2563, 8.1831], [-66.2608, 8.1861], [-66.2572, 8.1924], [-66.2624, 8.1959], [-66.259, 8.2029], [-66.2643, 8.2047], [-66.2666, 8.2172], [-66.2551, 8.2236], [-66.2581, 8.2296], [-66.2527, 8.2286], [-66.252, 8.2327], [-66.2552, 8.2426], [-66.2491, 8.2449], [-66.2576, 8.2529], [-66.2577, 8.2577], [-66.2516, 8.2588], [-66.2629, 8.2735], [-66.2605, 8.2791], [-66.2666, 8.2785], [-66.2607, 8.2835], [-66.2663, 8.2894], [-66.2597, 8.3083], [-66.2685, 8.3114], [-66.2629, 8.3116], [-66.2628, 8.3213], [-66.2661, 8.3267], [-66.2759, 8.3243], [-66.2737, 8.33], [-66.2791, 8.335], [-66.2721, 8.3324], [-66.2695, 8.3367], [-66.2748, 8.3401], [-66.2742, 8.3457], [-66.27, 8.3509], [-66.2587, 8.3521], [-66.2497, 8.3673], [-66.2542, 8.37], [-66.2479, 8.3765], [-66.2519, 8.377], [-66.2503, 8.3854], [-66.2599, 8.4007], [-66.246, 8.4206], [-66.252, 8.4187], [-66.2489, 8.426], [-66.2611, 8.4412], [-66.2486, 8.4606], [-66.2565, 8.4607], [-66.2646, 8.485], [-66.2767, 8.4985], [-66.2687, 8.5129], [-66.2764, 8.5263], [-66.2776, 8.5398], [-66.2673, 8.5553], [-66.2684, 8.5761], [-66.2607, 8.5912], [-66.27, 8.5962], [-66.2738, 8.6114], [-66.2881, 8.6157], [-66.2973, 8.6291], [-66.2984, 8.6404], [-66.3029, 8.6415], [-66.2961, 8.6599], [-66.3017, 8.6648], [-66.2927, 8.6666], [-66.2857, 8.6746], [-66.2844, 8.6816], [-66.2946, 8.6889], [-66.2862, 8.6906], [-66.2874, 8.705], [-66.283, 8.7089], [-66.2872, 8.7173], [-66.2986, 8.7239], [-66.299, 8.7316], [-66.292, 8.7279], [-66.2934, 8.7429], [-66.302, 8.7483], [-66.2986, 8.7519], [-66.3044, 8.76], [-66.3036, 8.772], [-66.3124, 8.7795], [-66.3169, 8.7945], [-66.3116, 8.8004], [-66.3141, 8.8249], [-66.3095, 8.8263], [-66.3177, 8.8587], [-66.3059, 8.8754], [-66.3105, 8.8955], [-66.3011, 8.9198], [-66.3035, 8.9294], [-66.2903, 8.9498], [-66.2789, 8.9541], [-66.2735, 8.9738], [-66.2578, 8.982], [-66.2503, 8.9925], [-66.2507, 9.0054], [-66.2548, 9.0081], [-66.2526, 9.0234], [-66.4076, 9.1668], [-66.7139, 9.2093]]]}}, {"type": "Feature", "properties": {"osm_type": "relation", "osm_id": 627639527, "name": "Leonardo Infante", "admin_level": "6", "kind": "subdivision_2", "parent_osm_id": 272663, "parent_name": "Guarico State", "parent_iso": "VE-J"}, "geometry": {"type": "Polygon", "coordinates": [[[-66.2526, 9.0234], [-66.2548, 9.0081], [-66.2507, 9.0054], [-66.2503, 8.9925], [-66.2578, 8.982], [-66.2735, 8.9738], [-66.2789, 8.9541], [-66.2903, 8.9498], [-66.3035, 8.9294], [-66.3011, 8.9198], [-66.3105, 8.8955], [-66.3059, 8.8754], [-66.3177, 8.8587], [-66.3095, 8.8263], [-66.3141, 8.8249], [-66.3116, 8.8004], [-66.3169, 8.7945], [-66.3124, 8.7795], [-66.3036, 8.772], [-66.3044, 8.76], [-66.2986, 8.7519], [-66.302, 8.7483], [-66.2934, 8.7429], [-66.292, 8.7279], [-66.299, 8.7316], [-66.2986, 8.7239], [-66.2872, 8.7173], [-66.283, 8.7089], [-66.2874, 8.705], [-66.2862, 8.6906], [-66.2946, 8.6889], [-66.2844, 8.6816], [-66.2857, 8.6746], [-66.2927, 8.6666], [-66.3017, 8.6648], [-66.2961, 8.6599], [-66.3029, 8.6415], [-66.2984, 8.6404], [-66.2973, 8.6291], [-66.2881, 8.6157], [-66.2738, 8.6114], [-66.27, 8.5962], [-66.2607, 8.5912], [-66.2684, 8.5761], [-66.2673, 8.5553], [-66.2776, 8.5398], [-66.2764, 8.5263], [-66.2687, 8.5129], [-66.2767, 8.4985], [-66.2646, 8.485], [-66.2565, 8.4607], [-66.2486, 8.4606], [-66.2611, 8.4412], [-66.2489, 8.426], [-66.252, 8.4187], [-66.246, 8.4206], [-66.2599, 8.4007], [-66.2503, 8.3854], [-66.2519, 8.377], [-66.2479, 8.3765], [-66.2542, 8.37], [-66.2497, 8.3673], [-66.2587, 8.3521], [-66.27, 8.3509], [-66.2742, 8.3457], [-66.2748, 8.3401], [-66.2695, 8.3367], [-66.2721, 8.3324], [-66.2791, 8.335], [-66.2737, 8.33], [-66.2759, 8.3243], [-66.2661, 8.3267], [-66.2628, 8.3213], [-66.2629, 8.3116], [-66.2685, 8.3114], [-66.2597, 8.3083], [-66.2663, 8.2894], [-66.2607, 8.2835], [-66.2666, 8.2785], [-66.2605, 8.2791], [-66.2629, 8.2735], [-66.2516, 8.2588], [-66.2577, 8.2577], [-66.2576, 8.2529], [-66.2491, 8.2449], [-66.2552, 8.2426], [-66.252, 8.2327], [-66.2527, 8.2286], [-66.2581, 8.2296], [-66.2551, 8.2236], [-66.2666, 8.2172], [-66.2643, 8.2047], [-66.259, 8.2029], [-66.2624, 8.1959], [-66.2572, 8.1924], [-66.2608, 8.1861], [-66.2563, 8.1831], [-66.2591, 8.1645], [-66.2489, 8.1603], [-66.2554, 8.1434], [-66.2467, 8.1408], [-66.2465, 8.1304], [-66.2538, 8.1221], [-66.2469, 8.119], [-66.2441, 8.1073], [-66.23, 8.1], [-66.232, 8.0889], [-66.2388, 8.0841], [-66.2284, 8.0703], [-66.2291, 8.0583], [-66.2203, 8.0604], [-66.2203, 8.0532], [-66.225, 8.0505], [-66.2173, 8.0493], [-66.2126, 8.0423], [-66.2165, 8.0391], [-66.2091, 8.0309], [-66.2128, 8.0273], [-66.2083, 8.0265], [-66.2065, 8.0185], [-66.2105, 8.0073], [-66.2019, 8.0057], [-66.2127, 7.999], [-66.2081, 7.9927], [-66.2102, 7.9882], [-66.1972, 7.9774], [-66.2001, 7.9703], [-66.1928, 7.9706], [-66.1945, 7.9643], [-66.2005, 7.9626], [-66.1966, 7.9583], [-66.201, 7.9578], [-66.1973, 7.9511], [-66.193, 7.9534], [-66.1968, 7.9493], [-66.193, 7.9398], [-66.1845, 7.9409], [-66.1853, 7.9332], [-66.1789, 7.9328], [-66.1787, 7.9189], [-66.1829, 7.9169], [-66.1783, 7.9147], [-66.1776, 7.9045], [-66.1819, 7.8985], [-66.2128, 7.8885], [-66.2076, 7.885], [-66.2063, 7.8734], [-66.2131, 7.8642], [-66.2114, 7.8566], [-66.2065, 7.8555], [-66.2053, 7.842], [-66.2098, 7.8348], [-66.2055, 7.8333], [-66.2021, 7.8399], [-66.1974, 7.8304], [-66.2047, 7.8243], [-66.1945, 7.8228], [-66.1848, 7.8146], [-66.1938, 7.8075], [-66.1836, 7.8], [-66.1817, 7.7929], [-66.1977, 7.7848], [-66.1823, 7.7683], [-66.1932, 7.7531], [-66.1876, 7.7471], [-66.1858, 7.7538], [-66.1791, 7.7471], [-66.1765, 7.7504], [-66.1661, 7.7472], [-66.1574, 7.732], [-66.1617, 7.7264], [-66.153, 7.7226], [-66.1483, 7.7284], [-66.1509, 7.7198], [-66.1415, 7.7186], [-66.1474, 7.7141], [-66.141, 7.71], [-66.143, 7.7023], [-66.138, 7.701], [-66.1359, 7.7061], [-66.1228, 7.7111], [-66.1101, 7.7089], [-66.1082, 7.7022], [-66.1124, 7.697], [-66.1079, 7.6848], [-66.0523, 7.6879], [-66.0054, 7.6818], [-65.8768, 7.6888], [-65.8402, 7.7076], [-65.755, 7.8101], [-65.6736, 7.8901], [-65.6353, 7.9054], [-65.6391, 7.9122], [-65.6567, 7.9154], [-65.6564, 7.9309], [-65.663, 7.9265], [-65.6592, 7.9349], [-65.6656, 7.9354], [-65.6675, 7.9402], [-65.6607, 7.9409], [-65.6615, 7.9481], [-65.6515, 7.9482], [-65.6559, 7.9511], [-65.6511, 7.9522], [-65.6523, 7.9599], [-65.6615, 7.9632], [-65.6614, 7.9745], [-65.6707, 7.9795], [-65.6762, 7.9763], [-65.6757, 7.9856], [-65.682, 7.993], [-65.6727, 7.9995], [-65.6805, 8.0008], [-65.6849, 8.0081], [-65.6802, 8.0142], [-65.6887, 8.02], [-65.6804, 8.0262], [-65.6816, 8.0426], [-65.6882, 8.0467], [-65.6896, 8.0544], [-65.685, 8.0551], [-65.6861, 8.0629], [-65.6809, 8.0705], [-65.6776, 8.0694], [-65.6849, 8.0777], [-65.6788, 8.0854], [-65.6795, 8.1006], [-65.6756, 8.1006], [-65.6763, 8.1188], [-65.6804, 8.1203], [-65.6849, 8.1455], [-65.6791, 8.1475], [-65.6855, 8.1553], [-65.6781, 8.1622], [-65.6823, 8.1734], [-65.6742, 8.1763], [-65.676, 8.1806], [-65.6716, 8.1817], [-65.6756, 8.1842], [-65.6691, 8.1881], [-65.674, 8.2007], [-65.6661, 8.2039], [-65.6694, 8.2091], [-65.664, 8.2122], [-65.6675, 8.2164], [-65.6572, 8.217], [-65.656, 8.2331], [-65.6612, 8.2341], [-65.6598, 8.2428], [-65.6538, 8.2437], [-65.6585, 8.2553], [-65.6537, 8.2561], [-65.6551, 8.2629], [-65.6487, 8.2711], [-65.6434, 8.2688], [-65.6432, 8.2627], [-65.6322, 8.2744], [-65.6294, 8.3009], [-65.6262, 8.3008], [-65.6336, 8.3086], [-65.6298, 8.3151], [-65.6326, 8.3208], [-65.6202, 8.3239], [-65.6262, 8.3296], [-65.6108, 8.3538], [-65.6367, 8.3724], [-65.634, 8.3797], [-65.6412, 8.3816], [-65.6408, 8.3892], [-65.6464, 8.3924], [-65.6389, 8.4091], [-65.6543, 8.4112], [-65.6524, 8.4145], [-65.6662, 8.4297], [-65.6717, 8.4278], [-65.6697, 8.4341], [-65.6782, 8.4513], [-65.673, 8.4714], [-65.6827, 8.4797], [-65.677, 8.4855], [-65.6801, 8.4903], [-65.6844, 8.4883], [-65.6854, 8.5048], [-65.6956, 8.5069], [-65.6946, 8.5211], [-65.7046, 8.5271], [-65.7049, 8.5388], [-65.7108, 8.5414], [-65.7082, 8.5631], [-65.6991, 8.576], [-65.6881, 8.5814], [-65.6896, 8.5987], [-65.6749, 8.605], [-65.6668, 8.6149], [-65.6656, 8.64], [-65.6553, 8.6505], [-65.6695, 8.6606], [-65.6728, 8.6714], [-65.6871, 8.6771], [-65.6947, 8.7042], [-65.707, 8.716], [-65.7109, 8.7272], [-65.7415, 8.7456], [-65.7482, 8.7586], [-65.7833, 8.7643], [-65.7907, 8.7707], [-65.8092, 8.7704], [-65.8147, 8.776], [-65.8063, 8.793], [-65.8187, 8.8131], [-65.8105, 8.8172], [-65.8063, 8.8449], [-65.8288, 8.8584], [-65.8374, 8.8729], [-65.865, 8.8854], [-65.8891, 8.914], [-65.8817, 8.9205], [-65.8845, 8.9303], [-65.9024, 8.9415], [-65.9252, 8.9788], [-65.9269, 8.9895], [-65.9125, 9.0088], [-65.9159, 9.0263], [-65.9103, 9.0343], [-65.9213, 9.086], [-65.9342, 9.1114], [-65.9316, 9.1166], [-65.9365, 9.1257], [-65.9317, 9.1304], [-65.9379, 9.1431], [-65.9451, 9.1434], [-65.9388, 9.1541], [-65.9294, 9.1574], [-65.9317, 9.1648], [-65.9204, 9.169], [-65.8859, 9.2479], [-65.8815, 9.3304], [-65.9132, 9.468], [-65.9622, 9.584], [-66.0008, 9.6089], [-66.1377, 9.3468], [-66.1118, 9.3213], [-66.1265, 9.3132], [-66.1008, 9.2822], [-66.1021, 9.2576], [-66.1143, 9.2171], [-66.1377, 9.2118], [-66.1478, 9.1962], [-66.1609, 9.1887], [-66.1655, 9.1773], [-66.1815, 9.1763], [-66.1913, 9.1703], [-66.218, 9.144], [-66.2202, 9.1344], [-66.2159, 9.1277], [-66.2284, 9.1174], [-66.2246, 9.0948], [-66.2326, 9.0927], [-66.2266, 9.0712], [-66.2358, 9.0631], [-66.235, 9.0571], [-66.2411, 9.0548], [-66.2438, 9.0316], [-66.2526, 9.0234]]]}}, {"type": "Feature", "properties": {"osm_type": "relation", "osm_id": 950750580, "name": "Ortíz", "admin_level": "6", "kind": "subdivision_2", "parent_osm_id": 272663, "parent_name": "Guarico State", "parent_iso": "VE-J"}, "geometry": {"type": "Polygon", "coordinates": [[[-67.5186, 9.8734], [-67.5249, 9.8802], [-67.5486, 9.8826], [-67.5517, 9.8927], [-67.5682, 9.9017], [-67.5796, 9.8951], [-67.5755, 9.8882], [-67.5879, 9.8733], [-67.5941, 9.8427], [-67.6023, 9.8404], [-67.6059, 9.8466], [-67.6129, 9.8466], [-67.6323, 9.8589], [-67.6474, 9.8421], [-67.667, 9.8427], [-67.6832, 9.821], [-67.6916, 9.8204], [-67.7132, 9.8337], [-67.7053, 9.8478], [-67.7132, 9.8531], [-67.7152, 9.8716], [-67.7332, 9.8778], [-67.7389, 9.8901], [-67.7663, 9.9027], [-67.7704, 9.9128], [-67.7797, 9.9189], [-67.8014, 9.9216], [-67.8061, 9.9266], [-67.8101, 9.9228], [-67.8174, 9.869], [-67.7987, 9.8291], [-67.8036, 9.8167], [-67.7976, 9.7991], [-67.7994, 9.7828], [-67.7838, 9.7607], [-67.7629, 9.7571], [-67.7698, 9.7396], [-67.7582, 9.7197], [-67.7641, 9.7138], [-67.7539, 9.6986], [-67.7564, 9.6791], [-67.78, 9.6656], [-67.789, 9.6535], [-67.8084, 9.6477], [-67.8185, 9.6359], [-67.8168, 9.6283], [-67.8274, 9.6273], [-67.8289, 9.6225], [-67.8392, 9.6253], [-67.8526, 9.6163], [-67.8756, 9.614], [-67.885, 9.6072], [-67.8895, 9.6159], [-67.8953, 9.6174], [-67.9182, 9.6132], [-67.9273, 9.5982], [-67.9405, 9.5973], [-67.9372, 9.5739], [-67.9288, 9.5595], [-67.9414, 9.5572], [-67.9372, 9.5506], [-67.9744, 9.5383], [-67.9703, 9.5263], [-67.9595, 9.5277], [-67.9638, 9.5113], [-67.9565, 9.508], [-67.9554, 9.4952], [-67.9285, 9.4777], [-67.9273, 9.4551], [-67.922, 9.4515], [-67.9271, 9.4523], [-67.9272, 9.4446], [-67.9211, 9.4374], [-67.9222, 9.418], [-67.9161, 9.4091], [-67.917, 9.3973], [-67.9228, 9.3946], [-67.9229, 9.3846], [-67.9194, 9.3841], [-67.9241, 9.3789], [-67.9221, 9.3672], [-67.9274, 9.357], [-67.9234, 9.3511], [-67.9422, 9.334], [-67.9468, 9.3164], [-67.9393, 9.3129], [-67.9415, 9.3042], [-67.9369, 9.2971], [-67.9142, 9.2799], [-67.9172, 9.2763], [-67.9055, 9.2649], [-67.8982, 9.2442], [-67.8864, 9.2423], [-67.882, 9.2286], [-67.5175, 9.2058], [-67.4948, 9.2146], [-67.4746, 9.2088], [-67.4644, 9.2003], [-67.4451, 9.2022], [-67.4261, 9.194], [-67.4058, 9.1923], [-67.4014, 9.1875], [-67.393, 9.2083], [-67.3886, 9.2054], [-67.3817, 9.2089], [-67.3832, 9.2188], [-67.3738, 9.2138], [-67.376, 9.222], [-67.3695, 9.2208], [-67.3695, 9.229], [-67.3594, 9.23], [-67.3648, 9.2381], [-67.3704, 9.2383], [-67.3772, 9.2543], [-67.3727, 9.2769], [-67.3664, 9.2778], [-67.3684, 9.2732], [-67.3647, 9.2713], [-67.3551, 9.2793], [-67.3461, 9.2753], [-67.3371, 9.2912], [-67.3411, 9.2946], [-67.339, 9.303], [-67.3346, 9.3023], [-67.3355, 9.2901], [-67.3282, 9.2918], [-67.3287, 9.2996], [-67.3129, 9.3026], [-67.3182, 9.3055], [-67.3138, 9.3179], [-67.3035, 9.3103], [-67.304, 9.321], [-67.2952, 9.3182], [-67.2859, 9.3255], [-67.2822, 9.3188], [-67.2688, 9.3262], [-67.2737, 9.3318], [-67.2672, 9.3379], [-67.2728, 9.3415], [-67.2669, 9.3411], [-67.2636, 9.3471], [-67.258, 9.3424], [-67.2528, 9.3499], [-67.2615, 9.356], [-67.254, 9.3644], [-67.2454, 9.4067], [-67.2528, 9.4084], [-67.262, 9.4224], [-67.2563, 9.4261], [-67.2613, 9.4279], [-67.2608, 9.4457], [-67.2543, 9.4499], [-67.2588, 9.4497], [-67.2593, 9.4588], [-67.2471, 9.4718], [-67.2047, 9.5562], [-67.2315, 9.5847], [-67.253, 9.5988], [-67.2526, 9.6118], [-67.2301, 9.6323], [-67.2414, 9.6405], [-67.2536, 9.6408], [-67.2858, 9.6357], [-67.3139, 9.6205], [-67.3428, 9.6286], [-67.3667, 9.6227], [-67.4503, 9.6197], [-67.4523, 9.6298], [-67.4633, 9.6341], [-67.4588, 9.6378], [-67.4613, 9.6436], [-67.4539, 9.6491], [-67.454, 9.6589], [-67.4774, 9.6856], [-67.4909, 9.6919], [-67.5112, 9.7201], [-67.52, 9.7215], [-67.5497, 9.7745], [-67.5376, 9.7962], [-67.5272, 9.8467], [-67.5164, 9.8656], [-67.5186, 9.8734]]]}}, {"type": "Feature", "properties": {"osm_type": "relation", "osm_id": 372507435, "name": "San Gerónimo de Guayabal", "admin_level": "6", "kind": "subdivision_2", "parent_osm_id": 272663, "parent_name": "Guarico State", "parent_iso": "VE-J"}, "geometry": {"type": "Polygon", "coordinates": [[[-67.3774, 7.8971], [-67.365, 7.8913], [-67.3687, 7.8845], [-67.3624, 7.8783], [-67.3572, 7.8798], [-67.3557, 7.8897], [-67.3492, 7.8869], [-67.3542, 7.8797], [-67.3517, 7.8765], [-67.3379, 7.8903], [-67.3386, 7.8839], [-67.3221, 7.8781], [-67.3316, 7.8641], [-67.3264, 7.8432], [-67.3069, 7.832], [-67.3034, 7.8225], [-67.3016, 7.827], [-67.2896, 7.8196], [-67.2788, 7.8269], [-67.2607, 7.8258], [-67.2569, 7.8122], [-67.2427, 7.8058], [-67.2479, 7.7968], [-67.2391, 7.8006], [-67.2378, 7.7945], [-67.228, 7.7895], [-67.2215, 7.7724], [-67.194, 7.7702], [-67.1842, 7.7764], [-67.1673, 7.7727], [-67.1571, 7.7764], [-67.1619, 7.7594], [-67.1544, 7.7544], [-67.1412, 7.7605], [-67.099, 7.7595], [-67.0951, 7.7717], [-67.0584, 7.779], [-67.0521, 7.7859], [-67.0106, 7.7535], [-67.0065, 7.7652], [-66.9773, 7.7625], [-66.969, 7.7564], [-66.9698, 7.7451], [-66.9663, 7.7503], [-66.9602, 7.7433], [-66.9411, 7.7383], [-66.9314, 7.7469], [-66.9109, 7.7517], [-66.892, 7.7434], [-66.8841, 7.7224], [-66.8527, 7.7183], [-66.8466, 7.732], [-66.834, 7.7254], [-66.8173, 7.7271], [-66.7929, 7.7001], [-66.7912, 7.7084], [-66.7864, 7.7033], [-66.7816, 7.7087], [-66.7752, 7.6982], [-66.7634, 7.7], [-66.7616, 7.6929], [-66.745, 7.6939], [-66.7282, 7.6828], [-66.731, 7.6896], [-66.7195, 7.691], [-66.7154, 7.6863], [-66.694, 7.6983], [-66.6882, 7.7176], [-66.6805, 7.7085], [-66.6853, 7.6952], [-66.673, 7.7022], [-66.6676, 7.7007], [-66.6672, 7.6915], [-66.651, 7.6974], [-66.6373, 7.7261], [-66.6497, 7.7246], [-66.6522, 7.7332], [-66.6583, 7.7358], [-66.652, 7.7399], [-66.6532, 7.7461], [-66.6645, 7.7434], [-66.6675, 7.7525], [-66.6587, 7.757], [-66.6575, 7.7648], [-66.6408, 7.7596], [-66.6307, 7.7712], [-66.6078, 7.7585], [-66.5848, 7.777], [-66.5693, 7.7742], [-66.555, 7.7805], [-66.5551, 7.7709], [-66.5462, 7.7811], [-66.5535, 7.7981], [-66.5302, 7.8081], [-66.5424, 7.8197], [-66.5286, 7.8249], [-66.5318, 7.8353], [-66.5399, 7.8356], [-66.5625, 7.8224], [-66.575, 7.8227], [-66.5794, 7.8256], [-66.5779, 7.8355], [-66.5907, 7.8352], [-66.6039, 7.8491], [-66.5964, 7.859], [-66.6095, 7.8575], [-66.6038, 7.8679], [-66.6142, 7.8638], [-66.6169, 7.8738], [-66.6289, 7.8837], [-66.6401, 7.8712], [-66.6355, 7.89], [-66.6395, 7.8882], [-66.6397, 7.9038], [-66.6353, 7.9114], [-66.6432, 7.9173], [-66.6481, 7.914], [-66.6463, 7.9065], [-66.6505, 7.9005], [-66.6544, 7.9099], [-66.6623, 7.9057], [-66.6743, 7.9107], [-66.6936, 7.9028], [-66.7075, 7.9209], [-66.7008, 7.9194], [-66.6975, 7.9291], [-66.702, 7.9358], [-66.7066, 7.9252], [-66.7181, 7.9356], [-66.7146, 7.939], [-66.7192, 7.9422], [-66.7232, 7.9357], [-66.7337, 7.945], [-66.7368, 7.9415], [-66.7504, 7.9461], [-66.766, 7.9423], [-66.7662, 7.9389], [-66.7751, 7.9413], [-66.7991, 7.9636], [-66.8063, 7.989], [-66.8106, 7.985], [-66.8169, 7.9879], [-66.819, 7.9817], [-66.8272, 7.9888], [-66.8309, 7.9842], [-66.8394, 7.9854], [-66.8403, 7.9921], [-66.8476, 7.994], [-66.8505, 8.0009], [-66.8796, 8.0093], [-66.8821, 8.0192], [-66.9066, 8.0401], [-66.9101, 8.0511], [-66.9265, 8.0472], [-66.9345, 8.0507], [-66.9358, 8.062], [-66.9532, 8.0675], [-66.9507, 8.0749], [-66.9627, 8.0794], [-66.9602, 8.0869], [-66.9521, 8.0877], [-66.945, 8.1017], [-66.9496, 8.1119], [-66.9401, 8.1213], [-66.9395, 8.1311], [-66.943, 8.1352], [-66.9494, 8.1318], [-66.9467, 8.1411], [-66.9538, 8.1477], [-66.9566, 8.1649], [-66.9702, 8.1729], [-66.9634, 8.1761], [-66.9709, 8.1791], [-66.9743, 8.19], [-66.9689, 8.2013], [-66.9749, 8.2088], [-66.9703, 8.2101], [-66.9854, 8.2173], [-66.9921, 8.2309], [-67.0028, 8.2321], [-66.9997, 8.2375], [-67.0101, 8.2403], [-67.0104, 8.2455], [-67.0264, 8.2424], [-67.0465, 8.2552], [-67.0577, 8.2527], [-67.0714, 8.2571], [-67.0921, 8.2799], [-67.1032, 8.2774], [-67.1109, 8.2987], [-67.1272, 8.3016], [-67.1369, 8.3128], [-67.1478, 8.308], [-67.1554, 8.3138], [-67.1781, 8.3158], [-67.1894, 8.3376], [-67.2155, 8.333], [-67.245, 8.3515], [-67.2511, 8.3476], [-67.2511, 8.3405], [-67.2576, 8.3393], [-67.3091, 8.3638], [-67.321, 8.3506], [-67.3344, 8.3507], [-67.3385, 8.3534], [-67.3341, 8.372], [-67.3421, 8.3621], [-67.3634, 8.3694], [-67.3739, 8.3673], [-67.3934, 8.3863], [-67.4008, 8.3858], [-67.4232, 8.3999], [-67.4334, 8.4184], [-67.4493, 8.425], [-67.4542, 8.4325], [-67.4931, 8.4438], [-67.4953, 8.4504], [-67.5199, 8.4377], [-67.5213, 8.4324], [-67.5157, 8.4189], [-67.5028, 8.4177], [-67.5016, 8.4137], [-67.4935, 8.419], [-67.4904, 8.407], [-67.501, 8.4053], [-67.4998, 8.401], [-67.4813, 8.4023], [-67.4829, 8.3964], [-67.495, 8.3913], [-67.486, 8.3901], [-67.4895, 8.3812], [-67.4832, 8.384], [-67.489, 8.3775], [-67.4672, 8.382], [-67.4718, 8.3689], [-67.4593, 8.3656], [-67.4549, 8.3575], [-67.4606, 8.3555], [-67.4656, 8.3603], [-67.4676, 8.3562], [-67.4603, 8.3493], [-67.4509, 8.3482], [-67.4385, 8.3596], [-67.4369, 8.3518], [-67.4419, 8.3468], [-67.435, 8.3417], [-67.4193, 8.3525], [-67.4142, 8.3399], [-67.4053, 8.3428], [-67.4017, 8.3365], [-67.4057, 8.3287], [-67.4164, 8.3332], [-67.4168, 8.3266], [-67.4101, 8.32], [-67.4206, 8.3038], [-67.4336, 8.301], [-67.4288, 8.2719], [-67.414, 8.2644], [-67.4153, 8.2588], [-67.433, 8.2582], [-67.4369, 8.2619], [-67.4388, 8.2582], [-67.4289, 8.2565], [-67.4194, 8.2282], [-67.4108, 8.236], [-67.4061, 8.2315], [-67.4051, 8.2211], [-67.4186, 8.2076], [-67.4072, 8.2011], [-67.4199, 8.1962], [-67.4191, 8.1844], [-67.4317, 8.1852], [-67.4336, 8.173], [-67.4472, 8.1675], [-67.4567, 8.1492], [-67.4753, 8.1393], [-67.4725, 8.1336], [-67.4804, 8.127], [-67.4772, 8.1232], [-67.4811, 8.1183], [-67.475, 8.1084], [-67.4716, 8.1115], [-67.4775, 8.1175], [-67.4624, 8.116], [-67.463, 8.0964], [-67.4462, 8.0792], [-67.4327, 8.0776], [-67.4328, 8.0704], [-67.4181, 8.0653], [-67.4187, 8.0529], [-67.4294, 8.0349], [-67.4256, 8.0257], [-67.4331, 8.0162], [-67.434, 8.003], [-67.4031, 7.997], [-67.3932, 7.9884], [-67.395, 7.9777], [-67.3868, 7.9649], [-67.3781, 7.9625], [-67.3764, 7.9661], [-67.3723, 7.9588], [-67.3615, 7.9568], [-67.3601, 7.9483], [-67.3698, 7.9464], [-67.3648, 7.9415], [-67.366, 7.9247], [-67.3799, 7.9132], [-67.3774, 7.8971]]]}}, {"type": "Feature", "properties": {"osm_type": "relation", "osm_id": 136667374, "name": "San José de Guaribe", "admin_level": "6", "kind": "subdivision_2", "parent_osm_id": 272663, "parent_name": "Guarico State", "parent_iso": "VE-J"}, "geometry": {"type": "Polygon", "coordinates": [[[-65.719, 9.9586], [-65.746, 9.955], [-65.7488, 9.9378], [-65.757, 9.9393], [-65.7692, 9.9505], [-65.7739, 9.9411], [-65.7927, 9.9579], [-65.8065, 9.9525], [-65.8403, 9.968], [-65.8728, 9.9665], [-65.8969, 9.9618], [-65.9178, 9.9422], [-65.9381, 9.94], [-65.9416, 9.9432], [-65.9532, 9.9314], [-65.9677, 9.9391], [-65.9813, 9.9362], [-65.9817, 9.9148], [-65.9708, 9.8939], [-65.9733, 9.8824], [-65.967, 9.8663], [-65.9745, 9.8589], [-65.9724, 9.8493], [-65.9916, 9.8321], [-65.9928, 9.8239], [-66.0039, 9.8227], [-65.9912, 9.8066], [-65.9975, 9.7903], [-65.9926, 9.7619], [-65.9995, 9.6888], [-65.9955, 9.6745], [-65.9879, 9.6668], [-65.9924, 9.656], [-65.9915, 9.6382], [-65.9612, 9.604], [-65.9604, 9.584], [-65.8392, 9.5889], [-65.8327, 9.6037], [-65.8176, 9.6063], [-65.7934, 9.6484], [-65.7821, 9.6563], [-65.7852, 9.6624], [-65.7761, 9.6696], [-65.7535, 9.6765], [-65.7545, 9.6836], [-65.7482, 9.6852], [-65.7194, 9.6803], [-65.7152, 9.6833], [-65.7124, 9.6787], [-65.6998, 9.6828], [-65.6729, 9.7717], [-65.6813, 9.7822], [-65.6799, 9.7944], [-65.7043, 9.8148], [-65.7056, 9.825], [-65.716, 9.834], [-65.7079, 9.8396], [-65.7093, 9.8547], [-65.7229, 9.8673], [-65.7258, 9.8871], [-65.7168, 9.9126], [-65.719, 9.9586]]]}}, {"type": "Feature", "properties": {"osm_type": "relation", "osm_id": 434754161, "name": "Santa María de Ipire", "admin_level": "6", "kind": "subdivision_2", "parent_osm_id": 272663, "parent_name": "Guarico State", "parent_iso": "VE-J"}, "geometry": {"type": "Polygon", "coordinates": [[[-65.5708, 7.9166], [-65.549, 7.9149], [-65.4887, 7.8653], [-65.4562, 7.8508], [-65.4009, 7.8488], [-65.319, 7.8624], [-65.3252, 7.8752], [-65.3333, 7.8796], [-65.3758, 7.8772], [-65.3954, 7.8978], [-65.4269, 7.9146], [-65.4737, 7.9159], [-65.4779, 7.9171], [-65.4754, 7.9221], [-65.4873, 7.9155], [-65.4993, 7.9166], [-65.4977, 7.9209], [-65.5078, 7.9283], [-65.508, 7.9342], [-65.5023, 7.9607], [-65.4905, 7.9637], [-65.4928, 7.9718], [-65.498, 7.9718], [-65.4938, 7.9781], [-65.5004, 7.9912], [-65.486, 8.0063], [-65.4922, 8.0234], [-65.4801, 8.027], [-65.483, 8.042], [-65.4648, 8.0499], [-65.4604, 8.0437], [-65.4529, 8.0494], [-65.4374, 8.0812], [-65.4246, 8.0954], [-65.4243, 8.1037], [-65.4015, 8.1142], [-65.4044, 8.1238], [-65.3941, 8.1265], [-65.3961, 8.1318], [-65.391, 8.1339], [-65.3789, 8.156], [-65.3868, 8.1602], [-65.3917, 8.1703], [-65.3851, 8.1649], [-65.3846, 8.1705], [-65.3794, 8.1645], [-65.3794, 8.1707], [-65.3686, 8.1745], [-65.3726, 8.1796], [-65.379, 8.1777], [-65.3803, 8.1823], [-65.3711, 8.1887], [-65.3667, 8.1863], [-65.369, 8.1994], [-65.3617, 8.2041], [-65.3569, 8.1958], [-65.3493, 8.1979], [-65.3546, 8.205], [-65.3451, 8.204], [-65.3482, 8.2114], [-65.336, 8.2161], [-65.3391, 8.2216], [-65.3277, 8.2186], [-65.3264, 8.2239], [-65.3324, 8.2296], [-65.3142, 8.2302], [-65.3152, 8.2467], [-65.3065, 8.2485], [-65.3087, 8.2543], [-65.3019, 8.2538], [-65.3015, 8.2624], [-65.2936, 8.2654], [-65.2903, 8.2747], [-65.2841, 8.2725], [-65.2897, 8.2789], [-65.2821, 8.2957], [-65.2714, 8.2946], [-65.2758, 8.3125], [-65.2658, 8.3156], [-65.2593, 8.3297], [-65.2565, 8.326], [-65.2519, 8.3303], [-65.2511, 8.3247], [-65.2398, 8.3289], [-65.2381, 8.3379], [-65.2332, 8.3362], [-65.2294, 8.3406], [-65.2283, 8.3554], [-65.2211, 8.3545], [-65.2161, 8.3675], [-65.2131, 8.363], [-65.2058, 8.3698], [-65.21, 8.3782], [-65.2003, 8.388], [-65.2078, 8.3916], [-65.202, 8.403], [-65.2048, 8.409], [-65.1989, 8.4083], [-65.1993, 8.4207], [-65.1909, 8.4296], [-65.1833, 8.4304], [-65.1914, 8.4385], [-65.1814, 8.4465], [-65.1817, 8.4525], [-65.1879, 8.4506], [-65.1804, 8.4667], [-65.1851, 8.4669], [-65.1861, 8.4739], [-65.1813, 8.4775], [-65.1824, 8.4842], [-65.1739, 8.4887], [-65.1736, 8.5016], [-65.1622, 8.5108], [-65.167, 8.5249], [-65.1561, 8.5295], [-65.1631, 8.5407], [-65.154, 8.5409], [-65.1527, 8.5482], [-65.159, 8.5515], [-65.1517, 8.5558], [-65.151, 8.5637], [-65.1558, 8.5693], [-65.1476, 8.573], [-65.1552, 8.5856], [-65.1547, 8.5925], [-65.1488, 8.5963], [-65.1584, 8.601], [-65.1524, 8.6036], [-65.1532, 8.6125], [-65.1684, 8.6246], [-65.1676, 8.6325], [-65.1775, 8.6503], [-65.1718, 8.668], [-65.1644, 8.668], [-65.1734, 8.6743], [-65.1722, 8.695], [-65.176, 8.6998], [-65.1694, 8.7084], [-65.16, 8.7087], [-65.1621, 8.7154], [-65.1535, 8.7177], [-65.1548, 8.7304], [-65.1505, 8.7302], [-65.1439, 8.7418], [-65.1359, 8.7461], [-65.1279, 8.7454], [-65.1259, 8.7401], [-65.1251, 8.7441], [-65.1118, 8.7435], [-65.1001, 8.7551], [-65.0859, 8.7606], [-65.0806, 8.756], [-65.0693, 8.7576], [-65.0559, 8.7434], [-65.0253, 8.7353], [-65.012, 8.7434], [-64.9872, 8.7486], [-64.9809, 8.745], [-64.971, 8.7484], [-64.9432, 8.7384], [-64.9317, 8.7439], [-64.9205, 8.7423], [-64.9151, 8.7374], [-64.9171, 8.7316], [-64.899, 8.7104], [-64.8793, 8.7073], [-64.8758, 8.6986], [-64.8483, 8.6942], [-64.785, 8.8108], [-64.8026, 8.8212], [-64.813, 8.8198], [-64.8222, 8.8117], [-64.8485, 8.8229], [-64.8646, 8.8499], [-64.8885, 8.8556], [-64.9027, 8.8734], [-64.9176, 8.8732], [-64.929, 8.8942], [-64.9459, 8.8947], [-64.9532, 8.903], [-64.949, 8.9088], [-64.9523, 8.9165], [-64.9577, 8.9192], [-64.996, 8.9079], [-65.0044, 8.9095], [-65.0077, 8.9178], [-65.0157, 8.9202], [-65.0189, 8.9161], [-65.0203, 8.9218], [-65.0441, 8.9157], [-65.0718, 8.9214], [-65.0767, 8.9175], [-65.0897, 8.9317], [-65.0995, 8.9247], [-65.1152, 8.9316], [-65.1155, 8.9271], [-65.1276, 8.9281], [-65.13, 8.9215], [-65.1379, 8.922], [-65.1373, 8.9173], [-65.1456, 8.923], [-65.1476, 8.9175], [-65.1519, 8.9208], [-65.1546, 8.9159], [-65.1626, 8.9181], [-65.1627, 8.9142], [-65.1726, 8.9258], [-65.1921, 8.9372], [-65.2051, 8.9362], [-65.205, 8.9326], [-65.2177, 8.9287], [-65.2417, 8.9371], [-65.2438, 8.9298], [-65.2578, 8.9342], [-65.2595, 8.9446], [-65.2683, 8.9471], [-65.2662, 8.9598], [-65.2706, 8.9659], [-65.2748, 8.9645], [-65.2725, 8.9611], [-65.2797, 8.9619], [-65.2852, 8.9731], [-65.2897, 8.9715], [-65.2896, 8.9759], [-65.2975, 8.9777], [-65.295, 8.9851], [-65.3005, 8.9869], [-65.2997, 8.9926], [-65.3059, 8.9893], [-65.3067, 8.9975], [-65.3129, 8.9986], [-65.3135, 8.9931], [-65.3177, 8.9979], [-65.3169, 9.0097], [-65.3212, 9.0122], [-65.3169, 9.0154], [-65.3228, 9.0229], [-65.3151, 9.0247], [-65.3115, 9.0401], [-65.3257, 9.0435], [-65.3248, 9.0502], [-65.3319, 9.051], [-65.3316, 9.0566], [-65.3378, 9.0594], [-65.3365, 9.0684], [-65.3281, 9.0684], [-65.3409, 9.0779], [-65.3342, 9.0858], [-65.4227, 9.0478], [-65.4272, 9.0498], [-65.4433, 9.0352], [-65.4731, 9.0234], [-65.5011, 9.0211], [-65.5197, 9.0299], [-65.5272, 9.0268], [-65.5297, 9.0169], [-65.5398, 9.0139], [-65.5398, 8.9778], [-65.5445, 8.969], [-65.5313, 8.9134], [-65.5248, 8.9027], [-65.5249, 8.8804], [-65.5111, 8.8493], [-65.5301, 8.7972], [-65.5273, 8.7566], [-65.5629, 8.7419], [-65.5834, 8.7416], [-65.6137, 8.6958], [-65.6132, 8.6903], [-65.6231, 8.6813], [-65.622, 8.673], [-65.6025, 8.6586], [-65.5923, 8.62], [-65.5746, 8.5879], [-65.5679, 8.5569], [-65.5763, 8.5184], [-65.5986, 8.5191], [-65.6061, 8.514], [-65.5964, 8.5023], [-65.5814, 8.4496], [-65.5653, 8.4254], [-65.5571, 8.3997], [-65.5388, 8.3934], [-65.5216, 8.3793], [-65.502, 8.3806], [-65.4909, 8.3548], [-65.5003, 8.331], [-65.4956, 8.2924], [-65.4993, 8.2776], [-65.4939, 8.2604], [-65.5033, 8.2382], [-65.5053, 8.1914], [-65.5027, 8.167], [-65.4971, 8.1644], [-65.5033, 8.1565], [-65.5083, 8.0648], [-65.5238, 7.9935], [-65.5483, 7.9468], [-65.5482, 7.9326], [-65.5653, 7.9304], [-65.5708, 7.9166]]]}}, {"type": "Feature", "properties": {"osm_type": "relation", "osm_id": 646481165, "name": "Zaraza", "admin_level": "6", "kind": "subdivision_2", "parent_osm_id": 272663, "parent_name": "Guarico State", "parent_iso": "VE-J"}, "geometry": {"type": "Polygon", "coordinates": [[[-65.4272, 9.0498], [-65.4227, 9.0478], [-65.3342, 9.0858], [-65.3409, 9.0779], [-65.3281, 9.0684], [-65.3365, 9.0684], [-65.3378, 9.0594], [-65.3316, 9.0566], [-65.3319, 9.051], [-65.3248, 9.0502], [-65.3257, 9.0435], [-65.3115, 9.0401], [-65.3151, 9.0247], [-65.3228, 9.0229], [-65.3169, 9.0154], [-65.3212, 9.0122], [-65.3169, 9.0097], [-65.3177, 8.9979], [-65.3135, 8.9931], [-65.3129, 8.9986], [-65.3067, 8.9975], [-65.3059, 8.9893], [-65.2997, 8.9926], [-65.3005, 8.9869], [-65.295, 8.9851], [-65.2975, 8.9777], [-65.2896, 8.9759], [-65.2897, 8.9715], [-65.2852, 8.9731], [-65.2797, 8.9619], [-65.2725, 8.9611], [-65.2748, 8.9645], [-65.2706, 8.9659], [-65.2662, 8.9598], [-65.2683, 8.9471], [-65.2595, 8.9446], [-65.2578, 8.9342], [-65.2438, 8.9298], [-65.2417, 8.9371], [-65.2177, 8.9287], [-65.205, 8.9326], [-65.2051, 8.9362], [-65.1921, 8.9372], [-65.1726, 8.9258], [-65.1627, 8.9142], [-65.1626, 8.9181], [-65.1546, 8.9159], [-65.1519, 8.9208], [-65.1476, 8.9175], [-65.1456, 8.923], [-65.1373, 8.9173], [-65.1379, 8.922], [-65.13, 8.9215], [-65.1276, 8.9281], [-65.1155, 8.9271], [-65.1152, 8.9316], [-65.0995, 8.9247], [-65.0897, 8.9317], [-65.0767, 8.9175], [-65.0718, 8.9214], [-65.0441, 8.9157], [-65.0203, 8.9218], [-65.0189, 8.9161], [-65.0157, 8.9202], [-65.0077, 8.9178], [-65.0044, 8.9095], [-64.996, 8.9079], [-64.9577, 8.9192], [-64.9523, 8.9165], [-64.949, 8.9088], [-64.9532, 8.903], [-64.9459, 8.8947], [-64.929, 8.8942], [-64.9176, 8.8732], [-64.9027, 8.8734], [-64.8885, 8.8556], [-64.8646, 8.8499], [-64.8539, 8.8273], [-64.8436, 8.8203], [-64.8299, 8.8181], [-64.8222, 8.8117], [-64.8068, 8.8217], [-64.7865, 8.8135], [-64.7785, 8.833], [-64.7863, 8.8582], [-64.7833, 8.8696], [-64.7985, 8.8792], [-64.804, 8.8923], [-64.8252, 8.9104], [-64.8508, 8.9222], [-64.8657, 8.9369], [-64.8723, 8.9335], [-64.8809, 8.9374], [-64.8812, 8.9467], [-64.8913, 8.957], [-64.8943, 8.9694], [-64.9029, 8.968], [-64.9119, 8.9833], [-64.9237, 8.9843], [-64.9282, 8.9798], [-64.928, 8.9846], [-64.9397, 8.9858], [-64.9497, 9.0028], [-64.9482, 9.0078], [-64.9618, 9.0081], [-64.9536, 9.0348], [-64.9464, 9.0422], [-64.9521, 9.0445], [-64.951, 9.0564], [-64.9661, 9.0579], [-64.9658, 9.0693], [-64.9701, 9.066], [-64.9723, 9.0734], [-64.976, 9.0732], [-64.978, 9.0805], [-64.9714, 9.083], [-64.9737, 9.0925], [-64.9842, 9.0997], [-64.9817, 9.1037], [-64.9899, 9.1114], [-65.0028, 9.1153], [-65.0086, 9.1112], [-65.0171, 9.1197], [-65.0279, 9.1183], [-65.0346, 9.1319], [-65.0507, 9.1311], [-65.074, 9.1499], [-65.0778, 9.1464], [-65.0757, 9.1514], [-65.082, 9.1522], [-65.0799, 9.158], [-65.0893, 9.1599], [-65.0858, 9.1619], [-65.091, 9.1687], [-65.1067, 9.1703], [-65.1063, 9.1666], [-65.1133, 9.1671], [-65.1178, 9.162], [-65.1217, 9.168], [-65.1415, 9.1635], [-65.1436, 9.1689], [-65.1459, 9.1632], [-65.1471, 9.1701], [-65.1557, 9.1641], [-65.1596, 9.1681], [-65.1591, 9.1607], [-65.1676, 9.1664], [-65.1755, 9.1665], [-65.1779, 9.1617], [-65.1852, 9.1687], [-65.1931, 9.1682], [-65.1915, 9.1754], [-65.1953, 9.1719], [-65.1956, 9.1783], [-65.2014, 9.176], [-65.1969, 9.1811], [-65.2126, 9.1994], [-65.2054, 9.2073], [-65.2223, 9.2206], [-65.2182, 9.2237], [-65.226, 9.223], [-65.2271, 9.2294], [-65.2216, 9.2313], [-65.2345, 9.228], [-65.2369, 9.2348], [-65.2411, 9.2297], [-65.2391, 9.241], [-65.2455, 9.2452], [-65.2389, 9.2481], [-65.2441, 9.2597], [-65.2513, 9.2582], [-65.2537, 9.2621], [-65.2619, 9.2573], [-65.2597, 9.2621], [-65.2742, 9.2737], [-65.2766, 9.2816], [-65.2718, 9.2807], [-65.2735, 9.2884], [-65.2662, 9.2916], [-65.2714, 9.2937], [-65.2723, 9.3013], [-65.2791, 9.301], [-65.2749, 9.3062], [-65.2803, 9.3074], [-65.283, 9.3257], [-65.2927, 9.3268], [-65.2923, 9.3307], [-65.2993, 9.3271], [-65.3008, 9.3378], [-65.3182, 9.3416], [-65.307, 9.3507], [-65.2912, 9.3485], [-65.2996, 9.364], [-65.3132, 9.3681], [-65.303, 9.374], [-65.2941, 9.3679], [-65.2893, 9.3797], [-65.2767, 9.3762], [-65.2639, 9.3915], [-65.2526, 9.386], [-65.2559, 9.3988], [-65.2431, 9.3931], [-65.2395, 9.3995], [-65.2346, 9.3991], [-65.2412, 9.412], [-65.2331, 9.4141], [-65.2282, 9.4255], [-65.215, 9.4237], [-65.2118, 9.4295], [-65.2185, 9.4321], [-65.216, 9.4365], [-65.2053, 9.4356], [-65.2069, 9.4541], [-65.2162, 9.4576], [-65.2083, 9.4601], [-65.2147, 9.4634], [-65.2071, 9.4651], [-65.2053, 9.4706], [-65.208, 9.4728], [-65.2165, 9.4659], [-65.2179, 9.483], [-65.2243, 9.4867], [-65.2263, 9.4971], [-65.2431, 9.4962], [-65.2507, 9.5092], [-65.3037, 9.5142], [-65.3132, 9.511], [-65.329, 9.5277], [-65.3417, 9.5321], [-65.3485, 9.5448], [-65.365, 9.5528], [-65.3858, 9.5791], [-65.4084, 9.5934], [-65.4151, 9.604], [-65.4154, 9.6199], [-65.4328, 9.6508], [-65.505, 9.554], [-65.6376, 9.4442], [-65.5476, 9.2726], [-65.5994, 9.1428], [-65.597, 9.123], [-65.4272, 9.0498]]]}}, {"type": "Feature", "properties": {"osm_type": "relation", "osm_id": 645386985, "name": "Francisco de Miranda", "admin_level": "6", "kind": "subdivision_2", "parent_osm_id": 272663, "parent_name": "Guarico State", "parent_iso": "VE-J"}, "geometry": {"type": "Polygon", "coordinates": [[[-67.5199, 8.4377], [-67.4953, 8.4504], [-67.4931, 8.4438], [-67.4542, 8.4325], [-67.4493, 8.425], [-67.4334, 8.4184], [-67.4232, 8.3999], [-67.4008, 8.3858], [-67.3934, 8.3863], [-67.3739, 8.3673], [-67.3634, 8.3694], [-67.3421, 8.3621], [-67.3341, 8.372], [-67.3385, 8.3534], [-67.3344, 8.3507], [-67.321, 8.3506], [-67.3091, 8.3638], [-67.2576, 8.3393], [-67.2511, 8.3405], [-67.2511, 8.3476], [-67.245, 8.3515], [-67.2155, 8.333], [-67.1894, 8.3376], [-67.1781, 8.3158], [-67.1554, 8.3138], [-67.1478, 8.308], [-67.1369, 8.3128], [-67.1272, 8.3016], [-67.1109, 8.2987], [-67.1032, 8.2774], [-67.0921, 8.2799], [-67.0714, 8.2571], [-67.0577, 8.2527], [-67.0465, 8.2552], [-67.0264, 8.2424], [-67.0104, 8.2455], [-67.0101, 8.2403], [-66.9997, 8.2375], [-67.0028, 8.2321], [-66.9921, 8.2309], [-66.9854, 8.2173], [-66.9703, 8.2101], [-66.9749, 8.2088], [-66.9689, 8.2013], [-66.9743, 8.19], [-66.9709, 8.1791], [-66.9634, 8.1761], [-66.9702, 8.1729], [-66.9566, 8.1649], [-66.9538, 8.1477], [-66.9467, 8.1411], [-66.9494, 8.1318], [-66.943, 8.1352], [-66.9395, 8.1311], [-66.9401, 8.1213], [-66.9496, 8.1119], [-66.945, 8.1017], [-66.9521, 8.0877], [-66.9602, 8.0869], [-66.9627, 8.0794], [-66.9507, 8.0749], [-66.9532, 8.0675], [-66.9358, 8.062], [-66.9345, 8.0507], [-66.9265, 8.0472], [-66.9101, 8.0511], [-66.9066, 8.0401], [-66.8821, 8.0192], [-66.8796, 8.0093], [-66.8505, 8.0009], [-66.8476, 7.994], [-66.8403, 7.9921], [-66.8394, 7.9854], [-66.8309, 7.9842], [-66.8272, 7.9888], [-66.819, 7.9817], [-66.8169, 7.9879], [-66.8106, 7.985], [-66.8063, 7.989], [-66.8056, 7.9829], [-66.7922, 7.9777], [-66.7733, 7.9884], [-66.7717, 7.9914], [-66.7826, 7.9973], [-66.784, 8.0037], [-66.7789, 8.0273], [-66.768, 8.0418], [-66.762, 8.0602], [-66.7752, 8.1113], [-66.7699, 8.17], [-66.7619, 8.1865], [-66.7729, 8.2004], [-66.7663, 8.2299], [-66.7395, 8.2542], [-66.743, 8.265], [-66.74, 8.2763], [-66.746, 8.2844], [-66.7401, 8.2963], [-66.7429, 8.3082], [-66.7358, 8.3134], [-66.7417, 8.3221], [-66.7344, 8.3342], [-66.7464, 8.3719], [-66.7424, 8.3742], [-66.744, 8.383], [-66.7584, 8.4205], [-66.7662, 8.4275], [-66.7623, 8.435], [-66.7541, 8.4382], [-66.7564, 8.4496], [-66.7474, 8.4537], [-66.7448, 8.4597], [-66.7481, 8.4633], [-66.7416, 8.4718], [-66.7464, 8.4926], [-66.7426, 8.5014], [-66.75, 8.5215], [-66.7428, 8.5335], [-66.7443, 8.5393], [-66.7394, 8.5395], [-66.7424, 8.5581], [-66.7372, 8.5725], [-66.7286, 8.5771], [-66.7274, 8.5977], [-66.7179, 8.5986], [-66.7195, 8.6053], [-66.7047, 8.6225], [-66.7072, 8.6277], [-66.7001, 8.6467], [-66.7051, 8.6682], [-66.6998, 8.6835], [-66.6877, 8.6948], [-66.6924, 8.7661], [-66.6801, 8.7815], [-66.6651, 8.8292], [-66.674, 8.8711], [-66.6711, 8.8883], [-66.6553, 8.9034], [-66.6543, 8.9243], [-66.6569, 8.9602], [-66.6676, 8.9849], [-66.6653, 9.0325], [-66.6762, 9.0838], [-66.7078, 9.198], [-66.7286, 9.2329], [-66.7793, 9.2538], [-67.004, 9.1803], [-67.0069, 9.1875], [-67.0228, 9.1893], [-67.027, 9.1978], [-67.0973, 9.1906], [-67.1149, 9.1735], [-67.1201, 9.1588], [-67.14, 9.1539], [-67.139, 9.1711], [-67.1497, 9.1753], [-67.1506, 9.193], [-67.1701, 9.1977], [-67.1884, 9.1948], [-67.2024, 9.2028], [-67.241, 9.191], [-67.2471, 9.1802], [-67.2581, 9.1744], [-67.2729, 9.1749], [-67.2877, 9.1673], [-67.3097, 9.1681], [-67.3349, 9.1523], [-67.3481, 9.1494], [-67.3486, 9.1311], [-67.3959, 9.1593], [-67.402, 9.1671], [-67.3982, 9.1745], [-67.4058, 9.1923], [-67.4261, 9.194], [-67.4488, 9.2028], [-67.4644, 9.2003], [-67.4746, 9.2088], [-67.4948, 9.2146], [-67.5175, 9.2058], [-67.882, 9.2286], [-67.8746, 9.1789], [-67.8605, 9.1552], [-67.8624, 9.1409], [-67.8569, 9.1186], [-67.8635, 9.1066], [-67.8509, 9.0898], [-67.8523, 9.0834], [-67.8659, 9.0472], [-67.9017, 8.9946], [-67.9084, 8.9616], [-67.9215, 8.9413], [-67.9306, 8.932], [-67.9452, 8.9273], [-67.9525, 8.9321], [-67.9782, 8.9181], [-67.9825, 8.8934], [-67.9785, 8.8796], [-67.9655, 8.878], [-67.9691, 8.8617], [-67.9742, 8.8602], [-67.9727, 8.8533], [-67.9792, 8.8416], [-67.992, 8.8354], [-67.9877, 8.828], [-67.9955, 8.8234], [-67.9961, 8.7999], [-68.0075, 8.791], [-68.0037, 8.7889], [-68.0088, 8.7878], [-68.0152, 8.7755], [-68.0159, 8.7715], [-68.0115, 8.7716], [-68.0158, 8.7633], [-68.0281, 8.7642], [-68.0239, 8.7592], [-68.0272, 8.7562], [-68.0193, 8.7562], [-68.0155, 8.7496], [-68.0191, 8.7443], [-68.0084, 8.7422], [-68.0185, 8.7318], [-68.0225, 8.7392], [-68.0283, 8.7383], [-68.0326, 8.7266], [-68.027, 8.7239], [-68.0216, 8.7274], [-68.022, 8.717], [-68.0181, 8.7153], [-68.0211, 8.7103], [-68.0153, 8.7102], [-68.0133, 8.7043], [-68.0196, 8.6977], [-68.0037, 8.6957], [-68.0125, 8.6833], [-68.0207, 8.6828], [-68.0124, 8.6689], [-68.0185, 8.6603], [-68.0102, 8.6505], [-68.0037, 8.6507], [-68.0098, 8.6337], [-68.0047, 8.6287], [-68.0204, 8.62], [-68.0143, 8.6106], [-68.0181, 8.6054], [-68.012, 8.6055], [-68.0188, 8.6], [-68.0149, 8.5937], [-68.0214, 8.5912], [-68.0126, 8.5851], [-68.009, 8.5905], [-68.016, 8.5721], [-68.0118, 8.5713], [-68.0022, 8.5813], [-67.9963, 8.574], [-68.0036, 8.5561], [-67.9984, 8.555], [-68.0061, 8.5505], [-68.0151, 8.5583], [-68.0114, 8.5478], [-68.0174, 8.546], [-68.0163, 8.5383], [-68.0242, 8.5377], [-68.0239, 8.5313], [-68.03, 8.5348], [-68.0336, 8.53], [-68.0241, 8.5266], [-68.0196, 8.4885], [-68.0067, 8.4861], [-68.0047, 8.4787], [-68.0101, 8.4727], [-68.0038, 8.4645], [-67.9749, 8.4655], [-67.9746, 8.449], [-67.99, 8.4437], [-67.9937, 8.4352], [-67.96, 8.418], [-67.9664, 8.4062], [-67.9529, 8.3902], [-67.9432, 8.3888], [-67.9385, 8.3701], [-67.9017, 8.3759], [-67.9052, 8.3642], [-67.8887, 8.3428], [-67.8756, 8.3406], [-67.8729, 8.3344], [-67.8653, 8.3467], [-67.8571, 8.3478], [-67.8549, 8.3324], [-67.8814, 8.3043], [-67.8814, 8.2994], [-67.8632, 8.3055], [-67.8587, 8.3146], [-67.8443, 8.3049], [-67.8429, 8.2844], [-67.5199, 8.4377]]]}}]}