{"type": "FeatureCollection", "parent": {"osm_id": 274991, "name": "Los Lagos Region", "admin_level": "4", "kind": "subdivision_1", "child_kind": "subdivision_2", "iso": "CL-LL"}, "features": [{"type": "Feature", "properties": {"osm_type": "relation", "osm_id": 806086154, "name": "Provincia de Osorno", "admin_level": "6", "kind": "subdivision_2", "parent_osm_id": 274991, "parent_name": "Los Lagos Region", "parent_iso": "CL-LL"}, "geometry": {"type": "Polygon", "coordinates": [[[-73.7162, -40.2454], [-73.7198, -40.2571], [-73.7312, -40.2608], [-73.7314, -40.2687], [-73.7479, -40.2853], [-73.7519, -40.3008], [-73.7467, -40.3092], [-73.7534, -40.3193], [-73.7404, -40.3425], [-73.7481, -40.3509], [-73.7577, -40.3522], [-73.7533, -40.3637], [-73.7618, -40.3687], [-73.7563, -40.3719], [-73.759, -40.382], [-73.7544, -40.3878], [-73.7627, -40.389], [-73.7633, -40.3959], [-73.7559, -40.3966], [-73.7458, -40.4067], [-73.7455, -40.4121], [-73.7596, -40.4215], [-73.7481, -40.4283], [-73.7471, -40.445], [-73.7543, -40.4479], [-73.7548, -40.4533], [-73.7769, -40.453], [-73.7742, -40.4624], [-73.7657, -40.464], [-73.7576, -40.4783], [-73.7497, -40.4819], [-73.7593, -40.4855], [-73.7566, -40.4957], [-73.7334, -40.5013], [-73.7309, -40.5138], [-73.7166, -40.5293], [-73.7149, -40.538], [-73.7206, -40.5459], [-73.7161, -40.5549], [-73.7334, -40.5607], [-73.7399, -40.5712], [-73.7358, -40.5743], [-73.7432, -40.5799], [-73.7351, -40.5811], [-73.7363, -40.586], [-73.7478, -40.5867], [-73.7366, -40.5918], [-73.7407, -40.6018], [-73.7612, -40.6031], [-73.7556, -40.6061], [-73.7566, -40.62], [-73.7815, -40.6313], [-73.8006, -40.6322], [-73.8097, -40.6618], [-73.8248, -40.6611], [-73.834, -40.6665], [-73.8304, -40.6796], [-73.8177, -40.6817], [-73.8191, -40.6865], [-73.8091, -40.6907], [-73.8141, -40.7038], [-73.8009, -40.708], [-73.8001, -40.7144], [-73.8055, -40.7223], [-73.8302, -40.7216], [-73.8259, -40.7284], [-73.8421, -40.7494], [-73.8376, -40.7593], [-73.8483, -40.7615], [-73.8412, -40.7744], [-73.8587, -40.7712], [-73.8607, -40.7765], [-73.8541, -40.7914], [-73.8684, -40.8085], [-73.8603, -40.8118], [-73.8601, -40.8174], [-73.871, -40.8265], [-73.8679, -40.8345], [-73.8719, -40.8482], [-73.8868, -40.8597], [-73.8858, -40.8682], [-73.8767, -40.8747], [-73.8775, -40.8862], [-73.8521, -40.8901], [-73.855, -40.896], [-73.8505, -40.899], [-73.8541, -40.9019], [-73.846, -40.9138], [-73.8581, -40.9272], [-73.8568, -40.9359], [-73.8662, -40.9394], [-73.8617, -40.945], [-73.8683, -40.9355], [-73.8749, -40.9392], [-73.8854, -40.936], [-73.8969, -40.95], [-73.9222, -40.959], [-73.9217, -40.9657], [-73.9378, -40.9654], [-73.9361, -40.9694], [-73.9461, -40.9854], [-73.9385, -40.9899], [-73.9377, -40.9999], [-73.9325, -40.9994], [-73.9352, -41.0076], [-73.9313, -41.0138], [-73.9387, -41.0256], [-73.9277, -41.0422], [-73.9352, -41.051], [-73.9368, -41.0613], [-73.9263, -41.0549], [-73.9219, -41.0459], [-73.9055, -41.0398], [-73.9054, -41.0346], [-73.8955, -41.027], [-73.86, -41.0319], [-73.841, -41.0175], [-73.8266, -41.0166], [-73.8155, -41.0097], [-73.7506, -41.0275], [-73.7433, -41.0369], [-73.7219, -41.0431], [-73.7109, -41.0515], [-73.7018, -41.0442], [-73.6897, -41.0465], [-73.6726, -41.036], [-73.6693, -41.044], [-73.6523, -41.0476], [-73.6414, -41.0631], [-73.6339, -41.0643], [-73.6297, -41.0544], [-73.6128, -41.052], [-73.6097, -41.0469], [-73.5854, -41.0565], [-73.5625, -41.0476], [-73.513, -41.0564], [-73.5054, -41.0461], [-73.4889, -41.042], [-73.4803, -41.023], [-73.4688, -41.0157], [-73.4664, -41.0079], [-73.4496, -41.0057], [-73.452, -40.9987], [-73.4308, -40.9937], [-73.3815, -41.0062], [-73.3762, -41.0], [-73.3554, -41.0206], [-73.3358, -41.007], [-73.3284, -41.0224], [-73.3134, -41.0172], [-73.3091, -41.0098], [-73.3, -41.0126], [-73.2795, -41.0069], [-73.2551, -40.9923], [-73.2596, -40.9886], [-73.2527, -40.9789], [-73.2437, -40.9835], [-73.236, -40.9807], [-73.2333, -40.9872], [-73.2203, -40.9858], [-73.2238, -40.9922], [-73.2124, -40.9962], [-73.2169, -41.0025], [-73.2005, -41.0051], [-73.1726, -40.9849], [-73.1564, -40.9864], [-73.1069, -40.9773], [-73.0802, -40.9904], [-73.0247, -41.0063], [-73.0237, -41.0143], [-72.9932, -41.0282], [-72.9255, -41.0091], [-72.8721, -41.0362], [-72.7985, -41.0513], [-72.6213, -41.119], [-72.6013, -41.1107], [-72.5807, -41.1186], [-72.5558, -41.1085], [-72.4951, -41.104], [-72.4745, -41.0713], [-72.4485, -41.0641], [-72.4241, -41.0645], [-72.4224, -41.0569], [-72.3885, -41.0422], [-72.3781, -41.0282], [-72.3704, -41.0268], [-72.3675, -41.017], [-72.3714, -41.0106], [-72.366, -41.0006], [-72.355, -40.9978], [-72.3347, -41.0014], [-72.3254, -40.9946], [-72.2886, -40.9848], [-72.2763, -40.9746], [-72.2658, -40.9741], [-72.2427, -40.9585], [-72.2232, -40.9523], [-72.218, -40.9408], [-72.2049, -40.9432], [-72.1856, -40.9234], [-72.1447, -40.9508], [-72.1261, -40.9548], [-72.0831, -40.9544], [-72.0774, -40.9437], [-72.0469, -40.946], [-72.0462, -40.9268], [-72.0372, -40.9175], [-72.0408, -40.8951], [-72.0729, -40.8878], [-72.0666, -40.8768], [-72.0772, -40.8664], [-72.0974, -40.8576], [-72.0938, -40.8483], [-72.1052, -40.8387], [-72.0934, -40.8294], [-72.092, -40.825], [-72.0985, -40.8201], [-72.09, -40.8163], [-72.0894, -40.8112], [-72.1033, -40.813], [-72.1063, -40.805], [-72.1008, -40.8001], [-71.9268, -40.7942], [-71.9235, -40.7832], [-71.9535, -40.7647], [-71.9594, -40.7584], [-71.9584, -40.7458], [-71.9666, -40.7451], [-71.9628, -40.7416], [-71.9639, -40.7196], [-71.9495, -40.7191], [-71.9205, -40.6891], [-71.9, -40.6814], [-71.8845, -40.6661], [-71.87, -40.6638], [-71.8648, -40.6452], [-71.8541, -40.6423], [-71.8376, -40.6099], [-71.8407, -40.5978], [-71.8251, -40.5781], [-71.8403, -40.587], [-71.8455, -40.5825], [-71.8551, -40.5927], [-71.8777, -40.5645], [-71.8816, -40.5689], [-71.8801, -40.579], [-71.8859, -40.5842], [-71.929, -40.591], [-71.935, -40.608], [-71.95, -40.6213], [-71.9612, -40.6224], [-71.9705, -40.6344], [-72.0102, -40.6369], [-72.0222, -40.6263], [-72.0412, -40.6336], [-72.0539, -40.6304], [-72.0626, -40.6519], [-72.08, -40.6605], [-72.0873, -40.6574], [-72.1013, -40.6632], [-72.1098, -40.6573], [-72.1261, -40.6611], [-72.1369, -40.6572], [-72.147, -40.6622], [-72.1623, -40.6578], [-72.1999, -40.6716], [-72.2189, -40.6619], [-72.2465, -40.667], [-72.2593, -40.6541], [-72.2701, -40.6495], [-72.2782, -40.6546], [-72.2863, -40.6507], [-72.2855, -40.6461], [-72.3139, -40.6598], [-72.3151, -40.6639], [-72.3083, -40.667], [-72.3168, -40.6727], [-72.3339, -40.6759], [-72.3488, -40.6756], [-72.4134, -40.6557], [-72.4399, -40.6544], [-72.5489, -40.6651], [-72.6069, -40.681], [-72.6144, -40.672], [-72.6258, -40.6692], [-72.6276, -40.6608], [-72.645, -40.6558], [-72.6485, -40.6436], [-72.6539, -40.6417], [-72.6495, -40.6371], [-72.6549, -40.6341], [-72.657, -40.6249], [-72.6709, -40.6219], [-72.692, -40.6264], [-72.7226, -40.6102], [-72.7329, -40.6139], [-72.7321, -40.6062], [-72.7725, -40.6018], [-72.7799, -40.5969], [-72.7837, -40.589], [-72.7949, -40.5862], [-72.7965, -40.566], [-72.8191, -40.5571], [-72.8142, -40.5464], [-72.8314, -40.5495], [-72.8496, -40.5366], [-72.8577, -40.5371], [-72.8641, -40.5288], [-72.856, -40.5313], [-72.8572, -40.527], [-72.8798, -40.5185], [-72.877, -40.5142], [-72.8925, -40.5071], [-72.8893, -40.4981], [-72.8922, -40.4873], [-72.906, -40.4749], [-72.9027, -40.4621], [-72.9061, -40.4497], [-72.9026, -40.4456], [-72.907, -40.4404], [-72.9228, -40.4406], [-72.9238, -40.4343], [-72.9401, -40.427], [-72.9419, -40.4148], [-72.9614, -40.4064], [-72.9797, -40.3857], [-73.031, -40.3839], [-73.0477, -40.3708], [-73.0598, -40.3711], [-73.0704, -40.3627], [-73.0776, -40.3451], [-73.1008, -40.3471], [-73.1016, -40.351], [-73.1382, -40.3503], [-73.1464, -40.3607], [-73.1633, -40.3583], [-73.1786, -40.3475], [-73.2039, -40.3554], [-73.2187, -40.3511], [-73.2745, -40.3517], [-73.2923, -40.3365], [-73.3038, -40.3349], [-73.3454, -40.3349], [-73.3636, -40.3425], [-73.3879, -40.3328], [-73.4049, -40.3378], [-73.4267, -40.3084], [-73.4483, -40.3035], [-73.4468, -40.2909], [-73.4528, -40.2843], [-73.4552, -40.2703], [-73.4677, -40.2794], [-73.4889, -40.2769], [-73.5147, -40.2891], [-73.5478, -40.2915], [-73.5802, -40.284], [-73.5905, -40.2998], [-73.5965, -40.3013], [-73.6715, -40.2778], [-73.6827, -40.2621], [-73.6791, -40.2433], [-73.684, -40.2393], [-73.6998, -40.2381], [-73.7162, -40.2454]]]}}, {"type": "Feature", "properties": {"osm_type": "relation", "osm_id": 773475973, "name": "Provincia de Palena", "admin_level": "6", "kind": "subdivision_2", "parent_osm_id": 274991, "parent_name": "Los Lagos Region", "parent_iso": "CL-LL"}, "geometry": {"type": "MultiPolygon", "coordinates": [[[[-73.0215, -43.6458], [-73.0193, -43.6352], [-73.0239, -43.6282], [-73.0323, -43.6322], [-73.0289, -43.6385], [-73.032, -43.6394], [-73.0302, -43.647], [-73.0218, -43.65], [-73.0215, -43.6562], [-73.0149, -43.6562], [-73.0215, -43.6458]]], [[[-73.0004, -43.6094], [-73.0099, -43.6124], [-72.9947, -43.6157], [-72.981, -43.6127], [-72.9789, -43.6076], [-72.9852, -43.6042], [-73.0004, -43.6094]]], [[[-73.0735, -42.7555], [-73.0727, -42.7411], [-73.0873, -42.7259], [-73.0967, -42.7366], [-73.0735, -42.7555]]], [[[-73.0607, -42.7524], [-73.054, -42.7441], [-73.0519, -42.7217], [-73.0783, -42.7132], [-73.0715, -42.7403], [-73.0607, -42.7524]]], [[[-72.9368, -42.7961], [-72.9378, -42.7841], [-72.9453, -42.7852], [-72.9456, -42.7918], [-72.9496, -42.776], [-72.9681, -42.7551], [-72.9652, -42.7506], [-72.9557, -42.7534], [-72.94, -42.777], [-72.9426, -42.7818], [-72.9208, -42.7864], [-72.9167, -42.7713], [-72.9227, -42.7673], [-72.9218, -42.755], [-72.9275, -42.7501], [-72.9298, -42.737], [-72.9243, -42.723], [-72.9451, -42.7161], [-72.9569, -42.7245], [-72.9592, -42.7373], [-72.9769, -42.7382], [-72.9839, -42.7332], [-72.9859, -42.7144], [-72.9927, -42.7114], [-72.996, -42.7019], [-73.0158, -42.6932], [-73.0301, -42.6928], [-73.0318, -42.7194], [-73.0198, -42.7346], [-73.0157, -42.7295], [-73.0083, -42.7333], [-72.9972, -42.748], [-73.0009, -42.7523], [-72.9862, -42.7628], [-72.9889, -42.7678], [-72.976, -42.7743], [-72.9775, -42.7797], [-72.965, -42.7873], [-72.9643, -42.7963], [-72.9539, -42.7989], [-72.956, -42.8121], [-72.9368, -42.7961]]], [[[-72.0781, -43.9487], [-72.0618, -43.9448], [-72.0554, -43.937], [-72.0407, -43.9367], [-72.0293, -43.9453], [-72.0239, -43.9594], [-72.0138, -43.9658], [-71.9852, -43.96], [-71.9814, -43.9666], [-71.9612, -43.9634], [-71.9558, -43.9456], [-71.9717, -43.9337], [-71.9724, -43.9259], [-71.9064, -43.939], [-71.8851, -43.9297], [-71.8569, -43.9293], [-71.8346, -43.9399], [-71.8279, -43.9484], [-71.808, -43.9542], [-71.8177, -43.9699], [-71.8282, -43.9768], [-71.827, -44.001], [-71.7956, -44.0315], [-71.7903, -44.0547], [-71.7803, -44.059], [-71.7616, -44.0559], [-71.7529, -44.0634], [-71.7358, -44.0658], [-71.715, -44.0377], [-71.716, -44.0249], [-71.6859, -43.9889], [-71.6812, -43.9729], [-71.6611, -43.9634], [-71.6573, -43.9508], [-71.649, -43.9455], [-71.6509, -43.9232], [-71.6656, -43.9019], [-71.6927, -43.9038], [-71.698, -43.8951], [-71.7069, -43.894], [-71.707, -43.8812], [-71.7029, -43.8775], [-71.7083, -43.8554], [-71.7321, -43.8597], [-71.7629, -43.8409], [-71.76, -43.8247], [-71.7493, -43.8084], [-71.7539, -43.7894], [-71.736, -43.7784], [-71.7289, -43.7618], [-71.7013, -43.7381], [-71.6969, -43.7272], [-71.6858, -43.7218], [-71.6625, -43.721], [-71.6615, -43.7031], [-71.6465, -43.7008], [-71.6317, -43.7083], [-71.6302, -43.6988], [-71.6105, -43.701], [-71.5993, -43.6963], [-71.6113, -43.6763], [-71.5884, -43.676], [-71.5809, -43.6517], [-71.5969, -43.6335], [-71.6262, -43.6233], [-71.6509, -43.6204], [-71.7016, -43.6249], [-71.7024, -43.6149], [-71.7104, -43.6028], [-71.7076, -43.584], [-71.7171, -43.577], [-71.7333, -43.5795], [-71.7418, -43.5858], [-71.7602, -43.5843], [-71.7593, -43.5721], [-71.7654, -43.5557], [-71.7789, -43.5405], [-71.7934, -43.5401], [-71.8283, -43.5504], [-71.8464, -43.5477], [-71.8721, -43.5532], [-71.8769, -43.5486], [-71.8785, -43.5311], [-71.8582, -43.5072], [-71.8501, -43.4794], [-71.8699, -43.4626], [-71.8781, -43.464], [-71.8809, -43.4517], [-71.8953, -43.4512], [-71.925, -43.4595], [-71.9341, -43.4501], [-71.9189, -43.4256], [-71.9195, -43.4191], [-71.9141, -43.4167], [-71.9299, -43.3994], [-71.9325, -43.3874], [-71.8941, -43.3798], [-71.8971, -43.3665], [-71.8895, -43.357], [-71.8993, -43.3474], [-71.8971, -43.3384], [-71.9064, -43.3248], [-71.8967, -43.3201], [-71.8586, -43.3357], [-71.8425, -43.3352], [-71.801, -43.3128], [-71.8021, -43.3044], [-71.7862, -43.297], [-71.7665, -43.301], [-71.7609, -43.3139], [-71.749, -43.3199], [-71.7346, -43.3136], [-71.7317, -43.3029], [-71.7363, -43.289], [-71.7316, -43.2822], [-71.7468, -43.2665], [-71.7476, -43.2504], [-71.7554, -43.2404], [-71.7572, -43.2281], [-71.7416, -43.2222], [-71.7298, -43.2012], [-71.7408, -43.1795], [-71.7539, -43.1758], [-71.7616, -43.1645], [-71.7853, -43.1682], [-71.7862, -43.1624], [-71.8173, -43.1456], [-71.8236, -43.151], [-71.8355, -43.1437], [-71.8582, -43.1425], [-71.8617, -43.1403], [-71.8546, -43.1275], [-71.8766, -43.129], [-71.888, -43.1238], [-71.8923, -43.108], [-71.9257, -43.1], [-71.9351, -43.1029], [-71.9345, -43.0976], [-71.9423, -43.0919], [-71.9345, -43.0797], [-71.935, -43.0544], [-71.9568, -43.0412], [-71.9765, -43.0453], [-71.9868, -43.0347], [-72.0, -43.0389], [-72.013, -43.0303], [-72.0222, -43.0172], [-72.0368, -43.0118], [-72.0409, -43.0031], [-72.0391, -42.9926], [-72.058, -42.9828], [-72.0604, -42.9685], [-72.0739, -42.9503], [-72.082, -42.9485], [-72.0877, -42.9531], [-72.1047, -42.9377], [-72.1163, -42.937], [-72.1143, -42.9238], [-72.1422, -42.9001], [-72.134, -42.886], [-72.1182, -42.8789], [-72.1361, -42.8661], [-72.135, -42.8536], [-72.147, -42.8509], [-72.1648, -42.8002], [-72.1429, -42.7963], [-72.1389, -42.7902], [-72.1411, -42.7818], [-72.1302, -42.7772], [-72.1359, -42.7554], [-72.1446, -42.7459], [-72.1321, -42.7338], [-72.1452, -42.7114], [-72.1811, -42.6968], [-72.1759, -42.6932], [-72.1728, -42.671], [-72.1427, -42.6816], [-72.1341, -42.6799], [-72.1316, -42.6731], [-72.1232, -42.6726], [-72.1199, -42.6557], [-72.1007, -42.6417], [-72.105, -42.633], [-72.1182, -42.6317], [-72.1138, -42.6044], [-72.1195, -42.6033], [-72.0906, -42.5894], [-72.0819, -42.5766], [-72.0534, -42.5697], [-72.052, -42.5515], [-72.0383, -42.5364], [-72.028, -42.5149], [-72.0264, -42.4844], [-72.0402, -42.4593], [-72.0235, -42.4128], [-72.0359, -42.3999], [-72.063, -42.3936], [-72.0738, -42.3862], [-72.0999, -42.397], [-72.1178, -42.3955], [-72.1315, -42.3867], [-72.1387, -42.3335], [-72.1214, -42.3272], [-72.1183, -42.3171], [-72.1533, -42.2721], [-72.1696, -42.2606], [-72.1677, -42.2523], [-72.1536, -42.2428], [-72.1657, -42.2114], [-72.1569, -42.2043], [-72.1583, -42.1937], [-72.1829, -42.1799], [-72.1877, -42.1637], [-72.2035, -42.1467], [-72.2284, -42.1355], [-72.253, -42.1365], [-72.2533, -42.1284], [-72.2741, -42.1214], [-72.2708, -42.1121], [-72.2775, -42.0865], [-72.2583, -42.0739], [-72.2611, -42.0601], [-72.3039, -42.0617], [-72.3236, -42.0566], [-72.316, -42.0353], [-72.2995, -42.0289], [-72.3018, -42.0178], [-72.2894, -42.0128], [-72.2847, -42.0054], [-72.2591, -41.9992], [-72.2571, -41.9924], [-72.2288, -42.0038], [-72.2301, -42.0152], [-72.224, -42.0179], [-72.1867, -42.0158], [-72.1737, -42.0092], [-72.1839, -41.9874], [-72.1595, -41.9516], [-72.1629, -41.9387], [-72.1829, -41.9315], [-72.1903, -41.9353], [-72.2016, -41.9333], [-72.2157, -41.9193], [-72.1926, -41.9111], [-72.1817, -41.9013], [-72.1828, -41.8936], [-72.2287, -41.8757], [-72.2394, -41.8866], [-72.2672, -41.8829], [-72.276, -41.8733], [-72.2778, -41.8634], [-72.2995, -41.8603], [-72.2891, -41.838], [-72.2971, -41.8316], [-72.2963, -41.8235], [-72.33, -41.8105], [-72.3505, -41.8107], [-72.3633, -41.8055], [-72.3954, -41.7813], [-72.4193, -41.8031], [-72.4524, -41.8241], [-72.479, -41.8313], [-72.4958, -41.8482], [-72.5208, -41.849], [-72.5223, -41.8339], [-72.5353, -41.8327], [-72.5462, -41.8179], [-72.5626, -41.8189], [-72.5683, -41.8238], [-72.5785, -41.8178], [-72.5719, -41.8032], [-72.5735, -41.7947], [-72.5937, -41.7899], [-72.5936, -41.7744], [-72.6109, -41.7664], [-72.605, -41.7511], [-72.6124, -41.7381], [-72.6286, -41.7378], [-72.6474, -41.7305], [-72.6505, -41.7331], [-72.6453, -41.7382], [-72.6583, -41.7433], [-72.6602, -41.7529], [-72.6791, -41.7633], [-72.7013, -41.7884], [-72.7123, -41.7902], [-72.7193, -41.7985], [-72.7248, -41.7972], [-72.7258, -41.803], [-72.7891, -41.8362], [-72.7904, -41.8424], [-72.7861, -41.8461], [-72.7948, -41.8486], [-72.7834, -41.8486], [-72.7987, -41.8586], [-72.7901, -41.8726], [-72.8013, -41.8664], [-72.8065, -41.8725], [-72.8092, -41.8687], [-72.8101, -41.8782], [-72.8188, -41.8809], [-72.8217, -41.8939], [-72.8264, -41.8919], [-72.8334, -41.8984], [-72.8477, -41.9003], [-72.8481, -41.9044], [-72.8773, -41.9141], [-72.8571, -41.9295], [-72.8482, -41.9293], [-72.8429, -41.9228], [-72.8298, -41.9326], [-72.8063, -41.9377], [-72.8011, -41.9472], [-72.8132, -41.9552], [-72.8102, -41.9725], [-72.7962, -41.9746], [-72.7887, -41.9829], [-72.7692, -41.9813], [-72.7617, -41.9877], [-72.7486, -41.9893], [-72.7456, -41.9993], [-72.7177, -42.0052], [-72.702, -42.0219], [-72.7046, -42.0255], [-72.6983, -42.0236], [-72.6863, -42.0302], [-72.6795, -42.0209], [-72.6513, -42.0158], [-72.6442, -42.0192], [-72.636, -42.0125], [-72.6282, -42.0147], [-72.643, -42.0278], [-72.6332, -42.0326], [-72.6409, -42.0324], [-72.6433, -42.0369], [-72.6106, -42.0436], [-72.5995, -42.0374], [-72.6084, -42.016], [-72.599, -42.0063], [-72.5862, -42.004], [-72.583, -42.0073], [-72.5952, -42.0206], [-72.595, -42.0306], [-72.587, -42.044], [-72.5705, -42.0482], [-72.552, -42.0377], [-72.5342, -42.0434], [-72.516, -42.0166], [-72.5086, -41.9871], [-72.4946, -41.9694], [-72.4736, -41.9724], [-72.4661, -41.9645], [-72.4287, -41.9744], [-72.4279, -41.9826], [-72.4385, -42.001], [-72.4368, -42.0169], [-72.4475, -42.0301], [-72.444, -42.0362], [-72.4526, -42.0659], [-72.4678, -42.0794], [-72.4572, -42.0928], [-72.469, -42.1214], [-72.4633, -42.132], [-72.4651, -42.1439], [-72.4519, -42.1624], [-72.407, -42.1647], [-72.3906, -42.1614], [-72.3641, -42.1681], [-72.3734, -42.1767], [-72.3954, -42.1704], [-72.4092, -42.1754], [-72.4415, -42.1648], [-72.4496, -42.1704], [-72.46, -42.1986], [-72.4586, -42.2125], [-72.4434, -42.2361], [-72.45, -42.2538], [-72.4406, -42.2588], [-72.398, -42.2477], [-72.3777, -42.2507], [-72.3759, -42.2585], [-72.4469, -42.2689], [-72.4582, -42.2769], [-72.4705, -42.3022], [-72.4564, -42.3438], [-72.4398, -42.356], [-72.4375, -42.3655], [-72.4284, -42.3744], [-72.4145, -42.3733], [-72.4184, -42.3742], [-72.4147, -42.3783], [-72.4238, -42.4101], [-72.4194, -42.4197], [-72.4225, -42.4247], [-72.4132, -42.4622], [-72.3974, -42.4695], [-72.3971, -42.4811], [-72.401, -42.4794], [-72.4027, -42.4864], [-72.4235, -42.4793], [-72.4406, -42.4897], [-72.4429, -42.5], [-72.4485, -42.498], [-72.4353, -42.4753], [-72.4485, -42.4683], [-72.4512, -42.4625], [-72.4457, -42.4579], [-72.4558, -42.4498], [-72.4472, -42.4178], [-72.4533, -42.412], [-72.4532, -42.3982], [-72.4622, -42.386], [-72.4755, -42.3781], [-72.4768, -42.372], [-72.4921, -42.37], [-72.5086, -42.3463], [-72.5101, -42.324], [-72.5199, -42.3075], [-72.5208, -42.2806], [-72.526, -42.2722], [-72.5149, -42.2638], [-72.5138, -42.2453], [-72.5334, -42.2339], [-72.5331, -42.2228], [-72.5411, -42.213], [-72.5595, -42.2008], [-72.5769, -42.1966], [-72.581, -42.1887], [-72.5903, -42.1884], [-72.6168, -42.2097], [-72.6716, -42.225], [-72.6873, -42.2253], [-72.6895, -42.221], [-72.7025, -42.2264], [-72.72, -42.2244], [-72.7337, -42.2289], [-72.7372, -42.2259], [-72.7512, -42.2361], [-72.733, -42.2536], [-72.7678, -42.2431], [-72.8072, -42.2845], [-72.8336, -42.2953], [-72.8325, -42.3142], [-72.8238, -42.3213], [-72.8065, -42.323], [-72.7939, -42.3119], [-72.7849, -42.3101], [-72.7904, -42.324], [-72.7733, -42.3504], [-72.7654, -42.3756], [-72.7537, -42.3885], [-72.7253, -42.4061], [-72.7059, -42.4039], [-72.6979, -42.4098], [-72.7054, -42.423], [-72.7031, -42.4345], [-72.6829, -42.466], [-72.6503, -42.4909], [-72.6245, -42.5186], [-72.6083, -42.5221], [-72.5963, -42.5307], [-72.5631, -42.537], [-72.5482, -42.5464], [-72.5197, -42.546], [-72.5335, -42.5578], [-72.5261, -42.5658], [-72.5072, -42.5714], [-72.5003, -42.5504], [-72.4897, -42.5526], [-72.4929, -42.5726], [-72.4888, -42.5788], [-72.5125, -42.5782], [-72.515, -42.587], [-72.5215, -42.5811], [-72.5262, -42.5843], [-72.5242, -42.5872], [-72.5541, -42.5818], [-72.5709, -42.5693], [-72.5731, -42.5578], [-72.5933, -42.5528], [-72.6047, -42.5588], [-72.6205, -42.5431], [-72.6489, -42.5362], [-72.6752, -42.5206], [-72.6963, -42.5224], [-72.7112, -42.5128], [-72.7529, -42.5156], [-72.7941, -42.5001], [-72.7993, -42.5022], [-72.7964, -42.5058], [-72.8077, -42.5052], [-72.8124, -42.5096], [-72.8076, -42.5106], [-72.819, -42.5275], [-72.8246, -42.565], [-72.8333, -42.5755], [-72.8323, -42.5853], [-72.8434, -42.592], [-72.8393, -42.6012], [-72.8415, -42.608], [-72.8534, -42.6192], [-72.8427, -42.6227], [-72.828, -42.6571], [-72.8323, -42.6664], [-72.8258, -42.6639], [-72.8263, -42.6592], [-72.8093, -42.6767], [-72.7999, -42.6782], [-72.8023, -42.6861], [-72.8073, -42.6861], [-72.8, -42.6985], [-72.8063, -42.7026], [-72.8027, -42.7105], [-72.8082, -42.7125], [-72.8194, -42.7103], [-72.8333, -42.7158], [-72.8413, -42.7047], [-72.8425, -42.7527], [-72.8587, -42.7651], [-72.8363, -42.8056], [-72.8394, -42.8178], [-72.8362, -42.8341], [-72.8019, -42.8517], [-72.8011, -42.8667], [-72.7914, -42.8763], [-72.7769, -42.8829], [-72.7566, -42.8813], [-72.7457, -42.8935], [-72.7277, -42.899], [-72.72, -42.9064], [-72.7175, -42.9125], [-72.7294, -42.9196], [-72.7796, -42.9381], [-72.8108, -42.9334], [-72.8082, -42.9432], [-72.8174, -42.9512], [-72.8039, -42.9527], [-72.8039, -42.961], [-72.7912, -42.9666], [-72.7934, -42.9715], [-72.7841, -42.9795], [-72.7748, -43.0088], [-72.7526, -43.0097], [-72.7451, -43.045], [-72.7235, -43.0818], [-72.7403, -43.0838], [-72.7586, -43.0688], [-72.7583, -43.0639], [-72.7728, -43.0586], [-72.7744, -43.0466], [-72.7815, -43.039], [-72.7811, -43.0289], [-72.831, -43.0213], [-72.8591, -43.0287], [-72.8646, -43.0392], [-72.8654, -43.0595], [-72.8743, -43.0704], [-72.8866, -43.0735], [-72.895, -43.1071], [-72.9119, -43.1219], [-72.9148, -43.1301], [-72.8935, -43.1635], [-72.8848, -43.2046], [-72.8722, -43.234], [-72.8937, -43.2493], [-72.9101, -43.2534], [-72.9355, -43.2517], [-72.9619, -43.2606], [-72.9736, -43.2694], [-72.9809, -43.2668], [-72.9829, -43.2764], [-73.0548, -43.3215], [-73.0631, -43.3491], [-73.0491, -43.3892], [-73.0573, -43.4147], [-73.0499, -43.4146], [-73.0767, -43.4234], [-73.0911, -43.4351], [-73.0866, -43.445], [-73.0902, -43.4535], [-73.0839, -43.458], [-73.0895, -43.4656], [-73.0572, -43.4943], [-73.0527, -43.5147], [-73.0361, -43.5157], [-73.0513, -43.5234], [-73.0508, -43.5298], [-73.0431, -43.5371], [-73.0277, -43.5353], [-73.0166, -43.5729], [-72.9997, -43.5943], [-72.9895, -43.5893], [-72.9672, -43.5888], [-72.9564, -43.6055], [-72.9533, -43.598], [-72.948, -43.5974], [-72.9409, -43.5991], [-72.9405, -43.6043], [-72.9298, -43.6036], [-72.9276, -43.5979], [-72.9129, -43.6063], [-72.8972, -43.5832], [-72.8875, -43.5802], [-72.8834, -43.6078], [-72.88, -43.6054], [-72.8739, -43.6102], [-72.8875, -43.6249], [-72.897, -43.6065], [-72.9199, -43.6286], [-72.9525, -43.6357], [-72.953, -43.6427], [-72.9456, -43.6519], [-72.9555, -43.6583], [-72.9666, -43.6828], [-72.9765, -43.6907], [-73.0377, -43.7154], [-73.0465, -43.7279], [-73.0479, -43.7385], [-73.0383, -43.7341], [-73.0258, -43.7185], [-73.0161, -43.7214], [-72.9857, -43.7133], [-72.9675, -43.7164], [-72.9581, -43.7121], [-72.9584, -43.6979], [-72.935, -43.697], [-72.9206, -43.6996], [-72.9194, -43.7074], [-72.9091, -43.7115], [-72.9069, -43.7272], [-72.8939, -43.7384], [-72.8979, -43.7448], [-72.8919, -43.7515], [-72.8535, -43.7448], [-72.8519, -43.7286], [-72.8422, -43.7197], [-72.8415, -43.6933], [-72.8225, -43.6557], [-72.8284, -43.649], [-72.8266, -43.6413], [-72.8221, -43.6438], [-72.8069, -43.6385], [-72.7905, -43.6448], [-72.7909, -43.6738], [-72.7662, -43.6859], [-72.766, -43.6925], [-72.776, -43.6969], [-72.7828, -43.726], [-72.793, -43.726], [-72.7922, -43.7317], [-72.8006, -43.7346], [-72.7996, -43.7409], [-72.7669, -43.7506], [-72.7743, -43.757], [-72.7632, -43.7705], [-72.6957, -43.7645], [-72.6615, -43.7778], [-72.6538, -43.7757], [-72.6534, -43.7601], [-72.6118, -43.7555], [-72.5882, -43.7614], [-72.5676, -43.7776], [-72.5313, -43.7842], [-72.5194, -43.794], [-72.501, -43.7972], [-72.4906, -43.7882], [-72.4897, -43.7793], [-72.4796, -43.7739], [-72.4834, -43.7598], [-72.4746, -43.753], [-72.4806, -43.7443], [-72.4754, -43.7358], [-72.4518, -43.7359], [-72.4419, -43.7259], [-72.4222, -43.7302], [-72.4136, -43.7158], [-72.4161, -43.7035], [-72.4019, -43.6899], [-72.383, -43.6918], [-72.3481, -43.6767], [-72.3299, -43.6781], [-72.3191, -43.6892], [-72.3217, -43.6988], [-72.3086, -43.7188], [-72.3084, -43.7332], [-72.2739, -43.762], [-72.3029, -43.7726], [-72.3019, -43.7841], [-72.2875, -43.7905], [-72.2458, -43.7965], [-72.2404, -43.8026], [-72.2443, -43.8107], [-72.2791, -43.8269], [-72.2782, -43.839], [-72.1966, -43.8375], [-72.1949, -43.8434], [-72.2016, -43.8539], [-72.1868, -43.8719], [-72.1831, -43.8953], [-72.1541, -43.8793], [-72.1456, -43.8872], [-72.1158, -43.876], [-72.0761, -43.9072], [-72.1035, -43.9201], [-72.1045, -43.9257], [-72.1174, -43.9336], [-72.1178, -43.9425], [-72.0781, -43.9487]]], [[[-73.0966, -42.7064], [-73.0866, -42.6908], [-73.1041, -42.699], [-73.0966, -42.7064]]], [[[-72.8334, -42.6686], [-72.8418, -42.6638], [-72.8374, -42.6697], [-72.8597, -42.6777], [-72.8315, -42.7083], [-72.8375, -42.6901], [-72.8206, -42.6754], [-72.8334, -42.6686]]], [[[-73.0719, -42.6877], [-73.0749, -42.6749], [-73.0675, -42.6666], [-73.0739, -42.6628], [-73.0755, -42.6552], [-73.0829, -42.653], [-73.0923, -42.6636], [-73.0871, -42.6648], [-73.0871, -42.6738], [-73.0719, -42.6877]]], [[[-73.0466, -42.6013], [-73.0617, -42.6074], [-73.0666, -42.6163], [-73.0429, -42.6311], [-73.0244, -42.6332], [-73.018, -42.6273], [-73.0227, -42.6437], [-73.0059, -42.6519], [-73.009, -42.6432], [-73.003, -42.6388], [-73.0098, -42.6289], [-73.0023, -42.6185], [-73.0077, -42.6083], [-73.0016, -42.6064], [-73.0398, -42.5971], [-73.0466, -42.6013]]], [[[-72.4777, -42.0004], [-72.4949, -42.019], [-72.5126, -42.0545], [-72.4832, -42.0708], [-72.4611, -42.0295], [-72.4621, -42.0039], [-72.4579, -41.9956], [-72.4612, -41.9843], [-72.4774, -41.9919], [-72.4808, -41.9999], [-72.4775, -41.997], [-72.4777, -42.0004]]], [[[-72.5457, -42.0836], [-72.5581, -42.1033], [-72.5574, -42.0763], [-72.5755, -42.0815], [-72.589, -42.1147], [-72.5976, -42.1146], [-72.6089, -42.1264], [-72.6093, -42.1346], [-72.5832, -42.1319], [-72.5786, -42.1361], [-72.5735, -42.1318], [-72.5699, -42.1375], [-72.552, -42.1365], [-72.5468, -42.1456], [-72.5114, -42.1688], [-72.49, -42.1702], [-72.4795, -42.1434], [-72.4834, -42.1391], [-72.4819, -42.1255], [-72.4951, -42.1006], [-72.4773, -42.0892], [-72.4818, -42.0898], [-72.4849, -42.0809], [-72.5066, -42.0729], [-72.5198, -42.0771], [-72.5331, -42.0727], [-72.5457, -42.0836]]], [[[-72.6423, -42.0804], [-72.6341, -42.0793], [-72.6184, -42.0658], [-72.645, -42.065], [-72.6475, -42.072], [-72.6423, -42.0804]]]]}}, {"type": "Feature", "properties": {"osm_type": "relation", "osm_id": 147926762, "name": "Provincia de Chiloé", "admin_level": "6", "kind": "subdivision_2", "parent_osm_id": 274991, "parent_name": "Los Lagos Region", "parent_iso": "CL-LL"}, "geometry": {"type": "MultiPolygon", "coordinates": [[[[-74.8353, -43.5625], [-74.8286, -43.5689], [-74.8321, -43.5743], [-74.8229, -43.5779], [-74.8263, -43.5802], [-74.8215, -43.584], [-74.8303, -43.5835], [-74.8243, -43.5864], [-74.8299, -43.5915], [-74.8225, -43.5917], [-74.8218, -43.6005], [-74.8158, -43.6041], [-74.82, -43.6112], [-74.8189, -43.6143], [-74.8126, -43.6112], [-74.8172, -43.6164], [-74.8118, -43.6295], [-74.7911, -43.6445], [-74.7916, -43.6487], [-74.7856, -43.6492], [-74.7838, -43.6646], [-74.7767, -43.6689], [-74.7781, -43.6738], [-74.7689, -43.6738], [-74.7678, -43.6786], [-74.7572, -43.6717], [-74.7551, -43.6755], [-74.7417, -43.6735], [-74.7227, -43.6533], [-74.6804, -43.6398], [-74.6585, -43.6381], [-74.6535, -43.6435], [-74.6267, -43.6359], [-74.6122, -43.6392], [-74.5956, -43.6308], [-74.5772, -43.6349], [-74.5691, -43.6291], [-74.5525, -43.6275], [-74.5656, -43.6236], [-74.5597, -43.62], [-74.5759, -43.6163], [-74.5734, -43.6011], [-74.5813, -43.6016], [-74.5796, -43.5945], [-74.6005, -43.5925], [-74.5917, -43.5873], [-74.5959, -43.5819], [-74.6037, -43.5814], [-74.609, -43.575], [-74.621, -43.5764], [-74.6494, -43.5541], [-74.6794, -43.5527], [-74.6805, -43.5447], [-74.6975, -43.5358], [-74.7042, -43.5379], [-74.7225, -43.5288], [-74.7381, -43.5292], [-74.7438, -43.5177], [-74.7446, -43.5665], [-74.7573, -43.5654], [-74.7703, -43.575], [-74.7848, -43.5774], [-74.7997, -43.5666], [-74.812, -43.5697], [-74.8353, -43.5625]]], [[[-73.398, -43.0], [-73.3262, -43.0165], [-73.3236, -43.0099], [-73.3514, -42.9893], [-73.4647, -42.9457], [-73.5182, -42.9172], [-73.5736, -42.9137], [-73.5786, -42.9154], [-73.5824, -42.9258], [-73.5985, -42.9247], [-73.6041, -42.9286], [-73.603, -42.9339], [-73.5909, -42.9349], [-73.585, -42.9303], [-73.5751, -42.9361], [-73.5701, -42.942], [-73.5738, -42.9521], [-73.5694, -42.959], [-73.549, -42.9448], [-73.529, -42.9439], [-73.5218, -42.9474], [-73.5218, -42.968], [-73.5108, -42.9767], [-73.498, -42.971], [-73.4838, -42.9802], [-73.4691, -42.981], [-73.4617, -42.991], [-73.4667, -42.9937], [-73.4405, -42.9929], [-73.398, -43.0]]], [[[-73.7526, -43.3226], [-73.7648, -43.3145], [-73.7844, -43.3162], [-73.7879, -43.3204], [-73.8062, -43.3172], [-73.8082, -43.3206], [-73.7929, -43.3471], [-73.7765, -43.3585], [-73.7866, -43.3597], [-73.7709, -43.3749], [-73.7735, -43.3844], [-73.7649, -43.3795], [-73.7491, -43.3916], [-73.7247, -43.3995], [-73.6983, -43.3834], [-73.69, -43.3922], [-73.675, -43.3869], [-73.6779, -43.3795], [-73.6729, -43.3713], [-73.6662, -43.3716], [-73.662, -43.3521], [-73.6702, -43.3463], [-73.6747, -43.3494], [-73.6946, -43.3424], [-73.7079, -43.329], [-73.7081, -43.3328], [-73.7231, -43.3245], [-73.7286, -43.3282], [-73.7526, -43.3226]]], [[[-74.0869, -43.4177], [-74.0846, -43.4068], [-74.0907, -43.3961], [-74.0946, -43.3969], [-74.1002, -43.41], [-74.0937, -43.4099], [-74.0869, -43.4177]]], [[[-74.2457, -43.4127], [-74.2338, -43.4102], [-74.2328, -43.4064], [-74.2423, -43.4031], [-74.249, -43.3913], [-74.2444, -43.3615], [-74.2465, -43.3525], [-74.2529, -43.3487], [-74.2784, -43.3633], [-74.2714, -43.3719], [-74.2764, -43.3756], [-74.2736, -43.3804], [-74.2796, -43.3802], [-74.2756, -43.3848], [-74.2822, -43.3933], [-74.2751, -43.401], [-74.2824, -43.4046], [-74.2801, -43.4115], [-74.2862, -43.4157], [-74.278, -43.4219], [-74.2815, -43.4276], [-74.2752, -43.4227], [-74.2607, -43.4276], [-74.2506, -43.419], [-74.2521, -43.4103], [-74.2457, -43.4127]]], [[[-73.6851, -43.2379], [-73.6741, -43.2482], [-73.6671, -43.247], [-73.6634, -43.2348], [-73.6713, -43.2231], [-73.6636, -43.2225], [-73.6623, -43.194], [-73.6894, -43.1897], [-73.7195, -43.1755], [-73.7257, -43.1806], [-73.7272, -43.1924], [-73.744, -43.1983], [-73.7473, -43.2051], [-73.7058, -43.2282], [-73.6942, -43.227], [-73.6851, -43.2379]]], [[[-73.4377, -43.064], [-73.4342, -43.063], [-73.4393, -43.0528], [-73.4543, -43.0402], [-73.4714, -43.0433], [-73.4488, -43.0514], [-73.4377, -43.064]]], [[[-73.6219, -43.1682], [-73.6307, -43.1818], [-73.6421, -43.1866], [-73.6319, -43.1959], [-73.6189, -43.223], [-73.625, -43.2408], [-73.6124, -43.246], [-73.608, -43.2534], [-73.5912, -43.2586], [-73.5939, -43.264], [-73.5872, -43.2726], [-73.5746, -43.2725], [-73.5809, -43.2628], [-73.5707, -43.2481], [-73.5973, -43.2312], [-73.601, -43.221], [-73.5962, -43.2094], [-73.6071, -43.2008], [-73.6123, -43.1895], [-73.6066, -43.1823], [-73.6134, -43.1762], [-73.6103, -43.169], [-73.616, -43.1647], [-73.6219, -43.1682]]], [[[-73.5152, -43.1448], [-73.5254, -43.1428], [-73.5324, -43.1555], [-73.5264, -43.1593], [-73.5104, -43.1529], [-73.5073, -43.1597], [-73.516, -43.1686], [-73.507, -43.1764], [-73.519, -43.1727], [-73.5161, -43.1768], [-73.5206, -43.1793], [-73.5491, -43.1685], [-73.5532, -43.1377], [-73.5853, -43.1407], [-73.5772, -43.174], [-73.561, -43.1861], [-73.5713, -43.2016], [-73.5885, -43.2002], [-73.5874, -43.2034], [-73.5325, -43.195], [-73.5069, -43.1825], [-73.4971, -43.1732], [-73.5152, -43.1448]]], [[[-73.1251, -42.3782], [-73.1383, -42.379], [-73.1384, -42.3885], [-73.1439, -42.3886], [-73.1527, -42.3982], [-73.1226, -42.3972], [-73.1069, -42.3882], [-73.101, -42.383], [-73.1038, -42.3759], [-73.1251, -42.3782]]], [[[-73.1455, -42.2776], [-73.1389, -42.2658], [-73.1496, -42.2529], [-73.1868, -42.2456], [-73.1611, -42.2526], [-73.1497, -42.2733], [-73.1441, -42.2656], [-73.1455, -42.2776]]], [[[-73.1249, -42.2692], [-73.1382, -42.2794], [-73.1285, -42.2798], [-73.1277, -42.2708], [-73.1229, -42.2695], [-73.1036, -42.2742], [-73.1015, -42.2798], [-73.1272, -42.2772], [-73.1234, -42.2871], [-73.1137, -42.2888], [-73.1392, -42.3025], [-73.1479, -42.3014], [-73.1339, -42.296], [-73.1345, -42.2909], [-73.1418, -42.2833], [-73.1529, -42.2825], [-73.1589, -42.2674], [-73.1703, -42.2661], [-73.1763, -42.2762], [-73.1578, -42.2856], [-73.1481, -42.3173], [-73.1353, -42.3181], [-73.1311, -42.343], [-73.1123, -42.3357], [-73.0752, -42.3033], [-73.0605, -42.2994], [-73.0604, -42.2894], [-73.0539, -42.2826], [-73.0592, -42.2722], [-73.1049, -42.2583], [-73.1104, -42.2587], [-73.1109, -42.2651], [-73.1249, -42.2692]]], [[[-73.3104, -42.5882], [-73.328, -42.5952], [-73.3264, -42.6056], [-73.3269, -42.5993], [-73.3232, -42.5986], [-73.306, -42.6054], [-73.2969, -42.6019], [-73.263, -42.6106], [-73.2621, -42.5976], [-73.2711, -42.5927], [-73.2956, -42.5866], [-73.3104, -42.5882]]], [[[-73.2883, -42.6281], [-73.3446, -42.622], [-73.3583, -42.6309], [-73.3109, -42.6524], [-73.2452, -42.6657], [-73.2324, -42.6431], [-73.2339, -42.6339], [-73.269, -42.6297], [-73.2725, -42.6347], [-73.2883, -42.6281]]], [[[-73.5369, -42.7003], [-73.5195, -42.6813], [-73.5212, -42.6723], [-73.5361, -42.6827], [-73.5547, -42.6846], [-73.5704, -42.6808], [-73.5813, -42.6699], [-73.58, -42.6319], [-73.5658, -42.6177], [-73.572, -42.6115], [-73.5699, -42.6025], [-73.5763, -42.5905], [-73.5948, -42.5693], [-73.6091, -42.5699], [-73.614, -42.5852], [-73.6443, -42.5945], [-73.6783, -42.5953], [-73.6782, -42.6025], [-73.7005, -42.5952], [-73.721, -42.5955], [-73.7375, -42.6114], [-73.72, -42.6183], [-73.739, -42.6143], [-73.7434, -42.6177], [-73.7439, -42.6303], [-73.7304, -42.6391], [-73.7193, -42.6362], [-73.7192, -42.644], [-73.7083, -42.6534], [-73.6951, -42.6543], [-73.6611, -42.6388], [-73.629, -42.6448], [-73.6195, -42.6556], [-73.6054, -42.6496], [-73.5979, -42.6518], [-73.5774, -42.6795], [-73.5731, -42.6976], [-73.5782, -42.7082], [-73.5369, -42.7003]]], [[[-73.497, -42.6226], [-73.5287, -42.6166], [-73.5438, -42.6282], [-73.5318, -42.6366], [-73.5306, -42.6466], [-73.4952, -42.6411], [-73.4725, -42.648], [-73.4375, -42.6325], [-73.4228, -42.62], [-73.5019, -42.6029], [-73.5074, -42.6117], [-73.501, -42.6188], [-73.4917, -42.6143], [-73.4769, -42.6472], [-73.4901, -42.6409], [-73.4839, -42.6375], [-73.497, -42.6226]]], [[[-74.4048, -43.2585], [-74.4019, -43.2675], [-74.3754, -43.2779], [-74.3635, -43.2921], [-74.3485, -43.2858], [-74.3266, -43.2917], [-74.2984, -43.3244], [-74.2844, -43.3204], [-74.2637, -43.3273], [-74.2224, -43.3263], [-74.1983, -43.3473], [-74.1738, -43.3432], [-74.1442, -43.3493], [-74.1328, -43.3601], [-74.1379, -43.3596], [-74.1392, -43.3649], [-74.1228, -43.3701], [-74.1233, -43.3819], [-74.1139, -43.3785], [-74.1035, -43.3931], [-74.0834, -43.3934], [-74.0834, -43.3706], [-74.021, -43.3544], [-74.0163, -43.3618], [-74.022, -43.3614], [-74.024, -43.3673], [-74.0041, -43.3769], [-74.0093, -43.3833], [-73.9972, -43.3921], [-73.9937, -43.3901], [-73.9953, -43.3791], [-73.9834, -43.3775], [-73.9795, -43.3666], [-73.9822, -43.362], [-73.9729, -43.3574], [-73.9757, -43.3633], [-73.9723, -43.3659], [-73.9184, -43.3717], [-73.911, -43.384], [-73.9181, -43.3892], [-73.9152, -43.3945], [-73.8908, -43.3984], [-73.8883, -43.4035], [-73.8919, -43.4077], [-73.8841, -43.4083], [-73.8853, -43.4127], [-73.8796, -43.4145], [-73.883, -43.4204], [-73.8787, -43.4233], [-73.864, -43.421], [-73.8622, -43.4253], [-73.8392, -43.4282], [-73.8277, -43.4202], [-73.821, -43.4223], [-73.8307, -43.4111], [-73.8267, -43.4011], [-73.8158, -43.4008], [-73.8127, -43.4062], [-73.8159, -43.4096], [-73.8032, -43.416], [-73.792, -43.4105], [-73.7924, -43.4023], [-73.7997, -43.3952], [-73.7909, -43.3876], [-73.7913, -43.3787], [-73.7987, -43.3754], [-73.8028, -43.3665], [-73.7961, -43.3628], [-73.7949, -43.353], [-73.8111, -43.3342], [-73.8101, -43.3121], [-73.8197, -43.3107], [-73.8286, -43.3021], [-73.8434, -43.3002], [-73.8414, -43.2973], [-73.8513, -43.2895], [-73.8664, -43.2899], [-73.8767, -43.2836], [-73.8419, -43.2853], [-73.8075, -43.3021], [-73.8106, -43.3055], [-73.8077, -43.3093], [-73.795, -43.3138], [-73.768, -43.31], [-73.7457, -43.3192], [-73.7162, -43.3166], [-73.6925, -43.3252], [-73.6607, -43.3179], [-73.6676, -43.3], [-73.664, -43.2928], [-73.6809, -43.2761], [-73.6753, -43.2737], [-73.6744, -43.2665], [-73.6941, -43.2488], [-73.722, -43.2419], [-73.7229, -43.2306], [-73.7428, -43.2213], [-73.7412, -43.2111], [-73.7515, -43.2058], [-73.7403, -43.1867], [-73.7393, -43.17], [-73.7561, -43.1445], [-73.7509, -43.1358], [-73.7524, -43.1296], [-73.7399, -43.1253], [-73.7446, -43.1182], [-73.7259, -43.1152], [-73.731, -43.0944], [-73.7181, -43.0922], [-73.7172, -43.1022], [-73.7071, -43.116], [-73.7144, -43.1461], [-73.6997, -43.1521], [-73.6611, -43.138], [-73.6278, -43.1451], [-73.6155, -43.1395], [-73.6382, -43.1274], [-73.6408, -43.1224], [-73.6363, -43.1192], [-73.5804, -43.1196], [-73.5638, -43.1119], [-73.5436, -43.1225], [-73.5396, -43.1168], [-73.5412, -43.1005], [-73.5332, -43.1249], [-73.509, -43.128], [-73.5197, -43.1298], [-73.4899, -43.1448], [-73.479, -43.1452], [-73.4818, -43.0981], [-73.4935, -43.0859], [-73.5165, -43.0731], [-73.5298, -43.0733], [-73.5324, -43.065], [-73.5524, -43.0672], [-73.5758, -43.0521], [-73.6181, -43.0562], [-73.6126, -43.0507], [-73.6186, -43.049], [-73.6146, -43.0464], [-73.6185, -43.0436], [-73.6062, -43.04], [-73.5956, -43.0433], [-73.5843, -43.0352], [-73.5703, -43.0343], [-73.5444, -43.0626], [-73.5276, -43.0617], [-73.5251, -43.0678], [-73.5125, -43.0695], [-73.5145, -43.073], [-73.5098, -43.0702], [-73.5136, -43.0511], [-73.5383, -43.0284], [-73.5381, -43.0067], [-73.5499, -42.9895], [-73.5454, -42.9736], [-73.6068, -42.9705], [-73.6009, -42.9661], [-73.6044, -42.9655], [-73.6017, -42.9604], [-73.5927, -42.9587], [-73.5924, -42.9527], [-73.6054, -42.9513], [-73.6109, -42.9419], [-73.6248, -42.946], [-73.6417, -42.9433], [-73.6165, -42.9415], [-73.6142, -42.9342], [-73.6219, -42.9226], [-73.6152, -42.9231], [-73.6166, -42.917], [-73.6372, -42.9114], [-73.6369, -42.9039], [-73.6517, -42.8974], [-73.6566, -42.8852], [-73.6659, -42.8788], [-73.7186, -42.8673], [-73.7376, -42.8583], [-73.7384, -42.8519], [-73.7513, -42.8496], [-73.7398, -42.8474], [-73.7442, -42.8408], [-73.739, -42.8387], [-73.7207, -42.8567], [-73.7076, -42.8595], [-73.6922, -42.8525], [-73.6619, -42.8609], [-73.657, -42.8605], [-73.6585, -42.857], [-73.6528, -42.8619], [-73.6444, -42.8604], [-73.6367, -42.8706], [-73.6386, -42.8809], [-73.625, -42.8889], [-73.5977, -42.8923], [-73.5841, -42.8892], [-73.5813, -42.8817], [-73.5922, -42.8736], [-73.582, -42.8769], [-73.6048, -42.852], [-73.6314, -42.8523], [-73.6485, -42.8466], [-73.6228, -42.8466], [-73.6202, -42.8366], [-73.6152, -42.8344], [-73.6163, -42.8122], [-73.6067, -42.8268], [-73.611, -42.8291], [-73.605, -42.8329], [-73.6084, -42.8401], [-73.6053, -42.8476], [-73.5889, -42.8618], [-73.5702, -42.8888], [-73.559, -42.8903], [-73.541, -42.8824], [-73.5259, -42.8872], [-73.5209, -42.8781], [-73.5083, -42.872], [-73.5041, -42.8839], [-73.4874, -42.8856], [-73.4854, -42.8746], [-73.4933, -42.8627], [-73.4894, -42.8639], [-73.4846, -42.8737], [-73.4774, -42.8758], [-73.477, -42.8939], [-73.4905, -42.906], [-73.4721, -42.8961], [-73.4627, -42.8831], [-73.4739, -42.8596], [-73.4777, -42.828], [-73.4729, -42.8132], [-73.4879, -42.7923], [-73.5231, -42.7742], [-73.5462, -42.7553], [-73.5857, -42.757], [-73.6095, -42.749], [-73.6311, -42.7255], [-73.6314, -42.7016], [-73.647, -42.7001], [-73.6513, -42.7057], [-73.6595, -42.7062], [-73.681, -42.6949], [-73.6826, -42.689], [-73.6716, -42.6825], [-73.6753, -42.6778], [-73.6711, -42.6715], [-73.6623, -42.6786], [-73.6559, -42.6745], [-73.6599, -42.6649], [-73.6991, -42.6673], [-73.7516, -42.6419], [-73.7624, -42.6287], [-73.7603, -42.6249], [-73.7698, -42.6211], [-73.7714, -42.6154], [-73.7854, -42.6142], [-73.7883, -42.5962], [-73.7772, -42.5833], [-73.7566, -42.5786], [-73.7596, -42.5705], [-73.7501, -42.5526], [-73.76, -42.5437], [-73.8009, -42.5456], [-73.8048, -42.5386], [-73.7892, -42.5083], [-73.7858, -42.5107], [-73.7805, -42.5001], [-73.7692, -42.4983], [-73.7671, -42.4904], [-73.7718, -42.481], [-73.7648, -42.4856], [-73.7588, -42.4827], [-73.7668, -42.4646], [-73.7479, -42.4749], [-73.7538, -42.4473], [-73.7449, -42.446], [-73.7531, -42.4382], [-73.7557, -42.4276], [-73.7465, -42.4331], [-73.7466, -42.4278], [-73.7407, -42.429], [-73.7411, -42.4257], [-73.7254, -42.4294], [-73.7312, -42.4404], [-73.73, -42.4522], [-73.7233, -42.4599], [-73.7345, -42.4647], [-73.7285, -42.47], [-73.7363, -42.4783], [-73.7328, -42.4807], [-73.7345, -42.4957], [-73.7506, -42.5079], [-73.7502, -42.5144], [-73.7438, -42.5177], [-73.7638, -42.5155], [-73.7732, -42.5235], [-73.7853, -42.5235], [-73.783, -42.5338], [-73.7637, -42.5312], [-73.7373, -42.5401], [-73.7337, -42.5554], [-73.7204, -42.5688], [-73.6864, -42.5596], [-73.6886, -42.5537], [-73.6768, -42.5533], [-73.6729, -42.5487], [-73.6394, -42.5472], [-73.6364, -42.5285], [-73.6278, -42.5237], [-73.6258, -42.5337], [-73.6178, -42.5361], [-73.587, -42.5317], [-73.5764, -42.5343], [-73.6167, -42.5061], [-73.6254, -42.5046], [-73.634, -42.5137], [-73.6366, -42.5038], [-73.6524, -42.4978], [-73.6689, -42.4837], [-73.6835, -42.4802], [-73.6879, -42.4684], [-73.6797, -42.4625], [-73.6748, -42.4656], [-73.6734, -42.4617], [-73.6609, -42.46], [-73.6605, -42.4528], [-73.6555, -42.4535], [-73.6579, -42.4474], [-73.6503, -42.4462], [-73.6411, -42.4371], [-73.6441, -42.4279], [-73.6578, -42.4201], [-73.6729, -42.4025], [-73.664, -42.3837], [-73.6423, -42.3783], [-73.6237, -42.365], [-73.5826, -42.3635], [-73.5731, -42.349], [-73.5641, -42.3486], [-73.5618, -42.3408], [-73.5453, -42.3332], [-73.5368, -42.3394], [-73.5132, -42.3419], [-73.5078, -42.3246], [-73.5043, -42.3369], [-73.4959, -42.3426], [-73.4715, -42.3435], [-73.457, -42.3302], [-73.4463, -42.3271], [-73.4424, -42.3191], [-73.4461, -42.321], [-73.4353, -42.3093], [-73.4414, -42.3228], [-73.4332, -42.3303], [-73.4069, -42.3225], [-73.3549, -42.3374], [-73.3523, -42.3235], [-73.3604, -42.2959], [-73.351, -42.2704], [-73.3409, -42.2717], [-73.3494, -42.2755], [-73.3428, -42.2775], [-73.3371, -42.2655], [-73.3485, -42.2521], [-73.367, -42.2457], [-73.36, -42.2415], [-73.3628, -42.2207], [-73.3568, -42.2173], [-73.3623, -42.2076], [-73.3679, -42.204], [-73.3777, -42.2108], [-73.3977, -42.2111], [-73.4128, -42.2019], [-73.4234, -42.1774], [-73.4559, -42.1632], [-73.4645, -42.1619], [-73.4792, -42.1682], [-73.4883, -42.1607], [-73.4862, -42.1533], [-73.4903, -42.1483], [-73.4724, -42.145], [-73.4697, -42.1366], [-73.4845, -42.1185], [-73.4823, -42.112], [-73.4654, -42.1263], [-73.4472, -42.1222], [-73.4413, -42.118], [-73.44, -42.1084], [-73.4276, -42.1042], [-73.4341, -42.1142], [-73.4217, -42.1025], [-73.4149, -42.0726], [-73.4832, -42.0177], [-73.5189, -41.9682], [-73.5174, -41.951], [-73.5301, -41.9525], [-73.5248, -41.9585], [-73.528, -41.9542], [-73.5222, -41.9529], [-73.5257, -41.9639], [-73.5212, -41.9675], [-73.5295, -41.9613], [-73.5531, -41.9675], [-73.566, -41.946], [-73.5564, -41.9426], [-73.5538, -41.9467], [-73.5433, -41.9249], [-73.5259, -41.928], [-73.5094, -41.9236], [-73.5066, -41.908], [-73.5143, -41.8975], [-73.5197, -41.9076], [-73.5227, -41.9064], [-73.518, -41.8991], [-73.5368, -41.8993], [-73.5257, -41.8954], [-73.5277, -41.893], [-73.5159, -41.8964], [-73.5044, -41.8936], [-73.4714, -41.9037], [-73.4753, -41.8926], [-73.4836, -41.8877], [-73.5323, -41.8804], [-73.532, -41.8744], [-73.5119, -41.8672], [-73.5002, -41.8513], [-73.4799, -41.8441], [-73.4765, -41.8324], [-73.5098, -41.8316], [-73.5259, -41.8266], [-73.5182, -41.8215], [-73.5242, -41.8055], [-73.5391, -41.7965], [-73.5628, -41.799], [-73.5896, -41.793], [-73.6023, -41.8112], [-73.6246, -41.8259], [-73.6416, -41.8201], [-73.6447, -41.8069], [-73.6392, -41.8008], [-73.6577, -41.8016], [-73.6631, -41.7965], [-73.6998, -41.8197], [-73.721, -41.8402], [-73.7636, -41.8639], [-73.7904, -41.8703], [-73.8032, -41.8689], [-73.8062, -41.8598], [-73.829, -41.8593], [-73.8293, -41.8736], [-73.8441, -41.8827], [-73.8559, -41.8828], [-73.9056, -41.8704], [-73.907, -41.8752], [-73.9136, -41.8727], [-73.9219, -41.8766], [-73.9153, -41.8697], [-73.9195, -41.8667], [-73.9321, -41.8642], [-73.9291, -41.8676], [-73.9402, -41.8708], [-73.9497, -41.8617], [-73.9551, -41.8633], [-73.9538, -41.8564], [-73.9602, -41.8529], [-73.9799, -41.8599], [-73.9882, -41.8578], [-73.9975, -41.8525], [-74.0001, -41.8392], [-74.0061, -41.8409], [-73.9962, -41.8342], [-73.987, -41.837], [-73.982, -41.8286], [-73.9864, -41.8176], [-73.9824, -41.8207], [-73.9723, -41.816], [-73.9804, -41.8228], [-73.974, -41.8263], [-73.9797, -41.83], [-73.9738, -41.8349], [-73.9606, -41.8328], [-73.9558, -41.8287], [-73.9592, -41.8252], [-73.9447, -41.825], [-73.9463, -41.8194], [-73.9323, -41.8226], [-73.9263, -41.8341], [-73.94, -41.8402], [-73.9331, -41.8418], [-73.9366, -41.8463], [-73.9205, -41.843], [-73.9202, -41.8533], [-73.9027, -41.848], [-73.9119, -41.8471], [-73.9033, -41.8335], [-73.9073, -41.8326], [-73.8996, -41.8288], [-73.9069, -41.8272], [-73.8991, -41.8262], [-73.8905, -41.8326], [-73.8977, -41.8335], [-73.9016, -41.84], [-73.8956, -41.8475], [-73.8859, -41.8477], [-73.8927, -41.8488], [-73.8948, -41.8579], [-73.8791, -41.855], [-73.8667, -41.8341], [-73.8541, -41.8298], [-73.8744, -41.8215], [-73.8729, -41.817], [-73.8834, -41.8092], [-73.8945, -41.8139], [-73.8965, -41.8036], [-73.9115, -41.7954], [-73.8999, -41.7845], [-73.8928, -41.79], [-73.8985, -41.7978], [-73.8775, -41.7848], [-73.8906, -41.7858], [-73.8917, -41.7785], [-73.8991, -41.7784], [-73.9015, -41.7668], [-73.9084, -41.7742], [-73.9035, -41.7782], [-73.9069, -41.7835], [-73.9317, -41.7941], [-73.9493, -41.7967], [-73.9681, -41.7888], [-73.9879, -41.7913], [-73.9992, -41.7732], [-74.022, -41.7842], [-74.0252, -41.803], [-74.0311, -41.8074], [-74.0432, -41.8094], [-74.0522, -41.8032], [-74.0488, -41.815], [-74.0583, -41.8304], [-74.0569, -41.838], [-74.0416, -41.8485], [-74.0323, -41.8474], [-74.0329, -41.8523], [-74.0189, -41.8591], [-74.0207, -41.8684], [-74.0088, -41.8676], [-73.9934, -41.8965], [-73.9938, -41.9079], [-74.0043, -41.9255], [-74.0422, -41.9276], [-74.0529, -41.9338], [-74.0504, -41.9406], [-74.0245, -41.9482], [-74.0548, -41.9688], [-74.0493, -41.9729], [-74.0523, -41.9862], [-74.0452, -41.9886], [-74.0542, -41.9902], [-74.0477, -41.9944], [-74.0489, -42.0034], [-74.0368, -42.0117], [-74.0387, -42.0156], [-74.033, -42.0173], [-74.0361, -42.0195], [-74.0301, -42.0254], [-74.0302, -42.0443], [-74.0377, -42.044], [-74.0305, -42.0521], [-74.0354, -42.0556], [-74.0284, -42.0595], [-74.0269, -42.0697], [-74.0392, -42.0767], [-74.0368, -42.0857], [-74.043, -42.0888], [-74.0438, -42.0951], [-74.058, -42.0975], [-74.0516, -42.1014], [-74.0569, -42.107], [-74.044, -42.1187], [-74.0541, -42.1398], [-74.0526, -42.1461], [-74.0818, -42.1572], [-74.0872, -42.1685], [-74.1003, -42.1719], [-74.1005, -42.1796], [-74.1083, -42.189], [-74.1247, -42.1986], [-74.135, -42.1989], [-74.1349, -42.2155], [-74.1443, -42.2179], [-74.1488, -42.2287], [-74.147, -42.2375], [-74.161, -42.2471], [-74.1592, -42.2517], [-74.1714, -42.2679], [-74.1607, -42.2719], [-74.1594, -42.2871], [-74.1485, -42.2916], [-74.1513, -42.3006], [-74.1461, -42.3019], [-74.1384, -42.3231], [-74.1401, -42.3332], [-74.148, -42.3417], [-74.1455, -42.3594], [-74.1565, -42.3764], [-74.1577, -42.3892], [-74.1677, -42.3943], [-74.1619, -42.4003], [-74.1818, -42.412], [-74.184, -42.4202], [-74.1791, -42.424], [-74.1893, -42.4362], [-74.1853, -42.4377], [-74.1899, -42.4454], [-74.1768, -42.4666], [-74.1815, -42.4711], [-74.1776, -42.4813], [-74.1834, -42.488], [-74.1821, -42.4931], [-74.1923, -42.5001], [-74.1849, -42.5109], [-74.1956, -42.5165], [-74.1781, -42.5217], [-74.175, -42.533], [-74.1639, -42.5331], [-74.1546, -42.54], [-74.134, -42.5867], [-74.1207, -42.6347], [-74.125, -42.7003], [-74.1405, -42.7098], [-74.1541, -42.71], [-74.1578, -42.7167], [-74.1439, -42.7282], [-74.1443, -42.7628], [-74.1512, -42.7685], [-74.1634, -42.7655], [-74.1692, -42.769], [-74.1645, -42.7701], [-74.1667, -42.7866], [-74.1531, -42.7935], [-74.1522, -42.8104], [-74.1607, -42.8137], [-74.1596, -42.8192], [-74.1661, -42.8259], [-74.161, -42.8287], [-74.1632, -42.8351], [-74.1518, -42.8401], [-74.152, -42.8548], [-74.1607, -42.8656], [-74.1648, -42.8925], [-74.1724, -42.9039], [-74.2152, -42.9108], [-74.2274, -42.9177], [-74.2272, -42.929], [-74.2139, -42.9289], [-74.206, -42.9352], [-74.212, -42.9419], [-74.2036, -42.9465], [-74.2032, -42.964], [-74.2116, -42.9761], [-74.2423, -42.9819], [-74.2433, -42.9873], [-74.2628, -42.9926], [-74.2487, -42.9974], [-74.2522, -43.001], [-74.2462, -43.0035], [-74.2479, -43.0082], [-74.2399, -43.0041], [-74.229, -43.0073], [-74.2239, -43.0254], [-74.2322, -43.0345], [-74.2448, -43.0317], [-74.2479, -43.0387], [-74.2563, -43.0387], [-74.2656, -43.047], [-74.2707, -43.0612], [-74.2815, -43.0643], [-74.2794, -43.0705], [-74.293, -43.0721], [-74.2866, -43.0761], [-74.2897, -43.0808], [-74.3037, -43.0842], [-74.3199, -43.0738], [-74.3241, -43.0764], [-74.3233, -43.0884], [-74.3344, -43.0985], [-74.3211, -43.0974], [-74.3164, -43.1053], [-74.3335, -43.1172], [-74.3278, -43.1204], [-74.3128, -43.1175], [-74.3052, -43.1263], [-74.3056, -43.1343], [-74.3129, -43.1425], [-74.3209, -43.1433], [-74.3202, -43.1472], [-74.3259, -43.139], [-74.323, -43.1433], [-74.3268, -43.1472], [-74.3381, -43.1416], [-74.3499, -43.1527], [-74.3518, -43.1723], [-74.3599, -43.1726], [-74.3578, -43.1831], [-74.3673, -43.2008], [-74.3732, -43.2032], [-74.3758, -43.224], [-74.4048, -43.2334], [-74.4004, -43.2367], [-74.3989, -43.25], [-74.4048, -43.2585]]], [[[-73.2025, -42.5958], [-73.2213, -42.5707], [-73.2195, -42.5602], [-73.2279, -42.5619], [-73.2273, -42.5939], [-73.2381, -42.6033], [-73.2428, -42.6152], [-73.2208, -42.6167], [-73.2158, -42.6005], [-73.2207, -42.5932], [-73.2144, -42.5908], [-73.2096, -42.596], [-73.2145, -42.5975], [-73.2156, -42.6122], [-73.2197, -42.6154], [-73.2121, -42.6231], [-73.2227, -42.6262], [-73.2031, -42.628], [-73.1961, -42.6173], [-73.2044, -42.6039], [-73.2025, -42.5958]]], [[[-73.5401, -42.5906], [-73.5396, -42.5981], [-73.5202, -42.599], [-73.5159, -42.6033], [-73.5069, -42.5886], [-73.5069, -42.5681], [-73.4914, -42.5503], [-73.4994, -42.5482], [-73.5207, -42.5558], [-73.5281, -42.5667], [-73.5263, -42.5728], [-73.5387, -42.5807], [-73.5401, -42.5906]]], [[[-73.4398, -42.1458], [-73.4089, -42.1527], [-73.4127, -42.1568], [-73.4035, -42.1663], [-73.3958, -42.1647], [-73.4017, -42.1714], [-73.3933, -42.1735], [-73.3861, -42.1842], [-73.3568, -42.1752], [-73.3522, -42.178], [-73.3593, -42.1819], [-73.3494, -42.1783], [-73.3612, -42.1578], [-73.359, -42.1519], [-73.3856, -42.1207], [-73.3817, -42.1128], [-73.3888, -42.1053], [-73.4151, -42.1295], [-73.4374, -42.1313], [-73.4611, -42.1397], [-73.4564, -42.146], [-73.4398, -42.1458]]], [[[-73.246, -42.3243], [-73.2409, -42.3247], [-73.2406, -42.3302], [-73.2552, -42.3262], [-73.2578, -42.3305], [-73.2603, -42.3277], [-73.2553, -42.3251], [-73.262, -42.321], [-73.257, -42.3211], [-73.2649, -42.3189], [-73.2725, -42.3231], [-73.2685, -42.3343], [-73.2467, -42.3407], [-73.2155, -42.3386], [-73.226, -42.337], [-73.2298, -42.331], [-73.2406, -42.3366], [-73.2344, -42.3334], [-73.2353, -42.3286], [-73.2267, -42.3273], [-73.2364, -42.3273], [-73.2455, -42.3173], [-73.2448, -42.3222], [-73.2534, -42.3214], [-73.246, -42.3243]]], [[[-73.24, -42.2957], [-73.2775, -42.2857], [-73.3067, -42.2961], [-73.3134, -42.3057], [-73.3042, -42.3061], [-73.2888, -42.3178], [-73.2691, -42.3165], [-73.2659, -42.3109], [-73.2578, -42.3173], [-73.2356, -42.3069], [-73.2475, -42.3135], [-73.2395, -42.3154], [-73.2312, -42.3078], [-73.24, -42.2957]]], [[[-73.2236, -42.309], [-73.2225, -42.3171], [-73.2097, -42.3282], [-73.1957, -42.3214], [-73.205, -42.3108], [-73.218, -42.3051], [-73.1971, -42.2982], [-73.1859, -42.3038], [-73.2079, -42.2818], [-73.232, -42.2732], [-73.2625, -42.2708], [-73.2616, -42.278], [-73.2487, -42.2831], [-73.222, -42.2864], [-73.2186, -42.2958], [-73.2034, -42.2938], [-73.2039, -42.2892], [-73.1993, -42.2914], [-73.1961, -42.2968], [-73.2082, -42.2946], [-73.2115, -42.3006], [-73.223, -42.298], [-73.2181, -42.304], [-73.2236, -42.309]]], [[[-73.2547, -42.4777], [-73.2607, -42.4736], [-73.2763, -42.4767], [-73.2932, -42.4625], [-73.2943, -42.47], [-73.2717, -42.4966], [-73.2637, -42.5146], [-73.2484, -42.5042], [-73.2458, -42.4967], [-73.2501, -42.4804], [-73.2547, -42.4777]]], [[[-73.5139, -42.4562], [-73.5163, -42.4363], [-73.5237, -42.4213], [-73.5147, -42.4057], [-73.5132, -42.4104], [-73.508, -42.4096], [-73.5236, -42.3941], [-73.5318, -42.3926], [-73.5505, -42.3995], [-73.5734, -42.3861], [-73.5981, -42.3816], [-73.6208, -42.3891], [-73.6585, -42.3899], [-73.6521, -42.4046], [-73.6298, -42.4143], [-73.6058, -42.4371], [-73.6258, -42.4463], [-73.6442, -42.4621], [-73.6374, -42.4698], [-73.6332, -42.472], [-73.6032, -42.4618], [-73.5491, -42.4732], [-73.5381, -42.4682], [-73.5356, -42.4765], [-73.5195, -42.4813], [-73.5113, -42.5046], [-73.4958, -42.5153], [-73.4503, -42.5183], [-73.4294, -42.533], [-73.4234, -42.5445], [-73.4073, -42.5509], [-73.4105, -42.5544], [-73.4248, -42.553], [-73.4318, -42.5484], [-73.4267, -42.545], [-73.4348, -42.5404], [-73.4382, -42.5483], [-73.4357, -42.5621], [-73.4452, -42.5676], [-73.4429, -42.5719], [-73.4145, -42.5739], [-73.4026, -42.578], [-73.3996, -42.5869], [-73.3889, -42.5841], [-73.3968, -42.5682], [-73.3959, -42.5402], [-73.4262, -42.5247], [-73.4575, -42.4792], [-73.4768, -42.4677], [-73.5018, -42.4665], [-73.5139, -42.4562]]], [[[-73.3094, -42.4821], [-73.3061, -42.4737], [-73.2989, -42.4701], [-73.3181, -42.4533], [-73.3379, -42.458], [-73.3611, -42.4516], [-73.3744, -42.4533], [-73.3805, -42.4767], [-73.3772, -42.4898], [-73.347, -42.4911], [-73.3094, -42.4821]]], [[[-73.4281, -42.4016], [-73.4152, -42.3975], [-73.4168, -42.3853], [-73.4485, -42.3651], [-73.4592, -42.3812], [-73.4458, -42.3889], [-73.4438, -42.4029], [-73.4375, -42.4086], [-73.4281, -42.4016]]], [[[-73.4281, -42.4402], [-73.4236, -42.4331], [-73.4379, -42.4213], [-73.4641, -42.4277], [-73.4586, -42.4366], [-73.4422, -42.4317], [-73.432, -42.4343], [-73.4281, -42.4402]]], [[[-73.2945, -42.3902], [-73.2971, -42.3956], [-73.3109, -42.3996], [-73.3078, -42.4235], [-73.3323, -42.4158], [-73.3451, -42.4225], [-73.3296, -42.4379], [-73.3158, -42.435], [-73.3053, -42.4397], [-73.2953, -42.4356], [-73.2825, -42.4182], [-73.2871, -42.4031], [-73.2824, -42.3974], [-73.2945, -42.3902]]]]}}]}