{"type": "FeatureCollection", "parent": {"osm_id": 278721, "name": "Connacht", "admin_level": "5", "kind": "subdivision_1", "child_kind": "subdivision_2", "iso": "IE-C"}, "features": [{"type": "Feature", "properties": {"osm_type": "relation", "osm_id": 493029515, "name": "TUAM LEA-7", "admin_level": "6", "kind": "subdivision_2", "parent_osm_id": 278721, "parent_name": "Connacht", "parent_iso": "IE-C"}, "geometry": {"type": "Polygon", "coordinates": [[[-8.6697, 53.4461], [-8.6555, 53.4451], [-8.6297, 53.4547], [-8.6363, 53.4732], [-8.6499, 53.4709], [-8.6619, 53.4833], [-8.6715, 53.4844], [-8.6667, 53.4817], [-8.6743, 53.4802], [-8.6769, 53.4841], [-8.6734, 53.497], [-8.6645, 53.4982], [-8.6685, 53.5144], [-8.6577, 53.5262], [-8.6649, 53.533], [-8.6644, 53.5502], [-8.6455, 53.5527], [-8.6488, 53.5623], [-8.6612, 53.5669], [-8.6618, 53.5814], [-8.6689, 53.5837], [-8.667, 53.5887], [-8.6509, 53.5926], [-8.6486, 53.5993], [-8.6578, 53.602], [-8.6485, 53.6063], [-8.6459, 53.613], [-8.6486, 53.6233], [-8.6412, 53.65], [-8.65, 53.6488], [-8.6549, 53.656], [-8.6814, 53.6565], [-8.6955, 53.6709], [-8.7234, 53.6651], [-8.7291, 53.6712], [-8.7451, 53.662], [-8.7735, 53.6664], [-8.7943, 53.657], [-8.8191, 53.6659], [-8.8427, 53.653], [-8.8663, 53.6567], [-8.8995, 53.653], [-8.8955, 53.6487], [-8.9014, 53.6421], [-8.9427, 53.6619], [-8.9548, 53.6557], [-8.9714, 53.6554], [-8.9791, 53.6452], [-8.9716, 53.6425], [-8.974, 53.6274], [-8.9882, 53.6187], [-8.9803, 53.605], [-8.9901, 53.6032], [-8.9927, 53.5971], [-8.9997, 53.6023], [-9.0154, 53.5982], [-9.0068, 53.5841], [-9.0292, 53.5793], [-9.0392, 53.5816], [-9.0462, 53.5767], [-9.0387, 53.5644], [-9.0414, 53.5617], [-9.0253, 53.5515], [-9.0369, 53.5429], [-9.0371, 53.5359], [-9.0547, 53.5354], [-9.0582, 53.5276], [-9.0936, 53.515], [-9.0994, 53.4938], [-9.1159, 53.4943], [-9.1246, 53.4821], [-9.1353, 53.4774], [-9.1583, 53.4827], [-9.182, 53.4719], [-9.1919, 53.4757], [-9.2094, 53.4724], [-9.2125, 53.4785], [-9.2366, 53.4802], [-9.2663, 53.469], [-9.26, 53.4497], [-9.2142, 53.4439], [-9.1851, 53.4255], [-9.1222, 53.423], [-9.1197, 53.41], [-9.1019, 53.403], [-9.0358, 53.4126], [-9.0221, 53.4212], [-9.017, 53.4056], [-8.9916, 53.4102], [-8.9863, 53.4027], [-8.9698, 53.3976], [-8.9657, 53.402], [-8.946, 53.4029], [-8.9607, 53.3927], [-8.9395, 53.3995], [-8.9084, 53.3972], [-8.9017, 53.4023], [-8.8874, 53.3869], [-8.8702, 53.3887], [-8.8597, 53.4009], [-8.8381, 53.4059], [-8.8113, 53.3935], [-8.7974, 53.3967], [-8.7956, 53.403], [-8.7754, 53.4107], [-8.7709, 53.4056], [-8.7409, 53.4042], [-8.7288, 53.4101], [-8.7455, 53.4111], [-8.7412, 53.4202], [-8.744, 53.4392], [-8.7137, 53.4466], [-8.6697, 53.4461]]]}}, {"type": "Feature", "properties": {"osm_type": "relation", "osm_id": 508579343, "name": "GALWAY CITY EAST LEA-6", "admin_level": "6", "kind": "subdivision_2", "parent_osm_id": 278721, "parent_name": "Connacht", "parent_iso": "IE-C"}, "geometry": {"type": "MultiPolygon", "coordinates": [[[[-9.0234, 53.3133], [-9.0455, 53.287], [-9.0329, 53.2818], [-9.0439, 53.268], [-9.0197, 53.2711], [-9.0175, 53.2664], [-8.9938, 53.271], [-8.9946, 53.2623], [-8.9722, 53.2617], [-8.9766, 53.2639], [-8.9732, 53.2701], [-8.955, 53.2721], [-8.9585, 53.2796], [-8.9637, 53.2798], [-8.963, 53.2901], [-8.9549, 53.2944], [-8.9609, 53.3005], [-8.9837, 53.2923], [-8.9876, 53.3001], [-9.0032, 53.3036], [-9.0077, 53.3002], [-9.0067, 53.3036], [-9.027, 53.3066], [-9.0129, 53.3147], [-9.0234, 53.3133]]], [[[-9.0235, 53.2592], [-9.0276, 53.2586], [-9.0235, 53.2592]]], [[[-9.0082, 53.2627], [-9.01, 53.2616], [-9.0082, 53.2627]]]]}}, {"type": "Feature", "properties": {"osm_type": "relation", "osm_id": 105890735, "name": "MANORHAMILTON LEA-6", "admin_level": "6", "kind": "subdivision_2", "parent_osm_id": 278721, "parent_name": "Connacht", "parent_iso": "IE-C"}, "geometry": {"type": "Polygon", "coordinates": [[[-7.9466, 54.3043], [-7.9617, 54.3125], [-7.9634, 54.3205], [-7.9864, 54.3442], [-7.9995, 54.3472], [-8.0003, 54.3581], [-8.0076, 54.3613], [-8.0313, 54.3567], [-8.0574, 54.3658], [-8.0841, 54.3974], [-8.1587, 54.439], [-8.1619, 54.442], [-8.1503, 54.4439], [-8.1432, 54.451], [-8.1674, 54.4593], [-8.17, 54.4645], [-8.221, 54.4729], [-8.232, 54.4704], [-8.2362, 54.4612], [-8.2706, 54.4598], [-8.2829, 54.4648], [-8.2991, 54.4637], [-8.3129, 54.4743], [-8.3729, 54.4677], [-8.3828, 54.4656], [-8.3789, 54.4571], [-8.3722, 54.4555], [-8.3731, 54.4503], [-8.4019, 54.4459], [-8.4094, 54.4401], [-8.4083, 54.4307], [-8.4277, 54.4211], [-8.4186, 54.4148], [-8.3983, 54.4173], [-8.3928, 54.4202], [-8.3981, 54.4272], [-8.391, 54.4283], [-8.3444, 54.4213], [-8.3498, 54.4151], [-8.3463, 54.4122], [-8.3488, 54.405], [-8.3591, 54.3964], [-8.3651, 54.372], [-8.3994, 54.36], [-8.3918, 54.3501], [-8.391, 54.3344], [-8.3861, 54.3289], [-8.3898, 54.3203], [-8.376, 54.3139], [-8.3549, 54.3126], [-8.3481, 54.3037], [-8.3416, 54.2515], [-8.3345, 54.2487], [-8.3316, 54.2401], [-8.3361, 54.2388], [-8.3408, 54.2229], [-8.3319, 54.2117], [-8.3477, 54.1993], [-8.3163, 54.1883], [-8.3302, 54.1767], [-8.3284, 54.1733], [-8.3035, 54.1671], [-8.2813, 54.1526], [-8.2608, 54.1532], [-8.2512, 54.1593], [-8.2274, 54.1548], [-8.216, 54.1404], [-8.1958, 54.1335], [-8.1757, 54.1135], [-8.1635, 54.109], [-8.1481, 54.1252], [-8.1256, 54.1201], [-8.1055, 54.1089], [-8.0531, 54.1047], [-8.0431, 54.165], [-8.046, 54.1713], [-8.0339, 54.1803], [-8.048, 54.1869], [-8.0452, 54.1937], [-8.0507, 54.1976], [-8.0354, 54.2064], [-8.0326, 54.2128], [-8.0581, 54.2359], [-8.0412, 54.254], [-8.0038, 54.2493], [-7.9744, 54.2735], [-7.9725, 54.2844], [-7.9466, 54.3043]]]}}, {"type": "Feature", "properties": {"osm_type": "relation", "osm_id": 770411880, "name": "CLAREMORRIS LEA-6", "admin_level": "6", "kind": "subdivision_2", "parent_osm_id": 278721, "parent_name": "Connacht", "parent_iso": "IE-C"}, "geometry": {"type": "Polygon", "coordinates": [[[-8.8233, 53.665], [-8.8069, 53.6748], [-8.7914, 53.6962], [-8.776, 53.6881], [-8.7593, 53.6909], [-8.7563, 53.6929], [-8.7608, 53.6969], [-8.7561, 53.7008], [-8.7129, 53.7121], [-8.7145, 53.7247], [-8.6933, 53.724], [-8.7006, 53.7337], [-8.6948, 53.7396], [-8.7078, 53.745], [-8.7034, 53.7516], [-8.7086, 53.7639], [-8.7408, 53.7709], [-8.749, 53.7791], [-8.7638, 53.7754], [-8.7591, 53.77], [-8.7698, 53.7709], [-8.7725, 53.7767], [-8.7905, 53.7807], [-8.7977, 53.7937], [-8.825, 53.8026], [-8.8449, 53.8176], [-8.872, 53.825], [-8.894, 53.8384], [-8.9009, 53.8305], [-8.9302, 53.841], [-8.9343, 53.8357], [-8.9526, 53.8368], [-8.9725, 53.8266], [-8.9842, 53.84], [-8.9921, 53.8388], [-8.9938, 53.8319], [-8.9874, 53.8275], [-8.9965, 53.8246], [-8.9938, 53.816], [-9.023, 53.8235], [-9.0511, 53.8041], [-9.0614, 53.8093], [-9.0726, 53.8045], [-9.0732, 53.7857], [-9.0601, 53.7768], [-9.0679, 53.7733], [-9.0775, 53.7809], [-9.0938, 53.7778], [-9.096, 53.7732], [-9.118, 53.7817], [-9.1205, 53.7715], [-9.1169, 53.7615], [-9.1331, 53.7632], [-9.1288, 53.7497], [-9.1397, 53.7491], [-9.1386, 53.7374], [-9.1509, 53.7235], [-9.156, 53.7311], [-9.1655, 53.7275], [-9.1679, 53.7181], [-9.1815, 53.712], [-9.1783, 53.7056], [-9.1813, 53.6999], [-9.1907, 53.703], [-9.1965, 53.7124], [-9.2078, 53.711], [-9.2186, 53.7039], [-9.2535, 53.6611], [-9.2633, 53.6598], [-9.2823, 53.6435], [-9.3311, 53.6358], [-9.3618, 53.5978], [-9.3609, 53.5736], [-9.3457, 53.5634], [-9.3532, 53.5468], [-9.3383, 53.54], [-9.3211, 53.5426], [-9.3203, 53.5502], [-9.3108, 53.5554], [-9.3035, 53.5553], [-9.3068, 53.5455], [-9.2845, 53.548], [-9.2839, 53.5421], [-9.2893, 53.5405], [-9.2787, 53.5254], [-9.2791, 53.5154], [-9.2356, 53.4994], [-9.2366, 53.4802], [-9.2125, 53.4785], [-9.2094, 53.4724], [-9.1919, 53.4757], [-9.182, 53.4719], [-9.1583, 53.4827], [-9.1353, 53.4774], [-9.1246, 53.4821], [-9.1159, 53.4943], [-9.0994, 53.4938], [-9.0936, 53.515], [-9.0582, 53.5276], [-9.0547, 53.5354], [-9.0341, 53.539], [-9.0369, 53.5429], [-9.0253, 53.5515], [-9.0414, 53.5617], [-9.0387, 53.5644], [-9.0462, 53.5767], [-9.0392, 53.5816], [-9.0292, 53.5793], [-9.0068, 53.5841], [-9.0154, 53.5982], [-8.9997, 53.6023], [-8.9927, 53.5971], [-8.9901, 53.6032], [-8.9803, 53.605], [-8.9882, 53.6187], [-8.974, 53.6274], [-8.9716, 53.6425], [-8.9791, 53.6452], [-8.9714, 53.6554], [-8.9548, 53.6557], [-8.9427, 53.6619], [-8.9014, 53.6421], [-8.8955, 53.6487], [-8.8995, 53.653], [-8.8663, 53.6567], [-8.8427, 53.653], [-8.8233, 53.665]]]}}, {"type": "Feature", "properties": {"osm_type": "relation", "osm_id": 632926235, "name": "ATHENRY-ORANMORE LEA-7", "admin_level": "6", "kind": "subdivision_2", "parent_osm_id": 278721, "parent_name": "Connacht", "parent_iso": "IE-C"}, "geometry": {"type": "MultiPolygon", "coordinates": [[[[-9.1019, 53.403], [-9.1053, 53.3866], [-9.0959, 53.3722], [-9.1044, 53.3514], [-9.0943, 53.3353], [-9.0485, 53.3297], [-9.0649, 53.319], [-9.0491, 53.3102], [-9.0129, 53.3147], [-9.027, 53.3066], [-9.0067, 53.3036], [-9.0077, 53.3002], [-9.0032, 53.3036], [-8.9876, 53.3001], [-8.9837, 53.2923], [-8.9609, 53.3005], [-8.9549, 53.2944], [-8.963, 53.2901], [-8.9637, 53.2798], [-8.9585, 53.2796], [-8.9526, 53.2702], [-8.9349, 53.2725], [-8.934, 53.2685], [-8.9481, 53.2624], [-8.9373, 53.2593], [-8.9375, 53.2543], [-8.9296, 53.2648], [-8.904, 53.2513], [-8.8535, 53.2552], [-8.8385, 53.2442], [-8.7887, 53.2576], [-8.7784, 53.2494], [-8.7729, 53.2549], [-8.7489, 53.2501], [-8.7441, 53.2539], [-8.7451, 53.2679], [-8.7306, 53.2703], [-8.7184, 53.2784], [-8.7157, 53.2856], [-8.6933, 53.291], [-8.6737, 53.2839], [-8.6381, 53.2874], [-8.6346, 53.2959], [-8.6281, 53.2981], [-8.5857, 53.2881], [-8.583, 53.2804], [-8.549, 53.2802], [-8.5491, 53.2955], [-8.5452, 53.2999], [-8.5663, 53.3105], [-8.5652, 53.3148], [-8.5584, 53.3188], [-8.5473, 53.3173], [-8.5503, 53.3266], [-8.5136, 53.3335], [-8.533, 53.3413], [-8.5285, 53.3463], [-8.5259, 53.3678], [-8.535, 53.3675], [-8.5447, 53.3738], [-8.5353, 53.3782], [-8.535, 53.3846], [-8.5418, 53.3892], [-8.5529, 53.3861], [-8.5506, 53.3799], [-8.5545, 53.3794], [-8.5668, 53.3815], [-8.5705, 53.3894], [-8.5697, 53.3802], [-8.5917, 53.3735], [-8.6095, 53.3747], [-8.6229, 53.394], [-8.6315, 53.3931], [-8.6454, 53.3827], [-8.6509, 53.3877], [-8.6469, 53.3954], [-8.6571, 53.4049], [-8.6596, 53.4261], [-8.6681, 53.4309], [-8.6668, 53.4358], [-8.6596, 53.4376], [-8.6697, 53.4461], [-8.7137, 53.4466], [-8.744, 53.4392], [-8.7412, 53.4202], [-8.7455, 53.4111], [-8.7288, 53.4101], [-8.7505, 53.4032], [-8.7709, 53.4056], [-8.7754, 53.4107], [-8.7956, 53.403], [-8.7974, 53.3967], [-8.8113, 53.3935], [-8.8381, 53.4059], [-8.8597, 53.4009], [-8.8702, 53.3887], [-8.8874, 53.3869], [-8.9017, 53.4023], [-8.9084, 53.3972], [-8.9395, 53.3995], [-8.9607, 53.3927], [-8.946, 53.4029], [-8.9657, 53.402], [-8.9698, 53.3976], [-8.9863, 53.4027], [-8.9916, 53.4102], [-9.017, 53.4056], [-9.0221, 53.4212], [-9.0358, 53.4126], [-9.1019, 53.403]]], [[[-9.03, 53.2239], [-9.0494, 53.2199], [-9.0172, 53.2132], [-9.0356, 53.2162], [-9.0203, 53.2201], [-9.0248, 53.2244], [-9.0146, 53.2238], [-9.03, 53.2239]]], [[[-8.9888, 53.1972], [-9.0069, 53.1921], [-9.0032, 53.1898], [-8.993, 53.1902], [-9.0051, 53.1906], [-9.0004, 53.1942], [-8.9665, 53.1951], [-8.9888, 53.1972]]], [[[-8.9875, 53.2135], [-9.0157, 53.2142], [-8.9875, 53.2135]]], [[[-9.0128, 53.2187], [-9.0062, 53.2206], [-9.0083, 53.2239], [-9.026, 53.2171], [-9.0128, 53.2187]]], [[[-8.973, 53.203], [-8.9682, 53.204], [-8.9782, 53.2085], [-8.9906, 53.2101], [-8.973, 53.203]]], [[[-9.008, 53.2173], [-8.9991, 53.2195], [-9.008, 53.2173]]], [[[-8.9977, 53.2214], [-9.0038, 53.2219], [-8.9977, 53.2214]]]]}}, {"type": "Feature", "properties": {"osm_type": "relation", "osm_id": 606563018, "name": "BALLYMOTE-TOBERCURRY LEA-7", "admin_level": "6", "kind": "subdivision_2", "parent_osm_id": 278721, "parent_name": "Connacht", "parent_iso": "IE-C"}, "geometry": {"type": "Polygon", "coordinates": [[[-8.3354, 54.195], [-8.38, 54.1887], [-8.4338, 54.1883], [-8.4324, 54.1805], [-8.4033, 54.1766], [-8.4218, 54.1714], [-8.4194, 54.1668], [-8.423, 54.1656], [-8.4301, 54.1656], [-8.4394, 54.1741], [-8.4501, 54.1736], [-8.4434, 54.1645], [-8.4454, 54.161], [-8.4552, 54.1635], [-8.4557, 54.1594], [-8.4736, 54.1574], [-8.4958, 54.1675], [-8.5313, 54.168], [-8.5358, 54.1707], [-8.5272, 54.1736], [-8.5403, 54.1813], [-8.5578, 54.1687], [-8.58, 54.1655], [-8.5855, 54.1705], [-8.5832, 54.177], [-8.5945, 54.1836], [-8.5992, 54.1942], [-8.6111, 54.1942], [-8.6233, 54.2084], [-8.6179, 54.2172], [-8.5903, 54.2233], [-8.6044, 54.2228], [-8.6049, 54.2298], [-8.6281, 54.2378], [-8.6256, 54.2422], [-8.6368, 54.2386], [-8.6275, 54.2455], [-8.6491, 54.2513], [-8.6412, 54.2515], [-8.6428, 54.2545], [-8.6282, 54.2481], [-8.66, 54.2718], [-8.6867, 54.2728], [-8.7255, 54.2628], [-8.7559, 54.2687], [-8.7539, 54.2776], [-8.7625, 54.279], [-8.7845, 54.2718], [-8.7934, 54.2612], [-8.8266, 54.2528], [-8.8453, 54.2575], [-8.8562, 54.2669], [-8.8652, 54.2623], [-8.8741, 54.2699], [-8.8946, 54.2726], [-8.9054, 54.283], [-8.9321, 54.2933], [-8.9392, 54.291], [-8.947, 54.295], [-8.9598, 54.2899], [-8.9618, 54.2942], [-8.9998, 54.2916], [-9.0203, 54.2966], [-9.0554, 54.2933], [-9.0514, 54.2866], [-9.06, 54.2803], [-9.0536, 54.2738], [-9.0965, 54.2254], [-9.0946, 54.2148], [-9.1361, 54.2049], [-9.1127, 54.2004], [-9.1047, 54.2036], [-9.1277, 54.1955], [-9.1241, 54.1817], [-9.1366, 54.1777], [-9.1294, 54.1679], [-9.1347, 54.1642], [-9.1028, 54.1493], [-9.1059, 54.145], [-9.0998, 54.1426], [-9.0844, 54.146], [-9.0565, 54.1426], [-9.0525, 54.1568], [-9.0315, 54.1532], [-9.0228, 54.1623], [-8.9971, 54.1502], [-8.9368, 54.1431], [-8.9473, 54.1384], [-8.9456, 54.1322], [-8.9357, 54.1314], [-8.9372, 54.1271], [-8.9239, 54.1254], [-8.917, 54.118], [-8.9354, 54.1061], [-8.96, 54.1023], [-8.9537, 54.0933], [-8.9702, 54.086], [-8.9655, 54.0732], [-9.0142, 54.0524], [-9.0161, 54.0338], [-9.0106, 54.0309], [-9.0185, 54.0252], [-8.9761, 54.0243], [-8.9675, 54.0313], [-8.9467, 54.0162], [-8.9439, 54.0092], [-8.9238, 54.0089], [-8.8953, 54.0221], [-8.8832, 54.0227], [-8.8889, 54.0072], [-8.8783, 53.9976], [-8.8807, 53.9917], [-8.8638, 53.9898], [-8.8626, 53.9804], [-8.8534, 53.9736], [-8.7904, 53.9655], [-8.7825, 53.9663], [-8.781, 53.9745], [-8.7543, 53.9767], [-8.7556, 53.9822], [-8.7385, 53.9947], [-8.7251, 53.9876], [-8.7138, 53.9878], [-8.7011, 54.0052], [-8.6791, 54.0104], [-8.6753, 54.0184], [-8.6824, 54.0297], [-8.6474, 54.039], [-8.6474, 54.0335], [-8.631, 54.0256], [-8.5829, 54.0129], [-8.5898, 54.0058], [-8.5942, 53.9668], [-8.5851, 53.9538], [-8.5512, 53.9531], [-8.537, 53.9581], [-8.5218, 53.9443], [-8.5231, 53.933], [-8.5188, 53.9262], [-8.4773, 53.9209], [-8.4691, 53.913], [-8.4509, 53.9135], [-8.4482, 53.9256], [-8.4343, 53.9286], [-8.3329, 53.9277], [-8.3426, 53.9416], [-8.3496, 53.9423], [-8.3468, 53.9509], [-8.3763, 53.9492], [-8.4061, 53.9567], [-8.4051, 53.9606], [-8.4224, 53.962], [-8.425, 53.9654], [-8.4103, 53.9672], [-8.3928, 53.9649], [-8.3822, 53.9715], [-8.3905, 53.9789], [-8.3847, 53.9856], [-8.3877, 53.9899], [-8.4009, 53.9967], [-8.3979, 54.0016], [-8.3827, 53.9986], [-8.3662, 54.0046], [-8.3456, 53.9993], [-8.3152, 54.0046], [-8.3172, 54.0094], [-8.306, 54.0166], [-8.3122, 54.0186], [-8.3044, 54.0273], [-8.3073, 54.0309], [-8.2945, 54.0448], [-8.2866, 54.0377], [-8.2811, 54.0387], [-8.275, 54.0427], [-8.2765, 54.0467], [-8.2632, 54.0533], [-8.2384, 54.0396], [-8.2329, 54.043], [-8.2393, 54.0487], [-8.2392, 54.0583], [-8.2185, 54.0616], [-8.2149, 54.0684], [-8.2198, 54.084], [-8.1797, 54.0864], [-8.1665, 54.1014], [-8.153, 54.1016], [-8.1757, 54.1135], [-8.1958, 54.1335], [-8.216, 54.1404], [-8.2274, 54.1548], [-8.2512, 54.1593], [-8.2608, 54.1532], [-8.2813, 54.1526], [-8.3035, 54.1671], [-8.3284, 54.1733], [-8.3302, 54.1767], [-8.3163, 54.1883], [-8.3354, 54.195]]]}}, {"type": "Feature", "properties": {"osm_type": "relation", "osm_id": 156678567, "name": "LOUGHREA LEA-5", "admin_level": "6", "kind": "subdivision_2", "parent_osm_id": 278721, "parent_name": "Connacht", "parent_iso": "IE-C"}, "geometry": {"type": "Polygon", "coordinates": [[[-8.0815, 53.1669], [-8.0839, 53.17], [-8.0623, 53.1869], [-8.0647, 53.1893], [-8.1009, 53.1941], [-8.0964, 53.2009], [-8.128, 53.2144], [-8.1313, 53.2235], [-8.1493, 53.2228], [-8.1503, 53.2308], [-8.1643, 53.2262], [-8.1658, 53.2208], [-8.1726, 53.2226], [-8.1718, 53.2104], [-8.1944, 53.211], [-8.2102, 53.1954], [-8.2162, 53.2078], [-8.234, 53.212], [-8.2323, 53.2176], [-8.226, 53.2171], [-8.2181, 53.2249], [-8.2247, 53.2246], [-8.2292, 53.2313], [-8.2462, 53.2304], [-8.2299, 53.2331], [-8.2321, 53.2415], [-8.248, 53.2425], [-8.2452, 53.2444], [-8.265, 53.2527], [-8.2777, 53.2545], [-8.2915, 53.2474], [-8.3217, 53.2521], [-8.3221, 53.2551], [-8.309, 53.2529], [-8.2925, 53.2655], [-8.3175, 53.2706], [-8.3107, 53.2823], [-8.3396, 53.2912], [-8.3399, 53.3017], [-8.3453, 53.3035], [-8.3661, 53.2964], [-8.3625, 53.2895], [-8.3662, 53.2849], [-8.391, 53.2867], [-8.3909, 53.2827], [-8.3807, 53.2823], [-8.3834, 53.2718], [-8.4059, 53.2696], [-8.4119, 53.2678], [-8.4148, 53.2586], [-8.4228, 53.2626], [-8.4423, 53.2519], [-8.4495, 53.2527], [-8.4555, 53.2585], [-8.4451, 53.2656], [-8.4493, 53.2761], [-8.4562, 53.2783], [-8.4611, 53.2875], [-8.4956, 53.2923], [-8.5014, 53.3117], [-8.497, 53.3133], [-8.5111, 53.3164], [-8.5092, 53.3291], [-8.5136, 53.3335], [-8.5503, 53.3266], [-8.5473, 53.3173], [-8.5584, 53.3188], [-8.5652, 53.3148], [-8.5663, 53.3105], [-8.5452, 53.2999], [-8.5491, 53.2955], [-8.549, 53.2802], [-8.583, 53.2804], [-8.5857, 53.2881], [-8.6281, 53.2981], [-8.6346, 53.2959], [-8.6381, 53.2874], [-8.6737, 53.2839], [-8.6933, 53.291], [-8.7069, 53.2884], [-8.7157, 53.2856], [-8.7184, 53.2784], [-8.7306, 53.2703], [-8.724, 53.2542], [-8.7104, 53.2442], [-8.7189, 53.2396], [-8.7013, 53.2304], [-8.6994, 53.2261], [-8.7047, 53.2242], [-8.695, 53.2142], [-8.6569, 53.199], [-8.6623, 53.194], [-8.6602, 53.1912], [-8.6255, 53.1803], [-8.6227, 53.1751], [-8.6297, 53.1702], [-8.6266, 53.1608], [-8.6184, 53.1582], [-8.6222, 53.155], [-8.6191, 53.145], [-8.6308, 53.1457], [-8.6317, 53.1401], [-8.6485, 53.1307], [-8.6398, 53.1129], [-8.618, 53.092], [-8.5683, 53.1012], [-8.5459, 53.0917], [-8.5415, 53.0807], [-8.554, 53.0776], [-8.5457, 53.0613], [-8.5648, 53.0533], [-8.5529, 53.0427], [-8.5601, 53.031], [-8.5514, 53.0223], [-8.5282, 53.0237], [-8.5239, 53.0117], [-8.5085, 53.0063], [-8.5101, 52.9986], [-8.5025, 52.9831], [-8.4849, 52.9889], [-8.4612, 52.9822], [-8.4501, 52.9723], [-8.4241, 52.9834], [-8.4188, 52.9933], [-8.4088, 52.9948], [-8.4028, 52.9864], [-8.3714, 52.98], [-8.3665, 52.972], [-8.3588, 52.9713], [-8.3389, 52.9875], [-8.3167, 52.9851], [-8.3018, 53.0075], [-8.2785, 53.0187], [-8.2687, 53.0366], [-8.2678, 53.0564], [-8.2187, 53.0676], [-8.2136, 53.0784], [-8.1984, 53.0842], [-8.197, 53.0901], [-8.1688, 53.1143], [-8.1723, 53.1211], [-8.161, 53.1348], [-8.1303, 53.1568], [-8.0843, 53.163], [-8.0815, 53.1669]]]}}, {"type": "Feature", "properties": {"osm_type": "relation", "osm_id": 525445857, "name": "GORT-KINVARA LEA-5", "admin_level": "6", "kind": "subdivision_2", "parent_osm_id": 278721, "parent_name": "Connacht", "parent_iso": "IE-C"}, "geometry": {"type": "MultiPolygon", "coordinates": [[[[-8.9389, 53.2586], [-8.9772, 53.2563], [-8.9922, 53.2455], [-8.9628, 53.2457], [-8.9637, 53.2406], [-9.0073, 53.2327], [-8.9609, 53.2407], [-8.9449, 53.239], [-9.0033, 53.2261], [-8.9964, 53.2218], [-8.978, 53.2255], [-8.9921, 53.2186], [-8.9761, 53.218], [-8.9767, 53.2127], [-8.9615, 53.2082], [-8.9294, 53.2117], [-8.9105, 53.2219], [-8.883, 53.2277], [-8.9117, 53.2143], [-8.8876, 53.2098], [-8.8735, 53.2135], [-8.8798, 53.2093], [-8.9238, 53.2087], [-8.931, 53.2051], [-8.9279, 53.202], [-8.9312, 53.1993], [-8.9559, 53.1914], [-8.931, 53.1972], [-8.9462, 53.1921], [-8.9424, 53.1912], [-8.9459, 53.1865], [-8.9405, 53.1845], [-8.9499, 53.1864], [-8.946, 53.1832], [-8.9546, 53.177], [-8.9467, 53.1758], [-8.9542, 53.1719], [-8.9392, 53.1646], [-8.9429, 53.1625], [-8.9349, 53.1453], [-8.9213, 53.1445], [-8.9359, 53.1393], [-8.9525, 53.154], [-8.9863, 53.1609], [-8.9844, 53.1651], [-8.9668, 53.1675], [-8.9684, 53.1767], [-8.9883, 53.1698], [-9.0209, 53.171], [-9.0543, 53.1648], [-9.0467, 53.1659], [-9.0429, 53.1601], [-9.0161, 53.1548], [-9.0071, 53.1579], [-9.0103, 53.155], [-9.0074, 53.1516], [-9.0008, 53.1572], [-8.991, 53.1506], [-8.9937, 53.1476], [-8.9891, 53.1438], [-9.0005, 53.1446], [-8.9961, 53.1471], [-9.0052, 53.1503], [-9.0102, 53.1441], [-9.0059, 53.1419], [-9.0259, 53.1402], [-9.0259, 53.1231], [-9.0111, 53.1028], [-8.9737, 53.0919], [-8.9703, 53.0865], [-8.9524, 53.0868], [-8.9201, 53.0662], [-8.8916, 53.0607], [-8.8906, 53.0553], [-8.9018, 53.0464], [-8.9004, 53.0346], [-8.8879, 53.028], [-8.8835, 53.0164], [-8.8992, 53.0096], [-8.8948, 52.9991], [-8.8866, 52.9961], [-8.8908, 52.9909], [-8.8826, 52.9765], [-8.8603, 52.9789], [-8.8572, 52.9683], [-8.8465, 52.9776], [-8.85, 52.9863], [-8.8368, 52.9905], [-8.8261, 52.9787], [-8.8111, 52.975], [-8.8024, 52.9792], [-8.7863, 52.9719], [-8.7794, 52.9753], [-8.7788, 52.9877], [-8.7413, 53.0025], [-8.737, 53.006], [-8.7387, 53.011], [-8.7197, 53.0254], [-8.6968, 53.0254], [-8.6656, 53.0393], [-8.6345, 53.0418], [-8.6267, 53.0341], [-8.5529, 53.0427], [-8.5648, 53.0533], [-8.5457, 53.0613], [-8.554, 53.0776], [-8.5415, 53.0807], [-8.5459, 53.0917], [-8.5683, 53.1012], [-8.618, 53.092], [-8.6242, 53.0968], [-8.6398, 53.1129], [-8.6485, 53.1307], [-8.6317, 53.1401], [-8.6308, 53.1457], [-8.6191, 53.145], [-8.6222, 53.155], [-8.6184, 53.1582], [-8.6266, 53.1608], [-8.6297, 53.1702], [-8.6227, 53.1751], [-8.6255, 53.1803], [-8.6602, 53.1912], [-8.6623, 53.194], [-8.6569, 53.199], [-8.695, 53.2142], [-8.7047, 53.2242], [-8.6994, 53.2261], [-8.7013, 53.2304], [-8.7189, 53.2396], [-8.7104, 53.2442], [-8.724, 53.2542], [-8.7306, 53.2703], [-8.7451, 53.2679], [-8.7441, 53.2539], [-8.7489, 53.2501], [-8.7729, 53.2549], [-8.7784, 53.2494], [-8.7887, 53.2576], [-8.8385, 53.2442], [-8.8535, 53.2552], [-8.904, 53.2513], [-8.9296, 53.2648], [-8.9375, 53.2543], [-8.9389, 53.2586]]], [[[-8.957, 53.1561], [-8.9525, 53.1561], [-8.957, 53.1561]]], [[[-8.9652, 53.1906], [-8.9616, 53.191], [-8.9652, 53.1906]]], [[[-8.9476, 53.1548], [-8.9455, 53.1518], [-8.9476, 53.1548]]]]}}, {"type": "Feature", "properties": {"osm_type": "relation", "osm_id": 574632188, "name": "CONAMARA NORTH LEA-4", "admin_level": "6", "kind": "subdivision_2", "parent_osm_id": 278721, "parent_name": "Connacht", "parent_iso": "IE-C"}, "geometry": {"type": "MultiPolygon", "coordinates": [[[[-9.2366, 53.4802], [-9.2356, 53.4994], [-9.2791, 53.5154], [-9.2787, 53.5254], [-9.2893, 53.5405], [-9.2839, 53.5421], [-9.2845, 53.548], [-9.3068, 53.5455], [-9.3035, 53.5553], [-9.3108, 53.5554], [-9.3203, 53.5502], [-9.3211, 53.5426], [-9.3383, 53.54], [-9.3532, 53.5468], [-9.3457, 53.5634], [-9.3609, 53.5736], [-9.4234, 53.5641], [-9.4813, 53.5623], [-9.4814, 53.5661], [-9.5059, 53.5719], [-9.512, 53.5783], [-9.5442, 53.5808], [-9.557, 53.5997], [-9.5555, 53.608], [-9.5648, 53.6126], [-9.5764, 53.601], [-9.5853, 53.5991], [-9.6106, 53.6066], [-9.6471, 53.6004], [-9.6695, 53.6128], [-9.6721, 53.6068], [-9.6784, 53.6101], [-9.6882, 53.6064], [-9.6948, 53.5958], [-9.7334, 53.6002], [-9.7853, 53.593], [-9.8102, 53.6063], [-9.8717, 53.6254], [-9.8792, 53.625], [-9.8478, 53.6133], [-9.8488, 53.609], [-9.8757, 53.6175], [-9.8788, 53.6134], [-9.8986, 53.6145], [-9.9044, 53.6089], [-9.8911, 53.6066], [-9.9061, 53.6075], [-9.9183, 53.5981], [-9.9651, 53.5999], [-9.9765, 53.6038], [-9.9758, 53.6071], [-9.9969, 53.611], [-10.0185, 53.6065], [-10.048, 53.6105], [-10.0507, 53.6032], [-10.0435, 53.6011], [-10.0447, 53.5943], [-10.0233, 53.5788], [-9.9622, 53.5721], [-9.968, 53.5667], [-9.9785, 53.567], [-9.972, 53.5613], [-9.985, 53.5647], [-9.9904, 53.5587], [-10.0005, 53.5616], [-9.9957, 53.5595], [-9.9991, 53.5561], [-9.9789, 53.5598], [-9.9533, 53.5524], [-9.969, 53.5489], [-9.9807, 53.5564], [-9.9916, 53.5498], [-9.9815, 53.5465], [-10.0026, 53.549], [-9.9975, 53.5442], [-10.0023, 53.544], [-10.0209, 53.5602], [-10.0108, 53.5615], [-10.0109, 53.5667], [-10.0456, 53.5724], [-10.065, 53.5679], [-10.074, 53.5746], [-10.0955, 53.5727], [-10.1104, 53.5772], [-10.1294, 53.5743], [-10.0928, 53.5574], [-10.0952, 53.5542], [-10.1225, 53.5609], [-10.1354, 53.5577], [-10.1523, 53.5668], [-10.1553, 53.564], [-10.1503, 53.5625], [-10.1582, 53.5597], [-10.1523, 53.5538], [-10.155, 53.5523], [-10.1647, 53.5619], [-10.1744, 53.5607], [-10.1902, 53.556], [-10.1931, 53.5522], [-10.1886, 53.5497], [-10.2008, 53.5441], [-10.1781, 53.5391], [-10.1455, 53.5423], [-10.1451, 53.5319], [-10.1352, 53.5271], [-10.1356, 53.5229], [-10.0547, 53.5121], [-10.0527, 53.508], [-10.0431, 53.511], [-10.0415, 53.5057], [-10.0618, 53.5028], [-10.085, 53.5068], [-10.0726, 53.5093], [-10.0959, 53.5122], [-10.0935, 53.516], [-10.1361, 53.5223], [-10.1046, 53.5114], [-10.1311, 53.5145], [-10.1385, 53.5138], [-10.1362, 53.5086], [-10.1262, 53.5107], [-10.1114, 53.5013], [-10.1243, 53.5057], [-10.122, 53.5002], [-10.0618, 53.4911], [-10.049, 53.4842], [-10.0224, 53.4875], [-10.0459, 53.4795], [-10.0336, 53.473], [-10.0211, 53.4754], [-10.017, 53.4657], [-10.0834, 53.4889], [-10.1002, 53.4807], [-10.0797, 53.4728], [-10.0914, 53.4675], [-10.0343, 53.46], [-10.0566, 53.4585], [-10.0627, 53.4429], [-10.075, 53.4384], [-10.0839, 53.4469], [-10.0902, 53.4468], [-10.0801, 53.4393], [-10.0874, 53.4363], [-10.0978, 53.4501], [-10.1208, 53.4515], [-10.1317, 53.4569], [-10.1396, 53.4425], [-10.1458, 53.4389], [-10.1461, 53.4436], [-10.1535, 53.4424], [-10.1546, 53.4342], [-10.1654, 53.432], [-10.1629, 53.4288], [-10.1854, 53.4124], [-10.1815, 53.4131], [-10.1829, 53.4088], [-10.1516, 53.4206], [-10.1194, 53.4012], [-10.1157, 53.4058], [-10.1207, 53.4075], [-10.1115, 53.4145], [-10.1052, 53.4095], [-10.0972, 53.4111], [-10.0985, 53.415], [-10.0856, 53.4152], [-10.0885, 53.4087], [-10.0851, 53.4081], [-10.0748, 53.4229], [-10.0679, 53.4226], [-10.0619, 53.4147], [-10.036, 53.4093], [-10.0332, 53.4046], [-10.0374, 53.3978], [-10.0327, 53.395], [-10.0367, 53.3906], [-10.0303, 53.3853], [-9.9895, 53.3795], [-9.9677, 53.3832], [-9.9636, 53.3779], [-9.9771, 53.3742], [-9.9574, 53.3676], [-9.9512, 53.3706], [-9.9614, 53.3728], [-9.9558, 53.3803], [-9.9368, 53.3787], [-9.9173, 53.3874], [-9.9199, 53.4064], [-9.9142, 53.416], [-9.9001, 53.4213], [-9.903, 53.4232], [-9.8874, 53.4263], [-9.8975, 53.421], [-9.8855, 53.415], [-9.855, 53.4299], [-9.8602, 53.4326], [-9.861, 53.4292], [-9.8704, 53.4365], [-9.8521, 53.4341], [-9.843, 53.4279], [-9.8382, 53.4305], [-9.8268, 53.4256], [-9.8316, 53.4211], [-9.8496, 53.4275], [-9.8569, 53.4232], [-9.848, 53.4205], [-9.8623, 53.4207], [-9.861, 53.4147], [-9.871, 53.4182], [-9.8859, 53.4123], [-9.8877, 53.4078], [-9.8795, 53.4041], [-9.8821, 53.3933], [-9.8654, 53.3879], [-9.8588, 53.3937], [-9.8629, 53.4014], [-9.8534, 53.4041], [-9.8504, 53.4015], [-9.855, 53.3944], [-9.8458, 53.3951], [-9.8456, 53.4018], [-9.8498, 53.4015], [-9.8456, 53.4061], [-9.8373, 53.4058], [-9.8254, 53.4178], [-9.8102, 53.419], [-9.7986, 53.4173], [-9.7983, 53.4131], [-9.8177, 53.4122], [-9.8225, 53.4062], [-9.8156, 53.4011], [-9.7847, 53.407], [-9.796, 53.4032], [-9.8017, 53.3934], [-9.7949, 53.3958], [-9.7874, 53.3918], [-9.7937, 53.389], [-9.7811, 53.3898], [-9.8072, 53.3862], [-9.8167, 53.3806], [-9.8205, 53.3721], [-9.8239, 53.3783], [-9.8344, 53.3803], [-9.8403, 53.3744], [-9.8557, 53.374], [-9.867, 53.3679], [-9.8891, 53.3686], [-9.8919, 53.3603], [-9.8848, 53.3595], [-9.8942, 53.3528], [-9.8865, 53.3519], [-9.8783, 53.3583], [-9.8749, 53.3524], [-9.8857, 53.3493], [-9.8806, 53.3449], [-9.8828, 53.3401], [-9.8935, 53.342], [-9.9, 53.3367], [-9.8965, 53.3288], [-9.9069, 53.3251], [-9.896, 53.3182], [-9.8849, 53.3225], [-9.8868, 53.3146], [-9.8801, 53.3116], [-9.8748, 53.3168], [-9.8708, 53.3122], [-9.8633, 53.3197], [-9.8688, 53.3311], [-9.8651, 53.3318], [-9.8547, 53.3251], [-9.8556, 53.3196], [-9.8382, 53.3239], [-9.8396, 53.3195], [-9.8333, 53.3173], [-9.8361, 53.3132], [-9.8295, 53.3105], [-9.828, 53.3152], [-9.8243, 53.3087], [-9.8168, 53.3116], [-9.8225, 53.3119], [-9.8175, 53.3159], [-9.8232, 53.3218], [-9.8159, 53.3229], [-9.8118, 53.3186], [-9.8159, 53.3147], [-9.8118, 53.3149], [-9.8135, 53.3083], [-9.7928, 53.3039], [-9.7924, 53.3069], [-9.7869, 53.2995], [-9.7796, 53.3028], [-9.7824, 53.2959], [-9.7737, 53.292], [-9.7744, 53.3025], [-9.7326, 53.3095], [-9.734, 53.325], [-9.7093, 53.3337], [-9.715, 53.3372], [-9.7133, 53.3417], [-9.707, 53.3408], [-9.6969, 53.3558], [-9.714, 53.3591], [-9.6947, 53.3579], [-9.6956, 53.3614], [-9.68, 53.3661], [-9.6828, 53.3696], [-9.6675, 53.3689], [-9.6624, 53.3722], [-9.6647, 53.3777], [-9.6562, 53.3804], [-9.656, 53.3908], [-9.6556, 53.3857], [-9.6419, 53.3867], [-9.6389, 53.391], [-9.6374, 53.3854], [-9.6331, 53.3883], [-9.647, 53.3712], [-9.6301, 53.3808], [-9.622, 53.3747], [-9.6368, 53.3745], [-9.6346, 53.365], [-9.6267, 53.3613], [-9.6465, 53.3539], [-9.6442, 53.3479], [-9.6231, 53.3475], [-9.6425, 53.3401], [-9.6504, 53.344], [-9.6664, 53.3396], [-9.6437, 53.3313], [-9.6235, 53.3307], [-9.6184, 53.3356], [-9.5969, 53.3355], [-9.5943, 53.3402], [-9.601, 53.3463], [-9.6152, 53.3467], [-9.6031, 53.3514], [-9.6029, 53.3636], [-9.5985, 53.3677], [-9.6077, 53.3697], [-9.6142, 53.3795], [-9.6066, 53.3831], [-9.6024, 53.3771], [-9.5942, 53.3816], [-9.577, 53.3784], [-9.5773, 53.3859], [-9.5887, 53.3869], [-9.5771, 53.3877], [-9.58, 53.3895], [-9.5739, 53.3929], [-9.5782, 53.3952], [-9.5438, 53.4034], [-9.5535, 53.3963], [-9.5623, 53.4008], [-9.5651, 53.3958], [-9.552, 53.3951], [-9.5504, 53.3915], [-9.5699, 53.3936], [-9.5757, 53.3911], [-9.5751, 53.3869], [-9.5715, 53.3886], [-9.5774, 53.3833], [-9.5697, 53.3797], [-9.5663, 53.3864], [-9.5456, 53.3757], [-9.555, 53.3801], [-9.5581, 53.3765], [-9.5741, 53.3784], [-9.5954, 53.3725], [-9.5937, 53.3678], [-9.5992, 53.3635], [-9.5842, 53.3524], [-9.5767, 53.3598], [-9.5781, 53.346], [-9.5718, 53.3514], [-9.5597, 53.3439], [-9.5471, 53.344], [-9.56, 53.3368], [-9.5646, 53.3285], [-9.5559, 53.3188], [-9.5491, 53.3218], [-9.5544, 53.3175], [-9.5581, 53.2995], [-9.5525, 53.2953], [-9.5129, 53.314], [-9.5033, 53.3221], [-9.5013, 53.33], [-9.4946, 53.3319], [-9.4907, 53.3442], [-9.4735, 53.3461], [-9.4693, 53.352], [-9.4765, 53.3578], [-9.4682, 53.3634], [-9.4452, 53.3479], [-9.4307, 53.3515], [-9.4194, 53.361], [-9.4215, 53.3703], [-9.4162, 53.3742], [-9.4075, 53.3652], [-9.3946, 53.3621], [-9.3936, 53.3574], [-9.3796, 53.3574], [-9.3522, 53.3629], [-9.3557, 53.3657], [-9.353, 53.376], [-9.3312, 53.3802], [-9.3207, 53.3707], [-9.2855, 53.3676], [-9.2826, 53.3596], [-9.2551, 53.3695], [-9.2435, 53.3764], [-9.2436, 53.3812], [-9.2066, 53.3708], [-9.1993, 53.3735], [-9.1984, 53.3803], [-9.166, 53.3749], [-9.1558, 53.3784], [-9.1527, 53.387], [-9.1053, 53.3866], [-9.1019, 53.403], [-9.1197, 53.41], [-9.1222, 53.423], [-9.1851, 53.4255], [-9.2142, 53.4439], [-9.26, 53.4497], [-9.2663, 53.469], [-9.2366, 53.4802]]], [[[-10.2135, 53.6291], [-10.224, 53.6323], [-10.2335, 53.6204], [-10.2431, 53.6224], [-10.2439, 53.6283], [-10.2505, 53.6308], [-10.2583, 53.6273], [-10.2597, 53.6216], [-10.2312, 53.6104], [-10.229, 53.6139], [-10.2055, 53.6136], [-10.2041, 53.6098], [-10.2104, 53.611], [-10.2095, 53.6081], [-10.1938, 53.6061], [-10.1758, 53.6176], [-10.1895, 53.6238], [-10.179, 53.6269], [-10.1787, 53.6313], [-10.2007, 53.637], [-10.2083, 53.6346], [-10.2064, 53.6263], [-10.2135, 53.6291]]], [[[-9.8902, 53.4], [-9.9065, 53.4031], [-9.8959, 53.4054], [-9.8975, 53.4163], [-9.9092, 53.4147], [-9.9043, 53.4115], [-9.911, 53.4096], [-9.9062, 53.4075], [-9.9097, 53.4026], [-9.9055, 53.4018], [-9.9069, 53.394], [-9.9017, 53.3928], [-9.9083, 53.3799], [-9.902, 53.3758], [-9.8891, 53.3795], [-9.9028, 53.3912], [-9.8872, 53.3929], [-9.8902, 53.4]]], [[[-10.2756, 53.6054], [-10.2654, 53.6047], [-10.2635, 53.609], [-10.2892, 53.619], [-10.3023, 53.6026], [-10.2972, 53.5998], [-10.2872, 53.6071], [-10.2756, 53.6054]]], [[[-9.8621, 53.3108], [-9.8752, 53.3029], [-9.8508, 53.3001], [-9.8512, 53.291], [-9.8382, 53.2888], [-9.8456, 53.3062], [-9.8519, 53.3059], [-9.8482, 53.3107], [-9.8558, 53.3143], [-9.8621, 53.3108]]], [[[-10.157, 53.5375], [-10.1815, 53.5356], [-10.1656, 53.5294], [-10.1737, 53.5267], [-10.1701, 53.5231], [-10.1606, 53.5235], [-10.1493, 53.5262], [-10.157, 53.5375]]], [[[-9.6712, 53.3211], [-9.6764, 53.3189], [-9.6757, 53.3225], [-9.6832, 53.3237], [-9.6837, 53.3156], [-9.661, 53.3176], [-9.6642, 53.3236], [-9.6712, 53.3211]]], [[[-9.8073, 53.3005], [-9.8149, 53.2985], [-9.8227, 53.2884], [-9.801, 53.299], [-9.8073, 53.3005]]], [[[-10.1482, 53.5036], [-10.1598, 53.4986], [-10.1358, 53.499], [-10.1482, 53.5036]]], [[[-9.9793, 53.327], [-9.973, 53.3204], [-9.9644, 53.3286], [-9.9793, 53.327]]], [[[-10.1481, 53.5099], [-10.1468, 53.514], [-10.1595, 53.5135], [-10.1596, 53.507], [-10.1481, 53.5099]]], [[[-9.9325, 53.3734], [-9.9317, 53.3663], [-9.9213, 53.3707], [-9.9226, 53.3755], [-9.9325, 53.3734]]], [[[-9.5882, 53.3471], [-9.5963, 53.3461], [-9.5909, 53.3379], [-9.5846, 53.3455], [-9.5882, 53.3471]]], [[[-9.8849, 53.299], [-9.8808, 53.303], [-9.8885, 53.303], [-9.8949, 53.2983], [-9.8849, 53.299]]], [[[-10.2504, 53.5489], [-10.2566, 53.5499], [-10.2639, 53.5438], [-10.2583, 53.5422], [-10.2477, 53.5472], [-10.2504, 53.5489]]], [[[-9.6603, 53.3551], [-9.6638, 53.3498], [-9.6495, 53.3542], [-9.6603, 53.3551]]], [[[-10.2183, 53.5261], [-10.2274, 53.5236], [-10.2209, 53.5222], [-10.2086, 53.5239], [-10.2183, 53.5261]]], [[[-10.1774, 53.613], [-10.158, 53.6124], [-10.1774, 53.613]]], [[[-9.6659, 53.3506], [-9.679, 53.3518], [-9.6659, 53.3506]]], [[[-9.8405, 53.3071], [-9.8312, 53.3104], [-9.84, 53.3148], [-9.8435, 53.3079], [-9.8405, 53.3071]]], [[[-10.1275, 53.626], [-10.1454, 53.6272], [-10.1275, 53.626]]], [[[-9.9982, 53.6233], [-10.0049, 53.6272], [-9.9992, 53.6198], [-9.994, 53.6196], [-9.9982, 53.6233]]], [[[-9.591, 53.3496], [-9.5991, 53.3553], [-9.6005, 53.3523], [-9.591, 53.3496]]], [[[-9.9179, 53.3033], [-9.9185, 53.3071], [-9.9261, 53.3071], [-9.9179, 53.3033]]], [[[-10.0418, 53.5793], [-10.0489, 53.5774], [-10.0403, 53.5752], [-10.0418, 53.5793]]], [[[-9.906, 53.3532], [-9.9069, 53.349], [-9.9004, 53.3514], [-9.906, 53.3532]]], [[[-9.7906, 53.2723], [-9.792, 53.2768], [-9.7965, 53.2729], [-9.7906, 53.2723]]], [[[-10.2264, 53.3998], [-10.2363, 53.4004], [-10.2298, 53.3967], [-10.2264, 53.3998]]], [[[-9.83, 53.3958], [-9.8221, 53.3965], [-9.83, 53.3958]]], [[[-9.9867, 53.5658], [-9.9968, 53.5669], [-9.9867, 53.5658]]], [[[-10.0614, 53.6073], [-10.0701, 53.6096], [-10.0614, 53.6073]]], [[[-10.2615, 53.5981], [-10.2668, 53.5979], [-10.2629, 53.5954], [-10.2659, 53.5938], [-10.2615, 53.5981]]], [[[-10.2165, 53.6107], [-10.2097, 53.6072], [-10.2165, 53.6107]]], [[[-10.2301, 53.5502], [-10.2342, 53.5476], [-10.2285, 53.5476], [-10.2301, 53.5502]]], [[[-10.1691, 53.4356], [-10.1784, 53.4321], [-10.1691, 53.4356]]], [[[-10.1555, 53.4428], [-10.1607, 53.4428], [-10.1555, 53.4428]]], [[[-9.8276, 53.2732], [-9.8241, 53.2764], [-9.8276, 53.2732]]], [[[-9.8097, 53.398], [-9.8113, 53.3945], [-9.8057, 53.3983], [-9.8097, 53.398]]], [[[-10.0433, 53.4007], [-10.0398, 53.401], [-10.0433, 53.4007]]], [[[-10.1259, 53.3935], [-10.1235, 53.3972], [-10.1259, 53.3935]]], [[[-9.8838, 53.6294], [-9.8721, 53.6283], [-9.8838, 53.6294]]], [[[-9.6554, 53.3611], [-9.6591, 53.3583], [-9.6554, 53.3611]]], [[[-9.6728, 53.3572], [-9.6755, 53.3555], [-9.671, 53.3541], [-9.6728, 53.3572]]], [[[-10.1402, 53.4004], [-10.135, 53.4006], [-10.1359, 53.4041], [-10.1402, 53.4004]]], [[[-10.2048, 53.4011], [-10.2013, 53.4031], [-10.2048, 53.4011]]], [[[-10.1729, 53.4388], [-10.1765, 53.4379], [-10.1729, 53.4388]]], [[[-10.0159, 53.6154], [-10.019, 53.6178], [-10.0159, 53.6154]]], [[[-9.813, 53.3934], [-9.8154, 53.3906], [-9.813, 53.3934]]], [[[-10.1867, 53.4067], [-10.1841, 53.4087], [-10.1867, 53.4067]]], [[[-9.8996, 53.3693], [-9.8943, 53.3689], [-9.8996, 53.3693]]], [[[-9.8845, 53.3856], [-9.8791, 53.3862], [-9.8845, 53.3856]]], [[[-9.6838, 53.3276], [-9.6878, 53.3277], [-9.6838, 53.3276]]], [[[-10.2475, 53.6066], [-10.2496, 53.6062], [-10.247, 53.6038], [-10.2451, 53.6054], [-10.2475, 53.6066]]], [[[-9.8936, 53.3467], [-9.8894, 53.3486], [-9.8936, 53.3467]]], [[[-9.9596, 53.3444], [-9.9636, 53.3468], [-9.9596, 53.3444]]], [[[-10.0644, 53.5093], [-10.0695, 53.5107], [-10.0644, 53.5093]]], [[[-9.8507, 53.3146], [-9.8458, 53.3169], [-9.8507, 53.3146]]], [[[-9.9883, 53.6174], [-9.9859, 53.6176], [-9.9885, 53.6197], [-9.9907, 53.6183], [-9.9883, 53.6174]]], [[[-9.8193, 53.3913], [-9.8236, 53.3912], [-9.8193, 53.3913]]], [[[-10.2096, 53.3992], [-10.2136, 53.3985], [-10.2096, 53.3992]]], [[[-9.6938, 53.3304], [-9.6897, 53.3298], [-9.6938, 53.3304]]], [[[-10.1609, 53.4443], [-10.1636, 53.4421], [-10.1609, 53.4443]]], [[[-9.6972, 53.3164], [-9.6922, 53.3171], [-9.6972, 53.3164]]], [[[-10.2608, 53.6303], [-10.2598, 53.6293], [-10.2586, 53.6309], [-10.2609, 53.6325], [-10.2608, 53.6303]]], [[[-10.0507, 53.5787], [-10.0473, 53.5777], [-10.0507, 53.5787]]], [[[-10.1658, 53.4365], [-10.1624, 53.4381], [-10.1658, 53.4365]]], [[[-9.6652, 53.3263], [-9.6679, 53.325], [-9.6652, 53.3263]]], [[[-10.039, 53.588], [-10.0424, 53.5878], [-10.039, 53.588]]], [[[-10.2289, 53.5513], [-10.2271, 53.5511], [-10.2269, 53.5527], [-10.2289, 53.5513]]], [[[-10.1059, 53.4088], [-10.1093, 53.4082], [-10.1059, 53.4088]]], [[[-9.6619, 53.3285], [-9.6588, 53.3264], [-9.6619, 53.3285]]], [[[-10.0941, 53.4016], [-10.095, 53.4033], [-10.0963, 53.4015], [-10.0941, 53.4016]]], [[[-9.6667, 53.3402], [-9.6668, 53.3413], [-9.6686, 53.341], [-9.6688, 53.3393], [-9.6667, 53.3402]]], [[[-9.7905, 53.2807], [-9.7885, 53.2815], [-9.7905, 53.2807]]], [[[-10.2132, 53.5429], [-10.2118, 53.5437], [-10.2145, 53.5443], [-10.2132, 53.5429]]], [[[-10.0095, 53.6152], [-10.0081, 53.6164], [-10.0101, 53.6165], [-10.0095, 53.6152]]], [[[-10.2078, 53.3996], [-10.2075, 53.3982], [-10.2058, 53.399], [-10.2078, 53.3996]]], [[[-10.1441, 53.3995], [-10.1427, 53.398], [-10.1414, 53.399], [-10.1441, 53.3995]]], [[[-10.2653, 53.5408], [-10.2652, 53.5419], [-10.2665, 53.5401], [-10.2653, 53.5408]]], [[[-9.9771, 53.5706], [-9.9771, 53.5693], [-9.9753, 53.5704], [-9.9771, 53.5706]]], [[[-10.1846, 53.5352], [-10.1829, 53.5355], [-10.1846, 53.5352]]], [[[-9.8465, 53.3098], [-9.8456, 53.3088], [-9.8446, 53.3099], [-9.8465, 53.3098]]], [[[-9.6454, 53.3497], [-9.6456, 53.3508], [-9.6472, 53.3496], [-9.6454, 53.3497]]]]}}, {"type": "Feature", "properties": {"osm_type": "relation", "osm_id": 471934564, "name": "CONAMARA SOUTH LEA-5", "admin_level": "6", "kind": "subdivision_2", "parent_osm_id": 278721, "parent_name": "Connacht", "parent_iso": "IE-C"}, "geometry": {"type": "MultiPolygon", "coordinates": [[[[-9.1053, 53.3866], [-9.1527, 53.387], [-9.1558, 53.3784], [-9.166, 53.3749], [-9.1984, 53.3803], [-9.1993, 53.3735], [-9.2066, 53.3708], [-9.2436, 53.3812], [-9.2435, 53.3764], [-9.2551, 53.3695], [-9.2826, 53.3596], [-9.2855, 53.3676], [-9.3207, 53.3707], [-9.3312, 53.3802], [-9.353, 53.376], [-9.3557, 53.3657], [-9.3522, 53.3629], [-9.3796, 53.3574], [-9.3936, 53.3574], [-9.3946, 53.3621], [-9.4075, 53.3652], [-9.4162, 53.3742], [-9.4215, 53.3703], [-9.4194, 53.361], [-9.4307, 53.3515], [-9.4452, 53.3479], [-9.4682, 53.3634], [-9.4765, 53.3578], [-9.4693, 53.352], [-9.4735, 53.3461], [-9.4907, 53.3442], [-9.4946, 53.3319], [-9.5013, 53.33], [-9.5033, 53.3221], [-9.5129, 53.314], [-9.5525, 53.2953], [-9.5581, 53.2995], [-9.5581, 53.3202], [-9.5669, 53.3237], [-9.5622, 53.3356], [-9.5696, 53.3465], [-9.5761, 53.3421], [-9.5675, 53.3338], [-9.5827, 53.329], [-9.5755, 53.3259], [-9.5753, 53.3175], [-9.5866, 53.3225], [-9.5894, 53.3296], [-9.6226, 53.3256], [-9.6252, 53.3185], [-9.6201, 53.3137], [-9.6232, 53.3125], [-9.6096, 53.312], [-9.6145, 53.3074], [-9.6073, 53.2992], [-9.6103, 53.2939], [-9.6002, 53.2952], [-9.5953, 53.2904], [-9.6048, 53.2892], [-9.5983, 53.2861], [-9.598, 53.2798], [-9.6203, 53.267], [-9.6313, 53.2509], [-9.6266, 53.2388], [-9.6142, 53.2315], [-9.6019, 53.2402], [-9.5928, 53.2411], [-9.5905, 53.2344], [-9.5773, 53.2468], [-9.5786, 53.2545], [-9.5735, 53.261], [-9.5838, 53.2718], [-9.5624, 53.2826], [-9.5502, 53.2805], [-9.5642, 53.2863], [-9.5578, 53.2892], [-9.5431, 53.2848], [-9.5387, 53.279], [-9.5535, 53.275], [-9.5547, 53.2684], [-9.567, 53.2631], [-9.5569, 53.2504], [-9.5478, 53.262], [-9.5506, 53.2459], [-9.5425, 53.2426], [-9.5513, 53.2443], [-9.5549, 53.2387], [-9.5316, 53.2297], [-9.5258, 53.222], [-9.4857, 53.2291], [-9.466, 53.2262], [-9.4552, 53.2337], [-9.3949, 53.2341], [-9.3606, 53.2425], [-9.3315, 53.2387], [-9.2992, 53.244], [-9.2477, 53.2445], [-9.2241, 53.2504], [-9.2191, 53.2453], [-9.1786, 53.2452], [-9.128, 53.2512], [-9.1427, 53.2777], [-9.1308, 53.2839], [-9.1125, 53.2823], [-9.0993, 53.2989], [-9.0768, 53.3027], [-9.0694, 53.3161], [-9.0485, 53.3297], [-9.0943, 53.3353], [-9.1044, 53.3514], [-9.0959, 53.3722], [-9.1053, 53.3866]]], [[[-9.677, 53.1338], [-9.7084, 53.1418], [-9.7118, 53.1378], [-9.7356, 53.1375], [-9.7507, 53.1312], [-9.7598, 53.1479], [-9.7898, 53.152], [-9.8101, 53.1511], [-9.8301, 53.1389], [-9.759, 53.1252], [-9.757, 53.1212], [-9.7171, 53.1133], [-9.7098, 53.1078], [-9.6913, 53.1081], [-9.6525, 53.0889], [-9.64, 53.0888], [-9.6385, 53.0993], [-9.6315, 53.1014], [-9.63, 53.109], [-9.6488, 53.1058], [-9.6405, 53.1045], [-9.6403, 53.1002], [-9.6536, 53.1019], [-9.6494, 53.1076], [-9.6549, 53.1095], [-9.6587, 53.1067], [-9.6545, 53.1048], [-9.6627, 53.105], [-9.6766, 53.115], [-9.6533, 53.1301], [-9.677, 53.1338]]], [[[-9.6429, 53.2584], [-9.6441, 53.2636], [-9.6544, 53.2658], [-9.6626, 53.2764], [-9.656, 53.2716], [-9.6467, 53.274], [-9.655, 53.2791], [-9.6514, 53.2825], [-9.6604, 53.285], [-9.6603, 53.2799], [-9.6815, 53.2818], [-9.6815, 53.2708], [-9.724, 53.2634], [-9.7178, 53.2534], [-9.7035, 53.2526], [-9.7183, 53.2428], [-9.7126, 53.2341], [-9.7041, 53.2336], [-9.7002, 53.2252], [-9.6938, 53.2295], [-9.6786, 53.2297], [-9.683, 53.2272], [-9.6713, 53.2238], [-9.6479, 53.2287], [-9.6511, 53.2337], [-9.6419, 53.2421], [-9.6429, 53.2584]]], [[[-9.6133, 53.0841], [-9.6205, 53.068], [-9.6072, 53.065], [-9.5797, 53.0713], [-9.5732, 53.0814], [-9.5626, 53.0855], [-9.5648, 53.0977], [-9.579, 53.1023], [-9.5995, 53.0964], [-9.5978, 53.0929], [-9.6133, 53.0841]]], [[[-9.6853, 53.3098], [-9.7048, 53.3046], [-9.7119, 53.2973], [-9.6914, 53.2912], [-9.6943, 53.2864], [-9.7106, 53.289], [-9.69, 53.2796], [-9.684, 53.2832], [-9.6878, 53.2848], [-9.6847, 53.2889], [-9.6496, 53.2883], [-9.6486, 53.2933], [-9.6302, 53.2971], [-9.6366, 53.3023], [-9.6591, 53.3008], [-9.6628, 53.3054], [-9.6853, 53.3098]]], [[[-9.5418, 53.0656], [-9.5549, 53.0528], [-9.5545, 53.0482], [-9.5274, 53.0451], [-9.5016, 53.0558], [-9.5037, 53.0628], [-9.5135, 53.0664], [-9.5418, 53.0656]]], [[[-9.7219, 53.2476], [-9.7434, 53.247], [-9.7398, 53.2407], [-9.745, 53.2368], [-9.7381, 53.235], [-9.7605, 53.23], [-9.7365, 53.2285], [-9.7333, 53.2327], [-9.7196, 53.2279], [-9.7242, 53.2376], [-9.7186, 53.2446], [-9.7219, 53.2476]]], [[[-9.6428, 53.3191], [-9.6511, 53.3114], [-9.6351, 53.312], [-9.6351, 53.3042], [-9.6256, 53.3086], [-9.625, 53.3125], [-9.6385, 53.3138], [-9.6296, 53.3196], [-9.6428, 53.3191]]], [[[-9.7216, 53.2784], [-9.7164, 53.272], [-9.7009, 53.2754], [-9.7166, 53.2845], [-9.7222, 53.2826], [-9.7216, 53.2784]]], [[[-9.7416, 53.2601], [-9.7502, 53.262], [-9.7505, 53.2541], [-9.744, 53.2479], [-9.7376, 53.2492], [-9.7416, 53.2601]]], [[[-9.7464, 53.2427], [-9.7541, 53.2455], [-9.7596, 53.2399], [-9.7488, 53.2386], [-9.7421, 53.2415], [-9.7464, 53.2427]]], [[[-9.6236, 53.2841], [-9.621, 53.2753], [-9.6148, 53.2836], [-9.6236, 53.2841]]], [[[-9.7587, 53.2598], [-9.7514, 53.2583], [-9.7536, 53.2678], [-9.7604, 53.2648], [-9.7587, 53.2598]]], [[[-9.7338, 53.2818], [-9.7419, 53.2844], [-9.7436, 53.2806], [-9.7345, 53.2765], [-9.7338, 53.2818]]], [[[-9.7506, 53.2509], [-9.7575, 53.2524], [-9.7606, 53.247], [-9.7525, 53.2462], [-9.7506, 53.2509]]], [[[-9.842, 53.1471], [-9.8463, 53.1425], [-9.8362, 53.1433], [-9.8357, 53.1487], [-9.842, 53.1471]]], [[[-9.6097, 53.2878], [-9.6122, 53.284], [-9.604, 53.2843], [-9.6052, 53.2896], [-9.6097, 53.2878]]], [[[-9.8569, 53.15], [-9.8624, 53.1496], [-9.8546, 53.1455], [-9.8569, 53.15]]], [[[-9.766, 53.2329], [-9.7716, 53.2297], [-9.7627, 53.2294], [-9.766, 53.2329]]], [[[-9.7171, 53.2966], [-9.7191, 53.2926], [-9.7171, 53.2966]]], [[[-9.7611, 53.2437], [-9.767, 53.2407], [-9.7611, 53.2437]]], [[[-9.695, 53.222], [-9.6888, 53.224], [-9.695, 53.222]]], [[[-9.7687, 53.2373], [-9.7639, 53.2389], [-9.7687, 53.2373]]], [[[-9.5844, 53.3315], [-9.5853, 53.3276], [-9.5795, 53.3325], [-9.5844, 53.3315]]], [[[-9.6388, 53.2897], [-9.6436, 53.2883], [-9.6388, 53.2897]]], [[[-9.7388, 53.2567], [-9.7356, 53.2549], [-9.7388, 53.2567]]], [[[-9.6305, 53.2748], [-9.6281, 53.2784], [-9.6305, 53.2748]]], [[[-9.6526, 53.3118], [-9.6548, 53.3092], [-9.6526, 53.3118]]], [[[-9.6116, 53.2931], [-9.6146, 53.2911], [-9.6116, 53.2931]]], [[[-9.6283, 53.1159], [-9.631, 53.1181], [-9.6283, 53.1159]]], [[[-9.7094, 53.2862], [-9.7119, 53.289], [-9.7094, 53.2862]]], [[[-9.6946, 53.274], [-9.6969, 53.2763], [-9.6946, 53.274]]], [[[-9.6369, 53.3216], [-9.6409, 53.3217], [-9.6369, 53.3216]]], [[[-9.5821, 53.3362], [-9.5852, 53.3364], [-9.5821, 53.3362]]], [[[-9.6169, 53.2973], [-9.6152, 53.2947], [-9.6169, 53.2973]]], [[[-9.7013, 53.2779], [-9.6981, 53.2775], [-9.7013, 53.2779]]], [[[-9.7953, 53.2342], [-9.7975, 53.2322], [-9.7953, 53.2342]]], [[[-9.6376, 53.3051], [-9.6389, 53.3038], [-9.6367, 53.3026], [-9.6376, 53.3051]]], [[[-9.8492, 53.142], [-9.8501, 53.1407], [-9.8463, 53.1424], [-9.8492, 53.142]]], [[[-9.8424, 53.1404], [-9.8442, 53.1419], [-9.8438, 53.1394], [-9.8424, 53.1404]]], [[[-9.7007, 53.2725], [-9.7025, 53.2732], [-9.7019, 53.2711], [-9.7007, 53.2725]]], [[[-9.6401, 53.3031], [-9.6394, 53.3051], [-9.6414, 53.3041], [-9.6401, 53.3031]]], [[[-9.5592, 53.2703], [-9.5575, 53.2712], [-9.5592, 53.2703]]]]}}, {"type": "Feature", "properties": {"osm_type": "relation", "osm_id": 361244423, "name": "BALLINA LEA-6", "admin_level": "6", "kind": "subdivision_2", "parent_osm_id": 278721, "parent_name": "Connacht", "parent_iso": "IE-C"}, "geometry": {"type": "MultiPolygon", "coordinates": [[[[-9.4821, 54.009], [-9.472, 54.0091], [-9.4745, 54.0252], [-9.4712, 54.0316], [-9.4524, 54.0338], [-9.4557, 54.0423], [-9.4374, 54.0437], [-9.4211, 54.0542], [-9.4025, 54.0504], [-9.3885, 54.0577], [-9.3802, 54.0479], [-9.363, 54.0553], [-9.3521, 54.0529], [-9.3479, 54.0432], [-9.3387, 54.0473], [-9.313, 54.0425], [-9.3129, 54.0281], [-9.2984, 54.0297], [-9.2996, 54.0369], [-9.2915, 54.0406], [-9.2641, 54.0377], [-9.2243, 54.0012], [-9.1826, 54.0123], [-9.1571, 54.0063], [-9.1494, 54.0088], [-9.1517, 54.015], [-9.1303, 54.0201], [-9.1242, 54.0126], [-9.1149, 54.023], [-9.1111, 54.0217], [-9.1137, 54.0172], [-9.0983, 54.0073], [-9.0837, 54.0078], [-9.0635, 54.013], [-9.0648, 54.0204], [-9.013, 54.0284], [-9.0106, 54.0309], [-9.0161, 54.0338], [-9.0169, 54.0407], [-9.0142, 54.0524], [-8.9655, 54.0732], [-8.9702, 54.086], [-8.9537, 54.0933], [-8.96, 54.1023], [-8.9354, 54.1061], [-8.917, 54.118], [-8.9239, 54.1254], [-8.9372, 54.1271], [-8.9357, 54.1314], [-8.9456, 54.1322], [-8.9473, 54.1384], [-8.9368, 54.1431], [-8.9971, 54.1502], [-9.0228, 54.1623], [-9.0315, 54.1532], [-9.0525, 54.1568], [-9.0565, 54.1426], [-9.1059, 54.145], [-9.1028, 54.1493], [-9.1323, 54.1624], [-9.1411, 54.1621], [-9.1435, 54.1685], [-9.1395, 54.169], [-9.1462, 54.1763], [-9.1433, 54.1832], [-9.166, 54.1912], [-9.1571, 54.1958], [-9.1607, 54.2018], [-9.1731, 54.2014], [-9.1828, 54.2085], [-9.2089, 54.2088], [-9.2191, 54.2126], [-9.2154, 54.2187], [-9.2245, 54.2167], [-9.2185, 54.2221], [-9.2131, 54.2207], [-9.2108, 54.2239], [-9.2161, 54.2222], [-9.2134, 54.2251], [-9.2185, 54.2262], [-9.2066, 54.2341], [-9.2015, 54.2322], [-9.2064, 54.2253], [-9.198, 54.2292], [-9.192, 54.2397], [-9.1958, 54.2475], [-9.216, 54.2454], [-9.2339, 54.232], [-9.2418, 54.2359], [-9.2683, 54.2251], [-9.257, 54.2337], [-9.232, 54.2375], [-9.2359, 54.2388], [-9.2205, 54.2454], [-9.2066, 54.2756], [-9.2138, 54.2876], [-9.2218, 54.2864], [-9.2276, 54.2789], [-9.2491, 54.2809], [-9.2422, 54.2781], [-9.2422, 54.2717], [-9.2541, 54.2698], [-9.2559, 54.2799], [-9.2507, 54.2815], [-9.2485, 54.2956], [-9.2641, 54.3098], [-9.3286, 54.3182], [-9.3435, 54.328], [-9.349, 54.3266], [-9.346, 54.3191], [-9.363, 54.3123], [-9.3615, 54.3077], [-9.3724, 54.3064], [-9.3793, 54.2953], [-9.3917, 54.2992], [-9.3897, 54.3065], [-9.394, 54.3094], [-9.4489, 54.3118], [-9.4512, 54.3074], [-9.457, 54.3091], [-9.4594, 54.2972], [-9.4821, 54.2688], [-9.4639, 54.2455], [-9.4725, 54.2401], [-9.5038, 54.24], [-9.5045, 54.2321], [-9.5201, 54.2223], [-9.5514, 54.2212], [-9.5516, 54.2088], [-9.5659, 54.2014], [-9.5538, 54.1832], [-9.561, 54.1785], [-9.556, 54.1707], [-9.5616, 54.1512], [-9.5579, 54.1433], [-9.5667, 54.1365], [-9.5629, 54.1305], [-9.5766, 54.1185], [-9.5732, 54.1151], [-9.5808, 54.1021], [-9.5684, 54.0992], [-9.5728, 54.0889], [-9.5627, 54.0769], [-9.5384, 54.0729], [-9.5176, 54.0772], [-9.5258, 54.067], [-9.5154, 54.065], [-9.5069, 54.0564], [-9.49, 54.053], [-9.4863, 54.0466], [-9.4927, 54.0419], [-9.4833, 54.0243], [-9.4821, 54.009]]], [[[-9.1466, 54.1996], [-9.1397, 54.2014], [-9.157, 54.2153], [-9.1995, 54.2223], [-9.1605, 54.2136], [-9.1466, 54.1996]]]]}}, {"type": "Feature", "properties": {"osm_type": "relation", "osm_id": 361920141, "name": "BALLINASLOE LEA-6", "admin_level": "6", "kind": "subdivision_2", "parent_osm_id": 278721, "parent_name": "Connacht", "parent_iso": "IE-C"}, "geometry": {"type": "Polygon", "coordinates": [[[-8.6697, 53.4461], [-8.6596, 53.4376], [-8.6668, 53.4358], [-8.6681, 53.4309], [-8.6596, 53.4261], [-8.6571, 53.4049], [-8.6469, 53.3954], [-8.6509, 53.3877], [-8.6454, 53.3827], [-8.6315, 53.3931], [-8.6229, 53.394], [-8.6095, 53.3747], [-8.5822, 53.3746], [-8.5697, 53.3802], [-8.5705, 53.3894], [-8.5668, 53.3815], [-8.5545, 53.3794], [-8.5506, 53.3799], [-8.5529, 53.3861], [-8.5443, 53.3901], [-8.535, 53.3846], [-8.5353, 53.3782], [-8.5447, 53.3738], [-8.535, 53.3675], [-8.5259, 53.3678], [-8.5285, 53.3463], [-8.533, 53.3413], [-8.5097, 53.3318], [-8.5111, 53.3164], [-8.497, 53.3133], [-8.5014, 53.3117], [-8.4956, 53.2923], [-8.4611, 53.2875], [-8.4562, 53.2783], [-8.4493, 53.2761], [-8.4451, 53.2656], [-8.4555, 53.2585], [-8.4495, 53.2527], [-8.4423, 53.2519], [-8.4228, 53.2626], [-8.4148, 53.2586], [-8.4119, 53.2678], [-8.4059, 53.2696], [-8.3834, 53.2718], [-8.3807, 53.2823], [-8.3909, 53.2827], [-8.391, 53.2867], [-8.3662, 53.2849], [-8.3625, 53.2895], [-8.3661, 53.2964], [-8.3453, 53.3035], [-8.3399, 53.3017], [-8.3396, 53.2912], [-8.3107, 53.2823], [-8.3175, 53.2706], [-8.2925, 53.2655], [-8.309, 53.2529], [-8.3221, 53.2551], [-8.3217, 53.2521], [-8.2915, 53.2474], [-8.2777, 53.2545], [-8.265, 53.2527], [-8.2452, 53.2444], [-8.248, 53.2425], [-8.2321, 53.2415], [-8.2299, 53.2331], [-8.2462, 53.2304], [-8.2292, 53.2313], [-8.2247, 53.2246], [-8.2181, 53.2249], [-8.226, 53.2171], [-8.2323, 53.2176], [-8.234, 53.212], [-8.2162, 53.2078], [-8.2102, 53.1954], [-8.1944, 53.211], [-8.1718, 53.2104], [-8.1726, 53.2226], [-8.1658, 53.2208], [-8.1643, 53.2262], [-8.1503, 53.2308], [-8.1493, 53.2228], [-8.1313, 53.2235], [-8.128, 53.2144], [-8.0964, 53.2009], [-8.1009, 53.1941], [-8.0623, 53.1869], [-8.0415, 53.1948], [-7.9927, 53.1934], [-7.9714, 53.213], [-7.9673, 53.2265], [-7.9714, 53.2327], [-8.0038, 53.2494], [-8.0276, 53.2533], [-8.0293, 53.2631], [-8.0428, 53.2715], [-8.1331, 53.282], [-8.1418, 53.2789], [-8.1497, 53.2806], [-8.1535, 53.2873], [-8.1802, 53.2914], [-8.1834, 53.3001], [-8.1954, 53.3078], [-8.1869, 53.3223], [-8.1906, 53.3289], [-8.1876, 53.3362], [-8.1935, 53.3355], [-8.1999, 53.3478], [-8.2136, 53.3441], [-8.2325, 53.3497], [-8.2276, 53.3561], [-8.2378, 53.3584], [-8.2374, 53.3648], [-8.2434, 53.3667], [-8.2463, 53.3744], [-8.2345, 53.3816], [-8.2246, 53.3954], [-8.2381, 53.4108], [-8.2583, 53.415], [-8.2631, 53.4334], [-8.2448, 53.4365], [-8.2376, 53.4443], [-8.2875, 53.4717], [-8.2705, 53.4794], [-8.2816, 53.4881], [-8.2753, 53.496], [-8.293, 53.5095], [-8.2912, 53.5181], [-8.2778, 53.5197], [-8.2769, 53.5239], [-8.2942, 53.5306], [-8.285, 53.5377], [-8.2966, 53.5423], [-8.2913, 53.5451], [-8.2985, 53.5485], [-8.2955, 53.5543], [-8.3081, 53.5598], [-8.2979, 53.566], [-8.2881, 53.5619], [-8.2829, 53.5647], [-8.3065, 53.5782], [-8.3421, 53.5786], [-8.3375, 53.5881], [-8.3497, 53.5917], [-8.354, 53.5988], [-8.3787, 53.599], [-8.3836, 53.6055], [-8.3791, 53.6169], [-8.3934, 53.6237], [-8.3899, 53.6267], [-8.4109, 53.6249], [-8.3963, 53.6314], [-8.3949, 53.6397], [-8.3772, 53.6437], [-8.3644, 53.6411], [-8.3635, 53.6516], [-8.3779, 53.6533], [-8.3983, 53.6651], [-8.4281, 53.6702], [-8.4374, 53.6772], [-8.4339, 53.682], [-8.4466, 53.6863], [-8.444, 53.6915], [-8.4594, 53.7001], [-8.4489, 53.6979], [-8.4419, 53.7033], [-8.4614, 53.713], [-8.4882, 53.7158], [-8.5198, 53.7123], [-8.5345, 53.7189], [-8.5594, 53.7159], [-8.5737, 53.7189], [-8.5828, 53.7138], [-8.5811, 53.7086], [-8.6043, 53.7105], [-8.6088, 53.706], [-8.6348, 53.7042], [-8.6344, 53.6997], [-8.6453, 53.694], [-8.641, 53.6858], [-8.6555, 53.6769], [-8.6955, 53.6709], [-8.6814, 53.6565], [-8.6549, 53.656], [-8.65, 53.6488], [-8.6412, 53.65], [-8.6486, 53.6233], [-8.6459, 53.613], [-8.6485, 53.6063], [-8.6578, 53.602], [-8.6486, 53.5993], [-8.6509, 53.5926], [-8.667, 53.5887], [-8.6689, 53.5837], [-8.6618, 53.5814], [-8.6612, 53.5669], [-8.6488, 53.5623], [-8.6455, 53.5527], [-8.6644, 53.5502], [-8.6649, 53.533], [-8.6577, 53.5262], [-8.6685, 53.5144], [-8.6645, 53.4982], [-8.6734, 53.497], [-8.6769, 53.4841], [-8.6743, 53.4802], [-8.6667, 53.4817], [-8.6715, 53.4844], [-8.6619, 53.4833], [-8.6499, 53.4709], [-8.6363, 53.4732], [-8.6297, 53.4547], [-8.6555, 53.4451], [-8.6697, 53.4461]]]}}, {"type": "Feature", "properties": {"osm_type": "relation", "osm_id": 750976690, "name": "NEWPORT LEA-4", "admin_level": "6", "kind": "subdivision_2", "parent_osm_id": 278721, "parent_name": "Connacht", "parent_iso": "IE-C"}, "geometry": {"type": "Polygon", "coordinates": [[[-8.057, 52.8448], [-8.066, 52.8426], [-8.0776, 52.8494], [-8.1163, 52.8561], [-8.132, 52.8732], [-8.1413, 52.8683], [-8.1367, 52.8633], [-8.1495, 52.8614], [-8.1436, 52.8573], [-8.1477, 52.8481], [-8.1336, 52.8444], [-8.1362, 52.8392], [-8.1594, 52.8479], [-8.1657, 52.8415], [-8.1795, 52.8411], [-8.1766, 52.8321], [-8.1944, 52.827], [-8.196, 52.8334], [-8.203, 52.8341], [-8.2023, 52.8375], [-8.2119, 52.8353], [-8.2129, 52.8411], [-8.225, 52.8393], [-8.2323, 52.8446], [-8.259, 52.8471], [-8.257, 52.8515], [-8.2447, 52.8522], [-8.2532, 52.8597], [-8.2423, 52.8685], [-8.2823, 52.8831], [-8.2863, 52.8943], [-8.3385, 52.9152], [-8.4075, 52.9126], [-8.4185, 52.8754], [-8.4553, 52.8469], [-8.4488, 52.812], [-8.4369, 52.8067], [-8.4393, 52.7923], [-8.4546, 52.7783], [-8.4622, 52.777], [-8.4801, 52.7574], [-8.4696, 52.7391], [-8.4729, 52.7376], [-8.4669, 52.7177], [-8.4684, 52.707], [-8.4618, 52.705], [-8.466, 52.6972], [-8.4572, 52.6986], [-8.4516, 52.6847], [-8.4405, 52.686], [-8.4277, 52.6779], [-8.4022, 52.6925], [-8.3868, 52.6869], [-8.3847, 52.6814], [-8.3701, 52.6838], [-8.3592, 52.6793], [-8.3375, 52.6892], [-8.2966, 52.6963], [-8.2531, 52.6824], [-8.2543, 52.6701], [-8.237, 52.6689], [-8.2288, 52.662], [-8.2158, 52.6709], [-8.1889, 52.6704], [-8.1766, 52.6774], [-8.1448, 52.6736], [-8.1069, 52.6816], [-8.0987, 52.6887], [-8.0889, 52.6829], [-8.0729, 52.6944], [-8.0469, 52.6989], [-8.0604, 52.7027], [-8.0648, 52.7115], [-8.06, 52.7166], [-8.0668, 52.719], [-8.0659, 52.7284], [-8.0549, 52.7344], [-8.0615, 52.7412], [-8.0446, 52.7494], [-8.0579, 52.7562], [-8.0529, 52.7631], [-8.0648, 52.7732], [-8.0385, 52.7897], [-8.0722, 52.8168], [-8.0689, 52.8208], [-8.0741, 52.8305], [-8.0576, 52.8349], [-8.0517, 52.8422], [-8.057, 52.8448]]]}}, {"type": "Feature", "properties": {"osm_type": "relation", "osm_id": 402104478, "name": "GALWAY CITY WEST LEA-6", "admin_level": "6", "kind": "subdivision_2", "parent_osm_id": 278721, "parent_name": "Connacht", "parent_iso": "IE-C"}, "geometry": {"type": "Polygon", "coordinates": [[[-9.128, 53.2512], [-9.1158, 53.2535], [-9.125, 53.2513], [-9.13, 53.2563], [-9.1261, 53.2586], [-9.109, 53.259], [-9.115, 53.2546], [-9.1116, 53.2522], [-9.1068, 53.2575], [-9.1133, 53.2484], [-9.1055, 53.2555], [-9.0643, 53.2616], [-9.0674, 53.2674], [-9.0626, 53.2723], [-9.1308, 53.2839], [-9.1427, 53.2777], [-9.128, 53.2512]]]}}, {"type": "Feature", "properties": {"osm_type": "relation", "osm_id": 106250555, "name": "ATHLONE LEA-6", "admin_level": "6", "kind": "subdivision_2", "parent_osm_id": 278721, "parent_name": "Connacht", "parent_iso": "IE-C"}, "geometry": {"type": "Polygon", "coordinates": [[[-7.9235, 53.3632], [-7.9103, 53.3714], [-7.9241, 53.395], [-7.9407, 53.4039], [-7.9437, 53.4105], [-7.9405, 53.4124], [-7.973, 53.4223], [-7.9525, 53.4314], [-7.9668, 53.4497], [-7.955, 53.4815], [-7.9807, 53.5519], [-8.0133, 53.5794], [-8.0393, 53.579], [-8.0387, 53.5713], [-8.0645, 53.5599], [-8.0858, 53.5669], [-8.0837, 53.5709], [-8.0914, 53.5739], [-8.085, 53.5794], [-8.0976, 53.5772], [-8.0992, 53.5719], [-8.1081, 53.5784], [-8.1204, 53.5785], [-8.1112, 53.5705], [-8.1159, 53.5701], [-8.1416, 53.5769], [-8.1445, 53.585], [-8.1528, 53.5853], [-8.1731, 53.5785], [-8.1742, 53.5741], [-8.1933, 53.5815], [-8.1946, 53.5897], [-8.1885, 53.5923], [-8.1985, 53.5964], [-8.2192, 53.5825], [-8.2269, 53.6058], [-8.2251, 53.617], [-8.2417, 53.6219], [-8.2349, 53.6277], [-8.2422, 53.6416], [-8.2595, 53.6448], [-8.2646, 53.6362], [-8.2866, 53.6401], [-8.2879, 53.6487], [-8.3172, 53.6619], [-8.3178, 53.6704], [-8.3427, 53.6659], [-8.3529, 53.6673], [-8.354, 53.6724], [-8.3799, 53.6765], [-8.3848, 53.671], [-8.4033, 53.6714], [-8.4039, 53.6662], [-8.3615, 53.6479], [-8.367, 53.6403], [-8.3772, 53.6437], [-8.3949, 53.6397], [-8.3963, 53.6314], [-8.4109, 53.6249], [-8.3899, 53.6267], [-8.3934, 53.6237], [-8.3791, 53.6169], [-8.3836, 53.6055], [-8.3787, 53.599], [-8.354, 53.5988], [-8.3497, 53.5917], [-8.3375, 53.5881], [-8.3421, 53.5786], [-8.3065, 53.5782], [-8.2829, 53.5647], [-8.2881, 53.5619], [-8.2979, 53.566], [-8.3081, 53.5598], [-8.2955, 53.5543], [-8.2985, 53.5485], [-8.2913, 53.5451], [-8.2966, 53.5423], [-8.285, 53.5377], [-8.2942, 53.5306], [-8.2769, 53.5239], [-8.2778, 53.5197], [-8.2912, 53.5181], [-8.293, 53.5095], [-8.2753, 53.496], [-8.2816, 53.4881], [-8.2705, 53.4794], [-8.2875, 53.4717], [-8.2376, 53.4443], [-8.2448, 53.4365], [-8.2631, 53.4334], [-8.2583, 53.415], [-8.2381, 53.4108], [-8.2246, 53.3954], [-8.2345, 53.3816], [-8.2463, 53.3744], [-8.2434, 53.3667], [-8.2374, 53.3648], [-8.2378, 53.3584], [-8.2276, 53.3561], [-8.2325, 53.3497], [-8.2136, 53.3441], [-8.1999, 53.3478], [-8.1935, 53.3355], [-8.1876, 53.3362], [-8.1906, 53.3289], [-8.1869, 53.3223], [-8.1954, 53.3078], [-8.1873, 53.3043], [-8.1764, 53.288], [-8.1535, 53.2873], [-8.1497, 53.2806], [-8.1418, 53.2789], [-8.1331, 53.282], [-8.0582, 53.2714], [-8.0462, 53.2888], [-8.0318, 53.295], [-8.0241, 53.3041], [-8.0261, 53.322], [-7.9959, 53.3244], [-7.9862, 53.3291], [-7.9888, 53.3337], [-7.9829, 53.3376], [-7.969, 53.3354], [-7.9436, 53.3412], [-7.9401, 53.3551], [-7.9235, 53.3632]]]}}, {"type": "Feature", "properties": {"osm_type": "relation", "osm_id": 967352591, "name": "GALWAY CITY CENTRAL LEA-6", "admin_level": "6", "kind": "subdivision_2", "parent_osm_id": 278721, "parent_name": "Connacht", "parent_iso": "IE-C"}, "geometry": {"type": "MultiPolygon", "coordinates": [[[[-9.0234, 53.3133], [-9.0491, 53.3102], [-9.0649, 53.319], [-9.0771, 53.3081], [-9.0768, 53.3027], [-9.0993, 53.2989], [-9.1125, 53.2823], [-9.12, 53.2812], [-9.0626, 53.2723], [-9.0674, 53.2674], [-9.0643, 53.2616], [-9.0527, 53.2639], [-9.0329, 53.2818], [-9.0455, 53.287], [-9.0234, 53.3133]]], [[[-9.0521, 53.2548], [-9.0566, 53.2535], [-9.0521, 53.2548]]]]}}, {"type": "Feature", "properties": {"osm_type": "relation", "osm_id": 875165099, "name": "ROSCOMMON LEA-6", "admin_level": "6", "kind": "subdivision_2", "parent_osm_id": 278721, "parent_name": "Connacht", "parent_iso": "IE-C"}, "geometry": {"type": "Polygon", "coordinates": [[[-8.6955, 53.6709], [-8.6555, 53.6769], [-8.641, 53.6858], [-8.6453, 53.694], [-8.6344, 53.6997], [-8.6348, 53.7042], [-8.6088, 53.706], [-8.6043, 53.7105], [-8.5811, 53.7086], [-8.5828, 53.7138], [-8.5737, 53.7189], [-8.5594, 53.7159], [-8.5345, 53.7189], [-8.5198, 53.7123], [-8.4688, 53.7155], [-8.4419, 53.7033], [-8.4489, 53.6979], [-8.4594, 53.7001], [-8.444, 53.6915], [-8.4466, 53.6863], [-8.4339, 53.682], [-8.4374, 53.6772], [-8.4281, 53.6702], [-8.4039, 53.6662], [-8.4033, 53.6714], [-8.3848, 53.671], [-8.3799, 53.6765], [-8.3372, 53.6657], [-8.3374, 53.6699], [-8.3249, 53.6717], [-8.3178, 53.6704], [-8.3172, 53.6619], [-8.3091, 53.6556], [-8.2879, 53.6487], [-8.2866, 53.6401], [-8.2646, 53.6362], [-8.2595, 53.6448], [-8.2422, 53.6416], [-8.2349, 53.6277], [-8.2417, 53.6219], [-8.2251, 53.617], [-8.2269, 53.6058], [-8.2192, 53.5825], [-8.1985, 53.5964], [-8.1885, 53.5923], [-8.1946, 53.5897], [-8.1933, 53.5815], [-8.1742, 53.5741], [-8.1731, 53.5785], [-8.1528, 53.5853], [-8.1445, 53.585], [-8.1416, 53.5769], [-8.1159, 53.5701], [-8.1112, 53.5705], [-8.1204, 53.5785], [-8.1081, 53.5784], [-8.0992, 53.5719], [-8.0976, 53.5772], [-8.085, 53.5794], [-8.0914, 53.5739], [-8.0837, 53.5709], [-8.0858, 53.5669], [-8.0645, 53.5599], [-8.0387, 53.5713], [-8.0393, 53.579], [-8.0133, 53.5794], [-8.036, 53.6077], [-8.0347, 53.6434], [-8.0215, 53.6577], [-8.0038, 53.6622], [-7.9841, 53.6804], [-7.9825, 53.6903], [-7.9872, 53.6999], [-7.9769, 53.7017], [-7.9652, 53.7112], [-7.9497, 53.7133], [-7.9441, 53.7282], [-7.9475, 53.7371], [-7.9378, 53.7422], [-7.9538, 53.7475], [-7.9672, 53.7455], [-7.9757, 53.7567], [-8.0174, 53.7494], [-8.0348, 53.7518], [-8.0303, 53.746], [-8.0358, 53.7373], [-8.064, 53.7378], [-8.0647, 53.7423], [-8.1016, 53.7569], [-8.1135, 53.7482], [-8.1248, 53.749], [-8.1352, 53.7669], [-8.1457, 53.7613], [-8.1738, 53.7695], [-8.2128, 53.76], [-8.2136, 53.7553], [-8.2281, 53.7611], [-8.2371, 53.7614], [-8.2377, 53.754], [-8.2493, 53.7587], [-8.2504, 53.749], [-8.2792, 53.7429], [-8.2764, 53.7522], [-8.2863, 53.7502], [-8.2931, 53.7611], [-8.3088, 53.7627], [-8.3067, 53.7716], [-8.2967, 53.7695], [-8.2945, 53.7736], [-8.3125, 53.7767], [-8.3056, 53.7837], [-8.3187, 53.7835], [-8.3146, 53.7914], [-8.3406, 53.7999], [-8.3459, 53.7952], [-8.3592, 53.7987], [-8.3611, 53.7919], [-8.3872, 53.7957], [-8.3906, 53.7899], [-8.4087, 53.799], [-8.4136, 53.8029], [-8.3979, 53.8217], [-8.4306, 53.8329], [-8.42, 53.8432], [-8.4512, 53.8486], [-8.4544, 53.8592], [-8.4693, 53.8618], [-8.4804, 53.858], [-8.4804, 53.8484], [-8.4981, 53.8474], [-8.5021, 53.8428], [-8.5332, 53.8518], [-8.5309, 53.8612], [-8.5015, 53.8675], [-8.5054, 53.8851], [-8.5736, 53.886], [-8.5856, 53.8827], [-8.5849, 53.879], [-8.6056, 53.8775], [-8.6268, 53.8819], [-8.6374, 53.8771], [-8.6354, 53.8687], [-8.6477, 53.8654], [-8.6768, 53.877], [-8.6825, 53.8734], [-8.7038, 53.8744], [-8.6995, 53.8632], [-8.6943, 53.8624], [-8.6954, 53.8519], [-8.7238, 53.8471], [-8.7113, 53.8319], [-8.723, 53.8244], [-8.7156, 53.8172], [-8.7394, 53.8099], [-8.7091, 53.8022], [-8.7051, 53.7973], [-8.6939, 53.7982], [-8.6801, 53.7799], [-8.6663, 53.777], [-8.6843, 53.7666], [-8.6801, 53.7532], [-8.69, 53.7396], [-8.7006, 53.7337], [-8.6933, 53.724], [-8.7145, 53.7247], [-8.7129, 53.7121], [-8.7561, 53.7008], [-8.7608, 53.6969], [-8.7563, 53.6929], [-8.7593, 53.6909], [-8.776, 53.6881], [-8.7914, 53.6962], [-8.8069, 53.6748], [-8.8233, 53.665], [-8.7943, 53.657], [-8.7735, 53.6664], [-8.7451, 53.662], [-8.7291, 53.6712], [-8.7234, 53.6651], [-8.6955, 53.6709]]]}}, {"type": "Feature", "properties": {"osm_type": "relation", "osm_id": 877656098, "name": "BOYLE LEA-6", "admin_level": "6", "kind": "subdivision_2", "parent_osm_id": 278721, "parent_name": "Connacht", "parent_iso": "IE-C"}, "geometry": {"type": "Polygon", "coordinates": [[[-8.1635, 54.109], [-8.153, 54.1016], [-8.1665, 54.1014], [-8.1797, 54.0864], [-8.2198, 54.084], [-8.2149, 54.0684], [-8.2185, 54.0616], [-8.2392, 54.0583], [-8.2393, 54.0487], [-8.2329, 54.043], [-8.2384, 54.0396], [-8.2632, 54.0533], [-8.2765, 54.0467], [-8.275, 54.0427], [-8.2811, 54.0387], [-8.2866, 54.0377], [-8.2945, 54.0448], [-8.3028, 54.0376], [-8.3073, 54.0309], [-8.3044, 54.0273], [-8.3122, 54.0186], [-8.306, 54.0166], [-8.3172, 54.0094], [-8.3152, 54.0046], [-8.3456, 53.9993], [-8.3662, 54.0046], [-8.3827, 53.9986], [-8.3979, 54.0016], [-8.4009, 53.9967], [-8.3877, 53.9899], [-8.3847, 53.9856], [-8.3905, 53.9789], [-8.3822, 53.9715], [-8.3928, 53.9649], [-8.4103, 53.9672], [-8.425, 53.9654], [-8.4224, 53.962], [-8.4051, 53.9606], [-8.4061, 53.9567], [-8.3763, 53.9492], [-8.3468, 53.9509], [-8.3496, 53.9423], [-8.3426, 53.9416], [-8.3329, 53.9277], [-8.3363, 53.9262], [-8.4343, 53.9286], [-8.4482, 53.9256], [-8.4509, 53.9135], [-8.4691, 53.913], [-8.4773, 53.9209], [-8.5188, 53.9262], [-8.5231, 53.933], [-8.5218, 53.9443], [-8.537, 53.9581], [-8.5679, 53.9523], [-8.6004, 53.9583], [-8.5988, 53.9501], [-8.651, 53.966], [-8.6667, 53.9749], [-8.6915, 53.9628], [-8.685, 53.9546], [-8.6668, 53.948], [-8.6816, 53.9475], [-8.6784, 53.9428], [-8.687, 53.9249], [-8.6806, 53.9232], [-8.6855, 53.9188], [-8.6617, 53.906], [-8.6332, 53.8992], [-8.6366, 53.8895], [-8.6056, 53.8775], [-8.5849, 53.879], [-8.5856, 53.8827], [-8.5736, 53.886], [-8.5054, 53.8851], [-8.5015, 53.8675], [-8.5309, 53.8612], [-8.5332, 53.8518], [-8.5021, 53.8428], [-8.4981, 53.8474], [-8.4804, 53.8484], [-8.4804, 53.858], [-8.4693, 53.8618], [-8.4544, 53.8592], [-8.4512, 53.8486], [-8.42, 53.8432], [-8.4306, 53.8329], [-8.3979, 53.8217], [-8.4136, 53.8029], [-8.4087, 53.799], [-8.3906, 53.7899], [-8.3872, 53.7957], [-8.3611, 53.7919], [-8.3592, 53.7987], [-8.3459, 53.7952], [-8.3406, 53.7999], [-8.3146, 53.7914], [-8.3187, 53.7835], [-8.3056, 53.7837], [-8.3125, 53.7767], [-8.2945, 53.7736], [-8.2967, 53.7695], [-8.3067, 53.7716], [-8.3088, 53.7627], [-8.2931, 53.7611], [-8.2863, 53.7502], [-8.2764, 53.7522], [-8.2792, 53.7429], [-8.2504, 53.749], [-8.2493, 53.7587], [-8.2377, 53.754], [-8.2371, 53.7614], [-8.2281, 53.7611], [-8.2136, 53.7553], [-8.2128, 53.76], [-8.1738, 53.7695], [-8.1457, 53.7613], [-8.1352, 53.7669], [-8.1248, 53.749], [-8.1135, 53.7482], [-8.1016, 53.7569], [-8.0647, 53.7423], [-8.064, 53.7378], [-8.0358, 53.7373], [-8.0303, 53.746], [-8.0348, 53.7518], [-8.0174, 53.7494], [-7.9757, 53.7567], [-7.9672, 53.7455], [-7.9479, 53.7465], [-7.9301, 53.7332], [-7.9229, 53.7334], [-7.917, 53.7359], [-7.9177, 53.7469], [-7.8871, 53.7587], [-7.8835, 53.7715], [-7.8758, 53.7774], [-7.8812, 53.7856], [-7.8941, 53.7863], [-7.9095, 53.7943], [-7.9109, 53.8102], [-7.921, 53.8254], [-7.9187, 53.8375], [-7.9244, 53.8465], [-7.9286, 53.8505], [-7.9404, 53.8475], [-7.9616, 53.867], [-7.9766, 53.8657], [-7.9812, 53.8698], [-7.9776, 53.8776], [-7.9817, 53.8842], [-7.9773, 53.8881], [-7.9937, 53.9041], [-7.9894, 53.9159], [-7.9947, 53.9218], [-8.0079, 53.9218], [-8.013, 53.9271], [-8.0108, 53.9333], [-8.0302, 53.9339], [-8.0327, 53.9299], [-8.0262, 53.927], [-8.0298, 53.9224], [-8.0618, 53.9096], [-8.074, 53.9186], [-8.0731, 53.9237], [-8.0847, 53.9199], [-8.0936, 53.9303], [-8.0831, 53.9359], [-8.0844, 53.9427], [-8.1001, 53.9428], [-8.1008, 53.949], [-8.1147, 53.9518], [-8.0951, 53.9649], [-8.0901, 53.9763], [-8.0791, 53.9757], [-8.0686, 53.987], [-8.0786, 53.9911], [-8.0775, 54.0045], [-8.0854, 54.0111], [-8.0915, 54.0338], [-8.0789, 54.0491], [-8.0805, 54.053], [-8.0705, 54.0513], [-8.0476, 54.0716], [-8.057, 54.0783], [-8.0531, 54.1047], [-8.1055, 54.1089], [-8.1256, 54.1201], [-8.1481, 54.1252], [-8.1635, 54.109]]]}}, {"type": "Feature", "properties": {"osm_type": "relation", "osm_id": 251947952, "name": "BALLINAMORE-LEA-6", "admin_level": "6", "kind": "subdivision_2", "parent_osm_id": 278721, "parent_name": "Connacht", "parent_iso": "IE-C"}, "geometry": {"type": "Polygon", "coordinates": [[[-8.0388, 54.1838], [-8.0339, 54.1803], [-8.046, 54.1713], [-8.0431, 54.165], [-8.057, 54.0783], [-8.0476, 54.0716], [-8.0705, 54.0513], [-8.0805, 54.053], [-8.0789, 54.0491], [-8.0915, 54.0338], [-8.088, 54.0224], [-8.0774, 54.0337], [-8.0591, 54.0306], [-8.0464, 54.0395], [-8.0383, 54.0379], [-8.0371, 54.0297], [-8.0471, 54.0245], [-8.0497, 54.0133], [-8.0214, 54.0217], [-8.0244, 54.0288], [-8.0081, 54.0295], [-8.0059, 54.0162], [-8.0145, 54.0152], [-8.0168, 54.0053], [-7.9977, 53.9957], [-7.9665, 54.0131], [-7.9649, 54.0188], [-7.938, 54.0123], [-7.9266, 54.0239], [-7.9178, 54.0221], [-7.9192, 54.0163], [-7.902, 54.011], [-7.9118, 53.9804], [-7.899, 53.9821], [-7.9048, 53.9892], [-7.8904, 53.9859], [-7.8764, 53.9949], [-7.868, 53.9843], [-7.8726, 53.9795], [-7.8594, 53.9702], [-7.8466, 53.9737], [-7.833, 53.9643], [-7.8397, 53.9533], [-7.8404, 53.9388], [-7.8355, 53.9278], [-7.8117, 53.9117], [-7.81, 53.8985], [-7.7999, 53.8913], [-7.8018, 53.8873], [-7.7936, 53.8822], [-7.7917, 53.872], [-7.7598, 53.8635], [-7.7545, 53.8691], [-7.7582, 53.8736], [-7.7506, 53.8755], [-7.7512, 53.8792], [-7.7305, 53.8788], [-7.7263, 53.8882], [-7.7107, 53.8934], [-7.7114, 53.9003], [-7.6906, 53.9059], [-7.6913, 53.9184], [-7.6674, 53.9214], [-7.6682, 53.9282], [-7.6607, 53.9293], [-7.6577, 53.9374], [-7.6495, 53.9419], [-7.6441, 53.9379], [-7.6118, 53.9363], [-7.6134, 53.9404], [-7.6048, 53.9499], [-7.5864, 53.9591], [-7.5937, 53.9687], [-7.5855, 53.9726], [-7.5851, 53.9809], [-7.6004, 53.9877], [-7.5931, 54.0029], [-7.6018, 54.0122], [-7.593, 54.0165], [-7.6112, 54.0267], [-7.6124, 54.0189], [-7.6404, 54.0225], [-7.6464, 54.0332], [-7.6352, 54.0394], [-7.638, 54.0429], [-7.644, 54.0447], [-7.6491, 54.0402], [-7.6549, 54.0428], [-7.6577, 54.0564], [-7.6849, 54.0602], [-7.6875, 54.0681], [-7.6986, 54.0723], [-7.7089, 54.0842], [-7.7366, 54.0829], [-7.7371, 54.0935], [-7.7505, 54.0951], [-7.7563, 54.1062], [-7.7632, 54.1097], [-7.7876, 54.108], [-7.7967, 54.1168], [-7.8141, 54.1078], [-7.8136, 54.1003], [-7.8314, 54.0986], [-7.8587, 54.1131], [-7.8519, 54.119], [-7.8753, 54.1237], [-7.8816, 54.1318], [-7.8936, 54.1355], [-7.8884, 54.1418], [-7.9051, 54.1539], [-7.953, 54.1789], [-7.9886, 54.1799], [-8.0053, 54.1923], [-8.0238, 54.1864], [-8.0294, 54.1904], [-8.0388, 54.1838]]]}}, {"type": "Feature", "properties": {"osm_type": "relation", "osm_id": 199482706, "name": "SWINFORD LEA-4", "admin_level": "6", "kind": "subdivision_2", "parent_osm_id": 278721, "parent_name": "Connacht", "parent_iso": "IE-C"}, "geometry": {"type": "Polygon", "coordinates": [[[-8.6948, 53.7396], [-8.69, 53.7396], [-8.6801, 53.7532], [-8.6843, 53.7666], [-8.6663, 53.777], [-8.6801, 53.7799], [-8.6939, 53.7982], [-8.7051, 53.7973], [-8.7091, 53.8022], [-8.7394, 53.8099], [-8.7156, 53.8172], [-8.723, 53.8244], [-8.7113, 53.8319], [-8.7238, 53.8471], [-8.6954, 53.8519], [-8.6943, 53.8624], [-8.6995, 53.8632], [-8.7038, 53.8744], [-8.6825, 53.8734], [-8.6768, 53.877], [-8.6477, 53.8654], [-8.6354, 53.8687], [-8.6374, 53.8771], [-8.6206, 53.8817], [-8.6366, 53.8895], [-8.6332, 53.8992], [-8.6617, 53.906], [-8.6855, 53.9188], [-8.6806, 53.9232], [-8.687, 53.9249], [-8.6784, 53.9428], [-8.6816, 53.9475], [-8.6668, 53.948], [-8.685, 53.9546], [-8.6915, 53.9628], [-8.6667, 53.9749], [-8.6009, 53.9504], [-8.5969, 53.9543], [-8.6004, 53.9583], [-8.5851, 53.9538], [-8.5942, 53.9668], [-8.5898, 54.0058], [-8.5829, 54.0129], [-8.631, 54.0256], [-8.6474, 54.0335], [-8.6474, 54.039], [-8.6613, 54.0363], [-8.6645, 54.0316], [-8.6824, 54.0297], [-8.6753, 54.0184], [-8.6791, 54.0104], [-8.7011, 54.0052], [-8.7138, 53.9878], [-8.7251, 53.9876], [-8.7385, 53.9947], [-8.7556, 53.9822], [-8.7543, 53.9767], [-8.781, 53.9745], [-8.7825, 53.9663], [-8.7904, 53.9655], [-8.8534, 53.9736], [-8.8626, 53.9804], [-8.8638, 53.9898], [-8.8807, 53.9917], [-8.8783, 53.9976], [-8.8889, 54.0072], [-8.8832, 54.0227], [-8.8953, 54.0221], [-8.9238, 54.0089], [-8.9439, 54.0092], [-8.9467, 54.0162], [-8.9675, 54.0313], [-8.9761, 54.0243], [-9.041, 54.0269], [-9.0648, 54.0204], [-9.0635, 54.013], [-9.0837, 54.0078], [-9.0983, 54.0073], [-9.1137, 54.0172], [-9.1111, 54.0217], [-9.1149, 54.023], [-9.1242, 54.0126], [-9.1303, 54.0201], [-9.1517, 54.015], [-9.1494, 54.0088], [-9.1571, 54.0063], [-9.1826, 54.0123], [-9.2243, 54.0012], [-9.2043, 53.9944], [-9.1951, 53.9876], [-9.1919, 53.9779], [-9.1744, 53.9702], [-9.1296, 53.9656], [-9.1268, 53.9624], [-9.1336, 53.9567], [-9.123, 53.9493], [-9.1191, 53.9384], [-9.0931, 53.9399], [-9.0875, 53.936], [-9.0881, 53.9308], [-9.0764, 53.9246], [-9.0894, 53.9199], [-9.0769, 53.9133], [-9.0751, 53.9023], [-9.0857, 53.8974], [-9.0881, 53.9056], [-9.1031, 53.9003], [-9.0959, 53.8945], [-9.0951, 53.8812], [-9.0862, 53.878], [-9.0839, 53.8686], [-9.0906, 53.8673], [-9.1007, 53.8745], [-9.1025, 53.8655], [-9.1019, 53.8527], [-9.091, 53.834], [-9.0938, 53.82], [-9.0895, 53.8156], [-9.0769, 53.8176], [-9.0726, 53.8045], [-9.0614, 53.8093], [-9.0511, 53.8041], [-9.023, 53.8235], [-8.9938, 53.816], [-8.9965, 53.8246], [-8.9874, 53.8275], [-8.9938, 53.8319], [-8.9921, 53.8388], [-8.9842, 53.84], [-8.9725, 53.8266], [-8.9526, 53.8368], [-8.9343, 53.8357], [-8.9302, 53.841], [-8.9009, 53.8305], [-8.894, 53.8384], [-8.872, 53.825], [-8.8449, 53.8176], [-8.825, 53.8026], [-8.7977, 53.7937], [-8.7905, 53.7807], [-8.7725, 53.7767], [-8.7698, 53.7709], [-8.7591, 53.77], [-8.7638, 53.7754], [-8.749, 53.7791], [-8.7408, 53.7709], [-8.7086, 53.7639], [-8.7034, 53.7516], [-8.7078, 53.745], [-8.6948, 53.7396]]]}}, {"type": "Feature", "properties": {"osm_type": "relation", "osm_id": 231100768, "name": "CARRICK-ON-SHANNON LEA-6", "admin_level": "6", "kind": "subdivision_2", "parent_osm_id": 278721, "parent_name": "Connacht", "parent_iso": "IE-C"}, "geometry": {"type": "Polygon", "coordinates": [[[-7.7803, 53.8289], [-7.7821, 53.8373], [-7.7711, 53.8492], [-7.7768, 53.8676], [-7.7917, 53.872], [-7.7936, 53.8822], [-7.8018, 53.8873], [-7.7999, 53.8913], [-7.81, 53.8985], [-7.8117, 53.9117], [-7.8355, 53.9278], [-7.8404, 53.9388], [-7.8397, 53.9533], [-7.833, 53.9643], [-7.8466, 53.9737], [-7.8594, 53.9702], [-7.8726, 53.9795], [-7.868, 53.9843], [-7.8764, 53.9949], [-7.8904, 53.9859], [-7.9048, 53.9892], [-7.899, 53.9821], [-7.9118, 53.9804], [-7.902, 54.011], [-7.9192, 54.0163], [-7.9178, 54.0221], [-7.9266, 54.0239], [-7.938, 54.0123], [-7.9649, 54.0188], [-7.9665, 54.0131], [-7.9977, 53.9957], [-8.0168, 54.0053], [-8.0145, 54.0152], [-8.0059, 54.0162], [-8.0081, 54.0295], [-8.0244, 54.0288], [-8.0214, 54.0217], [-8.0497, 54.0133], [-8.0471, 54.0245], [-8.0371, 54.0297], [-8.0383, 54.0379], [-8.0464, 54.0395], [-8.0591, 54.0306], [-8.0774, 54.0337], [-8.088, 54.0224], [-8.0854, 54.0111], [-8.0775, 54.0045], [-8.0786, 53.9911], [-8.0686, 53.987], [-8.0791, 53.9757], [-8.0901, 53.9763], [-8.0951, 53.9649], [-8.1153, 53.954], [-8.1008, 53.949], [-8.1001, 53.9428], [-8.0844, 53.9427], [-8.0831, 53.9359], [-8.0936, 53.9303], [-8.0847, 53.9199], [-8.0731, 53.9237], [-8.074, 53.9186], [-8.0618, 53.9096], [-8.0298, 53.9224], [-8.0262, 53.927], [-8.0327, 53.9299], [-8.0302, 53.9339], [-8.0108, 53.9333], [-8.013, 53.9271], [-8.0079, 53.9218], [-7.9947, 53.9218], [-7.9894, 53.9159], [-7.9937, 53.9041], [-7.9773, 53.8881], [-7.9817, 53.8842], [-7.9776, 53.8776], [-7.9812, 53.8698], [-7.9766, 53.8657], [-7.9616, 53.867], [-7.9404, 53.8475], [-7.9286, 53.8505], [-7.9187, 53.8375], [-7.9188, 53.8215], [-7.8969, 53.8218], [-7.8838, 53.8293], [-7.8831, 53.8154], [-7.8713, 53.8169], [-7.8764, 53.8084], [-7.8684, 53.806], [-7.8611, 53.8124], [-7.8653, 53.8252], [-7.8577, 53.8313], [-7.8371, 53.8108], [-7.8152, 53.8199], [-7.8031, 53.8152], [-7.7883, 53.8164], [-7.7877, 53.8231], [-7.7803, 53.8289]]]}}, {"type": "Feature", "properties": {"osm_type": "relation", "osm_id": 327203631, "name": "CASTLEBAR LEA-7", "admin_level": "6", "kind": "subdivision_2", "parent_osm_id": 278721, "parent_name": "Connacht", "parent_iso": "IE-C"}, "geometry": {"type": "Polygon", "coordinates": [[[-9.4834, 53.9928], [-9.4703, 53.9951], [-9.4479, 53.9837], [-9.4442, 53.9752], [-9.4256, 53.985], [-9.4049, 53.9857], [-9.3886, 53.9742], [-9.3932, 53.9583], [-9.3869, 53.9542], [-9.4009, 53.9466], [-9.3993, 53.9408], [-9.4143, 53.9223], [-9.4405, 53.9149], [-9.4514, 53.8821], [-9.4414, 53.8787], [-9.4409, 53.8628], [-9.4455, 53.8582], [-9.4337, 53.85], [-9.4428, 53.8472], [-9.4328, 53.8364], [-9.4372, 53.8292], [-9.4337, 53.8209], [-9.4173, 53.8145], [-9.4224, 53.8076], [-9.4117, 53.8039], [-9.4157, 53.7971], [-9.4062, 53.7876], [-9.3897, 53.79], [-9.4005, 53.783], [-9.3977, 53.7636], [-9.4127, 53.7493], [-9.4058, 53.7471], [-9.4055, 53.7417], [-9.4228, 53.7289], [-9.4213, 53.7219], [-9.4353, 53.7126], [-9.4404, 53.7004], [-9.457, 53.7013], [-9.48, 53.6845], [-9.4864, 53.6844], [-9.4888, 53.6818], [-9.4796, 53.6753], [-9.4883, 53.6688], [-9.4827, 53.6609], [-9.4996, 53.6553], [-9.5117, 53.6451], [-9.541, 53.6369], [-9.5523, 53.6202], [-9.5648, 53.6126], [-9.5555, 53.608], [-9.557, 53.5997], [-9.5442, 53.5808], [-9.512, 53.5783], [-9.5059, 53.5719], [-9.4814, 53.5661], [-9.4813, 53.5623], [-9.4234, 53.5641], [-9.3609, 53.5736], [-9.3618, 53.5978], [-9.3311, 53.6358], [-9.2823, 53.6435], [-9.2633, 53.6598], [-9.2535, 53.6611], [-9.2186, 53.7039], [-9.2078, 53.711], [-9.1965, 53.7124], [-9.1907, 53.703], [-9.1813, 53.6999], [-9.1783, 53.7056], [-9.1815, 53.712], [-9.1679, 53.7181], [-9.1655, 53.7275], [-9.156, 53.7311], [-9.1509, 53.7235], [-9.1386, 53.7374], [-9.1397, 53.7491], [-9.1288, 53.7497], [-9.1331, 53.7632], [-9.1169, 53.7615], [-9.1205, 53.7715], [-9.118, 53.7817], [-9.096, 53.7732], [-9.0938, 53.7778], [-9.0775, 53.7809], [-9.0679, 53.7733], [-9.0601, 53.7768], [-9.0732, 53.7857], [-9.0769, 53.8176], [-9.0895, 53.8156], [-9.0938, 53.82], [-9.091, 53.834], [-9.1019, 53.8527], [-9.1007, 53.8745], [-9.0906, 53.8673], [-9.0839, 53.8686], [-9.0862, 53.878], [-9.0951, 53.8812], [-9.0959, 53.8945], [-9.1031, 53.9003], [-9.0881, 53.9056], [-9.0857, 53.8974], [-9.0751, 53.9023], [-9.0769, 53.9133], [-9.0894, 53.9199], [-9.0764, 53.9246], [-9.0881, 53.9308], [-9.0875, 53.936], [-9.0931, 53.9399], [-9.1191, 53.9384], [-9.123, 53.9493], [-9.1336, 53.9567], [-9.1268, 53.9624], [-9.1296, 53.9656], [-9.1744, 53.9702], [-9.1919, 53.9779], [-9.1951, 53.9876], [-9.2243, 54.0012], [-9.2641, 54.0377], [-9.2915, 54.0406], [-9.2996, 54.0369], [-9.2984, 54.0297], [-9.3054, 54.0271], [-9.3154, 54.0318], [-9.313, 54.0425], [-9.3387, 54.0473], [-9.3479, 54.0432], [-9.3521, 54.0529], [-9.3661, 54.0547], [-9.3802, 54.0479], [-9.3885, 54.0577], [-9.4025, 54.0504], [-9.4211, 54.0542], [-9.4374, 54.0437], [-9.4557, 54.0423], [-9.4524, 54.0338], [-9.4712, 54.0316], [-9.4745, 54.0252], [-9.4701, 54.0138], [-9.4762, 54.0066], [-9.4821, 54.009], [-9.4834, 53.9928]]]}}, {"type": "Feature", "properties": {"osm_type": "relation", "osm_id": 471551919, "name": "SLIGO-STRANDHILL LEA-6", "admin_level": "6", "kind": "subdivision_2", "parent_osm_id": 278721, "parent_name": "Connacht", "parent_iso": "IE-C"}, "geometry": {"type": "MultiPolygon", "coordinates": [[[[-8.4841, 54.2878], [-8.4766, 54.2831], [-8.4866, 54.281], [-8.4754, 54.2787], [-8.4788, 54.2752], [-8.4742, 54.2724], [-8.4953, 54.2857], [-8.5176, 54.2764], [-8.545, 54.2803], [-8.5708, 54.2755], [-8.5858, 54.2766], [-8.5916, 54.284], [-8.6116, 54.2844], [-8.6066, 54.275], [-8.6227, 54.2611], [-8.624, 54.254], [-8.6193, 54.2535], [-8.6189, 54.2597], [-8.6033, 54.2611], [-8.6004, 54.2531], [-8.5907, 54.2534], [-8.5858, 54.2461], [-8.5744, 54.2417], [-8.5527, 54.2414], [-8.5234, 54.2534], [-8.5144, 54.2632], [-8.5193, 54.2706], [-8.5139, 54.273], [-8.5049, 54.2719], [-8.501, 54.2615], [-8.4888, 54.2544], [-8.4707, 54.2522], [-8.4533, 54.2564], [-8.4428, 54.2665], [-8.4463, 54.2796], [-8.4621, 54.2876], [-8.4841, 54.2878]]], [[[-8.6041, 54.2874], [-8.6134, 54.2875], [-8.6041, 54.2874]]]]}}]}