{"type": "FeatureCollection", "parent": {"osm_id": 303940, "name": "Sergipe", "admin_level": "4", "kind": "subdivision_1", "child_kind": "subdivision_2", "iso": "BR-SE"}, "features": [{"type": "Feature", "properties": {"osm_type": "relation", "osm_id": 493581939, "name": "Amparo do São Francisco", "admin_level": "6", "kind": "subdivision_2", "parent_osm_id": 303940, "parent_name": "Sergipe", "parent_iso": "BR-SE"}, "geometry": {"type": "Polygon", "coordinates": [[[-36.9244, -10.1263], [-36.9336, -10.1213], [-36.9399, -10.1552], [-36.9434, -10.2275], [-36.8806, -10.1451], [-36.9109, -10.1379], [-36.9244, -10.1263]]]}}, {"type": "Feature", "properties": {"osm_type": "relation", "osm_id": 982385830, "name": "Aquidabã", "admin_level": "6", "kind": "subdivision_2", "parent_osm_id": 303940, "parent_name": "Sergipe", "parent_iso": "BR-SE"}, "geometry": {"type": "Polygon", "coordinates": [[[-36.9434, -10.2275], [-36.9602, -10.2351], [-36.9716, -10.2045], [-36.9835, -10.1956], [-36.9948, -10.1776], [-37.0169, -10.191], [-37.1516, -10.1642], [-37.1541, -10.1863], [-37.1361, -10.1969], [-37.1428, -10.2038], [-37.1505, -10.23], [-37.1493, -10.2407], [-37.1411, -10.2468], [-37.1381, -10.2748], [-37.1489, -10.289], [-37.148, -10.3021], [-37.1552, -10.307], [-37.1499, -10.3221], [-37.164, -10.3335], [-37.1542, -10.346], [-37.1581, -10.3645], [-37.1437, -10.3651], [-37.1441, -10.3615], [-37.1353, -10.3588], [-37.125, -10.3745], [-37.1178, -10.3687], [-37.1118, -10.3722], [-37.0678, -10.3316], [-37.0625, -10.3299], [-37.0519, -10.3412], [-37.0387, -10.3274], [-37.0306, -10.3258], [-37.0185, -10.3321], [-37.0097, -10.3037], [-36.9561, -10.29], [-36.9337, -10.2761], [-36.9524, -10.2665], [-36.929, -10.2228], [-36.9434, -10.2275]]]}}, {"type": "Feature", "properties": {"osm_type": "relation", "osm_id": 711282925, "name": "Aracaju", "admin_level": "6", "kind": "subdivision_2", "parent_osm_id": 303940, "parent_name": "Sergipe", "parent_iso": "BR-SE"}, "geometry": {"type": "Polygon", "coordinates": [[[-37.0349, -10.8691], [-37.0529, -10.8628], [-37.067, -10.8764], [-37.0742, -10.8642], [-37.0823, -10.8629], [-37.0924, -10.874], [-37.1029, -10.8771], [-37.0969, -10.8843], [-37.104, -10.8867], [-37.1068, -10.9033], [-37.0921, -10.943], [-37.139, -11.0624], [-37.1497, -11.0555], [-37.1591, -11.0562], [-37.1734, -11.0808], [-37.1621, -11.0952], [-37.1664, -11.1055], [-37.165, -11.1473], [-37.1541, -11.161], [-37.1239, -11.1003], [-37.0349, -10.979], [-37.0346, -10.9571], [-37.0443, -10.9057], [-37.0435, -10.8897], [-37.0349, -10.8691]]]}}, {"type": "Feature", "properties": {"osm_type": "relation", "osm_id": 175671082, "name": "Arauá", "admin_level": "6", "kind": "subdivision_2", "parent_osm_id": 303940, "parent_name": "Sergipe", "parent_iso": "BR-SE"}, "geometry": {"type": "MultiPolygon", "coordinates": [[[[-37.6388, -11.3555], [-37.6354, -11.341], [-37.6388, -11.3555]]], [[[-37.664, -11.3317], [-37.6747, -11.3364], [-37.6753, -11.3434], [-37.6659, -11.3458], [-37.6562, -11.3404], [-37.664, -11.3317]]], [[[-37.664, -11.3317], [-37.6538, -11.3331], [-37.6471, -11.3238], [-37.6583, -11.3231], [-37.664, -11.3317]]], [[[-37.6745, -11.3228], [-37.6704, -11.3088], [-37.675, -11.301], [-37.683, -11.3162], [-37.6745, -11.3228]]], [[[-37.5237, -11.2978], [-37.5082, -11.2725], [-37.5142, -11.2707], [-37.5258, -11.2533], [-37.5241, -11.2412], [-37.5291, -11.2378], [-37.5258, -11.2266], [-37.5368, -11.2214], [-37.5348, -11.1904], [-37.5534, -11.1839], [-37.5548, -11.1789], [-37.5468, -11.1667], [-37.5963, -11.2038], [-37.5968, -11.2119], [-37.6331, -11.2194], [-37.6606, -11.2191], [-37.6706, -11.2347], [-37.6628, -11.2508], [-37.6634, -11.29], [-37.601, -11.3424], [-37.5902, -11.325], [-37.5716, -11.3224], [-37.5486, -11.3044], [-37.5302, -11.3053], [-37.5237, -11.2978]]]]}}, {"type": "Feature", "properties": {"osm_type": "relation", "osm_id": 230947740, "name": "Areia Branca", "admin_level": "6", "kind": "subdivision_2", "parent_osm_id": 303940, "parent_name": "Sergipe", "parent_iso": "BR-SE"}, "geometry": {"type": "Polygon", "coordinates": [[[-37.2444, -10.7777], [-37.2806, -10.739], [-37.2822, -10.7192], [-37.3158, -10.7387], [-37.3109, -10.7299], [-37.3219, -10.7296], [-37.3344, -10.7223], [-37.3617, -10.7385], [-37.4067, -10.8335], [-37.4046, -10.8421], [-37.3759, -10.8525], [-37.3625, -10.8472], [-37.3408, -10.8477], [-37.3291, -10.8333], [-37.3185, -10.8333], [-37.2444, -10.7777]]]}}, {"type": "Feature", "properties": {"osm_type": "relation", "osm_id": 396270517, "name": "Barra dos Coqueiros", "admin_level": "6", "kind": "subdivision_2", "parent_osm_id": 303940, "parent_name": "Sergipe", "parent_iso": "BR-SE"}, "geometry": {"type": "Polygon", "coordinates": [[[-37.0346, -10.9571], [-37.0263, -10.9516], [-36.9612, -10.8612], [-36.8541, -10.7434], [-36.8682, -10.7437], [-36.8756, -10.7385], [-36.8999, -10.7728], [-36.9284, -10.7896], [-36.9365, -10.7881], [-36.9387, -10.7952], [-36.9594, -10.8084], [-36.9687, -10.833], [-36.987, -10.8358], [-36.9814, -10.8441], [-36.9848, -10.8501], [-36.9994, -10.861], [-37.0152, -10.8648], [-37.0158, -10.874], [-37.0294, -10.8857], [-37.0399, -10.8843], [-37.0443, -10.9057], [-37.0346, -10.9571]]]}}, {"type": "Feature", "properties": {"osm_type": "relation", "osm_id": 408091595, "name": "Boquim", "admin_level": "6", "kind": "subdivision_2", "parent_osm_id": 303940, "parent_name": "Sergipe", "parent_iso": "BR-SE"}, "geometry": {"type": "Polygon", "coordinates": [[[-37.5468, -11.1667], [-37.5539, -11.1556], [-37.5434, -11.1523], [-37.5426, -11.1422], [-37.5512, -11.1406], [-37.5287, -11.0534], [-37.5306, -10.995], [-37.5685, -11.0254], [-37.5665, -11.0385], [-37.6192, -11.0678], [-37.6123, -11.0786], [-37.6234, -11.0876], [-37.6307, -11.083], [-37.6495, -11.1089], [-37.6466, -11.1256], [-37.7062, -11.1751], [-37.7, -11.1832], [-37.6914, -11.1712], [-37.6783, -11.1892], [-37.6708, -11.1837], [-37.6372, -11.1988], [-37.5963, -11.2038], [-37.5468, -11.1667]]]}}, {"type": "Feature", "properties": {"osm_type": "relation", "osm_id": 591177300, "name": "Brejo Grande", "admin_level": "6", "kind": "subdivision_2", "parent_osm_id": 303940, "parent_name": "Sergipe", "parent_iso": "BR-SE"}, "geometry": {"type": "Polygon", "coordinates": [[[-36.4882, -10.4233], [-36.484, -10.437], [-36.5103, -10.4451], [-36.5273, -10.4652], [-36.5842, -10.4997], [-36.4994, -10.513], [-36.4853, -10.5293], [-36.495, -10.5346], [-36.4975, -10.5377], [-36.4934, -10.5388], [-36.433, -10.5158], [-36.4089, -10.5118], [-36.3949, -10.4965], [-36.4012, -10.492], [-36.4305, -10.4253], [-36.4601, -10.4066], [-36.4882, -10.4233]]]}}, {"type": "Feature", "properties": {"osm_type": "relation", "osm_id": 632637494, "name": "Campo do Brito", "admin_level": "6", "kind": "subdivision_2", "parent_osm_id": 303940, "parent_name": "Sergipe", "parent_iso": "BR-SE"}, "geometry": {"type": "Polygon", "coordinates": [[[-37.4026, -10.8253], [-37.4314, -10.8312], [-37.4481, -10.7921], [-37.4464, -10.7832], [-37.44, -10.7812], [-37.4513, -10.7674], [-37.4494, -10.7467], [-37.4553, -10.7244], [-37.464, -10.7121], [-37.4737, -10.71], [-37.4813, -10.6999], [-37.4993, -10.6924], [-37.5012, -10.6866], [-37.5268, -10.6886], [-37.5497, -10.6974], [-37.5855, -10.6814], [-37.5943, -10.6966], [-37.5857, -10.713], [-37.5878, -10.7217], [-37.5604, -10.7578], [-37.5658, -10.7668], [-37.5592, -10.779], [-37.5271, -10.7868], [-37.5285, -10.7902], [-37.5204, -10.7943], [-37.5214, -10.7995], [-37.5171, -10.7987], [-37.5239, -10.8183], [-37.4973, -10.833], [-37.4874, -10.8331], [-37.4787, -10.8436], [-37.4828, -10.8557], [-37.4774, -10.8593], [-37.471, -10.8516], [-37.4635, -10.8587], [-37.456, -10.8822], [-37.4026, -10.8253]]]}}, {"type": "Feature", "properties": {"osm_type": "relation", "osm_id": 919863817, "name": "Canhoba", "admin_level": "6", "kind": "subdivision_2", "parent_osm_id": 303940, "parent_name": "Sergipe", "parent_iso": "BR-SE"}, "geometry": {"type": "Polygon", "coordinates": [[[-36.9516, -10.0744], [-36.954, -10.0714], [-36.9896, -10.0846], [-37.0393, -10.1367], [-37.0465, -10.1255], [-37.0554, -10.1269], [-37.0623, -10.1352], [-37.1516, -10.1642], [-37.0169, -10.191], [-36.9948, -10.1776], [-36.9835, -10.1956], [-36.9716, -10.2045], [-36.9602, -10.2351], [-36.9434, -10.2275], [-36.9399, -10.1552], [-36.9336, -10.1213], [-36.9244, -10.1263], [-36.9306, -10.1057], [-36.9435, -10.0927], [-36.9516, -10.0744]]]}}, {"type": "Feature", "properties": {"osm_type": "relation", "osm_id": 872820621, "name": "Canindé de São Francisco", "admin_level": "6", "kind": "subdivision_2", "parent_osm_id": 303940, "parent_name": "Sergipe", "parent_iso": "BR-SE"}, "geometry": {"type": "Polygon", "coordinates": [[[-38.0042, -9.5163], [-38.0218, -9.5402], [-38.0202, -9.5628], [-38.0286, -9.5748], [-38.0326, -9.568], [-38.0371, -9.5695], [-38.0416, -9.5749], [-38.0384, -9.5816], [-38.0481, -9.5872], [-38.0599, -9.5869], [-38.0612, -9.5908], [-38.0535, -9.6047], [-38.0544, -9.6313], [-38.0367, -9.6287], [-38.0317, -9.635], [-38.017, -9.6393], [-38.0109, -9.65], [-38.021, -9.6593], [-38.0253, -9.6567], [-38.0322, -9.6607], [-38.0365, -9.6869], [-38.0411, -9.6873], [-38.0449, -9.6971], [-38.0437, -9.7181], [-38.0316, -9.7698], [-38.019, -9.7817], [-38.0194, -9.799], [-38.0, -9.8187], [-38.0026, -9.8389], [-37.9959, -9.8459], [-38.0031, -9.8566], [-38.0125, -9.8578], [-37.9946, -9.8801], [-37.9937, -9.8993], [-38.0023, -9.9044], [-37.9975, -9.9172], [-37.984, -9.9187], [-37.9748, -9.9365], [-37.9438, -9.9421], [-37.9072, -9.912], [-37.9019, -9.9187], [-37.8961, -9.9126], [-37.8861, -9.9131], [-37.8656, -9.8965], [-37.8716, -9.8823], [-37.8692, -9.8409], [-37.8536, -9.7795], [-37.8444, -9.7753], [-37.844, -9.7492], [-37.8311, -9.7032], [-37.6665, -9.666], [-37.6808, -9.648], [-37.7118, -9.6313], [-37.7472, -9.6256], [-37.7851, -9.6385], [-37.7915, -9.6228], [-37.807, -9.6101], [-37.8189, -9.5923], [-37.8327, -9.5949], [-37.8423, -9.5776], [-37.8873, -9.5488], [-37.8944, -9.5385], [-37.9176, -9.5488], [-37.9901, -9.5266], [-38.0042, -9.5163]]]}}, {"type": "Feature", "properties": {"osm_type": "relation", "osm_id": 575316461, "name": "Capela", "admin_level": "6", "kind": "subdivision_2", "parent_osm_id": 303940, "parent_name": "Sergipe", "parent_iso": "BR-SE"}, "geometry": {"type": "Polygon", "coordinates": [[[-37.125, -10.3745], [-37.1303, -10.3837], [-37.1187, -10.3878], [-37.1179, -10.3995], [-37.109, -10.3996], [-37.1184, -10.4085], [-37.1098, -10.4187], [-37.1205, -10.443], [-37.1361, -10.4527], [-37.1382, -10.4699], [-37.1153, -10.4817], [-37.1134, -10.4923], [-37.1034, -10.505], [-37.1023, -10.5287], [-37.0807, -10.5273], [-37.0656, -10.5316], [-37.0728, -10.5566], [-37.0693, -10.5735], [-37.0763, -10.5849], [-37.0655, -10.5944], [-37.0654, -10.6067], [-37.0711, -10.6129], [-37.0362, -10.6256], [-37.011, -10.642], [-36.9759, -10.5426], [-36.9778, -10.5302], [-36.9563, -10.5237], [-36.9362, -10.4494], [-36.9616, -10.4411], [-36.9832, -10.4032], [-36.9853, -10.3841], [-36.9784, -10.3725], [-36.9849, -10.3704], [-36.9973, -10.3525], [-36.9989, -10.3307], [-37.0064, -10.3269], [-37.0185, -10.3321], [-37.0306, -10.3258], [-37.0387, -10.3274], [-37.0519, -10.3412], [-37.0625, -10.3299], [-37.0678, -10.3316], [-37.1, -10.3651], [-37.125, -10.3745]]]}}, {"type": "Feature", "properties": {"osm_type": "relation", "osm_id": 503029382, "name": "Carira", "admin_level": "6", "kind": "subdivision_2", "parent_osm_id": 303940, "parent_name": "Sergipe", "parent_iso": "BR-SE"}, "geometry": {"type": "Polygon", "coordinates": [[[-37.5976, -10.25], [-37.6073, -10.2409], [-37.612, -10.2487], [-37.6162, -10.2423], [-37.6292, -10.2404], [-37.674, -10.2069], [-37.6935, -10.2071], [-37.7022, -10.1925], [-37.7186, -10.188], [-37.7461, -10.198], [-37.7647, -10.196], [-37.7492, -10.2391], [-37.7651, -10.2515], [-37.7484, -10.2677], [-37.7508, -10.2898], [-37.7685, -10.2887], [-37.7451, -10.3136], [-37.7444, -10.3387], [-37.7776, -10.3435], [-37.7975, -10.362], [-37.8131, -10.3672], [-37.8239, -10.3769], [-37.8383, -10.3798], [-37.8346, -10.3861], [-37.8409, -10.3897], [-37.8416, -10.3975], [-37.8379, -10.4001], [-37.8526, -10.4065], [-37.8505, -10.4131], [-37.8582, -10.4264], [-37.8197, -10.4876], [-37.8131, -10.5064], [-37.8149, -10.517], [-37.7983, -10.5099], [-37.7851, -10.5117], [-37.7722, -10.507], [-37.7282, -10.515], [-37.6811, -10.4807], [-37.6237, -10.4113], [-37.5759, -10.3696], [-37.5781, -10.3296], [-37.6114, -10.2774], [-37.5976, -10.25]]]}}, {"type": "Feature", "properties": {"osm_type": "relation", "osm_id": 555715520, "name": "Carmópolis", "admin_level": "6", "kind": "subdivision_2", "parent_osm_id": 303940, "parent_name": "Sergipe", "parent_iso": "BR-SE"}, "geometry": {"type": "Polygon", "coordinates": [[[-36.9236, -10.6754], [-36.933, -10.6545], [-36.9611, -10.6493], [-36.9688, -10.631], [-36.9919, -10.6316], [-37.011, -10.642], [-37.0111, -10.6738], [-36.9728, -10.6852], [-36.9174, -10.6864], [-36.9199, -10.7006], [-36.9129, -10.7033], [-36.9012, -10.691], [-36.9018, -10.6864], [-36.9098, -10.6769], [-36.9236, -10.6754]]]}}, {"type": "Feature", "properties": {"osm_type": "relation", "osm_id": 594297897, "name": "Cedro de São João", "admin_level": "6", "kind": "subdivision_2", "parent_osm_id": 303940, "parent_name": "Sergipe", "parent_iso": "BR-SE"}, "geometry": {"type": "Polygon", "coordinates": [[[-36.9337, -10.2761], [-36.9359, -10.3067], [-36.902, -10.3235], [-36.8854, -10.3003], [-36.874, -10.2965], [-36.851, -10.2728], [-36.8452, -10.2627], [-36.8485, -10.2403], [-36.8677, -10.2282], [-36.929, -10.2228], [-36.9524, -10.2665], [-36.9337, -10.2761]]]}}, {"type": "Feature", "properties": {"osm_type": "relation", "osm_id": 113126881, "name": "Cristinápolis", "admin_level": "6", "kind": "subdivision_2", "parent_osm_id": 303940, "parent_name": "Sergipe", "parent_iso": "BR-SE"}, "geometry": {"type": "Polygon", "coordinates": [[[-37.6538, -11.4806], [-37.6599, -11.4843], [-37.6747, -11.4753], [-37.6717, -11.4569], [-37.6762, -11.4469], [-37.6928, -11.425], [-37.7169, -11.4091], [-37.7232, -11.3996], [-37.7472, -11.4101], [-37.7502, -11.4038], [-37.7628, -11.4059], [-37.7766, -11.4164], [-37.788, -11.4129], [-37.7871, -11.4233], [-37.8094, -11.4372], [-37.8088, -11.4549], [-37.8331, -11.4821], [-37.8231, -11.4917], [-37.8088, -11.4969], [-37.8184, -11.5036], [-37.8117, -11.5165], [-37.7788, -11.5248], [-37.7716, -11.5311], [-37.7616, -11.5252], [-37.7472, -11.5389], [-37.7316, -11.5376], [-37.7266, -11.5528], [-37.7128, -11.5528], [-37.7039, -11.5412], [-37.6967, -11.5454], [-37.6989, -11.5628], [-37.6892, -11.5659], [-37.6838, -11.5619], [-37.6737, -11.568], [-37.6618, -11.5449], [-37.6637, -11.5335], [-37.6546, -11.5295], [-37.6504, -11.5174], [-37.6433, -11.5238], [-37.6321, -11.5191], [-37.637, -11.5021], [-37.6458, -11.5036], [-37.6465, -11.4879], [-37.6538, -11.4806]]]}}, {"type": "Feature", "properties": {"osm_type": "relation", "osm_id": 263680186, "name": "Cumbe", "admin_level": "6", "kind": "subdivision_2", "parent_osm_id": 303940, "parent_name": "Sergipe", "parent_iso": "BR-SE"}, "geometry": {"type": "Polygon", "coordinates": [[[-37.1635, -10.3388], [-37.1729, -10.3384], [-37.1679, -10.3271], [-37.1707, -10.3164], [-37.1836, -10.304], [-37.1999, -10.2974], [-37.2163, -10.2999], [-37.2269, -10.2948], [-37.2434, -10.2615], [-37.2606, -10.2392], [-37.2917, -10.2558], [-37.2576, -10.2692], [-37.2561, -10.2788], [-37.2423, -10.2868], [-37.2357, -10.3059], [-37.2492, -10.3207], [-37.2396, -10.342], [-37.2407, -10.3559], [-37.2074, -10.4025], [-37.1922, -10.4057], [-37.179, -10.4171], [-37.1604, -10.4109], [-37.1442, -10.4172], [-37.1319, -10.4067], [-37.114, -10.4068], [-37.109, -10.3996], [-37.1179, -10.3995], [-37.1187, -10.3878], [-37.1303, -10.3837], [-37.125, -10.3745], [-37.1353, -10.3588], [-37.1441, -10.3615], [-37.1437, -10.3651], [-37.1581, -10.3645], [-37.1542, -10.346], [-37.1635, -10.3388]]]}}, {"type": "Feature", "properties": {"osm_type": "relation", "osm_id": 885624670, "name": "Divina Pastora", "admin_level": "6", "kind": "subdivision_2", "parent_osm_id": 303940, "parent_name": "Sergipe", "parent_iso": "BR-SE"}, "geometry": {"type": "Polygon", "coordinates": [[[-37.0925, -10.6421], [-37.1328, -10.6513], [-37.1457, -10.6372], [-37.1433, -10.6252], [-37.1574, -10.6262], [-37.151, -10.6218], [-37.1779, -10.6255], [-37.2058, -10.6083], [-37.2058, -10.6239], [-37.1919, -10.6279], [-37.1806, -10.6407], [-37.1798, -10.6519], [-37.1886, -10.6582], [-37.1921, -10.6754], [-37.1985, -10.6778], [-37.1964, -10.6917], [-37.2058, -10.7053], [-37.1995, -10.7194], [-37.2049, -10.7241], [-37.1908, -10.7275], [-37.1797, -10.7177], [-37.1671, -10.7267], [-37.1708, -10.7336], [-37.1604, -10.7357], [-37.1635, -10.7448], [-37.1585, -10.7495], [-37.1577, -10.7423], [-37.151, -10.7376], [-37.1535, -10.7257], [-37.1471, -10.7185], [-37.143, -10.7013], [-37.1213, -10.7019], [-37.1155, -10.6849], [-37.0901, -10.6555], [-37.0925, -10.6421]]]}}, {"type": "Feature", "properties": {"osm_type": "relation", "osm_id": 407310699, "name": "Estância", "admin_level": "6", "kind": "subdivision_2", "parent_osm_id": 303940, "parent_name": "Sergipe", "parent_iso": "BR-SE"}, "geometry": {"type": "Polygon", "coordinates": [[[-37.5237, -11.2978], [-37.4625, -11.3104], [-37.4443, -11.2945], [-37.4251, -11.3078], [-37.42, -11.3022], [-37.407, -11.3015], [-37.3977, -11.3159], [-37.3828, -11.323], [-37.3781, -11.3402], [-37.3881, -11.3538], [-37.3894, -11.372], [-37.4063, -11.3931], [-37.4087, -11.4238], [-37.4003, -11.4354], [-37.3681, -11.459], [-37.3553, -11.4437], [-37.338, -11.4426], [-37.3122, -11.4229], [-37.3011, -11.3673], [-37.2603, -11.2895], [-37.3286, -11.2373], [-37.3308, -11.2137], [-37.3485, -11.1973], [-37.3453, -11.1767], [-37.3371, -11.1656], [-37.3389, -11.1525], [-37.3315, -11.1414], [-37.3387, -11.1299], [-37.337, -11.1132], [-37.3514, -11.0905], [-37.369, -11.0725], [-37.3756, -11.0717], [-37.3897, -11.0533], [-37.4381, -11.087], [-37.4377, -11.0985], [-37.4303, -11.1063], [-37.4386, -11.1149], [-37.4349, -11.1203], [-37.459, -11.1463], [-37.5468, -11.1667], [-37.5531, -11.1751], [-37.5534, -11.1839], [-37.5348, -11.1904], [-37.5368, -11.2214], [-37.5258, -11.2266], [-37.5291, -11.2378], [-37.5241, -11.2412], [-37.5258, -11.2533], [-37.5142, -11.2707], [-37.5082, -11.2725], [-37.5237, -11.2978]]]}}, {"type": "Feature", "properties": {"osm_type": "relation", "osm_id": 531486282, "name": "Feira Nova", "admin_level": "6", "kind": "subdivision_2", "parent_osm_id": 303940, "parent_name": "Sergipe", "parent_iso": "BR-SE"}, "geometry": {"type": "Polygon", "coordinates": [[[-37.2606, -10.2392], [-37.3323, -10.2109], [-37.3836, -10.2182], [-37.3971, -10.2569], [-37.3903, -10.2708], [-37.3944, -10.2896], [-37.3858, -10.2972], [-37.391, -10.3161], [-37.3783, -10.3165], [-37.3733, -10.3289], [-37.3632, -10.3286], [-37.3567, -10.3349], [-37.36, -10.3358], [-37.3582, -10.3452], [-37.3498, -10.3468], [-37.3501, -10.3555], [-37.346, -10.3574], [-37.356, -10.3678], [-37.3494, -10.3717], [-37.349, -10.3835], [-37.3402, -10.3853], [-37.3449, -10.3792], [-37.3272, -10.3737], [-37.2954, -10.3201], [-37.2799, -10.3118], [-37.2711, -10.3145], [-37.2729, -10.3076], [-37.2665, -10.3039], [-37.2546, -10.305], [-37.2406, -10.2977], [-37.2423, -10.2868], [-37.2561, -10.2788], [-37.2576, -10.2692], [-37.2917, -10.2558], [-37.2606, -10.2392]]]}}, {"type": "Feature", "properties": {"osm_type": "relation", "osm_id": 196016539, "name": "Frei Paulo", "admin_level": "6", "kind": "subdivision_2", "parent_osm_id": 303940, "parent_name": "Sergipe", "parent_iso": "BR-SE"}, "geometry": {"type": "Polygon", "coordinates": [[[-37.7224, -10.5099], [-37.6885, -10.5319], [-37.6406, -10.6048], [-37.5586, -10.6194], [-37.5304, -10.6458], [-37.5094, -10.6262], [-37.4745, -10.5664], [-37.5015, -10.5288], [-37.511, -10.506], [-37.5583, -10.4439], [-37.5759, -10.3696], [-37.6237, -10.4113], [-37.6811, -10.4807], [-37.7224, -10.5099]]]}}, {"type": "Feature", "properties": {"osm_type": "relation", "osm_id": 905047181, "name": "Gararu", "admin_level": "6", "kind": "subdivision_2", "parent_osm_id": 303940, "parent_name": "Sergipe", "parent_iso": "BR-SE"}, "geometry": {"type": "Polygon", "coordinates": [[[-37.2265, -9.8995], [-37.234, -9.9579], [-37.2704, -9.9621], [-37.2655, -9.9917], [-37.2841, -9.9894], [-37.2899, -10.0132], [-37.2951, -10.0155], [-37.3067, -9.9995], [-37.314, -10.0009], [-37.3165, -10.0088], [-37.3312, -10.0139], [-37.3282, -10.0102], [-37.3333, -10.0034], [-37.3319, -9.9934], [-37.3373, -9.9865], [-37.3419, -9.9911], [-37.3408, -9.9977], [-37.3472, -9.9995], [-37.3507, -9.9937], [-37.3523, -9.9966], [-37.355, -10.0026], [-37.348, -10.0044], [-37.3502, -10.0135], [-37.3644, -10.0144], [-37.3679, -10.0069], [-37.3789, -10.0109], [-37.372, -10.0188], [-37.3792, -10.0212], [-37.3767, -10.0246], [-37.3841, -10.032], [-37.3826, -10.0365], [-37.395, -10.0492], [-37.4008, -10.0457], [-37.4022, -10.0525], [-37.4109, -10.0526], [-37.4203, -10.0625], [-37.4107, -10.0649], [-37.3317, -10.1286], [-37.3458, -10.1563], [-37.2864, -10.1566], [-37.2823, -10.1582], [-37.2841, -10.1656], [-37.28, -10.171], [-37.2627, -10.1632], [-37.26, -10.1559], [-37.2494, -10.1532], [-37.2463, -10.1476], [-37.2368, -10.1591], [-37.2276, -10.1534], [-37.2207, -10.1548], [-37.2237, -10.1453], [-37.2195, -10.1306], [-37.2252, -10.1191], [-37.2218, -10.1133], [-37.2303, -10.1159], [-37.2302, -10.1045], [-37.2234, -10.1], [-37.2165, -10.103], [-37.2163, -10.0902], [-37.2057, -10.0956], [-37.2115, -10.0785], [-37.1988, -10.0805], [-37.197, -10.0758], [-37.1842, -10.0724], [-37.1875, -10.0674], [-37.1964, -10.0675], [-37.1859, -10.0565], [-37.1925, -10.0496], [-37.1878, -10.0307], [-37.1664, -10.051], [-37.128, -10.0568], [-37.1128, -10.052], [-37.1035, -10.0544], [-37.1026, -10.051], [-37.0615, -10.0614], [-37.0298, -10.0569], [-37.0053, -10.0373], [-36.9574, -10.024], [-36.9639, -9.9975], [-36.9726, -9.9879], [-37.0003, -9.9753], [-37.0378, -9.9891], [-37.0497, -9.9865], [-37.1529, -9.9009], [-37.2265, -9.8995]]]}}, {"type": "Feature", "properties": {"osm_type": "relation", "osm_id": 311139752, "name": "General Maynard", "admin_level": "6", "kind": "subdivision_2", "parent_osm_id": 303940, "parent_name": "Sergipe", "parent_iso": "BR-SE"}, "geometry": {"type": "Polygon", "coordinates": [[[-37.0111, -10.6738], [-37.0157, -10.6838], [-37.0031, -10.6979], [-36.9933, -10.703], [-36.9612, -10.704], [-36.9496, -10.7124], [-36.9329, -10.6943], [-36.9174, -10.6864], [-36.9728, -10.6852], [-37.0111, -10.6738]]]}}, {"type": "Feature", "properties": {"osm_type": "relation", "osm_id": 136673044, "name": "Gracho Cardoso", "admin_level": "6", "kind": "subdivision_2", "parent_osm_id": 303940, "parent_name": "Sergipe", "parent_iso": "BR-SE"}, "geometry": {"type": "Polygon", "coordinates": [[[-37.1516, -10.1642], [-37.1804, -10.174], [-37.1919, -10.1592], [-37.1956, -10.1628], [-37.2043, -10.1562], [-37.2039, -10.1474], [-37.219, -10.1361], [-37.2237, -10.1453], [-37.2207, -10.1548], [-37.2276, -10.1534], [-37.2368, -10.1591], [-37.2463, -10.1476], [-37.2494, -10.1532], [-37.26, -10.1559], [-37.2627, -10.1632], [-37.28, -10.171], [-37.2841, -10.1656], [-37.2823, -10.1582], [-37.3141, -10.1537], [-37.3323, -10.2109], [-37.2606, -10.2392], [-37.224, -10.2973], [-37.1999, -10.2974], [-37.1757, -10.3105], [-37.1679, -10.3271], [-37.1729, -10.3384], [-37.167, -10.3413], [-37.1616, -10.3304], [-37.1499, -10.3221], [-37.1552, -10.307], [-37.148, -10.3021], [-37.1489, -10.289], [-37.1381, -10.2748], [-37.1411, -10.2468], [-37.1493, -10.2407], [-37.1505, -10.23], [-37.1428, -10.2038], [-37.1361, -10.1969], [-37.1541, -10.1863], [-37.1516, -10.1642]]]}}, {"type": "Feature", "properties": {"osm_type": "relation", "osm_id": 611415880, "name": "Ilha das Flores", "admin_level": "6", "kind": "subdivision_2", "parent_osm_id": 303940, "parent_name": "Sergipe", "parent_iso": "BR-SE"}, "geometry": {"type": "Polygon", "coordinates": [[[-36.563, -10.4196], [-36.5669, -10.4326], [-36.579, -10.438], [-36.5861, -10.4503], [-36.5918, -10.4468], [-36.5951, -10.45], [-36.5985, -10.476], [-36.5925, -10.4816], [-36.6, -10.4966], [-36.5842, -10.4997], [-36.5273, -10.4652], [-36.5103, -10.4451], [-36.484, -10.437], [-36.4882, -10.4233], [-36.51, -10.4328], [-36.5222, -10.4331], [-36.5114, -10.4213], [-36.539, -10.4225], [-36.5447, -10.43], [-36.563, -10.4196]]]}}, {"type": "Feature", "properties": {"osm_type": "relation", "osm_id": 115108559, "name": "Indiaroba", "admin_level": "6", "kind": "subdivision_2", "parent_osm_id": 303940, "parent_name": "Sergipe", "parent_iso": "BR-SE"}, "geometry": {"type": "Polygon", "coordinates": [[[-37.6321, -11.5191], [-37.6281, -11.5296], [-37.6169, -11.538], [-37.6038, -11.5396], [-37.5882, -11.5285], [-37.5822, -11.531], [-37.585, -11.5434], [-37.5783, -11.5515], [-37.5684, -11.5392], [-37.5559, -11.5503], [-37.5201, -11.5489], [-37.5158, -11.5356], [-37.5057, -11.5258], [-37.4555, -11.523], [-37.411, -11.4955], [-37.3681, -11.459], [-37.4003, -11.4354], [-37.4087, -11.4238], [-37.42, -11.4301], [-37.4332, -11.424], [-37.4408, -11.426], [-37.4467, -11.4417], [-37.4735, -11.4506], [-37.4937, -11.4422], [-37.5076, -11.4142], [-37.5257, -11.4215], [-37.5356, -11.4152], [-37.5587, -11.4137], [-37.6023, -11.3888], [-37.6538, -11.4806], [-37.6465, -11.4879], [-37.6458, -11.5036], [-37.637, -11.5021], [-37.6321, -11.5191]]]}}, {"type": "Feature", "properties": {"osm_type": "relation", "osm_id": 130304844, "name": "Itabaiana", "admin_level": "6", "kind": "subdivision_2", "parent_osm_id": 303940, "parent_name": "Sergipe", "parent_iso": "BR-SE"}, "geometry": {"type": "Polygon", "coordinates": [[[-37.3344, -10.7223], [-37.3205, -10.6921], [-37.3305, -10.6538], [-37.3546, -10.6559], [-37.3762, -10.6245], [-37.3807, -10.6305], [-37.3881, -10.6286], [-37.3878, -10.5985], [-37.3937, -10.5825], [-37.4227, -10.5763], [-37.4597, -10.5943], [-37.4745, -10.5664], [-37.5094, -10.6262], [-37.5304, -10.6458], [-37.5181, -10.6574], [-37.5177, -10.6668], [-37.5077, -10.6722], [-37.4993, -10.6924], [-37.464, -10.7121], [-37.4553, -10.7244], [-37.4494, -10.7467], [-37.4513, -10.7674], [-37.44, -10.7812], [-37.4464, -10.7832], [-37.4481, -10.7921], [-37.4314, -10.8312], [-37.4026, -10.8253], [-37.3617, -10.7385], [-37.3344, -10.7223]]]}}, {"type": "Feature", "properties": {"osm_type": "relation", "osm_id": 260277304, "name": "Itabaianinha", "admin_level": "6", "kind": "subdivision_2", "parent_osm_id": 303940, "parent_name": "Sergipe", "parent_iso": "BR-SE"}, "geometry": {"type": "Polygon", "coordinates": [[[-37.6703, -11.239], [-37.6773, -11.2337], [-37.6858, -11.2103], [-37.7022, -11.1952], [-37.7, -11.1832], [-37.7126, -11.1672], [-37.7266, -11.1643], [-37.7372, -11.1499], [-37.7463, -11.1521], [-37.7777, -11.1319], [-37.7911, -11.1333], [-37.8465, -11.1607], [-37.8762, -11.1877], [-37.8667, -11.2093], [-37.868, -11.2208], [-37.8852, -11.2129], [-37.9048, -11.222], [-37.9221, -11.2414], [-37.9366, -11.2697], [-37.9304, -11.2797], [-37.9157, -11.2893], [-37.8994, -11.2758], [-37.8786, -11.288], [-37.8722, -11.2843], [-37.863, -11.2993], [-37.8505, -11.2981], [-37.8285, -11.3203], [-37.8189, -11.3195], [-37.8147, -11.3308], [-37.7918, -11.3484], [-37.7834, -11.3736], [-37.7704, -11.378], [-37.7683, -11.39], [-37.7618, -11.3938], [-37.7628, -11.4059], [-37.7502, -11.4038], [-37.7472, -11.4101], [-37.7352, -11.4069], [-37.6922, -11.3658], [-37.6921, -11.3081], [-37.6634, -11.29], [-37.6628, -11.2508], [-37.6703, -11.239]]]}}, {"type": "Feature", "properties": {"osm_type": "relation", "osm_id": 610306077, "name": "Itabi", "admin_level": "6", "kind": "subdivision_2", "parent_osm_id": 303940, "parent_name": "Sergipe", "parent_iso": "BR-SE"}, "geometry": {"type": "Polygon", "coordinates": [[[-37.0656, -10.1361], [-37.068, -10.0923], [-37.0615, -10.0614], [-37.1026, -10.051], [-37.1035, -10.0544], [-37.1128, -10.052], [-37.128, -10.0568], [-37.1664, -10.051], [-37.1878, -10.0307], [-37.1925, -10.0496], [-37.1859, -10.0565], [-37.1964, -10.0675], [-37.1875, -10.0674], [-37.1842, -10.0724], [-37.197, -10.0758], [-37.1988, -10.0805], [-37.2115, -10.0785], [-37.2057, -10.0956], [-37.2192, -10.0913], [-37.214, -10.1002], [-37.2289, -10.1007], [-37.232, -10.113], [-37.2218, -10.1133], [-37.2252, -10.1191], [-37.2195, -10.1306], [-37.2223, -10.1338], [-37.2039, -10.1474], [-37.2043, -10.1562], [-37.1956, -10.1628], [-37.1919, -10.1592], [-37.1804, -10.174], [-37.0656, -10.1361]]]}}, {"type": "Feature", "properties": {"osm_type": "relation", "osm_id": 931226002, "name": "Itaporanga d'Ajuda", "admin_level": "6", "kind": "subdivision_2", "parent_osm_id": 303940, "parent_name": "Sergipe", "parent_iso": "BR-SE"}, "geometry": {"type": "Polygon", "coordinates": [[[-37.1664, -11.1055], [-37.2184, -11.0772], [-37.2246, -11.0656], [-37.2271, -11.0406], [-37.2801, -11.0288], [-37.2868, -11.0149], [-37.293, -11.0175], [-37.3009, -11.0086], [-37.3056, -10.9853], [-37.3279, -10.9752], [-37.3255, -10.9698], [-37.3313, -10.9637], [-37.3347, -10.9441], [-37.3288, -10.9325], [-37.3185, -10.8333], [-37.3291, -10.8333], [-37.3408, -10.8477], [-37.3625, -10.8472], [-37.3759, -10.8525], [-37.4025, -10.8449], [-37.4042, -10.8286], [-37.4652, -10.893], [-37.4942, -10.9047], [-37.5027, -10.9019], [-37.4553, -10.9775], [-37.4268, -10.9889], [-37.4259, -11.0001], [-37.4131, -11.0098], [-37.4023, -11.0373], [-37.3756, -11.0717], [-37.369, -11.0725], [-37.3418, -11.1028], [-37.3361, -11.1161], [-37.3387, -11.1299], [-37.3315, -11.1414], [-37.3389, -11.1525], [-37.3371, -11.1656], [-37.3453, -11.1767], [-37.3485, -11.1973], [-37.3308, -11.2137], [-37.3286, -11.2373], [-37.2603, -11.2895], [-37.2087, -11.2248], [-37.1661, -11.1825], [-37.1541, -11.161], [-37.165, -11.1473], [-37.1664, -11.1055]]]}}, {"type": "Feature", "properties": {"osm_type": "relation", "osm_id": 768749250, "name": "Japaratuba", "admin_level": "6", "kind": "subdivision_2", "parent_osm_id": 303940, "parent_name": "Sergipe", "parent_iso": "BR-SE"}, "geometry": {"type": "Polygon", "coordinates": [[[-37.011, -10.642], [-36.9919, -10.6316], [-36.9688, -10.631], [-36.9611, -10.6493], [-36.933, -10.6545], [-36.9236, -10.6754], [-36.8939, -10.6608], [-36.7816, -10.5754], [-36.8082, -10.5738], [-36.809, -10.5486], [-36.8315, -10.531], [-36.8373, -10.5094], [-36.846, -10.4973], [-36.8556, -10.4974], [-36.8684, -10.4834], [-36.8751, -10.4375], [-36.8584, -10.4276], [-36.8574, -10.4196], [-36.869, -10.4182], [-36.8842, -10.3963], [-36.903, -10.4013], [-36.9054, -10.4157], [-36.9328, -10.4266], [-36.9563, -10.5237], [-36.9778, -10.5302], [-36.9759, -10.5426], [-37.011, -10.642]]]}}, {"type": "Feature", "properties": {"osm_type": "relation", "osm_id": 763179762, "name": "Japoatã", "admin_level": "6", "kind": "subdivision_2", "parent_osm_id": 303940, "parent_name": "Sergipe", "parent_iso": "BR-SE"}, "geometry": {"type": "Polygon", "coordinates": [[[-36.7816, -10.5754], [-36.7664, -10.579], [-36.7559, -10.5901], [-36.7455, -10.5609], [-36.753, -10.5531], [-36.7499, -10.5398], [-36.7206, -10.5271], [-36.7239, -10.5183], [-36.7177, -10.5142], [-36.719, -10.4757], [-36.7024, -10.4172], [-36.7092, -10.4027], [-36.7063, -10.3993], [-36.7336, -10.3634], [-36.7354, -10.3302], [-36.7405, -10.3206], [-36.7484, -10.3153], [-36.7607, -10.318], [-36.7781, -10.3079], [-36.7885, -10.3], [-36.7949, -10.2844], [-36.8022, -10.2943], [-36.8197, -10.2974], [-36.8216, -10.304], [-36.8097, -10.3276], [-36.8279, -10.33], [-36.8443, -10.3418], [-36.8449, -10.3686], [-36.8574, -10.3827], [-36.8916, -10.386], [-36.903, -10.4013], [-36.8842, -10.3963], [-36.869, -10.4182], [-36.8574, -10.4196], [-36.8584, -10.4276], [-36.8751, -10.4375], [-36.8684, -10.4834], [-36.8556, -10.4974], [-36.846, -10.4973], [-36.8373, -10.5094], [-36.8315, -10.531], [-36.809, -10.5486], [-36.8082, -10.5738], [-36.7816, -10.5754]]]}}, {"type": "Feature", "properties": {"osm_type": "relation", "osm_id": 754979830, "name": "Lagarto", "admin_level": "6", "kind": "subdivision_2", "parent_osm_id": 303940, "parent_name": "Sergipe", "parent_iso": "BR-SE"}, "geometry": {"type": "Polygon", "coordinates": [[[-37.5306, -10.995], [-37.5197, -10.9615], [-37.4553, -10.9775], [-37.5027, -10.9019], [-37.4942, -10.9047], [-37.4652, -10.893], [-37.456, -10.8822], [-37.4564, -10.8732], [-37.471, -10.8516], [-37.4806, -10.8585], [-37.4787, -10.8436], [-37.4899, -10.8311], [-37.5095, -10.8361], [-37.5172, -10.8452], [-37.544, -10.8355], [-37.5736, -10.8394], [-37.5949, -10.8261], [-37.6005, -10.8147], [-37.6104, -10.8106], [-37.6142, -10.7985], [-37.6005, -10.7799], [-37.6202, -10.7491], [-37.6318, -10.7487], [-37.6299, -10.7256], [-37.6162, -10.7129], [-37.6232, -10.7073], [-37.643, -10.7115], [-37.6467, -10.7093], [-37.6425, -10.6992], [-37.6463, -10.6968], [-37.6624, -10.7169], [-37.6699, -10.7083], [-37.6805, -10.727], [-37.7072, -10.7389], [-37.7093, -10.7536], [-37.7208, -10.7671], [-37.7183, -10.7707], [-37.7323, -10.7964], [-37.8046, -10.8391], [-37.8138, -10.8698], [-37.8283, -10.859], [-37.8608, -10.8693], [-37.8743, -10.8662], [-37.8662, -10.8958], [-37.8748, -10.9195], [-37.847, -10.9339], [-37.836, -10.9519], [-37.8398, -10.9579], [-37.8395, -10.9707], [-37.8341, -10.9764], [-37.8358, -10.9882], [-37.8286, -10.9884], [-37.8207, -11.0044], [-37.8122, -11.0036], [-37.809, -11.01], [-37.7937, -11.0175], [-37.7856, -11.0075], [-37.7775, -11.0061], [-37.7736, -11.0161], [-37.7571, -11.0044], [-37.7422, -11.0104], [-37.7429, -10.9904], [-37.7252, -10.9939], [-37.7093, -11.0036], [-37.6906, -11.0261], [-37.6732, -11.023], [-37.6532, -11.045], [-37.6432, -11.047], [-37.6355, -11.0624], [-37.6192, -11.0678], [-37.5665, -11.0385], [-37.5685, -11.0254], [-37.5306, -10.995]]]}}, {"type": "Feature", "properties": {"osm_type": "relation", "osm_id": 594800550, "name": "Laranjeiras", "admin_level": "6", "kind": "subdivision_2", "parent_osm_id": 303940, "parent_name": "Sergipe", "parent_iso": "BR-SE"}, "geometry": {"type": "Polygon", "coordinates": [[[-37.3158, -10.8314], [-37.2412, -10.8342], [-37.2148, -10.8479], [-37.1793, -10.8541], [-37.1733, -10.8426], [-37.1574, -10.8332], [-37.1179, -10.8319], [-37.1015, -10.8181], [-37.09, -10.8232], [-37.066, -10.8231], [-37.0753, -10.8075], [-37.0873, -10.7984], [-37.0902, -10.7799], [-37.1031, -10.7748], [-37.1265, -10.786], [-37.1342, -10.7766], [-37.1314, -10.7697], [-37.1416, -10.7654], [-37.1514, -10.7692], [-37.1617, -10.7502], [-37.2168, -10.7639], [-37.2221, -10.7587], [-37.3158, -10.8314]]]}}, {"type": "Feature", "properties": {"osm_type": "relation", "osm_id": 236829626, "name": "Macambira", "admin_level": "6", "kind": "subdivision_2", "parent_osm_id": 303940, "parent_name": "Sergipe", "parent_iso": "BR-SE"}, "geometry": {"type": "Polygon", "coordinates": [[[-37.5012, -10.6866], [-37.5077, -10.6722], [-37.5177, -10.6668], [-37.5181, -10.6574], [-37.5586, -10.6194], [-37.6406, -10.6048], [-37.6489, -10.6165], [-37.6518, -10.6375], [-37.6682, -10.6755], [-37.6642, -10.6812], [-37.6613, -10.7022], [-37.666, -10.7083], [-37.6624, -10.7169], [-37.6463, -10.6968], [-37.6425, -10.6992], [-37.6467, -10.7093], [-37.643, -10.7115], [-37.6232, -10.7073], [-37.6112, -10.7124], [-37.6065, -10.6966], [-37.5943, -10.6966], [-37.5855, -10.6814], [-37.5497, -10.6974], [-37.5268, -10.6886], [-37.5012, -10.6866]]]}}, {"type": "Feature", "properties": {"osm_type": "relation", "osm_id": 412038594, "name": "Malhada dos Bois", "admin_level": "6", "kind": "subdivision_2", "parent_osm_id": 303940, "parent_name": "Sergipe", "parent_iso": "BR-SE"}, "geometry": {"type": "Polygon", "coordinates": [[[-37.0097, -10.3037], [-36.9695, -10.3372], [-36.9157, -10.3933], [-36.9127, -10.3705], [-36.9007, -10.3501], [-36.902, -10.3235], [-36.9359, -10.3067], [-36.9337, -10.2761], [-36.9561, -10.29], [-37.0097, -10.3037]]]}}, {"type": "Feature", "properties": {"osm_type": "relation", "osm_id": 204436368, "name": "Malhador", "admin_level": "6", "kind": "subdivision_2", "parent_osm_id": 303940, "parent_name": "Sergipe", "parent_iso": "BR-SE"}, "geometry": {"type": "Polygon", "coordinates": [[[-37.2822, -10.7192], [-37.2755, -10.7114], [-37.2687, -10.7149], [-37.2596, -10.7024], [-37.2495, -10.7072], [-37.2365, -10.7075], [-37.2299, -10.702], [-37.226, -10.7073], [-37.2242, -10.7046], [-37.2304, -10.6957], [-37.2291, -10.6764], [-37.2448, -10.6607], [-37.2469, -10.6483], [-37.2593, -10.6484], [-37.2687, -10.6344], [-37.2786, -10.6325], [-37.2807, -10.6209], [-37.294, -10.6109], [-37.2964, -10.601], [-37.3261, -10.6231], [-37.3323, -10.6396], [-37.3205, -10.6921], [-37.3344, -10.7223], [-37.3219, -10.7296], [-37.3109, -10.7299], [-37.3158, -10.7387], [-37.2822, -10.7192]]]}}, {"type": "Feature", "properties": {"osm_type": "relation", "osm_id": 205550345, "name": "Maruim", "admin_level": "6", "kind": "subdivision_2", "parent_osm_id": 303940, "parent_name": "Sergipe", "parent_iso": "BR-SE"}, "geometry": {"type": "Polygon", "coordinates": [[[-37.1617, -10.7502], [-37.1514, -10.7692], [-37.1416, -10.7654], [-37.1314, -10.7697], [-37.1342, -10.7766], [-37.1265, -10.786], [-37.1031, -10.7748], [-37.088, -10.7842], [-37.0747, -10.7787], [-37.0688, -10.7685], [-37.0618, -10.7145], [-37.0523, -10.7013], [-37.0586, -10.6916], [-37.0877, -10.6823], [-37.0901, -10.6555], [-37.1155, -10.6849], [-37.1213, -10.7019], [-37.143, -10.7013], [-37.1471, -10.7185], [-37.1535, -10.7257], [-37.151, -10.7376], [-37.1617, -10.7502]]]}}, {"type": "Feature", "properties": {"osm_type": "relation", "osm_id": 278743332, "name": "Moita Bonita", "admin_level": "6", "kind": "subdivision_2", "parent_osm_id": 303940, "parent_name": "Sergipe", "parent_iso": "BR-SE"}, "geometry": {"type": "Polygon", "coordinates": [[[-37.3305, -10.6538], [-37.3323, -10.6396], [-37.3261, -10.6231], [-37.2932, -10.5945], [-37.2826, -10.5882], [-37.2661, -10.5866], [-37.2503, -10.5944], [-37.2631, -10.5779], [-37.3042, -10.5732], [-37.3136, -10.5569], [-37.3115, -10.547], [-37.3196, -10.541], [-37.3462, -10.54], [-37.3628, -10.549], [-37.3645, -10.5584], [-37.3924, -10.5781], [-37.3881, -10.6286], [-37.3807, -10.6305], [-37.3762, -10.6245], [-37.3546, -10.6559], [-37.3305, -10.6538]]]}}, {"type": "Feature", "properties": {"osm_type": "relation", "osm_id": 744775119, "name": "Monte Alegre de Sergipe", "admin_level": "6", "kind": "subdivision_2", "parent_osm_id": 303940, "parent_name": "Sergipe", "parent_iso": "BR-SE"}, "geometry": {"type": "Polygon", "coordinates": [[[-37.4203, -10.0625], [-37.4701, -10.0225], [-37.5633, -9.999], [-37.5854, -9.999], [-37.587, -10.0103], [-37.597, -10.0217], [-37.6085, -10.0199], [-37.6146, -10.0255], [-37.6331, -10.0235], [-37.6374, -10.0183], [-37.6448, -10.0216], [-37.6555, -10.0138], [-37.6632, -10.0138], [-37.6714, -10.0239], [-37.6826, -10.0281], [-37.7022, -10.0144], [-37.7232, -10.0273], [-37.7321, -10.0226], [-37.7387, -10.0284], [-37.7598, -10.027], [-37.7926, -10.0331], [-37.7827, -10.044], [-37.8003, -10.0927], [-37.801, -10.1126], [-37.7779, -10.1354], [-37.7856, -10.0955], [-37.7446, -10.1115], [-37.7287, -10.1126], [-37.7231, -10.119], [-37.696, -10.1281], [-37.6859, -10.1222], [-37.6715, -10.1292], [-37.661, -10.1281], [-37.645, -10.1109], [-37.6295, -10.1029], [-37.6225, -10.1049], [-37.6159, -10.0954], [-37.6038, -10.1024], [-37.5895, -10.0905], [-37.564, -10.1076], [-37.5566, -10.1212], [-37.5515, -10.1126], [-37.5327, -10.1137], [-37.5228, -10.1057], [-37.5163, -10.1083], [-37.5119, -10.1017], [-37.505, -10.1039], [-37.4966, -10.0976], [-37.4907, -10.101], [-37.4812, -10.0896], [-37.4757, -10.0946], [-37.4657, -10.0922], [-37.4594, -10.0964], [-37.4592, -10.1029], [-37.4373, -10.1026], [-37.44, -10.0913], [-37.433, -10.0864], [-37.4404, -10.0847], [-37.4422, -10.0769], [-37.4354, -10.072], [-37.4284, -10.0764], [-37.4293, -10.0655], [-37.4127, -10.0748], [-37.4203, -10.0625]]]}}, {"type": "Feature", "properties": {"osm_type": "relation", "osm_id": 334597257, "name": "Muribeca", "admin_level": "6", "kind": "subdivision_2", "parent_osm_id": 303940, "parent_name": "Sergipe", "parent_iso": "BR-SE"}, "geometry": {"type": "Polygon", "coordinates": [[[-37.0185, -10.3321], [-37.0064, -10.3269], [-36.9989, -10.3307], [-36.9973, -10.3525], [-36.9849, -10.3704], [-36.9784, -10.3725], [-36.9853, -10.3841], [-36.9832, -10.4032], [-36.9616, -10.4411], [-36.9362, -10.4494], [-36.9328, -10.4266], [-36.9054, -10.4157], [-36.903, -10.4013], [-37.0097, -10.3037], [-37.0185, -10.3321]]]}}, {"type": "Feature", "properties": {"osm_type": "relation", "osm_id": 930696879, "name": "Neópolis", "admin_level": "6", "kind": "subdivision_2", "parent_osm_id": 303940, "parent_name": "Sergipe", "parent_iso": "BR-SE"}, "geometry": {"type": "Polygon", "coordinates": [[[-36.7017, -10.2711], [-36.7062, -10.2824], [-36.7354, -10.2823], [-36.7446, -10.2655], [-36.7611, -10.2553], [-36.7757, -10.2647], [-36.7874, -10.2636], [-36.7982, -10.2797], [-36.8045, -10.2818], [-36.7949, -10.2844], [-36.7885, -10.3], [-36.7781, -10.3079], [-36.7607, -10.318], [-36.7484, -10.3153], [-36.7405, -10.3206], [-36.7354, -10.3302], [-36.7336, -10.3634], [-36.7186, -10.3783], [-36.7019, -10.4057], [-36.6465, -10.4004], [-36.5988, -10.4151], [-36.6074, -10.4207], [-36.6092, -10.4276], [-36.5994, -10.4912], [-36.5925, -10.4816], [-36.5985, -10.476], [-36.5951, -10.45], [-36.5918, -10.4468], [-36.5861, -10.4503], [-36.579, -10.438], [-36.5669, -10.4326], [-36.563, -10.4196], [-36.5616, -10.3849], [-36.5685, -10.3625], [-36.5661, -10.3285], [-36.5742, -10.3151], [-36.5913, -10.3026], [-36.654, -10.3203], [-36.6823, -10.2729], [-36.7017, -10.2711]]]}}, {"type": "Feature", "properties": {"osm_type": "relation", "osm_id": 336555719, "name": "Nossa Senhora Aparecida", "admin_level": "6", "kind": "subdivision_2", "parent_osm_id": 303940, "parent_name": "Sergipe", "parent_iso": "BR-SE"}, "geometry": {"type": "Polygon", "coordinates": [[[-37.5759, -10.3696], [-37.5583, -10.4439], [-37.5477, -10.4614], [-37.4745, -10.4599], [-37.4211, -10.4018], [-37.4106, -10.4157], [-37.4126, -10.346], [-37.4033, -10.29], [-37.4071, -10.2907], [-37.4103, -10.3039], [-37.419, -10.3062], [-37.4267, -10.3018], [-37.4291, -10.3068], [-37.4361, -10.2978], [-37.447, -10.2945], [-37.4471, -10.2896], [-37.4562, -10.2893], [-37.4616, -10.2784], [-37.4703, -10.2893], [-37.4832, -10.2937], [-37.4885, -10.2838], [-37.4984, -10.2932], [-37.5064, -10.291], [-37.512, -10.296], [-37.5144, -10.2893], [-37.5367, -10.2777], [-37.5429, -10.2682], [-37.5393, -10.2592], [-37.5517, -10.2587], [-37.555, -10.2661], [-37.5587, -10.2584], [-37.5678, -10.2557], [-37.5699, -10.2482], [-37.581, -10.2417], [-37.5898, -10.2444], [-37.5938, -10.2513], [-37.5976, -10.25], [-37.6114, -10.2774], [-37.5781, -10.3296], [-37.5759, -10.3696]]]}}, {"type": "Feature", "properties": {"osm_type": "relation", "osm_id": 557600500, "name": "Nossa Senhora da Glória", "admin_level": "6", "kind": "subdivision_2", "parent_osm_id": 303940, "parent_name": "Sergipe", "parent_iso": "BR-SE"}, "geometry": {"type": "Polygon", "coordinates": [[[-37.5976, -10.25], [-37.581, -10.2417], [-37.5699, -10.2482], [-37.562, -10.2602], [-37.5587, -10.2584], [-37.555, -10.2661], [-37.5517, -10.2587], [-37.5393, -10.2592], [-37.5429, -10.2682], [-37.5367, -10.2777], [-37.5144, -10.2893], [-37.512, -10.296], [-37.5064, -10.291], [-37.4984, -10.2932], [-37.4885, -10.2838], [-37.4832, -10.2937], [-37.4703, -10.2893], [-37.4616, -10.2784], [-37.4562, -10.2893], [-37.4471, -10.2896], [-37.447, -10.2945], [-37.4361, -10.2978], [-37.4291, -10.3068], [-37.4267, -10.3018], [-37.419, -10.3062], [-37.4103, -10.3039], [-37.4071, -10.2907], [-37.4033, -10.29], [-37.4084, -10.2456], [-37.3971, -10.2569], [-37.3836, -10.2182], [-37.3323, -10.2109], [-37.3141, -10.1537], [-37.3458, -10.1563], [-37.3317, -10.1286], [-37.4107, -10.0649], [-37.4203, -10.0625], [-37.4127, -10.0748], [-37.4293, -10.0655], [-37.4284, -10.0764], [-37.4354, -10.072], [-37.4422, -10.0769], [-37.4404, -10.0847], [-37.433, -10.0864], [-37.44, -10.0913], [-37.4373, -10.1026], [-37.4592, -10.1029], [-37.4594, -10.0964], [-37.4657, -10.0922], [-37.4757, -10.0946], [-37.4812, -10.0896], [-37.4907, -10.101], [-37.4966, -10.0976], [-37.505, -10.1039], [-37.5119, -10.1017], [-37.5163, -10.1083], [-37.5228, -10.1057], [-37.5327, -10.1137], [-37.5515, -10.1126], [-37.5566, -10.1212], [-37.564, -10.1076], [-37.5895, -10.0905], [-37.6038, -10.1024], [-37.6159, -10.0954], [-37.6225, -10.1049], [-37.6295, -10.1029], [-37.645, -10.1109], [-37.661, -10.1281], [-37.6715, -10.1292], [-37.6859, -10.1222], [-37.696, -10.1281], [-37.7231, -10.119], [-37.7287, -10.1126], [-37.7446, -10.1115], [-37.7856, -10.0955], [-37.7817, -10.1248], [-37.7737, -10.1422], [-37.7823, -10.176], [-37.7788, -10.188], [-37.7552, -10.1983], [-37.7186, -10.188], [-37.7022, -10.1925], [-37.6935, -10.2071], [-37.674, -10.2069], [-37.6292, -10.2404], [-37.6162, -10.2423], [-37.612, -10.2487], [-37.6073, -10.2409], [-37.5976, -10.25]]]}}, {"type": "Feature", "properties": {"osm_type": "relation", "osm_id": 197222294, "name": "Nossa Senhora das Dores", "admin_level": "6", "kind": "subdivision_2", "parent_osm_id": 303940, "parent_name": "Sergipe", "parent_iso": "BR-SE"}, "geometry": {"type": "Polygon", "coordinates": [[[-37.1184, -10.4085], [-37.1319, -10.4067], [-37.1442, -10.4172], [-37.1604, -10.4109], [-37.179, -10.4171], [-37.1922, -10.4057], [-37.2074, -10.4025], [-37.2407, -10.3559], [-37.2396, -10.342], [-37.2492, -10.3207], [-37.2356, -10.3029], [-37.2406, -10.2977], [-37.2546, -10.305], [-37.2665, -10.3039], [-37.2729, -10.3076], [-37.2711, -10.3145], [-37.2799, -10.3118], [-37.3018, -10.3271], [-37.3084, -10.3464], [-37.3172, -10.352], [-37.3166, -10.3586], [-37.3272, -10.3737], [-37.3449, -10.3792], [-37.3402, -10.3853], [-37.3471, -10.3996], [-37.3357, -10.4], [-37.3313, -10.4166], [-37.3252, -10.4191], [-37.3336, -10.4256], [-37.3313, -10.4312], [-37.3189, -10.4337], [-37.3086, -10.4264], [-37.3016, -10.4357], [-37.2953, -10.4331], [-37.2945, -10.4481], [-37.2885, -10.4543], [-37.2915, -10.4637], [-37.2749, -10.4647], [-37.351, -10.4908], [-37.3598, -10.4832], [-37.3468, -10.5068], [-37.3167, -10.5457], [-37.3115, -10.547], [-37.3136, -10.5569], [-37.3042, -10.5732], [-37.2631, -10.5779], [-37.2503, -10.5944], [-37.221, -10.61], [-37.2058, -10.6239], [-37.2053, -10.6035], [-37.177, -10.5804], [-37.1708, -10.5706], [-37.1808, -10.5628], [-37.1396, -10.507], [-37.1361, -10.4527], [-37.1205, -10.443], [-37.1098, -10.4187], [-37.1184, -10.4085]]]}}, {"type": "Feature", "properties": {"osm_type": "relation", "osm_id": 817200895, "name": "Nossa Senhora de Lourdes", "admin_level": "6", "kind": "subdivision_2", "parent_osm_id": 303940, "parent_name": "Sergipe", "parent_iso": "BR-SE"}, "geometry": {"type": "Polygon", "coordinates": [[[-36.9574, -10.024], [-37.0053, -10.0373], [-37.0298, -10.0569], [-37.0615, -10.0614], [-37.068, -10.0923], [-37.0656, -10.1361], [-37.0554, -10.1269], [-37.0465, -10.1255], [-37.0393, -10.1367], [-36.9896, -10.0846], [-36.954, -10.0714], [-36.9591, -10.0505], [-36.9574, -10.024]]]}}, {"type": "Feature", "properties": {"osm_type": "relation", "osm_id": 627154488, "name": "Nossa Senhora do Socorro", "admin_level": "6", "kind": "subdivision_2", "parent_osm_id": 303940, "parent_name": "Sergipe", "parent_iso": "BR-SE"}, "geometry": {"type": "Polygon", "coordinates": [[[-37.0349, -10.8691], [-37.0284, -10.8474], [-37.0309, -10.8399], [-37.0461, -10.8257], [-37.0572, -10.823], [-37.09, -10.8232], [-37.1015, -10.8181], [-37.1179, -10.8319], [-37.1574, -10.8332], [-37.1733, -10.8426], [-37.1793, -10.8541], [-37.2148, -10.8479], [-37.2412, -10.8342], [-37.3073, -10.8324], [-37.2921, -10.85], [-37.2652, -10.8479], [-37.2494, -10.8547], [-37.2441, -10.8648], [-37.2177, -10.8771], [-37.2069, -10.8751], [-37.1981, -10.888], [-37.1912, -10.8861], [-37.1743, -10.8995], [-37.1712, -10.9128], [-37.1604, -10.9235], [-37.1453, -10.9284], [-37.1131, -10.9159], [-37.1025, -10.9166], [-37.1068, -10.9033], [-37.1027, -10.896], [-37.105, -10.8902], [-37.0969, -10.8843], [-37.1029, -10.8771], [-37.0924, -10.874], [-37.0823, -10.8629], [-37.0742, -10.8642], [-37.067, -10.8764], [-37.0529, -10.8628], [-37.0349, -10.8691]]]}}, {"type": "Feature", "properties": {"osm_type": "relation", "osm_id": 911797022, "name": "Pacatuba", "admin_level": "6", "kind": "subdivision_2", "parent_osm_id": 303940, "parent_name": "Sergipe", "parent_iso": "BR-SE"}, "geometry": {"type": "Polygon", "coordinates": [[[-36.5842, -10.4997], [-36.6, -10.4966], [-36.6092, -10.4276], [-36.6074, -10.4207], [-36.5988, -10.4151], [-36.6465, -10.4004], [-36.7019, -10.4057], [-36.7063, -10.3993], [-36.7092, -10.4027], [-36.7024, -10.4172], [-36.719, -10.4757], [-36.7177, -10.5142], [-36.7239, -10.5183], [-36.7206, -10.5271], [-36.7499, -10.5398], [-36.753, -10.5531], [-36.7455, -10.5609], [-36.7555, -10.5938], [-36.6732, -10.6298], [-36.5871, -10.5738], [-36.4934, -10.5388], [-36.4975, -10.5377], [-36.495, -10.5346], [-36.4853, -10.5293], [-36.4994, -10.513], [-36.5842, -10.4997]]]}}, {"type": "Feature", "properties": {"osm_type": "relation", "osm_id": 748911012, "name": "Pedra Mole", "admin_level": "6", "kind": "subdivision_2", "parent_osm_id": 303940, "parent_name": "Sergipe", "parent_iso": "BR-SE"}, "geometry": {"type": "Polygon", "coordinates": [[[-37.6885, -10.5319], [-37.696, -10.5823], [-37.7041, -10.5909], [-37.7055, -10.6065], [-37.7157, -10.6137], [-37.7196, -10.6244], [-37.716, -10.6338], [-37.7073, -10.6339], [-37.7016, -10.641], [-37.6943, -10.6397], [-37.7134, -10.6699], [-37.7054, -10.6691], [-37.7027, -10.6776], [-37.6831, -10.6854], [-37.6852, -10.6933], [-37.6742, -10.7025], [-37.6845, -10.709], [-37.6766, -10.7147], [-37.6699, -10.7083], [-37.6654, -10.7112], [-37.6613, -10.7022], [-37.6682, -10.6755], [-37.6518, -10.6375], [-37.6489, -10.6165], [-37.6406, -10.6048], [-37.6885, -10.5319]]]}}, {"type": "Feature", "properties": {"osm_type": "relation", "osm_id": 508883692, "name": "Pedrinhas", "admin_level": "6", "kind": "subdivision_2", "parent_osm_id": 303940, "parent_name": "Sergipe", "parent_iso": "BR-SE"}, "geometry": {"type": "Polygon", "coordinates": [[[-37.5963, -11.2038], [-37.6372, -11.1988], [-37.6708, -11.1837], [-37.6783, -11.1892], [-37.6914, -11.1712], [-37.7041, -11.1898], [-37.6858, -11.2103], [-37.6773, -11.2337], [-37.6703, -11.239], [-37.6606, -11.2191], [-37.6062, -11.2156], [-37.5968, -11.2119], [-37.5963, -11.2038]]]}}, {"type": "Feature", "properties": {"osm_type": "relation", "osm_id": 328634849, "name": "Pinhão", "admin_level": "6", "kind": "subdivision_2", "parent_osm_id": 303940, "parent_name": "Sergipe", "parent_iso": "BR-SE"}, "geometry": {"type": "Polygon", "coordinates": [[[-37.8149, -10.517], [-37.8222, -10.5312], [-37.8203, -10.5378], [-37.8405, -10.5531], [-37.833, -10.5609], [-37.8311, -10.5788], [-37.8272, -10.5806], [-37.8297, -10.5849], [-37.8182, -10.5858], [-37.8145, -10.5956], [-37.8061, -10.6], [-37.8004, -10.5919], [-37.7747, -10.6021], [-37.7677, -10.6076], [-37.7655, -10.6194], [-37.7513, -10.6217], [-37.7397, -10.6323], [-37.7251, -10.6319], [-37.7217, -10.6345], [-37.7239, -10.6406], [-37.7163, -10.6449], [-37.7073, -10.6339], [-37.716, -10.6338], [-37.7183, -10.6177], [-37.7055, -10.6065], [-37.7041, -10.5909], [-37.696, -10.5823], [-37.6885, -10.5319], [-37.7224, -10.5099], [-37.7314, -10.5161], [-37.7722, -10.507], [-37.7851, -10.5117], [-37.7983, -10.5099], [-37.8149, -10.517]]]}}, {"type": "Feature", "properties": {"osm_type": "relation", "osm_id": 666270379, "name": "Pirambu", "admin_level": "6", "kind": "subdivision_2", "parent_osm_id": 303940, "parent_name": "Sergipe", "parent_iso": "BR-SE"}, "geometry": {"type": "Polygon", "coordinates": [[[-36.8541, -10.7434], [-36.7833, -10.6875], [-36.7347, -10.6581], [-36.6732, -10.6298], [-36.7555, -10.5938], [-36.7664, -10.579], [-36.7816, -10.5754], [-36.8939, -10.6608], [-36.9236, -10.6754], [-36.9098, -10.6769], [-36.9018, -10.6864], [-36.9008, -10.7031], [-36.8922, -10.7036], [-36.8875, -10.6971], [-36.8774, -10.6981], [-36.8695, -10.7129], [-36.8718, -10.7419], [-36.8541, -10.7434]]]}}, {"type": "Feature", "properties": {"osm_type": "relation", "osm_id": 171486003, "name": "Poço Redondo", "admin_level": "6", "kind": "subdivision_2", "parent_osm_id": 303940, "parent_name": "Sergipe", "parent_iso": "BR-SE"}, "geometry": {"type": "Polygon", "coordinates": [[[-37.6595, -9.6776], [-37.6665, -9.666], [-37.8311, -9.7032], [-37.8346, -9.7097], [-37.844, -9.7492], [-37.8444, -9.7753], [-37.8536, -9.7795], [-37.8692, -9.8409], [-37.8716, -9.8823], [-37.8656, -9.8965], [-37.8861, -9.9131], [-37.9003, -9.9145], [-37.9125, -9.933], [-37.9089, -9.9398], [-37.8955, -9.9428], [-37.8954, -9.9552], [-37.8724, -9.9801], [-37.8473, -9.9947], [-37.8252, -10.0241], [-37.8259, -10.036], [-37.808, -10.0312], [-37.7387, -10.0284], [-37.7321, -10.0226], [-37.7232, -10.0273], [-37.7022, -10.0144], [-37.6826, -10.0281], [-37.6714, -10.0239], [-37.6638, -9.9984], [-37.6501, -9.9927], [-37.6407, -9.9787], [-37.6093, -9.9696], [-37.6037, -9.9626], [-37.4666, -9.7492], [-37.5782, -9.7364], [-37.6548, -9.6864], [-37.6595, -9.6776]]]}}, {"type": "Feature", "properties": {"osm_type": "relation", "osm_id": 981687437, "name": "Poço Verde", "admin_level": "6", "kind": "subdivision_2", "parent_osm_id": 303940, "parent_name": "Sergipe", "parent_iso": "BR-SE"}, "geometry": {"type": "Polygon", "coordinates": [[[-37.9713, -10.7573], [-37.9786, -10.7567], [-38.0245, -10.7262], [-38.0319, -10.7266], [-38.0312, -10.7118], [-38.0415, -10.7008], [-38.0662, -10.7149], [-38.099, -10.7125], [-38.1326, -10.7197], [-38.1681, -10.712], [-38.1765, -10.7057], [-38.2083, -10.7121], [-38.2155, -10.7281], [-38.2103, -10.7613], [-38.2185, -10.7821], [-38.2379, -10.8006], [-38.2354, -10.8123], [-38.2437, -10.8238], [-38.232, -10.8435], [-38.2382, -10.867], [-38.2279, -10.9138], [-38.212, -10.9302], [-38.2047, -10.9233], [-38.1997, -10.9273], [-38.2018, -10.9359], [-38.1955, -10.941], [-38.17, -10.9412], [-38.1698, -10.9267], [-38.1632, -10.9193], [-38.1602, -10.9034], [-38.1392, -10.9], [-38.1245, -10.8833], [-38.1198, -10.8687], [-38.1256, -10.8498], [-38.1171, -10.8371], [-38.0747, -10.8187], [-38.0197, -10.8156], [-37.9722, -10.8242], [-37.9713, -10.7573]]]}}, {"type": "Feature", "properties": {"osm_type": "relation", "osm_id": 556610100, "name": "Porto da Folha", "admin_level": "6", "kind": "subdivision_2", "parent_osm_id": 303940, "parent_name": "Sergipe", "parent_iso": "BR-SE"}, "geometry": {"type": "Polygon", "coordinates": [[[-37.2965, -9.8277], [-37.3211, -9.8203], [-37.3546, -9.789], [-37.3958, -9.7785], [-37.428, -9.7588], [-37.4666, -9.7492], [-37.6037, -9.9626], [-37.6093, -9.9696], [-37.6407, -9.9787], [-37.6501, -9.9927], [-37.6638, -9.9984], [-37.667, -10.0163], [-37.6555, -10.0138], [-37.6448, -10.0216], [-37.6374, -10.0183], [-37.6331, -10.0235], [-37.6146, -10.0255], [-37.6085, -10.0199], [-37.597, -10.0217], [-37.587, -10.0103], [-37.5854, -9.999], [-37.5633, -9.999], [-37.4701, -10.0225], [-37.4203, -10.0625], [-37.4109, -10.0526], [-37.4022, -10.0525], [-37.4008, -10.0457], [-37.395, -10.0492], [-37.3826, -10.0365], [-37.3841, -10.032], [-37.3767, -10.0246], [-37.3792, -10.0212], [-37.372, -10.0188], [-37.3789, -10.0109], [-37.3679, -10.0069], [-37.3644, -10.0144], [-37.3502, -10.0135], [-37.348, -10.0044], [-37.355, -10.0026], [-37.3523, -9.9966], [-37.3507, -9.9937], [-37.3472, -9.9995], [-37.3408, -9.9977], [-37.3419, -9.9911], [-37.3373, -9.9865], [-37.3319, -9.9934], [-37.3333, -10.0034], [-37.3282, -10.0102], [-37.3312, -10.0139], [-37.3165, -10.0088], [-37.314, -10.0009], [-37.3067, -9.9995], [-37.2951, -10.0155], [-37.2899, -10.0132], [-37.2841, -9.9894], [-37.2655, -9.9917], [-37.2704, -9.9621], [-37.234, -9.9579], [-37.2265, -9.8995], [-37.2455, -9.8869], [-37.2651, -9.8494], [-37.2854, -9.8308], [-37.2965, -9.8277]]]}}, {"type": "Feature", "properties": {"osm_type": "relation", "osm_id": 552833519, "name": "Propriá", "admin_level": "6", "kind": "subdivision_2", "parent_osm_id": 303940, "parent_name": "Sergipe", "parent_iso": "BR-SE"}, "geometry": {"type": "Polygon", "coordinates": [[[-36.7207, -10.2647], [-36.7434, -10.2331], [-36.8142, -10.2188], [-36.836, -10.2035], [-36.8557, -10.1767], [-36.8672, -10.2057], [-36.8677, -10.2282], [-36.8485, -10.2403], [-36.8366, -10.2904], [-36.8197, -10.2974], [-36.8022, -10.2943], [-36.7949, -10.2844], [-36.8045, -10.2818], [-36.7982, -10.2797], [-36.7874, -10.2636], [-36.7757, -10.2647], [-36.7611, -10.2553], [-36.7446, -10.2655], [-36.7354, -10.2823], [-36.7062, -10.2824], [-36.7017, -10.2711], [-36.7207, -10.2647]]]}}, {"type": "Feature", "properties": {"osm_type": "relation", "osm_id": 592542619, "name": "Riachão do Dantas", "admin_level": "6", "kind": "subdivision_2", "parent_osm_id": 303940, "parent_name": "Sergipe", "parent_iso": "BR-SE"}, "geometry": {"type": "Polygon", "coordinates": [[[-37.6192, -11.0678], [-37.6355, -11.0624], [-37.6432, -11.047], [-37.6532, -11.045], [-37.6732, -11.023], [-37.6906, -11.0261], [-37.7093, -11.0036], [-37.7252, -10.9939], [-37.7429, -10.9904], [-37.7422, -11.0104], [-37.7571, -11.0044], [-37.7736, -11.0161], [-37.7775, -11.0061], [-37.7856, -11.0075], [-37.7937, -11.0175], [-37.809, -11.01], [-37.8122, -11.0036], [-37.8207, -11.0044], [-37.826, -10.9912], [-37.8375, -10.9853], [-37.8337, -10.981], [-37.8395, -10.9707], [-37.836, -10.9519], [-37.8426, -10.9404], [-37.847, -10.9339], [-37.8748, -10.9195], [-37.8662, -10.8958], [-37.8766, -10.8637], [-37.9368, -10.8812], [-37.939, -10.8891], [-37.9729, -10.8803], [-37.9555, -10.9344], [-37.9428, -10.9478], [-37.9339, -10.968], [-37.9396, -10.9815], [-37.9485, -10.9857], [-37.9456, -10.9965], [-37.8952, -11.0423], [-37.8435, -11.1089], [-37.7911, -11.1333], [-37.7777, -11.1319], [-37.7463, -11.1521], [-37.7372, -11.1499], [-37.7266, -11.1643], [-37.7177, -11.1631], [-37.7062, -11.1751], [-37.6466, -11.1256], [-37.6495, -11.1089], [-37.6307, -11.083], [-37.6234, -11.0876], [-37.6123, -11.0786], [-37.6192, -11.0678]]]}}, {"type": "Feature", "properties": {"osm_type": "relation", "osm_id": 480584392, "name": "Riachuelo", "admin_level": "6", "kind": "subdivision_2", "parent_osm_id": 303940, "parent_name": "Sergipe", "parent_iso": "BR-SE"}, "geometry": {"type": "Polygon", "coordinates": [[[-37.2444, -10.7777], [-37.2221, -10.7587], [-37.2168, -10.7639], [-37.1617, -10.7502], [-37.1604, -10.7357], [-37.1708, -10.7336], [-37.1671, -10.7267], [-37.17, -10.7235], [-37.1797, -10.7177], [-37.1908, -10.7275], [-37.2049, -10.7241], [-37.1995, -10.7194], [-37.2058, -10.7053], [-37.1964, -10.6917], [-37.1985, -10.6778], [-37.2291, -10.6764], [-37.2304, -10.6957], [-37.225, -10.7014], [-37.226, -10.7073], [-37.2299, -10.702], [-37.2365, -10.7075], [-37.2596, -10.7024], [-37.2687, -10.7149], [-37.2755, -10.7114], [-37.2822, -10.7192], [-37.2806, -10.739], [-37.2444, -10.7777]]]}}, {"type": "Feature", "properties": {"osm_type": "relation", "osm_id": 320583093, "name": "Ribeirópolis", "admin_level": "6", "kind": "subdivision_2", "parent_osm_id": 303940, "parent_name": "Sergipe", "parent_iso": "BR-SE"}, "geometry": {"type": "Polygon", "coordinates": [[[-37.4745, -10.5664], [-37.4597, -10.5943], [-37.4227, -10.5763], [-37.3937, -10.5825], [-37.3734, -10.5618], [-37.3645, -10.5584], [-37.3628, -10.549], [-37.3462, -10.54], [-37.3196, -10.541], [-37.3598, -10.4832], [-37.3692, -10.462], [-37.3687, -10.4513], [-37.4211, -10.4018], [-37.4745, -10.4599], [-37.5477, -10.4614], [-37.511, -10.506], [-37.5015, -10.5288], [-37.4745, -10.5664]]]}}, {"type": "Feature", "properties": {"osm_type": "relation", "osm_id": 108896469, "name": "Rosário do Catete", "admin_level": "6", "kind": "subdivision_2", "parent_osm_id": 303940, "parent_name": "Sergipe", "parent_iso": "BR-SE"}, "geometry": {"type": "Polygon", "coordinates": [[[-37.0711, -10.6129], [-37.0765, -10.6324], [-37.0925, -10.6421], [-37.0877, -10.6823], [-37.0586, -10.6916], [-37.0523, -10.7013], [-37.0618, -10.7145], [-37.0688, -10.7487], [-37.0147, -10.7231], [-37.0009, -10.732], [-36.9829, -10.7357], [-36.9646, -10.728], [-36.9496, -10.7124], [-36.9612, -10.704], [-36.9933, -10.703], [-37.0031, -10.6979], [-37.0157, -10.6838], [-37.0117, -10.6822], [-37.011, -10.642], [-37.0362, -10.6256], [-37.0711, -10.6129]]]}}, {"type": "Feature", "properties": {"osm_type": "relation", "osm_id": 895090583, "name": "Salgado", "admin_level": "6", "kind": "subdivision_2", "parent_osm_id": 303940, "parent_name": "Sergipe", "parent_iso": "BR-SE"}, "geometry": {"type": "Polygon", "coordinates": [[[-37.5468, -11.1667], [-37.459, -11.1463], [-37.4349, -11.1203], [-37.4386, -11.1149], [-37.4303, -11.1063], [-37.4377, -11.0985], [-37.4381, -11.087], [-37.3897, -11.0533], [-37.4023, -11.0373], [-37.4131, -11.0098], [-37.4259, -11.0001], [-37.4268, -10.9889], [-37.4388, -10.981], [-37.5197, -10.9615], [-37.5306, -10.995], [-37.5287, -11.0534], [-37.5512, -11.1406], [-37.5426, -11.1422], [-37.5434, -11.1523], [-37.5539, -11.1556], [-37.5468, -11.1667]]]}}, {"type": "Feature", "properties": {"osm_type": "relation", "osm_id": 719400002, "name": "Santa Luzia do Itanhy", "admin_level": "6", "kind": "subdivision_2", "parent_osm_id": 303940, "parent_name": "Sergipe", "parent_iso": "BR-SE"}, "geometry": {"type": "Polygon", "coordinates": [[[-37.6388, -11.3555], [-37.6023, -11.3888], [-37.5644, -11.4116], [-37.5356, -11.4152], [-37.5257, -11.4215], [-37.5076, -11.4142], [-37.4937, -11.4422], [-37.4735, -11.4506], [-37.4467, -11.4417], [-37.4408, -11.426], [-37.4332, -11.424], [-37.42, -11.4301], [-37.4087, -11.4238], [-37.4063, -11.3931], [-37.3894, -11.372], [-37.3881, -11.3538], [-37.3781, -11.3402], [-37.3828, -11.323], [-37.3977, -11.3159], [-37.407, -11.3015], [-37.42, -11.3022], [-37.4251, -11.3078], [-37.4443, -11.2945], [-37.4625, -11.3104], [-37.5237, -11.2978], [-37.5302, -11.3053], [-37.5486, -11.3044], [-37.5716, -11.3224], [-37.5902, -11.325], [-37.601, -11.3424], [-37.6634, -11.29], [-37.6921, -11.3081], [-37.683, -11.3162], [-37.675, -11.301], [-37.6704, -11.3088], [-37.6745, -11.3228], [-37.6388, -11.3555]], [[-37.664, -11.3317], [-37.6583, -11.3231], [-37.6471, -11.3238], [-37.6538, -11.3331], [-37.664, -11.3317]], [[-37.6388, -11.3555], [-37.6354, -11.341], [-37.6388, -11.3555]]]}}, {"type": "Feature", "properties": {"osm_type": "relation", "osm_id": 983714831, "name": "Santana do São Francisco", "admin_level": "6", "kind": "subdivision_2", "parent_osm_id": 303940, "parent_name": "Sergipe", "parent_iso": "BR-SE"}, "geometry": {"type": "Polygon", "coordinates": [[[-36.6439, -10.2509], [-36.6576, -10.2683], [-36.6823, -10.2729], [-36.654, -10.3203], [-36.5913, -10.3026], [-36.5923, -10.2865], [-36.6064, -10.2781], [-36.6219, -10.2592], [-36.6439, -10.2509]]]}}, {"type": "Feature", "properties": {"osm_type": "relation", "osm_id": 825231920, "name": "Santa Rosa de Lima", "admin_level": "6", "kind": "subdivision_2", "parent_osm_id": 303940, "parent_name": "Sergipe", "parent_iso": "BR-SE"}, "geometry": {"type": "Polygon", "coordinates": [[[-37.2058, -10.6239], [-37.2301, -10.6042], [-37.2661, -10.5866], [-37.2826, -10.5882], [-37.2964, -10.601], [-37.294, -10.6109], [-37.2807, -10.6209], [-37.2786, -10.6325], [-37.2687, -10.6344], [-37.2593, -10.6484], [-37.2469, -10.6483], [-37.2448, -10.6607], [-37.2291, -10.6764], [-37.1921, -10.6754], [-37.1886, -10.6582], [-37.1798, -10.6519], [-37.1806, -10.6407], [-37.1919, -10.6279], [-37.2058, -10.6239]]]}}, {"type": "Feature", "properties": {"osm_type": "relation", "osm_id": 808867018, "name": "Santo Amaro das Brotas", "admin_level": "6", "kind": "subdivision_2", "parent_osm_id": 303940, "parent_name": "Sergipe", "parent_iso": "BR-SE"}, "geometry": {"type": "Polygon", "coordinates": [[[-37.0399, -10.8843], [-37.0294, -10.8857], [-37.0158, -10.874], [-37.0152, -10.8648], [-36.9994, -10.861], [-36.9848, -10.8501], [-36.9814, -10.8441], [-36.987, -10.8358], [-36.9687, -10.833], [-36.9594, -10.8084], [-36.9387, -10.7952], [-36.9365, -10.7881], [-36.9284, -10.7896], [-36.8999, -10.7728], [-36.8817, -10.7437], [-36.8756, -10.7385], [-36.8718, -10.7419], [-36.8695, -10.7129], [-36.8774, -10.6981], [-36.8875, -10.6971], [-36.8955, -10.705], [-36.9008, -10.7031], [-36.9012, -10.691], [-36.9129, -10.7033], [-36.9199, -10.7006], [-36.9174, -10.6864], [-36.9329, -10.6943], [-36.9646, -10.728], [-36.9829, -10.7357], [-37.0009, -10.732], [-37.0147, -10.7231], [-37.0688, -10.7487], [-37.0688, -10.7685], [-37.0747, -10.7787], [-37.088, -10.7842], [-37.0893, -10.7909], [-37.066, -10.8231], [-37.0461, -10.8257], [-37.0309, -10.8399], [-37.0295, -10.8552], [-37.0399, -10.8843]]]}}, {"type": "Feature", "properties": {"osm_type": "relation", "osm_id": 854153505, "name": "São Cristóvão", "admin_level": "6", "kind": "subdivision_2", "parent_osm_id": 303940, "parent_name": "Sergipe", "parent_iso": "BR-SE"}, "geometry": {"type": "Polygon", "coordinates": [[[-37.1025, -10.9166], [-37.1131, -10.9159], [-37.1453, -10.9284], [-37.1604, -10.9235], [-37.1712, -10.9128], [-37.1743, -10.8995], [-37.1912, -10.8861], [-37.1981, -10.888], [-37.2069, -10.8751], [-37.2177, -10.8771], [-37.2441, -10.8648], [-37.2494, -10.8547], [-37.2652, -10.8479], [-37.2921, -10.85], [-37.3073, -10.8324], [-37.3158, -10.8314], [-37.3288, -10.9325], [-37.3347, -10.9441], [-37.3313, -10.9637], [-37.3255, -10.9698], [-37.3279, -10.9752], [-37.3056, -10.9853], [-37.3009, -11.0086], [-37.293, -11.0175], [-37.2868, -11.0149], [-37.2801, -11.0288], [-37.2271, -11.0406], [-37.2246, -11.0656], [-37.2184, -11.0772], [-37.1664, -11.1055], [-37.1621, -11.0952], [-37.1718, -11.0844], [-37.1715, -11.074], [-37.155, -11.0547], [-37.139, -11.0624], [-37.0921, -10.943], [-37.1025, -10.9166]]]}}, {"type": "Feature", "properties": {"osm_type": "relation", "osm_id": 121799622, "name": "São Domingos", "admin_level": "6", "kind": "subdivision_2", "parent_osm_id": 303940, "parent_name": "Sergipe", "parent_iso": "BR-SE"}, "geometry": {"type": "Polygon", "coordinates": [[[-37.5943, -10.6966], [-37.6065, -10.6966], [-37.6068, -10.7073], [-37.6314, -10.7295], [-37.6318, -10.7487], [-37.6202, -10.7491], [-37.6005, -10.7799], [-37.6142, -10.7985], [-37.6104, -10.8106], [-37.5736, -10.8394], [-37.544, -10.8355], [-37.5131, -10.8441], [-37.5095, -10.8361], [-37.4973, -10.833], [-37.5239, -10.8183], [-37.5171, -10.7987], [-37.5214, -10.7995], [-37.5204, -10.7943], [-37.5285, -10.7902], [-37.5271, -10.7868], [-37.5592, -10.779], [-37.5658, -10.7668], [-37.5604, -10.7578], [-37.5878, -10.7217], [-37.5857, -10.713], [-37.5943, -10.6966]]]}}, {"type": "Feature", "properties": {"osm_type": "relation", "osm_id": 659592285, "name": "São Francisco", "admin_level": "6", "kind": "subdivision_2", "parent_osm_id": 303940, "parent_name": "Sergipe", "parent_iso": "BR-SE"}, "geometry": {"type": "Polygon", "coordinates": [[[-36.902, -10.3235], [-36.9007, -10.3501], [-36.9127, -10.3705], [-36.9157, -10.3933], [-36.903, -10.4013], [-36.8916, -10.386], [-36.8574, -10.3827], [-36.8449, -10.3686], [-36.8443, -10.3418], [-36.8279, -10.33], [-36.8097, -10.3276], [-36.8216, -10.304], [-36.8197, -10.2974], [-36.8366, -10.2904], [-36.8391, -10.2719], [-36.8452, -10.2627], [-36.874, -10.2965], [-36.8854, -10.3003], [-36.902, -10.3235]]]}}, {"type": "Feature", "properties": {"osm_type": "relation", "osm_id": 309117195, "name": "São Miguel do Aleixo", "admin_level": "6", "kind": "subdivision_2", "parent_osm_id": 303940, "parent_name": "Sergipe", "parent_iso": "BR-SE"}, "geometry": {"type": "Polygon", "coordinates": [[[-37.3971, -10.2569], [-37.4084, -10.2456], [-37.4033, -10.29], [-37.4126, -10.346], [-37.4106, -10.4157], [-37.3687, -10.4513], [-37.3692, -10.462], [-37.3598, -10.4832], [-37.351, -10.4908], [-37.2749, -10.4647], [-37.2915, -10.4637], [-37.2885, -10.4543], [-37.2945, -10.4481], [-37.2953, -10.4331], [-37.3016, -10.4357], [-37.3086, -10.4264], [-37.3189, -10.4337], [-37.3313, -10.4312], [-37.3336, -10.4256], [-37.3252, -10.4191], [-37.3313, -10.4166], [-37.3357, -10.4], [-37.3471, -10.3996], [-37.3402, -10.3853], [-37.349, -10.3835], [-37.3494, -10.3717], [-37.356, -10.3678], [-37.3462, -10.3617], [-37.3498, -10.3468], [-37.3582, -10.3452], [-37.36, -10.3358], [-37.3567, -10.3349], [-37.3632, -10.3286], [-37.3733, -10.3289], [-37.3783, -10.3165], [-37.391, -10.3161], [-37.3858, -10.2972], [-37.3944, -10.2896], [-37.3903, -10.2708], [-37.3971, -10.2569]]]}}, {"type": "Feature", "properties": {"osm_type": "relation", "osm_id": 460049130, "name": "Simão Dias", "admin_level": "6", "kind": "subdivision_2", "parent_osm_id": 303940, "parent_name": "Sergipe", "parent_iso": "BR-SE"}, "geometry": {"type": "Polygon", "coordinates": [[[-37.6766, -10.7147], [-37.6845, -10.709], [-37.6742, -10.7025], [-37.6852, -10.6933], [-37.6831, -10.6854], [-37.7027, -10.6776], [-37.7054, -10.6691], [-37.7134, -10.6699], [-37.6943, -10.6397], [-37.7016, -10.641], [-37.7073, -10.6339], [-37.7163, -10.6449], [-37.7239, -10.6406], [-37.7217, -10.6345], [-37.7251, -10.6319], [-37.7397, -10.6323], [-37.7513, -10.6217], [-37.7655, -10.6194], [-37.7677, -10.6076], [-37.8004, -10.5919], [-37.8155, -10.6301], [-37.8075, -10.6393], [-37.8097, -10.6487], [-37.8039, -10.6525], [-37.8128, -10.667], [-37.8099, -10.6864], [-37.8322, -10.6815], [-37.8474, -10.6993], [-37.872, -10.7018], [-37.9091, -10.7152], [-37.9417, -10.7538], [-37.9532, -10.751], [-37.9713, -10.7573], [-37.9729, -10.8803], [-37.939, -10.8891], [-37.9368, -10.8812], [-37.8766, -10.8637], [-37.8608, -10.8693], [-37.8283, -10.859], [-37.8138, -10.8698], [-37.8046, -10.8391], [-37.7323, -10.7964], [-37.7183, -10.7707], [-37.7208, -10.7671], [-37.7093, -10.7536], [-37.7072, -10.7389], [-37.6805, -10.727], [-37.6766, -10.7147]]]}}, {"type": "Feature", "properties": {"osm_type": "relation", "osm_id": 688777722, "name": "Siriri", "admin_level": "6", "kind": "subdivision_2", "parent_osm_id": 303940, "parent_name": "Sergipe", "parent_iso": "BR-SE"}, "geometry": {"type": "Polygon", "coordinates": [[[-37.1382, -10.4699], [-37.1396, -10.507], [-37.1808, -10.5628], [-37.1708, -10.5706], [-37.177, -10.5804], [-37.2007, -10.5977], [-37.2058, -10.6083], [-37.1779, -10.6255], [-37.151, -10.6218], [-37.1574, -10.6262], [-37.1433, -10.6252], [-37.1457, -10.6372], [-37.1328, -10.6513], [-37.0925, -10.6421], [-37.0765, -10.6324], [-37.0654, -10.6067], [-37.0674, -10.5904], [-37.0763, -10.5849], [-37.0693, -10.5735], [-37.0728, -10.5566], [-37.0656, -10.5316], [-37.0807, -10.5273], [-37.1023, -10.5287], [-37.1034, -10.505], [-37.1134, -10.4923], [-37.1153, -10.4817], [-37.1382, -10.4699]]]}}, {"type": "Feature", "properties": {"osm_type": "relation", "osm_id": 557047994, "name": "Telha", "admin_level": "6", "kind": "subdivision_2", "parent_osm_id": 303940, "parent_name": "Sergipe", "parent_iso": "BR-SE"}, "geometry": {"type": "Polygon", "coordinates": [[[-36.8473, -10.1762], [-36.8513, -10.1599], [-36.8673, -10.1574], [-36.8806, -10.1451], [-36.9434, -10.2275], [-36.929, -10.2228], [-36.8677, -10.2282], [-36.8672, -10.2057], [-36.8607, -10.1858], [-36.8557, -10.1767], [-36.8467, -10.1873], [-36.8473, -10.1762]]]}}, {"type": "Feature", "properties": {"osm_type": "relation", "osm_id": 585650302, "name": "Tobias Barreto", "admin_level": "6", "kind": "subdivision_2", "parent_osm_id": 303940, "parent_name": "Sergipe", "parent_iso": "BR-SE"}, "geometry": {"type": "Polygon", "coordinates": [[[-37.7911, -11.1333], [-37.8435, -11.1089], [-37.8952, -11.0423], [-37.9456, -10.9965], [-37.9485, -10.9857], [-37.9396, -10.9815], [-37.9339, -10.968], [-37.9428, -10.9478], [-37.9555, -10.9344], [-37.9729, -10.8803], [-37.9722, -10.8242], [-38.0197, -10.8156], [-38.0747, -10.8187], [-38.1171, -10.8371], [-38.1256, -10.8498], [-38.1198, -10.8687], [-38.1245, -10.8833], [-38.1392, -10.9], [-38.1602, -10.9034], [-38.1632, -10.9193], [-38.1698, -10.9267], [-38.1674, -10.9398], [-38.1806, -10.9437], [-38.1859, -10.964], [-38.1723, -10.9863], [-38.1444, -11.002], [-38.1295, -11.0185], [-38.1213, -11.0078], [-38.1023, -11.0158], [-38.1055, -11.0264], [-38.0993, -11.0385], [-38.102, -11.0429], [-38.081, -11.0651], [-38.0761, -11.0771], [-38.0922, -11.1037], [-38.0882, -11.1148], [-38.0656, -11.1237], [-38.0709, -11.1425], [-38.0561, -11.1713], [-38.0471, -11.1811], [-38.0266, -11.1776], [-38.0029, -11.1934], [-37.9744, -11.1945], [-37.9809, -11.1981], [-37.9777, -11.221], [-37.9896, -11.2299], [-37.9859, -11.2368], [-37.9929, -11.239], [-37.9894, -11.248], [-37.9838, -11.2493], [-37.995, -11.2604], [-37.9868, -11.2706], [-37.9994, -11.2835], [-38.0136, -11.2866], [-38.0087, -11.2946], [-38.0035, -11.294], [-37.9911, -11.317], [-37.9974, -11.3225], [-37.9882, -11.3317], [-37.9992, -11.3391], [-37.9937, -11.3444], [-37.9873, -11.3416], [-37.9812, -11.3469], [-37.9667, -11.3229], [-37.9668, -11.3102], [-37.9513, -11.3067], [-37.9511, -11.295], [-37.9377, -11.2841], [-37.9366, -11.2697], [-37.9221, -11.2414], [-37.9048, -11.222], [-37.8852, -11.2129], [-37.868, -11.2208], [-37.8667, -11.2093], [-37.8762, -11.1877], [-37.8465, -11.1607], [-37.7911, -11.1333]]]}}, {"type": "Feature", "properties": {"osm_type": "relation", "osm_id": 757266311, "name": "Tomar do Geru", "admin_level": "6", "kind": "subdivision_2", "parent_osm_id": 303940, "parent_name": "Sergipe", "parent_iso": "BR-SE"}, "geometry": {"type": "Polygon", "coordinates": [[[-37.7628, -11.4059], [-37.7618, -11.3938], [-37.7683, -11.39], [-37.7704, -11.378], [-37.7834, -11.3736], [-37.7918, -11.3484], [-37.8147, -11.3308], [-37.8189, -11.3195], [-37.8285, -11.3203], [-37.8505, -11.2981], [-37.863, -11.2993], [-37.8722, -11.2843], [-37.8786, -11.288], [-37.8994, -11.2758], [-37.9157, -11.2893], [-37.9349, -11.2739], [-37.9377, -11.2841], [-37.9511, -11.295], [-37.9513, -11.3067], [-37.9668, -11.3102], [-37.9667, -11.3229], [-37.9822, -11.3501], [-37.9786, -11.3653], [-37.9685, -11.3797], [-37.9805, -11.3865], [-37.9763, -11.392], [-37.9683, -11.3897], [-37.9629, -11.402], [-37.9533, -11.3948], [-37.955, -11.4067], [-37.9451, -11.414], [-37.9442, -11.4235], [-37.937, -11.4219], [-37.9267, -11.4016], [-37.9066, -11.4078], [-37.9055, -11.4259], [-37.8993, -11.4366], [-37.8902, -11.4358], [-37.8814, -11.4251], [-37.8695, -11.4254], [-37.8662, -11.4275], [-37.8798, -11.4311], [-37.8783, -11.4347], [-37.8703, -11.4353], [-37.8678, -11.4417], [-37.8484, -11.4428], [-37.8525, -11.4503], [-37.8632, -11.4536], [-37.8637, -11.4668], [-37.8477, -11.4704], [-37.8399, -11.481], [-37.8331, -11.4821], [-37.831, -11.4759], [-37.817, -11.4684], [-37.8088, -11.4549], [-37.8094, -11.4372], [-37.7871, -11.4233], [-37.788, -11.4129], [-37.771, -11.4149], [-37.7628, -11.4059]]]}}, {"type": "Feature", "properties": {"osm_type": "relation", "osm_id": 212238868, "name": "Umbaúba", "admin_level": "6", "kind": "subdivision_2", "parent_osm_id": 303940, "parent_name": "Sergipe", "parent_iso": "BR-SE"}, "geometry": {"type": "Polygon", "coordinates": [[[-37.664, -11.3317], [-37.6921, -11.3081], [-37.6922, -11.3658], [-37.7321, -11.4027], [-37.7232, -11.3996], [-37.7169, -11.4091], [-37.6928, -11.425], [-37.6717, -11.4569], [-37.6747, -11.4753], [-37.6599, -11.4843], [-37.6411, -11.4611], [-37.6023, -11.3888], [-37.6562, -11.3404], [-37.6659, -11.3458], [-37.6753, -11.3434], [-37.6747, -11.3364], [-37.664, -11.3317]]]}}]}