{"type": "FeatureCollection", "parent": {"osm_id": 3060792, "name": "North Sinai", "admin_level": "4", "kind": "subdivision_1", "child_kind": "subdivision_2", "iso": "EG-SIN"}, "features": [{"type": "Feature", "properties": {"osm_type": "relation", "osm_id": 500968758, "name": "Al-Hasna", "admin_level": "6", "kind": "subdivision_2", "parent_osm_id": 3060792, "parent_name": "North Sinai", "parent_iso": "EG-SIN"}, "geometry": {"type": "Polygon", "coordinates": [[[32.8327, 30.0587], [33.2164, 30.0234], [33.2425, 30.0248], [33.3443, 30.0516], [33.4994, 30.0742], [33.5968, 30.0776], [33.6277, 30.0621], [33.6662, 29.9683], [33.7003, 29.9536], [33.7729, 29.9451], [33.8304, 29.9498], [33.8663, 29.9645], [34.1361, 30.3061], [33.9637, 30.6068], [33.4534, 30.6071], [33.4273, 30.4816], [32.919, 30.2704], [32.9327, 30.2362], [32.9235, 30.1973], [32.8118, 30.1947], [32.8262, 30.1506], [32.8327, 30.0587]]]}}, {"type": "Feature", "properties": {"osm_type": "relation", "osm_id": 319235596, "name": "El Arish 1", "admin_level": "6", "kind": "subdivision_2", "parent_osm_id": 3060792, "parent_name": "North Sinai", "parent_iso": "EG-SIN"}, "geometry": {"type": "Polygon", "coordinates": [[[33.8725, 31.0986], [33.8671, 31.1614], [33.7579, 31.1367], [33.798, 31.1029], [33.8725, 31.0986]]]}}, {"type": "Feature", "properties": {"osm_type": "relation", "osm_id": 362165442, "name": "El Arish 2", "admin_level": "6", "kind": "subdivision_2", "parent_osm_id": 3060792, "parent_name": "North Sinai", "parent_iso": "EG-SIN"}, "geometry": {"type": "Polygon", "coordinates": [[[33.7579, 31.1367], [33.6943, 31.1228], [33.7183, 31.0776], [33.7535, 31.0322], [33.798, 31.1029], [33.7579, 31.1367]]]}}, {"type": "Feature", "properties": {"osm_type": "relation", "osm_id": 109126813, "name": "El Arish 3", "admin_level": "6", "kind": "subdivision_2", "parent_osm_id": 3060792, "parent_name": "North Sinai", "parent_iso": "EG-SIN"}, "geometry": {"type": "Polygon", "coordinates": [[[33.798, 31.1029], [33.7068, 30.9578], [33.7396, 30.899], [33.776, 30.9368], [33.8758, 31.0601], [33.8725, 31.0986], [33.798, 31.1029]]]}}, {"type": "Feature", "properties": {"osm_type": "relation", "osm_id": 938110978, "name": "El Arish 4", "admin_level": "6", "kind": "subdivision_2", "parent_osm_id": 3060792, "parent_name": "North Sinai", "parent_iso": "EG-SIN"}, "geometry": {"type": "Polygon", "coordinates": [[[33.7213, 30.6072], [33.7396, 30.899], [33.7068, 30.9578], [33.7535, 31.0322], [33.7183, 31.0776], [33.6943, 31.1228], [33.6338, 31.1181], [33.5421, 31.119], [33.4946, 31.0227], [33.4558, 30.9212], [33.4573, 30.6264], [33.4534, 30.6071], [33.7213, 30.6072]]]}}, {"type": "Feature", "properties": {"osm_type": "relation", "osm_id": 436809602, "name": "Nakhl", "admin_level": "6", "kind": "subdivision_2", "parent_osm_id": 3060792, "parent_name": "North Sinai", "parent_iso": "EG-SIN"}, "geometry": {"type": "Polygon", "coordinates": [[[32.8549, 29.943], [32.8775, 29.945], [33.3832, 29.8978], [33.6448, 29.8512], [33.8469, 29.8079], [34.0335, 29.7155], [34.2061, 29.6469], [34.5078, 29.5537], [34.6559, 29.5185], [34.6987, 29.5139], [34.8799, 29.5357], [34.8653, 29.5648], [34.8654, 29.6028], [34.8766, 29.6511], [34.854, 29.7008], [34.8509, 29.7451], [34.7154, 30.1043], [34.2503, 30.1058], [34.1361, 30.3061], [33.8663, 29.9645], [33.8304, 29.9498], [33.7729, 29.9451], [33.7003, 29.9536], [33.6662, 29.9683], [33.6277, 30.0621], [33.5968, 30.0776], [33.4994, 30.0742], [33.3443, 30.0516], [33.2425, 30.0248], [33.2164, 30.0234], [32.8327, 30.0587], [32.8549, 29.943]]]}}, {"type": "Feature", "properties": {"osm_type": "relation", "osm_id": 162045057, "name": "Qasima", "admin_level": "6", "kind": "subdivision_2", "parent_osm_id": 3060792, "parent_name": "North Sinai", "parent_iso": "EG-SIN"}, "geometry": {"type": "Polygon", "coordinates": [[[34.1361, 30.3061], [34.2503, 30.1058], [34.7154, 30.1043], [34.6128, 30.3709], [34.5555, 30.4049], [34.5493, 30.4135], [34.547, 30.4372], [34.5652, 30.4899], [34.5233, 30.5314], [34.5259, 30.5821], [34.4981, 30.6812], [34.4389, 30.7896], [34.203, 30.7735], [34.1992, 30.606], [33.9637, 30.6068], [34.1361, 30.3061]]]}}, {"type": "Feature", "properties": {"osm_type": "relation", "osm_id": 673911982, "name": "Rafah", "admin_level": "6", "kind": "subdivision_2", "parent_osm_id": 3060792, "parent_name": "North Sinai", "parent_iso": "EG-SIN"}, "geometry": {"type": "Polygon", "coordinates": [[[34.4389, 30.7896], [34.3986, 30.8635], [34.2507, 31.277], [34.2405, 31.2984], [34.2186, 31.3262], [34.1493, 31.277], [34.0732, 31.2366], [34.1692, 31.0012], [34.2037, 30.8061], [34.203, 30.7735], [34.4389, 30.7896]]]}}, {"type": "Feature", "properties": {"osm_type": "relation", "osm_id": 312715167, "name": "Shaykh Zuwayd", "admin_level": "6", "kind": "subdivision_2", "parent_osm_id": 3060792, "parent_name": "North Sinai", "parent_iso": "EG-SIN"}, "geometry": {"type": "Polygon", "coordinates": [[[33.9637, 30.6068], [34.1992, 30.606], [34.2037, 30.8061], [34.1692, 31.0012], [34.0732, 31.2366], [33.9989, 31.2025], [33.8671, 31.1614], [33.8758, 31.0601], [33.776, 30.9368], [33.7396, 30.899], [33.7213, 30.6072], [33.9637, 30.6068]]]}}]}