{"type": "FeatureCollection", "parent": {"osm_id": 3061827, "name": "New Valley", "admin_level": "4", "kind": "subdivision_1", "child_kind": "subdivision_2", "iso": "EG-WAD"}, "features": [{"type": "Feature", "properties": {"osm_type": "relation", "osm_id": 352984437, "name": "A-Dakhla Oasis", "admin_level": "6", "kind": "subdivision_2", "parent_osm_id": 3061827, "parent_name": "New Valley", "parent_iso": "EG-WAD"}, "geometry": {"type": "Polygon", "coordinates": [[[30.53, 27.6014], [28.5347, 27.6727], [28.5115, 26.9194], [28.4507, 26.5438], [28.3416, 26.4383], [28.2295, 26.412], [28.0904, 26.4299], [27.8946, 26.5928], [27.6862, 26.7436], [27.5085, 26.7708], [25.0013, 26.6627], [25.0006, 22.0005], [29.4608, 22.0006], [29.3994, 24.7592], [29.5657, 25.1811], [29.9481, 25.7004], [30.1724, 25.972], [30.8645, 26.7912], [30.53, 27.6014]]]}}, {"type": "Feature", "properties": {"osm_type": "relation", "osm_id": 462053563, "name": "Al-Kharga Oasis", "admin_level": "6", "kind": "subdivision_2", "parent_osm_id": 3061827, "parent_name": "New Valley", "parent_iso": "EG-WAD"}, "geometry": {"type": "Polygon", "coordinates": [[[29.4206, 23.8605], [31.758, 23.4726], [32.6551, 25.1687], [32.5158, 25.2466], [32.4524, 25.3923], [32.4251, 25.6464], [32.5335, 25.6918], [32.6435, 25.7901], [32.6684, 25.84], [32.6831, 25.9179], [32.7272, 25.974], [32.7393, 26.0567], [32.7332, 26.0758], [32.6748, 26.1033], [32.4426, 26.0407], [32.3215, 25.9867], [32.2452, 25.9846], [32.2175, 25.9739], [32.0395, 26.061], [31.7619, 26.2976], [31.4481, 26.6327], [31.2916, 26.8335], [31.1559, 26.8273], [30.8645, 26.7912], [30.1724, 25.972], [29.9481, 25.7004], [29.5657, 25.1811], [29.3994, 24.7592], [29.4206, 23.8605]]]}}, {"type": "Feature", "properties": {"osm_type": "relation", "osm_id": 742029251, "name": "Al Farafra Oasis", "admin_level": "6", "kind": "subdivision_2", "parent_osm_id": 3061827, "parent_name": "New Valley", "parent_iso": "EG-WAD"}, "geometry": {"type": "Polygon", "coordinates": [[[28.5347, 27.6727], [27.3609, 27.6758], [25.0016, 27.6486], [25.0013, 26.6627], [27.5085, 26.7708], [27.6862, 26.7436], [27.8946, 26.5928], [28.0904, 26.4299], [28.2295, 26.412], [28.3416, 26.4383], [28.4507, 26.5438], [28.5115, 26.9194], [28.5347, 27.6727]]]}}, {"type": "Feature", "properties": {"osm_type": "relation", "osm_id": 889351714, "name": "Paris Paris", "admin_level": "6", "kind": "subdivision_2", "parent_osm_id": 3061827, "parent_name": "New Valley", "parent_iso": "EG-WAD"}, "geometry": {"type": "Polygon", "coordinates": [[[29.4608, 22.0006], [30.9988, 21.9992], [31.758, 23.4726], [29.4206, 23.8605], [29.4608, 22.0006]]]}}, {"type": "Feature", "properties": {"osm_type": "relation", "osm_id": 367200618, "name": "Suhag City", "admin_level": "6", "kind": "subdivision_2", "parent_osm_id": 3061827, "parent_name": "New Valley", "parent_iso": "EG-WAD"}, "geometry": {"type": "Polygon", "coordinates": [[[31.6618, 26.4566], [31.6546, 26.4688], [31.6711, 26.4758], [31.6609, 26.5039], [31.6258, 26.4942], [31.6474, 26.4506], [31.6618, 26.4566]]]}}, {"type": "Feature", "properties": {"osm_type": "relation", "osm_id": 570728826, "name": "Tushaka", "admin_level": "6", "kind": "subdivision_2", "parent_osm_id": 3061827, "parent_name": "New Valley", "parent_iso": "EG-WAD"}, "geometry": {"type": "Polygon", "coordinates": [[[31.6979, 22.8099], [31.7559, 22.8921], [31.7127, 22.9674], [31.6776, 22.9722], [31.6054, 22.8967], [31.5871, 22.8673], [31.5952, 22.8455], [31.573, 22.8156], [31.586, 22.8012], [31.6569, 22.7578], [31.6979, 22.8099]]]}}, {"type": "Feature", "properties": {"osm_type": "relation", "osm_id": 520777042, "name": "Zemam Out", "admin_level": "6", "kind": "subdivision_2", "parent_osm_id": 3061827, "parent_name": "New Valley", "parent_iso": "EG-WAD"}, "geometry": {"type": "MultiPolygon", "coordinates": [[[[32.8976, 24.8585], [32.9066, 24.8414], [32.9218, 24.8316], [32.918, 24.8198], [32.9323, 24.7917], [32.9473, 24.6732], [32.9555, 24.6697], [32.9605, 24.6599], [32.9511, 24.6608], [32.9505, 24.6448], [32.9578, 24.6338], [33.0051, 24.6115], [33.0196, 24.5944], [33.019, 24.5897], [33.0267, 24.5977], [33.0333, 24.5957], [33.0561, 24.5779], [33.0495, 24.562], [33.0127, 24.5499], [33.0109, 24.5271], [33.0171, 24.5237], [33.0129, 24.5197], [33.0235, 24.5095], [33.0296, 24.5182], [33.0546, 24.5203], [33.0564, 24.5091], [33.11, 24.5158], [33.1228, 24.5067], [33.1283, 24.4854], [33.0889, 24.4647], [33.0896, 24.4548], [33.0811, 24.4465], [33.0385, 24.4446], [33.0135, 24.4075], [32.9901, 24.4053], [32.9846, 24.3889], [32.9612, 24.3827], [32.9383, 24.3843], [32.9439, 24.3754], [32.9409, 24.3664], [32.9215, 24.3622], [32.9217, 24.307], [32.8853, 24.2278], [32.8866, 24.1843], [32.8785, 24.1766], [32.8972, 24.1435], [32.9129, 24.083], [32.92, 24.0824], [32.9268, 24.0709], [32.9193, 24.0401], [32.8984, 24.0213], [32.9124, 24.008], [32.9131, 23.9925], [32.9183, 23.9911], [32.9148, 23.9772], [32.8871, 23.9716], [32.8889, 23.9662], [32.9027, 23.9716], [32.9018, 23.968], [32.9119, 23.9678], [32.9073, 23.9676], [32.9122, 23.9641], [32.8942, 23.9663], [32.899, 23.9605], [32.8897, 23.9609], [32.8965, 23.9577], [32.89, 23.9582], [32.8883, 23.9541], [32.901, 23.953], [32.8897, 23.9489], [32.9092, 23.9404], [32.9203, 23.9411], [32.921, 23.9363], [32.9313, 23.9401], [32.9225, 23.9322], [32.9176, 23.9378], [32.914, 23.9376], [32.9161, 23.9333], [32.913, 23.9378], [32.8861, 23.9452], [32.8909, 23.942], [32.8875, 23.9401], [32.9042, 23.9322], [32.887, 23.9361], [32.8916, 23.929], [32.8876, 23.9323], [32.8844, 23.9244], [32.8741, 23.9252], [32.8728, 23.9186], [32.9015, 23.9176], [32.8843, 23.9135], [32.8891, 23.8948], [32.9315, 23.8949], [32.8989, 23.8915], [32.9239, 23.8743], [32.9409, 23.8705], [32.9358, 23.8659], [32.8974, 23.8862], [32.8888, 23.8846], [32.8969, 23.8774], [32.9083, 23.8476], [32.9134, 23.8477], [32.9228, 23.8349], [32.9315, 23.8366], [32.9227, 23.8309], [32.9221, 23.8237], [32.9333, 23.8301], [32.9429, 23.8254], [32.9413, 23.8203], [32.9356, 23.8275], [32.9253, 23.8186], [32.9299, 23.805], [32.9415, 23.8006], [32.9314, 23.7995], [32.931, 23.7958], [32.9323, 23.7889], [32.9396, 23.784], [32.9363, 23.7825], [32.9489, 23.7534], [32.9525, 23.7491], [32.965, 23.751], [32.9874, 23.7607], [32.9975, 23.7738], [32.9999, 23.7704], [32.9918, 23.7582], [33.0074, 23.7421], [32.9789, 23.7529], [32.9673, 23.7465], [32.9719, 23.7332], [32.9601, 23.7289], [32.9754, 23.7279], [32.9971, 23.7007], [32.9883, 23.6992], [32.9928, 23.692], [32.9845, 23.6989], [32.9737, 23.6924], [32.9737, 23.6878], [32.9861, 23.684], [32.9815, 23.6761], [32.9858, 23.6666], [33.0024, 23.6671], [32.9806, 23.6559], [32.9927, 23.6405], [32.9801, 23.6415], [32.9765, 23.6488], [32.9632, 23.6362], [32.9744, 23.6373], [32.9821, 23.6321], [32.9836, 23.6196], [32.994, 23.6126], [32.9785, 23.6159], [32.9784, 23.623], [32.9662, 23.6167], [32.964, 23.6205], [32.9729, 23.6253], [32.9642, 23.6293], [32.9556, 23.6456], [32.9517, 23.6429], [32.9571, 23.6327], [32.9487, 23.6385], [32.9348, 23.637], [32.9316, 23.658], [32.9236, 23.6621], [32.9213, 23.653], [32.9137, 23.654], [32.9209, 23.6303], [32.9289, 23.6229], [32.9241, 23.6201], [32.9168, 23.6237], [32.9128, 23.6366], [32.9032, 23.6314], [32.9078, 23.6248], [32.8994, 23.6223], [32.9005, 23.6179], [32.9069, 23.6158], [32.9003, 23.6086], [32.9129, 23.6097], [32.9057, 23.6026], [32.8988, 23.5756], [32.9067, 23.5789], [32.9337, 23.5581], [32.9264, 23.5473], [32.9526, 23.5587], [32.9516, 23.5662], [32.9573, 23.5677], [32.9626, 23.5601], [32.9373, 23.5433], [32.9462, 23.5412], [32.9546, 23.5299], [32.9586, 23.5314], [32.956, 23.5382], [32.9668, 23.5404], [32.9725, 23.5502], [32.9763, 23.5491], [32.9721, 23.5439], [32.9795, 23.5426], [32.9775, 23.5363], [32.965, 23.5335], [32.9635, 23.523], [32.9416, 23.5259], [32.9371, 23.5217], [32.9685, 23.5066], [32.9731, 23.5094], [32.9695, 23.5224], [32.9741, 23.5217], [32.9804, 23.5032], [33.0005, 23.5015], [33.0246, 23.4899], [32.9994, 23.4951], [32.9939, 23.492], [32.9716, 23.4977], [32.9603, 23.5058], [32.952, 23.5015], [32.9326, 23.5018], [32.9341, 23.5058], [32.9189, 23.5203], [32.9246, 23.5221], [32.9225, 23.5254], [32.9058, 23.5246], [32.9072, 23.5196], [32.902, 23.5161], [32.9159, 23.5074], [32.9047, 23.5083], [32.9024, 23.4969], [32.9195, 23.4944], [32.9071, 23.4891], [32.9093, 23.4758], [32.9209, 23.4778], [32.9391, 23.4698], [32.9446, 23.4781], [32.9492, 23.4765], [32.9467, 23.4704], [32.9557, 23.4674], [32.953, 23.4622], [32.9433, 23.4621], [32.9259, 23.4676], [32.9361, 23.4553], [32.9329, 23.454], [32.9108, 23.4695], [32.9249, 23.456], [32.9123, 23.4556], [32.9225, 23.4402], [32.9205, 23.4342], [32.9258, 23.4341], [32.9415, 23.4511], [32.9504, 23.449], [32.9516, 23.4453], [32.934, 23.4372], [32.9443, 23.4362], [32.9401, 23.4324], [32.9285, 23.4292], [32.9422, 23.4172], [32.956, 23.4215], [32.9552, 23.4253], [32.969, 23.4346], [32.9843, 23.4363], [33.0066, 23.4593], [33.0004, 23.4425], [32.9789, 23.4279], [32.9686, 23.429], [32.9782, 23.4095], [32.9652, 23.4232], [32.9442, 23.4121], [32.9531, 23.3919], [32.9641, 23.3874], [32.9563, 23.3814], [32.9661, 23.3706], [32.9761, 23.3678], [32.9701, 23.4004], [32.9834, 23.4045], [32.9898, 23.3982], [32.9973, 23.405], [32.9974, 23.3958], [33.005, 23.3925], [32.9987, 23.39], [33.0024, 23.3761], [33.0116, 23.3748], [33.0105, 23.3683], [33.0201, 23.3639], [33.034, 23.3653], [33.0397, 23.3828], [33.0403, 23.3668], [33.0643, 23.3789], [33.0666, 23.3757], [33.0582, 23.371], [33.061, 23.3689], [33.0736, 23.3664], [33.0859, 23.3717], [33.0851, 23.3619], [33.0777, 23.3554], [33.0591, 23.3661], [33.0579, 23.3558], [33.0443, 23.3634], [33.0493, 23.3534], [33.0456, 23.3515], [33.0365, 23.358], [33.0308, 23.3542], [32.9937, 23.3675], [32.9865, 23.3655], [32.9865, 23.3553], [32.9819, 23.3614], [32.9742, 23.3568], [32.9734, 23.3616], [32.9658, 23.3628], [32.9705, 23.3531], [32.9677, 23.3481], [32.9739, 23.344], [32.9685, 23.3426], [32.9674, 23.3361], [32.972, 23.331], [32.9828, 23.3327], [32.9824, 23.3249], [32.992, 23.3312], [32.9875, 23.3199], [32.992, 23.3192], [32.9971, 23.3266], [32.9995, 23.3233], [33.0252, 23.3373], [33.032, 23.3289], [33.0404, 23.3357], [33.0376, 23.3262], [33.0506, 23.327], [33.0544, 23.3172], [33.0621, 23.3262], [33.06, 23.3154], [33.0686, 23.3182], [33.064, 23.3098], [33.0736, 23.3088], [33.0711, 23.3033], [33.079, 23.2969], [33.0725, 23.2983], [33.0674, 23.2897], [33.0673, 23.3006], [33.048, 23.3143], [33.0566, 23.2936], [33.0483, 23.2787], [33.0483, 23.302], [33.0403, 23.3206], [33.0221, 23.3236], [33.0182, 23.3178], [33.0232, 23.3115], [33.0367, 23.3077], [33.032, 23.2981], [33.0385, 23.2793], [33.0327, 23.2762], [33.018, 23.2959], [33.0155, 23.2722], [32.9999, 23.2785], [32.9994, 23.2582], [33.0137, 23.2541], [33.016, 23.2453], [33.0435, 23.2297], [33.0442, 23.2243], [33.0362, 23.2149], [33.0437, 23.2042], [33.0405, 23.1968], [33.0271, 23.2137], [33.0199, 23.2163], [32.9992, 23.2117], [32.9941, 23.219], [32.9865, 23.2201], [32.977, 23.2165], [32.9719, 23.2085], [32.963, 23.2098], [32.9742, 23.2186], [32.9613, 23.2255], [32.9532, 23.2373], [32.9525, 23.2414], [32.9584, 23.2386], [32.9636, 23.2435], [32.9636, 23.2554], [32.9575, 23.2577], [32.9569, 23.2495], [32.9487, 23.2498], [32.9477, 23.2399], [32.9417, 23.2486], [32.932, 23.2444], [32.9279, 23.2354], [32.9247, 23.2405], [32.9298, 23.245], [32.9238, 23.2598], [32.9189, 23.2558], [32.9208, 23.2499], [32.9167, 23.2511], [32.9172, 23.2457], [32.9092, 23.239], [32.9142, 23.2349], [32.8938, 23.2349], [32.9074, 23.2241], [32.9089, 23.2315], [32.922, 23.228], [32.9295, 23.2117], [32.9261, 23.2018], [32.9336, 23.2013], [32.9387, 23.1863], [32.9457, 23.1843], [32.9464, 23.1634], [32.9721, 23.1503], [32.9689, 23.1375], [32.9768, 23.133], [32.97, 23.1297], [32.9706, 23.1217], [32.9273, 23.1278], [32.894, 23.1545], [32.8621, 23.1562], [32.8558, 23.1688], [32.8408, 23.1559], [32.851, 23.1449], [32.8432, 23.1406], [32.8496, 23.1294], [32.8655, 23.1235], [32.8604, 23.1209], [32.8608, 23.1104], [32.8557, 23.1072], [32.8601, 23.1043], [32.8593, 23.0932], [32.8694, 23.0938], [32.8711, 23.0861], [32.8805, 23.0844], [32.8701, 23.0753], [32.8564, 23.075], [32.8603, 23.0662], [32.8737, 23.0562], [32.8948, 23.0688], [32.9005, 23.0543], [32.9078, 23.057], [32.9116, 23.0537], [32.9148, 23.0355], [32.9271, 23.0278], [32.9242, 23.033], [32.9343, 23.0426], [32.9444, 23.0119], [32.9523, 23.0114], [32.9557, 23.0051], [32.9467, 22.9939], [32.9164, 22.9931], [32.9155, 22.987], [32.9252, 22.9834], [32.927, 22.9756], [32.9168, 22.9744], [32.9161, 22.9684], [32.9261, 22.966], [32.9386, 22.9859], [32.945, 22.9777], [32.9392, 22.9766], [32.9469, 22.9723], [32.9367, 22.9711], [32.9327, 22.9614], [32.9373, 22.953], [32.9916, 22.9514], [32.9978, 22.9478], [33.0056, 22.9556], [33.003, 22.9459], [33.0091, 22.9468], [33.0063, 22.9345], [33.0115, 22.9293], [33.0285, 22.9212], [33.0408, 22.9274], [33.0386, 22.9167], [33.0461, 22.9083], [33.1037, 22.912], [33.1261, 22.8757], [33.1191, 22.8773], [33.099, 22.9012], [33.0869, 22.9074], [33.0411, 22.9002], [33.0152, 22.9133], [33.008, 22.9117], [33.0015, 22.9228], [32.9938, 22.9175], [32.9758, 22.9337], [32.985, 22.919], [32.9807, 22.9168], [32.9686, 22.9361], [32.9626, 22.9313], [32.9678, 22.9208], [32.9641, 22.9182], [32.9595, 22.9204], [32.9586, 22.9307], [32.9485, 22.9289], [32.9356, 22.942], [32.9278, 22.94], [32.9365, 22.9189], [32.9284, 22.8985], [32.9251, 22.9072], [32.931, 22.9181], [32.9277, 22.9249], [32.9154, 22.9265], [32.9223, 22.9185], [32.9189, 22.9161], [32.9124, 22.9199], [32.8931, 22.9453], [32.8743, 22.9517], [32.8698, 22.9679], [32.8597, 22.9736], [32.8569, 22.9696], [32.851, 22.9719], [32.8283, 22.9947], [32.8193, 22.9881], [32.8059, 23.0065], [32.7928, 23.0109], [32.7876, 23.0452], [32.7821, 23.0509], [32.7827, 23.0707], [32.775, 23.0694], [32.7749, 23.0491], [32.7655, 23.0609], [32.7587, 23.0621], [32.756, 23.053], [32.7365, 23.0489], [32.7548, 23.023], [32.7506, 23.0114], [32.7533, 22.9903], [32.75, 22.9857], [32.7313, 22.9933], [32.7221, 22.9899], [32.7359, 22.9822], [32.7405, 22.973], [32.7295, 22.954], [32.7219, 22.9594], [32.7164, 22.956], [32.7282, 22.9476], [32.7093, 22.9302], [32.7021, 22.9136], [32.6972, 22.9123], [32.69, 22.9228], [32.7007, 22.9272], [32.7011, 22.9361], [32.7084, 22.9421], [32.7004, 22.9519], [32.6899, 22.9551], [32.68, 22.949], [32.6751, 22.9593], [32.6701, 22.9574], [32.6779, 22.9343], [32.6907, 22.9193], [32.6939, 22.9058], [32.6765, 22.9192], [32.6689, 22.9096], [32.6544, 22.9094], [32.6673, 22.9154], [32.6595, 22.928], [32.6619, 22.9194], [32.6484, 22.9239], [32.6455, 22.9224], [32.6506, 22.9153], [32.6417, 22.9142], [32.6407, 22.9202], [32.6361, 22.92], [32.6326, 22.9177], [32.6344, 22.906], [32.6289, 22.9106], [32.6245, 22.9086], [32.6348, 22.8977], [32.6352, 22.8908], [32.6477, 22.8886], [32.639, 22.8849], [32.642, 22.8794], [32.6309, 22.8843], [32.6324, 22.8887], [32.6277, 22.8903], [32.6196, 22.9096], [32.6023, 22.8921], [32.5984, 22.8449], [32.6147, 22.8549], [32.6162, 22.843], [32.6511, 22.8203], [32.6682, 22.8215], [32.6714, 22.8173], [32.6524, 22.8169], [32.6513, 22.7976], [32.6417, 22.8211], [32.6264, 22.8308], [32.624, 22.8182], [32.6288, 22.8096], [32.6253, 22.8081], [32.6199, 22.816], [32.6204, 22.8355], [32.6052, 22.837], [32.597, 22.8313], [32.5959, 22.8188], [32.6033, 22.8183], [32.6058, 22.8102], [32.5993, 22.8154], [32.5926, 22.8101], [32.6113, 22.7915], [32.5989, 22.7891], [32.5904, 22.7962], [32.5921, 22.7836], [32.6002, 22.7865], [32.6047, 22.7827], [32.5963, 22.7763], [32.6013, 22.7717], [32.6014, 22.7574], [32.5864, 22.7766], [32.5861, 22.7657], [32.5778, 22.763], [32.5806, 22.7593], [32.5735, 22.7572], [32.5763, 22.7529], [32.5726, 22.7508], [32.5999, 22.7478], [32.59, 22.744], [32.5923, 22.736], [32.5986, 22.7409], [32.5919, 22.7313], [32.6082, 22.7404], [32.6052, 22.7316], [32.6159, 22.7355], [32.6038, 22.7254], [32.6086, 22.7195], [32.6124, 22.7244], [32.6133, 22.7162], [32.6204, 22.7186], [32.6221, 22.726], [32.6236, 22.7192], [32.6307, 22.7245], [32.6535, 22.7234], [32.6492, 22.7169], [32.6304, 22.7222], [32.6356, 22.7119], [32.6288, 22.7201], [32.6223, 22.7155], [32.6088, 22.7159], [32.5987, 22.7226], [32.6023, 22.7309], [32.5919, 22.7273], [32.595, 22.7204], [32.5883, 22.7247], [32.5799, 22.7159], [32.5869, 22.7249], [32.5833, 22.7251], [32.5896, 22.7266], [32.5879, 22.745], [32.5741, 22.7451], [32.5761, 22.7383], [32.5711, 22.738], [32.571, 22.745], [32.5599, 22.7502], [32.5598, 22.7433], [32.5661, 22.7385], [32.5566, 22.7389], [32.5614, 22.7362], [32.557, 22.7319], [32.5631, 22.7292], [32.5617, 22.7244], [32.5691, 22.7243], [32.5585, 22.723], [32.5594, 22.7167], [32.5662, 22.7141], [32.5585, 22.7066], [32.5646, 22.7075], [32.5702, 22.6988], [32.5804, 22.6978], [32.5906, 22.6835], [32.59, 22.6764], [32.5788, 22.6971], [32.5653, 22.6914], [32.5692, 22.6863], [32.5588, 22.6919], [32.5646, 22.6929], [32.5675, 22.6995], [32.5567, 22.7069], [32.5519, 22.7241], [32.5545, 22.7311], [32.5481, 22.7427], [32.551, 22.7313], [32.5464, 22.7345], [32.5467, 22.7283], [32.5429, 22.7272], [32.5498, 22.7124], [32.5473, 22.7088], [32.5448, 22.7172], [32.5378, 22.7101], [32.5452, 22.7195], [32.5443, 22.7331], [32.5395, 22.737], [32.531, 22.7342], [32.5183, 22.7194], [32.5254, 22.7153], [32.5205, 22.714], [32.5179, 22.7032], [32.5178, 22.7146], [32.5124, 22.715], [32.5167, 22.7246], [32.5269, 22.7313], [32.5084, 22.7272], [32.5122, 22.7167], [32.5065, 22.7213], [32.5085, 22.7285], [32.5008, 22.7285], [32.4976, 22.7247], [32.5044, 22.7199], [32.5058, 22.7097], [32.498, 22.7183], [32.4948, 22.715], [32.4977, 22.705], [32.4915, 22.7158], [32.496, 22.7228], [32.4848, 22.7176], [32.4885, 22.7111], [32.4824, 22.7126], [32.4814, 22.7189], [32.4727, 22.7132], [32.4805, 22.705], [32.4746, 22.7084], [32.4717, 22.7036], [32.4687, 22.71], [32.4688, 22.7035], [32.4608, 22.7056], [32.4706, 22.6966], [32.4713, 22.689], [32.4818, 22.6918], [32.4816, 22.6842], [32.4897, 22.6732], [32.5108, 22.66], [32.5093, 22.6553], [32.5009, 22.6592], [32.5, 22.6459], [32.511, 22.6384], [32.5227, 22.6201], [32.5311, 22.6211], [32.5245, 22.6097], [32.5211, 22.6091], [32.5177, 22.6223], [32.5102, 22.6239], [32.5057, 22.6346], [32.4943, 22.6392], [32.4975, 22.6671], [32.4877, 22.6679], [32.4855, 22.6641], [32.4704, 22.6868], [32.4492, 22.6872], [32.439, 22.6678], [32.4536, 22.6504], [32.4403, 22.6532], [32.4314, 22.6659], [32.4229, 22.6567], [32.4233, 22.644], [32.4114, 22.6231], [32.4234, 22.6261], [32.4257, 22.6172], [32.4018, 22.6136], [32.4162, 22.5905], [32.4183, 22.5767], [32.4147, 22.5691], [32.4045, 22.601], [32.3996, 22.5963], [32.3873, 22.6048], [32.3798, 22.5963], [32.3766, 22.5983], [32.3742, 22.5905], [32.3648, 22.59], [32.3644, 22.5818], [32.3581, 22.5844], [32.3585, 22.5973], [32.364, 22.5968], [32.3613, 22.601], [32.3365, 22.6033], [32.3262, 22.5965], [32.3189, 22.5669], [32.326, 22.5626], [32.3323, 22.566], [32.3262, 22.5543], [32.338, 22.5461], [32.3215, 22.5415], [32.317, 22.5482], [32.3135, 22.5447], [32.3217, 22.5338], [32.3134, 22.5278], [32.3217, 22.5277], [32.3255, 22.5194], [32.352, 22.5286], [32.3602, 22.5121], [32.3544, 22.5039], [32.3491, 22.5145], [32.3504, 22.5238], [32.3369, 22.5162], [32.2991, 22.5081], [32.3034, 22.5191], [32.2904, 22.5223], [32.3117, 22.5261], [32.3063, 22.5328], [32.3073, 22.5411], [32.2961, 22.5424], [32.2967, 22.5497], [32.2911, 22.5529], [32.2926, 22.5434], [32.2813, 22.5448], [32.2791, 22.5331], [32.2716, 22.5453], [32.2681, 22.5419], [32.258, 22.5088], [32.2518, 22.5114], [32.26, 22.5261], [32.261, 22.5311], [32.254, 22.5367], [32.2599, 22.5446], [32.2496, 22.5455], [32.246, 22.555], [32.2265, 22.558], [32.2388, 22.5629], [32.2623, 22.5554], [32.2653, 22.5614], [32.2778, 22.5612], [32.2661, 22.5724], [32.281, 22.5727], [32.2895, 22.5822], [32.3079, 22.5872], [32.3044, 22.5916], [32.3129, 22.6004], [32.31, 22.6049], [32.3, 22.6119], [32.2912, 22.6005], [32.2888, 22.6112], [32.284, 22.6056], [32.2615, 22.6008], [32.2756, 22.6238], [32.2679, 22.626], [32.2554, 22.6212], [32.2564, 22.6302], [32.2352, 22.6259], [32.2614, 22.6347], [32.2551, 22.6457], [32.2445, 22.6465], [32.2506, 22.6578], [32.2315, 22.6459], [32.2294, 22.6372], [32.2223, 22.6411], [32.2342, 22.6644], [32.2474, 22.6672], [32.2453, 22.6721], [32.2353, 22.6782], [32.2074, 22.6705], [32.2051, 22.6797], [32.2126, 22.6787], [32.2115, 22.6871], [32.2275, 22.6884], [32.215, 22.7015], [32.2006, 22.7029], [32.185, 22.7114], [32.1742, 22.7271], [32.1536, 22.7348], [32.1444, 22.7332], [32.1334, 22.7252], [32.1324, 22.7146], [32.1291, 22.7211], [32.1263, 22.7195], [32.1253, 22.7082], [32.1194, 22.7216], [32.1145, 22.7128], [32.1061, 22.7166], [32.0989, 22.7082], [32.1207, 22.6896], [32.1162, 22.6897], [32.1155, 22.6786], [32.111, 22.6827], [32.1117, 22.6947], [32.0888, 22.7028], [32.079, 22.6969], [32.0865, 22.6894], [32.0776, 22.6857], [32.0773, 22.6921], [32.0728, 22.6898], [32.0767, 22.6819], [32.0748, 22.6693], [32.0637, 22.6877], [32.0629, 22.6787], [32.054, 22.6834], [32.0471, 22.6805], [32.05, 22.6715], [32.0376, 22.6768], [32.0287, 22.6722], [32.0439, 22.6601], [32.0743, 22.6556], [32.0542, 22.6544], [32.0697, 22.6228], [32.0608, 22.6249], [32.0597, 22.6364], [32.055, 22.6264], [32.0571, 22.6197], [32.0517, 22.6216], [32.0499, 22.6299], [32.0581, 22.6402], [32.0503, 22.643], [32.0464, 22.6563], [32.0365, 22.6585], [32.0283, 22.6395], [32.031, 22.6558], [32.0217, 22.6672], [32.019, 22.6591], [32.0147, 22.6642], [32.0069, 22.6549], [32.0126, 22.65], [32.011, 22.6419], [32.0038, 22.6496], [31.9991, 22.6424], [31.9954, 22.6491], [31.9933, 22.6359], [31.9873, 22.6424], [31.9796, 22.6313], [31.9757, 22.6342], [31.968, 22.627], [31.9661, 22.6168], [31.9806, 22.6097], [31.985, 22.6143], [31.9884, 22.6078], [31.9781, 22.6068], [31.978, 22.6034], [31.9699, 22.611], [31.969, 22.6063], [31.9627, 22.61], [31.9615, 22.6053], [31.9709, 22.5874], [31.9791, 22.5931], [31.988, 22.5835], [31.9899, 22.5904], [31.994, 22.5905], [31.9989, 22.5851], [31.9962, 22.583], [32.0072, 22.5778], [31.9888, 22.578], [31.9768, 22.5843], [31.9784, 22.556], [31.9717, 22.5661], [31.9598, 22.5648], [31.9541, 22.5889], [31.9476, 22.5901], [31.9262, 22.5758], [31.9301, 22.5692], [31.9592, 22.555], [31.959, 22.5472], [31.9525, 22.5434], [31.9406, 22.5503], [31.9382, 22.5477], [31.9456, 22.5388], [31.9443, 22.5254], [31.956, 22.5152], [31.9609, 22.5195], [31.9656, 22.513], [31.9594, 22.5075], [31.9612, 22.5023], [31.9788, 22.4974], [31.9908, 22.4827], [31.941, 22.5064], [31.9269, 22.4915], [31.924, 22.5002], [31.92, 22.4977], [31.9183, 22.4892], [31.929, 22.477], [31.9343, 22.456], [31.9151, 22.4636], [31.913, 22.4701], [31.9184, 22.4698], [31.9133, 22.4745], [31.8971, 22.4685], [31.9025, 22.458], [31.8934, 22.4583], [31.8957, 22.4518], [31.8867, 22.4526], [31.8804, 22.4452], [31.8891, 22.441], [31.8826, 22.4166], [31.8908, 22.4135], [31.897, 22.4024], [31.8766, 22.4162], [31.8736, 22.4148], [31.8783, 22.411], [31.8331, 22.4247], [31.8152, 22.4215], [31.8127, 22.4053], [31.8355, 22.3903], [31.8256, 22.3903], [31.824, 22.3824], [31.8165, 22.3886], [31.8112, 22.3865], [31.8212, 22.3748], [31.836, 22.3769], [31.8441, 22.3725], [31.8426, 22.3659], [31.8481, 22.3616], [31.8416, 22.3413], [31.8308, 22.3389], [31.8413, 22.3285], [31.8177, 22.3305], [31.8111, 22.3397], [31.8125, 22.3477], [31.7997, 22.3457], [31.7943, 22.3664], [31.7713, 22.3684], [31.7668, 22.3631], [31.7764, 22.353], [31.7603, 22.3523], [31.7614, 22.359], [31.7569, 22.3615], [31.7481, 22.3554], [31.7521, 22.3265], [31.763, 22.321], [31.7756, 22.3216], [31.7711, 22.3176], [31.7442, 22.3182], [31.7486, 22.3224], [31.7483, 22.3369], [31.7432, 22.3641], [31.739, 22.3649], [31.7187, 22.3543], [31.7128, 22.3558], [31.6884, 22.3358], [31.7038, 22.3137], [31.6925, 22.3193], [31.6887, 22.3151], [31.6832, 22.3323], [31.6686, 22.3344], [31.6648, 22.3326], [31.6698, 22.3272], [31.6707, 22.312], [31.6643, 22.3045], [31.6535, 22.3263], [31.6502, 22.3105], [31.6186, 22.2932], [31.6275, 22.2832], [31.6377, 22.28], [31.6372, 22.2722], [31.6445, 22.2706], [31.6546, 22.2761], [31.6651, 22.2516], [31.6807, 22.2468], [31.6912, 22.2499], [31.6796, 22.2369], [31.6822, 22.2339], [31.6499, 22.2494], [31.6429, 22.2584], [31.6316, 22.2516], [31.6105, 22.2623], [31.6034, 22.2599], [31.5728, 22.226], [31.5539, 22.2175], [31.5483, 22.2203], [31.5421, 22.2148], [31.5389, 22.2186], [31.5397, 22.2092], [31.5468, 22.2057], [31.5442, 22.2027], [31.5586, 22.1939], [31.5619, 22.1858], [31.5414, 22.191], [31.5364, 22.2059], [31.5325, 22.2057], [31.5347, 22.1993], [31.5309, 22.2], [31.5335, 22.1926], [31.5273, 22.1889], [31.5164, 22.1944], [31.5071, 22.1686], [31.4654, 22.1253], [31.4355, 22.0812], [31.4127, 22.0276], [31.4144, 22.0], [33.5057, 21.9994], [33.4713, 25.3066], [32.678, 25.2958], [32.6428, 25.2337], [32.6476, 25.2384], [32.6561, 25.2379], [32.673, 25.234], [32.6883, 25.2242], [32.7204, 25.2009], [32.7129, 25.1968], [32.7148, 25.1904], [32.7358, 25.1667], [32.7684, 25.1434], [32.7906, 25.1411], [32.8181, 25.1248], [32.8258, 25.1133], [32.8407, 25.1095], [32.8561, 25.0864], [32.8826, 25.066], [32.8868, 25.0317], [32.9049, 25.0172], [32.9044, 24.999], [32.9147, 24.9897], [32.9083, 24.9528], [32.8851, 24.923], [32.8947, 24.8833], [32.9032, 24.871], [32.8976, 24.8585]], [[32.5985, 22.6671], [32.6501, 22.6391], [32.6384, 22.595], [32.6244, 22.5957], [32.6053, 22.5762], [32.5971, 22.574], [32.5615, 22.604], [32.5485, 22.6299], [32.537, 22.6357], [32.5691, 22.6618], [32.576, 22.6572], [32.5923, 22.6705], [32.5985, 22.6671]], [[32.3943, 22.467], [32.4001, 22.4597], [32.4167, 22.4616], [32.4158, 22.4516], [32.3953, 22.447], [32.3769, 22.418], [32.3594, 22.4034], [32.3458, 22.4061], [32.3203, 22.4313], [32.3212, 22.4458], [32.3417, 22.4477], [32.3572, 22.4587], [32.3649, 22.4823], [32.3766, 22.4895], [32.3913, 22.4769], [32.3943, 22.467]], [[32.9342, 25.0802], [32.9291, 25.0761], [32.924, 25.0822], [32.9286, 25.0853], [32.9342, 25.0802]], [[32.9591, 25.0527], [32.9499, 25.048], [32.942, 25.0625], [32.9623, 25.0722], [32.9721, 25.0593], [32.9591, 25.0527]], [[32.9248, 25.0229], [32.9152, 25.0206], [32.9128, 25.031], [32.9279, 25.0338], [32.9315, 25.0244], [32.9248, 25.0229]], [[33.002, 24.9046], [32.9799, 24.8933], [32.9719, 24.9078], [32.9923, 24.9175], [33.002, 24.9046]], [[33.0454, 23.8847], [33.0495, 23.8828], [33.0424, 23.8763], [33.0464, 23.866], [33.0342, 23.8642], [33.017, 23.8698], [33.0211, 23.8819], [33.0454, 23.8847]], [[32.9984, 24.0386], [32.9593, 24.0379], [32.9669, 24.0984], [32.9935, 24.0984], [33.0061, 24.0553], [32.9984, 24.0386]], [[33.0219, 24.3212], [33.0101, 24.3061], [32.9936, 24.3082], [32.9806, 24.3299], [33.003, 24.3418], [33.0219, 24.3212]], [[33.0799, 24.5371], [33.0726, 24.5287], [33.0624, 24.5344], [33.0687, 24.5415], [33.0799, 24.5371]]], [[[32.6544, 25.1873], [32.6471, 25.1732], [32.6551, 25.1687], [31.758, 23.4726], [30.9988, 21.9992], [31.3161, 22.0], [31.3438, 22.0726], [31.3477, 22.0962], [31.3583, 22.1168], [31.42, 22.1919], [31.4146, 22.209], [31.4198, 22.2102], [31.4246, 22.2032], [31.4376, 22.2128], [31.437, 22.2205], [31.4478, 22.2184], [31.463, 22.2301], [31.4633, 22.2398], [31.4748, 22.242], [31.4837, 22.2348], [31.4919, 22.2356], [31.4988, 22.248], [31.5101, 22.2531], [31.5153, 22.2662], [31.5269, 22.2692], [31.5661, 22.2955], [31.5652, 22.3099], [31.5843, 22.3069], [31.5925, 22.3202], [31.5944, 22.3173], [31.6094, 22.3232], [31.6138, 22.3323], [31.6257, 22.3325], [31.632, 22.3443], [31.6304, 22.3514], [31.6359, 22.3499], [31.6416, 22.355], [31.6378, 22.3641], [31.6485, 22.3642], [31.6651, 22.3751], [31.6498, 22.3833], [31.6486, 22.394], [31.6542, 22.3908], [31.6644, 22.3917], [31.6714, 22.3987], [31.6732, 22.3947], [31.682, 22.3986], [31.6839, 22.3929], [31.6995, 22.3971], [31.7019, 22.4018], [31.6927, 22.4093], [31.7006, 22.4123], [31.6931, 22.4332], [31.6836, 22.4425], [31.6849, 22.4506], [31.693, 22.4541], [31.6803, 22.4605], [31.6798, 22.4669], [31.6944, 22.4648], [31.7003, 22.4785], [31.705, 22.4747], [31.7079, 22.4485], [31.7203, 22.4441], [31.7346, 22.4464], [31.7325, 22.4715], [31.7479, 22.4683], [31.7496, 22.4633], [31.7608, 22.4632], [31.7485, 22.4808], [31.7521, 22.5001], [31.7616, 22.5043], [31.7703, 22.5002], [31.7723, 22.4842], [31.7954, 22.4613], [31.812, 22.4756], [31.8197, 22.475], [31.8244, 22.4915], [31.8182, 22.499], [31.8019, 22.5035], [31.7859, 22.515], [31.771, 22.5084], [31.7697, 22.5132], [31.7781, 22.5144], [31.7592, 22.519], [31.759, 22.524], [31.7638, 22.5255], [31.7615, 22.5357], [31.7504, 22.5202], [31.7334, 22.526], [31.7349, 22.5391], [31.7226, 22.5403], [31.7289, 22.5472], [31.7178, 22.546], [31.717, 22.565], [31.7074, 22.5618], [31.7087, 22.57], [31.7026, 22.5685], [31.6976, 22.5733], [31.7032, 22.5824], [31.6911, 22.5788], [31.6876, 22.5819], [31.6911, 22.5943], [31.6742, 22.6066], [31.6667, 22.6316], [31.6926, 22.6322], [31.678, 22.6451], [31.6679, 22.6475], [31.6649, 22.6567], [31.6899, 22.651], [31.7076, 22.6188], [31.7233, 22.6212], [31.7474, 22.6077], [31.7307, 22.6112], [31.7464, 22.5974], [31.755, 22.6016], [31.774, 22.594], [31.7706, 22.5899], [31.7784, 22.5803], [31.778, 22.5632], [31.7957, 22.5594], [31.8024, 22.5648], [31.8006, 22.569], [31.8095, 22.5738], [31.8161, 22.5688], [31.8176, 22.5751], [31.8308, 22.5823], [31.8467, 22.5603], [31.8611, 22.5605], [31.8689, 22.5785], [31.8362, 22.5859], [31.8571, 22.6146], [31.8665, 22.6043], [31.8667, 22.6176], [31.8726, 22.6144], [31.8767, 22.6187], [31.8851, 22.6151], [31.8912, 22.6188], [31.8828, 22.6285], [31.888, 22.6351], [31.8676, 22.6424], [31.8782, 22.6509], [31.8656, 22.6628], [31.8665, 22.6666], [31.8769, 22.6649], [31.8837, 22.651], [31.8995, 22.6559], [31.9264, 22.6513], [31.9463, 22.6534], [31.9458, 22.6637], [31.9613, 22.6618], [31.9825, 22.6708], [31.973, 22.7006], [31.9967, 22.6933], [31.9943, 22.7019], [32.0028, 22.704], [32.0039, 22.7094], [32.0125, 22.7089], [32.006, 22.716], [32.0096, 22.7318], [32.0202, 22.7201], [32.0277, 22.7241], [32.0342, 22.7197], [32.0343, 22.7259], [32.0444, 22.7284], [32.0534, 22.7186], [32.0593, 22.7202], [32.0553, 22.7348], [32.0658, 22.7275], [32.0729, 22.7368], [32.0628, 22.7531], [32.0698, 22.7664], [32.0747, 22.765], [32.083, 22.7401], [32.0901, 22.7362], [32.0858, 22.7482], [32.1031, 22.7427], [32.1104, 22.7513], [32.1159, 22.7497], [32.1182, 22.7722], [32.1216, 22.7636], [32.1301, 22.7591], [32.1525, 22.7628], [32.161, 22.8021], [32.1571, 22.826], [32.1625, 22.8223], [32.1773, 22.829], [32.1765, 22.8369], [32.1815, 22.8418], [32.1836, 22.8305], [32.1718, 22.8154], [32.1704, 22.7865], [32.163, 22.7641], [32.1658, 22.7616], [32.1692, 22.7675], [32.1789, 22.7618], [32.1931, 22.7705], [32.1931, 22.7639], [32.2028, 22.7609], [32.2018, 22.7557], [32.219, 22.7565], [32.2287, 22.7497], [32.2306, 22.7585], [32.24, 22.7571], [32.2412, 22.7679], [32.2364, 22.7769], [32.2523, 22.773], [32.2469, 22.762], [32.2531, 22.7486], [32.2474, 22.7416], [32.2582, 22.7282], [32.2642, 22.7087], [32.2732, 22.7033], [32.2733, 22.6804], [32.2857, 22.6723], [32.2894, 22.6541], [32.3005, 22.636], [32.3383, 22.6182], [32.3432, 22.6187], [32.3455, 22.6267], [32.354, 22.6194], [32.3724, 22.6199], [32.3978, 22.6455], [32.404, 22.6586], [32.4036, 22.6719], [32.4142, 22.6792], [32.4141, 22.6989], [32.432, 22.7034], [32.4545, 22.73], [32.4656, 22.7293], [32.4744, 22.7371], [32.4802, 22.736], [32.4803, 22.749], [32.5068, 22.7463], [32.5102, 22.7547], [32.5065, 22.7673], [32.5112, 22.7698], [32.5236, 22.7528], [32.5302, 22.7505], [32.5341, 22.7537], [32.5289, 22.7603], [32.546, 22.7541], [32.5585, 22.7744], [32.566, 22.7735], [32.5701, 22.7813], [32.5561, 22.7948], [32.5613, 22.8004], [32.571, 22.7965], [32.5599, 22.8112], [32.5692, 22.8123], [32.5726, 22.8198], [32.5675, 22.817], [32.5639, 22.8232], [32.5698, 22.834], [32.5566, 22.8377], [32.5604, 22.8454], [32.5679, 22.8441], [32.5619, 22.869], [32.5715, 22.884], [32.5699, 22.9017], [32.5527, 22.9136], [32.5433, 22.9277], [32.5479, 22.9313], [32.5696, 22.914], [32.5797, 22.9181], [32.5836, 22.9184], [32.5801, 22.9163], [32.5834, 22.9141], [32.5942, 22.9159], [32.598, 22.9087], [32.6195, 22.9417], [32.6175, 22.9481], [32.6066, 22.9542], [32.6175, 22.9531], [32.6197, 22.9578], [32.6355, 22.9531], [32.6282, 22.96], [32.6362, 22.9648], [32.6335, 22.9742], [32.6424, 22.9774], [32.6352, 22.9867], [32.6226, 22.9835], [32.6233, 22.99], [32.6074, 23.0012], [32.6011, 22.9989], [32.6061, 23.0056], [32.613, 23.0034], [32.6121, 23.0084], [32.602, 23.0119], [32.6144, 23.0124], [32.6292, 22.9921], [32.6357, 22.9968], [32.6422, 23.0136], [32.6514, 23.0102], [32.6421, 23.0195], [32.6463, 23.0252], [32.6396, 23.0245], [32.6404, 23.0441], [32.6493, 23.0326], [32.6515, 23.0383], [32.6489, 23.0475], [32.6421, 23.05], [32.6408, 23.0596], [32.6558, 23.0575], [32.6577, 23.0519], [32.6626, 23.0537], [32.6683, 23.0477], [32.6696, 23.057], [32.675, 23.0528], [32.6827, 23.0552], [32.6644, 23.0677], [32.6572, 23.0616], [32.6577, 23.0677], [32.6467, 23.0762], [32.6632, 23.0752], [32.6706, 23.0687], [32.6711, 23.074], [32.6851, 23.0722], [32.6742, 23.0801], [32.6815, 23.084], [32.676, 23.0907], [32.6662, 23.0929], [32.6718, 23.0985], [32.6867, 23.0883], [32.6873, 23.093], [32.679, 23.1005], [32.6864, 23.1], [32.6922, 23.1069], [32.6874, 23.109], [32.692, 23.1167], [32.6898, 23.127], [32.6848, 23.1178], [32.6799, 23.1282], [32.6821, 23.1324], [32.6864, 23.1308], [32.685, 23.1356], [32.673, 23.1297], [32.6745, 23.1368], [32.6617, 23.1407], [32.6927, 23.1427], [32.6877, 23.1747], [32.6775, 23.1775], [32.6764, 23.1824], [32.6997, 23.1835], [32.7038, 23.1883], [32.7211, 23.1787], [32.7321, 23.1808], [32.7126, 23.2101], [32.7036, 23.2149], [32.7083, 23.2355], [32.7306, 23.2284], [32.7476, 23.2333], [32.7533, 23.2469], [32.7527, 23.2641], [32.7612, 23.2791], [32.788, 23.2737], [32.7947, 23.2627], [32.7943, 23.2534], [32.8, 23.2505], [32.8056, 23.2629], [32.7976, 23.2669], [32.8009, 23.2775], [32.7975, 23.2862], [32.8218, 23.2903], [32.8331, 23.2699], [32.8293, 23.2621], [32.836, 23.2623], [32.8444, 23.2503], [32.8451, 23.2925], [32.8416, 23.2993], [32.8382, 23.2972], [32.841, 23.2877], [32.8309, 23.2922], [32.8319, 23.3133], [32.842, 23.315], [32.8468, 23.308], [32.8569, 23.311], [32.8651, 23.3252], [32.8839, 23.3073], [32.88, 23.2981], [32.89, 23.2979], [32.894, 23.304], [32.9129, 23.2982], [32.9035, 23.3075], [32.9145, 23.3094], [32.9123, 23.3153], [32.9162, 23.3198], [32.9015, 23.324], [32.9059, 23.3263], [32.8959, 23.342], [32.8997, 23.3423], [32.8987, 23.3473], [32.8432, 23.3823], [32.8332, 23.3834], [32.825, 23.3781], [32.8277, 23.3892], [32.8212, 23.3908], [32.8253, 23.3977], [32.8412, 23.3999], [32.84, 23.406], [32.846, 23.4055], [32.8454, 23.4123], [32.8586, 23.4081], [32.8536, 23.4106], [32.8563, 23.4148], [32.8502, 23.418], [32.8521, 23.421], [32.8706, 23.4195], [32.8479, 23.4289], [32.8673, 23.4311], [32.8627, 23.4359], [32.8707, 23.4393], [32.8667, 23.4465], [32.879, 23.4403], [32.885, 23.4258], [32.8905, 23.4243], [32.8933, 23.4316], [32.9029, 23.4258], [32.902, 23.4332], [32.892, 23.4367], [32.8785, 23.4512], [32.8897, 23.4559], [32.8846, 23.4574], [32.8808, 23.471], [32.8607, 23.47], [32.8661, 23.4753], [32.8774, 23.4747], [32.8789, 23.4841], [32.8728, 23.4863], [32.8793, 23.4892], [32.877, 23.4942], [32.8807, 23.4954], [32.8765, 23.4978], [32.8626, 23.496], [32.8608, 23.4896], [32.856, 23.4925], [32.8475, 23.4891], [32.8388, 23.4801], [32.8429, 23.4731], [32.8212, 23.47], [32.8499, 23.5002], [32.8675, 23.5024], [32.8417, 23.5144], [32.8536, 23.5174], [32.8731, 23.5064], [32.872, 23.5182], [32.8463, 23.5319], [32.8228, 23.5249], [32.8035, 23.5315], [32.8003, 23.5285], [32.8093, 23.519], [32.7951, 23.5248], [32.791, 23.5146], [32.8004, 23.5127], [32.801, 23.499], [32.779, 23.5127], [32.785, 23.5159], [32.7789, 23.519], [32.7889, 23.5217], [32.7982, 23.5318], [32.799, 23.537], [32.7912, 23.54], [32.7931, 23.5467], [32.7827, 23.54], [32.7723, 23.5402], [32.768, 23.5455], [32.7531, 23.541], [32.7575, 23.522], [32.7519, 23.5225], [32.749, 23.5334], [32.745, 23.5259], [32.7419, 23.5309], [32.7296, 23.5307], [32.7148, 23.5241], [32.7214, 23.52], [32.72, 23.5118], [32.7039, 23.5022], [32.7047, 23.4943], [32.6888, 23.4932], [32.7018, 23.5137], [32.6898, 23.5072], [32.684, 23.4966], [32.6861, 23.4871], [32.6617, 23.4821], [32.6627, 23.4862], [32.6461, 23.4942], [32.6526, 23.4839], [32.6483, 23.4773], [32.6299, 23.4918], [32.6313, 23.4975], [32.6236, 23.5043], [32.6104, 23.4962], [32.5962, 23.5037], [32.6092, 23.5048], [32.6065, 23.5071], [32.614, 23.5131], [32.6233, 23.5084], [32.6261, 23.5133], [32.6367, 23.5137], [32.6316, 23.5186], [32.6465, 23.5221], [32.6416, 23.5266], [32.6505, 23.5257], [32.6519, 23.5336], [32.6666, 23.529], [32.6593, 23.5375], [32.6665, 23.5381], [32.6627, 23.5444], [32.6753, 23.5468], [32.6835, 23.535], [32.6937, 23.5406], [32.6976, 23.5329], [32.7059, 23.5331], [32.7084, 23.5354], [32.7021, 23.5386], [32.7093, 23.5401], [32.699, 23.5472], [32.7067, 23.5472], [32.7142, 23.5393], [32.7208, 23.5409], [32.7207, 23.5456], [32.7337, 23.5451], [32.7336, 23.5534], [32.746, 23.5598], [32.7477, 23.5639], [32.7329, 23.5609], [32.7287, 23.5719], [32.7184, 23.5706], [32.7097, 23.5871], [32.7077, 23.5754], [32.6997, 23.5792], [32.7038, 23.5948], [32.701, 23.6049], [32.6902, 23.6192], [32.6817, 23.6208], [32.691, 23.6299], [32.6985, 23.6249], [32.6944, 23.6417], [32.6973, 23.6437], [32.7024, 23.6437], [32.714, 23.6276], [32.7158, 23.6168], [32.7374, 23.613], [32.7341, 23.5928], [32.7426, 23.5953], [32.7359, 23.5885], [32.7416, 23.5847], [32.7412, 23.5791], [32.7543, 23.5831], [32.7701, 23.5975], [32.7851, 23.5842], [32.7904, 23.5865], [32.789, 23.5696], [32.8011, 23.5696], [32.8079, 23.5607], [32.8138, 23.5656], [32.8173, 23.5627], [32.8154, 23.5519], [32.8252, 23.5583], [32.8381, 23.5577], [32.822, 23.566], [32.8327, 23.566], [32.8294, 23.5722], [32.8399, 23.5721], [32.8406, 23.5759], [32.822, 23.5772], [32.8147, 23.5847], [32.8151, 23.5913], [32.8217, 23.5915], [32.8247, 23.5861], [32.8343, 23.587], [32.8354, 23.6002], [32.8407, 23.596], [32.8537, 23.6008], [32.8482, 23.6145], [32.8582, 23.6075], [32.8684, 23.6157], [32.8537, 23.621], [32.8657, 23.6238], [32.8556, 23.6394], [32.8518, 23.634], [32.8448, 23.6411], [32.831, 23.6431], [32.8324, 23.648], [32.8452, 23.645], [32.8555, 23.6491], [32.8428, 23.6573], [32.8426, 23.667], [32.8341, 23.6662], [32.8307, 23.6705], [32.844, 23.6726], [32.8507, 23.6614], [32.8574, 23.6601], [32.8533, 23.6703], [32.8605, 23.6659], [32.8604, 23.6754], [32.8677, 23.6702], [32.8705, 23.6576], [32.8753, 23.6683], [32.8635, 23.6791], [32.8714, 23.6792], [32.8722, 23.6859], [32.883, 23.6843], [32.8767, 23.6897], [32.8828, 23.6982], [32.877, 23.7019], [32.8667, 23.6882], [32.8558, 23.6927], [32.8604, 23.6825], [32.8561, 23.6796], [32.8448, 23.6937], [32.8368, 23.6883], [32.8387, 23.6968], [32.8297, 23.6914], [32.8211, 23.6966], [32.8239, 23.7009], [32.8426, 23.699], [32.8366, 23.7088], [32.8306, 23.7049], [32.804, 23.7143], [32.8027, 23.7233], [32.814, 23.7234], [32.8282, 23.7135], [32.8244, 23.7231], [32.8285, 23.7212], [32.8317, 23.7304], [32.8345, 23.7146], [32.8397, 23.71], [32.8403, 23.7233], [32.8443, 23.7229], [32.8449, 23.7104], [32.8517, 23.7041], [32.8653, 23.7083], [32.8581, 23.7145], [32.8601, 23.7196], [32.8708, 23.7046], [32.8744, 23.7084], [32.8705, 23.7139], [32.8839, 23.7095], [32.887, 23.7138], [32.8804, 23.7205], [32.8899, 23.7236], [32.8763, 23.7244], [32.883, 23.7354], [32.8888, 23.7271], [32.8894, 23.7387], [32.8761, 23.7424], [32.8873, 23.747], [32.8885, 23.7434], [32.8897, 23.7511], [32.8737, 23.7479], [32.8701, 23.7485], [32.8714, 23.7545], [32.8627, 23.7553], [32.871, 23.765], [32.8764, 23.7556], [32.8864, 23.7591], [32.8903, 23.7557], [32.894, 23.7608], [32.8728, 23.7714], [32.8904, 23.7763], [32.8895, 23.7858], [32.8833, 23.7841], [32.8865, 23.7889], [32.8834, 23.7913], [32.8773, 23.7839], [32.8718, 23.7872], [32.8692, 23.7786], [32.8612, 23.7778], [32.863, 23.7849], [32.8483, 23.7879], [32.8759, 23.791], [32.8924, 23.7987], [32.8701, 23.8064], [32.8888, 23.8065], [32.8916, 23.8116], [32.8796, 23.8138], [32.8867, 23.8154], [32.8856, 23.8203], [32.8706, 23.8214], [32.878, 23.8286], [32.8852, 23.8254], [32.8872, 23.8401], [32.8868, 23.8432], [32.8826, 23.8363], [32.8752, 23.8362], [32.8778, 23.8492], [32.8665, 23.8438], [32.8723, 23.8602], [32.8625, 23.8573], [32.8649, 23.8728], [32.8542, 23.8676], [32.8477, 23.8513], [32.8519, 23.8681], [32.8382, 23.8691], [32.8355, 23.8634], [32.8313, 23.8671], [32.8357, 23.8726], [32.8496, 23.8756], [32.849, 23.8858], [32.839, 23.8845], [32.8423, 23.88], [32.8324, 23.8835], [32.8303, 23.8757], [32.8277, 23.8828], [32.8186, 23.8687], [32.8118, 23.8754], [32.8191, 23.8781], [32.8167, 23.8816], [32.8228, 23.8784], [32.8259, 23.8866], [32.8151, 23.8915], [32.8093, 23.8878], [32.8128, 23.8945], [32.8095, 23.8983], [32.7812, 23.9019], [32.7767, 23.8968], [32.7606, 23.895], [32.7766, 23.9], [32.7806, 23.9043], [32.7767, 23.9072], [32.7886, 23.9037], [32.7893, 23.9097], [32.7912, 23.9036], [32.797, 23.9086], [32.7982, 23.9032], [32.8041, 23.9062], [32.8099, 23.9022], [32.8078, 23.9107], [32.8121, 23.9221], [32.8143, 23.9006], [32.8248, 23.8936], [32.8286, 23.9008], [32.8329, 23.8877], [32.8379, 23.8893], [32.8335, 23.8945], [32.8396, 23.8921], [32.8383, 23.8967], [32.8428, 23.8933], [32.8431, 23.8968], [32.8502, 23.8967], [32.8443, 23.9078], [32.8492, 23.9028], [32.8503, 23.9101], [32.8581, 23.91], [32.8531, 23.9318], [32.8584, 23.9341], [32.8576, 23.9426], [32.863, 23.9496], [32.8599, 23.9598], [32.8636, 23.9549], [32.8654, 23.963], [32.8577, 23.9666], [32.8639, 23.9674], [32.8636, 23.9715], [32.8564, 23.9739], [32.8595, 23.9906], [32.854, 24.0137], [32.8594, 24.0176], [32.8599, 24.0275], [32.8489, 24.0636], [32.8501, 24.0911], [32.87, 24.114], [32.8714, 24.1277], [32.8625, 24.141], [32.8533, 24.1791], [32.8469, 24.2496], [32.8706, 24.2751], [32.8778, 24.2977], [32.8926, 24.3094], [32.894, 24.3165], [32.8874, 24.4042], [32.8718, 24.4373], [32.8574, 24.4968], [32.872, 24.5482], [32.889, 24.5713], [32.8933, 24.626], [32.9214, 24.6533], [32.925, 24.6699], [32.9166, 24.6832], [32.9184, 24.7161], [32.9118, 24.771], [32.8958, 24.7886], [32.881, 24.8166], [32.8432, 24.903], [32.8298, 24.9059], [32.8444, 24.9728], [32.8363, 24.9903], [32.8168, 25.0088], [32.8254, 25.0334], [32.8146, 25.0627], [32.8222, 25.0668], [32.823, 25.0818], [32.8102, 25.0898], [32.7987, 25.0885], [32.7623, 25.1016], [32.7323, 25.1364], [32.6908, 25.1575], [32.6723, 25.1774], [32.6544, 25.1873]], [[32.6654, 23.6871], [32.6791, 23.6861], [32.6756, 23.6657], [32.6572, 23.6564], [32.6335, 23.6668], [32.6344, 23.6756], [32.6654, 23.6871]], [[32.8051, 24.9225], [32.8026, 24.9316], [32.7791, 24.9575], [32.774, 24.9921], [32.7507, 25.0151], [32.7639, 25.019], [32.7865, 24.999], [32.795, 24.973], [32.7936, 24.9566], [32.8096, 24.9394], [32.8126, 24.9298], [32.8051, 24.9225]], [[32.8445, 23.9634], [32.8324, 23.9569], [32.8158, 23.9615], [32.8087, 23.9674], [32.8097, 23.9761], [32.8274, 23.9847], [32.854, 23.9866], [32.8518, 23.9666], [32.8445, 23.9634]], [[32.7647, 23.9084], [32.7566, 23.9031], [32.7442, 23.9149], [32.7789, 23.9404], [32.7947, 23.9215], [32.7647, 23.9084]], [[31.6979, 22.8099], [31.6569, 22.7578], [31.586, 22.8012], [31.573, 22.8156], [31.5952, 22.8455], [31.5871, 22.8673], [31.6054, 22.8967], [31.6776, 22.9722], [31.7127, 22.9674], [31.7559, 22.8921], [31.6979, 22.8099]]]]}}, {"type": "Feature", "properties": {"osm_type": "relation", "osm_id": 113354671, "name": "Zemam Out", "admin_level": "6", "kind": "subdivision_2", "parent_osm_id": 3061827, "parent_name": "New Valley", "parent_iso": "EG-WAD"}, "geometry": {"type": "MultiPolygon", "coordinates": [[[[32.5661, 26.2095], [32.6167, 26.2076], [32.65, 26.192], [32.6653, 26.1965], [32.6655, 26.1856], [32.6932, 26.1706], [32.7022, 26.1724], [32.7265, 26.1958], [32.7317, 26.1903], [32.7327, 26.1764], [32.7382, 26.1694], [32.7469, 26.1676], [32.7505, 26.1494], [32.7729, 26.1305], [32.7812, 26.1113], [32.7967, 26.097], [32.7997, 26.0894], [32.7961, 26.0823], [32.8286, 26.0519], [32.8362, 26.0112], [32.8664, 25.9968], [32.8718, 25.9824], [32.862, 25.9811], [32.846, 25.9669], [32.8499, 25.9612], [32.8467, 25.9234], [32.8418, 25.9053], [32.8319, 25.8942], [32.837, 25.8762], [32.8334, 25.8618], [32.8015, 25.823], [32.7933, 25.8024], [32.7745, 25.7881], [32.7382, 25.7364], [32.8318, 25.6932], [32.831, 25.6603], [32.803, 25.579], [32.7363, 25.5422], [32.6608, 25.5373], [32.4964, 25.5457], [32.5055, 25.5124], [32.5184, 25.5067], [32.526, 25.4751], [32.5737, 25.398], [32.568, 25.3744], [32.5753, 25.362], [32.5809, 25.3143], [32.5901, 25.3033], [32.5852, 25.2934], [32.6171, 25.2563], [32.6428, 25.2337], [32.678, 25.2958], [33.4713, 25.3066], [33.2745, 25.533], [33.2417, 25.6351], [33.2932, 25.7392], [33.3899, 25.867], [33.4856, 25.9392], [33.567, 25.9841], [33.5941, 26.081], [33.5458, 26.2119], [33.3797, 26.5063], [33.3173, 26.5317], [33.2286, 26.5077], [33.1534, 26.5248], [32.9312, 26.6932], [32.8878, 26.6995], [32.7412, 26.6855], [32.28, 26.1398], [32.2588, 26.1521], [32.2215, 26.1155], [32.2535, 26.0943], [32.2956, 26.0908], [32.3173, 26.1063], [32.3251, 26.1411], [32.3382, 26.1492], [32.3412, 26.1576], [32.4097, 26.1675], [32.4469, 26.1623], [32.4675, 26.176], [32.475, 26.1975], [32.4887, 26.2031], [32.5057, 26.2059], [32.5152, 26.1913], [32.5241, 26.2024], [32.5418, 26.2098], [32.5661, 26.2095]], [[32.7768, 26.1669], [32.7583, 26.1536], [32.7488, 26.1798], [32.7373, 26.1959], [32.7469, 26.2018], [32.7768, 26.1669]]], [[[31.9865, 26.1593], [31.9548, 26.1333], [32.0395, 26.061], [32.2175, 25.9739], [32.2452, 25.9846], [32.3215, 25.9867], [32.4426, 26.0407], [32.6748, 26.1033], [32.7332, 26.0758], [32.7393, 26.0567], [32.7272, 25.974], [32.6831, 25.9179], [32.6684, 25.84], [32.6435, 25.7901], [32.5335, 25.6918], [32.4251, 25.6464], [32.4502, 25.4118], [32.4568, 25.4179], [32.4756, 25.4225], [32.4897, 25.4182], [32.4851, 25.4947], [32.4671, 25.5112], [32.4385, 25.5626], [32.4428, 25.5976], [32.4374, 25.6028], [32.4464, 25.6272], [32.4439, 25.6426], [32.4558, 25.6447], [32.4634, 25.6593], [32.4731, 25.6644], [32.5558, 25.693], [32.5858, 25.7107], [32.5911, 25.7224], [32.6008, 25.7276], [32.5996, 25.7316], [32.6309, 25.7448], [32.6453, 25.7566], [32.6736, 25.7935], [32.705, 25.8067], [32.6937, 25.8344], [32.6994, 25.9039], [32.7271, 25.9677], [32.7278, 25.9815], [32.7404, 25.9968], [32.7438, 26.0392], [32.7326, 26.0981], [32.7235, 26.1136], [32.7067, 26.1246], [32.6348, 26.1454], [32.6042, 26.1269], [32.5732, 26.1149], [32.4928, 26.1003], [32.4805, 26.0726], [32.4536, 26.0756], [32.4299, 26.0665], [32.3865, 26.0365], [32.3414, 26.0247], [32.2886, 25.9983], [32.2727, 26.0024], [32.2689, 25.999], [32.2718, 25.9941], [32.2614, 25.9912], [32.2527, 25.9999], [32.1809, 26.0023], [32.1451, 26.0243], [32.1331, 26.0227], [32.1328, 26.0346], [32.105, 26.0508], [32.091, 26.0706], [32.0742, 26.0797], [32.056, 26.0804], [32.0557, 26.085], [32.0342, 26.0956], [31.9981, 26.1292], [31.9865, 26.1593]]], [[[32.471, 25.3496], [32.4829, 25.3602], [32.4771, 25.3843], [32.4704, 25.3887], [32.4601, 25.3862], [32.4524, 25.3923], [32.471, 25.3496]]], [[[32.6471, 25.1732], [32.6544, 25.1873], [32.6256, 25.2087], [32.606, 25.2099], [32.5961, 25.2153], [32.5803, 25.2437], [32.56, 25.2476], [32.5198, 25.2819], [32.5172, 25.2987], [32.4969, 25.3383], [32.4786, 25.3322], [32.5158, 25.2466], [32.6471, 25.1732]]]]}}]}