{"type": "FeatureCollection", "parent": {"osm_id": 3244377, "name": "Al-Qadisiyah Governorate", "admin_level": "4", "kind": "subdivision_1", "child_kind": "subdivision_2", "iso": "IQ-QA"}, "features": [{"type": "Feature", "properties": {"osm_type": "relation", "osm_id": 735098673, "name": "Afaq", "admin_level": "6", "kind": "subdivision_2", "parent_osm_id": 3244377, "parent_name": "Al-Qadisiyah Governorate", "parent_iso": "IQ-QA"}, "geometry": {"type": "Polygon", "coordinates": [[[45.6239, 32.0885], [45.5751, 32.1063], [45.5489, 32.183], [45.4008, 32.2717], [45.4127, 32.3002], [45.3627, 32.302], [45.3609, 32.3544], [45.2699, 32.3579], [45.2664, 32.4031], [45.214, 32.4079], [45.1007, 32.3738], [45.0791, 32.3507], [45.0167, 32.3051], [44.9864, 32.27], [44.9596, 32.2211], [44.9661, 32.2135], [44.9655, 32.1934], [44.9805, 32.1781], [44.9718, 32.1682], [44.9851, 32.1634], [44.9913, 32.1494], [44.9515, 32.1278], [44.9534, 32.0755], [44.9472, 32.056], [44.9602, 32.0564], [44.9779, 32.0765], [45.0211, 32.0561], [45.0549, 32.0511], [45.0493, 32.0322], [45.0764, 32.0136], [45.0761, 32.0048], [45.0883, 31.995], [45.0984, 31.9964], [45.1472, 31.9679], [45.1461, 31.9571], [45.1741, 31.9055], [45.1734, 31.8883], [45.22, 31.8043], [45.2077, 31.7694], [45.2103, 31.7173], [45.2384, 31.724], [45.2424, 31.7413], [45.3641, 31.728], [45.4239, 31.7096], [45.5159, 31.7047], [45.6014, 31.6883], [45.7733, 31.6353], [45.8041, 31.6582], [45.8033, 31.7019], [45.7897, 31.737], [45.7827, 31.7892], [45.7346, 31.8904], [45.7336, 31.91], [45.7458, 31.9498], [45.6887, 32.0236], [45.7101, 32.045], [45.703, 32.0593], [45.6239, 32.0885]]]}}, {"type": "Feature", "properties": {"osm_type": "relation", "osm_id": 729866836, "name": "Al-Diwaniya", "admin_level": "6", "kind": "subdivision_2", "parent_osm_id": 3244377, "parent_name": "Al-Qadisiyah Governorate", "parent_iso": "IQ-QA"}, "geometry": {"type": "Polygon", "coordinates": [[[44.9864, 32.27], [44.9312, 32.2589], [44.8943, 32.2115], [44.8322, 32.2403], [44.8109, 32.2274], [44.8133, 32.1947], [44.8334, 32.1947], [44.8241, 32.1476], [44.7693, 32.1063], [44.751, 32.1069], [44.7357, 32.093], [44.72, 32.0892], [44.7098, 32.0506], [44.7149, 32.0357], [44.7121, 32.0019], [44.6975, 32.0009], [44.706, 31.9941], [44.703, 31.9644], [44.7081, 31.9338], [44.6762, 31.9376], [44.6953, 31.8917], [44.6949, 31.8646], [44.7051, 31.8387], [44.7307, 31.8042], [44.7853, 31.7704], [44.8022, 31.8083], [44.833, 31.8064], [44.842, 31.8245], [44.8697, 31.8566], [44.9027, 31.8674], [44.9329, 31.8595], [44.9447, 31.884], [44.9593, 31.8951], [44.9764, 31.8953], [45.0028, 31.8809], [45.0199, 31.8813], [45.0472, 31.87], [45.1747, 31.8682], [45.181, 31.8719], [45.1734, 31.8883], [45.1741, 31.9055], [45.1461, 31.9571], [45.1472, 31.9679], [45.0984, 31.9964], [45.0883, 31.995], [45.0761, 32.0048], [45.0764, 32.0136], [45.0493, 32.0322], [45.0549, 32.0511], [45.0211, 32.0561], [44.9779, 32.0765], [44.9602, 32.0564], [44.9472, 32.056], [44.9534, 32.0755], [44.9515, 32.1278], [44.9913, 32.1494], [44.9851, 32.1634], [44.9718, 32.1682], [44.9805, 32.1781], [44.9655, 32.1934], [44.9661, 32.2135], [44.9596, 32.2211], [44.9864, 32.27]]]}}, {"type": "Feature", "properties": {"osm_type": "relation", "osm_id": 467412074, "name": "Al-Hamza", "admin_level": "6", "kind": "subdivision_2", "parent_osm_id": 3244377, "parent_name": "Al-Qadisiyah Governorate", "parent_iso": "IQ-QA"}, "geometry": {"type": "Polygon", "coordinates": [[[45.181, 31.8719], [45.1747, 31.8682], [45.0472, 31.87], [45.0199, 31.8813], [45.0028, 31.8809], [44.9764, 31.8953], [44.9593, 31.8951], [44.9447, 31.884], [44.9329, 31.8595], [44.9027, 31.8674], [44.8697, 31.8566], [44.842, 31.8245], [44.833, 31.8064], [44.8022, 31.8083], [44.7853, 31.7704], [44.7962, 31.7644], [44.8091, 31.745], [44.7976, 31.717], [44.8015, 31.6928], [44.7884, 31.6886], [44.7772, 31.6736], [44.755, 31.6581], [44.7162, 31.6585], [44.7027, 31.6728], [44.6872, 31.6751], [44.6695, 31.6529], [44.6805, 31.6427], [44.6816, 31.6356], [44.671, 31.6228], [44.6511, 31.6216], [44.6432, 31.6152], [44.6383, 31.5927], [44.5732, 31.6032], [44.5465, 31.6162], [44.5392, 31.5972], [44.4959, 31.626], [44.4096, 31.581], [44.5357, 31.4609], [44.7702, 31.4224], [44.9493, 31.2891], [44.989, 31.2895], [45.0039, 31.351], [45.0043, 31.3943], [45.0461, 31.4365], [45.0573, 31.4586], [45.073, 31.5265], [45.1047, 31.5317], [45.1256, 31.6031], [45.1248, 31.6224], [45.0324, 31.6835], [45.038, 31.6887], [45.2103, 31.7173], [45.2077, 31.7694], [45.22, 31.8043], [45.181, 31.8719]]]}}, {"type": "Feature", "properties": {"osm_type": "relation", "osm_id": 399163617, "name": "Al-Shamiya", "admin_level": "6", "kind": "subdivision_2", "parent_osm_id": 3244377, "parent_name": "Al-Qadisiyah Governorate", "parent_iso": "IQ-QA"}, "geometry": {"type": "Polygon", "coordinates": [[[44.751, 32.1069], [44.7261, 32.1162], [44.7114, 32.1288], [44.6592, 32.141], [44.6235, 32.0866], [44.6129, 32.0823], [44.5782, 32.0921], [44.5345, 32.0724], [44.5353, 32.052], [44.5479, 32.0342], [44.5144, 32.0177], [44.5089, 31.9621], [44.5904, 31.8234], [44.555, 31.7659], [44.5463, 31.7391], [44.553, 31.6614], [44.5465, 31.6162], [44.5638, 31.6066], [44.6131, 31.5938], [44.6383, 31.5927], [44.6432, 31.6152], [44.6511, 31.6216], [44.671, 31.6228], [44.6816, 31.6356], [44.6805, 31.6427], [44.6695, 31.6529], [44.6872, 31.6751], [44.7027, 31.6728], [44.7162, 31.6585], [44.755, 31.6581], [44.7772, 31.6736], [44.7884, 31.6886], [44.8015, 31.6928], [44.7976, 31.717], [44.8091, 31.745], [44.7962, 31.7644], [44.7307, 31.8042], [44.7051, 31.8387], [44.6949, 31.8646], [44.6953, 31.8917], [44.6762, 31.9376], [44.7081, 31.9338], [44.703, 31.9644], [44.706, 31.9941], [44.6975, 32.0009], [44.7121, 32.0019], [44.7149, 32.0357], [44.7098, 32.0506], [44.72, 32.0892], [44.7357, 32.093], [44.751, 32.1069]]]}}]}