{"type": "FeatureCollection", "parent": {"osm_id": 3328699, "name": "Volta Region", "admin_level": "4", "kind": "subdivision_1", "child_kind": "subdivision_2", "iso": "GH-TV"}, "features": [{"type": "Feature", "properties": {"osm_type": "relation", "osm_id": 410452493, "name": "Ketu North", "admin_level": "6", "kind": "subdivision_2", "parent_osm_id": 3328699, "parent_name": "Volta Region", "parent_iso": "GH-TV"}, "geometry": {"type": "Polygon", "coordinates": [[[1.0791, 6.1712], [1.0754, 6.1771], [1.081, 6.1829], [1.0716, 6.1949], [1.0757, 6.1944], [1.0663, 6.219], [1.0548, 6.2333], [1.0365, 6.2383], [1.0178, 6.2697], [1.0157, 6.2872], [1.0079, 6.2938], [1.0044, 6.3347], [0.964, 6.335], [0.9599, 6.3132], [0.9647, 6.2969], [0.9593, 6.2885], [0.9448, 6.2836], [0.9355, 6.2735], [0.9283, 6.281], [0.917, 6.2763], [0.8975, 6.2784], [0.8943, 6.2468], [0.9002, 6.2177], [0.8794, 6.1883], [0.8741, 6.1636], [0.8792, 6.158], [0.8755, 6.1552], [0.8777, 6.1486], [0.8916, 6.1411], [0.8855, 6.1392], [0.8867, 6.1318], [0.8779, 6.1229], [0.8843, 6.1179], [0.8631, 6.0697], [0.8734, 6.0636], [0.9202, 6.0638], [0.9575, 6.0576], [0.977, 6.0479], [0.9988, 6.0466], [0.9935, 6.0589], [1.02, 6.0691], [1.0135, 6.0802], [0.9788, 6.0853], [0.9769, 6.0903], [0.9875, 6.1094], [1.0029, 6.109], [0.9952, 6.1201], [1.0174, 6.122], [1.0365, 6.1405], [1.0217, 6.1714], [1.0315, 6.1818], [1.0791, 6.1712]]]}}, {"type": "Feature", "properties": {"osm_type": "relation", "osm_id": 185166064, "name": "Ketu South", "admin_level": "6", "kind": "subdivision_2", "parent_osm_id": 3328699, "parent_name": "Volta Region", "parent_iso": "GH-TV"}, "geometry": {"type": "Polygon", "coordinates": [[[0.9988, 6.0466], [0.992, 6.0312], [0.9966, 6.0229], [1.0075, 6.0206], [1.0103, 5.9925], [1.0186, 5.9792], [1.0314, 5.9827], [1.0818, 6.0465], [1.1261, 6.0773], [1.1995, 6.1127], [1.2002, 6.1676], [1.0857, 6.1686], [1.0315, 6.1818], [1.0217, 6.1714], [1.0365, 6.1405], [1.0174, 6.122], [0.9952, 6.1201], [1.0029, 6.109], [0.9875, 6.1094], [0.9769, 6.0903], [0.9788, 6.0853], [1.0135, 6.0802], [1.02, 6.0691], [0.9935, 6.0589], [0.9988, 6.0466]]]}}, {"type": "Feature", "properties": {"osm_type": "relation", "osm_id": 384480853, "name": "Keta Municipal", "admin_level": "6", "kind": "subdivision_2", "parent_osm_id": 3328699, "parent_name": "Volta Region", "parent_iso": "GH-TV"}, "geometry": {"type": "Polygon", "coordinates": [[[0.8631, 6.0697], [0.857, 6.0681], [0.8559, 6.0581], [0.8401, 6.0374], [0.8593, 6.0353], [0.8607, 6.0052], [0.8527, 6.0033], [0.8346, 6.0095], [0.8293, 6.0012], [0.8226, 6.0034], [0.8037, 5.9585], [0.7852, 5.9666], [0.7664, 5.9549], [0.7667, 5.9394], [0.7612, 5.9274], [0.7725, 5.9232], [0.7777, 5.9256], [0.7751, 5.9217], [0.7844, 5.9193], [0.782, 5.9155], [0.7884, 5.908], [0.7815, 5.9037], [0.7838, 5.884], [0.7724, 5.8772], [0.8106, 5.8831], [0.8187, 5.8738], [0.8523, 5.8842], [0.8825, 5.8681], [0.8755, 5.8415], [0.879, 5.8219], [0.9207, 5.8069], [0.9599, 5.8148], [0.9809, 5.8405], [0.9884, 5.8575], [0.9938, 5.8795], [0.9903, 5.9067], [0.9956, 5.9265], [1.0314, 5.9827], [1.0186, 5.9792], [1.0103, 5.9925], [1.0075, 6.0206], [0.9966, 6.0229], [0.992, 6.0312], [0.9988, 6.0466], [0.977, 6.0479], [0.9575, 6.0576], [0.9202, 6.0638], [0.8734, 6.0636], [0.8631, 6.0697]]]}}, {"type": "Feature", "properties": {"osm_type": "relation", "osm_id": 507118782, "name": "Kadjebi", "admin_level": "6", "kind": "subdivision_2", "parent_osm_id": 3328699, "parent_name": "Volta Region", "parent_iso": "GH-TV"}, "geometry": {"type": "MultiPolygon", "coordinates": [[[[0.624, 7.9012], [0.6204, 7.9008], [0.624, 7.9012]]], [[[0.6198, 7.9005], [0.5937, 7.8997], [0.5892, 7.9049], [0.5864, 7.9019], [0.5695, 7.9106], [0.5629, 7.9204], [0.5336, 7.9085], [0.5088, 7.9153], [0.5026, 7.9106], [0.5032, 7.9047], [0.4918, 7.9001], [0.4971, 7.8974], [0.4929, 7.8918], [0.5038, 7.8944], [0.5069, 7.8907], [0.5079, 7.8746], [0.4974, 7.8705], [0.4971, 7.8623], [0.4908, 7.8632], [0.4856, 7.8563], [0.4846, 7.845], [0.4771, 7.836], [0.4841, 7.8305], [0.4667, 7.8324], [0.4623, 7.8257], [0.4503, 7.8376], [0.442, 7.8275], [0.4461, 7.8174], [0.4434, 7.813], [0.4502, 7.8085], [0.448, 7.8006], [0.4533, 7.7931], [0.4426, 7.7617], [0.4479, 7.7533], [0.4432, 7.7498], [0.4485, 7.7284], [0.4422, 7.7106], [0.4447, 7.6913], [0.438, 7.6867], [0.4304, 7.6923], [0.4218, 7.6884], [0.4239, 7.6141], [0.4198, 7.5305], [0.4854, 7.515], [0.5214, 7.5201], [0.529, 7.5842], [0.5273, 7.5894], [0.5184, 7.5923], [0.5436, 7.6081], [0.5535, 7.6071], [0.586, 7.6239], [0.5828, 7.6569], [0.5907, 7.703], [0.6088, 7.7109], [0.6196, 7.7032], [0.6301, 7.7062], [0.6235, 7.7141], [0.6114, 7.7528], [0.6199, 7.7575], [0.6191, 7.7643], [0.631, 7.7686], [0.6295, 7.7945], [0.6171, 7.7962], [0.6214, 7.7995], [0.6174, 7.8067], [0.6198, 7.8375], [0.6262, 7.8504], [0.6274, 7.8682], [0.6233, 7.8714], [0.6198, 7.9005]]]]}}, {"type": "Feature", "properties": {"osm_type": "relation", "osm_id": 391021313, "name": "South Tongu", "admin_level": "6", "kind": "subdivision_2", "parent_osm_id": 3328699, "parent_name": "Volta Region", "parent_iso": "GH-TV"}, "geometry": {"type": "Polygon", "coordinates": [[[0.688, 5.7778], [0.6982, 5.774], [0.7044, 5.7805], [0.7102, 5.7748], [0.7205, 5.7846], [0.7181, 5.7921], [0.7105, 5.7951], [0.7121, 5.8057], [0.7183, 5.8108], [0.7098, 5.8296], [0.7187, 5.8694], [0.7463, 5.88], [0.7594, 5.8711], [0.7554, 5.8743], [0.7724, 5.8772], [0.7838, 5.884], [0.7815, 5.9037], [0.7884, 5.908], [0.782, 5.9155], [0.7844, 5.9193], [0.7751, 5.9217], [0.7777, 5.9256], [0.7725, 5.9232], [0.7612, 5.9274], [0.7667, 5.9394], [0.7664, 5.9549], [0.7546, 5.969], [0.7407, 5.9689], [0.7257, 5.9832], [0.7048, 5.9926], [0.7108, 6.0148], [0.7298, 6.0242], [0.7311, 6.0343], [0.7509, 6.0545], [0.7552, 6.0715], [0.7472, 6.0933], [0.7342, 6.0993], [0.7226, 6.1188], [0.7174, 6.1195], [0.7256, 6.1315], [0.7253, 6.1434], [0.7215, 6.1527], [0.7088, 6.1562], [0.6929, 6.1241], [0.6721, 6.1057], [0.6604, 6.1128], [0.6521, 6.1036], [0.6306, 6.0939], [0.6191, 6.1064], [0.6092, 6.1071], [0.595, 6.0993], [0.587, 6.0788], [0.557, 6.0847], [0.5519, 6.0807], [0.5544, 6.0548], [0.5482, 6.0377], [0.549, 6.0068], [0.5179, 6.0019], [0.496, 6.0084], [0.499, 5.991], [0.5254, 5.9788], [0.524, 5.9549], [0.5417, 5.9497], [0.5504, 5.9351], [0.551, 5.9203], [0.559, 5.9393], [0.5661, 5.9382], [0.5706, 5.9298], [0.5761, 5.9328], [0.5888, 5.919], [0.5746, 5.8999], [0.5997, 5.8906], [0.6068, 5.8769], [0.6191, 5.8758], [0.6124, 5.8728], [0.615, 5.8646], [0.6315, 5.8668], [0.6197, 5.854], [0.6203, 5.8343], [0.6429, 5.841], [0.6546, 5.8272], [0.6519, 5.8052], [0.6777, 5.7952], [0.688, 5.7778]]]}}, {"type": "Feature", "properties": {"osm_type": "relation", "osm_id": 395582168, "name": "Jasikan", "admin_level": "6", "kind": "subdivision_2", "parent_osm_id": 3328699, "parent_name": "Volta Region", "parent_iso": "GH-TV"}, "geometry": {"type": "Polygon", "coordinates": [[[0.4198, 7.5305], [0.4072, 7.5166], [0.3901, 7.5091], [0.392, 7.4754], [0.3871, 7.4726], [0.3877, 7.4651], [0.3835, 7.4642], [0.3713, 7.4332], [0.3457, 7.4223], [0.347, 7.396], [0.3331, 7.3784], [0.3265, 7.3776], [0.329, 7.363], [0.3506, 7.3629], [0.3546, 7.3584], [0.3833, 7.3699], [0.4088, 7.3563], [0.4444, 7.3617], [0.4429, 7.3766], [0.4565, 7.3976], [0.4709, 7.4061], [0.4732, 7.3455], [0.4664, 7.3282], [0.4794, 7.2923], [0.4914, 7.2901], [0.5051, 7.3009], [0.5225, 7.2976], [0.5342, 7.3051], [0.5405, 7.2955], [0.5417, 7.2714], [0.5336, 7.2473], [0.5171, 7.2397], [0.5212, 7.2347], [0.5193, 7.2205], [0.5357, 7.22], [0.5427, 7.2251], [0.5409, 7.2332], [0.5486, 7.2389], [0.5629, 7.2682], [0.5717, 7.2676], [0.5771, 7.2841], [0.5741, 7.2878], [0.5808, 7.2886], [0.5836, 7.2781], [0.6063, 7.2665], [0.6442, 7.263], [0.6432, 7.2797], [0.6589, 7.3166], [0.6432, 7.375], [0.6482, 7.379], [0.6447, 7.3979], [0.6196, 7.4133], [0.6061, 7.4057], [0.6012, 7.4078], [0.5986, 7.4002], [0.5731, 7.3947], [0.5531, 7.4052], [0.5436, 7.4217], [0.5359, 7.4263], [0.5321, 7.4572], [0.5211, 7.4547], [0.5189, 7.4608], [0.525, 7.4636], [0.5212, 7.4738], [0.5299, 7.4811], [0.526, 7.4829], [0.5285, 7.491], [0.5231, 7.4936], [0.519, 7.5125], [0.5214, 7.5201], [0.4854, 7.515], [0.4198, 7.5305]]]}}, {"type": "Feature", "properties": {"osm_type": "relation", "osm_id": 829242531, "name": "Krachi East Municipal", "admin_level": "6", "kind": "subdivision_2", "parent_osm_id": 3328699, "parent_name": "Volta Region", "parent_iso": "GH-TV"}, "geometry": {"type": "Polygon", "coordinates": [[[0.4918, 7.9001], [0.4897, 7.9117], [0.4682, 7.9334], [0.4755, 7.9467], [0.4699, 7.9551], [0.4598, 7.9553], [0.4509, 7.9646], [0.4371, 7.9563], [0.4332, 7.9651], [0.4127, 7.9697], [0.4046, 7.966], [0.4069, 7.9755], [0.3112, 8.0417], [0.3118, 8.0535], [0.3049, 8.0663], [0.2828, 8.0647], [0.2683, 8.0714], [0.2569, 8.087], [0.2572, 8.0917], [0.2639, 8.0938], [0.2544, 8.095], [0.2415, 8.1067], [0.2593, 8.1079], [0.2765, 8.1175], [0.2849, 8.1156], [0.303, 8.1289], [0.312, 8.1436], [0.3173, 8.1664], [0.3081, 8.1807], [0.2922, 8.1831], [0.2841, 8.1891], [0.2755, 8.1875], [0.2743, 8.1961], [0.2792, 8.1963], [0.2716, 8.2043], [0.266, 8.2015], [0.2665, 8.1955], [0.2458, 8.2066], [0.2308, 8.2005], [0.2198, 8.2019], [0.2131, 8.1948], [0.2031, 8.196], [0.1939, 8.1907], [0.1783, 8.1942], [0.1785, 8.1857], [0.1643, 8.1716], [0.1519, 8.1673], [0.1477, 8.1554], [0.1573, 8.1339], [0.1766, 8.1159], [0.197, 8.1092], [0.1939, 8.0934], [0.1729, 8.0883], [0.1404, 8.07], [0.0897, 8.0744], [0.0763, 8.0643], [0.0743, 8.0533], [0.1186, 8.0149], [0.1164, 7.9944], [0.1037, 7.9737], [0.0657, 7.9504], [0.0734, 7.9047], [0.0678, 7.8563], [0.0599, 7.8333], [0.0766, 7.8329], [0.0778, 7.7943], [0.0673, 7.7681], [0.0444, 7.7402], [0.0373, 7.7122], [0.0145, 7.6913], [-0.0152, 7.684], [-0.0143, 7.6261], [0.0094, 7.5784], [0.043, 7.539], [0.0771, 7.4821], [0.091, 7.4293], [0.1241, 7.4064], [0.1346, 7.4159], [0.1703, 7.4157], [0.1789, 7.4221], [0.1826, 7.4322], [0.2436, 7.4671], [0.2576, 7.4656], [0.2804, 7.483], [0.3029, 7.4877], [0.3004, 7.5061], [0.3065, 7.5045], [0.3101, 7.5185], [0.3053, 7.5208], [0.312, 7.5257], [0.3039, 7.5398], [0.315, 7.5356], [0.3271, 7.5466], [0.3245, 7.5532], [0.3285, 7.5606], [0.3222, 7.5666], [0.3303, 7.5737], [0.3207, 7.5786], [0.3251, 7.5839], [0.32, 7.5892], [0.3367, 7.5968], [0.3287, 7.6065], [0.3333, 7.6118], [0.3318, 7.6194], [0.345, 7.6296], [0.3523, 7.6674], [0.3708, 7.6781], [0.3705, 7.6847], [0.3778, 7.6916], [0.3777, 7.6852], [0.4021, 7.6948], [0.4191, 7.6929], [0.4218, 7.6884], [0.4304, 7.6923], [0.438, 7.6867], [0.4447, 7.6913], [0.4422, 7.7106], [0.4485, 7.7284], [0.4432, 7.7498], [0.4479, 7.7533], [0.4426, 7.7617], [0.4533, 7.7931], [0.448, 7.8006], [0.4502, 7.8085], [0.4434, 7.813], [0.4461, 7.8174], [0.442, 7.8275], [0.4503, 7.8376], [0.4623, 7.8257], [0.4667, 7.8324], [0.4841, 7.8305], [0.4771, 7.836], [0.4846, 7.845], [0.4856, 7.8563], [0.4908, 7.8632], [0.4971, 7.8623], [0.4974, 7.8705], [0.5079, 7.8746], [0.5069, 7.8907], [0.5038, 7.8944], [0.4929, 7.8918], [0.4971, 7.8974], [0.4918, 7.9001]]]}}, {"type": "Feature", "properties": {"osm_type": "relation", "osm_id": 212757651, "name": "Nkwanta South Municipal", "admin_level": "6", "kind": "subdivision_2", "parent_osm_id": 3328699, "parent_name": "Volta Region", "parent_iso": "GH-TV"}, "geometry": {"type": "Polygon", "coordinates": [[[0.6261, 7.9014], [0.6323, 7.9146], [0.627, 7.9172], [0.6313, 7.9193], [0.6212, 7.9367], [0.6237, 7.9625], [0.6171, 7.9653], [0.6126, 8.0057], [0.6225, 8.0078], [0.6221, 8.0145], [0.6096, 8.0271], [0.5986, 8.027], [0.5941, 8.0399], [0.5988, 8.0583], [0.5973, 8.0627], [0.5927, 8.0606], [0.585, 8.0933], [0.5872, 8.1032], [0.5919, 8.1032], [0.5921, 8.139], [0.6069, 8.1388], [0.6113, 8.1541], [0.607, 8.1723], [0.6139, 8.1801], [0.6133, 8.1842], [0.6032, 8.1814], [0.5898, 8.195], [0.59, 8.2077], [0.6106, 8.2162], [0.6191, 8.2151], [0.6254, 8.2249], [0.6246, 8.2358], [0.6383, 8.2451], [0.6389, 8.2606], [0.6735, 8.259], [0.6819, 8.2662], [0.6829, 8.2796], [0.7264, 8.2815], [0.7313, 8.2943], [0.7294, 8.3411], [0.7176, 8.3433], [0.7201, 8.3494], [0.7101, 8.3519], [0.7082, 8.3722], [0.7121, 8.3767], [0.7084, 8.3775], [0.7095, 8.385], [0.6989, 8.3888], [0.7055, 8.3945], [0.6933, 8.3949], [0.6961, 8.4043], [0.6518, 8.422], [0.6515, 8.4483], [0.6558, 8.4554], [0.645, 8.4753], [0.6453, 8.4938], [0.6397, 8.4978], [0.6299, 8.4965], [0.6261, 8.5027], [0.6296, 8.5078], [0.6212, 8.5121], [0.591, 8.5167], [0.5843, 8.5286], [0.5717, 8.526], [0.5601, 8.5499], [0.5424, 8.556], [0.5296, 8.57], [0.514, 8.5652], [0.508, 8.5731], [0.4996, 8.5742], [0.5007, 8.5814], [0.4918, 8.5975], [0.482, 8.5986], [0.4801, 8.5938], [0.4717, 8.5997], [0.4576, 8.5988], [0.4477, 8.5871], [0.4223, 8.5829], [0.4022, 8.5606], [0.386, 8.5521], [0.3707, 8.5507], [0.3665, 8.5361], [0.358, 8.5351], [0.3629, 8.5259], [0.3428, 8.5202], [0.3412, 8.5142], [0.3307, 8.5081], [0.3159, 8.5066], [0.3248, 8.4895], [0.3166, 8.49], [0.3139, 8.4813], [0.3015, 8.4806], [0.3001, 8.4746], [0.307, 8.4693], [0.3019, 8.4645], [0.3062, 8.4609], [0.2945, 8.4576], [0.2975, 8.4487], [0.2885, 8.4501], [0.2896, 8.4401], [0.2834, 8.4378], [0.2872, 8.4327], [0.281, 8.43], [0.3007, 8.4179], [0.2951, 8.4138], [0.2862, 8.4156], [0.2774, 8.3938], [0.2907, 8.3897], [0.2845, 8.373], [0.2906, 8.3656], [0.2846, 8.3611], [0.2779, 8.3633], [0.2774, 8.3588], [0.2828, 8.3509], [0.2911, 8.3492], [0.2852, 8.3417], [0.2884, 8.334], [0.2822, 8.3283], [0.2739, 8.3327], [0.2407, 8.3338], [0.2275, 8.3422], [0.2035, 8.3413], [0.1903, 8.3334], [0.1852, 8.3227], [0.198, 8.2915], [0.1939, 8.2533], [0.1232, 8.2324], [0.133, 8.2073], [0.1446, 8.1977], [0.1939, 8.1907], [0.2031, 8.196], [0.2131, 8.1948], [0.2198, 8.2019], [0.2308, 8.2005], [0.2458, 8.2066], [0.2665, 8.1955], [0.266, 8.2015], [0.2716, 8.2043], [0.2792, 8.1963], [0.2743, 8.1961], [0.2755, 8.1875], [0.2841, 8.1891], [0.2922, 8.1831], [0.3081, 8.1807], [0.3173, 8.1664], [0.312, 8.1436], [0.303, 8.1289], [0.2849, 8.1156], [0.2765, 8.1175], [0.2593, 8.1079], [0.2415, 8.1067], [0.2544, 8.095], [0.2639, 8.0938], [0.2572, 8.0917], [0.2569, 8.087], [0.2683, 8.0714], [0.2828, 8.0647], [0.3049, 8.0663], [0.3118, 8.0535], [0.3112, 8.0417], [0.4069, 7.9755], [0.4046, 7.966], [0.4127, 7.9697], [0.4332, 7.9651], [0.4371, 7.9563], [0.4509, 7.9646], [0.4598, 7.9553], [0.4699, 7.9551], [0.4755, 7.9467], [0.4682, 7.9334], [0.4897, 7.9117], [0.4918, 7.9001], [0.5032, 7.9047], [0.5026, 7.9106], [0.5088, 7.9153], [0.5336, 7.9085], [0.5629, 7.9204], [0.5695, 7.9106], [0.5864, 7.9019], [0.5892, 7.9049], [0.5937, 7.8997], [0.6261, 7.9014]]]}}, {"type": "Feature", "properties": {"osm_type": "relation", "osm_id": 895217434, "name": "Krachi West", "admin_level": "6", "kind": "subdivision_2", "parent_osm_id": 3328699, "parent_name": "Volta Region", "parent_iso": "GH-TV"}, "geometry": {"type": "Polygon", "coordinates": [[[0.0865, 8.072], [0.031, 8.1017], [-0.0002, 8.1063], [-0.0451, 8.1017], [-0.0594, 8.098], [-0.075, 8.0812], [-0.0826, 8.0804], [-0.0946, 8.0566], [-0.1263, 8.0517], [-0.1551, 8.0306], [-0.1415, 8.0179], [-0.1442, 8.0055], [-0.1702, 7.9698], [-0.1738, 7.9574], [-0.1411, 7.9584], [-0.1349, 7.9485], [-0.1417, 7.9351], [-0.1454, 7.903], [-0.1362, 7.8249], [-0.1264, 7.7882], [-0.111, 7.7602], [-0.1001, 7.7504], [-0.0773, 7.7472], [-0.0145, 7.7569], [0.0041, 7.7424], [0.0025, 7.7176], [-0.0152, 7.684], [0.0145, 7.6913], [0.0373, 7.7122], [0.0444, 7.7402], [0.0673, 7.7681], [0.0778, 7.7943], [0.0766, 7.8329], [0.0599, 7.8333], [0.0678, 7.8563], [0.0734, 7.9047], [0.0657, 7.9504], [0.1037, 7.9737], [0.1164, 7.9944], [0.1186, 8.0149], [0.0743, 8.0533], [0.0763, 8.0643], [0.0865, 8.072]]]}}, {"type": "Feature", "properties": {"osm_type": "relation", "osm_id": 786789539, "name": "Krachi Nchumuru", "admin_level": "6", "kind": "subdivision_2", "parent_osm_id": 3328699, "parent_name": "Volta Region", "parent_iso": "GH-TV"}, "geometry": {"type": "Polygon", "coordinates": [[[0.1783, 8.1942], [0.1446, 8.1977], [0.1299, 8.2146], [0.1167, 8.2177], [0.1152, 8.2291], [0.1079, 8.2239], [0.0959, 8.2303], [0.0795, 8.2225], [0.0858, 8.233], [0.1044, 8.239], [0.0806, 8.28], [0.0601, 8.282], [0.0527, 8.2906], [0.0334, 8.296], [0.0106, 8.2976], [-0.0026, 8.3205], [-0.0367, 8.3332], [-0.0403, 8.3496], [-0.0482, 8.3522], [-0.0643, 8.3512], [-0.0677, 8.3398], [-0.0843, 8.3373], [-0.0874, 8.3324], [-0.1103, 8.3359], [-0.1141, 8.2973], [-0.1242, 8.273], [-0.1457, 8.2723], [-0.1696, 8.2532], [-0.1655, 8.2384], [-0.1686, 8.2314], [-0.1772, 8.2278], [-0.1885, 8.2317], [-0.1986, 8.2193], [-0.2189, 8.2179], [-0.2243, 8.2128], [-0.2378, 8.2179], [-0.2594, 8.2163], [-0.2748, 8.2295], [-0.2807, 8.2455], [-0.3193, 8.2268], [-0.3695, 8.2309], [-0.3875, 8.2241], [-0.3908, 8.2109], [-0.3897, 8.1987], [-0.3849, 8.195], [-0.3486, 8.2017], [-0.3586, 8.1857], [-0.3516, 8.1725], [-0.3541, 8.1662], [-0.3847, 8.1528], [-0.3193, 8.1304], [-0.2949, 8.1173], [-0.2488, 8.077], [-0.2406, 8.0496], [-0.2147, 8.0309], [-0.1732, 8.0246], [-0.1551, 8.0306], [-0.1263, 8.0517], [-0.0946, 8.0566], [-0.0826, 8.0804], [-0.075, 8.0812], [-0.0594, 8.098], [-0.0451, 8.1017], [-0.0002, 8.1063], [0.031, 8.1017], [0.0865, 8.072], [0.1061, 8.0753], [0.1404, 8.07], [0.1729, 8.0883], [0.1939, 8.0934], [0.197, 8.1092], [0.1766, 8.1159], [0.1573, 8.1339], [0.1477, 8.1554], [0.1519, 8.1673], [0.1643, 8.1716], [0.1785, 8.1857], [0.1783, 8.1942]]]}}, {"type": "Feature", "properties": {"osm_type": "relation", "osm_id": 326300724, "name": "Agotime Ziope", "admin_level": "6", "kind": "subdivision_2", "parent_osm_id": 3328699, "parent_name": "Volta Region", "parent_iso": "GH-TV"}, "geometry": {"type": "Polygon", "coordinates": [[[0.7492, 6.4482], [0.7449, 6.4584], [0.7465, 6.4839], [0.7322, 6.4848], [0.7217, 6.502], [0.7174, 6.5275], [0.719, 6.5349], [0.7489, 6.5631], [0.7424, 6.589], [0.7237, 6.5899], [0.7117, 6.585], [0.6979, 6.5884], [0.6728, 6.6137], [0.6669, 6.6052], [0.6564, 6.6086], [0.6431, 6.6323], [0.6315, 6.6289], [0.6119, 6.5982], [0.5892, 6.5867], [0.5835, 6.5791], [0.6313, 6.5546], [0.6337, 6.5209], [0.6294, 6.4969], [0.6397, 6.4682], [0.6524, 6.4625], [0.6548, 6.439], [0.6627, 6.4346], [0.6636, 6.4289], [0.6959, 6.4406], [0.7083, 6.4327], [0.71, 6.4225], [0.7046, 6.4209], [0.7046, 6.4048], [0.6925, 6.3966], [0.6989, 6.3701], [0.6851, 6.3647], [0.6837, 6.3492], [0.6734, 6.3351], [0.675, 6.328], [0.6966, 6.3119], [0.6936, 6.3176], [0.6977, 6.3332], [0.7145, 6.3421], [0.7243, 6.3409], [0.7557, 6.3534], [0.7638, 6.3414], [0.7685, 6.3494], [0.7878, 6.3543], [0.783, 6.3714], [0.7907, 6.3807], [0.7863, 6.3844], [0.788, 6.3975], [0.7544, 6.4158], [0.7485, 6.4152], [0.7457, 6.428], [0.7492, 6.4482]]]}}, {"type": "Feature", "properties": {"osm_type": "relation", "osm_id": 537388742, "name": "Adaklu", "admin_level": "6", "kind": "subdivision_2", "parent_osm_id": 3328699, "parent_name": "Volta Region", "parent_iso": "GH-TV"}, "geometry": {"type": "Polygon", "coordinates": [[[0.5835, 6.5791], [0.5531, 6.5916], [0.5459, 6.5801], [0.5242, 6.572], [0.52, 6.5974], [0.489, 6.5994], [0.4877, 6.5887], [0.4924, 6.5786], [0.4825, 6.5545], [0.4727, 6.5605], [0.4638, 6.5793], [0.443, 6.543], [0.4453, 6.5379], [0.4334, 6.5202], [0.441, 6.5124], [0.4405, 6.5052], [0.4098, 6.4703], [0.411, 6.4541], [0.4073, 6.452], [0.4088, 6.4432], [0.4177, 6.4338], [0.4128, 6.4227], [0.4189, 6.4064], [0.4131, 6.3961], [0.4179, 6.3961], [0.4211, 6.3871], [0.4164, 6.3664], [0.4243, 6.3568], [0.4214, 6.3549], [0.4277, 6.3422], [0.4388, 6.338], [0.4455, 6.3229], [0.4434, 6.3021], [0.4323, 6.2958], [0.4308, 6.2863], [0.4422, 6.2906], [0.4552, 6.2883], [0.4674, 6.3018], [0.4744, 6.2995], [0.491, 6.3049], [0.5219, 6.2959], [0.5433, 6.2816], [0.5475, 6.2984], [0.5761, 6.3032], [0.5726, 6.2899], [0.5897, 6.2822], [0.6135, 6.305], [0.6158, 6.2909], [0.6481, 6.3041], [0.6601, 6.3164], [0.6629, 6.3125], [0.6759, 6.3201], [0.6704, 6.3287], [0.6837, 6.3492], [0.6851, 6.3647], [0.6989, 6.3701], [0.6925, 6.3966], [0.7046, 6.4048], [0.7046, 6.4209], [0.71, 6.4225], [0.7083, 6.4327], [0.6959, 6.4406], [0.6636, 6.4289], [0.6627, 6.4346], [0.6548, 6.439], [0.6524, 6.4625], [0.6397, 6.4682], [0.6294, 6.4969], [0.6337, 6.5209], [0.6313, 6.5546], [0.5835, 6.5791]]]}}, {"type": "Feature", "properties": {"osm_type": "relation", "osm_id": 551906877, "name": "Akatsi South", "admin_level": "6", "kind": "subdivision_2", "parent_osm_id": 3328699, "parent_name": "Volta Region", "parent_iso": "GH-TV"}, "geometry": {"type": "Polygon", "coordinates": [[[0.8853, 6.1956], [0.8518, 6.2222], [0.8316, 6.2223], [0.8254, 6.2176], [0.8215, 6.2198], [0.8206, 6.1843], [0.8098, 6.1762], [0.795, 6.1737], [0.7927, 6.195], [0.7753, 6.1917], [0.7737, 6.2028], [0.7826, 6.2718], [0.793, 6.2947], [0.7906, 6.3219], [0.781, 6.3494], [0.772, 6.3511], [0.7638, 6.3414], [0.7557, 6.3534], [0.6977, 6.3332], [0.6936, 6.3176], [0.6966, 6.3119], [0.6886, 6.306], [0.6815, 6.3083], [0.6769, 6.2931], [0.6985, 6.2681], [0.7002, 6.2414], [0.7067, 6.2325], [0.7109, 6.2338], [0.7064, 6.2279], [0.7186, 6.22], [0.7134, 6.2147], [0.7202, 6.197], [0.7186, 6.1829], [0.7221, 6.1823], [0.7181, 6.1529], [0.7242, 6.1466], [0.7256, 6.1315], [0.7174, 6.1195], [0.7226, 6.1188], [0.7342, 6.0993], [0.7472, 6.0933], [0.7552, 6.0715], [0.7509, 6.0545], [0.7311, 6.0343], [0.7298, 6.0242], [0.7108, 6.0148], [0.7048, 5.9926], [0.7084, 5.9891], [0.7257, 5.9832], [0.7407, 5.9689], [0.7546, 5.969], [0.7664, 5.9549], [0.7852, 5.9666], [0.8037, 5.9585], [0.8226, 6.0034], [0.8293, 6.0012], [0.8346, 6.0095], [0.8527, 6.0033], [0.8607, 6.0052], [0.8593, 6.0353], [0.8401, 6.0374], [0.8559, 6.0581], [0.857, 6.0681], [0.8623, 6.068], [0.8843, 6.1179], [0.8779, 6.1229], [0.8867, 6.1318], [0.8855, 6.1392], [0.8916, 6.1411], [0.8777, 6.1486], [0.8755, 6.1552], [0.8792, 6.158], [0.8741, 6.1636], [0.8794, 6.1883], [0.8853, 6.1956]]]}}, {"type": "Feature", "properties": {"osm_type": "relation", "osm_id": 928678374, "name": "Akatsi North", "admin_level": "6", "kind": "subdivision_2", "parent_osm_id": 3328699, "parent_name": "Volta Region", "parent_iso": "GH-TV"}, "geometry": {"type": "Polygon", "coordinates": [[[0.964, 6.335], [0.8926, 6.3355], [0.8838, 6.3555], [0.8619, 6.3792], [0.8261, 6.4041], [0.7875, 6.4134], [0.782, 6.4345], [0.7492, 6.4482], [0.7457, 6.428], [0.7485, 6.4152], [0.7544, 6.4158], [0.788, 6.3975], [0.7863, 6.3844], [0.7907, 6.3807], [0.783, 6.3714], [0.7878, 6.3543], [0.7786, 6.351], [0.7906, 6.3219], [0.793, 6.2947], [0.7826, 6.2718], [0.7737, 6.2028], [0.7753, 6.1917], [0.7927, 6.195], [0.795, 6.1737], [0.8098, 6.1762], [0.8206, 6.1843], [0.8215, 6.2198], [0.8254, 6.2176], [0.8316, 6.2223], [0.8518, 6.2222], [0.8853, 6.1956], [0.9013, 6.2237], [0.8943, 6.2468], [0.8975, 6.2784], [0.917, 6.2763], [0.9283, 6.281], [0.9355, 6.2735], [0.9448, 6.2836], [0.9593, 6.2885], [0.9647, 6.2969], [0.9599, 6.3132], [0.964, 6.335]]]}}, {"type": "Feature", "properties": {"osm_type": "relation", "osm_id": 450555551, "name": "Ho Municipal", "admin_level": "6", "kind": "subdivision_2", "parent_osm_id": 3328699, "parent_name": "Volta Region", "parent_iso": "GH-TV"}, "geometry": {"type": "MultiPolygon", "coordinates": [[[[0.6403, 6.6313], [0.6364, 6.6299], [0.6403, 6.6313]]], [[[0.6364, 6.6299], [0.64, 6.6384], [0.6355, 6.6434], [0.6447, 6.667], [0.6437, 6.6973], [0.6492, 6.7128], [0.6432, 6.7191], [0.6504, 6.7376], [0.6326, 6.7489], [0.6252, 6.7474], [0.6186, 6.7545], [0.6084, 6.7472], [0.6009, 6.7565], [0.5818, 6.7615], [0.5662, 6.7883], [0.57, 6.7929], [0.5672, 6.7971], [0.5707, 6.797], [0.5675, 6.8028], [0.5756, 6.7981], [0.5799, 6.807], [0.5705, 6.8088], [0.565, 6.8247], [0.5473, 6.8344], [0.5464, 6.8282], [0.5394, 6.8246], [0.5201, 6.8256], [0.5154, 6.8168], [0.5064, 6.8127], [0.5086, 6.8033], [0.4971, 6.796], [0.5032, 6.7872], [0.5234, 6.7873], [0.5203, 6.7612], [0.5057, 6.7542], [0.4968, 6.7436], [0.4883, 6.7527], [0.4805, 6.7436], [0.4789, 6.7593], [0.4701, 6.7486], [0.4622, 6.7465], [0.4558, 6.7641], [0.4588, 6.7718], [0.4506, 6.7785], [0.4215, 6.7563], [0.424, 6.7352], [0.4165, 6.7199], [0.4293, 6.6892], [0.4274, 6.665], [0.4048, 6.6471], [0.3957, 6.6322], [0.3745, 6.6317], [0.3664, 6.6193], [0.3685, 6.6125], [0.3596, 6.5845], [0.3399, 6.5757], [0.3633, 6.5694], [0.375, 6.5738], [0.3772, 6.5697], [0.3856, 6.5727], [0.3945, 6.5691], [0.4323, 6.5444], [0.4299, 6.5232], [0.4334, 6.5202], [0.4638, 6.5793], [0.4727, 6.5605], [0.4825, 6.5545], [0.4924, 6.5786], [0.4877, 6.5887], [0.489, 6.5994], [0.52, 6.5974], [0.5242, 6.572], [0.5459, 6.5801], [0.5531, 6.5916], [0.5836, 6.578], [0.5892, 6.5867], [0.6119, 6.5982], [0.6296, 6.6268], [0.6364, 6.6299]]]]}}, {"type": "Feature", "properties": {"osm_type": "relation", "osm_id": 486173474, "name": "Hohoe Municipal", "admin_level": "6", "kind": "subdivision_2", "parent_osm_id": 3328699, "parent_name": "Volta Region", "parent_iso": "GH-TV"}, "geometry": {"type": "Polygon", "coordinates": [[[0.4794, 7.2923], [0.4652, 7.2897], [0.4486, 7.2977], [0.452, 7.2848], [0.4454, 7.2816], [0.4484, 7.2771], [0.441, 7.2774], [0.4353, 7.2846], [0.4155, 7.2661], [0.3916, 7.2266], [0.3712, 7.1542], [0.3575, 7.1316], [0.3502, 7.1265], [0.3386, 7.1306], [0.3398, 7.1158], [0.3281, 7.0973], [0.3285, 7.0892], [0.3566, 7.0541], [0.3669, 7.0507], [0.3697, 7.0646], [0.3876, 7.0639], [0.3847, 7.0709], [0.394, 7.0733], [0.3918, 7.0782], [0.3982, 7.084], [0.4076, 7.0783], [0.418, 7.0794], [0.4349, 7.0696], [0.4299, 7.0595], [0.4345, 7.0549], [0.4442, 7.0577], [0.4675, 7.0524], [0.4851, 7.0628], [0.5026, 7.061], [0.5054, 7.0548], [0.5009, 7.0502], [0.5222, 7.0527], [0.5445, 7.0456], [0.5554, 7.0394], [0.5534, 7.0286], [0.5719, 7.0225], [0.5719, 7.0116], [0.5952, 7.0024], [0.5941, 7.009], [0.6027, 7.0232], [0.5971, 7.06], [0.6147, 7.0952], [0.6118, 7.1059], [0.5921, 7.1137], [0.5969, 7.1336], [0.6051, 7.141], [0.6056, 7.1575], [0.6133, 7.1569], [0.6169, 7.1616], [0.6172, 7.1825], [0.6249, 7.1828], [0.6313, 7.1964], [0.6442, 7.263], [0.6063, 7.2665], [0.5836, 7.2781], [0.5808, 7.2886], [0.5741, 7.2878], [0.5771, 7.2841], [0.5717, 7.2676], [0.5629, 7.2682], [0.5486, 7.2389], [0.5409, 7.2332], [0.5427, 7.2251], [0.5357, 7.22], [0.5193, 7.2205], [0.5212, 7.2347], [0.5171, 7.2397], [0.5336, 7.2473], [0.5417, 7.2714], [0.5405, 7.2955], [0.5342, 7.3051], [0.5225, 7.2976], [0.5051, 7.3009], [0.4914, 7.2901], [0.4794, 7.2923]]]}}, {"type": "Feature", "properties": {"osm_type": "relation", "osm_id": 190164751, "name": "Ho West", "admin_level": "6", "kind": "subdivision_2", "parent_osm_id": 3328699, "parent_name": "Volta Region", "parent_iso": "GH-TV"}, "geometry": {"type": "Polygon", "coordinates": [[[0.4334, 6.5202], [0.4299, 6.5232], [0.4323, 6.5444], [0.3945, 6.5691], [0.3856, 6.5727], [0.3772, 6.5697], [0.375, 6.5738], [0.3633, 6.5694], [0.3399, 6.5757], [0.3596, 6.5845], [0.3685, 6.6125], [0.3664, 6.6193], [0.3745, 6.6317], [0.3957, 6.6322], [0.4048, 6.6471], [0.4274, 6.665], [0.4293, 6.6892], [0.4165, 6.7199], [0.424, 6.7352], [0.4215, 6.7563], [0.4506, 6.7785], [0.4588, 6.7718], [0.4558, 6.7641], [0.4625, 6.7464], [0.4701, 6.7486], [0.4789, 6.7593], [0.4805, 6.7436], [0.4883, 6.7527], [0.4968, 6.7436], [0.5057, 6.7542], [0.5203, 6.7612], [0.5234, 6.7873], [0.5032, 6.7872], [0.4967, 6.7952], [0.5086, 6.8033], [0.5073, 6.8137], [0.5154, 6.8168], [0.5201, 6.8256], [0.5328, 6.8288], [0.5318, 6.8567], [0.5432, 6.8647], [0.5345, 6.8774], [0.5572, 6.8869], [0.5661, 6.9208], [0.5595, 6.9286], [0.55, 6.9296], [0.5477, 6.9376], [0.5259, 6.9416], [0.5041, 6.9045], [0.4879, 6.8866], [0.4741, 6.8723], [0.4554, 6.8657], [0.4456, 6.8699], [0.4366, 6.8894], [0.4171, 6.8927], [0.405, 6.9088], [0.401, 6.9247], [0.3927, 6.9207], [0.3863, 6.9104], [0.3909, 6.9079], [0.4017, 6.869], [0.4113, 6.8585], [0.4063, 6.8335], [0.3971, 6.821], [0.3906, 6.78], [0.3706, 6.7343], [0.3558, 6.715], [0.3477, 6.6857], [0.353, 6.6792], [0.343, 6.6584], [0.3458, 6.6542], [0.3397, 6.6374], [0.3118, 6.6066], [0.2732, 6.59], [0.2766, 6.5782], [0.2876, 6.5742], [0.284, 6.5413], [0.2484, 6.5121], [0.2207, 6.4969], [0.2057, 6.4757], [0.1984, 6.4558], [0.2081, 6.4474], [0.2007, 6.4396], [0.212, 6.4126], [0.2088, 6.3967], [0.2165, 6.3844], [0.2, 6.3707], [0.2041, 6.3565], [0.1883, 6.3457], [0.187, 6.3389], [0.1789, 6.3407], [0.1727, 6.3309], [0.3044, 6.3336], [0.3373, 6.3142], [0.3722, 6.3028], [0.3776, 6.3082], [0.3902, 6.3036], [0.4027, 6.2917], [0.417, 6.2593], [0.4214, 6.2591], [0.4323, 6.2958], [0.4436, 6.3028], [0.4455, 6.3229], [0.4388, 6.338], [0.4277, 6.3422], [0.4214, 6.3549], [0.4243, 6.3568], [0.4164, 6.3664], [0.4211, 6.3871], [0.4179, 6.3961], [0.4131, 6.3961], [0.4189, 6.4064], [0.4128, 6.4227], [0.4177, 6.4338], [0.4088, 6.4432], [0.4073, 6.452], [0.411, 6.4541], [0.4098, 6.4703], [0.4405, 6.5052], [0.441, 6.5124], [0.4334, 6.5202]]]}}, {"type": "Feature", "properties": {"osm_type": "relation", "osm_id": 585824219, "name": "Afadzato South", "admin_level": "6", "kind": "subdivision_2", "parent_osm_id": 3328699, "parent_name": "Volta Region", "parent_iso": "GH-TV"}, "geometry": {"type": "Polygon", "coordinates": [[[0.3629, 7.0513], [0.3627, 7.0459], [0.3824, 7.0248], [0.3933, 7.0166], [0.4124, 7.0129], [0.4134, 7.0065], [0.4079, 6.9946], [0.3777, 6.9887], [0.3652, 6.9677], [0.3648, 6.9514], [0.3541, 6.9476], [0.3526, 6.9422], [0.345, 6.9426], [0.3552, 6.9234], [0.3447, 6.9199], [0.3454, 6.9141], [0.3371, 6.9094], [0.3366, 6.9025], [0.3436, 6.8996], [0.3575, 6.9028], [0.3303, 6.8803], [0.3305, 6.8702], [0.3246, 6.8627], [0.3496, 6.8554], [0.341, 6.8401], [0.3202, 6.8395], [0.3155, 6.8377], [0.3185, 6.8317], [0.3147, 6.827], [0.3071, 6.8298], [0.305, 6.8202], [0.3113, 6.8098], [0.3098, 6.801], [0.3018, 6.7966], [0.3116, 6.7885], [0.3026, 6.7649], [0.2943, 6.7557], [0.2901, 6.6998], [0.2666, 6.6741], [0.2667, 6.668], [0.3014, 6.672], [0.3174, 6.6859], [0.3297, 6.6898], [0.3443, 6.6833], [0.3478, 6.6857], [0.3558, 6.715], [0.3706, 6.7343], [0.3906, 6.78], [0.3979, 6.8237], [0.4072, 6.8378], [0.4113, 6.8585], [0.4017, 6.869], [0.3909, 6.9079], [0.3861, 6.9113], [0.3961, 6.9242], [0.401, 6.9247], [0.405, 6.9088], [0.4171, 6.8927], [0.4366, 6.8894], [0.4387, 6.8786], [0.4481, 6.8673], [0.4741, 6.8723], [0.5041, 6.9045], [0.5259, 6.9416], [0.5229, 6.9734], [0.5351, 6.978], [0.5485, 6.9935], [0.5952, 7.0024], [0.5719, 7.0116], [0.5719, 7.0225], [0.5534, 7.0286], [0.5554, 7.0394], [0.5346, 7.0501], [0.5009, 7.0502], [0.505, 7.0595], [0.4851, 7.0628], [0.4675, 7.0524], [0.4442, 7.0577], [0.4345, 7.0549], [0.4299, 7.0595], [0.4349, 7.0696], [0.418, 7.0794], [0.4076, 7.0783], [0.3982, 7.084], [0.3918, 7.0782], [0.394, 7.0733], [0.3847, 7.0709], [0.3876, 7.0639], [0.3697, 7.0646], [0.3669, 7.0507], [0.3629, 7.0513]]]}}, {"type": "Feature", "properties": {"osm_type": "relation", "osm_id": 793012542, "name": "North Dayi", "admin_level": "6", "kind": "subdivision_2", "parent_osm_id": 3328699, "parent_name": "Volta Region", "parent_iso": "GH-TV"}, "geometry": {"type": "Polygon", "coordinates": [[[0.3447, 6.9199], [0.337, 6.9199], [0.3298, 6.9075], [0.2819, 6.9029], [0.2781, 6.909], [0.2762, 6.9059], [0.2706, 6.9091], [0.2702, 6.9399], [0.2657, 6.945], [0.2569, 6.9356], [0.2588, 6.9458], [0.2493, 6.9537], [0.2464, 6.9687], [0.2423, 6.9697], [0.2404, 6.9647], [0.2274, 6.974], [0.2062, 6.9425], [0.1478, 6.9215], [0.1355, 6.91], [0.1229, 6.8894], [0.1198, 6.8704], [0.1242, 6.8433], [0.1449, 6.8185], [0.1585, 6.8161], [0.1925, 6.7893], [0.2082, 6.7575], [0.2037, 6.7033], [0.199, 6.697], [0.1692, 6.6897], [0.1615, 6.6832], [0.236, 6.6721], [0.2445, 6.6622], [0.2667, 6.668], [0.2666, 6.6741], [0.2901, 6.6998], [0.2943, 6.7557], [0.3026, 6.7649], [0.3116, 6.7885], [0.3018, 6.7966], [0.3098, 6.801], [0.3113, 6.8098], [0.305, 6.8202], [0.3071, 6.8298], [0.3147, 6.827], [0.3185, 6.8317], [0.3155, 6.8377], [0.3202, 6.8395], [0.341, 6.8401], [0.3496, 6.8554], [0.3246, 6.8627], [0.3305, 6.8702], [0.3303, 6.8803], [0.3575, 6.9028], [0.337, 6.9014], [0.3371, 6.9094], [0.3454, 6.9141], [0.3447, 6.9199]]]}}, {"type": "Feature", "properties": {"osm_type": "relation", "osm_id": 326527167, "name": "Kpando Municipal", "admin_level": "6", "kind": "subdivision_2", "parent_osm_id": 3328699, "parent_name": "Volta Region", "parent_iso": "GH-TV"}, "geometry": {"type": "Polygon", "coordinates": [[[0.3285, 7.0892], [0.3158, 7.0959], [0.2245, 7.0994], [0.2029, 7.0806], [0.1967, 7.0675], [0.1997, 7.0516], [0.2213, 7.0079], [0.2274, 6.974], [0.2404, 6.9647], [0.2423, 6.9697], [0.2464, 6.9687], [0.2493, 6.9537], [0.2588, 6.9458], [0.2569, 6.9356], [0.2657, 6.945], [0.2702, 6.9399], [0.2706, 6.9091], [0.2762, 6.9059], [0.2781, 6.909], [0.2819, 6.9029], [0.3298, 6.9075], [0.3402, 6.9222], [0.3494, 6.9197], [0.3552, 6.9234], [0.345, 6.9426], [0.3526, 6.9422], [0.3541, 6.9476], [0.3648, 6.9514], [0.3708, 6.9801], [0.3887, 6.9931], [0.4079, 6.9946], [0.4134, 7.0065], [0.4124, 7.0129], [0.3933, 7.0166], [0.3824, 7.0248], [0.3285, 7.0892]]]}}, {"type": "Feature", "properties": {"osm_type": "relation", "osm_id": 895192433, "name": "North Tongu", "admin_level": "6", "kind": "subdivision_2", "parent_osm_id": 3328699, "parent_name": "Volta Region", "parent_iso": "GH-TV"}, "geometry": {"type": "Polygon", "coordinates": [[[0.3439, 5.9539], [0.3664, 5.9604], [0.3946, 5.9608], [0.4343, 5.974], [0.4411, 5.9827], [0.441, 5.995], [0.4501, 6.0016], [0.4837, 5.9925], [0.4847, 5.9755], [0.492, 5.9797], [0.4905, 5.9953], [0.499, 5.991], [0.4959, 5.9988], [0.5, 6.0023], [0.4933, 6.0184], [0.4615, 6.0288], [0.473, 6.0479], [0.4573, 6.0543], [0.4604, 6.0618], [0.446, 6.0687], [0.4418, 6.0798], [0.433, 6.081], [0.4328, 6.0861], [0.4572, 6.0783], [0.4627, 6.0804], [0.454, 6.0962], [0.453, 6.1157], [0.4607, 6.1303], [0.4764, 6.1222], [0.4778, 6.1293], [0.4814, 6.1252], [0.4867, 6.1387], [0.5047, 6.1572], [0.4971, 6.1996], [0.4818, 6.1909], [0.4734, 6.1967], [0.4674, 6.1936], [0.4567, 6.2076], [0.439, 6.207], [0.4378, 6.2106], [0.4563, 6.2271], [0.47, 6.2561], [0.4754, 6.2551], [0.4756, 6.2643], [0.4617, 6.2597], [0.4252, 6.2634], [0.417, 6.2593], [0.4134, 6.2747], [0.3902, 6.3036], [0.3776, 6.3082], [0.3722, 6.3028], [0.3373, 6.3142], [0.3044, 6.3336], [0.1755, 6.3311], [0.1693, 6.3275], [0.1682, 6.3135], [0.1763, 6.3074], [0.1757, 6.3027], [0.1595, 6.3002], [0.1361, 6.2598], [0.1278, 6.2552], [0.1189, 6.2189], [0.1045, 6.1837], [0.096, 6.177], [0.0932, 6.1546], [0.1051, 6.1402], [0.1189, 6.1373], [0.1223, 6.1275], [0.1426, 6.1095], [0.1894, 6.0968], [0.233, 6.108], [0.2289, 6.1101], [0.2478, 6.1057], [0.2848, 6.0808], [0.2955, 6.0573], [0.3378, 6.0472], [0.3318, 6.0339], [0.3487, 6.0222], [0.3398, 6.0191], [0.3297, 5.9966], [0.3533, 5.9866], [0.3439, 5.9539]]]}}, {"type": "Feature", "properties": {"osm_type": "relation", "osm_id": 264172362, "name": "Central Tongu", "admin_level": "6", "kind": "subdivision_2", "parent_osm_id": 3328699, "parent_name": "Volta Region", "parent_iso": "GH-TV"}, "geometry": {"type": "Polygon", "coordinates": [[[0.7188, 6.1547], [0.7221, 6.1823], [0.7186, 6.1829], [0.7202, 6.197], [0.7134, 6.2147], [0.7186, 6.22], [0.7064, 6.2279], [0.7109, 6.2338], [0.7067, 6.2325], [0.7002, 6.2414], [0.6985, 6.2681], [0.6769, 6.2931], [0.6815, 6.3083], [0.6886, 6.306], [0.6945, 6.3128], [0.6739, 6.3303], [0.6704, 6.3287], [0.6759, 6.3201], [0.6736, 6.3162], [0.6629, 6.3125], [0.6601, 6.3164], [0.6481, 6.3041], [0.6158, 6.2909], [0.6135, 6.305], [0.5897, 6.2822], [0.5726, 6.2899], [0.5761, 6.3032], [0.5475, 6.2984], [0.5433, 6.2816], [0.5219, 6.2959], [0.491, 6.3049], [0.4744, 6.2995], [0.4674, 6.3018], [0.4552, 6.2883], [0.4422, 6.2906], [0.4308, 6.2863], [0.4264, 6.2789], [0.4252, 6.2634], [0.4617, 6.2597], [0.4756, 6.2643], [0.4754, 6.2551], [0.47, 6.2561], [0.4563, 6.2271], [0.4378, 6.2106], [0.439, 6.207], [0.4567, 6.2076], [0.4674, 6.1936], [0.4734, 6.1967], [0.4818, 6.1909], [0.4971, 6.1996], [0.5047, 6.1572], [0.4867, 6.1387], [0.4814, 6.1252], [0.4778, 6.1293], [0.4764, 6.1222], [0.4607, 6.1303], [0.453, 6.1157], [0.454, 6.0962], [0.4627, 6.0804], [0.4572, 6.0783], [0.4328, 6.0861], [0.433, 6.081], [0.4418, 6.0798], [0.446, 6.0687], [0.4604, 6.0618], [0.4573, 6.0543], [0.473, 6.0479], [0.4615, 6.0288], [0.4933, 6.0184], [0.4963, 6.0102], [0.507, 6.0032], [0.549, 6.0068], [0.5482, 6.0377], [0.5544, 6.0548], [0.5519, 6.0807], [0.557, 6.0847], [0.587, 6.0788], [0.595, 6.0993], [0.6092, 6.1071], [0.6191, 6.1064], [0.6306, 6.0939], [0.6521, 6.1036], [0.6604, 6.1128], [0.6721, 6.1057], [0.6929, 6.1241], [0.7088, 6.1562], [0.7188, 6.1547]]]}}, {"type": "Feature", "properties": {"osm_type": "relation", "osm_id": 623313995, "name": "Nkwanta North", "admin_level": "6", "kind": "subdivision_2", "parent_osm_id": 3328699, "parent_name": "Volta Region", "parent_iso": "GH-TV"}, "geometry": {"type": "Polygon", "coordinates": [[[0.0828, 8.5258], [0.0939, 8.5017], [0.1208, 8.4854], [0.0816, 8.4608], [0.0907, 8.4454], [0.0929, 8.4275], [0.0865, 8.4032], [0.1047, 8.3901], [0.1248, 8.3828], [0.1653, 8.3911], [0.2075, 8.4101], [0.223, 8.4071], [0.2443, 8.3865], [0.2428, 8.3541], [0.2353, 8.3438], [0.2275, 8.3422], [0.2407, 8.3338], [0.2739, 8.3327], [0.2822, 8.3283], [0.2884, 8.334], [0.2852, 8.3417], [0.2911, 8.3492], [0.2828, 8.3509], [0.2779, 8.3633], [0.2846, 8.3611], [0.2906, 8.3656], [0.2845, 8.373], [0.2907, 8.3897], [0.2774, 8.3938], [0.2862, 8.4156], [0.2951, 8.4138], [0.3007, 8.4179], [0.281, 8.43], [0.2872, 8.4327], [0.2834, 8.4378], [0.2896, 8.4401], [0.2885, 8.4501], [0.2975, 8.4487], [0.2945, 8.4576], [0.3062, 8.4609], [0.3019, 8.4645], [0.307, 8.4693], [0.3001, 8.4746], [0.3015, 8.4806], [0.3139, 8.4813], [0.3166, 8.49], [0.3248, 8.4895], [0.3159, 8.5066], [0.3307, 8.5081], [0.3412, 8.5142], [0.3428, 8.5202], [0.3629, 8.5259], [0.358, 8.5351], [0.3665, 8.5361], [0.3707, 8.5507], [0.386, 8.5521], [0.4022, 8.5606], [0.4223, 8.5829], [0.4477, 8.5871], [0.4576, 8.5988], [0.4717, 8.5997], [0.3835, 8.7406], [0.3743, 8.7357], [0.3463, 8.7409], [0.3595, 8.7257], [0.3582, 8.7186], [0.3435, 8.7186], [0.3414, 8.7293], [0.3241, 8.7283], [0.3146, 8.7345], [0.3007, 8.7262], [0.2979, 8.7425], [0.2927, 8.7412], [0.2922, 8.7329], [0.2869, 8.7333], [0.2818, 8.724], [0.2697, 8.7312], [0.2698, 8.74], [0.2587, 8.7469], [0.244, 8.7408], [0.2392, 8.7511], [0.2316, 8.7534], [0.2209, 8.7497], [0.2143, 8.755], [0.1996, 8.7443], [0.187, 8.7471], [0.1856, 8.7408], [0.1805, 8.7459], [0.1809, 8.7618], [0.1709, 8.7647], [0.1747, 8.7706], [0.1684, 8.7745], [0.1654, 8.7561], [0.1819, 8.722], [0.1813, 8.7128], [0.1389, 8.6692], [0.1359, 8.6535], [0.1377, 8.6414], [0.1469, 8.6296], [0.1699, 8.6158], [0.1709, 8.596], [0.148, 8.5885], [0.1281, 8.605], [0.112, 8.5968], [0.0828, 8.5258]]]}}, {"type": "Feature", "properties": {"osm_type": "relation", "osm_id": 356309162, "name": "Biakoye", "admin_level": "6", "kind": "subdivision_2", "parent_osm_id": 3328699, "parent_name": "Volta Region", "parent_iso": "GH-TV"}, "geometry": {"type": "Polygon", "coordinates": [[[0.4218, 7.6884], [0.4191, 7.6929], [0.4021, 7.6948], [0.3777, 7.6852], [0.3778, 7.6916], [0.3705, 7.6847], [0.3708, 7.6781], [0.3523, 7.6674], [0.345, 7.6296], [0.3318, 7.6194], [0.3333, 7.6118], [0.3287, 7.6065], [0.3367, 7.5968], [0.32, 7.5892], [0.3251, 7.5839], [0.3207, 7.5786], [0.3303, 7.5737], [0.3222, 7.5666], [0.3285, 7.5606], [0.3245, 7.5532], [0.3271, 7.5466], [0.315, 7.5356], [0.3039, 7.5398], [0.312, 7.5257], [0.3053, 7.5208], [0.3101, 7.5185], [0.3065, 7.5045], [0.3004, 7.5061], [0.3029, 7.4877], [0.2804, 7.483], [0.2576, 7.4656], [0.2436, 7.4671], [0.1826, 7.4322], [0.1789, 7.4221], [0.1703, 7.4157], [0.1346, 7.4159], [0.1241, 7.4064], [0.1727, 7.3805], [0.1789, 7.381], [0.1986, 7.368], [0.2084, 7.3509], [0.215, 7.31], [0.1826, 7.1932], [0.1823, 7.1797], [0.2352, 7.1671], [0.2425, 7.1485], [0.2427, 7.127], [0.2245, 7.0994], [0.3158, 7.0959], [0.3285, 7.0892], [0.3281, 7.0973], [0.3398, 7.1158], [0.3386, 7.1306], [0.3502, 7.1265], [0.3575, 7.1316], [0.3712, 7.1542], [0.3916, 7.2266], [0.4155, 7.2661], [0.4353, 7.2846], [0.441, 7.2774], [0.4484, 7.2771], [0.4454, 7.2816], [0.452, 7.2848], [0.4486, 7.2977], [0.4652, 7.2897], [0.4794, 7.2923], [0.4664, 7.3282], [0.4732, 7.3455], [0.4709, 7.4061], [0.4565, 7.3976], [0.4429, 7.3766], [0.4444, 7.3617], [0.4088, 7.3563], [0.3833, 7.3699], [0.3546, 7.3584], [0.3506, 7.3629], [0.329, 7.363], [0.3253, 7.3701], [0.3265, 7.3776], [0.3331, 7.3784], [0.347, 7.396], [0.3457, 7.4223], [0.3713, 7.4332], [0.3835, 7.4642], [0.3877, 7.4651], [0.3871, 7.4726], [0.392, 7.4754], [0.3901, 7.5091], [0.4072, 7.5166], [0.4198, 7.5305], [0.4239, 7.6141], [0.4218, 7.6884]]]}}, {"type": "Feature", "properties": {"osm_type": "relation", "osm_id": 133359111, "name": "South Dayi", "admin_level": "6", "kind": "subdivision_2", "parent_osm_id": 3328699, "parent_name": "Volta Region", "parent_iso": "GH-TV"}, "geometry": {"type": "Polygon", "coordinates": [[[0.2007, 6.4396], [0.2081, 6.4474], [0.1984, 6.4558], [0.2057, 6.4757], [0.2207, 6.4969], [0.2484, 6.5121], [0.284, 6.5413], [0.2876, 6.5742], [0.2766, 6.5782], [0.2732, 6.59], [0.3118, 6.6066], [0.3397, 6.6374], [0.3458, 6.6542], [0.343, 6.6584], [0.353, 6.6792], [0.3477, 6.6857], [0.3443, 6.6833], [0.3297, 6.6898], [0.3174, 6.6859], [0.3014, 6.672], [0.2534, 6.6624], [0.2389, 6.665], [0.236, 6.6721], [0.1615, 6.6832], [0.1232, 6.666], [0.1104, 6.6166], [0.1044, 6.5669], [0.1518, 6.5778], [0.1632, 6.57], [0.1946, 6.5639], [0.1997, 6.5485], [0.1778, 6.5115], [0.1821, 6.4953], [0.1789, 6.4867], [0.1872, 6.4826], [0.1892, 6.4753], [0.1838, 6.466], [0.1862, 6.4403], [0.178, 6.4242], [0.2095, 6.4012], [0.212, 6.4126], [0.2007, 6.4396]]]}}, {"type": "Feature", "properties": {"osm_type": "relation", "osm_id": 398062849, "name": "Anloga", "admin_level": "6", "kind": "subdivision_2", "parent_osm_id": 3328699, "parent_name": "Volta Region", "parent_iso": "GH-TV"}, "geometry": {"type": "Polygon", "coordinates": [[[0.6802, 5.7708], [0.6941, 5.7656], [0.6935, 5.7705], [0.7152, 5.7731], [0.7081, 5.7679], [0.7341, 5.773], [0.8165, 5.7696], [0.8265, 5.7745], [0.9051, 5.7828], [0.936, 5.7924], [0.9599, 5.8148], [0.9207, 5.8069], [0.879, 5.8219], [0.8755, 5.8415], [0.8825, 5.8681], [0.8523, 5.8842], [0.8187, 5.8738], [0.8106, 5.8831], [0.7554, 5.8743], [0.7594, 5.8711], [0.7463, 5.88], [0.7187, 5.8694], [0.7128, 5.8544], [0.7098, 5.8296], [0.7183, 5.8108], [0.7121, 5.8057], [0.7105, 5.7951], [0.7181, 5.7921], [0.7205, 5.7846], [0.7102, 5.7748], [0.7044, 5.7805], [0.6982, 5.774], [0.6761, 5.7773], [0.6802, 5.7708]]]}}]}