{"type": "FeatureCollection", "parent": {"osm_id": 3330281, "name": "Central Region", "admin_level": "4", "kind": "subdivision_1", "child_kind": "subdivision_2", "iso": "GH-CP"}, "features": [{"type": "Feature", "properties": {"osm_type": "relation", "osm_id": 558695607, "name": "Mfantseman Municipal", "admin_level": "6", "kind": "subdivision_2", "parent_osm_id": 3330281, "parent_name": "Central Region", "parent_iso": "GH-CP"}, "geometry": {"type": "Polygon", "coordinates": [[[-1.0039, 5.2874], [-1.0282, 5.3056], [-1.0352, 5.318], [-1.0516, 5.3231], [-1.062, 5.3332], [-1.0634, 5.3408], [-1.0574, 5.3504], [-1.0634, 5.3683], [-1.0709, 5.3666], [-1.0808, 5.3728], [-1.0831, 5.39], [-1.092, 5.3979], [-1.0921, 5.4044], [-1.118, 5.4208], [-1.137, 5.3804], [-1.134, 5.3759], [-1.1158, 5.3749], [-1.1284, 5.346], [-1.1222, 5.3418], [-1.1211, 5.3273], [-1.0875, 5.297], [-1.0541, 5.2868], [-1.057, 5.273], [-1.0836, 5.2716], [-1.0858, 5.2434], [-1.1044, 5.2451], [-1.111, 5.2415], [-1.1191, 5.2517], [-1.1348, 5.2576], [-1.1605, 5.2537], [-1.1686, 5.2602], [-1.1854, 5.2581], [-1.2006, 5.2293], [-1.2104, 5.2236], [-1.2047, 5.1941], [-1.2304, 5.1781], [-1.2336, 5.1705], [-1.2264, 5.1678], [-1.2273, 5.1632], [-1.2124, 5.1442], [-1.1984, 5.1329], [-1.1664, 5.1453], [-1.1485, 5.1642], [-1.1197, 5.173], [-1.091, 5.1942], [-1.0154, 5.2013], [-1.0204, 5.2185], [-1.0148, 5.2299], [-1.0065, 5.235], [-1.0226, 5.253], [-1.02, 5.2648], [-1.0136, 5.2619], [-1.0115, 5.2672], [-1.0125, 5.2793], [-1.0039, 5.2874]]]}}, {"type": "Feature", "properties": {"osm_type": "relation", "osm_id": 883620588, "name": "Ekumfi", "admin_level": "6", "kind": "subdivision_2", "parent_osm_id": 3330281, "parent_name": "Central Region", "parent_iso": "GH-CP"}, "geometry": {"type": "Polygon", "coordinates": [[[-1.0154, 5.2013], [-0.8208, 5.2122], [-0.7981, 5.2231], [-0.7958, 5.243], [-0.8044, 5.2689], [-0.8221, 5.298], [-0.8509, 5.3143], [-0.8583, 5.312], [-0.8686, 5.3246], [-0.8864, 5.3297], [-0.8933, 5.3513], [-0.8898, 5.3627], [-0.9041, 5.3647], [-0.9224, 5.3763], [-0.9139, 5.3586], [-0.917, 5.3455], [-0.9139, 5.3327], [-0.9341, 5.3173], [-0.9315, 5.3056], [-0.9533, 5.2958], [-0.9888, 5.2994], [-0.9927, 5.2912], [-1.0125, 5.2793], [-1.0115, 5.2672], [-1.0136, 5.2619], [-1.02, 5.2648], [-1.0226, 5.253], [-1.0065, 5.235], [-1.0148, 5.2299], [-1.0204, 5.2185], [-1.0154, 5.2013]]]}}, {"type": "Feature", "properties": {"osm_type": "relation", "osm_id": 139739896, "name": "Twifo Hemang Lower Denkyira", "admin_level": "6", "kind": "subdivision_2", "parent_osm_id": 3330281, "parent_name": "Central Region", "parent_iso": "GH-CP"}, "geometry": {"type": "Polygon", "coordinates": [[[-1.4474, 5.2223], [-1.4286, 5.2269], [-1.4175, 5.2201], [-1.4158, 5.2141], [-1.404, 5.2242], [-1.3839, 5.2212], [-1.3792, 5.2249], [-1.3619, 5.2157], [-1.3576, 5.233], [-1.3323, 5.2484], [-1.323, 5.2514], [-1.3101, 5.2446], [-1.2966, 5.2517], [-1.2952, 5.2735], [-1.2856, 5.2819], [-1.3018, 5.3238], [-1.2972, 5.329], [-1.3006, 5.3431], [-1.2951, 5.3549], [-1.3133, 5.3507], [-1.3176, 5.356], [-1.3304, 5.3555], [-1.3291, 5.3598], [-1.3407, 5.3708], [-1.34, 5.3778], [-1.3514, 5.3957], [-1.3584, 5.4013], [-1.3732, 5.3991], [-1.3934, 5.4149], [-1.3836, 5.4323], [-1.3907, 5.4496], [-1.4053, 5.4602], [-1.4253, 5.4613], [-1.4331, 5.4775], [-1.4324, 5.4951], [-1.4264, 5.4895], [-1.4056, 5.5021], [-1.4131, 5.5151], [-1.4116, 5.5253], [-1.4394, 5.5412], [-1.4602, 5.5411], [-1.48, 5.5298], [-1.4864, 5.5144], [-1.507, 5.513], [-1.5106, 5.5086], [-1.521, 5.5123], [-1.5327, 5.5083], [-1.5479, 5.5165], [-1.5888, 5.5039], [-1.5842, 5.5106], [-1.5881, 5.5158], [-1.607, 5.5196], [-1.6154, 5.5157], [-1.6127, 5.4658], [-1.6022, 5.4565], [-1.6017, 5.4506], [-1.6225, 5.4401], [-1.6288, 5.422], [-1.6231, 5.4203], [-1.6208, 5.426], [-1.6091, 5.4234], [-1.5965, 5.4107], [-1.563, 5.4153], [-1.5474, 5.4061], [-1.5257, 5.4029], [-1.5139, 5.3927], [-1.5024, 5.4013], [-1.4893, 5.3992], [-1.4786, 5.3894], [-1.4748, 5.3777], [-1.4621, 5.3819], [-1.4566, 5.348], [-1.4374, 5.3383], [-1.4041, 5.3059], [-1.3998, 5.298], [-1.4277, 5.289], [-1.4355, 5.2675], [-1.4441, 5.2678], [-1.4474, 5.2223]]]}}, {"type": "Feature", "properties": {"osm_type": "relation", "osm_id": 984038940, "name": "Twifo Atti-morkwa", "admin_level": "6", "kind": "subdivision_2", "parent_osm_id": 3330281, "parent_name": "Central Region", "parent_iso": "GH-CP"}, "geometry": {"type": "Polygon", "coordinates": [[[-1.6154, 5.5157], [-1.607, 5.5196], [-1.5881, 5.5158], [-1.5842, 5.5106], [-1.5888, 5.5039], [-1.5479, 5.5165], [-1.5327, 5.5083], [-1.4864, 5.5144], [-1.4855, 5.5234], [-1.4776, 5.532], [-1.4676, 5.5335], [-1.4602, 5.5411], [-1.4425, 5.5393], [-1.4347, 5.5487], [-1.4446, 5.5845], [-1.4312, 5.5947], [-1.4381, 5.6043], [-1.4225, 5.6188], [-1.4258, 5.6284], [-1.4338, 5.6277], [-1.4356, 5.6414], [-1.4295, 5.6527], [-1.4271, 5.6651], [-1.4313, 5.6717], [-1.4231, 5.6941], [-1.4268, 5.7166], [-1.4401, 5.715], [-1.464, 5.7527], [-1.4722, 5.7536], [-1.4755, 5.7669], [-1.4819, 5.7714], [-1.5276, 5.7764], [-1.5461, 5.7633], [-1.5737, 5.7584], [-1.5721, 5.7713], [-1.5797, 5.782], [-1.5778, 5.8028], [-1.5843, 5.8065], [-1.5837, 5.8235], [-1.5925, 5.8319], [-1.5971, 5.8454], [-1.6148, 5.857], [-1.651, 5.8489], [-1.6528, 5.839], [-1.6406, 5.8202], [-1.6421, 5.8141], [-1.6805, 5.8223], [-1.6908, 5.8165], [-1.7102, 5.8157], [-1.71, 5.8038], [-1.7709, 5.7216], [-1.7602, 5.6992], [-1.7691, 5.6857], [-1.7808, 5.6875], [-1.7829, 5.6812], [-1.8082, 5.6809], [-1.818, 5.6747], [-1.8322, 5.5924], [-1.7506, 5.6269], [-1.7377, 5.6236], [-1.7135, 5.6364], [-1.6857, 5.6423], [-1.6785, 5.6347], [-1.6764, 5.6081], [-1.6572, 5.6185], [-1.6424, 5.6167], [-1.6214, 5.5993], [-1.6076, 5.5635], [-1.5996, 5.5667], [-1.5919, 5.5633], [-1.594, 5.5299], [-1.6081, 5.5319], [-1.6154, 5.5157]]]}}, {"type": "Feature", "properties": {"osm_type": "relation", "osm_id": 664269608, "name": "Awutu Senya", "admin_level": "6", "kind": "subdivision_2", "parent_osm_id": 3330281, "parent_name": "Central Region", "parent_iso": "GH-CP"}, "geometry": {"type": "Polygon", "coordinates": [[[-0.5103, 5.7362], [-0.5597, 5.736], [-0.5682, 5.7403], [-0.5715, 5.7351], [-0.581, 5.7369], [-0.6101, 5.7236], [-0.623, 5.7229], [-0.6195, 5.7177], [-0.624, 5.7145], [-0.6186, 5.7149], [-0.6143, 5.7015], [-0.6068, 5.7002], [-0.5891, 5.6808], [-0.5908, 5.6732], [-0.609, 5.6609], [-0.6051, 5.6553], [-0.5964, 5.6484], [-0.5811, 5.6544], [-0.573, 5.6487], [-0.5795, 5.63], [-0.5575, 5.6073], [-0.5674, 5.5835], [-0.558, 5.5441], [-0.546, 5.5208], [-0.5421, 5.5155], [-0.5229, 5.5119], [-0.5033, 5.4999], [-0.5051, 5.5123], [-0.4949, 5.5241], [-0.51, 5.5436], [-0.5016, 5.5537], [-0.4881, 5.5443], [-0.4863, 5.5571], [-0.4772, 5.559], [-0.4719, 5.5734], [-0.4992, 5.5861], [-0.5014, 5.5915], [-0.4796, 5.6053], [-0.4748, 5.5989], [-0.4613, 5.6054], [-0.4557, 5.603], [-0.4504, 5.6085], [-0.426, 5.6043], [-0.4254, 5.6117], [-0.4313, 5.6214], [-0.4577, 5.6367], [-0.4826, 5.6477], [-0.4971, 5.6466], [-0.4937, 5.6543], [-0.4997, 5.6682], [-0.5092, 5.6831], [-0.5185, 5.6864], [-0.52, 5.7053], [-0.5083, 5.7136], [-0.5103, 5.7362]]]}}, {"type": "Feature", "properties": {"osm_type": "relation", "osm_id": 138407708, "name": "Awutu Senya East", "admin_level": "6", "kind": "subdivision_2", "parent_osm_id": 3330281, "parent_name": "Central Region", "parent_iso": "GH-CP"}, "geometry": {"type": "MultiPolygon", "coordinates": [[[[-0.4738, 5.4066], [-0.4832, 5.4335], [-0.5014, 5.4351], [-0.5155, 5.4427], [-0.5327, 5.4207], [-0.5588, 5.4177], [-0.5578, 5.403], [-0.5489, 5.3931], [-0.5573, 5.367], [-0.499, 5.3778], [-0.4738, 5.4066]]], [[[-0.4772, 5.559], [-0.4692, 5.5586], [-0.4547, 5.547], [-0.4538, 5.5274], [-0.4296, 5.5334], [-0.4206, 5.5297], [-0.4143, 5.5307], [-0.4108, 5.5553], [-0.3999, 5.5657], [-0.426, 5.6043], [-0.4504, 5.6085], [-0.4557, 5.603], [-0.4613, 5.6054], [-0.4748, 5.5989], [-0.4796, 5.6053], [-0.5014, 5.5915], [-0.4992, 5.5861], [-0.4719, 5.5734], [-0.4772, 5.559]]]]}}, {"type": "Feature", "properties": {"osm_type": "relation", "osm_id": 149802456, "name": "Ajumako-enyan-essiam", "admin_level": "6", "kind": "subdivision_2", "parent_osm_id": 3330281, "parent_name": "Central Region", "parent_iso": "GH-CP"}, "geometry": {"type": "Polygon", "coordinates": [[[-1.0039, 5.2874], [-0.9927, 5.2912], [-0.9888, 5.2994], [-0.9533, 5.2958], [-0.9315, 5.3056], [-0.9341, 5.3173], [-0.9139, 5.3327], [-0.917, 5.3455], [-0.9139, 5.3586], [-0.9224, 5.3763], [-0.9047, 5.3821], [-0.8987, 5.3793], [-0.8993, 5.3978], [-0.8878, 5.4092], [-0.8661, 5.3967], [-0.8644, 5.4079], [-0.8718, 5.4158], [-0.8628, 5.4402], [-0.8692, 5.4783], [-0.8496, 5.4977], [-0.8624, 5.5119], [-0.9013, 5.5357], [-0.9245, 5.5002], [-0.9446, 5.5173], [-0.961, 5.5225], [-0.9793, 5.5084], [-0.9978, 5.5137], [-1.0138, 5.5052], [-1.0372, 5.5089], [-1.0515, 5.5016], [-1.0571, 5.5043], [-1.0561, 5.5136], [-1.0629, 5.5163], [-1.0813, 5.5074], [-1.0864, 5.5119], [-1.0905, 5.5358], [-1.1222, 5.535], [-1.1163, 5.5096], [-1.0936, 5.4923], [-1.0873, 5.4722], [-1.0721, 5.4664], [-1.0635, 5.4548], [-1.0689, 5.4508], [-1.0717, 5.4646], [-1.086, 5.4622], [-1.0897, 5.4749], [-1.0981, 5.4727], [-1.1032, 5.4562], [-1.0977, 5.4428], [-1.1283, 5.4313], [-1.1287, 5.4171], [-1.118, 5.4208], [-1.0921, 5.4044], [-1.092, 5.3979], [-1.0831, 5.39], [-1.0808, 5.3728], [-1.0709, 5.3666], [-1.0634, 5.3683], [-1.0595, 5.3615], [-1.0574, 5.3504], [-1.0634, 5.3408], [-1.062, 5.3332], [-1.0516, 5.3231], [-1.0352, 5.318], [-1.0282, 5.3056], [-1.0039, 5.2874]]]}}, {"type": "Feature", "properties": {"osm_type": "relation", "osm_id": 165889036, "name": "Gomoa West", "admin_level": "6", "kind": "subdivision_2", "parent_osm_id": 3330281, "parent_name": "Central Region", "parent_iso": "GH-CP"}, "geometry": {"type": "Polygon", "coordinates": [[[-0.7981, 5.2231], [-0.7897, 5.2265], [-0.7904, 5.232], [-0.7778, 5.2462], [-0.7558, 5.2584], [-0.7441, 5.2868], [-0.7484, 5.3079], [-0.7821, 5.3427], [-0.7809, 5.3569], [-0.7643, 5.3782], [-0.7761, 5.4042], [-0.7632, 5.4343], [-0.7779, 5.4443], [-0.7711, 5.4691], [-0.775, 5.518], [-0.7912, 5.5264], [-0.8222, 5.526], [-0.829, 5.5386], [-0.8433, 5.5493], [-0.8572, 5.5497], [-0.8678, 5.5345], [-0.8858, 5.5258], [-0.8624, 5.5119], [-0.8496, 5.4977], [-0.8692, 5.4783], [-0.8628, 5.4402], [-0.8718, 5.4158], [-0.8644, 5.4079], [-0.8661, 5.3967], [-0.8878, 5.4092], [-0.8993, 5.3978], [-0.8987, 5.3793], [-0.9047, 5.3821], [-0.9189, 5.376], [-0.9041, 5.3647], [-0.8898, 5.3627], [-0.8933, 5.3513], [-0.8864, 5.3297], [-0.8686, 5.3246], [-0.8583, 5.312], [-0.8509, 5.3143], [-0.8221, 5.298], [-0.7979, 5.2508], [-0.7981, 5.2231]]]}}, {"type": "Feature", "properties": {"osm_type": "relation", "osm_id": 720123641, "name": "Agona West Municipal", "admin_level": "6", "kind": "subdivision_2", "parent_osm_id": 3330281, "parent_name": "Central Region", "parent_iso": "GH-CP"}, "geometry": {"type": "Polygon", "coordinates": [[[-0.7779, 5.5205], [-0.7799, 5.5227], [-0.7514, 5.5445], [-0.7501, 5.5274], [-0.7434, 5.5199], [-0.7363, 5.5182], [-0.7073, 5.5306], [-0.7035, 5.5133], [-0.6905, 5.512], [-0.6852, 5.499], [-0.6639, 5.5066], [-0.6579, 5.5264], [-0.672, 5.5372], [-0.6841, 5.5388], [-0.6886, 5.5461], [-0.7089, 5.5534], [-0.7114, 5.5751], [-0.7278, 5.6134], [-0.7261, 5.6281], [-0.7372, 5.6386], [-0.7561, 5.6386], [-0.7611, 5.6487], [-0.7552, 5.6561], [-0.7494, 5.6823], [-0.7581, 5.6963], [-0.7586, 5.7099], [-0.7785, 5.7136], [-0.7838, 5.7061], [-0.7893, 5.7262], [-0.814, 5.7302], [-0.8123, 5.7444], [-0.83, 5.7458], [-0.844, 5.7564], [-0.8802, 5.7586], [-0.8753, 5.7455], [-0.8785, 5.7375], [-0.8673, 5.7381], [-0.8625, 5.731], [-0.865, 5.7071], [-0.8611, 5.6872], [-0.8682, 5.6615], [-0.8593, 5.6415], [-0.8796, 5.6278], [-0.8821, 5.6171], [-0.8775, 5.6066], [-0.8849, 5.6032], [-0.8903, 5.5921], [-0.9038, 5.5911], [-0.8623, 5.564], [-0.8572, 5.5497], [-0.8433, 5.5493], [-0.829, 5.5386], [-0.8222, 5.526], [-0.7912, 5.5264], [-0.7779, 5.5205]]]}}, {"type": "Feature", "properties": {"osm_type": "relation", "osm_id": 425100099, "name": "Agona East", "admin_level": "6", "kind": "subdivision_2", "parent_osm_id": 3330281, "parent_name": "Central Region", "parent_iso": "GH-CP"}, "geometry": {"type": "Polygon", "coordinates": [[[-0.623, 5.7211], [-0.6302, 5.7219], [-0.643, 5.7349], [-0.6858, 5.7395], [-0.6968, 5.7262], [-0.6951, 5.7153], [-0.712, 5.7115], [-0.7319, 5.7144], [-0.7593, 5.7074], [-0.7494, 5.6823], [-0.7552, 5.6561], [-0.7611, 5.6487], [-0.7561, 5.6386], [-0.7372, 5.6386], [-0.7261, 5.6281], [-0.7278, 5.6134], [-0.7114, 5.5751], [-0.7089, 5.5534], [-0.6672, 5.5323], [-0.654, 5.5365], [-0.6517, 5.5446], [-0.6423, 5.5445], [-0.6377, 5.5524], [-0.6247, 5.5497], [-0.6128, 5.5371], [-0.6093, 5.5428], [-0.5992, 5.5433], [-0.5903, 5.5598], [-0.5932, 5.5733], [-0.5868, 5.5744], [-0.5876, 5.5812], [-0.5674, 5.5835], [-0.5576, 5.6015], [-0.5619, 5.6145], [-0.5694, 5.6158], [-0.5795, 5.63], [-0.573, 5.6487], [-0.5811, 5.6544], [-0.5964, 5.6484], [-0.609, 5.6609], [-0.5908, 5.6732], [-0.5891, 5.6808], [-0.6068, 5.7002], [-0.6143, 5.7015], [-0.6186, 5.7149], [-0.624, 5.7145], [-0.6195, 5.7177], [-0.623, 5.7211]]]}}, {"type": "Feature", "properties": {"osm_type": "relation", "osm_id": 275733945, "name": "Assin North", "admin_level": "6", "kind": "subdivision_2", "parent_osm_id": 3330281, "parent_name": "Central Region", "parent_iso": "GH-CP"}, "geometry": {"type": "Polygon", "coordinates": [[[-1.4604, 5.7472], [-1.4277, 5.7506], [-1.4206, 5.7647], [-1.3933, 5.7884], [-1.3671, 5.7813], [-1.36, 5.7718], [-1.3445, 5.7695], [-1.2969, 5.7932], [-1.2804, 5.7943], [-1.2396, 5.7853], [-1.2293, 5.7671], [-1.1948, 5.747], [-1.1652, 5.7112], [-1.1614, 5.721], [-1.1665, 5.7545], [-1.1624, 5.7683], [-1.168, 5.7852], [-1.166, 5.8009], [-1.1576, 5.8123], [-1.1692, 5.8397], [-1.1687, 5.8458], [-1.1596, 5.8517], [-1.1612, 5.8609], [-1.169, 5.8656], [-1.1625, 5.8872], [-1.1653, 5.9032], [-1.1692, 5.9101], [-1.1776, 5.9085], [-1.1984, 5.9166], [-1.2194, 5.9335], [-1.234, 5.9345], [-1.2426, 5.932], [-1.2442, 5.9136], [-1.2555, 5.9105], [-1.2559, 5.9165], [-1.2609, 5.9154], [-1.2627, 5.9055], [-1.2583, 5.9036], [-1.2624, 5.8908], [-1.2752, 5.9029], [-1.298, 5.8856], [-1.3084, 5.89], [-1.304, 5.9005], [-1.3122, 5.9071], [-1.3089, 5.9264], [-1.3177, 5.924], [-1.323, 5.9142], [-1.3353, 5.9168], [-1.3425, 5.9108], [-1.3356, 5.9265], [-1.3474, 5.9193], [-1.3477, 5.9311], [-1.377, 5.9345], [-1.3744, 5.9225], [-1.3802, 5.9163], [-1.4187, 5.9214], [-1.4161, 5.9153], [-1.4214, 5.9034], [-1.4287, 5.9098], [-1.4371, 5.9013], [-1.4507, 5.9063], [-1.4564, 5.8936], [-1.4624, 5.8971], [-1.4619, 5.9043], [-1.4669, 5.9042], [-1.4591, 5.8866], [-1.4617, 5.8622], [-1.4692, 5.8619], [-1.4759, 5.8551], [-1.4828, 5.867], [-1.4885, 5.8688], [-1.49, 5.8625], [-1.501, 5.8682], [-1.5007, 5.877], [-1.5166, 5.8726], [-1.5218, 5.8751], [-1.5166, 5.89], [-1.5085, 5.891], [-1.5064, 5.8871], [-1.4979, 5.8908], [-1.5054, 5.8951], [-1.5005, 5.9055], [-1.5164, 5.914], [-1.5211, 5.9287], [-1.5256, 5.9215], [-1.5308, 5.9231], [-1.5289, 5.9378], [-1.546, 5.9391], [-1.5466, 5.9347], [-1.5396, 5.9311], [-1.5466, 5.9268], [-1.5553, 5.929], [-1.5759, 5.9031], [-1.5806, 5.8838], [-1.5916, 5.872], [-1.5875, 5.8666], [-1.5971, 5.8454], [-1.5925, 5.8319], [-1.5837, 5.8235], [-1.5843, 5.8065], [-1.5778, 5.8028], [-1.5797, 5.782], [-1.5721, 5.7713], [-1.5737, 5.7584], [-1.5461, 5.7633], [-1.5276, 5.7764], [-1.5119, 5.7733], [-1.5046, 5.7767], [-1.4819, 5.7714], [-1.4755, 5.7669], [-1.4722, 5.7536], [-1.464, 5.7527], [-1.4604, 5.7472]]]}}, {"type": "Feature", "properties": {"osm_type": "relation", "osm_id": 528865054, "name": "Assin South", "admin_level": "6", "kind": "subdivision_2", "parent_osm_id": 3330281, "parent_name": "Central Region", "parent_iso": "GH-CP"}, "geometry": {"type": "Polygon", "coordinates": [[[-1.2951, 5.3549], [-1.2854, 5.3594], [-1.2827, 5.3399], [-1.2554, 5.3417], [-1.2485, 5.3511], [-1.2332, 5.3489], [-1.2237, 5.3564], [-1.2134, 5.355], [-1.2084, 5.3589], [-1.2054, 5.3869], [-1.1956, 5.3825], [-1.1842, 5.3845], [-1.1773, 5.3722], [-1.1694, 5.3817], [-1.1561, 5.382], [-1.1494, 5.3765], [-1.1461, 5.3809], [-1.1531, 5.3857], [-1.1419, 5.3927], [-1.1426, 5.4015], [-1.1356, 5.4152], [-1.1283, 5.4164], [-1.1283, 5.4313], [-1.0977, 5.4428], [-1.1032, 5.4562], [-1.0981, 5.4727], [-1.0897, 5.4749], [-1.086, 5.4622], [-1.0717, 5.4646], [-1.0689, 5.4508], [-1.0635, 5.4548], [-1.0721, 5.4664], [-1.0873, 5.4722], [-1.0936, 5.4923], [-1.1163, 5.5096], [-1.1233, 5.5339], [-1.115, 5.5376], [-1.1305, 5.5425], [-1.139, 5.556], [-1.1409, 5.5691], [-1.1481, 5.578], [-1.1488, 5.5937], [-1.1624, 5.5989], [-1.1618, 5.6062], [-1.1706, 5.6209], [-1.1774, 5.6419], [-1.1702, 5.6506], [-1.1876, 5.6526], [-1.1851, 5.6731], [-1.2069, 5.6974], [-1.2221, 5.6904], [-1.2223, 5.6818], [-1.228, 5.6772], [-1.2363, 5.6753], [-1.2477, 5.6821], [-1.2647, 5.6728], [-1.2677, 5.6653], [-1.2727, 5.6714], [-1.286, 5.669], [-1.2926, 5.6742], [-1.2962, 5.692], [-1.3035, 5.6947], [-1.3647, 5.6972], [-1.3737, 5.693], [-1.392, 5.7189], [-1.4232, 5.703], [-1.4304, 5.6775], [-1.4271, 5.6651], [-1.4352, 5.6448], [-1.4338, 5.6277], [-1.4258, 5.6284], [-1.4225, 5.6188], [-1.4381, 5.6043], [-1.4312, 5.5947], [-1.4446, 5.5845], [-1.4347, 5.5487], [-1.4394, 5.5412], [-1.4142, 5.5283], [-1.4131, 5.5151], [-1.4056, 5.5021], [-1.4264, 5.4895], [-1.4324, 5.4951], [-1.4331, 5.4775], [-1.4253, 5.4613], [-1.4053, 5.4602], [-1.3907, 5.4496], [-1.3836, 5.4323], [-1.3934, 5.4149], [-1.3732, 5.3991], [-1.3584, 5.4013], [-1.3514, 5.3957], [-1.34, 5.3778], [-1.3407, 5.3708], [-1.3291, 5.3598], [-1.3304, 5.3555], [-1.3176, 5.356], [-1.3133, 5.3507], [-1.2951, 5.3549]]]}}, {"type": "Feature", "properties": {"osm_type": "relation", "osm_id": 527566239, "name": "Asikuma-odoben-brakwa", "admin_level": "6", "kind": "subdivision_2", "parent_osm_id": 3330281, "parent_name": "Central Region", "parent_iso": "GH-CP"}, "geometry": {"type": "Polygon", "coordinates": [[[-0.8858, 5.5258], [-0.8678, 5.5345], [-0.8572, 5.5497], [-0.8623, 5.564], [-0.9038, 5.5911], [-0.8903, 5.5921], [-0.8849, 5.6032], [-0.8775, 5.6066], [-0.8821, 5.6171], [-0.8796, 5.6278], [-0.8593, 5.6415], [-0.8682, 5.6615], [-0.8611, 5.6872], [-0.865, 5.7071], [-0.8625, 5.731], [-0.8673, 5.7381], [-0.8785, 5.7375], [-0.8753, 5.7455], [-0.8788, 5.7493], [-0.88, 5.7417], [-0.9533, 5.7383], [-0.9716, 5.7542], [-0.9907, 5.7483], [-0.9948, 5.7392], [-0.9976, 5.7464], [-1.0347, 5.7374], [-1.0446, 5.7524], [-1.0772, 5.7491], [-1.0911, 5.7426], [-1.0998, 5.7008], [-1.121, 5.7205], [-1.1344, 5.7213], [-1.1357, 5.7045], [-1.1439, 5.7041], [-1.1422, 5.7128], [-1.151, 5.725], [-1.1614, 5.721], [-1.1705, 5.7038], [-1.1727, 5.6737], [-1.167, 5.6599], [-1.1774, 5.6419], [-1.1624, 5.5989], [-1.1488, 5.5937], [-1.1481, 5.578], [-1.1305, 5.5425], [-1.1041, 5.5329], [-1.0905, 5.5358], [-1.0864, 5.5119], [-1.0813, 5.5074], [-1.0684, 5.5163], [-1.0561, 5.5136], [-1.0571, 5.5043], [-1.0515, 5.5016], [-1.0372, 5.5089], [-1.0138, 5.5052], [-0.9978, 5.5137], [-0.9793, 5.5084], [-0.961, 5.5225], [-0.9446, 5.5173], [-0.9245, 5.5002], [-0.9013, 5.5357], [-0.8858, 5.5258]]]}}, {"type": "Feature", "properties": {"osm_type": "relation", "osm_id": 613299551, "name": "Effutu Municipal", "admin_level": "6", "kind": "subdivision_2", "parent_osm_id": 3330281, "parent_name": "Central Region", "parent_iso": "GH-CP"}, "geometry": {"type": "Polygon", "coordinates": [[[-0.5588, 5.4177], [-0.563, 5.4423], [-0.5922, 5.4226], [-0.595, 5.4175], [-0.5863, 5.414], [-0.607, 5.4026], [-0.6151, 5.4066], [-0.6407, 5.3845], [-0.672, 5.3701], [-0.6729, 5.3567], [-0.6422, 5.3368], [-0.6399, 5.3278], [-0.6232, 5.3315], [-0.5532, 5.3652], [-0.5573, 5.367], [-0.557, 5.3756], [-0.5489, 5.3931], [-0.5578, 5.403], [-0.5588, 5.4177]]]}}, {"type": "Feature", "properties": {"osm_type": "relation", "osm_id": 535896950, "name": "Gomoa East", "admin_level": "6", "kind": "subdivision_2", "parent_osm_id": 3330281, "parent_name": "Central Region", "parent_iso": "GH-CP"}, "geometry": {"type": "Polygon", "coordinates": [[[-0.5674, 5.5835], [-0.5876, 5.5812], [-0.5868, 5.5744], [-0.5932, 5.5733], [-0.5903, 5.5598], [-0.5992, 5.5433], [-0.6093, 5.5428], [-0.6128, 5.5371], [-0.6183, 5.5456], [-0.6305, 5.5517], [-0.6377, 5.5524], [-0.6483, 5.5419], [-0.6517, 5.5446], [-0.654, 5.5365], [-0.6618, 5.5314], [-0.6579, 5.5264], [-0.6617, 5.5196], [-0.6592, 5.5123], [-0.6828, 5.4991], [-0.6901, 5.5049], [-0.6905, 5.512], [-0.7035, 5.5133], [-0.7073, 5.5306], [-0.7363, 5.5182], [-0.7434, 5.5199], [-0.7501, 5.5274], [-0.7514, 5.5445], [-0.7799, 5.5227], [-0.775, 5.518], [-0.7711, 5.4691], [-0.7779, 5.4443], [-0.766, 5.4384], [-0.7554, 5.4241], [-0.7565, 5.4115], [-0.7291, 5.3953], [-0.7212, 5.3825], [-0.6862, 5.396], [-0.6792, 5.3899], [-0.6773, 5.3728], [-0.672, 5.3701], [-0.6407, 5.3845], [-0.6151, 5.4066], [-0.607, 5.4026], [-0.5863, 5.414], [-0.595, 5.4175], [-0.5922, 5.4226], [-0.563, 5.4423], [-0.5619, 5.4221], [-0.5484, 5.4161], [-0.5438, 5.4214], [-0.5327, 5.4207], [-0.5155, 5.4427], [-0.5014, 5.4351], [-0.4832, 5.4335], [-0.4738, 5.4066], [-0.4628, 5.4185], [-0.4652, 5.4294], [-0.4206, 5.452], [-0.4064, 5.4654], [-0.4067, 5.4781], [-0.4004, 5.486], [-0.4044, 5.4917], [-0.4051, 5.5152], [-0.4143, 5.5307], [-0.4375, 5.5328], [-0.4538, 5.5274], [-0.4547, 5.547], [-0.4739, 5.5606], [-0.4863, 5.5571], [-0.4881, 5.5443], [-0.5016, 5.5537], [-0.51, 5.5436], [-0.4949, 5.5241], [-0.5051, 5.5123], [-0.5061, 5.5004], [-0.5229, 5.5119], [-0.5421, 5.5155], [-0.558, 5.5441], [-0.5674, 5.5835]]]}}, {"type": "Feature", "properties": {"osm_type": "relation", "osm_id": 124326242, "name": "Abura-asebu-kwamankese", "admin_level": "6", "kind": "subdivision_2", "parent_osm_id": 3330281, "parent_name": "Central Region", "parent_iso": "GH-CP"}, "geometry": {"type": "Polygon", "coordinates": [[[-1.1233, 5.4159], [-1.1356, 5.4152], [-1.1388, 5.4107], [-1.1419, 5.3927], [-1.1531, 5.3857], [-1.1461, 5.3809], [-1.1494, 5.3765], [-1.1561, 5.382], [-1.1694, 5.3817], [-1.1773, 5.3722], [-1.1842, 5.3845], [-1.1956, 5.3825], [-1.2054, 5.3869], [-1.2074, 5.3606], [-1.2134, 5.355], [-1.2237, 5.3564], [-1.2332, 5.3489], [-1.2485, 5.3511], [-1.2554, 5.3417], [-1.2827, 5.3399], [-1.286, 5.3467], [-1.2831, 5.353], [-1.2883, 5.3606], [-1.2992, 5.3484], [-1.2995, 5.3104], [-1.2939, 5.2972], [-1.2868, 5.2926], [-1.2856, 5.2819], [-1.2952, 5.2735], [-1.2962, 5.2655], [-1.2946, 5.2547], [-1.2807, 5.2458], [-1.2848, 5.2298], [-1.281, 5.2213], [-1.3103, 5.21], [-1.2866, 5.1942], [-1.2883, 5.1851], [-1.2841, 5.1862], [-1.2792, 5.1735], [-1.2865, 5.1703], [-1.2822, 5.1618], [-1.2451, 5.158], [-1.2378, 5.144], [-1.2394, 5.1317], [-1.2196, 5.1363], [-1.2118, 5.1178], [-1.2048, 5.1205], [-1.1984, 5.1329], [-1.2124, 5.1442], [-1.2273, 5.1632], [-1.2264, 5.1678], [-1.2336, 5.1705], [-1.2304, 5.1781], [-1.2047, 5.1941], [-1.2104, 5.2236], [-1.2006, 5.2293], [-1.1883, 5.2558], [-1.1686, 5.2602], [-1.1605, 5.2537], [-1.1348, 5.2576], [-1.1191, 5.2517], [-1.111, 5.2415], [-1.1044, 5.2451], [-1.0858, 5.2434], [-1.0836, 5.2716], [-1.0588, 5.2715], [-1.052, 5.2846], [-1.0875, 5.297], [-1.1176, 5.3207], [-1.1222, 5.3418], [-1.1284, 5.346], [-1.1158, 5.3749], [-1.134, 5.3759], [-1.137, 5.3804], [-1.1233, 5.4159]]]}}, {"type": "Feature", "properties": {"osm_type": "relation", "osm_id": 264499782, "name": "Upper Denkyira East Municipal", "admin_level": "6", "kind": "subdivision_2", "parent_osm_id": 3330281, "parent_name": "Central Region", "parent_iso": "GH-CP"}, "geometry": {"type": "Polygon", "coordinates": [[[-1.5971, 5.8454], [-1.5875, 5.8666], [-1.5916, 5.872], [-1.5806, 5.8838], [-1.5759, 5.9031], [-1.5626, 5.9169], [-1.5607, 5.9265], [-1.5678, 5.9258], [-1.5719, 5.9331], [-1.5719, 5.9255], [-1.581, 5.9176], [-1.582, 5.9274], [-1.59, 5.9349], [-1.5899, 5.9277], [-1.5957, 5.9239], [-1.6007, 5.9293], [-1.6089, 5.925], [-1.613, 5.9287], [-1.6195, 5.9264], [-1.6197, 5.932], [-1.6242, 5.9269], [-1.6352, 5.9279], [-1.6389, 5.9337], [-1.6474, 5.9244], [-1.6619, 5.9241], [-1.6641, 5.9183], [-1.6682, 5.921], [-1.6725, 5.9153], [-1.676, 5.9201], [-1.6732, 5.9225], [-1.6934, 5.9336], [-1.6927, 5.9434], [-1.7038, 5.9277], [-1.7072, 5.9293], [-1.714, 5.9386], [-1.7096, 5.9549], [-1.7132, 5.9572], [-1.7248, 5.9529], [-1.7392, 5.9705], [-1.742, 5.966], [-1.7496, 5.9689], [-1.7487, 5.9599], [-1.7641, 5.9697], [-1.7704, 5.9609], [-1.7777, 5.9717], [-1.7744, 5.9797], [-1.7925, 5.9902], [-1.8195, 5.9448], [-1.8638, 5.9353], [-1.8949, 5.9172], [-1.8879, 5.9087], [-1.8879, 5.8973], [-1.8696, 5.8839], [-1.8566, 5.8876], [-1.8539, 5.8954], [-1.8418, 5.9017], [-1.8367, 5.8954], [-1.8253, 5.8992], [-1.8149, 5.8892], [-1.8137, 5.8678], [-1.8228, 5.8538], [-1.8319, 5.8208], [-1.8407, 5.8045], [-1.8447, 5.805], [-1.8365, 5.7907], [-1.8298, 5.792], [-1.8288, 5.7865], [-1.84, 5.7818], [-1.8507, 5.7676], [-1.8111, 5.7595], [-1.801, 5.7509], [-1.8006, 5.7446], [-1.8136, 5.7367], [-1.8166, 5.7248], [-1.7907, 5.7322], [-1.7845, 5.7297], [-1.7918, 5.6956], [-1.8082, 5.6809], [-1.7829, 5.6812], [-1.7808, 5.6875], [-1.7691, 5.6857], [-1.7602, 5.6992], [-1.7709, 5.7216], [-1.71, 5.8038], [-1.7102, 5.8157], [-1.6908, 5.8165], [-1.6805, 5.8223], [-1.6421, 5.8141], [-1.6406, 5.8202], [-1.6537, 5.8439], [-1.6366, 5.8547], [-1.6148, 5.857], [-1.5971, 5.8454]]]}}, {"type": "Feature", "properties": {"osm_type": "relation", "osm_id": 516784118, "name": "Cape Coast Metropolitan", "admin_level": "6", "kind": "subdivision_2", "parent_osm_id": 3330281, "parent_name": "Central Region", "parent_iso": "GH-CP"}, "geometry": {"type": "Polygon", "coordinates": [[[-1.3619, 5.2157], [-1.3525, 5.2118], [-1.3536, 5.203], [-1.349, 5.1992], [-1.3528, 5.194], [-1.3435, 5.1838], [-1.3416, 5.1723], [-1.3289, 5.1775], [-1.3283, 5.1695], [-1.3172, 5.1672], [-1.315, 5.1503], [-1.3075, 5.1434], [-1.2964, 5.1439], [-1.2966, 5.1341], [-1.3068, 5.1257], [-1.3217, 5.0968], [-1.2464, 5.1006], [-1.2118, 5.1178], [-1.2196, 5.1363], [-1.2394, 5.1317], [-1.2378, 5.144], [-1.2451, 5.158], [-1.2822, 5.1618], [-1.2865, 5.1703], [-1.2792, 5.1735], [-1.2841, 5.1862], [-1.2883, 5.1851], [-1.2866, 5.1942], [-1.3103, 5.21], [-1.281, 5.2213], [-1.2848, 5.2298], [-1.2827, 5.2484], [-1.2946, 5.2547], [-1.3101, 5.2446], [-1.323, 5.2514], [-1.3323, 5.2484], [-1.3576, 5.233], [-1.3619, 5.2157]]]}}, {"type": "Feature", "properties": {"osm_type": "relation", "osm_id": 887916134, "name": "Komenda-edina-eguafo-abirem Municipal", "admin_level": "6", "kind": "subdivision_2", "parent_osm_id": 3330281, "parent_name": "Central Region", "parent_iso": "GH-CP"}, "geometry": {"type": "Polygon", "coordinates": [[[-1.5802, 5.0331], [-1.5045, 5.0429], [-1.4743, 5.0554], [-1.4425, 5.0587], [-1.422, 5.0676], [-1.3467, 5.0821], [-1.3459, 5.0897], [-1.3167, 5.1008], [-1.3068, 5.1257], [-1.2966, 5.1341], [-1.2964, 5.1439], [-1.3075, 5.1434], [-1.315, 5.1503], [-1.3172, 5.1672], [-1.3283, 5.1695], [-1.3289, 5.1775], [-1.3416, 5.1723], [-1.3435, 5.1838], [-1.3528, 5.194], [-1.349, 5.1992], [-1.3536, 5.203], [-1.3525, 5.2118], [-1.3792, 5.2249], [-1.3839, 5.2212], [-1.404, 5.2242], [-1.4158, 5.2141], [-1.4175, 5.2201], [-1.4286, 5.2269], [-1.4474, 5.2223], [-1.4463, 5.2101], [-1.5099, 5.2083], [-1.5228, 5.1996], [-1.5251, 5.1707], [-1.533, 5.1737], [-1.5383, 5.1634], [-1.5674, 5.1584], [-1.5684, 5.1625], [-1.5815, 5.1549], [-1.5802, 5.0331]]]}}, {"type": "Feature", "properties": {"osm_type": "relation", "osm_id": 456163492, "name": "Assin Fosu", "admin_level": "6", "kind": "subdivision_2", "parent_osm_id": 3330281, "parent_name": "Central Region", "parent_iso": "GH-CP"}, "geometry": {"type": "Polygon", "coordinates": [[[-1.4232, 5.703], [-1.392, 5.7189], [-1.3737, 5.693], [-1.3647, 5.6972], [-1.3035, 5.6947], [-1.2962, 5.692], [-1.2926, 5.6742], [-1.286, 5.669], [-1.2727, 5.6714], [-1.2677, 5.6653], [-1.2647, 5.6728], [-1.2477, 5.6821], [-1.2363, 5.6753], [-1.228, 5.6772], [-1.2223, 5.6818], [-1.2221, 5.6904], [-1.2069, 5.6974], [-1.1851, 5.6731], [-1.1876, 5.6526], [-1.1702, 5.6506], [-1.167, 5.6599], [-1.1727, 5.6737], [-1.1705, 5.7038], [-1.1652, 5.7112], [-1.1948, 5.747], [-1.2293, 5.7671], [-1.2396, 5.7853], [-1.2804, 5.7943], [-1.2969, 5.7932], [-1.3445, 5.7695], [-1.36, 5.7718], [-1.3671, 5.7813], [-1.3933, 5.7884], [-1.4206, 5.7647], [-1.4277, 5.7506], [-1.4604, 5.7472], [-1.4401, 5.715], [-1.4268, 5.7166], [-1.4232, 5.703]]]}}, {"type": "Feature", "properties": {"osm_type": "relation", "osm_id": 243041485, "name": "Gomoa Central", "admin_level": "6", "kind": "subdivision_2", "parent_osm_id": 3330281, "parent_name": "Central Region", "parent_iso": "GH-CP"}, "geometry": {"type": "Polygon", "coordinates": [[[-0.7497, 5.2711], [-0.7269, 5.2852], [-0.731, 5.2922], [-0.7245, 5.3], [-0.6399, 5.3278], [-0.6422, 5.3368], [-0.6729, 5.3567], [-0.672, 5.3701], [-0.6801, 5.3792], [-0.6792, 5.3899], [-0.6862, 5.396], [-0.7212, 5.3825], [-0.7291, 5.3953], [-0.7565, 5.4115], [-0.7554, 5.4241], [-0.7632, 5.4343], [-0.7761, 5.4042], [-0.7643, 5.3782], [-0.7809, 5.3569], [-0.7821, 5.3427], [-0.7484, 5.3079], [-0.7441, 5.2868], [-0.7497, 5.2711]]]}}, {"type": "Feature", "properties": {"osm_type": "relation", "osm_id": 169540229, "name": "Achiase", "admin_level": "6", "kind": "subdivision_2", "parent_osm_id": 3330281, "parent_name": "Central Region", "parent_iso": "GH-CP"}, "geometry": {"type": "Polygon", "coordinates": [[[-0.879, 5.7536], [-0.8806, 5.765], [-0.8744, 5.7658], [-0.8733, 5.7748], [-0.8808, 5.781], [-0.8702, 5.7938], [-0.8676, 5.8067], [-0.862, 5.8059], [-0.8504, 5.8432], [-0.8549, 5.8546], [-0.8739, 5.8713], [-0.8741, 5.8782], [-0.904, 5.8758], [-0.9147, 5.8875], [-0.9339, 5.8798], [-0.9504, 5.855], [-0.9671, 5.8467], [-0.9863, 5.842], [-0.9928, 5.848], [-1.029, 5.8466], [-1.1281, 5.8344], [-1.1608, 5.8239], [-1.1576, 5.8123], [-1.166, 5.8009], [-1.1676, 5.7769], [-1.1624, 5.7679], [-1.1665, 5.7545], [-1.1653, 5.7302], [-1.1629, 5.7207], [-1.151, 5.725], [-1.1422, 5.7128], [-1.1439, 5.7041], [-1.1357, 5.7045], [-1.1344, 5.7213], [-1.121, 5.7205], [-1.0998, 5.7008], [-1.0911, 5.7426], [-1.0772, 5.7491], [-1.0446, 5.7524], [-1.0347, 5.7374], [-0.9976, 5.7464], [-0.9948, 5.7392], [-0.9907, 5.7484], [-0.9716, 5.7542], [-0.9542, 5.7385], [-0.9035, 5.7386], [-0.88, 5.7418], [-0.879, 5.7536]]]}}]}