{"type": "FeatureCollection", "parent": {"osm_id": 3395162, "name": "Apure State", "admin_level": "4", "kind": "subdivision_1", "child_kind": "subdivision_2", "iso": "VE-C"}, "features": [{"type": "Feature", "properties": {"osm_type": "relation", "osm_id": 988477231, "name": "Achaguas", "admin_level": "6", "kind": "subdivision_2", "parent_osm_id": 3395162, "parent_name": "Apure State", "parent_iso": "VE-C"}, "geometry": {"type": "Polygon", "coordinates": [[[-67.851, 7.7212], [-67.8594, 7.7736], [-67.828, 7.8451], [-67.8531, 7.8264], [-67.876, 7.8317], [-67.8836, 7.8286], [-67.8987, 7.8413], [-67.9166, 7.8384], [-67.9175, 7.8425], [-67.9067, 7.848], [-67.9137, 7.8531], [-67.9601, 7.832], [-67.9693, 7.8465], [-67.987, 7.857], [-67.9993, 7.8517], [-68.0153, 7.8521], [-68.0219, 7.8601], [-68.0403, 7.8588], [-68.0415, 7.8728], [-68.0481, 7.8735], [-68.0536, 7.8662], [-68.0634, 7.8649], [-68.0939, 7.88], [-68.1106, 7.896], [-68.126, 7.9006], [-68.1468, 7.8958], [-68.1571, 7.9063], [-68.1758, 7.8989], [-68.1839, 7.9005], [-68.2066, 7.8876], [-68.2213, 7.8963], [-68.2181, 7.9041], [-68.2211, 7.9086], [-68.2408, 7.9008], [-68.2508, 7.911], [-68.2646, 7.9105], [-68.2657, 7.9211], [-68.2794, 7.9058], [-68.2884, 7.9193], [-68.3079, 7.9005], [-68.324, 7.8945], [-68.3272, 7.8815], [-68.3511, 7.8776], [-68.356, 7.8864], [-68.3863, 7.9043], [-68.3868, 7.9197], [-68.3991, 7.9167], [-68.4162, 7.9274], [-68.4289, 7.9249], [-68.4418, 7.9353], [-68.4533, 7.9344], [-68.4732, 7.9241], [-68.4962, 7.9236], [-68.5136, 7.929], [-68.5154, 7.9417], [-68.5385, 7.9405], [-68.5742, 7.9559], [-68.5944, 7.9529], [-68.6192, 7.9602], [-68.6395, 7.9549], [-68.653, 7.9349], [-68.696, 7.9204], [-68.7222, 7.8996], [-68.7658, 7.9032], [-68.7884, 7.8886], [-68.8095, 7.8937], [-68.8229, 7.8891], [-68.9554, 7.2971], [-68.8805, 6.8262], [-68.5874, 6.6133], [-68.5733, 6.6138], [-68.5611, 6.6303], [-68.554, 6.633], [-68.5446, 6.6223], [-68.5262, 6.6156], [-68.5252, 6.6003], [-68.5403, 6.5888], [-68.5409, 6.5778], [-68.5287, 6.5735], [-68.509, 6.5418], [-68.4873, 6.5454], [-68.4857, 6.554], [-68.4735, 6.5563], [-68.4652, 6.5849], [-68.443, 6.5737], [-68.4451, 6.5911], [-68.4361, 6.5986], [-68.4269, 6.5962], [-68.4118, 6.5822], [-68.4008, 6.5596], [-68.3673, 6.5558], [-68.3543, 6.5477], [-68.3371, 6.5567], [-68.3267, 6.551], [-68.3181, 6.5366], [-68.2854, 6.5435], [-68.2874, 6.5618], [-68.2703, 6.5451], [-68.2678, 6.5608], [-68.2571, 6.5535], [-68.2519, 6.5363], [-68.2271, 6.5205], [-68.2109, 6.5391], [-68.2019, 6.5367], [-68.2012, 6.542], [-68.196, 6.5403], [-68.1993, 6.5488], [-68.1925, 6.5535], [-68.1644, 6.55], [-68.1527, 6.5415], [-68.148, 6.5553], [-68.1363, 6.5619], [-68.1119, 6.5457], [-68.0983, 6.5772], [-68.0833, 6.5783], [-68.0748, 6.5618], [-68.0534, 6.5664], [-68.0606, 6.5836], [-68.056, 6.5876], [-68.045, 6.5857], [-68.0432, 6.5951], [-68.0468, 6.611], [-68.0565, 6.6154], [-68.0516, 6.6341], [-68.0472, 6.6355], [-68.0443, 6.6297], [-68.0319, 6.6252], [-68.0247, 6.6303], [-68.0234, 6.639], [-68.0148, 6.6416], [-68.0935, 6.9607], [-68.0817, 7.3022], [-68.0511, 7.4889], [-68.0432, 7.5312], [-68.021, 7.5307], [-68.0041, 7.5432], [-67.9888, 7.5447], [-67.9837, 7.5529], [-67.9775, 7.5455], [-67.9706, 7.5502], [-67.9668, 7.5404], [-67.9583, 7.5535], [-67.9618, 7.5594], [-67.9466, 7.5735], [-67.936, 7.5724], [-67.9132, 7.5868], [-67.8787, 7.5767], [-67.8653, 7.5817], [-67.8511, 7.5736], [-67.8316, 7.573], [-67.851, 7.7212]]]}}, {"type": "Feature", "properties": {"osm_type": "relation", "osm_id": 733074330, "name": "Biruaca", "admin_level": "6", "kind": "subdivision_2", "parent_osm_id": 3395162, "parent_name": "Apure State", "parent_iso": "VE-C"}, "geometry": {"type": "Polygon", "coordinates": [[[-67.851, 7.7212], [-67.8396, 7.7198], [-67.8365, 7.7247], [-67.8322, 7.718], [-67.8191, 7.7221], [-67.8045, 7.7192], [-67.7886, 7.7065], [-67.7722, 7.7071], [-67.771, 7.7007], [-67.762, 7.7009], [-67.7555, 7.6898], [-67.7227, 7.6992], [-67.7164, 7.6947], [-67.7027, 7.6995], [-67.6878, 7.6982], [-67.6807, 7.6853], [-67.6718, 7.6883], [-67.6639, 7.6823], [-67.5076, 7.7526], [-67.4974, 7.8982], [-67.5196, 7.9056], [-67.5293, 7.9292], [-67.5616, 7.9445], [-67.5986, 7.9828], [-67.6507, 7.954], [-67.6434, 7.9377], [-67.6465, 7.9323], [-67.6659, 7.9275], [-67.6634, 7.9402], [-67.6809, 7.9401], [-67.6867, 7.9363], [-67.6869, 7.9234], [-67.6973, 7.9125], [-67.7044, 7.9148], [-67.7226, 7.9054], [-67.735, 7.9137], [-67.757, 7.907], [-67.7624, 7.9011], [-67.7688, 7.9069], [-67.7797, 7.9064], [-67.7961, 7.9199], [-67.8047, 7.9086], [-67.8084, 7.9142], [-67.8272, 7.9208], [-67.8353, 7.9154], [-67.8376, 7.9005], [-67.8464, 7.902], [-67.8527, 7.88], [-67.8585, 7.8795], [-67.8626, 7.886], [-67.8698, 7.8762], [-67.8902, 7.8933], [-67.905, 7.8865], [-67.9452, 7.9063], [-67.9713, 7.8912], [-67.9893, 7.898], [-68.0097, 7.8945], [-68.0277, 7.8774], [-68.0383, 7.8766], [-68.0425, 7.867], [-68.0403, 7.8588], [-68.0219, 7.8601], [-68.0153, 7.8521], [-67.9993, 7.8517], [-67.987, 7.857], [-67.9693, 7.8465], [-67.9601, 7.832], [-67.9137, 7.8531], [-67.9067, 7.848], [-67.9175, 7.8425], [-67.9166, 7.8384], [-67.8987, 7.8413], [-67.8836, 7.8286], [-67.876, 7.8317], [-67.8531, 7.8264], [-67.828, 7.8451], [-67.8594, 7.7736], [-67.851, 7.7212]]]}}, {"type": "Feature", "properties": {"osm_type": "relation", "osm_id": 575077405, "name": "Muñoz", "admin_level": "6", "kind": "subdivision_2", "parent_osm_id": 3395162, "parent_name": "Apure State", "parent_iso": "VE-C"}, "geometry": {"type": "Polygon", "coordinates": [[[-68.8229, 7.8891], [-68.8586, 7.8982], [-68.8797, 7.8919], [-68.8972, 7.911], [-68.9327, 7.9153], [-68.9397, 7.9239], [-68.9425, 7.9512], [-68.9586, 7.9659], [-68.9612, 7.9864], [-68.9762, 8.0016], [-69.0017, 7.9902], [-69.0219, 7.9996], [-69.0321, 7.9994], [-69.0387, 7.9928], [-69.0408, 7.9738], [-69.0495, 7.9694], [-69.0847, 7.9959], [-69.1155, 7.9875], [-69.1245, 7.9993], [-69.1259, 8.0224], [-69.141, 8.0412], [-69.1528, 8.0458], [-69.1689, 8.0428], [-69.1783, 8.0515], [-69.2153, 8.0649], [-69.2472, 8.0547], [-69.2563, 8.0625], [-69.3012, 8.0479], [-69.3546, 8.0524], [-69.3798, 8.0463], [-69.4064, 8.0618], [-69.4239, 8.0637], [-69.4392, 8.0602], [-69.4512, 8.0459], [-69.4627, 8.0401], [-69.4875, 8.0067], [-69.5085, 7.9956], [-69.5274, 7.9956], [-69.5369, 7.9883], [-69.5477, 7.9718], [-69.5474, 7.958], [-69.5618, 7.9463], [-69.5658, 7.9306], [-69.5948, 7.9287], [-69.6009, 7.9245], [-69.6113, 7.8991], [-69.6371, 7.8916], [-69.6632, 7.8701], [-69.7076, 7.8449], [-69.7312, 7.8208], [-69.7554, 7.8205], [-69.7759, 7.8107], [-69.7947, 7.8088], [-69.8165, 7.7891], [-69.8274, 7.7895], [-69.8379, 7.8015], [-69.8474, 7.803], [-69.8957, 7.7938], [-69.9027, 7.7881], [-69.6692, 7.5498], [-69.6194, 7.363], [-69.4973, 7.1851], [-69.4463, 7.2149], [-69.1293, 7.1467], [-69.1151, 7.158], [-69.1051, 7.1543], [-69.0973, 7.1569], [-69.0904, 7.173], [-69.0659, 7.1814], [-69.056, 7.2005], [-69.0395, 7.1962], [-69.0167, 7.2022], [-69.0174, 7.2163], [-68.9988, 7.2207], [-69.0088, 7.2347], [-68.9942, 7.2409], [-68.9933, 7.253], [-68.9825, 7.2548], [-68.983, 7.2671], [-68.972, 7.2699], [-68.9691, 7.2837], [-68.9601, 7.2822], [-68.9545, 7.2909], [-68.8229, 7.8891]]]}}, {"type": "Feature", "properties": {"osm_type": "relation", "osm_id": 353138341, "name": "Pedro Camejo", "admin_level": "6", "kind": "subdivision_2", "parent_osm_id": 3395162, "parent_name": "Apure State", "parent_iso": "VE-C"}, "geometry": {"type": "Polygon", "coordinates": [[[-68.5874, 6.6133], [-68.5963, 6.607], [-68.6229, 6.6165], [-68.6305, 6.6126], [-68.6326, 6.5985], [-68.6431, 6.5953], [-68.637, 6.5858], [-68.6407, 6.5823], [-68.6523, 6.5868], [-68.6636, 6.6024], [-68.6683, 6.5845], [-68.6846, 6.575], [-68.6955, 6.5767], [-68.6959, 6.5683], [-68.703, 6.5675], [-68.7121, 6.5378], [-68.7162, 6.5439], [-68.7356, 6.5382], [-68.7396, 6.5186], [-68.7511, 6.5243], [-68.7577, 6.5169], [-68.7808, 6.5281], [-68.7903, 6.5067], [-68.8127, 6.5142], [-68.827, 6.4981], [-68.8503, 6.4924], [-68.8811, 6.508], [-68.894, 6.4835], [-68.9259, 6.4841], [-68.9364, 6.4711], [-68.9465, 6.4695], [-68.9526, 6.4528], [-68.9627, 6.4432], [-68.9949, 6.4633], [-69.0014, 6.4594], [-69.0003, 6.4503], [-69.0124, 6.4358], [-69.0145, 6.441], [-69.0232, 6.4378], [-69.031, 6.4416], [-69.0445, 6.4369], [-69.0493, 6.4263], [-69.0795, 6.4248], [-69.087, 6.4312], [-69.0995, 6.4227], [-69.1095, 6.426], [-69.1106, 6.4317], [-69.1186, 6.4316], [-69.1192, 6.4238], [-69.1252, 6.4191], [-69.137, 6.4199], [-69.1429, 6.4149], [-69.1485, 6.4193], [-69.1601, 6.4106], [-69.1686, 6.4115], [-69.1697, 6.4075], [-69.1629, 6.4042], [-69.1781, 6.3986], [-69.1817, 6.384], [-69.1867, 6.3898], [-69.1914, 6.3863], [-69.1886, 6.372], [-69.196, 6.3765], [-69.207, 6.3693], [-69.2158, 6.3702], [-69.2292, 6.3368], [-69.2369, 6.3374], [-69.2421, 6.332], [-69.2592, 6.3315], [-69.2791, 6.3404], [-69.28, 6.3452], [-69.2964, 6.3491], [-69.3063, 6.3446], [-69.3129, 6.3508], [-69.3248, 6.3445], [-69.3362, 6.3519], [-69.3422, 6.3415], [-69.3543, 6.3401], [-69.3482, 6.3304], [-69.3559, 6.3286], [-69.3563, 6.3214], [-69.3813, 6.3217], [-69.3911, 6.3093], [-69.3998, 6.3096], [-69.4099, 6.318], [-69.4155, 6.3088], [-69.4185, 6.3135], [-69.4325, 6.3114], [-69.441, 6.3174], [-69.4566, 6.3111], [-69.4538, 6.3081], [-69.4614, 6.3023], [-69.4633, 6.3065], [-69.4743, 6.3029], [-69.4804, 6.3087], [-69.4823, 6.304], [-69.491, 6.3022], [-69.4946, 6.289], [-69.4907, 6.2818], [-69.4962, 6.2787], [-69.5015, 6.2564], [-69.5105, 6.2542], [-69.5116, 6.2456], [-69.5178, 6.2407], [-69.5193, 6.2451], [-69.5324, 6.2407], [-69.5395, 6.2473], [-69.543, 6.2414], [-69.4288, 6.0953], [-69.4182, 6.0975], [-69.4039, 6.1138], [-69.3846, 6.1156], [-69.3632, 6.1315], [-69.3472, 6.1329], [-69.3308, 6.1177], [-69.3197, 6.092], [-69.3028, 6.0694], [-69.2892, 6.0587], [-69.2637, 6.0591], [-69.2522, 6.0681], [-69.2371, 6.0712], [-69.1751, 6.1317], [-69.1551, 6.1444], [-69.1236, 6.1926], [-69.0881, 6.208], [-69.02, 6.1911], [-68.9894, 6.2017], [-68.9274, 6.1626], [-68.8984, 6.1723], [-68.8291, 6.176], [-68.8128, 6.1695], [-68.7932, 6.1516], [-68.7867, 6.1505], [-68.7734, 6.1587], [-68.7456, 6.154], [-68.6948, 6.1298], [-68.6484, 6.1203], [-68.6085, 6.1573], [-68.5857, 6.1626], [-68.5454, 6.1477], [-68.5213, 6.1603], [-68.4708, 6.1698], [-68.4314, 6.2004], [-68.4227, 6.1969], [-68.4028, 6.1761], [-68.3198, 6.1651], [-68.2802, 6.1716], [-68.2185, 6.1986], [-68.1888, 6.2047], [-68.1529, 6.2214], [-68.1266, 6.228], [-68.1066, 6.2274], [-68.0749, 6.2091], [-68.0235, 6.2066], [-68.0004, 6.1939], [-67.9806, 6.194], [-67.955, 6.2209], [-67.9215, 6.2328], [-67.9111, 6.2602], [-67.8965, 6.2746], [-67.8701, 6.2861], [-67.8491, 6.2858], [-67.8273, 6.3083], [-67.7992, 6.3131], [-67.7803, 6.3094], [-67.7752, 6.2945], [-67.7643, 6.2896], [-67.7468, 6.2921], [-67.7103, 6.2871], [-67.6852, 6.2915], [-67.6505, 6.2804], [-67.6286, 6.2863], [-67.5913, 6.2643], [-67.5556, 6.2658], [-67.5408, 6.2545], [-67.524, 6.2296], [-67.5151, 6.2245], [-67.5027, 6.2248], [-67.4651, 6.1929], [-67.4427, 6.1927], [-67.4314, 6.2056], [-67.4244, 6.2302], [-67.4119, 6.2442], [-67.3412, 6.2646], [-67.3242, 6.2758], [-67.2793, 6.3496], [-67.2513, 6.3644], [-67.2396, 6.382], [-67.1743, 6.4367], [-67.1571, 6.4611], [-67.1222, 6.5926], [-67.1128, 6.7027], [-67.0869, 6.7401], [-67.0608, 6.7529], [-67.0353, 6.7787], [-67.0345, 6.8313], [-67.0181, 6.8851], [-67.0256, 6.9201], [-67.0713, 6.999], [-67.0782, 7.0297], [-67.0736, 7.0921], [-67.0656, 7.1117], [-67.0269, 7.1415], [-66.9935, 7.1784], [-67.0037, 7.1928], [-67.0226, 7.1926], [-67.0246, 7.208], [-67.0367, 7.2052], [-67.036, 7.2148], [-67.0426, 7.2173], [-67.0377, 7.2216], [-67.0311, 7.218], [-67.0304, 7.2277], [-67.0192, 7.2226], [-67.0171, 7.2375], [-67.0272, 7.2354], [-67.0445, 7.2435], [-67.0484, 7.2387], [-67.0495, 7.248], [-67.0518, 7.2413], [-67.0553, 7.2424], [-67.0556, 7.2509], [-67.0779, 7.2439], [-67.0846, 7.2542], [-67.0963, 7.248], [-67.0981, 7.2559], [-67.1106, 7.2494], [-67.1152, 7.2573], [-67.1241, 7.2518], [-67.1347, 7.2564], [-67.1295, 7.2737], [-67.1354, 7.2799], [-67.131, 7.2806], [-67.1331, 7.2855], [-67.1288, 7.2914], [-67.1402, 7.3006], [-67.1194, 7.3089], [-67.1234, 7.3241], [-67.132, 7.3326], [-67.1267, 7.3448], [-67.1399, 7.3505], [-67.1426, 7.3443], [-67.1489, 7.3607], [-67.1568, 7.3625], [-67.1641, 7.3713], [-67.1705, 7.3666], [-67.1774, 7.3727], [-67.1887, 7.3616], [-67.1945, 7.3675], [-67.2006, 7.3663], [-67.2018, 7.3742], [-67.2138, 7.3768], [-67.2193, 7.3705], [-67.226, 7.379], [-67.2336, 7.3764], [-67.239, 7.386], [-67.2339, 7.4059], [-67.2504, 7.4197], [-67.2619, 7.4203], [-67.2648, 7.4136], [-67.2908, 7.4039], [-67.2867, 7.4107], [-67.293, 7.4207], [-67.3061, 7.4174], [-67.3158, 7.4296], [-67.3398, 7.4405], [-67.3552, 7.4554], [-67.3773, 7.4557], [-67.3838, 7.4666], [-67.4058, 7.4734], [-67.4098, 7.4839], [-67.428, 7.4888], [-67.4358, 7.4955], [-67.4372, 7.5042], [-67.4492, 7.5102], [-67.4519, 7.5155], [-67.3041, 7.6428], [-67.3069, 7.6495], [-67.3207, 7.6568], [-67.3408, 7.657], [-67.3481, 7.6402], [-67.3623, 7.6471], [-67.3756, 7.6359], [-67.3816, 7.642], [-67.4033, 7.642], [-67.4117, 7.6546], [-67.4213, 7.6531], [-67.4202, 7.6641], [-67.4248, 7.6649], [-67.4246, 7.6598], [-67.434, 7.6555], [-67.441, 7.6808], [-67.456, 7.6798], [-67.4635, 7.6881], [-67.4913, 7.679], [-67.5038, 7.686], [-67.5147, 7.6803], [-67.5345, 7.6805], [-67.555, 7.6686], [-67.584, 7.6816], [-67.6061, 7.6846], [-67.6124, 7.6795], [-67.6187, 7.6807], [-67.6274, 7.6962], [-67.6335, 7.6984], [-67.6639, 7.6823], [-67.6718, 7.6883], [-67.6807, 7.6853], [-67.6878, 7.6982], [-67.7027, 7.6995], [-67.7164, 7.6947], [-67.7227, 7.6992], [-67.7555, 7.6898], [-67.762, 7.7009], [-67.771, 7.7007], [-67.7722, 7.7071], [-67.7886, 7.7065], [-67.8045, 7.7192], [-67.8191, 7.7221], [-67.8322, 7.718], [-67.8365, 7.7247], [-67.8396, 7.7198], [-67.851, 7.7212], [-67.8316, 7.573], [-67.8511, 7.5736], [-67.8653, 7.5817], [-67.8787, 7.5767], [-67.9132, 7.5868], [-67.936, 7.5724], [-67.9466, 7.5735], [-67.9618, 7.5594], [-67.9583, 7.5535], [-67.9668, 7.5404], [-67.9706, 7.5502], [-67.9775, 7.5455], [-67.9837, 7.5529], [-67.9888, 7.5447], [-68.0041, 7.5432], [-68.021, 7.5307], [-68.0432, 7.5312], [-68.0511, 7.4889], [-68.0817, 7.3022], [-68.0935, 6.9607], [-68.0148, 6.6416], [-68.0234, 6.639], [-68.0247, 6.6303], [-68.0319, 6.6252], [-68.0443, 6.6297], [-68.0472, 6.6355], [-68.0516, 6.6341], [-68.0565, 6.6154], [-68.0468, 6.611], [-68.0432, 6.5951], [-68.045, 6.5857], [-68.056, 6.5876], [-68.0606, 6.5836], [-68.0534, 6.5664], [-68.0748, 6.5618], [-68.0833, 6.5783], [-68.0983, 6.5772], [-68.1119, 6.5457], [-68.1363, 6.5619], [-68.148, 6.5553], [-68.1527, 6.5415], [-68.1644, 6.55], [-68.1925, 6.5535], [-68.1993, 6.5488], [-68.196, 6.5403], [-68.2012, 6.542], [-68.2019, 6.5367], [-68.2109, 6.5391], [-68.2271, 6.5205], [-68.2519, 6.5363], [-68.2571, 6.5535], [-68.2678, 6.5608], [-68.2703, 6.5451], [-68.2874, 6.5618], [-68.2854, 6.5435], [-68.3181, 6.5366], [-68.3267, 6.551], [-68.3371, 6.5567], [-68.3543, 6.5477], [-68.3673, 6.5558], [-68.4008, 6.5596], [-68.4118, 6.5822], [-68.4269, 6.5962], [-68.4361, 6.5986], [-68.4451, 6.5911], [-68.443, 6.5737], [-68.4652, 6.5849], [-68.4735, 6.5563], [-68.4857, 6.554], [-68.4873, 6.5454], [-68.509, 6.5418], [-68.5287, 6.5735], [-68.5409, 6.5778], [-68.5403, 6.5888], [-68.5252, 6.6003], [-68.5262, 6.6156], [-68.5446, 6.6223], [-68.554, 6.633], [-68.5611, 6.6303], [-68.5733, 6.6138], [-68.5874, 6.6133]]]}}, {"type": "Feature", "properties": {"osm_type": "relation", "osm_id": 371490669, "name": "San Fernando", "admin_level": "6", "kind": "subdivision_2", "parent_osm_id": 3395162, "parent_name": "Apure State", "parent_iso": "VE-C"}, "geometry": {"type": "Polygon", "coordinates": [[[-67.6335, 7.6984], [-67.6274, 7.6962], [-67.6187, 7.6807], [-67.6124, 7.6795], [-67.6061, 7.6846], [-67.584, 7.6816], [-67.555, 7.6686], [-67.5345, 7.6805], [-67.5147, 7.6803], [-67.5038, 7.686], [-67.4913, 7.679], [-67.4635, 7.6881], [-67.456, 7.6798], [-67.441, 7.6808], [-67.434, 7.6555], [-67.4246, 7.6598], [-67.4248, 7.6649], [-67.4202, 7.6641], [-67.4213, 7.6531], [-67.4117, 7.6546], [-67.4033, 7.642], [-67.3816, 7.642], [-67.3756, 7.6359], [-67.3623, 7.6471], [-67.3481, 7.6402], [-67.3408, 7.657], [-67.3207, 7.6568], [-67.3069, 7.6495], [-67.3041, 7.6428], [-67.4519, 7.5155], [-67.4492, 7.5102], [-67.4372, 7.5042], [-67.4358, 7.4955], [-67.428, 7.4888], [-67.4098, 7.4839], [-67.4058, 7.4734], [-67.3838, 7.4666], [-67.3773, 7.4557], [-67.3552, 7.4554], [-67.3398, 7.4405], [-67.3158, 7.4296], [-67.3061, 7.4174], [-67.293, 7.4207], [-67.2867, 7.4107], [-67.2908, 7.4039], [-67.2648, 7.4136], [-67.2619, 7.4203], [-67.2504, 7.4197], [-67.2339, 7.4059], [-67.239, 7.386], [-67.2336, 7.3764], [-67.226, 7.379], [-67.2193, 7.3705], [-67.2138, 7.3768], [-67.2018, 7.3742], [-67.2006, 7.3663], [-67.1945, 7.3675], [-67.1887, 7.3616], [-67.1774, 7.3727], [-67.1705, 7.3666], [-67.1641, 7.3713], [-67.1568, 7.3625], [-67.1489, 7.3607], [-67.1426, 7.3443], [-67.1399, 7.3505], [-67.1267, 7.3448], [-67.132, 7.3326], [-67.1234, 7.3241], [-67.1194, 7.3089], [-67.1402, 7.3006], [-67.1288, 7.2914], [-67.1331, 7.2855], [-67.131, 7.2806], [-67.1354, 7.2799], [-67.1295, 7.2737], [-67.1347, 7.2564], [-67.1241, 7.2518], [-67.1152, 7.2573], [-67.1106, 7.2494], [-67.0981, 7.2559], [-67.0963, 7.248], [-67.0846, 7.2542], [-67.0779, 7.2439], [-67.0556, 7.2509], [-67.0553, 7.2424], [-67.0518, 7.2413], [-67.0495, 7.248], [-67.0484, 7.2387], [-67.0445, 7.2435], [-67.0272, 7.2354], [-67.0171, 7.2375], [-67.0192, 7.2226], [-67.0304, 7.2277], [-67.0311, 7.218], [-67.0377, 7.2216], [-67.0426, 7.2173], [-67.036, 7.2148], [-67.0367, 7.2052], [-67.0246, 7.208], [-67.0226, 7.1926], [-67.0037, 7.1928], [-66.9935, 7.1784], [-66.9796, 7.1838], [-66.9522, 7.1837], [-66.9009, 7.1686], [-66.8827, 7.1744], [-66.8676, 7.1872], [-66.8308, 7.238], [-66.8021, 7.2608], [-66.7608, 7.2746], [-66.7237, 7.275], [-66.6778, 7.301], [-66.6261, 7.3045], [-66.6044, 7.3148], [-66.5937, 7.3291], [-66.5888, 7.3851], [-66.5698, 7.4009], [-66.5561, 7.4222], [-66.5252, 7.4303], [-66.5151, 7.4398], [-66.5098, 7.4575], [-66.5136, 7.4976], [-66.4852, 7.517], [-66.4696, 7.5715], [-66.3913, 7.6175], [-66.3389, 7.6344], [-66.331, 7.6444], [-66.3383, 7.6661], [-66.3309, 7.6817], [-66.3434, 7.6897], [-66.3598, 7.7207], [-66.4063, 7.7075], [-66.4432, 7.7129], [-66.4712, 7.7265], [-66.4868, 7.7289], [-66.4901, 7.7338], [-66.4791, 7.7459], [-66.4799, 7.7572], [-66.5146, 7.7755], [-66.5162, 7.7877], [-66.524, 7.79], [-66.5339, 7.8093], [-66.5535, 7.7981], [-66.5462, 7.7811], [-66.5551, 7.7709], [-66.555, 7.7805], [-66.5693, 7.7742], [-66.5848, 7.777], [-66.6078, 7.7585], [-66.6307, 7.7712], [-66.6408, 7.7596], [-66.6575, 7.7648], [-66.6587, 7.757], [-66.6675, 7.7525], [-66.6645, 7.7434], [-66.6532, 7.7461], [-66.652, 7.7399], [-66.6583, 7.7358], [-66.6522, 7.7332], [-66.6497, 7.7246], [-66.6373, 7.7261], [-66.651, 7.6974], [-66.6672, 7.6915], [-66.6676, 7.7007], [-66.673, 7.7022], [-66.6853, 7.6952], [-66.6805, 7.7085], [-66.6882, 7.7176], [-66.694, 7.6983], [-66.7154, 7.6863], [-66.7195, 7.691], [-66.731, 7.6896], [-66.7282, 7.6828], [-66.745, 7.6939], [-66.7616, 7.6929], [-66.7634, 7.7], [-66.7752, 7.6982], [-66.7816, 7.7087], [-66.7864, 7.7033], [-66.7912, 7.7084], [-66.7929, 7.7001], [-66.8173, 7.7271], [-66.834, 7.7254], [-66.8466, 7.732], [-66.8527, 7.7183], [-66.8841, 7.7224], [-66.892, 7.7434], [-66.9109, 7.7517], [-66.9314, 7.7469], [-66.9411, 7.7383], [-66.9602, 7.7433], [-66.9663, 7.7503], [-66.9698, 7.7451], [-66.969, 7.7564], [-66.9773, 7.7625], [-67.0065, 7.7652], [-67.0106, 7.7535], [-67.0521, 7.7859], [-67.0584, 7.779], [-67.0951, 7.7717], [-67.099, 7.7595], [-67.1412, 7.7605], [-67.1544, 7.7544], [-67.1619, 7.7594], [-67.1571, 7.7764], [-67.1673, 7.7727], [-67.1842, 7.7764], [-67.194, 7.7702], [-67.2215, 7.7724], [-67.228, 7.7895], [-67.2378, 7.7945], [-67.2391, 7.8006], [-67.2479, 7.7968], [-67.2427, 7.8058], [-67.2569, 7.8122], [-67.2607, 7.8258], [-67.2788, 7.8269], [-67.2896, 7.8196], [-67.3016, 7.827], [-67.3034, 7.8225], [-67.3069, 7.832], [-67.3264, 7.8432], [-67.3316, 7.8641], [-67.3221, 7.8781], [-67.3386, 7.8839], [-67.3379, 7.8903], [-67.3517, 7.8765], [-67.3542, 7.8797], [-67.3492, 7.8869], [-67.3557, 7.8897], [-67.3572, 7.8798], [-67.3624, 7.8783], [-67.3687, 7.8845], [-67.365, 7.8913], [-67.3731, 7.8975], [-67.3829, 7.8961], [-67.3974, 7.9114], [-67.398, 7.9046], [-67.4017, 7.9082], [-67.4164, 7.9045], [-67.4255, 7.8892], [-67.4376, 7.8814], [-67.461, 7.895], [-67.4974, 7.8982], [-67.5076, 7.7526], [-67.6335, 7.6984]]]}}, {"type": "Feature", "properties": {"osm_type": "relation", "osm_id": 122831845, "name": "Páez", "admin_level": "6", "kind": "subdivision_2", "parent_osm_id": 3395162, "parent_name": "Apure State", "parent_iso": "VE-C"}, "geometry": {"type": "Polygon", "coordinates": [[[-72.3901, 7.4092], [-72.4086, 7.4076], [-72.4172, 7.3962], [-72.3889, 7.3912], [-72.3787, 7.395], [-72.3649, 7.3903], [-72.356, 7.3929], [-72.3271, 7.3719], [-72.3041, 7.3876], [-72.259, 7.3753], [-72.2445, 7.3867], [-72.2256, 7.3906], [-72.1974, 7.3808], [-72.1838, 7.3527], [-72.1572, 7.3269], [-72.1732, 7.2888], [-72.1709, 7.2713], [-72.1765, 7.2572], [-72.0503, 7.0374], [-72.0003, 7.0065], [-71.8851, 7.0114], [-71.8371, 7.0199], [-71.8261, 7.0302], [-71.8266, 7.0493], [-71.8038, 7.0567], [-71.7969, 7.0673], [-71.7915, 7.0575], [-71.7782, 7.055], [-71.7627, 7.0663], [-71.7659, 7.08], [-71.7627, 7.0814], [-71.7534, 7.0736], [-71.7446, 7.0727], [-71.7557, 7.0544], [-71.7426, 7.0508], [-71.7343, 7.0665], [-71.7244, 7.0667], [-71.7217, 7.0359], [-71.7036, 7.0381], [-71.6914, 7.033], [-71.6746, 7.0333], [-71.665, 7.0192], [-71.6561, 7.015], [-71.6506, 7.019], [-71.6601, 7.0317], [-71.6595, 7.0383], [-71.6525, 7.0477], [-71.6433, 7.051], [-71.6191, 7.0394], [-71.6016, 7.0509], [-71.5931, 7.0495], [-71.5929, 7.0268], [-71.5841, 7.0215], [-71.5699, 7.0222], [-71.5515, 7.0305], [-71.5344, 7.025], [-71.5058, 7.0297], [-71.4922, 7.0167], [-71.4698, 7.0307], [-71.4654, 7.0237], [-71.4678, 7.0102], [-71.4637, 7.0072], [-71.4543, 7.0102], [-71.4468, 7.0209], [-71.4375, 7.0221], [-71.4282, 7.034], [-71.399, 7.0334], [-71.3741, 7.0135], [-71.3195, 7.0123], [-71.3051, 7.0238], [-71.2856, 7.0212], [-71.2681, 7.0285], [-71.2602, 7.0171], [-71.243, 7.0089], [-71.2334, 7.0235], [-71.214, 7.0159], [-71.2025, 7.021], [-71.1937, 7.016], [-71.1326, 7.0293], [-71.1268, 7.0232], [-71.1252, 7.0108], [-71.1069, 7.0058], [-71.1092, 6.998], [-71.1165, 7.0036], [-71.1108, 6.9933], [-71.1166, 6.9835], [-71.0943, 6.9738], [-71.0467, 6.9718], [-71.0206, 6.9618], [-70.9943, 6.972], [-70.9766, 7.0062], [-70.9643, 7.0116], [-70.9636, 7.0202], [-70.9584, 7.0199], [-70.9571, 7.0119], [-70.9522, 7.0103], [-70.9281, 7.017], [-70.925, 7.0266], [-70.9143, 7.0203], [-70.9082, 7.0328], [-70.8961, 7.0306], [-70.9002, 7.0494], [-70.8886, 7.0589], [-70.855, 7.0498], [-70.8475, 7.0664], [-70.856, 7.0652], [-70.8567, 7.0721], [-70.8391, 7.0739], [-70.8261, 7.0664], [-70.8042, 7.0786], [-70.7885, 7.0802], [-70.7786, 7.0739], [-70.7708, 7.0854], [-70.7646, 7.0855], [-70.7629, 7.0932], [-70.7377, 7.0852], [-70.7049, 7.0885], [-70.6903, 7.0968], [-70.6732, 7.0819], [-70.6473, 7.0724], [-70.6421, 7.0653], [-70.6268, 7.0664], [-70.6072, 7.0609], [-70.5879, 7.0655], [-70.5848, 7.0723], [-70.5715, 7.0769], [-70.5588, 7.0754], [-70.5374, 7.0521], [-70.5424, 7.0444], [-70.5339, 7.042], [-70.5394, 7.0373], [-70.5298, 7.0382], [-70.5124, 7.0235], [-70.5158, 7.0176], [-70.5034, 7.002], [-70.4939, 7.0008], [-70.4919, 7.0048], [-70.4686, 6.9962], [-70.46, 6.9986], [-70.4561, 7.0073], [-70.4519, 7.0044], [-70.4545, 6.9992], [-70.4455, 6.9983], [-70.4406, 7.0029], [-70.4375, 6.9969], [-70.4317, 7.0025], [-70.4296, 6.9909], [-70.4179, 6.9783], [-70.4043, 6.985], [-70.3977, 6.9787], [-70.3885, 6.9821], [-70.3738, 6.9776], [-70.3721, 6.9693], [-70.362, 6.964], [-70.361, 6.9524], [-70.3534, 6.953], [-70.3551, 6.9484], [-70.3252, 6.9313], [-70.293, 6.9311], [-70.2854, 6.9374], [-70.278, 6.9336], [-70.2647, 6.9386], [-70.2486, 6.9514], [-70.2487, 6.958], [-70.2291, 6.9641], [-70.2249, 6.9721], [-70.2145, 6.9758], [-70.1718, 6.9744], [-70.1494, 6.98], [-70.1364, 6.9713], [-70.1212, 6.9718], [-70.1103, 6.9856], [-70.0975, 6.9924], [-70.0894, 7.0186], [-70.3746, 7.24], [-70.3455, 7.2312], [-70.3288, 7.2394], [-70.3056, 7.2378], [-70.2753, 7.2253], [-70.2489, 7.229], [-70.221, 7.221], [-70.1494, 7.2406], [-70.1352, 7.2214], [-70.1079, 7.2062], [-70.0852, 7.2129], [-70.0595, 7.2097], [-70.0449, 7.2171], [-70.0307, 7.2153], [-70.0248, 7.2207], [-70.0207, 7.2148], [-70.0098, 7.2176], [-70.0051, 7.2121], [-69.9939, 7.2124], [-69.9858, 7.2189], [-69.9869, 7.2318], [-69.9703, 7.2373], [-69.9652, 7.2304], [-69.9564, 7.2332], [-69.9386, 7.22], [-69.9175, 7.2317], [-69.9068, 7.232], [-69.8942, 7.2251], [-69.854, 7.235], [-69.848, 7.23], [-69.8148, 7.2571], [-69.7985, 7.261], [-69.7943, 7.2549], [-69.7889, 7.2553], [-69.7829, 7.268], [-69.7671, 7.2689], [-69.7525, 7.2787], [-69.731, 7.2761], [-69.7259, 7.267], [-69.7151, 7.273], [-69.6973, 7.2708], [-69.6968, 7.2747], [-69.6918, 7.2736], [-69.6937, 7.278], [-69.6884, 7.2853], [-69.6788, 7.2862], [-69.6699, 7.2966], [-69.6623, 7.2931], [-69.6636, 7.2992], [-69.6537, 7.3034], [-69.6538, 7.3106], [-69.648, 7.3134], [-69.6463, 7.3241], [-69.6387, 7.3325], [-69.6146, 7.3398], [-69.6692, 7.5498], [-69.9027, 7.7881], [-69.9099, 7.773], [-69.9302, 7.7507], [-69.9437, 7.7449], [-69.9532, 7.7312], [-69.96, 7.7327], [-69.9683, 7.7472], [-69.9763, 7.7484], [-69.9942, 7.7399], [-70.0143, 7.7439], [-70.0412, 7.7411], [-70.059, 7.723], [-70.0923, 7.7178], [-70.1008, 7.7059], [-70.1131, 7.702], [-70.119, 7.6857], [-70.1491, 7.6779], [-70.1586, 7.6598], [-70.1541, 7.643], [-70.1708, 7.6135], [-70.2015, 7.6069], [-70.2161, 7.5866], [-70.2628, 7.6113], [-70.2822, 7.6032], [-70.3011, 7.6057], [-70.3084, 7.5953], [-70.3232, 7.5979], [-70.3296, 7.5869], [-70.3247, 7.5692], [-70.345, 7.5584], [-70.3597, 7.5265], [-70.3665, 7.501], [-70.361, 7.4849], [-70.3781, 7.4708], [-70.3913, 7.444], [-70.4047, 7.4354], [-70.4189, 7.4346], [-70.443, 7.4167], [-70.4906, 7.4157], [-70.5133, 7.4067], [-70.5161, 7.3999], [-70.5098, 7.3799], [-70.5165, 7.3647], [-70.5244, 7.3646], [-70.5351, 7.3723], [-70.5502, 7.3673], [-70.5609, 7.3496], [-70.6135, 7.3201], [-70.6266, 7.3273], [-70.6452, 7.3291], [-70.6628, 7.3193], [-70.6822, 7.3166], [-70.695, 7.2914], [-70.7165, 7.2923], [-70.7323, 7.3027], [-70.7376, 7.291], [-70.7476, 7.2971], [-70.7466, 7.2883], [-70.7507, 7.2842], [-70.7571, 7.2929], [-70.7714, 7.2993], [-70.7904, 7.295], [-70.8041, 7.3017], [-70.8042, 7.3083], [-70.8119, 7.3118], [-70.8225, 7.3097], [-70.8338, 7.3151], [-70.8443, 7.3106], [-70.8417, 7.3157], [-70.8575, 7.3204], [-70.8643, 7.3315], [-70.8659, 7.3269], [-70.8846, 7.3281], [-70.8841, 7.3243], [-70.8769, 7.3251], [-70.8793, 7.3186], [-70.8917, 7.3171], [-70.9066, 7.3078], [-70.9166, 7.3118], [-70.9334, 7.304], [-70.9434, 7.307], [-70.9593, 7.3037], [-70.9696, 7.3201], [-70.9892, 7.3238], [-70.9975, 7.3363], [-71.0177, 7.3384], [-71.0165, 7.328], [-71.0333, 7.3439], [-71.0395, 7.3408], [-71.0435, 7.3493], [-71.0618, 7.3443], [-71.0741, 7.3487], [-71.0764, 7.357], [-71.0824, 7.3564], [-71.0887, 7.366], [-71.0993, 7.3639], [-71.1057, 7.3697], [-71.1111, 7.3616], [-71.1207, 7.3666], [-71.1287, 7.3613], [-71.1586, 7.3638], [-71.1797, 7.3762], [-71.1803, 7.3875], [-71.194, 7.3893], [-71.202, 7.3854], [-71.2034, 7.3938], [-71.2205, 7.4058], [-71.217, 7.4187], [-71.2335, 7.4195], [-71.2427, 7.4148], [-71.2459, 7.424], [-71.2532, 7.4273], [-71.2633, 7.4237], [-71.275, 7.4275], [-71.2812, 7.4206], [-71.2816, 7.432], [-71.2899, 7.4294], [-71.3103, 7.4426], [-71.3214, 7.4364], [-71.3311, 7.4441], [-71.3495, 7.4432], [-71.355, 7.4335], [-71.3612, 7.4375], [-71.3728, 7.4348], [-71.3822, 7.4425], [-71.3903, 7.4404], [-71.3978, 7.4477], [-71.4068, 7.4412], [-71.4129, 7.4463], [-71.4144, 7.4394], [-71.4279, 7.4393], [-71.4402, 7.4469], [-71.4428, 7.4536], [-71.4578, 7.4594], [-71.4611, 7.4571], [-71.4567, 7.4502], [-71.469, 7.4573], [-71.4724, 7.4463], [-71.4824, 7.4488], [-71.4984, 7.4327], [-71.5093, 7.4388], [-71.5041, 7.4227], [-71.5138, 7.4229], [-71.522, 7.4157], [-71.5369, 7.417], [-71.543, 7.4236], [-71.5539, 7.4181], [-71.5622, 7.426], [-71.5767, 7.4288], [-71.5912, 7.4234], [-71.6003, 7.4136], [-71.6303, 7.4382], [-71.6479, 7.421], [-71.676, 7.4197], [-71.6843, 7.414], [-71.692, 7.4193], [-71.7114, 7.4176], [-71.7338, 7.4328], [-71.7505, 7.4464], [-71.7472, 7.4641], [-71.762, 7.4657], [-71.7681, 7.4756], [-71.7729, 7.4746], [-71.7772, 7.4642], [-71.7867, 7.4714], [-71.798, 7.4711], [-71.8115, 7.483], [-71.8276, 7.479], [-71.8418, 7.4861], [-71.8536, 7.4799], [-71.8513, 7.4662], [-71.8566, 7.4596], [-71.8565, 7.4381], [-71.8621, 7.4394], [-71.8594, 7.436], [-71.864, 7.4262], [-71.8695, 7.4267], [-71.8771, 7.4139], [-71.9392, 7.3919], [-71.9404, 7.3875], [-71.9757, 7.3726], [-71.98, 7.366], [-72.0177, 7.3578], [-72.0597, 7.3655], [-72.0798, 7.3908], [-72.0938, 7.3975], [-72.1581, 7.3843], [-72.1665, 7.3789], [-72.1739, 7.3976], [-72.1822, 7.399], [-72.1949, 7.4128], [-72.2105, 7.4181], [-72.2233, 7.4302], [-72.2322, 7.424], [-72.2484, 7.4214], [-72.2587, 7.425], [-72.2662, 7.4197], [-72.2832, 7.426], [-72.3013, 7.4235], [-72.3078, 7.4298], [-72.3222, 7.4318], [-72.3314, 7.4224], [-72.3418, 7.4249], [-72.348, 7.4146], [-72.3674, 7.4178], [-72.3901, 7.4092]]]}}, {"type": "Feature", "properties": {"osm_type": "relation", "osm_id": 559266137, "name": "Rómulo Gallegos", "admin_level": "6", "kind": "subdivision_2", "parent_osm_id": 3395162, "parent_name": "Apure State", "parent_iso": "VE-C"}, "geometry": {"type": "Polygon", "coordinates": [[[-68.9545, 7.2909], [-68.9601, 7.2822], [-68.9691, 7.2837], [-68.972, 7.2699], [-68.983, 7.2671], [-68.9825, 7.2548], [-68.9933, 7.253], [-68.9942, 7.2409], [-69.0088, 7.2347], [-68.9988, 7.2207], [-69.0174, 7.2163], [-69.0167, 7.2022], [-69.0395, 7.1962], [-69.056, 7.2005], [-69.0659, 7.1814], [-69.0904, 7.173], [-69.0973, 7.1569], [-69.1051, 7.1543], [-69.1151, 7.158], [-69.1293, 7.1467], [-69.4463, 7.2149], [-69.4973, 7.1851], [-69.6194, 7.363], [-69.6157, 7.3378], [-69.6387, 7.3325], [-69.6463, 7.3241], [-69.648, 7.3134], [-69.6538, 7.3106], [-69.6537, 7.3034], [-69.6636, 7.2992], [-69.6623, 7.2931], [-69.6699, 7.2966], [-69.6788, 7.2862], [-69.6884, 7.2853], [-69.6937, 7.278], [-69.6918, 7.2736], [-69.7151, 7.273], [-69.7259, 7.267], [-69.731, 7.2761], [-69.7525, 7.2787], [-69.7671, 7.2689], [-69.7829, 7.268], [-69.7889, 7.2553], [-69.7943, 7.2549], [-69.7985, 7.261], [-69.8148, 7.2571], [-69.848, 7.23], [-69.854, 7.235], [-69.8942, 7.2251], [-69.9068, 7.232], [-69.9175, 7.2317], [-69.9386, 7.22], [-69.9564, 7.2332], [-69.9652, 7.2304], [-69.9703, 7.2373], [-69.9869, 7.2318], [-69.9858, 7.2189], [-69.9939, 7.2124], [-70.0051, 7.2121], [-70.0098, 7.2176], [-70.0207, 7.2148], [-70.0248, 7.2207], [-70.0307, 7.2153], [-70.0449, 7.2171], [-70.0595, 7.2097], [-70.0852, 7.2129], [-70.1079, 7.2062], [-70.1352, 7.2214], [-70.1494, 7.2406], [-70.221, 7.221], [-70.2489, 7.229], [-70.2753, 7.2253], [-70.3056, 7.2378], [-70.3288, 7.2394], [-70.3455, 7.2312], [-70.3753, 7.2393], [-70.0894, 7.0186], [-70.0975, 6.9924], [-70.1103, 6.9856], [-70.1212, 6.9718], [-69.543, 6.2414], [-69.5395, 6.2473], [-69.5324, 6.2407], [-69.5193, 6.2451], [-69.5178, 6.2407], [-69.5116, 6.2456], [-69.5105, 6.2542], [-69.4976, 6.2619], [-69.5007, 6.2657], [-69.4959, 6.2701], [-69.4962, 6.2787], [-69.4907, 6.2818], [-69.4946, 6.289], [-69.491, 6.3022], [-69.4823, 6.304], [-69.4804, 6.3087], [-69.4743, 6.3029], [-69.4633, 6.3065], [-69.4614, 6.3023], [-69.4538, 6.3081], [-69.4566, 6.3111], [-69.441, 6.3174], [-69.4325, 6.3114], [-69.4185, 6.3135], [-69.4155, 6.3088], [-69.4099, 6.318], [-69.3998, 6.3096], [-69.3911, 6.3093], [-69.3813, 6.3217], [-69.3563, 6.3214], [-69.3559, 6.3286], [-69.3482, 6.3304], [-69.3543, 6.3401], [-69.3422, 6.3415], [-69.3362, 6.3519], [-69.3248, 6.3445], [-69.3129, 6.3508], [-69.3063, 6.3446], [-69.2964, 6.3491], [-69.28, 6.3452], [-69.2791, 6.3404], [-69.2592, 6.3315], [-69.2421, 6.332], [-69.2369, 6.3374], [-69.2292, 6.3368], [-69.2158, 6.3702], [-69.207, 6.3693], [-69.196, 6.3765], [-69.1886, 6.372], [-69.1914, 6.3863], [-69.1867, 6.3898], [-69.1817, 6.384], [-69.1781, 6.3986], [-69.1629, 6.4042], [-69.1697, 6.4075], [-69.1686, 6.4115], [-69.1601, 6.4106], [-69.1485, 6.4193], [-69.1429, 6.4149], [-69.137, 6.4199], [-69.1252, 6.4191], [-69.1192, 6.4238], [-69.1186, 6.4316], [-69.1106, 6.4317], [-69.1095, 6.426], [-69.0995, 6.4227], [-69.087, 6.4312], [-69.0795, 6.4248], [-69.0493, 6.4263], [-69.0445, 6.4369], [-69.031, 6.4416], [-69.0232, 6.4378], [-69.0145, 6.441], [-69.0124, 6.4358], [-69.0003, 6.4503], [-69.0014, 6.4594], [-68.9949, 6.4633], [-68.9627, 6.4432], [-68.9526, 6.4528], [-68.9465, 6.4695], [-68.9364, 6.4711], [-68.9259, 6.4841], [-68.894, 6.4835], [-68.8811, 6.508], [-68.8503, 6.4924], [-68.827, 6.4981], [-68.8127, 6.5142], [-68.7903, 6.5067], [-68.7808, 6.5281], [-68.7577, 6.5169], [-68.7511, 6.5243], [-68.7396, 6.5186], [-68.7356, 6.5382], [-68.7162, 6.5439], [-68.7121, 6.5378], [-68.703, 6.5675], [-68.6959, 6.5683], [-68.6955, 6.5767], [-68.6846, 6.575], [-68.6683, 6.5845], [-68.6636, 6.6024], [-68.6523, 6.5868], [-68.6407, 6.5823], [-68.637, 6.5858], [-68.6431, 6.5953], [-68.6326, 6.5985], [-68.6305, 6.6126], [-68.6229, 6.6165], [-68.5963, 6.607], [-68.5874, 6.6133], [-68.8805, 6.8262], [-68.9545, 7.2909]]]}}]}