{"type": "FeatureCollection", "parent": {"osm_id": 349045, "name": "Aragon", "admin_level": "4", "kind": "subdivision_1", "child_kind": "subdivision_2", "iso": "ES-AR"}, "features": [{"type": "Feature", "properties": {"osm_type": "relation", "osm_id": 510430396, "name": "Huesca", "admin_level": "6", "kind": "subdivision_2", "parent_osm_id": 349045, "parent_name": "Aragon", "parent_iso": "ES-AR"}, "geometry": {"type": "Polygon", "coordinates": [[[-0.7276, 42.9193], [-0.7441, 42.9192], [-0.7535, 42.9245], [-0.7832, 42.9217], [-0.8191, 42.9007], [-0.8192, 42.8892], [-0.8136, 42.8882], [-0.8185, 42.8694], [-0.8568, 42.8469], [-0.8514, 42.8076], [-0.86, 42.7986], [-0.8475, 42.7859], [-0.8595, 42.7688], [-0.8733, 42.759], [-0.9005, 42.7605], [-0.901, 42.7378], [-0.8969, 42.7357], [-0.9068, 42.7266], [-0.9044, 42.7122], [-0.9225, 42.7008], [-0.9015, 42.7019], [-0.8801, 42.694], [-0.88, 42.6881], [-0.8931, 42.6623], [-0.9021, 42.6569], [-0.9276, 42.6562], [-0.9113, 42.6335], [-0.9047, 42.6129], [-0.9147, 42.6023], [-0.9047, 42.599], [-0.9087, 42.5871], [-0.9248, 42.588], [-0.9342, 42.5726], [-0.9216, 42.5712], [-0.9186, 42.5553], [-0.8993, 42.56], [-0.895, 42.5491], [-0.8983, 42.539], [-0.9164, 42.5373], [-0.9278, 42.5228], [-0.9334, 42.5059], [-0.9133, 42.5038], [-0.8999, 42.512], [-0.893, 42.5099], [-0.8903, 42.4904], [-0.897, 42.4791], [-0.8796, 42.4697], [-0.8777, 42.4616], [-0.8819, 42.4571], [-0.8963, 42.4604], [-0.9038, 42.4532], [-0.9064, 42.4498], [-0.8963, 42.4438], [-0.9044, 42.4348], [-0.8785, 42.4185], [-0.8421, 42.4074], [-0.8354, 42.3955], [-0.8153, 42.3952], [-0.8217, 42.3846], [-0.8442, 42.3846], [-0.8428, 42.3663], [-0.85, 42.3591], [-0.8557, 42.3399], [-0.8796, 42.3189], [-0.8921, 42.2969], [-0.889, 42.2867], [-0.9189, 42.2573], [-0.8976, 42.2487], [-0.8979, 42.2442], [-0.8905, 42.24], [-0.8865, 42.2446], [-0.8909, 42.2487], [-0.8871, 42.2557], [-0.8912, 42.263], [-0.877, 42.2816], [-0.8579, 42.2747], [-0.8439, 42.2828], [-0.8131, 42.2645], [-0.8065, 42.2705], [-0.7811, 42.3174], [-0.7718, 42.3467], [-0.7719, 42.3627], [-0.781, 42.3767], [-0.7779, 42.3913], [-0.7364, 42.3699], [-0.7448, 42.3617], [-0.7351, 42.3533], [-0.7446, 42.3387], [-0.7399, 42.3347], [-0.7388, 42.3192], [-0.7289, 42.2963], [-0.7485, 42.2775], [-0.752, 42.2636], [-0.7594, 42.2636], [-0.7615, 42.2145], [-0.7589, 42.2047], [-0.7505, 42.1994], [-0.7537, 42.1831], [-0.7599, 42.1787], [-0.7516, 42.1729], [-0.7598, 42.1702], [-0.7474, 42.1559], [-0.7587, 42.147], [-0.7521, 42.132], [-0.7609, 42.1299], [-0.7532, 42.1238], [-0.7581, 42.1146], [-0.7543, 42.1081], [-0.7627, 42.1004], [-0.7549, 42.0906], [-0.7702, 42.0872], [-0.7608, 42.0795], [-0.7661, 42.0735], [-0.7631, 42.0675], [-0.7797, 42.0547], [-0.7935, 42.0544], [-0.8048, 42.0739], [-0.8048, 42.0964], [-0.8129, 42.0925], [-0.8282, 42.0826], [-0.8442, 42.0593], [-0.857, 42.051], [-0.8489, 42.042], [-0.8507, 42.0262], [-0.8849, 42.0036], [-0.8671, 41.9999], [-0.8438, 41.984], [-0.7782, 41.9574], [-0.737, 41.9533], [-0.7244, 41.9608], [-0.6578, 41.9575], [-0.6306, 41.9129], [-0.5955, 41.8996], [-0.6033, 41.8828], [-0.5552, 41.8713], [-0.5428, 41.8579], [-0.529, 41.8535], [-0.5167, 41.8368], [-0.5165, 41.8136], [-0.5112, 41.8085], [-0.5088, 41.7915], [-0.512, 41.7839], [-0.5007, 41.7613], [-0.504, 41.7462], [-0.5187, 41.7288], [-0.4894, 41.7317], [-0.4822, 41.7243], [-0.4669, 41.7217], [-0.4644, 41.7151], [-0.4449, 41.7037], [-0.4285, 41.7055], [-0.4104, 41.7014], [-0.3848, 41.6876], [-0.3745, 41.6881], [-0.3663, 41.6799], [-0.3595, 41.6352], [-0.3272, 41.6243], [-0.3126, 41.6241], [-0.3023, 41.6079], [-0.2632, 41.5885], [-0.2448, 41.5731], [-0.2368, 41.5739], [-0.2278, 41.5865], [-0.2057, 41.6023], [-0.1564, 41.59], [-0.1674, 41.5811], [-0.1575, 41.5684], [-0.1567, 41.5353], [-0.1337, 41.5213], [-0.105, 41.4855], [-0.0845, 41.4314], [-0.084, 41.4153], [-0.0741, 41.3938], [-0.0727, 41.3772], [-0.0511, 41.3664], [-0.0494, 41.3605], [-0.0079, 41.3478], [-0.0293, 41.3778], [-0.023, 41.397], [-0.0026, 41.3879], [0.01, 41.3604], [0.0371, 41.3551], [0.0797, 41.3558], [0.0937, 41.35], [0.1064, 41.3509], [0.1183, 41.3628], [0.125, 41.3835], [0.1577, 41.3977], [0.164, 41.4065], [0.1716, 41.4055], [0.1762, 41.3963], [0.183, 41.3944], [0.1996, 41.4033], [0.2194, 41.4036], [0.2409, 41.4284], [0.3092, 41.4188], [0.3353, 41.4082], [0.3443, 41.4178], [0.348, 41.442], [0.3557, 41.4518], [0.345, 41.4623], [0.3424, 41.484], [0.3477, 41.4877], [0.3729, 41.4847], [0.3971, 41.4903], [0.4184, 41.5176], [0.4473, 41.5422], [0.4307, 41.5652], [0.4305, 41.5779], [0.4362, 41.5857], [0.4288, 41.6024], [0.4024, 41.5927], [0.3496, 41.5995], [0.3458, 41.6219], [0.3583, 41.6317], [0.3262, 41.6622], [0.3288, 41.682], [0.342, 41.6965], [0.369, 41.7142], [0.3696, 41.7247], [0.3731, 41.7239], [0.3851, 41.7403], [0.3958, 41.732], [0.399, 41.7578], [0.4686, 41.765], [0.4738, 41.7872], [0.4832, 41.8015], [0.4955, 41.8045], [0.5158, 41.8224], [0.5439, 41.8209], [0.5534, 41.8351], [0.5549, 41.8528], [0.5804, 41.8509], [0.5801, 41.8635], [0.6067, 41.8711], [0.6082, 41.8783], [0.5928, 41.8844], [0.6013, 41.9085], [0.5947, 41.9174], [0.6075, 41.9193], [0.5624, 41.9327], [0.5619, 41.9382], [0.5873, 41.9668], [0.593, 41.9689], [0.6047, 41.9607], [0.6039, 41.9654], [0.6195, 41.9832], [0.6183, 41.9889], [0.6389, 41.9946], [0.6423, 41.9821], [0.647, 41.9967], [0.6571, 42.0009], [0.6642, 42.0145], [0.6573, 42.0148], [0.6521, 42.0246], [0.6571, 42.0404], [0.6715, 42.047], [0.6692, 42.0612], [0.686, 42.0928], [0.6999, 42.107], [0.7028, 42.1199], [0.6972, 42.1286], [0.6962, 42.152], [0.7143, 42.1634], [0.6991, 42.1723], [0.703, 42.19], [0.7076, 42.1918], [0.7083, 42.2043], [0.7179, 42.2195], [0.7152, 42.2248], [0.7344, 42.2497], [0.7452, 42.3012], [0.757, 42.3093], [0.7555, 42.3134], [0.765, 42.3225], [0.744, 42.3263], [0.7407, 42.3369], [0.7547, 42.3466], [0.7717, 42.3506], [0.7645, 42.3568], [0.7465, 42.3568], [0.7236, 42.3656], [0.7465, 42.3848], [0.7385, 42.3996], [0.7263, 42.4052], [0.7349, 42.4079], [0.7362, 42.414], [0.7266, 42.4269], [0.7105, 42.4364], [0.7062, 42.4504], [0.7089, 42.4594], [0.6908, 42.4876], [0.6983, 42.4864], [0.7009, 42.4959], [0.7137, 42.4873], [0.74, 42.5051], [0.7206, 42.5131], [0.7214, 42.5245], [0.7358, 42.5402], [0.7507, 42.5348], [0.7413, 42.544], [0.759, 42.5722], [0.7682, 42.6098], [0.7083, 42.6209], [0.6988, 42.6295], [0.7037, 42.6415], [0.696, 42.6585], [0.6807, 42.666], [0.6601, 42.691], [0.6162, 42.6958], [0.5971, 42.7055], [0.5908, 42.7028], [0.5888, 42.6954], [0.5774, 42.6937], [0.5255, 42.7022], [0.5168, 42.6919], [0.4968, 42.6925], [0.4743, 42.7], [0.4622, 42.6933], [0.4221, 42.6904], [0.4161, 42.6949], [0.3965, 42.6943], [0.393, 42.7132], [0.3745, 42.7144], [0.3601, 42.7242], [0.3449, 42.7111], [0.3252, 42.7062], [0.3209, 42.6832], [0.313, 42.6838], [0.295, 42.6734], [0.2639, 42.6931], [0.2688, 42.7], [0.2598, 42.7162], [0.2267, 42.7174], [0.2059, 42.7296], [0.1761, 42.737], [0.1624, 42.7283], [0.1615, 42.7226], [0.1504, 42.7241], [0.1119, 42.7103], [0.0898, 42.7168], [0.0779, 42.7146], [0.0704, 42.7034], [0.0582, 42.697], [0.013, 42.7021], [0.0116, 42.6916], [0.0007, 42.6852], [-0.0587, 42.6935], [-0.0687, 42.7188], [-0.1064, 42.7209], [-0.1105, 42.7254], [-0.1091, 42.7346], [-0.1177, 42.7385], [-0.123, 42.7515], [-0.1408, 42.7679], [-0.15, 42.769], [-0.1477, 42.7739], [-0.1595, 42.7807], [-0.154, 42.7929], [-0.16, 42.798], [-0.178, 42.7853], [-0.1897, 42.7871], [-0.1984, 42.7955], [-0.214, 42.7957], [-0.2198, 42.8024], [-0.2374, 42.8077], [-0.2429, 42.8232], [-0.2541, 42.8193], [-0.2729, 42.8273], [-0.2767, 42.838], [-0.2981, 42.8387], [-0.3119, 42.8476], [-0.3249, 42.8342], [-0.3465, 42.8373], [-0.3653, 42.8159], [-0.3926, 42.8001], [-0.4165, 42.8065], [-0.445, 42.796], [-0.4527, 42.8036], [-0.4938, 42.817], [-0.5055, 42.8272], [-0.5252, 42.812], [-0.5227, 42.7993], [-0.5263, 42.7952], [-0.5297, 42.7915], [-0.5442, 42.7928], [-0.5511, 42.7777], [-0.5697, 42.7834], [-0.5647, 42.7996], [-0.5692, 42.8069], [-0.6004, 42.8025], [-0.6021, 42.8319], [-0.62, 42.8379], [-0.636, 42.8531], [-0.6562, 42.8588], [-0.6665, 42.8765], [-0.6788, 42.8846], [-0.6984, 42.879], [-0.7279, 42.8925], [-0.733, 42.898], [-0.7341, 42.9124], [-0.7276, 42.9193]]]}}, {"type": "Feature", "properties": {"osm_type": "relation", "osm_id": 217708474, "name": "Teruel", "admin_level": "6", "kind": "subdivision_2", "parent_osm_id": 349045, "parent_name": "Aragon", "parent_iso": "ES-AR"}, "geometry": {"type": "Polygon", "coordinates": [[[0.1707, 40.7328], [0.1592, 40.7506], [0.1754, 40.7411], [0.1752, 40.7549], [0.1841, 40.7556], [0.1901, 40.7503], [0.212, 40.7675], [0.23, 40.7674], [0.2339, 40.787], [0.2581, 40.7996], [0.265, 40.8133], [0.2782, 40.821], [0.26, 40.8391], [0.2508, 40.8563], [0.2554, 40.8745], [0.2389, 40.8847], [0.246, 40.8872], [0.25, 40.896], [0.2535, 40.9063], [0.2485, 40.9097], [0.2542, 40.912], [0.2538, 40.9197], [0.2746, 40.9366], [0.2714, 40.9442], [0.2812, 40.9515], [0.2842, 40.9647], [0.2935, 40.9706], [0.2815, 40.974], [0.2811, 40.9872], [0.2685, 40.9983], [0.2743, 41.0071], [0.2587, 41.0146], [0.262, 41.0193], [0.28, 41.0202], [0.2579, 41.0294], [0.2461, 41.0412], [0.2417, 41.0345], [0.232, 41.0353], [0.2331, 41.0471], [0.2177, 41.0437], [0.2304, 41.0546], [0.2188, 41.0614], [0.2207, 41.0714], [0.1969, 41.068], [0.168, 41.0709], [0.1459, 41.063], [0.1183, 41.0768], [0.0786, 41.0803], [0.0575, 41.0751], [0.0518, 41.0548], [0.0369, 41.0466], [-0.0007, 41.0904], [-0.0122, 41.1202], [-0.0258, 41.1281], [-0.0383, 41.129], [-0.0797, 41.151], [-0.1035, 41.1496], [-0.1224, 41.1566], [-0.181, 41.1881], [-0.2055, 41.192], [-0.2242, 41.1895], [-0.2464, 41.2119], [-0.2705, 41.2162], [-0.3181, 41.2576], [-0.3246, 41.2536], [-0.3231, 41.2456], [-0.3372, 41.2414], [-0.3723, 41.263], [-0.4059, 41.2724], [-0.4288, 41.2941], [-0.4266, 41.3085], [-0.4208, 41.3117], [-0.4702, 41.3182], [-0.4799, 41.3459], [-0.4891, 41.3503], [-0.5101, 41.3541], [-0.5225, 41.3484], [-0.5507, 41.3455], [-0.5589, 41.3543], [-0.5677, 41.3539], [-0.5818, 41.3481], [-0.5818, 41.3214], [-0.5661, 41.3035], [-0.5448, 41.3006], [-0.5271, 41.2882], [-0.5062, 41.2503], [-0.5097, 41.2383], [-0.5316, 41.2278], [-0.5485, 41.2677], [-0.6053, 41.3233], [-0.6297, 41.3118], [-0.6255, 41.2482], [-0.6428, 41.2384], [-0.6692, 41.2368], [-0.6099, 41.1917], [-0.6408, 41.171], [-0.665, 41.146], [-0.6759, 41.1254], [-0.694, 41.1123], [-0.7122, 41.1217], [-0.7277, 41.1439], [-0.7507, 41.1654], [-0.7614, 41.1697], [-0.765, 41.1586], [-0.7809, 41.147], [-0.7795, 41.138], [-0.7849, 41.1363], [-0.7834, 41.1182], [-0.7928, 41.1056], [-0.8285, 41.0964], [-0.8599, 41.108], [-0.8837, 41.1301], [-0.8833, 41.1488], [-0.8915, 41.1451], [-0.8905, 41.1256], [-0.9005, 41.1192], [-0.9017, 41.1119], [-0.9153, 41.1052], [-0.9125, 41.093], [-0.9377, 41.0834], [-0.9449, 41.0753], [-0.9529, 41.0754], [-0.9818, 41.0922], [-0.9986, 41.0952], [-1.0006, 41.1148], [-0.9724, 41.1535], [-1.0009, 41.134], [-1.0263, 41.1382], [-1.0393, 41.1347], [-1.0681, 41.1552], [-1.1057, 41.1676], [-1.1171, 41.1555], [-1.1131, 41.1428], [-1.1216, 41.1349], [-1.174, 41.1237], [-1.177, 41.1281], [-1.1934, 41.1274], [-1.21, 41.1388], [-1.2544, 41.1229], [-1.2714, 41.1033], [-1.2533, 41.0773], [-1.2709, 41.0548], [-1.2815, 41.0559], [-1.2874, 41.0489], [-1.2991, 41.0524], [-1.3191, 41.0498], [-1.3248, 41.0551], [-1.3344, 41.0514], [-1.342, 41.0587], [-1.3542, 41.0575], [-1.3553, 41.0697], [-1.3601, 41.0716], [-1.3579, 41.0802], [-1.3524, 41.0817], [-1.3558, 41.0885], [-1.3781, 41.0731], [-1.4052, 41.0663], [-1.41, 41.0579], [-1.4048, 41.0506], [-1.4168, 41.0438], [-1.4111, 41.0351], [-1.4175, 41.0298], [-1.4764, 41.0149], [-1.4593, 41.0068], [-1.4466, 40.9846], [-1.4469, 40.9765], [-1.4714, 40.958], [-1.473, 40.9488], [-1.5053, 40.9641], [-1.5152, 40.9546], [-1.5616, 40.9386], [-1.5836, 40.9418], [-1.5899, 40.9362], [-1.6174, 40.9437], [-1.6079, 40.9276], [-1.6118, 40.9143], [-1.626, 40.8987], [-1.6214, 40.8804], [-1.5888, 40.845], [-1.5705, 40.8301], [-1.5593, 40.8308], [-1.5423, 40.8112], [-1.5399, 40.7607], [-1.562, 40.7398], [-1.5533, 40.7059], [-1.5356, 40.687], [-1.5403, 40.6813], [-1.539, 40.6581], [-1.552, 40.6431], [-1.5649, 40.6147], [-1.5455, 40.5952], [-1.5987, 40.5621], [-1.6342, 40.5798], [-1.6665, 40.582], [-1.6743, 40.5922], [-1.6781, 40.591], [-1.6858, 40.5799], [-1.6933, 40.5776], [-1.6896, 40.5665], [-1.7016, 40.5411], [-1.6925, 40.4868], [-1.7346, 40.4722], [-1.7486, 40.4629], [-1.777, 40.4298], [-1.7854, 40.4132], [-1.7934, 40.4179], [-1.8006, 40.4142], [-1.8064, 40.3982], [-1.7778, 40.3919], [-1.7416, 40.3497], [-1.7204, 40.3409], [-1.6977, 40.3213], [-1.6972, 40.3166], [-1.7068, 40.3136], [-1.7202, 40.3185], [-1.7295, 40.3029], [-1.7269, 40.2882], [-1.7193, 40.2771], [-1.71, 40.2807], [-1.7106, 40.2921], [-1.7015, 40.3059], [-1.6903, 40.3097], [-1.6656, 40.2945], [-1.659, 40.282], [-1.6178, 40.2486], [-1.5926, 40.2363], [-1.5715, 40.2137], [-1.5405, 40.1908], [-1.5226, 40.2019], [-1.5109, 40.2037], [-1.4744, 40.185], [-1.4392, 40.197], [-1.4424, 40.1576], [-1.4489, 40.1453], [-1.3936, 40.1344], [-1.3777, 40.1402], [-1.3637, 40.1386], [-1.3623, 40.1301], [-1.3546, 40.1295], [-1.3166, 40.1497], [-1.323, 40.1849], [-1.315, 40.2014], [-1.2978, 40.2115], [-1.2843, 40.1715], [-1.2524, 40.1433], [-1.2443, 40.146], [-1.2488, 40.1356], [-1.2459, 40.1281], [-1.2506, 40.1239], [-1.2446, 40.1158], [-1.2217, 40.1157], [-1.2073, 40.1101], [-1.148, 40.1145], [-1.1334, 40.0974], [-1.1119, 40.0928], [-1.0721, 40.0605], [-1.0718, 40.0511], [-1.0842, 40.0362], [-1.1341, 40.0158], [-1.1463, 40.0167], [-1.1652, 40.0101], [-1.1633, 39.9998], [-1.1474, 39.9886], [-1.1424, 39.9718], [-1.131, 39.9707], [-1.1284, 39.9629], [-1.1217, 39.9609], [-1.1235, 39.9663], [-1.1147, 39.9728], [-1.1074, 39.9701], [-1.105, 39.975], [-1.0921, 39.9678], [-1.0846, 39.9719], [-1.0859, 39.9763], [-1.0728, 39.9795], [-1.0257, 39.9746], [-0.9894, 39.9818], [-0.9492, 39.9673], [-0.9319, 39.9561], [-0.9205, 39.9644], [-0.9027, 39.9318], [-0.9138, 39.918], [-0.9096, 39.8986], [-0.9002, 39.8918], [-0.9081, 39.886], [-0.9128, 39.8731], [-0.8886, 39.8521], [-0.8636, 39.8474], [-0.8287, 39.8711], [-0.7977, 39.8811], [-0.805, 39.8924], [-0.83, 39.9068], [-0.8404, 39.9249], [-0.8369, 39.9341], [-0.8463, 39.9477], [-0.8357, 39.96], [-0.8415, 39.969], [-0.8378, 39.9768], [-0.8032, 39.9906], [-0.7896, 39.9899], [-0.7776, 39.9984], [-0.7673, 40.01], [-0.7623, 40.0413], [-0.7536, 40.0466], [-0.7476, 40.0379], [-0.7308, 40.0424], [-0.7189, 40.0387], [-0.7029, 40.0466], [-0.6829, 40.0442], [-0.6641, 40.0514], [-0.6459, 40.0677], [-0.6359, 40.0675], [-0.6357, 40.0722], [-0.6316, 40.0704], [-0.6272, 40.0762], [-0.623, 40.0694], [-0.6136, 40.07], [-0.6285, 40.1026], [-0.6074, 40.128], [-0.5866, 40.1314], [-0.5786, 40.1373], [-0.5796, 40.1473], [-0.5693, 40.1592], [-0.5722, 40.1815], [-0.5579, 40.2008], [-0.5591, 40.2101], [-0.5442, 40.2517], [-0.5259, 40.2373], [-0.4945, 40.2287], [-0.47, 40.2401], [-0.4638, 40.2339], [-0.4281, 40.2438], [-0.3836, 40.2648], [-0.3829, 40.2785], [-0.4004, 40.2949], [-0.39, 40.2999], [-0.3886, 40.3069], [-0.3792, 40.3101], [-0.3765, 40.305], [-0.3729, 40.3087], [-0.3728, 40.304], [-0.3663, 40.3051], [-0.369, 40.3118], [-0.3632, 40.3166], [-0.353, 40.3134], [-0.3498, 40.328], [-0.3432, 40.3254], [-0.3406, 40.34], [-0.3324, 40.3415], [-0.3052, 40.3625], [-0.2985, 40.3615], [-0.2892, 40.3681], [-0.2818, 40.3657], [-0.2802, 40.3748], [-0.2854, 40.3865], [-0.3015, 40.3977], [-0.3147, 40.4158], [-0.3328, 40.4255], [-0.3474, 40.4439], [-0.3427, 40.4435], [-0.3326, 40.459], [-0.2934, 40.4659], [-0.2954, 40.4704], [-0.2858, 40.4701], [-0.2779, 40.4757], [-0.2726, 40.4738], [-0.2714, 40.4785], [-0.2797, 40.4834], [-0.2748, 40.4939], [-0.2776, 40.5015], [-0.2876, 40.5096], [-0.2977, 40.5058], [-0.3018, 40.5154], [-0.2901, 40.544], [-0.2999, 40.5773], [-0.2943, 40.584], [-0.2933, 40.611], [-0.3116, 40.6115], [-0.3224, 40.6028], [-0.3433, 40.6065], [-0.344, 40.6112], [-0.3603, 40.6155], [-0.3705, 40.6136], [-0.3797, 40.6235], [-0.3708, 40.6508], [-0.3815, 40.6616], [-0.378, 40.6675], [-0.3562, 40.6777], [-0.3288, 40.6803], [-0.3221, 40.6777], [-0.3169, 40.6636], [-0.307, 40.6595], [-0.2936, 40.674], [-0.2889, 40.6723], [-0.2504, 40.6908], [-0.236, 40.6911], [-0.2336, 40.7086], [-0.2391, 40.7193], [-0.2313, 40.7291], [-0.224, 40.7542], [-0.2128, 40.7583], [-0.2017, 40.7795], [-0.1941, 40.7822], [-0.1972, 40.7845], [-0.165, 40.7886], [-0.1445, 40.7854], [-0.1472, 40.7751], [-0.1438, 40.7687], [-0.1268, 40.7533], [-0.0647, 40.7274], [-0.0314, 40.7224], [-0.0177, 40.7312], [0.0157, 40.7284], [0.0187, 40.7196], [0.0284, 40.7132], [0.0245, 40.7073], [0.0264, 40.695], [0.0422, 40.691], [0.0727, 40.7143], [0.1125, 40.7271], [0.1238, 40.7208], [0.1439, 40.7183], [0.1638, 40.7236], [0.1707, 40.7328]]]}}, {"type": "Feature", "properties": {"osm_type": "relation", "osm_id": 765411935, "name": "Zaragoza", "admin_level": "6", "kind": "subdivision_2", "parent_osm_id": 349045, "parent_name": "Aragon", "parent_iso": "ES-AR"}, "geometry": {"type": "Polygon", "coordinates": [[[-1.959, 41.1725], [-1.9483, 41.1668], [-1.9324, 41.1386], [-1.8906, 41.1333], [-1.8693, 41.1079], [-1.8033, 41.0899], [-1.7947, 41.0788], [-1.7578, 41.0551], [-1.7594, 41.0482], [-1.7486, 41.0413], [-1.7471, 41.0339], [-1.661, 40.9783], [-1.6571, 40.9694], [-1.6321, 40.9506], [-1.5896, 40.9362], [-1.5836, 40.9418], [-1.5616, 40.9386], [-1.5152, 40.9546], [-1.5053, 40.9641], [-1.473, 40.9488], [-1.4714, 40.958], [-1.4469, 40.9765], [-1.4466, 40.9846], [-1.4593, 41.0068], [-1.4764, 41.0149], [-1.4175, 41.0298], [-1.4111, 41.0351], [-1.4168, 41.0438], [-1.4048, 41.0506], [-1.41, 41.0579], [-1.4052, 41.0663], [-1.3781, 41.0731], [-1.3558, 41.0885], [-1.3524, 41.0817], [-1.3579, 41.0802], [-1.3601, 41.0716], [-1.3553, 41.0697], [-1.3542, 41.0575], [-1.342, 41.0587], [-1.3344, 41.0514], [-1.3248, 41.0551], [-1.3191, 41.0498], [-1.2991, 41.0524], [-1.2874, 41.0489], [-1.2815, 41.0559], [-1.2709, 41.0548], [-1.2533, 41.0773], [-1.2714, 41.1033], [-1.2544, 41.1229], [-1.21, 41.1388], [-1.1934, 41.1274], [-1.177, 41.1281], [-1.174, 41.1237], [-1.1216, 41.1349], [-1.1131, 41.1428], [-1.1171, 41.1555], [-1.1057, 41.1676], [-1.0681, 41.1552], [-1.0393, 41.1347], [-1.0263, 41.1382], [-1.0009, 41.134], [-0.9724, 41.1535], [-1.0006, 41.1148], [-0.9986, 41.0952], [-0.9818, 41.0922], [-0.9529, 41.0754], [-0.9449, 41.0753], [-0.9377, 41.0834], [-0.9125, 41.093], [-0.9153, 41.1052], [-0.9017, 41.1119], [-0.9005, 41.1192], [-0.8905, 41.1256], [-0.8915, 41.1451], [-0.8833, 41.1488], [-0.8837, 41.1301], [-0.8599, 41.108], [-0.8285, 41.0964], [-0.7928, 41.1056], [-0.7834, 41.1182], [-0.7849, 41.1363], [-0.7795, 41.138], [-0.7809, 41.147], [-0.765, 41.1586], [-0.7614, 41.1697], [-0.7507, 41.1654], [-0.7277, 41.1439], [-0.7122, 41.1217], [-0.6907, 41.1136], [-0.6759, 41.1254], [-0.665, 41.146], [-0.6408, 41.171], [-0.6099, 41.1917], [-0.6692, 41.2368], [-0.6428, 41.2384], [-0.6255, 41.2482], [-0.6297, 41.3118], [-0.6053, 41.3233], [-0.5485, 41.2677], [-0.5316, 41.2278], [-0.5097, 41.2383], [-0.5062, 41.2503], [-0.5271, 41.2882], [-0.5448, 41.3006], [-0.5661, 41.3035], [-0.5818, 41.3214], [-0.5818, 41.3481], [-0.5677, 41.3539], [-0.5589, 41.3543], [-0.5507, 41.3455], [-0.5225, 41.3484], [-0.5101, 41.3541], [-0.4891, 41.3503], [-0.4799, 41.3459], [-0.4702, 41.3182], [-0.4208, 41.3117], [-0.4266, 41.3085], [-0.4288, 41.2941], [-0.4059, 41.2724], [-0.3723, 41.263], [-0.3372, 41.2414], [-0.3231, 41.2456], [-0.3246, 41.2536], [-0.3181, 41.2576], [-0.2705, 41.2162], [-0.2464, 41.2119], [-0.2242, 41.1895], [-0.2055, 41.192], [-0.181, 41.1881], [-0.1224, 41.1566], [-0.1035, 41.1496], [-0.0797, 41.151], [-0.0383, 41.129], [-0.0258, 41.1281], [-0.0122, 41.1202], [-0.0007, 41.0904], [0.0369, 41.0466], [0.0518, 41.0548], [0.0575, 41.0751], [0.0786, 41.0803], [0.1183, 41.0768], [0.1459, 41.063], [0.168, 41.0709], [0.1969, 41.068], [0.2207, 41.0714], [0.2171, 41.0767], [0.2204, 41.0829], [0.2016, 41.0847], [0.2013, 41.1027], [0.2093, 41.1169], [0.2016, 41.1268], [0.2202, 41.1324], [0.2143, 41.1373], [0.2482, 41.1301], [0.2562, 41.1437], [0.253, 41.1502], [0.2734, 41.1488], [0.3037, 41.1644], [0.3009, 41.1669], [0.3063, 41.1857], [0.3224, 41.2252], [0.3316, 41.2227], [0.3407, 41.2311], [0.3612, 41.2255], [0.365, 41.2387], [0.3817, 41.2364], [0.3741, 41.2493], [0.386, 41.2788], [0.3656, 41.304], [0.3705, 41.3115], [0.3687, 41.3186], [0.3488, 41.3289], [0.3743, 41.3515], [0.3603, 41.3705], [0.3203, 41.3949], [0.3349, 41.4087], [0.3092, 41.4188], [0.2409, 41.4284], [0.2194, 41.4036], [0.1996, 41.4033], [0.183, 41.3944], [0.1762, 41.3963], [0.1716, 41.4055], [0.164, 41.4065], [0.1577, 41.3977], [0.125, 41.3835], [0.1183, 41.3628], [0.1064, 41.3509], [0.01, 41.3604], [-0.0026, 41.3879], [-0.023, 41.397], [-0.0293, 41.3778], [-0.0079, 41.3478], [-0.0494, 41.3605], [-0.0511, 41.3664], [-0.0727, 41.3772], [-0.0741, 41.3938], [-0.084, 41.4153], [-0.0845, 41.4314], [-0.105, 41.4855], [-0.1337, 41.5213], [-0.1567, 41.5353], [-0.1575, 41.5684], [-0.1674, 41.5811], [-0.1564, 41.59], [-0.2057, 41.6023], [-0.2278, 41.5865], [-0.2368, 41.5739], [-0.2448, 41.5731], [-0.2632, 41.5885], [-0.3023, 41.6079], [-0.3126, 41.6241], [-0.3272, 41.6243], [-0.3595, 41.6352], [-0.3663, 41.6799], [-0.3745, 41.6881], [-0.3848, 41.6876], [-0.4104, 41.7014], [-0.4285, 41.7055], [-0.4449, 41.7037], [-0.4644, 41.7151], [-0.4669, 41.7217], [-0.4822, 41.7243], [-0.4894, 41.7317], [-0.5187, 41.7288], [-0.504, 41.7462], [-0.5007, 41.7613], [-0.512, 41.7839], [-0.5088, 41.7915], [-0.5112, 41.8085], [-0.5165, 41.8136], [-0.5167, 41.8368], [-0.529, 41.8535], [-0.5428, 41.8579], [-0.5552, 41.8713], [-0.6033, 41.8828], [-0.5955, 41.8996], [-0.6306, 41.9129], [-0.6578, 41.9575], [-0.7244, 41.9608], [-0.737, 41.9533], [-0.7782, 41.9574], [-0.8438, 41.984], [-0.8671, 41.9999], [-0.8849, 42.0036], [-0.8507, 42.0262], [-0.8489, 42.042], [-0.857, 42.051], [-0.8442, 42.0593], [-0.8282, 42.0826], [-0.8129, 42.0925], [-0.8048, 42.0964], [-0.8048, 42.0739], [-0.7935, 42.0544], [-0.7797, 42.0547], [-0.7631, 42.0675], [-0.7661, 42.0735], [-0.7608, 42.0795], [-0.7702, 42.0872], [-0.7549, 42.0906], [-0.7627, 42.1004], [-0.7543, 42.1081], [-0.7581, 42.1146], [-0.7532, 42.1238], [-0.7609, 42.1299], [-0.7521, 42.132], [-0.7587, 42.147], [-0.7474, 42.1559], [-0.7598, 42.1702], [-0.7516, 42.1729], [-0.7599, 42.1787], [-0.7537, 42.1831], [-0.7505, 42.1994], [-0.7589, 42.2047], [-0.7615, 42.2145], [-0.7594, 42.2636], [-0.752, 42.2636], [-0.7485, 42.2775], [-0.7289, 42.2963], [-0.7388, 42.3192], [-0.7399, 42.3347], [-0.7446, 42.3387], [-0.7351, 42.3533], [-0.7448, 42.3617], [-0.7364, 42.3699], [-0.7779, 42.3913], [-0.781, 42.3767], [-0.7719, 42.3627], [-0.7718, 42.3467], [-0.7811, 42.3174], [-0.8065, 42.2705], [-0.8131, 42.2645], [-0.8439, 42.2828], [-0.8579, 42.2747], [-0.877, 42.2816], [-0.8912, 42.263], [-0.8871, 42.2557], [-0.8909, 42.2487], [-0.8865, 42.2446], [-0.8905, 42.24], [-0.8979, 42.2442], [-0.8976, 42.2487], [-0.9189, 42.2573], [-0.889, 42.2867], [-0.8921, 42.2969], [-0.8796, 42.3189], [-0.8557, 42.3399], [-0.85, 42.3591], [-0.8428, 42.3663], [-0.8442, 42.3846], [-0.8217, 42.3846], [-0.8153, 42.3952], [-0.8354, 42.3955], [-0.8421, 42.4074], [-0.8785, 42.4185], [-0.9044, 42.4348], [-0.8963, 42.4438], [-0.9064, 42.4498], [-0.9038, 42.4532], [-0.8963, 42.4604], [-0.8819, 42.4571], [-0.8777, 42.4616], [-0.8796, 42.4697], [-0.897, 42.4791], [-0.8903, 42.4904], [-0.893, 42.5099], [-0.8999, 42.512], [-0.9133, 42.5038], [-0.9334, 42.5059], [-0.9278, 42.5228], [-0.9164, 42.5373], [-0.8983, 42.539], [-0.895, 42.5491], [-0.8993, 42.56], [-0.9186, 42.5553], [-0.9216, 42.5712], [-0.9342, 42.5726], [-0.9248, 42.588], [-0.9087, 42.5871], [-0.9047, 42.599], [-0.9147, 42.6023], [-0.9047, 42.6129], [-0.9113, 42.6335], [-0.9276, 42.6562], [-0.9021, 42.6569], [-0.8931, 42.6623], [-0.88, 42.6881], [-0.8801, 42.694], [-0.9015, 42.7019], [-0.9225, 42.7008], [-0.9044, 42.7122], [-0.9068, 42.7266], [-0.8969, 42.7357], [-0.9011, 42.7427], [-0.9239, 42.7441], [-0.9248, 42.7389], [-0.9359, 42.7343], [-0.9485, 42.7114], [-0.9605, 42.7112], [-0.9692, 42.7037], [-1.0276, 42.7004], [-1.029, 42.6949], [-1.0392, 42.6916], [-1.0332, 42.6746], [-1.0396, 42.6642], [-1.0358, 42.6516], [-1.0515, 42.6413], [-1.155, 42.6471], [-1.1567, 42.6109], [-1.1719, 42.6171], [-1.1788, 42.6151], [-1.1801, 42.6093], [-1.1577, 42.5988], [-1.1708, 42.5969], [-1.2014, 42.5783], [-1.2027, 42.5493], [-1.2189, 42.5486], [-1.231, 42.5419], [-1.2647, 42.5565], [-1.2887, 42.5224], [-1.2945, 42.5109], [-1.2874, 42.5081], [-1.2867, 42.4985], [-1.2752, 42.496], [-1.2728, 42.4819], [-1.2815, 42.4643], [-1.3166, 42.4487], [-1.3417, 42.424], [-1.3433, 42.4079], [-1.3596, 42.3781], [-1.35, 42.37], [-1.3356, 42.3721], [-1.3288, 42.3552], [-1.3566, 42.3355], [-1.3984, 42.2921], [-1.3892, 42.2767], [-1.3956, 42.2691], [-1.4006, 42.2433], [-1.4175, 42.2151], [-1.4133, 42.2022], [-1.3955, 42.1905], [-1.3918, 42.1807], [-1.3985, 42.1568], [-1.3931, 42.1494], [-1.3992, 42.1258], [-1.3673, 42.1068], [-1.3657, 42.0928], [-1.3532, 42.073], [-1.3109, 42.0724], [-1.3121, 42.0634], [-1.3033, 42.0515], [-1.3083, 42.0463], [-1.3057, 42.0427], [-1.3394, 42.0173], [-1.3536, 42.0001], [-1.3744, 41.9618], [-1.3859, 41.9571], [-1.38, 41.9502], [-1.3824, 41.9428], [-1.4037, 41.9352], [-1.4114, 41.918], [-1.4231, 41.9116], [-1.4535, 41.9155], [-1.4746, 41.9246], [-1.4963, 41.9243], [-1.5017, 41.9239], [-1.506, 41.9154], [-1.5239, 41.9096], [-1.5565, 41.9134], [-1.5975, 41.9279], [-1.6132, 41.95], [-1.6541, 41.9654], [-1.6639, 41.9599], [-1.6761, 41.9668], [-1.6867, 41.9522], [-1.7009, 41.9536], [-1.734, 41.9636], [-1.7672, 41.9954], [-1.7917, 41.9896], [-1.8097, 41.9983], [-1.834, 41.9956], [-1.8466, 42.0078], [-1.8513, 41.9981], [-1.844, 41.9873], [-1.8652, 41.9776], [-1.8548, 41.9592], [-1.8573, 41.9095], [-1.8388, 41.889], [-1.8404, 41.8761], [-1.8351, 41.8665], [-1.8226, 41.8654], [-1.8176, 41.8534], [-1.8186, 41.83], [-1.8245, 41.8198], [-1.8437, 41.806], [-1.8529, 41.7896], [-1.8253, 41.7784], [-1.8211, 41.7661], [-1.8059, 41.7551], [-1.8026, 41.7502], [-1.8092, 41.7367], [-1.7878, 41.7341], [-1.7754, 41.7248], [-1.785, 41.717], [-1.7869, 41.6994], [-1.8003, 41.6971], [-1.8121, 41.6865], [-1.8062, 41.6643], [-1.8131, 41.6606], [-1.859, 41.6615], [-1.874, 41.638], [-1.8788, 41.641], [-1.8979, 41.6324], [-1.9131, 41.6171], [-1.9231, 41.5983], [-1.9845, 41.6071], [-1.9932, 41.6005], [-1.9937, 41.5771], [-1.9713, 41.5556], [-1.9673, 41.5461], [-1.9784, 41.5259], [-1.975, 41.5161], [-1.9811, 41.4864], [-1.9666, 41.4789], [-1.9533, 41.4625], [-1.9487, 41.4296], [-1.9537, 41.4243], [-1.9365, 41.4199], [-1.9399, 41.417], [-1.9373, 41.4079], [-1.9819, 41.4023], [-2.0097, 41.3858], [-2.0293, 41.3842], [-2.0419, 41.3886], [-2.0436, 41.3971], [-2.0348, 41.4044], [-2.0356, 41.4269], [-2.0471, 41.4343], [-2.1015, 41.4458], [-2.1168, 41.4249], [-2.1207, 41.39], [-2.116, 41.382], [-2.1258, 41.3696], [-2.1492, 41.3561], [-2.1631, 41.3554], [-2.1571, 41.334], [-2.1705, 41.3188], [-2.1672, 41.3116], [-2.1737, 41.2881], [-2.1635, 41.2832], [-2.1564, 41.2586], [-2.1462, 41.1844], [-2.0799, 41.171], [-2.0773, 41.1631], [-2.0517, 41.1468], [-2.0476, 41.1527], [-1.992, 41.16], [-1.959, 41.1725]], [[-1.0544, 42.4488], [-1.051, 42.4415], [-1.0577, 42.4339], [-1.1294, 42.4467], [-1.1029, 42.4843], [-1.0974, 42.486], [-1.0851, 42.4834], [-1.0875, 42.4747], [-1.0696, 42.4665], [-1.0658, 42.4538], [-1.0544, 42.4488]], [[-1.1447, 42.4374], [-1.153, 42.4282], [-1.1584, 42.41], [-1.1878, 42.403], [-1.1804, 42.4175], [-1.1828, 42.4246], [-1.163, 42.4323], [-1.154, 42.4415], [-1.145, 42.4419], [-1.1447, 42.4374]]]}}]}