{"type": "FeatureCollection", "parent": {"osm_id": 3498733, "name": "Eastern Region", "admin_level": "4", "kind": "subdivision_1", "child_kind": "subdivision_2", "iso": "GH-EP"}, "features": [{"type": "Feature", "properties": {"osm_type": "relation", "osm_id": 679425466, "name": "Asante Akim South", "admin_level": "6", "kind": "subdivision_2", "parent_osm_id": 3498733, "parent_name": "Eastern Region", "parent_iso": "GH-EP"}, "geometry": {"type": "Polygon", "coordinates": [[[-0.9725, 6.6456], [-1.0204, 6.6438], [-1.014, 6.6685], [-0.9965, 6.6958], [-1.0272, 6.7242], [-1.0374, 6.7251], [-1.0536, 6.7087], [-1.0564, 6.7204], [-1.063, 6.7181], [-1.0795, 6.7235], [-1.0907, 6.7154], [-1.1018, 6.7189], [-1.1233, 6.6729], [-1.1332, 6.6687], [-1.1331, 6.6532], [-1.144, 6.6456], [-1.1624, 6.6421], [-1.1753, 6.6312], [-1.1649, 6.6249], [-1.1695, 6.6156], [-1.1611, 6.6123], [-1.1824, 6.6019], [-1.1649, 6.5889], [-1.2042, 6.5855], [-1.2194, 6.5706], [-1.2227, 6.5474], [-1.217, 6.5363], [-1.227, 6.5239], [-1.2217, 6.5089], [-1.2018, 6.49], [-1.2355, 6.4461], [-1.2351, 6.4414], [-1.2753, 6.4327], [-1.2802, 6.4275], [-1.2819, 6.4179], [-1.2873, 6.4167], [-1.2966, 6.4002], [-1.2921, 6.3765], [-1.2977, 6.3727], [-1.2852, 6.3572], [-1.28, 6.357], [-1.2796, 6.3361], [-1.2699, 6.3363], [-1.2591, 6.3054], [-1.2422, 6.293], [-1.24, 6.2805], [-1.2297, 6.2844], [-1.2304, 6.2642], [-1.2246, 6.2622], [-1.2124, 6.2381], [-1.2137, 6.2278], [-1.2076, 6.2282], [-1.2014, 6.2218], [-1.2022, 6.2042], [-1.1978, 6.1996], [-1.1827, 6.2055], [-1.1797, 6.2008], [-1.1689, 6.2022], [-1.1642, 6.2064], [-1.1611, 6.2008], [-1.1552, 6.2044], [-1.1538, 6.1985], [-1.1507, 6.2016], [-1.1364, 6.198], [-1.1205, 6.209], [-1.1205, 6.2281], [-1.1256, 6.2331], [-1.1213, 6.2383], [-1.1254, 6.2439], [-1.1163, 6.2687], [-1.128, 6.2712], [-1.1315, 6.2803], [-1.1269, 6.2862], [-1.1386, 6.2963], [-1.1278, 6.302], [-1.1312, 6.316], [-1.1122, 6.3206], [-1.1199, 6.3259], [-1.1105, 6.3433], [-1.1143, 6.3528], [-1.1051, 6.3577], [-1.1028, 6.3644], [-1.0683, 6.3833], [-1.067, 6.3902], [-1.0418, 6.4005], [-1.0356, 6.413], [-1.0236, 6.4083], [-1.0103, 6.415], [-1.0164, 6.4205], [-1.0129, 6.426], [-1.018, 6.4361], [-1.0057, 6.4428], [-1.0087, 6.4487], [-1.005, 6.453], [-1.0123, 6.4683], [-1.0059, 6.4717], [-1.0006, 6.5001], [-0.9932, 6.504], [-0.9892, 6.5162], [-0.9814, 6.5209], [-0.9774, 6.5186], [-0.9726, 6.535], [-0.9681, 6.536], [-0.9565, 6.5594], [-0.9504, 6.5655], [-0.944, 6.5644], [-0.9265, 6.5879], [-0.9137, 6.5927], [-0.9115, 6.5989], [-0.9156, 6.6008], [-0.9101, 6.6104], [-0.9187, 6.6223], [-0.9236, 6.6409], [-0.935, 6.6362], [-0.9381, 6.6411], [-0.9455, 6.6391], [-0.9451, 6.627], [-0.9718, 6.612], [-0.9775, 6.6215], [-0.9775, 6.6385], [-0.9725, 6.6456]]]}}, {"type": "Feature", "properties": {"osm_type": "relation", "osm_id": 327276425, "name": "Kwahu South", "admin_level": "6", "kind": "subdivision_2", "parent_osm_id": 3498733, "parent_name": "Eastern Region", "parent_iso": "GH-EP"}, "geometry": {"type": "Polygon", "coordinates": [[[-0.3345, 6.6674], [-0.364, 6.668], [-0.4098, 6.7013], [-0.4658, 6.7203], [-0.5173, 6.7313], [-0.5589, 6.7632], [-0.6142, 6.7599], [-0.6437, 6.7324], [-0.6703, 6.7387], [-0.6705, 6.7277], [-0.6838, 6.7012], [-0.6937, 6.6927], [-0.703, 6.6639], [-0.7398, 6.6116], [-0.7566, 6.6196], [-0.7613, 6.6338], [-0.7773, 6.6174], [-0.7946, 6.616], [-0.8001, 6.6243], [-0.8204, 6.6182], [-0.8226, 6.6137], [-0.8141, 6.6074], [-0.8022, 6.5835], [-0.7825, 6.5841], [-0.7698, 6.5666], [-0.7458, 6.557], [-0.7282, 6.5699], [-0.6639, 6.5601], [-0.6489, 6.5426], [-0.6406, 6.5149], [-0.6238, 6.5106], [-0.6014, 6.5135], [-0.593, 6.506], [-0.5926, 6.4906], [-0.544, 6.512], [-0.4684, 6.5193], [-0.4622, 6.5242], [-0.4625, 6.5367], [-0.4736, 6.5436], [-0.4805, 6.5571], [-0.4725, 6.56], [-0.4736, 6.5634], [-0.485, 6.5659], [-0.4831, 6.5731], [-0.4888, 6.5806], [-0.494, 6.5799], [-0.4979, 6.5897], [-0.4927, 6.5941], [-0.5005, 6.5968], [-0.4981, 6.6055], [-0.4883, 6.6042], [-0.4742, 6.6187], [-0.471, 6.616], [-0.4677, 6.6217], [-0.4583, 6.6233], [-0.4567, 6.6316], [-0.4478, 6.6376], [-0.4229, 6.6414], [-0.4143, 6.6247], [-0.393, 6.618], [-0.3899, 6.6127], [-0.3667, 6.611], [-0.3342, 6.5985], [-0.3345, 6.6674]]]}}, {"type": "Feature", "properties": {"osm_type": "relation", "osm_id": 696975286, "name": "Asene Akroso Manso", "admin_level": "6", "kind": "subdivision_2", "parent_osm_id": 3498733, "parent_name": "Eastern Region", "parent_iso": "GH-EP"}, "geometry": {"type": "Polygon", "coordinates": [[[-0.814, 5.7302], [-0.7893, 5.7263], [-0.7838, 5.7062], [-0.7786, 5.7137], [-0.7649, 5.7088], [-0.7319, 5.7145], [-0.712, 5.7115], [-0.6952, 5.7153], [-0.6968, 5.7262], [-0.6927, 5.7303], [-0.7023, 5.7328], [-0.7011, 5.7441], [-0.6946, 5.7455], [-0.7204, 5.7821], [-0.7255, 5.8188], [-0.7396, 5.8227], [-0.754, 5.8381], [-0.7592, 5.8377], [-0.7567, 5.8417], [-0.7621, 5.8553], [-0.7565, 5.8625], [-0.7636, 5.8722], [-0.7618, 5.8813], [-0.7662, 5.8926], [-0.7818, 5.9129], [-0.7942, 5.9172], [-0.809, 5.9423], [-0.8205, 5.9506], [-0.8329, 5.979], [-0.8698, 5.9937], [-0.878, 6.0027], [-0.8915, 5.9992], [-0.8905, 5.992], [-0.9068, 5.9971], [-0.9177, 5.9832], [-0.919, 5.9655], [-0.9285, 5.9591], [-0.9396, 5.9645], [-0.9411, 5.96], [-0.9497, 5.9583], [-0.9495, 5.9528], [-0.9403, 5.9481], [-0.9484, 5.9336], [-0.9482, 5.9142], [-0.9386, 5.9144], [-0.9275, 5.9234], [-0.9178, 5.9057], [-0.8784, 5.8951], [-0.8732, 5.8876], [-0.8739, 5.8713], [-0.8549, 5.8546], [-0.8504, 5.8432], [-0.862, 5.8059], [-0.8676, 5.8067], [-0.8702, 5.7938], [-0.8808, 5.781], [-0.8733, 5.7748], [-0.8802, 5.7586], [-0.844, 5.7564], [-0.83, 5.7458], [-0.8123, 5.7444], [-0.814, 5.7302]]]}}, {"type": "Feature", "properties": {"osm_type": "relation", "osm_id": 227859647, "name": "Upper Manya", "admin_level": "6", "kind": "subdivision_2", "parent_osm_id": 3498733, "parent_name": "Eastern Region", "parent_iso": "GH-EP"}, "geometry": {"type": "Polygon", "coordinates": [[[-0.0958, 6.5426], [-0.1229, 6.5437], [-0.1777, 6.5577], [-0.1876, 6.5362], [-0.1984, 6.5308], [-0.2078, 6.5154], [-0.2082, 6.5094], [-0.1938, 6.4944], [-0.1968, 6.4847], [-0.2087, 6.4682], [-0.2351, 6.4532], [-0.2344, 6.4411], [-0.2425, 6.4411], [-0.246, 6.4171], [-0.2611, 6.4107], [-0.2687, 6.3989], [-0.2683, 6.389], [-0.2822, 6.3723], [-0.294, 6.3673], [-0.3095, 6.3418], [-0.307, 6.3256], [-0.2884, 6.3131], [-0.2969, 6.2975], [-0.292, 6.2965], [-0.2863, 6.2849], [-0.2668, 6.2849], [-0.2571, 6.3022], [-0.2469, 6.3047], [-0.2545, 6.2912], [-0.2303, 6.2777], [-0.2351, 6.2612], [-0.2191, 6.2583], [-0.1827, 6.282], [-0.1804, 6.2686], [-0.1911, 6.2491], [-0.1797, 6.2376], [-0.1876, 6.2321], [-0.188, 6.2142], [-0.1829, 6.2097], [-0.1733, 6.219], [-0.1646, 6.2168], [-0.1615, 6.2221], [-0.1467, 6.2273], [-0.1344, 6.2245], [-0.1289, 6.2404], [-0.1144, 6.2535], [-0.1029, 6.2218], [-0.0958, 6.2232], [-0.0751, 6.2436], [-0.0586, 6.2528], [-0.0428, 6.2785], [-0.0291, 6.3187], [-0.0171, 6.3321], [-0.0043, 6.4017], [0.0022, 6.5361], [-0.0187, 6.5392], [-0.0611, 6.5334], [-0.0958, 6.5426]]]}}, {"type": "Feature", "properties": {"osm_type": "relation", "osm_id": 101066658, "name": "Okere", "admin_level": "6", "kind": "subdivision_2", "parent_osm_id": 3498733, "parent_name": "Eastern Region", "parent_iso": "GH-EP"}, "geometry": {"type": "Polygon", "coordinates": [[[-0.0096, 6.0104], [-0.0155, 6.0144], [-0.0264, 6.0415], [-0.0288, 6.0576], [-0.024, 6.0615], [-0.028, 6.0761], [-0.0442, 6.0757], [-0.059, 6.0954], [-0.0725, 6.0979], [-0.0754, 6.1063], [-0.06, 6.1309], [-0.066, 6.1371], [-0.083, 6.1332], [-0.0855, 6.1282], [-0.0939, 6.1358], [-0.1039, 6.128], [-0.1234, 6.135], [-0.1278, 6.1296], [-0.1467, 6.1275], [-0.1559, 6.1208], [-0.2006, 6.1248], [-0.2232, 6.0734], [-0.2266, 6.0711], [-0.2317, 6.0759], [-0.2377, 6.0661], [-0.2327, 6.0618], [-0.2368, 6.0565], [-0.2277, 6.0471], [-0.2292, 6.0383], [-0.235, 6.0348], [-0.2317, 6.0271], [-0.2111, 6.0272], [-0.2026, 6.0222], [-0.1975, 6.0274], [-0.1789, 6.0223], [-0.173, 6.0057], [-0.1505, 5.9726], [-0.153, 5.9583], [-0.1487, 5.9633], [-0.1268, 5.9582], [-0.1147, 5.9633], [-0.1179, 5.9419], [-0.1054, 5.9489], [-0.1065, 5.9683], [-0.0973, 5.9716], [-0.0961, 5.9787], [-0.0833, 5.9859], [-0.0642, 6.007], [-0.0399, 6.0075], [-0.0321, 6.0034], [-0.0292, 5.9941], [-0.0197, 5.9945], [-0.0126, 5.9959], [-0.0096, 6.0104]]]}}, {"type": "Feature", "properties": {"osm_type": "relation", "osm_id": 675463489, "name": "Yilo Krobo", "admin_level": "6", "kind": "subdivision_2", "parent_osm_id": 3498733, "parent_name": "Eastern Region", "parent_iso": "GH-EP"}, "geometry": {"type": "Polygon", "coordinates": [[[-0.2969, 6.2975], [-0.3061, 6.3038], [-0.321, 6.2957], [-0.3298, 6.2978], [-0.3397, 6.2863], [-0.3603, 6.2861], [-0.3642, 6.2768], [-0.35, 6.2681], [-0.3342, 6.2677], [-0.3231, 6.2568], [-0.3108, 6.2546], [-0.312, 6.2095], [-0.2775, 6.1704], [-0.2628, 6.168], [-0.2687, 6.1621], [-0.2654, 6.1476], [-0.2404, 6.125], [-0.2347, 6.1095], [-0.2164, 6.0969], [-0.2168, 6.091], [-0.2122, 6.0937], [-0.2128, 6.101], [-0.2006, 6.1248], [-0.1559, 6.1208], [-0.1467, 6.1275], [-0.1278, 6.1296], [-0.1234, 6.135], [-0.1039, 6.128], [-0.0939, 6.1358], [-0.0855, 6.1282], [-0.083, 6.1332], [-0.066, 6.1371], [-0.06, 6.1309], [-0.0754, 6.1063], [-0.0725, 6.0979], [-0.059, 6.0954], [-0.0442, 6.0757], [-0.028, 6.0761], [-0.024, 6.0615], [-0.0292, 6.053], [-0.0228, 6.0288], [-0.0155, 6.0144], [-0.0008, 6.0077], [0.0058, 6.0121], [0.0182, 6.0389], [0.019, 6.0619], [0.0404, 6.0479], [0.0626, 6.0597], [0.0892, 6.0627], [0.1045, 6.0778], [0.1436, 6.1009], [0.1263, 6.0953], [0.0949, 6.0939], [0.0893, 6.1032], [0.0858, 6.0935], [0.0476, 6.0932], [0.0423, 6.0939], [0.0386, 6.1022], [0.0308, 6.0973], [0.0021, 6.1029], [0.0026, 6.1128], [-0.0061, 6.1154], [-0.0085, 6.1224], [-0.0262, 6.1268], [-0.0306, 6.1236], [-0.0372, 6.1307], [-0.0442, 6.159], [-0.0521, 6.1568], [-0.0566, 6.1462], [-0.0656, 6.1431], [-0.0699, 6.1461], [-0.0658, 6.1544], [-0.075, 6.1575], [-0.09, 6.1813], [-0.0845, 6.2006], [-0.0709, 6.219], [-0.0804, 6.2174], [-0.0859, 6.2233], [-0.0853, 6.231], [-0.1029, 6.2218], [-0.1132, 6.2533], [-0.1289, 6.2404], [-0.1344, 6.2245], [-0.1467, 6.2273], [-0.1615, 6.2221], [-0.1646, 6.2168], [-0.1733, 6.219], [-0.1829, 6.2097], [-0.188, 6.2142], [-0.1876, 6.2321], [-0.1797, 6.2376], [-0.1911, 6.2491], [-0.1804, 6.2686], [-0.1827, 6.282], [-0.2191, 6.2583], [-0.2351, 6.2612], [-0.2303, 6.2777], [-0.2545, 6.2912], [-0.2469, 6.3047], [-0.2571, 6.3022], [-0.2668, 6.2849], [-0.2781, 6.2829], [-0.2863, 6.2849], [-0.292, 6.2965], [-0.2969, 6.2975]]]}}, {"type": "Feature", "properties": {"osm_type": "relation", "osm_id": 983634486, "name": "Atiwa West", "admin_level": "6", "kind": "subdivision_2", "parent_osm_id": 3498733, "parent_name": "Eastern Region", "parent_iso": "GH-EP"}, "geometry": {"type": "Polygon", "coordinates": [[[-0.5199, 6.3446], [-0.6157, 6.3887], [-0.6472, 6.3918], [-0.6618, 6.3843], [-0.6781, 6.3861], [-0.7009, 6.3687], [-0.7256, 6.3199], [-0.7507, 6.3112], [-0.7775, 6.2786], [-0.7683, 6.2588], [-0.7757, 6.2502], [-0.7592, 6.2362], [-0.7509, 6.2347], [-0.7483, 6.2219], [-0.7418, 6.2252], [-0.722, 6.2209], [-0.7111, 6.2113], [-0.7103, 6.2018], [-0.6954, 6.2052], [-0.6863, 6.2002], [-0.6848, 6.1903], [-0.6407, 6.1881], [-0.6314, 6.1798], [-0.6331, 6.1728], [-0.6179, 6.1655], [-0.6389, 6.1413], [-0.6389, 6.1315], [-0.6467, 6.1171], [-0.6581, 6.1151], [-0.6633, 6.1073], [-0.6804, 6.0979], [-0.668, 6.0842], [-0.6698, 6.0772], [-0.6805, 6.0744], [-0.6683, 6.0643], [-0.6588, 6.0677], [-0.6638, 6.0631], [-0.6621, 6.0581], [-0.6535, 6.0562], [-0.6497, 6.0463], [-0.6586, 6.0353], [-0.6598, 6.0251], [-0.6297, 6.0353], [-0.6203, 6.0301], [-0.6014, 6.0464], [-0.5965, 6.0416], [-0.5944, 6.0575], [-0.5817, 6.05], [-0.5802, 6.0414], [-0.5719, 6.0391], [-0.5743, 6.0521], [-0.5844, 6.0539], [-0.5747, 6.0598], [-0.567, 6.0579], [-0.5872, 6.0808], [-0.5959, 6.0986], [-0.588, 6.1109], [-0.6072, 6.1397], [-0.6046, 6.1571], [-0.5976, 6.1727], [-0.591, 6.1763], [-0.585, 6.1724], [-0.5642, 6.1901], [-0.5498, 6.1896], [-0.5505, 6.2031], [-0.5386, 6.2133], [-0.5471, 6.2207], [-0.528, 6.2308], [-0.5249, 6.2848], [-0.5189, 6.3027], [-0.5272, 6.3112], [-0.5359, 6.3094], [-0.5368, 6.3146], [-0.5313, 6.3172], [-0.5307, 6.3294], [-0.5199, 6.3446]]]}}, {"type": "Feature", "properties": {"osm_type": "relation", "osm_id": 353715172, "name": "New Juaben North Municipal", "admin_level": "6", "kind": "subdivision_2", "parent_osm_id": 3498733, "parent_name": "Eastern Region", "parent_iso": "GH-EP"}, "geometry": {"type": "Polygon", "coordinates": [[[-0.312, 6.2095], [-0.3233, 6.1995], [-0.3178, 6.1803], [-0.3209, 6.1751], [-0.3288, 6.1718], [-0.3434, 6.1751], [-0.347, 6.1604], [-0.3543, 6.1689], [-0.3702, 6.1539], [-0.3731, 6.1426], [-0.3637, 6.1168], [-0.3501, 6.1112], [-0.348, 6.1166], [-0.3481, 6.1123], [-0.3325, 6.1073], [-0.3334, 6.1022], [-0.321, 6.0998], [-0.3216, 6.0943], [-0.3161, 6.093], [-0.3135, 6.0817], [-0.3098, 6.0811], [-0.2964, 6.0936], [-0.291, 6.0907], [-0.2841, 6.1004], [-0.2671, 6.1001], [-0.2465, 6.1275], [-0.2654, 6.1476], [-0.2687, 6.1621], [-0.2628, 6.168], [-0.2775, 6.1704], [-0.312, 6.2095]]]}}, {"type": "Feature", "properties": {"osm_type": "relation", "osm_id": 602449545, "name": "Fanteakwa North", "admin_level": "6", "kind": "subdivision_2", "parent_osm_id": 3498733, "parent_name": "Eastern Region", "parent_iso": "GH-EP"}, "geometry": {"type": "Polygon", "coordinates": [[[-0.544, 6.512], [-0.4902, 6.4501], [-0.4608, 6.4237], [-0.4632, 6.4084], [-0.4794, 6.4014], [-0.4877, 6.3911], [-0.4561, 6.3803], [-0.3982, 6.3417], [-0.352, 6.33], [-0.3445, 6.3382], [-0.3312, 6.3424], [-0.3222, 6.3535], [-0.3257, 6.3635], [-0.3411, 6.3726], [-0.3507, 6.3873], [-0.3506, 6.3974], [-0.3194, 6.4058], [-0.3074, 6.4266], [-0.2938, 6.4261], [-0.2891, 6.4347], [-0.2722, 6.4364], [-0.2571, 6.4575], [-0.2456, 6.4614], [-0.2406, 6.4567], [-0.2309, 6.4645], [-0.2305, 6.4746], [-0.224, 6.4788], [-0.2048, 6.4766], [-0.1938, 6.4944], [-0.2082, 6.5094], [-0.2078, 6.5154], [-0.1984, 6.5308], [-0.1876, 6.5362], [-0.1777, 6.5577], [-0.2195, 6.601], [-0.2552, 6.6668], [-0.3345, 6.6674], [-0.3342, 6.5985], [-0.3667, 6.611], [-0.3899, 6.6127], [-0.393, 6.618], [-0.4143, 6.6247], [-0.4229, 6.6414], [-0.4478, 6.6376], [-0.4567, 6.6316], [-0.4583, 6.6233], [-0.4677, 6.6217], [-0.471, 6.616], [-0.4742, 6.6187], [-0.4883, 6.6042], [-0.4981, 6.6055], [-0.5005, 6.5968], [-0.4927, 6.5941], [-0.4979, 6.5897], [-0.494, 6.5799], [-0.4888, 6.5806], [-0.4831, 6.5731], [-0.485, 6.5659], [-0.4736, 6.5634], [-0.4725, 6.56], [-0.4805, 6.5571], [-0.4736, 6.5436], [-0.4625, 6.5367], [-0.4622, 6.5242], [-0.4684, 6.5193], [-0.544, 6.512]]]}}, {"type": "Feature", "properties": {"osm_type": "relation", "osm_id": 195634646, "name": "Birim North", "admin_level": "6", "kind": "subdivision_2", "parent_osm_id": 3498733, "parent_name": "Eastern Region", "parent_iso": "GH-EP"}, "geometry": {"type": "Polygon", "coordinates": [[[-1.018, 6.4361], [-1.0129, 6.426], [-1.0164, 6.4206], [-1.0103, 6.415], [-1.0236, 6.4083], [-1.0356, 6.413], [-1.0418, 6.4005], [-1.0555, 6.3977], [-1.0689, 6.388], [-1.0683, 6.3833], [-1.1028, 6.3644], [-1.1051, 6.3577], [-1.1143, 6.3528], [-1.1105, 6.3433], [-1.1199, 6.3271], [-1.1122, 6.3206], [-1.1312, 6.316], [-1.1278, 6.302], [-1.1386, 6.295], [-1.1269, 6.2862], [-1.1315, 6.2803], [-1.128, 6.2712], [-1.1163, 6.2687], [-1.1254, 6.2439], [-1.1213, 6.2383], [-1.1256, 6.2331], [-1.1231, 6.2285], [-1.1093, 6.2274], [-1.0961, 6.215], [-1.0698, 6.2231], [-1.0685, 6.2149], [-1.0733, 6.2103], [-1.0433, 6.1977], [-1.0326, 6.1966], [-1.0135, 6.2077], [-0.9959, 6.1965], [-0.9905, 6.2044], [-0.991, 6.2205], [-1.0208, 6.2515], [-1.0062, 6.2688], [-0.9995, 6.2721], [-0.9878, 6.2661], [-0.9784, 6.2675], [-0.9633, 6.284], [-0.9623, 6.3145], [-0.9735, 6.331], [-0.9859, 6.3365], [-0.9617, 6.3399], [-0.9478, 6.375], [-0.9486, 6.3921], [-0.9373, 6.3856], [-0.9209, 6.3937], [-0.9266, 6.3685], [-0.9104, 6.3759], [-0.9095, 6.37], [-0.8892, 6.3822], [-0.881, 6.373], [-0.8837, 6.3864], [-0.875, 6.396], [-0.8843, 6.419], [-0.8853, 6.4621], [-0.8767, 6.4582], [-0.8577, 6.4627], [-0.8585, 6.4701], [-0.8464, 6.4749], [-0.8348, 6.4691], [-0.8289, 6.4827], [-0.8224, 6.4858], [-0.8232, 6.4779], [-0.8193, 6.4832], [-0.8326, 6.5071], [-0.8377, 6.5069], [-0.8359, 6.5153], [-0.842, 6.5212], [-0.8348, 6.5274], [-0.8403, 6.5351], [-0.8905, 6.5264], [-0.8925, 6.5186], [-0.8884, 6.5107], [-0.9137, 6.4895], [-0.9127, 6.5095], [-0.9171, 6.5178], [-0.9265, 6.5191], [-0.9391, 6.5306], [-0.9549, 6.5256], [-0.9662, 6.54], [-0.9726, 6.535], [-0.972, 6.5265], [-0.9781, 6.5177], [-0.9814, 6.5209], [-0.9892, 6.5162], [-0.9932, 6.504], [-1.0006, 6.5001], [-1.0059, 6.4717], [-1.0123, 6.4683], [-1.005, 6.453], [-1.0087, 6.4487], [-1.0057, 6.4428], [-1.018, 6.4361]]]}}, {"type": "Feature", "properties": {"osm_type": "relation", "osm_id": 733733558, "name": "Asuogyaman", "admin_level": "6", "kind": "subdivision_2", "parent_osm_id": 3498733, "parent_name": "Eastern Region", "parent_iso": "GH-EP"}, "geometry": {"type": "Polygon", "coordinates": [[[0.1855, 6.342], [0.2047, 6.3572], [0.2, 6.3707], [0.2165, 6.3844], [0.2062, 6.4053], [0.178, 6.4242], [0.1862, 6.4403], [0.1838, 6.466], [0.1892, 6.4753], [0.1872, 6.4826], [0.1789, 6.4867], [0.1821, 6.4953], [0.1778, 6.5115], [0.1997, 6.5485], [0.1946, 6.5639], [0.1632, 6.57], [0.1518, 6.5778], [0.1286, 6.5755], [0.0022, 6.5361], [-0.0043, 6.4017], [-0.0171, 6.3321], [-0.0069, 6.3306], [-0.0017, 6.3229], [0.0087, 6.3258], [0.0309, 6.3165], [0.0262, 6.3058], [0.0111, 6.2952], [0.0156, 6.2775], [0.0335, 6.2945], [0.047, 6.3006], [0.0478, 6.2976], [0.0463, 6.2888], [0.0387, 6.2852], [0.0265, 6.268], [0.02, 6.2665], [0.0178, 6.2528], [0.0077, 6.2483], [0.0062, 6.2263], [-0.0114, 6.2064], [0.0035, 6.2051], [0.005, 6.1946], [0.0122, 6.193], [0.0304, 6.2138], [0.0464, 6.2136], [0.0674, 6.2216], [0.0659, 6.2113], [0.052, 6.2086], [0.0513, 6.1987], [0.0707, 6.1876], [0.0775, 6.1732], [0.0677, 6.1634], [0.0687, 6.1521], [0.0979, 6.1478], [0.0911, 6.1604], [0.1189, 6.2189], [0.1278, 6.2552], [0.1361, 6.2598], [0.1595, 6.3002], [0.1757, 6.3027], [0.1763, 6.3074], [0.1682, 6.3135], [0.1686, 6.3251], [0.1742, 6.3279], [0.1789, 6.3407], [0.187, 6.3389], [0.1855, 6.342]]]}}, {"type": "Feature", "properties": {"osm_type": "relation", "osm_id": 364720177, "name": "Kwahu East", "admin_level": "6", "kind": "subdivision_2", "parent_osm_id": 3498733, "parent_name": "Eastern Region", "parent_iso": "GH-EP"}, "geometry": {"type": "Polygon", "coordinates": [[[-0.9188, 6.6226], [-0.9101, 6.6104], [-0.9156, 6.6008], [-0.9116, 6.5989], [-0.8602, 6.6034], [-0.8308, 6.5971], [-0.8228, 6.5908], [-0.8254, 6.6116], [-0.8204, 6.6182], [-0.8001, 6.6243], [-0.7946, 6.616], [-0.7773, 6.6174], [-0.7613, 6.6338], [-0.7566, 6.6196], [-0.7398, 6.6116], [-0.703, 6.6639], [-0.6937, 6.6927], [-0.6838, 6.7012], [-0.6705, 6.7277], [-0.6703, 6.7387], [-0.6553, 6.7374], [-0.6446, 6.7511], [-0.6448, 6.7571], [-0.6534, 6.7541], [-0.6512, 6.7634], [-0.6608, 6.7758], [-0.6524, 6.7864], [-0.6433, 6.7875], [-0.6416, 6.795], [-0.6599, 6.7963], [-0.6713, 6.7869], [-0.6717, 6.7965], [-0.6979, 6.7773], [-0.6975, 6.7865], [-0.685, 6.7945], [-0.6904, 6.7965], [-0.665, 6.822], [-0.683, 6.8221], [-0.6961, 6.8097], [-0.7202, 6.799], [-0.7023, 6.8203], [-0.7183, 6.8203], [-0.722, 6.8248], [-0.7268, 6.8218], [-0.7327, 6.8271], [-0.744, 6.822], [-0.7467, 6.8362], [-0.7312, 6.842], [-0.7453, 6.8423], [-0.7483, 6.8464], [-0.7468, 6.8692], [-0.7554, 6.8669], [-0.7572, 6.8448], [-0.767, 6.8359], [-0.7869, 6.7938], [-0.7928, 6.7898], [-0.8337, 6.7934], [-0.843, 6.7801], [-0.8516, 6.7779], [-0.8654, 6.7824], [-0.8827, 6.7784], [-0.9012, 6.7883], [-0.9083, 6.7771], [-0.9149, 6.7768], [-0.9152, 6.7681], [-0.9325, 6.7562], [-0.9565, 6.7539], [-0.9609, 6.7462], [-0.9816, 6.7493], [-0.9844, 6.7421], [-0.9742, 6.7374], [-0.9566, 6.7396], [-0.9469, 6.7248], [-0.9504, 6.7074], [-0.9606, 6.6914], [-0.9739, 6.6811], [-0.9768, 6.6147], [-0.9697, 6.6126], [-0.9451, 6.627], [-0.9455, 6.6391], [-0.9381, 6.6411], [-0.935, 6.6362], [-0.9236, 6.6409], [-0.9188, 6.6226]]]}}, {"type": "Feature", "properties": {"osm_type": "relation", "osm_id": 820994537, "name": "Kwahu West", "admin_level": "6", "kind": "subdivision_2", "parent_osm_id": 3498733, "parent_name": "Eastern Region", "parent_iso": "GH-EP"}, "geometry": {"type": "Polygon", "coordinates": [[[-0.9336, 6.5796], [-0.9347, 6.5736], [-0.944, 6.5644], [-0.9504, 6.5655], [-0.9628, 6.5491], [-0.9662, 6.54], [-0.9599, 6.5294], [-0.9549, 6.5256], [-0.9391, 6.5306], [-0.9265, 6.5191], [-0.9171, 6.5178], [-0.9127, 6.5095], [-0.9137, 6.4895], [-0.8884, 6.5107], [-0.8925, 6.5186], [-0.8905, 6.5264], [-0.8403, 6.5351], [-0.8348, 6.5274], [-0.842, 6.5212], [-0.8359, 6.5153], [-0.8377, 6.5069], [-0.8326, 6.5071], [-0.82, 6.4896], [-0.8203, 6.4796], [-0.8293, 6.4652], [-0.8031, 6.4617], [-0.8013, 6.4709], [-0.783, 6.4759], [-0.7748, 6.4637], [-0.7486, 6.45], [-0.7324, 6.4275], [-0.738, 6.4096], [-0.7242, 6.3915], [-0.7234, 6.3766], [-0.7163, 6.3689], [-0.7172, 6.3802], [-0.7104, 6.3872], [-0.7084, 6.4016], [-0.6961, 6.4144], [-0.6887, 6.4354], [-0.6891, 6.4559], [-0.6571, 6.4711], [-0.6532, 6.4799], [-0.6377, 6.4836], [-0.6276, 6.5062], [-0.6177, 6.5024], [-0.6055, 6.476], [-0.593, 6.4992], [-0.593, 6.506], [-0.6014, 6.5135], [-0.6238, 6.5106], [-0.6406, 6.5149], [-0.6489, 6.5426], [-0.6639, 6.5601], [-0.7282, 6.5699], [-0.7458, 6.557], [-0.7698, 6.5666], [-0.7825, 6.5841], [-0.8022, 6.5835], [-0.8141, 6.6074], [-0.8226, 6.6137], [-0.8228, 6.5908], [-0.8308, 6.5971], [-0.8602, 6.6034], [-0.9115, 6.5989], [-0.919, 6.5878], [-0.9265, 6.5879], [-0.9336, 6.5796]]]}}, {"type": "Feature", "properties": {"osm_type": "relation", "osm_id": 817253319, "name": "Lower Manya", "admin_level": "6", "kind": "subdivision_2", "parent_osm_id": 3498733, "parent_name": "Eastern Region", "parent_iso": "GH-EP"}, "geometry": {"type": "Polygon", "coordinates": [[[0.0979, 6.1478], [0.0687, 6.1521], [0.0677, 6.1634], [0.0775, 6.1732], [0.0707, 6.1876], [0.0513, 6.1987], [0.052, 6.2086], [0.0659, 6.2113], [0.0674, 6.2216], [0.0464, 6.2136], [0.0304, 6.2138], [0.0122, 6.193], [0.005, 6.1946], [0.0035, 6.2051], [-0.0114, 6.2064], [0.0062, 6.2263], [0.0077, 6.2483], [0.0178, 6.2528], [0.02, 6.2665], [0.0265, 6.268], [0.0387, 6.2852], [0.0463, 6.2888], [0.0478, 6.2976], [0.047, 6.3006], [0.0335, 6.2945], [0.0156, 6.2775], [0.0111, 6.2952], [0.0262, 6.3058], [0.0309, 6.3165], [0.0087, 6.3258], [-0.0017, 6.3229], [-0.0069, 6.3306], [-0.0171, 6.3321], [-0.0291, 6.3187], [-0.0428, 6.2785], [-0.0586, 6.2528], [-0.0853, 6.2343], [-0.0818, 6.2338], [-0.0859, 6.2233], [-0.0804, 6.2174], [-0.0709, 6.219], [-0.0845, 6.2006], [-0.09, 6.1813], [-0.075, 6.1575], [-0.0658, 6.1544], [-0.0699, 6.1461], [-0.0656, 6.1431], [-0.0566, 6.1462], [-0.0521, 6.1568], [-0.0442, 6.159], [-0.0372, 6.1307], [-0.0306, 6.1236], [-0.0262, 6.1268], [-0.0085, 6.1224], [-0.0061, 6.1154], [0.0026, 6.1128], [0.0021, 6.1029], [0.0308, 6.0973], [0.0386, 6.1022], [0.0423, 6.0939], [0.0476, 6.0932], [0.0858, 6.0935], [0.0893, 6.1032], [0.0949, 6.0939], [0.1263, 6.0953], [0.1436, 6.1009], [0.1468, 6.1091], [0.1223, 6.1275], [0.1189, 6.1373], [0.1051, 6.1402], [0.0979, 6.1478]]]}}, {"type": "Feature", "properties": {"osm_type": "relation", "osm_id": 182482666, "name": "Nsawam Adoagyiri", "admin_level": "6", "kind": "subdivision_2", "parent_osm_id": 3498733, "parent_name": "Eastern Region", "parent_iso": "GH-EP"}, "geometry": {"type": "Polygon", "coordinates": [[[-0.3466, 5.7741], [-0.3315, 5.7789], [-0.3274, 5.7725], [-0.3051, 5.7928], [-0.2699, 5.8072], [-0.2688, 5.823], [-0.274, 5.8343], [-0.2698, 5.8563], [-0.2751, 5.8588], [-0.2766, 5.8777], [-0.2897, 5.8791], [-0.2946, 5.8854], [-0.3282, 5.8746], [-0.3354, 5.8785], [-0.3325, 5.89], [-0.3404, 5.8983], [-0.3807, 5.891], [-0.3699, 5.8716], [-0.4044, 5.8461], [-0.4154, 5.8328], [-0.4279, 5.8039], [-0.4224, 5.7894], [-0.4157, 5.7876], [-0.4141, 5.7733], [-0.3921, 5.7582], [-0.3848, 5.7764], [-0.3664, 5.7624], [-0.3523, 5.7663], [-0.3466, 5.7741]]]}}, {"type": "Feature", "properties": {"osm_type": "relation", "osm_id": 780910601, "name": "Akwapem South", "admin_level": "6", "kind": "subdivision_2", "parent_osm_id": 3498733, "parent_name": "Eastern Region", "parent_iso": "GH-EP"}, "geometry": {"type": "Polygon", "coordinates": [[[-0.2266, 5.7519], [-0.2251, 5.7401], [-0.218, 5.7508], [-0.2073, 5.7546], [-0.2019, 5.7631], [-0.2025, 5.7819], [-0.1806, 5.7944], [-0.1723, 5.805], [-0.1723, 5.814], [-0.155, 5.8147], [-0.1509, 5.8383], [-0.1647, 5.8394], [-0.1439, 5.8549], [-0.1595, 5.8657], [-0.1719, 5.8671], [-0.1656, 5.8869], [-0.1757, 5.8855], [-0.1844, 5.9005], [-0.1989, 5.9024], [-0.2201, 5.8908], [-0.2191, 5.9007], [-0.2071, 5.9201], [-0.221, 5.9241], [-0.2193, 5.9296], [-0.2251, 5.9355], [-0.2769, 5.9336], [-0.3022, 5.9428], [-0.3111, 5.9335], [-0.3188, 5.9129], [-0.338, 5.9053], [-0.3404, 5.8983], [-0.3319, 5.8873], [-0.3354, 5.8785], [-0.3164, 5.876], [-0.2946, 5.8854], [-0.2897, 5.8791], [-0.2766, 5.8777], [-0.2751, 5.8588], [-0.2698, 5.8563], [-0.274, 5.8343], [-0.2688, 5.823], [-0.2693, 5.8047], [-0.2655, 5.8077], [-0.2565, 5.7779], [-0.2447, 5.7852], [-0.2334, 5.7844], [-0.2437, 5.7577], [-0.2266, 5.7519]]]}}, {"type": "Feature", "properties": {"osm_type": "relation", "osm_id": 711399511, "name": "Denkyembour", "admin_level": "6", "kind": "subdivision_2", "parent_osm_id": 3498733, "parent_name": "Eastern Region", "parent_iso": "GH-EP"}, "geometry": {"type": "Polygon", "coordinates": [[[-0.816, 5.9493], [-0.7978, 5.9684], [-0.7968, 5.9747], [-0.8025, 5.9784], [-0.7967, 5.9816], [-0.7955, 6.0007], [-0.7891, 5.9997], [-0.787, 6.0083], [-0.7811, 6.0103], [-0.7699, 6.0047], [-0.7425, 6.0167], [-0.7375, 6.0139], [-0.729, 6.0295], [-0.7207, 6.0288], [-0.7179, 6.0381], [-0.7238, 6.0409], [-0.7147, 6.0493], [-0.6902, 6.05], [-0.6713, 6.0298], [-0.6549, 6.0393], [-0.6497, 6.0463], [-0.6535, 6.0562], [-0.6621, 6.0581], [-0.6638, 6.0631], [-0.6588, 6.0677], [-0.6683, 6.0643], [-0.6805, 6.0744], [-0.6698, 6.0772], [-0.668, 6.0842], [-0.6804, 6.0979], [-0.6704, 6.1023], [-0.6723, 6.1079], [-0.6901, 6.1149], [-0.7068, 6.1076], [-0.7206, 6.1091], [-0.7402, 6.0931], [-0.7553, 6.1046], [-0.788, 6.1002], [-0.812, 6.0918], [-0.82, 6.0849], [-0.8203, 6.0766], [-0.8284, 6.0744], [-0.8457, 6.0844], [-0.8515, 6.1046], [-0.8499, 6.1195], [-0.8748, 6.149], [-0.8768, 6.1585], [-0.882, 6.1576], [-0.8901, 6.1457], [-0.9006, 6.1437], [-0.9282, 6.1649], [-0.9446, 6.1335], [-0.9471, 6.1111], [-0.9752, 6.0968], [-0.9654, 6.0739], [-0.9518, 6.0615], [-0.9727, 6.0592], [-0.9796, 6.0474], [-0.9618, 6.0106], [-0.9704, 6.0039], [-0.9665, 6.0002], [-0.9734, 5.9917], [-0.9662, 5.9587], [-0.9578, 5.96], [-0.9525, 5.9526], [-0.9396, 5.9645], [-0.9285, 5.9591], [-0.919, 5.9655], [-0.9177, 5.9832], [-0.9068, 5.9971], [-0.8905, 5.992], [-0.8915, 5.9992], [-0.878, 6.0027], [-0.8698, 5.9937], [-0.8329, 5.979], [-0.83, 5.966], [-0.816, 5.9493]]]}}, {"type": "Feature", "properties": {"osm_type": "relation", "osm_id": 579836335, "name": "Kwaebibirem", "admin_level": "6", "kind": "subdivision_2", "parent_osm_id": 3498733, "parent_name": "Eastern Region", "parent_iso": "GH-EP"}, "geometry": {"type": "Polygon", "coordinates": [[[-0.7775, 6.2786], [-0.7834, 6.293], [-0.7942, 6.2962], [-0.83, 6.3261], [-0.853, 6.336], [-0.8591, 6.3433], [-0.8559, 6.357], [-0.8752, 6.367], [-0.8892, 6.3822], [-0.9095, 6.37], [-0.9104, 6.3759], [-0.9266, 6.3685], [-0.9209, 6.3937], [-0.9373, 6.3856], [-0.9486, 6.3921], [-0.9478, 6.375], [-0.9617, 6.3399], [-0.9859, 6.3365], [-0.9735, 6.331], [-0.9623, 6.3145], [-0.9646, 6.2813], [-0.9685, 6.2821], [-0.9784, 6.2675], [-0.9878, 6.2661], [-0.9995, 6.2721], [-1.0062, 6.2688], [-1.0208, 6.2515], [-0.991, 6.2205], [-0.9897, 6.2113], [-1.0142, 6.1641], [-1.0326, 6.0792], [-0.9786, 6.1052], [-0.9752, 6.0968], [-0.9471, 6.1111], [-0.9446, 6.1335], [-0.9282, 6.1649], [-0.9006, 6.1437], [-0.8901, 6.1457], [-0.882, 6.1576], [-0.8768, 6.1585], [-0.8748, 6.149], [-0.8499, 6.1195], [-0.8515, 6.1046], [-0.8457, 6.0844], [-0.8284, 6.0744], [-0.8203, 6.0766], [-0.82, 6.0849], [-0.812, 6.0918], [-0.788, 6.1002], [-0.7553, 6.1046], [-0.7402, 6.0931], [-0.7206, 6.1091], [-0.7068, 6.1076], [-0.6975, 6.1138], [-0.6815, 6.1141], [-0.6704, 6.1023], [-0.6581, 6.1151], [-0.6467, 6.1171], [-0.6389, 6.1315], [-0.6389, 6.1413], [-0.6179, 6.1655], [-0.6331, 6.1728], [-0.6314, 6.1798], [-0.6407, 6.1881], [-0.6848, 6.1903], [-0.6863, 6.2002], [-0.6954, 6.2052], [-0.7103, 6.2018], [-0.7111, 6.2113], [-0.722, 6.2209], [-0.7418, 6.2252], [-0.7483, 6.2219], [-0.7509, 6.2347], [-0.7592, 6.2362], [-0.7757, 6.2502], [-0.7683, 6.2588], [-0.7775, 6.2786]]]}}, {"type": "Feature", "properties": {"osm_type": "relation", "osm_id": 511266682, "name": "Kwahu Afram Plains South", "admin_level": "6", "kind": "subdivision_2", "parent_osm_id": 3498733, "parent_name": "Eastern Region", "parent_iso": "GH-EP"}, "geometry": {"type": "Polygon", "coordinates": [[[-0.2387, 7.2023], [-0.2505, 7.1923], [-0.2575, 7.1952], [-0.2601, 7.1895], [-0.2872, 7.1947], [-0.2881, 7.1841], [-0.3064, 7.1782], [-0.3003, 7.172], [-0.3218, 7.1441], [-0.3878, 7.1179], [-0.4203, 7.1195], [-0.4263, 7.1252], [-0.4416, 7.1222], [-0.4614, 7.1284], [-0.4947, 7.1248], [-0.5418, 7.139], [-0.5612, 7.1375], [-0.5828, 7.1506], [-0.6096, 7.1536], [-0.6193, 7.1667], [-0.6354, 7.1739], [-0.591, 7.0445], [-0.5799, 7.0377], [-0.5647, 7.0187], [-0.5741, 6.9633], [-0.5853, 6.9509], [-0.6008, 6.9481], [-0.637, 6.953], [-0.6575, 6.9472], [-0.6523, 6.9295], [-0.6934, 6.9394], [-0.7228, 6.9523], [-0.742, 6.9489], [-0.7532, 6.9381], [-0.7572, 6.9254], [-0.7554, 6.8669], [-0.7448, 6.8672], [-0.7485, 6.8578], [-0.7453, 6.8423], [-0.7312, 6.842], [-0.7467, 6.8362], [-0.7476, 6.8307], [-0.744, 6.822], [-0.7327, 6.8271], [-0.7268, 6.8218], [-0.722, 6.8248], [-0.7183, 6.8203], [-0.7023, 6.8203], [-0.7202, 6.799], [-0.6961, 6.8097], [-0.683, 6.8221], [-0.665, 6.822], [-0.6904, 6.7965], [-0.685, 6.7945], [-0.6975, 6.7865], [-0.6979, 6.7773], [-0.6717, 6.7965], [-0.6713, 6.7869], [-0.6599, 6.7963], [-0.6564, 6.7932], [-0.6435, 6.797], [-0.6433, 6.7875], [-0.6524, 6.7864], [-0.6608, 6.7758], [-0.6512, 6.7634], [-0.6534, 6.7541], [-0.6434, 6.7562], [-0.6507, 6.7412], [-0.6566, 6.7405], [-0.6459, 6.7328], [-0.6142, 6.7599], [-0.5589, 6.7632], [-0.5173, 6.7313], [-0.4658, 6.7203], [-0.4098, 6.7013], [-0.364, 6.668], [-0.2552, 6.6668], [-0.2195, 6.601], [-0.1777, 6.5577], [-0.1229, 6.5437], [-0.0958, 6.5426], [-0.0946, 6.6297], [-0.0897, 6.6405], [-0.0978, 6.6474], [-0.091, 6.6586], [-0.0975, 6.6671], [-0.0864, 6.6905], [-0.0935, 6.6992], [-0.1121, 6.6984], [-0.0888, 6.7543], [-0.0875, 6.7729], [-0.0712, 6.7868], [-0.1036, 6.8043], [-0.1017, 6.8143], [-0.1129, 6.8258], [-0.1302, 6.8359], [-0.1356, 6.8471], [-0.1621, 6.8609], [-0.166, 6.8841], [-0.1642, 6.904], [-0.1523, 6.9122], [-0.1432, 6.9432], [-0.1229, 6.9644], [-0.1138, 6.9494], [-0.1069, 6.959], [-0.1041, 6.9752], [-0.1245, 6.9857], [-0.1271, 6.9972], [-0.1163, 7.0151], [-0.136, 7.0272], [-0.1413, 7.0356], [-0.1339, 7.0408], [-0.1339, 7.0459], [-0.1503, 7.0534], [-0.1529, 7.059], [-0.1507, 7.0734], [-0.1571, 7.0952], [-0.1476, 7.1059], [-0.1693, 7.1433], [-0.1694, 7.1582], [-0.1636, 7.1675], [-0.1659, 7.1872], [-0.1595, 7.1961], [-0.1646, 7.2001], [-0.18, 7.1978], [-0.1812, 7.2038], [-0.2155, 7.1996], [-0.2208, 7.2128], [-0.2387, 7.2023]]]}}, {"type": "Feature", "properties": {"osm_type": "relation", "osm_id": 669521617, "name": "Kwahu Afram Plains North", "admin_level": "6", "kind": "subdivision_2", "parent_osm_id": 3498733, "parent_name": "Eastern Region", "parent_iso": "GH-EP"}, "geometry": {"type": "Polygon", "coordinates": [[[0.1044, 6.5669], [0.1104, 6.6166], [0.1232, 6.666], [0.1692, 6.6897], [0.199, 6.697], [0.2037, 6.7033], [0.2082, 6.7575], [0.2002, 6.7787], [0.1585, 6.8161], [0.1449, 6.8185], [0.1332, 6.8291], [0.1242, 6.8433], [0.1198, 6.8704], [0.1229, 6.8894], [0.1355, 6.91], [0.1478, 6.9215], [0.2062, 6.9425], [0.2274, 6.974], [0.2213, 7.0079], [0.1997, 7.0516], [0.1967, 7.0675], [0.2029, 7.0806], [0.2245, 7.0994], [0.2427, 7.127], [0.2425, 7.1485], [0.2352, 7.1671], [0.1823, 7.1797], [0.1232, 7.1838], [0.0979, 7.1777], [0.0811, 7.1817], [0.0674, 7.1736], [0.0505, 7.172], [0.0291, 7.1854], [0.0111, 7.1862], [0.0044, 7.194], [-0.0275, 7.1913], [-0.0527, 7.1964], [-0.0615, 7.1881], [-0.0849, 7.1792], [-0.1071, 7.1951], [-0.1275, 7.1935], [-0.1486, 7.1999], [-0.1616, 7.1943], [-0.1659, 7.1872], [-0.1636, 7.1675], [-0.1697, 7.1546], [-0.167, 7.1366], [-0.1529, 7.1205], [-0.1476, 7.1059], [-0.1571, 7.0952], [-0.1507, 7.0734], [-0.1529, 7.059], [-0.1503, 7.0534], [-0.1339, 7.0459], [-0.1339, 7.0408], [-0.1413, 7.0356], [-0.136, 7.0272], [-0.1163, 7.0151], [-0.1271, 6.9972], [-0.1245, 6.9857], [-0.1041, 6.9752], [-0.1069, 6.959], [-0.1138, 6.9494], [-0.1229, 6.9644], [-0.1432, 6.9432], [-0.1523, 6.9122], [-0.1642, 6.904], [-0.1656, 6.8658], [-0.1463, 6.8502], [-0.1356, 6.8471], [-0.1302, 6.8359], [-0.1129, 6.8258], [-0.1017, 6.8143], [-0.1036, 6.8043], [-0.0712, 6.7868], [-0.0875, 6.7729], [-0.0888, 6.7543], [-0.1121, 6.6984], [-0.0935, 6.6992], [-0.0864, 6.6905], [-0.0975, 6.6671], [-0.091, 6.6586], [-0.0978, 6.6474], [-0.0897, 6.6405], [-0.0946, 6.6297], [-0.0958, 6.5426], [-0.0611, 6.5334], [-0.0187, 6.5392], [0.0022, 6.5361], [0.1044, 6.5669]]]}}, {"type": "Feature", "properties": {"osm_type": "relation", "osm_id": 908905345, "name": "Suhum Municipal", "admin_level": "6", "kind": "subdivision_2", "parent_osm_id": 3498733, "parent_name": "Eastern Region", "parent_iso": "GH-EP"}, "geometry": {"type": "Polygon", "coordinates": [[[-0.367, 6.1285], [-0.3803, 6.1296], [-0.3959, 6.1202], [-0.4157, 6.1327], [-0.434, 6.1219], [-0.4314, 6.1178], [-0.4379, 6.1133], [-0.4424, 6.1006], [-0.4487, 6.1028], [-0.46, 6.0964], [-0.4837, 6.1058], [-0.4847, 6.0995], [-0.5047, 6.091], [-0.5172, 6.0764], [-0.5357, 6.0721], [-0.557, 6.0577], [-0.5434, 6.0544], [-0.5425, 6.0368], [-0.5321, 6.0203], [-0.5038, 6.0112], [-0.506, 6.0078], [-0.4902, 5.9894], [-0.487, 5.9723], [-0.4753, 5.9639], [-0.4634, 5.965], [-0.4456, 5.9748], [-0.4446, 5.997], [-0.4344, 6.0195], [-0.4276, 6.0117], [-0.4215, 6.0124], [-0.421, 6.0195], [-0.4114, 6.0201], [-0.4144, 6.0279], [-0.3984, 6.0322], [-0.3929, 6.0291], [-0.3927, 6.0073], [-0.3829, 5.9965], [-0.3735, 6.0016], [-0.365, 5.9954], [-0.3644, 5.9828], [-0.3309, 5.9733], [-0.3239, 5.9551], [-0.3025, 5.9539], [-0.289, 5.9583], [-0.2715, 5.9911], [-0.261, 6.001], [-0.2683, 6.0205], [-0.2931, 6.038], [-0.2943, 6.0621], [-0.2895, 6.0683], [-0.3135, 6.0817], [-0.321, 6.0998], [-0.3334, 6.1022], [-0.3325, 6.1073], [-0.3481, 6.1123], [-0.348, 6.1166], [-0.3501, 6.1112], [-0.3637, 6.1168], [-0.367, 6.1285]]]}}, {"type": "Feature", "properties": {"osm_type": "relation", "osm_id": 139953033, "name": "Ayensuano", "admin_level": "6", "kind": "subdivision_2", "parent_osm_id": 3498733, "parent_name": "Eastern Region", "parent_iso": "GH-EP"}, "geometry": {"type": "Polygon", "coordinates": [[[-0.6512, 6.0279], [-0.6493, 6.0158], [-0.636, 6.0149], [-0.6238, 6.0068], [-0.6304, 5.9861], [-0.618, 5.9727], [-0.6182, 5.9668], [-0.6149, 5.9629], [-0.6049, 5.9661], [-0.6034, 5.9574], [-0.5959, 5.9522], [-0.5982, 5.9432], [-0.5808, 5.936], [-0.5784, 5.9238], [-0.583, 5.9212], [-0.5771, 5.9129], [-0.5943, 5.9032], [-0.5867, 5.8956], [-0.572, 5.9007], [-0.5575, 5.8879], [-0.5529, 5.8907], [-0.5316, 5.8847], [-0.5189, 5.8669], [-0.5003, 5.8642], [-0.4985, 5.8482], [-0.4665, 5.8462], [-0.4657, 5.8297], [-0.4419, 5.8449], [-0.4349, 5.8324], [-0.4245, 5.838], [-0.4154, 5.8328], [-0.3973, 5.8523], [-0.3699, 5.8716], [-0.3807, 5.891], [-0.3404, 5.8983], [-0.3364, 5.9084], [-0.3188, 5.9129], [-0.3111, 5.9335], [-0.289, 5.9583], [-0.3025, 5.9539], [-0.3239, 5.9551], [-0.3309, 5.9733], [-0.3644, 5.9828], [-0.365, 5.9954], [-0.3735, 6.0016], [-0.3829, 5.9965], [-0.3927, 6.0073], [-0.3929, 6.0291], [-0.3984, 6.0322], [-0.4144, 6.0279], [-0.4114, 6.0201], [-0.421, 6.0195], [-0.4215, 6.0124], [-0.4276, 6.0117], [-0.4344, 6.0195], [-0.4446, 5.997], [-0.4456, 5.9748], [-0.4634, 5.965], [-0.4753, 5.9639], [-0.487, 5.9723], [-0.4902, 5.9894], [-0.506, 6.0078], [-0.5038, 6.0112], [-0.5342, 6.0228], [-0.5425, 6.0368], [-0.5407, 6.0491], [-0.55, 6.0579], [-0.5672, 6.0622], [-0.5694, 6.0559], [-0.5747, 6.0598], [-0.5822, 6.0573], [-0.5844, 6.0539], [-0.5743, 6.0521], [-0.5719, 6.0391], [-0.5802, 6.0414], [-0.5817, 6.05], [-0.5944, 6.0575], [-0.5965, 6.0416], [-0.6014, 6.0464], [-0.6203, 6.0301], [-0.6297, 6.0353], [-0.6512, 6.0279]]]}}, {"type": "Feature", "properties": {"osm_type": "relation", "osm_id": 929994289, "name": "Abuakwa South", "admin_level": "6", "kind": "subdivision_2", "parent_osm_id": 3498733, "parent_name": "Eastern Region", "parent_iso": "GH-EP"}, "geometry": {"type": "Polygon", "coordinates": [[[-0.5684, 6.0593], [-0.557, 6.0577], [-0.5357, 6.0721], [-0.5172, 6.0764], [-0.5047, 6.091], [-0.4847, 6.0995], [-0.4837, 6.1058], [-0.46, 6.0964], [-0.4487, 6.1028], [-0.4424, 6.1006], [-0.4379, 6.1133], [-0.4314, 6.1178], [-0.434, 6.1219], [-0.4157, 6.1327], [-0.3959, 6.1202], [-0.3803, 6.1296], [-0.367, 6.1285], [-0.3731, 6.1426], [-0.3702, 6.1539], [-0.3543, 6.1689], [-0.347, 6.1604], [-0.3411, 6.1755], [-0.3549, 6.188], [-0.3635, 6.1812], [-0.375, 6.1812], [-0.3825, 6.192], [-0.4139, 6.2069], [-0.4594, 6.2096], [-0.4525, 6.2318], [-0.4671, 6.2491], [-0.4791, 6.276], [-0.4887, 6.2721], [-0.4847, 6.2878], [-0.4938, 6.2755], [-0.5243, 6.2637], [-0.528, 6.2308], [-0.5471, 6.2207], [-0.5386, 6.2133], [-0.5505, 6.2031], [-0.5498, 6.1896], [-0.5642, 6.1901], [-0.585, 6.1724], [-0.591, 6.1763], [-0.5976, 6.1727], [-0.6046, 6.1571], [-0.6072, 6.1397], [-0.588, 6.1109], [-0.5959, 6.0986], [-0.5872, 6.0808], [-0.5684, 6.0593]]]}}, {"type": "Feature", "properties": {"osm_type": "relation", "osm_id": 809917027, "name": "Upper West Akim", "admin_level": "6", "kind": "subdivision_2", "parent_osm_id": 3498733, "parent_name": "Eastern Region", "parent_iso": "GH-EP"}, "geometry": {"type": "Polygon", "coordinates": [[[-0.6942, 5.7323], [-0.6858, 5.7395], [-0.652, 5.7372], [-0.6233, 5.721], [-0.581, 5.7369], [-0.5715, 5.7351], [-0.5682, 5.7403], [-0.5597, 5.736], [-0.5088, 5.7356], [-0.4922, 5.7468], [-0.4905, 5.7542], [-0.4439, 5.7774], [-0.4479, 5.7899], [-0.4374, 5.8009], [-0.4243, 5.7935], [-0.4279, 5.8039], [-0.4154, 5.8328], [-0.4245, 5.838], [-0.4349, 5.8324], [-0.4419, 5.8449], [-0.4657, 5.8297], [-0.4665, 5.8462], [-0.4985, 5.8482], [-0.5003, 5.8642], [-0.5189, 5.8669], [-0.5316, 5.8847], [-0.5552, 5.8905], [-0.5634, 5.8799], [-0.5717, 5.8867], [-0.5865, 5.883], [-0.5946, 5.892], [-0.6186, 5.8785], [-0.6145, 5.8658], [-0.6193, 5.8459], [-0.6243, 5.8443], [-0.6211, 5.8352], [-0.6257, 5.8346], [-0.6271, 5.8255], [-0.6326, 5.8245], [-0.633, 5.8168], [-0.6457, 5.8216], [-0.6534, 5.8185], [-0.6564, 5.8124], [-0.6517, 5.7952], [-0.6587, 5.7936], [-0.6628, 5.7795], [-0.673, 5.7778], [-0.6731, 5.7717], [-0.6922, 5.7646], [-0.7003, 5.7701], [-0.7081, 5.7652], [-0.7065, 5.7572], [-0.6946, 5.7455], [-0.7011, 5.7441], [-0.7023, 5.7328], [-0.6942, 5.7323]]]}}, {"type": "Feature", "properties": {"osm_type": "relation", "osm_id": 497970728, "name": "West Akim", "admin_level": "6", "kind": "subdivision_2", "parent_osm_id": 3498733, "parent_name": "Eastern Region", "parent_iso": "GH-EP"}, "geometry": {"type": "Polygon", "coordinates": [[[-0.7081, 5.7652], [-0.7003, 5.7701], [-0.6922, 5.7646], [-0.6731, 5.7717], [-0.673, 5.7778], [-0.6628, 5.7795], [-0.6587, 5.7936], [-0.6517, 5.7952], [-0.6564, 5.8124], [-0.6534, 5.8185], [-0.6457, 5.8216], [-0.633, 5.8168], [-0.6326, 5.8245], [-0.6271, 5.8255], [-0.6257, 5.8346], [-0.6211, 5.8352], [-0.6243, 5.8443], [-0.6176, 5.8501], [-0.6145, 5.8658], [-0.6186, 5.8785], [-0.5946, 5.892], [-0.5865, 5.883], [-0.5717, 5.8867], [-0.5634, 5.8799], [-0.5575, 5.8879], [-0.572, 5.9007], [-0.5867, 5.8956], [-0.5943, 5.9032], [-0.5771, 5.9129], [-0.583, 5.9212], [-0.5784, 5.9238], [-0.5808, 5.936], [-0.5982, 5.9432], [-0.5959, 5.9522], [-0.6034, 5.9574], [-0.6049, 5.9661], [-0.6149, 5.9629], [-0.618, 5.9727], [-0.6261, 5.9776], [-0.6304, 5.9861], [-0.6238, 6.0068], [-0.636, 6.0149], [-0.6493, 6.0158], [-0.6512, 6.0279], [-0.6598, 6.0251], [-0.6554, 6.0401], [-0.6713, 6.0298], [-0.6965, 6.0518], [-0.7201, 6.0453], [-0.7238, 6.0409], [-0.7179, 6.0381], [-0.7188, 6.0321], [-0.7231, 6.0278], [-0.729, 6.0295], [-0.7375, 6.0139], [-0.7425, 6.0167], [-0.7699, 6.0047], [-0.7786, 6.01], [-0.787, 6.0083], [-0.7891, 5.9997], [-0.7955, 6.0007], [-0.7967, 5.9816], [-0.8025, 5.9784], [-0.7968, 5.9747], [-0.7978, 5.9684], [-0.8105, 5.9575], [-0.8162, 5.9455], [-0.809, 5.9423], [-0.7942, 5.9172], [-0.7818, 5.9129], [-0.7662, 5.8926], [-0.7618, 5.8813], [-0.7636, 5.8722], [-0.7565, 5.8625], [-0.7621, 5.8553], [-0.7567, 5.8417], [-0.7592, 5.8377], [-0.754, 5.8381], [-0.7396, 5.8227], [-0.7255, 5.8188], [-0.7204, 5.7821], [-0.7081, 5.7652]]]}}, {"type": "Feature", "properties": {"osm_type": "relation", "osm_id": 336842597, "name": "Akyem Mansa", "admin_level": "6", "kind": "subdivision_2", "parent_osm_id": 3498733, "parent_name": "Eastern Region", "parent_iso": "GH-EP"}, "geometry": {"type": "Polygon", "coordinates": [[[-1.1922, 6.1992], [-1.1868, 6.1937], [-1.1902, 6.1926], [-1.1887, 6.184], [-1.179, 6.1799], [-1.1811, 6.1667], [-1.1861, 6.1676], [-1.1784, 6.1575], [-1.1796, 6.1479], [-1.1835, 6.1494], [-1.1833, 6.1436], [-1.1905, 6.1439], [-1.1931, 6.1353], [-1.2014, 6.1336], [-1.1984, 6.1255], [-1.1925, 6.1231], [-1.2071, 6.1129], [-1.2014, 6.1097], [-1.1938, 6.1133], [-1.1872, 6.0975], [-1.1902, 6.0921], [-1.2048, 6.091], [-1.1983, 6.0825], [-1.2146, 6.0678], [-1.2083, 6.0527], [-1.2312, 6.0387], [-1.2291, 6.0337], [-1.2333, 6.0282], [-1.2273, 6.0191], [-1.2304, 6.0134], [-1.2421, 6.01], [-1.2453, 5.9863], [-1.2386, 5.9846], [-1.2374, 5.9794], [-1.2264, 5.9815], [-1.2218, 5.9739], [-1.2125, 5.9755], [-1.2175, 5.9669], [-1.2104, 5.9629], [-1.201, 5.9772], [-1.1954, 5.9752], [-1.1987, 5.97], [-1.187, 5.9729], [-1.184, 5.969], [-1.1787, 5.9735], [-1.1737, 5.9671], [-1.1601, 5.9654], [-1.1504, 5.9549], [-1.1564, 5.9507], [-1.1477, 5.9466], [-1.1265, 5.9594], [-1.1218, 5.9529], [-1.1156, 5.9534], [-1.1178, 5.9574], [-1.1133, 5.9597], [-1.1169, 5.9626], [-1.1069, 5.967], [-1.1042, 5.9639], [-1.1081, 5.9604], [-1.1036, 5.9618], [-1.1043, 5.9572], [-1.099, 5.9584], [-1.0924, 5.9501], [-1.0985, 5.9434], [-1.0923, 5.9345], [-1.0866, 5.9423], [-1.083, 5.9384], [-1.0812, 5.945], [-1.0771, 5.9421], [-1.0687, 5.9522], [-1.0413, 5.9683], [-1.0402, 5.9846], [-1.0258, 5.985], [-0.9964, 6.0168], [-1.0053, 6.017], [-1.0024, 6.0332], [-0.9806, 6.0447], [-0.9727, 6.0592], [-0.9518, 6.0615], [-0.9654, 6.0739], [-0.9786, 6.1052], [-1.0326, 6.0792], [-1.0142, 6.1641], [-0.9959, 6.1965], [-1.0135, 6.2077], [-1.0326, 6.1966], [-1.0626, 6.2028], [-1.0733, 6.2103], [-1.0685, 6.2149], [-1.0698, 6.2231], [-1.0961, 6.215], [-1.1169, 6.2294], [-1.1229, 6.2243], [-1.1203, 6.2094], [-1.1311, 6.1998], [-1.1538, 6.1985], [-1.1552, 6.2044], [-1.1611, 6.2008], [-1.1642, 6.2064], [-1.1797, 6.2008], [-1.1827, 6.2055], [-1.1922, 6.1992]]]}}, {"type": "Feature", "properties": {"osm_type": "relation", "osm_id": 842350633, "name": "Atiwa East", "admin_level": "6", "kind": "subdivision_2", "parent_osm_id": 3498733, "parent_name": "Eastern Region", "parent_iso": "GH-EP"}, "geometry": {"type": "Polygon", "coordinates": [[[-0.5956, 6.4967], [-0.6055, 6.476], [-0.6177, 6.5024], [-0.6276, 6.5062], [-0.6377, 6.4836], [-0.6532, 6.4799], [-0.6571, 6.4711], [-0.6891, 6.4559], [-0.6887, 6.4354], [-0.6961, 6.4144], [-0.7084, 6.4016], [-0.7104, 6.3872], [-0.7172, 6.3802], [-0.7163, 6.3689], [-0.7234, 6.3766], [-0.7242, 6.3915], [-0.738, 6.4096], [-0.7324, 6.4275], [-0.7486, 6.45], [-0.7748, 6.4637], [-0.783, 6.4759], [-0.8013, 6.4709], [-0.8031, 6.4617], [-0.8293, 6.4652], [-0.8236, 6.4717], [-0.8224, 6.4858], [-0.8315, 6.48], [-0.8348, 6.4691], [-0.8464, 6.4749], [-0.8585, 6.4701], [-0.8577, 6.4627], [-0.8767, 6.4582], [-0.8853, 6.4621], [-0.8843, 6.419], [-0.875, 6.396], [-0.8837, 6.3864], [-0.881, 6.373], [-0.8559, 6.357], [-0.8591, 6.3433], [-0.853, 6.336], [-0.83, 6.3261], [-0.7942, 6.2962], [-0.7834, 6.293], [-0.7775, 6.2786], [-0.7507, 6.3112], [-0.7256, 6.3199], [-0.7009, 6.3687], [-0.6781, 6.3861], [-0.6618, 6.3843], [-0.6472, 6.3918], [-0.6157, 6.3887], [-0.5199, 6.3446], [-0.5079, 6.3522], [-0.4893, 6.348], [-0.4856, 6.3626], [-0.491, 6.3691], [-0.4962, 6.366], [-0.4944, 6.3711], [-0.4991, 6.3717], [-0.4925, 6.3883], [-0.4794, 6.4014], [-0.4632, 6.4084], [-0.4608, 6.4237], [-0.4902, 6.4501], [-0.544, 6.512], [-0.5926, 6.4906], [-0.5956, 6.4967]]]}}, {"type": "Feature", "properties": {"osm_type": "relation", "osm_id": 589339386, "name": "New Juaben South Municipal", "admin_level": "6", "kind": "subdivision_2", "parent_osm_id": 3498733, "parent_name": "Eastern Region", "parent_iso": "GH-EP"}, "geometry": {"type": "Polygon", "coordinates": [[[-0.2168, 6.091], [-0.2164, 6.0969], [-0.2302, 6.1038], [-0.2379, 6.1215], [-0.2465, 6.1275], [-0.2671, 6.1001], [-0.2841, 6.1004], [-0.291, 6.0907], [-0.2964, 6.0936], [-0.3098, 6.0811], [-0.2895, 6.0683], [-0.2943, 6.0621], [-0.2931, 6.038], [-0.2825, 6.0322], [-0.2821, 6.0381], [-0.2708, 6.0385], [-0.2615, 6.0459], [-0.2606, 6.0425], [-0.2509, 6.0446], [-0.2357, 6.0723], [-0.2317, 6.0759], [-0.2266, 6.0711], [-0.2232, 6.0734], [-0.2168, 6.091]]]}}, {"type": "Feature", "properties": {"osm_type": "relation", "osm_id": 242251949, "name": "Birim South", "admin_level": "6", "kind": "subdivision_2", "parent_osm_id": 3498733, "parent_name": "Eastern Region", "parent_iso": "GH-EP"}, "geometry": {"type": "Polygon", "coordinates": [[[-1.2247, 5.9354], [-1.1984, 5.9166], [-1.1776, 5.9085], [-1.1692, 5.9101], [-1.1624, 5.8895], [-1.169, 5.8656], [-1.1612, 5.8609], [-1.1596, 5.8517], [-1.1687, 5.8458], [-1.1692, 5.8397], [-1.1608, 5.8239], [-1.1281, 5.8344], [-1.029, 5.8466], [-0.9928, 5.848], [-0.9827, 5.8423], [-0.9504, 5.855], [-0.9339, 5.8798], [-0.9147, 5.8875], [-0.904, 5.8758], [-0.8741, 5.8782], [-0.8724, 5.8831], [-0.8836, 5.8984], [-0.9178, 5.9057], [-0.9275, 5.9234], [-0.9386, 5.9144], [-0.9482, 5.9142], [-0.9498, 5.9201], [-0.9698, 5.9264], [-0.983, 5.9079], [-0.9912, 5.907], [-1.0069, 5.9327], [-1.013, 5.926], [-1.0225, 5.9274], [-1.0275, 5.9221], [-1.033, 5.9249], [-1.0315, 5.9182], [-1.0412, 5.9137], [-1.0512, 5.9245], [-1.068, 5.9282], [-1.0677, 5.9352], [-1.0812, 5.945], [-1.083, 5.9384], [-1.0866, 5.9423], [-1.0945, 5.9342], [-1.0985, 5.9434], [-1.0924, 5.9501], [-1.099, 5.9584], [-1.1043, 5.9572], [-1.1036, 5.9618], [-1.1081, 5.9604], [-1.1042, 5.9639], [-1.1069, 5.967], [-1.1169, 5.9626], [-1.1133, 5.9597], [-1.1178, 5.9574], [-1.1156, 5.9534], [-1.1218, 5.9529], [-1.1265, 5.9594], [-1.1477, 5.9466], [-1.1564, 5.9507], [-1.1504, 5.9549], [-1.1601, 5.9654], [-1.1737, 5.9671], [-1.1787, 5.9735], [-1.184, 5.969], [-1.187, 5.9729], [-1.1987, 5.97], [-1.1954, 5.9752], [-1.201, 5.9772], [-1.2104, 5.9629], [-1.2175, 5.9669], [-1.2125, 5.9755], [-1.2189, 5.9768], [-1.2247, 5.9459], [-1.2188, 5.9424], [-1.2247, 5.9354]]]}}, {"type": "Feature", "properties": {"osm_type": "relation", "osm_id": 733251243, "name": "Abuakwa North", "admin_level": "6", "kind": "subdivision_2", "parent_osm_id": 3498733, "parent_name": "Eastern Region", "parent_iso": "GH-EP"}, "geometry": {"type": "Polygon", "coordinates": [[[-0.3603, 6.2861], [-0.3741, 6.2802], [-0.388, 6.284], [-0.397, 6.2744], [-0.4165, 6.2917], [-0.4455, 6.2877], [-0.4585, 6.2908], [-0.459, 6.2992], [-0.468, 6.2987], [-0.4791, 6.276], [-0.4671, 6.2491], [-0.4525, 6.2318], [-0.4594, 6.2096], [-0.4139, 6.2069], [-0.3825, 6.192], [-0.375, 6.1812], [-0.3635, 6.1812], [-0.3549, 6.188], [-0.3411, 6.1755], [-0.3288, 6.1718], [-0.3209, 6.1751], [-0.3178, 6.1803], [-0.3233, 6.1995], [-0.312, 6.2095], [-0.3108, 6.2546], [-0.3231, 6.2568], [-0.3342, 6.2677], [-0.35, 6.2681], [-0.3642, 6.2768], [-0.3603, 6.2861]]]}}, {"type": "Feature", "properties": {"osm_type": "relation", "osm_id": 485011415, "name": "Akwapem North", "admin_level": "6", "kind": "subdivision_2", "parent_osm_id": 3498733, "parent_name": "Eastern Region", "parent_iso": "GH-EP"}, "geometry": {"type": "Polygon", "coordinates": [[[-0.0126, 5.9959], [-0.0292, 5.9941], [-0.0321, 6.0034], [-0.0399, 6.0075], [-0.0642, 6.007], [-0.0833, 5.9859], [-0.0961, 5.9787], [-0.0973, 5.9716], [-0.1065, 5.9683], [-0.1054, 5.9489], [-0.1179, 5.9419], [-0.1147, 5.9633], [-0.1268, 5.9582], [-0.1487, 5.9633], [-0.153, 5.9583], [-0.1505, 5.9726], [-0.173, 6.0057], [-0.1789, 6.0223], [-0.1975, 6.0274], [-0.2026, 6.0222], [-0.2111, 6.0272], [-0.2317, 6.0271], [-0.235, 6.0348], [-0.2292, 6.0383], [-0.2277, 6.0471], [-0.2368, 6.0565], [-0.2327, 6.0618], [-0.2377, 6.0661], [-0.2509, 6.0446], [-0.2606, 6.0425], [-0.2615, 6.0459], [-0.2708, 6.0385], [-0.2821, 6.0381], [-0.2825, 6.0322], [-0.2683, 6.0205], [-0.261, 6.001], [-0.3022, 5.9428], [-0.2769, 5.9336], [-0.2251, 5.9355], [-0.2193, 5.9296], [-0.221, 5.9241], [-0.2071, 5.9201], [-0.2191, 5.9007], [-0.2201, 5.8908], [-0.1989, 5.9024], [-0.1844, 5.9005], [-0.1757, 5.8855], [-0.1656, 5.8869], [-0.1719, 5.8671], [-0.1595, 5.8657], [-0.1439, 5.8549], [-0.1647, 5.8394], [-0.1439, 5.8549], [-0.1299, 5.8528], [-0.1269, 5.8754], [-0.1222, 5.8802], [-0.0837, 5.907], [-0.0609, 5.9329], [-0.0063, 5.9711], [-0.0046, 5.9856], [-0.0126, 5.9959]]]}}, {"type": "Feature", "properties": {"osm_type": "relation", "osm_id": 110152368, "name": "Fanteakwa South", "admin_level": "6", "kind": "subdivision_2", "parent_osm_id": 3498733, "parent_name": "Eastern Region", "parent_iso": "GH-EP"}, "geometry": {"type": "Polygon", "coordinates": [[[-0.2048, 6.4766], [-0.224, 6.4788], [-0.2305, 6.4746], [-0.2309, 6.4645], [-0.2406, 6.4567], [-0.2456, 6.4614], [-0.2571, 6.4575], [-0.2722, 6.4364], [-0.2891, 6.4347], [-0.2938, 6.4261], [-0.3074, 6.4266], [-0.3194, 6.4058], [-0.3506, 6.3974], [-0.3507, 6.3873], [-0.3411, 6.3726], [-0.3257, 6.3635], [-0.3222, 6.3535], [-0.3312, 6.3424], [-0.3445, 6.3382], [-0.352, 6.33], [-0.3982, 6.3417], [-0.469, 6.3861], [-0.4877, 6.3911], [-0.4925, 6.3883], [-0.4991, 6.3717], [-0.4944, 6.3711], [-0.4962, 6.366], [-0.491, 6.3691], [-0.4856, 6.3626], [-0.4893, 6.348], [-0.5079, 6.3522], [-0.5203, 6.3443], [-0.5307, 6.3294], [-0.5313, 6.3172], [-0.5368, 6.3146], [-0.5359, 6.3094], [-0.5272, 6.3112], [-0.5189, 6.3027], [-0.5249, 6.2848], [-0.5243, 6.2637], [-0.4938, 6.2755], [-0.4847, 6.2878], [-0.4887, 6.2721], [-0.4795, 6.2757], [-0.468, 6.2987], [-0.459, 6.2992], [-0.4585, 6.2908], [-0.4455, 6.2877], [-0.4165, 6.2917], [-0.397, 6.2744], [-0.388, 6.284], [-0.3741, 6.2802], [-0.3603, 6.2861], [-0.3397, 6.2863], [-0.3298, 6.2978], [-0.321, 6.2957], [-0.3061, 6.3038], [-0.2969, 6.2975], [-0.2884, 6.3131], [-0.307, 6.3256], [-0.3065, 6.3485], [-0.2988, 6.3546], [-0.294, 6.3673], [-0.2739, 6.3814], [-0.2611, 6.4107], [-0.246, 6.4171], [-0.2425, 6.4411], [-0.2344, 6.4411], [-0.2351, 6.4532], [-0.2087, 6.4682], [-0.2048, 6.4766]]]}}, {"type": "Feature", "properties": {"osm_type": "relation", "osm_id": 726231651, "name": "Birim Central Municipal", "admin_level": "6", "kind": "subdivision_2", "parent_osm_id": 3498733, "parent_name": "Eastern Region", "parent_iso": "GH-EP"}, "geometry": {"type": "Polygon", "coordinates": [[[-0.9495, 5.9528], [-0.9578, 5.96], [-0.9662, 5.9587], [-0.9734, 5.9917], [-0.9665, 6.0002], [-0.9704, 6.0039], [-0.9618, 6.0106], [-0.9796, 6.0474], [-0.9878, 6.0385], [-1.0024, 6.0332], [-1.0053, 6.017], [-0.9964, 6.0168], [-1.0258, 5.985], [-1.0402, 5.9846], [-1.0392, 5.9706], [-1.0726, 5.9493], [-1.0772, 5.9403], [-1.0677, 5.9352], [-1.068, 5.9282], [-1.0512, 5.9245], [-1.0412, 5.9137], [-1.0315, 5.9182], [-1.033, 5.9249], [-1.0275, 5.9221], [-1.0225, 5.9274], [-1.013, 5.926], [-1.0069, 5.9327], [-0.9912, 5.907], [-0.983, 5.9079], [-0.9698, 5.9264], [-0.9497, 5.92], [-0.9484, 5.9336], [-0.9403, 5.9481], [-0.9495, 5.9528]]]}}]}