{"type": "FeatureCollection", "parent": {"osm_id": 3560284, "name": "Nagano Prefecture", "admin_level": "4", "kind": "subdivision_1", "child_kind": "subdivision_2", "iso": "JP-20"}, "features": [{"type": "Feature", "properties": {"osm_type": "relation", "osm_id": 543703719, "name": "Minamimaki-Mura", "admin_level": "6", "kind": "subdivision_2", "parent_osm_id": 3560284, "parent_name": "Nagano Prefecture", "parent_iso": "JP-20"}, "geometry": {"type": "Polygon", "coordinates": [[[138.4911, 36.0378], [138.486, 36.0367], [138.4787, 36.0493], [138.4681, 36.0527], [138.4638, 36.0395], [138.4454, 36.0241], [138.4071, 36.0243], [138.3861, 36.0166], [138.3617, 36.0175], [138.3596, 36.0133], [138.374, 35.9895], [138.3705, 35.9714], [138.4432, 35.9511], [138.4543, 35.9383], [138.4451, 35.9172], [138.4545, 35.9], [138.4605, 35.9035], [138.4717, 35.8962], [138.49, 35.8965], [138.4959, 35.9051], [138.4969, 35.9183], [138.4833, 35.9486], [138.4862, 35.9582], [138.5147, 35.9754], [138.5041, 35.9744], [138.4996, 35.9856], [138.5106, 35.9884], [138.5169, 35.9767], [138.523, 35.9861], [138.5345, 35.9855], [138.5587, 35.9981], [138.5541, 36.0064], [138.5337, 36.0193], [138.5106, 36.024], [138.5024, 36.03], [138.5025, 36.0387], [138.4911, 36.0378]]]}}, {"type": "Feature", "properties": {"osm_type": "relation", "osm_id": 749062625, "name": "Karuizawa", "admin_level": "6", "kind": "subdivision_2", "parent_osm_id": 3560284, "parent_name": "Nagano Prefecture", "parent_iso": "JP-20"}, "geometry": {"type": "Polygon", "coordinates": [[[138.6444, 36.4114], [138.6371, 36.4172], [138.6266, 36.4155], [138.6126, 36.4227], [138.5924, 36.4244], [138.555, 36.4178], [138.5406, 36.4029], [138.5199, 36.4067], [138.5143, 36.4033], [138.5077, 36.3955], [138.5148, 36.3574], [138.5231, 36.3427], [138.5198, 36.3309], [138.5238, 36.3328], [138.5332, 36.3246], [138.5592, 36.3255], [138.5517, 36.3167], [138.5554, 36.3039], [138.5696, 36.2992], [138.5798, 36.2822], [138.6072, 36.2796], [138.6125, 36.2857], [138.6449, 36.2945], [138.6534, 36.303], [138.6478, 36.3156], [138.6533, 36.3244], [138.6501, 36.3525], [138.6572, 36.3689], [138.6496, 36.3789], [138.6522, 36.3951], [138.6444, 36.4114]]]}}, {"type": "Feature", "properties": {"osm_type": "relation", "osm_id": 490137676, "name": "Miyota", "admin_level": "6", "kind": "subdivision_2", "parent_osm_id": 3560284, "parent_name": "Nagano Prefecture", "parent_iso": "JP-20"}, "geometry": {"type": "Polygon", "coordinates": [[[138.5199, 36.4067], [138.5068, 36.4139], [138.4965, 36.4091], [138.4926, 36.3924], [138.4807, 36.3869], [138.4603, 36.3517], [138.4722, 36.3488], [138.4773, 36.3551], [138.477, 36.343], [138.4792, 36.3517], [138.4862, 36.3509], [138.4898, 36.3609], [138.4928, 36.3596], [138.4784, 36.3378], [138.4829, 36.3306], [138.4826, 36.3146], [138.4892, 36.316], [138.4852, 36.3068], [138.4889, 36.3007], [138.4836, 36.2939], [138.487, 36.2901], [138.4943, 36.3042], [138.5011, 36.2964], [138.5186, 36.2947], [138.5267, 36.2829], [138.5423, 36.2857], [138.5579, 36.2797], [138.5769, 36.2801], [138.577, 36.2899], [138.5696, 36.2992], [138.5554, 36.3039], [138.5525, 36.3107], [138.5517, 36.3167], [138.5592, 36.3255], [138.5332, 36.3246], [138.5238, 36.3328], [138.5198, 36.3309], [138.5231, 36.3427], [138.5148, 36.3574], [138.5077, 36.3955], [138.5199, 36.4067]]]}}, {"type": "Feature", "properties": {"osm_type": "relation", "osm_id": 654501404, "name": "Komoro", "admin_level": "6", "kind": "subdivision_2", "parent_osm_id": 3560284, "parent_name": "Nagano Prefecture", "parent_iso": "JP-20"}, "geometry": {"type": "Polygon", "coordinates": [[[138.5068, 36.4139], [138.4921, 36.4133], [138.489, 36.4009], [138.4596, 36.4048], [138.4577, 36.4116], [138.444, 36.3982], [138.4356, 36.3816], [138.4122, 36.3712], [138.3941, 36.3728], [138.3814, 36.3521], [138.3869, 36.3523], [138.3797, 36.344], [138.3857, 36.3368], [138.3665, 36.3326], [138.3634, 36.3257], [138.3727, 36.3172], [138.3765, 36.3051], [138.3928, 36.2942], [138.3999, 36.2982], [138.4169, 36.2918], [138.4171, 36.2816], [138.4245, 36.276], [138.425, 36.2843], [138.4464, 36.2804], [138.4693, 36.2944], [138.48, 36.2945], [138.4851, 36.2995], [138.4776, 36.3047], [138.483, 36.3192], [138.4784, 36.3378], [138.4928, 36.3596], [138.4898, 36.3609], [138.4862, 36.3509], [138.4792, 36.3517], [138.477, 36.343], [138.4773, 36.3551], [138.4722, 36.3488], [138.4603, 36.3517], [138.4807, 36.3869], [138.4926, 36.3924], [138.4965, 36.4091], [138.5068, 36.4139]]]}}, {"type": "Feature", "properties": {"osm_type": "relation", "osm_id": 859173373, "name": "Tomi", "admin_level": "6", "kind": "subdivision_2", "parent_osm_id": 3560284, "parent_name": "Nagano Prefecture", "parent_iso": "JP-20"}, "geometry": {"type": "Polygon", "coordinates": [[[138.4577, 36.4116], [138.457, 36.4202], [138.4472, 36.4193], [138.401, 36.4347], [138.3582, 36.4306], [138.3469, 36.4211], [138.3446, 36.4059], [138.329, 36.4], [138.327, 36.3948], [138.3095, 36.386], [138.3089, 36.3806], [138.2969, 36.3802], [138.2942, 36.375], [138.3031, 36.3637], [138.3214, 36.3579], [138.3188, 36.3533], [138.3234, 36.347], [138.315, 36.3284], [138.2988, 36.3192], [138.2947, 36.3089], [138.3242, 36.307], [138.3357, 36.3244], [138.3403, 36.3227], [138.3372, 36.3075], [138.3421, 36.2923], [138.3684, 36.2996], [138.3751, 36.2951], [138.3745, 36.2891], [138.3863, 36.2976], [138.3651, 36.3216], [138.3665, 36.3326], [138.3857, 36.3368], [138.3797, 36.344], [138.3869, 36.3523], [138.3814, 36.3521], [138.3941, 36.3728], [138.4122, 36.3712], [138.4356, 36.3816], [138.444, 36.3982], [138.4577, 36.4116]]]}}, {"type": "Feature", "properties": {"osm_type": "relation", "osm_id": 683701929, "name": "Ueda", "admin_level": "6", "kind": "subdivision_2", "parent_osm_id": 3560284, "parent_name": "Nagano Prefecture", "parent_iso": "JP-20"}, "geometry": {"type": "Polygon", "coordinates": [[[138.401, 36.4347], [138.4031, 36.4523], [138.3987, 36.453], [138.4033, 36.4669], [138.3971, 36.4906], [138.406, 36.5074], [138.4042, 36.5221], [138.414, 36.5326], [138.4124, 36.5415], [138.3915, 36.5536], [138.3688, 36.5528], [138.3562, 36.5492], [138.3519, 36.5413], [138.3342, 36.5375], [138.3114, 36.5504], [138.2939, 36.5323], [138.2774, 36.535], [138.2665, 36.5132], [138.2499, 36.5157], [138.2468, 36.51], [138.2394, 36.5095], [138.2295, 36.5142], [138.2163, 36.5073], [138.1998, 36.5112], [138.2018, 36.501], [138.2306, 36.4796], [138.2289, 36.4639], [138.2414, 36.457], [138.2498, 36.4441], [138.2487, 36.4333], [138.2161, 36.4294], [138.1688, 36.4152], [138.1286, 36.4382], [138.1143, 36.4341], [138.1155, 36.4038], [138.1351, 36.3953], [138.1476, 36.395], [138.1542, 36.3705], [138.1436, 36.3545], [138.1296, 36.3475], [138.1272, 36.3316], [138.1146, 36.3222], [138.1081, 36.3282], [138.081, 36.3123], [138.0825, 36.3076], [138.0729, 36.2977], [138.0691, 36.2849], [138.0828, 36.2618], [138.0791, 36.2511], [138.0925, 36.2372], [138.1025, 36.2365], [138.1071, 36.226], [138.1169, 36.219], [138.1338, 36.2311], [138.1548, 36.224], [138.1612, 36.2174], [138.1927, 36.2254], [138.2212, 36.2238], [138.2344, 36.2374], [138.234, 36.2471], [138.2461, 36.2513], [138.2435, 36.2781], [138.2555, 36.2935], [138.2689, 36.2959], [138.2757, 36.2855], [138.2832, 36.2874], [138.2834, 36.3069], [138.2916, 36.3229], [138.2965, 36.3183], [138.3086, 36.3229], [138.319, 36.3345], [138.3234, 36.347], [138.3188, 36.3533], [138.3226, 36.3563], [138.298, 36.3678], [138.3002, 36.3712], [138.2942, 36.375], [138.2969, 36.3802], [138.3089, 36.3806], [138.3095, 36.386], [138.327, 36.3948], [138.329, 36.4], [138.3446, 36.4059], [138.3469, 36.4211], [138.3582, 36.4306], [138.401, 36.4347]]]}}, {"type": "Feature", "properties": {"osm_type": "relation", "osm_id": 214836839, "name": "Sakuho", "admin_level": "6", "kind": "subdivision_2", "parent_osm_id": 3560284, "parent_name": "Nagano Prefecture", "parent_iso": "JP-20"}, "geometry": {"type": "Polygon", "coordinates": [[[138.6451, 36.1196], [138.6373, 36.1243], [138.6341, 36.134], [138.6007, 36.1356], [138.5933, 36.1531], [138.5773, 36.1681], [138.5498, 36.1705], [138.5193, 36.1654], [138.4885, 36.1715], [138.4839, 36.1792], [138.4725, 36.1689], [138.4332, 36.1671], [138.4192, 36.1563], [138.379, 36.1391], [138.3539, 36.1204], [138.3397, 36.1197], [138.3256, 36.1082], [138.328, 36.0915], [138.3201, 36.0874], [138.3342, 36.0848], [138.3344, 36.0685], [138.3456, 36.0611], [138.3481, 36.0477], [138.3534, 36.0467], [138.3671, 36.0539], [138.3677, 36.0687], [138.3805, 36.0637], [138.4139, 36.0788], [138.4585, 36.109], [138.4565, 36.1125], [138.4673, 36.1269], [138.4815, 36.1056], [138.499, 36.1067], [138.5028, 36.1027], [138.5155, 36.1145], [138.5323, 36.108], [138.545, 36.1129], [138.5822, 36.0966], [138.611, 36.0978], [138.6307, 36.0914], [138.6452, 36.0988], [138.6475, 36.1059], [138.6402, 36.1174], [138.6451, 36.1196]], [[138.4936, 36.1594], [138.4968, 36.1575], [138.4896, 36.1564], [138.4883, 36.1641], [138.4936, 36.1594]]]}}, {"type": "Feature", "properties": {"osm_type": "relation", "osm_id": 492638774, "name": "Kawakami", "admin_level": "6", "kind": "subdivision_2", "parent_osm_id": 3560284, "parent_name": "Nagano Prefecture", "parent_iso": "JP-20"}, "geometry": {"type": "Polygon", "coordinates": [[[138.7125, 35.9853], [138.6887, 35.9918], [138.6593, 35.9932], [138.6405, 35.9872], [138.6242, 35.9931], [138.5581, 35.9947], [138.5394, 35.9914], [138.5345, 35.9855], [138.523, 35.9861], [138.5169, 35.9767], [138.5068, 35.9891], [138.4996, 35.9856], [138.5041, 35.9744], [138.5147, 35.9754], [138.4862, 35.9582], [138.4833, 35.9486], [138.4977, 35.9114], [138.5106, 35.9223], [138.5294, 35.9145], [138.5538, 35.9189], [138.5767, 35.9114], [138.591, 35.9198], [138.6025, 35.9098], [138.6121, 35.9094], [138.6052, 35.8941], [138.6108, 35.8737], [138.6342, 35.87], [138.6582, 35.8758], [138.676, 35.8698], [138.6858, 35.8939], [138.708, 35.9096], [138.729, 35.9092], [138.7291, 35.9172], [138.7385, 35.929], [138.7393, 35.9391], [138.7114, 35.9713], [138.7125, 35.9853]]]}}, {"type": "Feature", "properties": {"osm_type": "relation", "osm_id": 992929644, "name": "Koumi", "admin_level": "6", "kind": "subdivision_2", "parent_osm_id": 3560284, "parent_name": "Nagano Prefecture", "parent_iso": "JP-20"}, "geometry": {"type": "Polygon", "coordinates": [[[138.4911, 36.0378], [138.4948, 36.0527], [138.501, 36.0538], [138.5161, 36.0726], [138.5608, 36.0746], [138.5832, 36.0873], [138.5822, 36.0966], [138.545, 36.1129], [138.5323, 36.108], [138.5155, 36.1145], [138.5028, 36.1027], [138.499, 36.1067], [138.4815, 36.1056], [138.4701, 36.1269], [138.4565, 36.1125], [138.4585, 36.109], [138.4021, 36.072], [138.3805, 36.0637], [138.3677, 36.0687], [138.3671, 36.0539], [138.3534, 36.0467], [138.3557, 36.0344], [138.3612, 36.0317], [138.3617, 36.0175], [138.3861, 36.0166], [138.4071, 36.0243], [138.4454, 36.0241], [138.4638, 36.0395], [138.4681, 36.0527], [138.4787, 36.0493], [138.486, 36.0367], [138.4911, 36.0378]]]}}, {"type": "Feature", "properties": {"osm_type": "relation", "osm_id": 607322920, "name": "Kitaaiki", "admin_level": "6", "kind": "subdivision_2", "parent_osm_id": 3560284, "parent_name": "Nagano Prefecture", "parent_iso": "JP-20"}, "geometry": {"type": "Polygon", "coordinates": [[[138.6307, 36.0914], [138.611, 36.0978], [138.5822, 36.0966], [138.5832, 36.0873], [138.5608, 36.0746], [138.5161, 36.0726], [138.5048, 36.0601], [138.5303, 36.0549], [138.5439, 36.0464], [138.5607, 36.0457], [138.5757, 36.0353], [138.6315, 36.0283], [138.6442, 36.0496], [138.6428, 36.0687], [138.6307, 36.0914]]]}}, {"type": "Feature", "properties": {"osm_type": "relation", "osm_id": 121738663, "name": "Minamiaiki", "admin_level": "6", "kind": "subdivision_2", "parent_osm_id": 3560284, "parent_name": "Nagano Prefecture", "parent_iso": "JP-20"}, "geometry": {"type": "Polygon", "coordinates": [[[138.6315, 36.0283], [138.5757, 36.0353], [138.5607, 36.0457], [138.5439, 36.0464], [138.5303, 36.0549], [138.5081, 36.06], [138.492, 36.048], [138.4911, 36.0378], [138.5025, 36.0387], [138.5024, 36.03], [138.5106, 36.024], [138.5337, 36.0193], [138.5541, 36.0064], [138.5581, 35.9947], [138.5671, 35.9918], [138.6242, 35.9931], [138.6405, 35.9872], [138.6593, 35.9932], [138.6887, 35.9918], [138.6797, 36.0116], [138.6617, 36.012], [138.6614, 36.0164], [138.6315, 36.0283]]]}}, {"type": "Feature", "properties": {"osm_type": "relation", "osm_id": 906705741, "name": "Saku", "admin_level": "6", "kind": "subdivision_2", "parent_osm_id": 3560284, "parent_name": "Nagano Prefecture", "parent_iso": "JP-20"}, "geometry": {"type": "MultiPolygon", "coordinates": [[[[138.4936, 36.1594], [138.4883, 36.1641], [138.4896, 36.1564], [138.4968, 36.1575], [138.4936, 36.1594]]], [[[138.6003, 36.2784], [138.5798, 36.2822], [138.5579, 36.2797], [138.5423, 36.2857], [138.5267, 36.2829], [138.5186, 36.2947], [138.5011, 36.2964], [138.4943, 36.3042], [138.487, 36.2901], [138.4836, 36.2939], [138.4889, 36.3007], [138.4852, 36.3068], [138.4892, 36.316], [138.4772, 36.3101], [138.4851, 36.2995], [138.48, 36.2945], [138.4693, 36.2944], [138.4464, 36.2804], [138.425, 36.2843], [138.4245, 36.276], [138.4171, 36.2816], [138.4169, 36.2918], [138.3999, 36.2982], [138.3928, 36.2942], [138.3863, 36.2976], [138.3745, 36.2891], [138.3751, 36.2951], [138.3684, 36.2996], [138.3432, 36.2945], [138.3396, 36.2875], [138.3443, 36.2828], [138.3329, 36.2769], [138.3379, 36.2727], [138.3386, 36.262], [138.3089, 36.2396], [138.2889, 36.1996], [138.2801, 36.1646], [138.2825, 36.1495], [138.3016, 36.1272], [138.3017, 36.1109], [138.3178, 36.1124], [138.3256, 36.1082], [138.3397, 36.1197], [138.3539, 36.1204], [138.379, 36.1391], [138.4192, 36.1563], [138.4332, 36.1671], [138.4725, 36.1689], [138.4839, 36.1792], [138.4885, 36.1715], [138.5193, 36.1654], [138.5498, 36.1705], [138.5773, 36.1681], [138.583, 36.1787], [138.5896, 36.1768], [138.589, 36.1705], [138.5946, 36.1656], [138.6078, 36.1617], [138.6128, 36.1686], [138.6359, 36.1709], [138.6228, 36.1969], [138.6367, 36.2043], [138.6332, 36.2161], [138.6222, 36.2146], [138.6119, 36.2294], [138.6125, 36.2409], [138.6022, 36.2495], [138.6059, 36.2668], [138.6003, 36.2784]]]]}}, {"type": "Feature", "properties": {"osm_type": "relation", "osm_id": 223537357, "name": "Tateshina", "admin_level": "6", "kind": "subdivision_2", "parent_osm_id": 3560284, "parent_name": "Nagano Prefecture", "parent_iso": "JP-20"}, "geometry": {"type": "Polygon", "coordinates": [[[138.2988, 36.3192], [138.2916, 36.3229], [138.2834, 36.3069], [138.2856, 36.2896], [138.281, 36.2814], [138.2884, 36.2671], [138.2878, 36.2576], [138.2993, 36.2462], [138.2828, 36.2204], [138.2845, 36.1937], [138.2755, 36.1515], [138.255, 36.1253], [138.234, 36.108], [138.2434, 36.1057], [138.2466, 36.095], [138.2754, 36.0863], [138.2867, 36.0899], [138.3017, 36.1109], [138.3016, 36.1272], [138.2825, 36.1495], [138.2801, 36.1646], [138.2889, 36.1996], [138.3089, 36.2396], [138.3386, 36.262], [138.3379, 36.2727], [138.3329, 36.2769], [138.3443, 36.2828], [138.3401, 36.2853], [138.3424, 36.2981], [138.3372, 36.3075], [138.3403, 36.3227], [138.3357, 36.3244], [138.3242, 36.307], [138.3172, 36.3063], [138.297, 36.3072], [138.2988, 36.3192]]]}}, {"type": "Feature", "properties": {"osm_type": "relation", "osm_id": 671826502, "name": "Suzaka", "admin_level": "6", "kind": "subdivision_2", "parent_osm_id": 3560284, "parent_name": "Nagano Prefecture", "parent_iso": "JP-20"}, "geometry": {"type": "Polygon", "coordinates": [[[138.4124, 36.5415], [138.4288, 36.5562], [138.4284, 36.5687], [138.4203, 36.5772], [138.4288, 36.5979], [138.4414, 36.6], [138.4416, 36.6107], [138.3941, 36.6331], [138.3837, 36.6479], [138.3702, 36.6442], [138.3463, 36.6481], [138.3315, 36.6822], [138.3163, 36.6881], [138.2801, 36.6866], [138.2573, 36.6401], [138.2822, 36.6274], [138.2893, 36.6131], [138.3055, 36.5994], [138.3074, 36.5731], [138.3189, 36.5634], [138.3081, 36.5534], [138.3342, 36.5375], [138.3519, 36.5413], [138.3562, 36.5492], [138.3821, 36.5547], [138.4124, 36.5415]]]}}, {"type": "Feature", "properties": {"osm_type": "relation", "osm_id": 460947330, "name": "Nagano", "admin_level": "6", "kind": "subdivision_2", "parent_osm_id": 3560284, "parent_name": "Nagano Prefecture", "parent_iso": "JP-20"}, "geometry": {"type": "Polygon", "coordinates": [[[138.3114, 36.5504], [138.3085, 36.5554], [138.3189, 36.5634], [138.3074, 36.5731], [138.3055, 36.5994], [138.2893, 36.6131], [138.2822, 36.6274], [138.2573, 36.6401], [138.2829, 36.6861], [138.2833, 36.7031], [138.2903, 36.708], [138.29, 36.7148], [138.311, 36.7209], [138.3084, 36.7391], [138.3115, 36.7428], [138.2908, 36.7468], [138.2739, 36.7396], [138.2661, 36.7464], [138.2613, 36.7411], [138.2645, 36.7368], [138.2608, 36.7277], [138.2513, 36.7232], [138.2515, 36.7192], [138.2314, 36.721], [138.2157, 36.709], [138.1946, 36.7127], [138.1732, 36.7281], [138.1338, 36.7408], [138.1401, 36.7475], [138.1225, 36.7623], [138.1201, 36.7743], [138.1264, 36.7846], [138.0985, 36.7796], [138.0953, 36.8009], [138.1016, 36.8096], [138.0892, 36.8357], [138.073, 36.8168], [138.0752, 36.8105], [138.0713, 36.8059], [138.0522, 36.8], [138.0518, 36.8075], [138.0338, 36.8088], [138.0289, 36.8171], [138.0035, 36.8264], [137.9807, 36.8017], [137.9758, 36.7872], [137.9677, 36.781], [137.9679, 36.771], [137.9578, 36.7628], [137.9533, 36.7485], [137.9323, 36.7244], [137.9234, 36.7001], [137.914, 36.6917], [137.9174, 36.6819], [137.9101, 36.6616], [137.9157, 36.658], [137.9321, 36.6624], [137.9363, 36.6696], [137.9448, 36.6721], [137.9698, 36.6679], [137.975, 36.6726], [137.989, 36.6628], [138.0131, 36.6575], [138.0005, 36.6389], [138.0022, 36.6005], [137.986, 36.5966], [137.9769, 36.6028], [137.963, 36.6038], [137.9525, 36.595], [137.9418, 36.5948], [137.9343, 36.5729], [137.9171, 36.5473], [137.9308, 36.5197], [137.9399, 36.5167], [137.9557, 36.527], [137.9667, 36.5169], [137.9613, 36.5084], [137.9639, 36.5057], [137.9502, 36.5007], [137.957, 36.4903], [137.9565, 36.4853], [137.9493, 36.4827], [137.9684, 36.4614], [137.9771, 36.4607], [138.0055, 36.4801], [138.0391, 36.4878], [138.0296, 36.4907], [138.0351, 36.511], [138.0439, 36.5197], [138.0463, 36.5397], [138.0565, 36.5426], [138.0663, 36.5399], [138.0813, 36.5439], [138.1002, 36.5395], [138.1154, 36.5419], [138.133, 36.5582], [138.1678, 36.5592], [138.1712, 36.5488], [138.1905, 36.5394], [138.1994, 36.5229], [138.1998, 36.5112], [138.2163, 36.5073], [138.2295, 36.5142], [138.2394, 36.5095], [138.2468, 36.51], [138.2499, 36.5157], [138.2665, 36.5132], [138.2774, 36.535], [138.2939, 36.5323], [138.3114, 36.5504]]]}}, {"type": "Feature", "properties": {"osm_type": "relation", "osm_id": 398487924, "name": "Matsumoto", "admin_level": "6", "kind": "subdivision_2", "parent_osm_id": 3560284, "parent_name": "Nagano Prefecture", "parent_iso": "JP-20"}, "geometry": {"type": "Polygon", "coordinates": [[[138.081, 36.3123], [138.071, 36.3165], [138.0715, 36.3249], [138.0644, 36.3335], [138.0792, 36.3721], [138.0633, 36.3727], [138.0517, 36.3794], [138.0338, 36.3787], [138.02, 36.3757], [138.0106, 36.3679], [137.999, 36.3712], [137.9965, 36.3768], [137.9803, 36.376], [137.9688, 36.3641], [137.9572, 36.3628], [137.9533, 36.3439], [137.9575, 36.3406], [137.9458, 36.3276], [137.9583, 36.3172], [137.9695, 36.3177], [137.9781, 36.305], [137.9446, 36.2879], [137.9433, 36.2791], [137.9183, 36.2464], [137.8664, 36.2374], [137.8354, 36.2409], [137.8394, 36.2438], [137.8327, 36.2463], [137.8231, 36.2466], [137.8172, 36.2405], [137.794, 36.2412], [137.7881, 36.2431], [137.7987, 36.2631], [137.7933, 36.2828], [137.7882, 36.2837], [137.7823, 36.2762], [137.7495, 36.2746], [137.7257, 36.2877], [137.721, 36.3024], [137.7281, 36.3209], [137.727, 36.3421], [137.7212, 36.3529], [137.701, 36.365], [137.6929, 36.3627], [137.6788, 36.337], [137.6456, 36.3413], [137.6524, 36.3218], [137.6489, 36.3089], [137.6531, 36.3047], [137.6469, 36.2965], [137.6478, 36.2891], [137.6147, 36.2648], [137.5897, 36.2286], [137.5837, 36.2272], [137.583, 36.2204], [137.573, 36.2184], [137.5787, 36.1974], [137.5952, 36.1904], [137.5911, 36.1863], [137.5951, 36.172], [137.5912, 36.1641], [137.5703, 36.1555], [137.568, 36.1482], [137.5547, 36.1402], [137.5605, 36.1302], [137.5509, 36.1099], [137.5777, 36.0853], [137.5968, 36.0758], [137.6139, 36.0764], [137.6137, 36.0596], [137.5983, 36.0432], [137.5995, 36.0259], [137.6072, 36.0253], [137.6129, 36.0184], [137.6331, 36.0268], [137.6626, 36.0116], [137.6725, 36.0108], [137.6815, 36.0168], [137.7038, 36.0101], [137.7371, 36.0478], [137.7357, 36.0696], [137.7471, 36.0813], [137.778, 36.0994], [137.8002, 36.1366], [137.8144, 36.1508], [137.8398, 36.1612], [137.8461, 36.1704], [137.875, 36.1866], [137.8976, 36.1881], [137.9011, 36.1746], [137.8846, 36.1465], [137.8923, 36.1405], [137.885, 36.1301], [137.8939, 36.1307], [137.9104, 36.1473], [137.9175, 36.1487], [137.9195, 36.154], [137.9146, 36.156], [137.9241, 36.1641], [137.9331, 36.1625], [137.9243, 36.1448], [137.9422, 36.15], [137.9475, 36.1705], [137.9676, 36.1704], [137.9685, 36.1468], [137.9795, 36.1588], [138.0423, 36.1481], [138.0455, 36.1613], [138.0539, 36.1683], [138.0779, 36.1568], [138.104, 36.1639], [138.121, 36.1627], [138.1278, 36.1665], [138.1312, 36.1767], [138.1262, 36.1836], [138.1293, 36.2117], [138.0791, 36.2511], [138.0828, 36.2618], [138.0691, 36.2849], [138.0729, 36.2977], [138.0825, 36.3076], [138.081, 36.3123]]]}}, {"type": "Feature", "properties": {"osm_type": "relation", "osm_id": 381829499, "name": "Okaya", "admin_level": "6", "kind": "subdivision_2", "parent_osm_id": 3560284, "parent_name": "Nagano Prefecture", "parent_iso": "JP-20"}, "geometry": {"type": "Polygon", "coordinates": [[[138.0423, 36.1481], [138.0302, 36.1143], [138.0287, 36.0855], [138.0229, 36.0759], [138.0171, 36.0787], [138.0128, 36.07], [138.016, 36.0622], [137.9997, 36.0408], [137.992, 36.0141], [138.0373, 36.0123], [138.0554, 36.0241], [138.0676, 36.0179], [138.0788, 36.0288], [138.0861, 36.0501], [138.0728, 36.0648], [138.075, 36.0736], [138.0693, 36.0956], [138.0725, 36.1195], [138.0798, 36.1292], [138.0842, 36.1247], [138.0935, 36.1281], [138.0999, 36.1236], [138.0985, 36.1383], [138.0921, 36.15], [138.0925, 36.1384], [138.0818, 36.1467], [138.0883, 36.1575], [138.0779, 36.1568], [138.0591, 36.1677], [138.0455, 36.1613], [138.0423, 36.1481]]]}}, {"type": "Feature", "properties": {"osm_type": "relation", "osm_id": 567653139, "name": "Iida", "admin_level": "6", "kind": "subdivision_2", "parent_osm_id": 3560284, "parent_name": "Nagano Prefecture", "parent_iso": "JP-20"}, "geometry": {"type": "Polygon", "coordinates": [[[137.8087, 35.6439], [137.8099, 35.6483], [137.8013, 35.6557], [137.7774, 35.6317], [137.7601, 35.6276], [137.7375, 35.613], [137.7296, 35.6134], [137.7153, 35.5992], [137.7204, 35.5862], [137.7006, 35.5778], [137.6894, 35.5687], [137.6907, 35.5622], [137.6943, 35.5541], [137.7043, 35.5526], [137.7177, 35.5214], [137.7446, 35.5113], [137.7406, 35.5014], [137.7262, 35.4893], [137.7352, 35.4784], [137.7322, 35.4723], [137.7397, 35.4704], [137.7449, 35.4616], [137.753, 35.4558], [137.7587, 35.4653], [137.7625, 35.4613], [137.76, 35.4398], [137.7669, 35.4214], [137.779, 35.4191], [137.7836, 35.4255], [137.792, 35.427], [137.8141, 35.4242], [137.8161, 35.4183], [137.826, 35.4178], [137.8308, 35.412], [137.8654, 35.3978], [137.8705, 35.3881], [137.8872, 35.386], [137.8939, 35.3794], [137.891, 35.3735], [137.9038, 35.3633], [137.9024, 35.3598], [137.9136, 35.357], [137.9276, 35.3606], [137.9241, 35.3449], [137.8962, 35.3224], [137.8529, 35.3238], [137.8448, 35.3127], [137.8603, 35.3111], [137.8647, 35.2889], [137.8786, 35.294], [137.9001, 35.2807], [137.8954, 35.258], [137.9186, 35.2544], [137.9293, 35.2755], [137.9673, 35.2842], [137.9734, 35.293], [137.9824, 35.2924], [137.9921, 35.3017], [138.0057, 35.3044], [138.0188, 35.3011], [138.0277, 35.3116], [138.0261, 35.3202], [138.039, 35.326], [138.0384, 35.3337], [138.0506, 35.3355], [138.0613, 35.3472], [138.0712, 35.3471], [138.0844, 35.3379], [138.0963, 35.3399], [138.0938, 35.35], [138.097, 35.3543], [138.124, 35.368], [138.1293, 35.3653], [138.1411, 35.3695], [138.1525, 35.398], [138.1444, 35.4061], [138.1349, 35.4077], [138.1398, 35.4226], [138.1215, 35.4286], [138.1205, 35.4546], [138.1073, 35.4732], [138.0945, 35.4747], [138.0811, 35.4853], [138.0386, 35.4576], [138.0297, 35.4702], [137.9911, 35.4932], [137.984, 35.4739], [137.962, 35.4479], [137.964, 35.4416], [137.9516, 35.4292], [137.9469, 35.4271], [137.9184, 35.4386], [137.9126, 35.4465], [137.9158, 35.4526], [137.912, 35.4637], [137.8867, 35.4684], [137.8834, 35.4773], [137.8767, 35.4776], [137.871, 35.4901], [137.883, 35.4899], [137.8827, 35.4974], [137.8626, 35.4993], [137.8629, 35.5117], [137.8777, 35.53], [137.8456, 35.5493], [137.8362, 35.5484], [137.8287, 35.5617], [137.811, 35.5683], [137.8236, 35.594], [137.8152, 35.6029], [137.8236, 35.6156], [137.8184, 35.6355], [137.8087, 35.6439]]]}}, {"type": "Feature", "properties": {"osm_type": "relation", "osm_id": 431264402, "name": "Suwa", "admin_level": "6", "kind": "subdivision_2", "parent_osm_id": 3560284, "parent_name": "Nagano Prefecture", "parent_iso": "JP-20"}, "geometry": {"type": "Polygon", "coordinates": [[[138.0373, 36.0123], [138.0368, 36.0016], [138.0453, 35.9996], [138.0488, 35.9714], [138.0355, 35.9595], [138.0547, 35.947], [138.074, 35.9503], [138.0796, 35.9605], [138.1133, 35.9733], [138.1158, 35.9864], [138.1337, 36.0004], [138.1291, 36.0035], [138.1372, 36.0034], [138.1355, 36.0096], [138.1573, 36.0151], [138.1578, 36.0337], [138.1514, 36.0365], [138.1729, 36.0559], [138.1805, 36.0893], [138.1914, 36.0913], [138.1906, 36.0972], [138.2004, 36.1104], [138.1899, 36.1164], [138.1886, 36.1241], [138.1656, 36.1225], [138.1716, 36.1125], [138.1641, 36.1122], [138.1745, 36.1053], [138.1386, 36.1001], [138.1377, 36.088], [138.1254, 36.0884], [138.1288, 36.0769], [138.1129, 36.0622], [138.0861, 36.0501], [138.0739, 36.0224], [138.0676, 36.0179], [138.0554, 36.0241], [138.0373, 36.0123]]]}}, {"type": "Feature", "properties": {"osm_type": "relation", "osm_id": 340228667, "name": "Achi", "admin_level": "6", "kind": "subdivision_2", "parent_osm_id": 3560284, "parent_name": "Nagano Prefecture", "parent_iso": "JP-20"}, "geometry": {"type": "Polygon", "coordinates": [[[137.6943, 35.5541], [137.6879, 35.5505], [137.6843, 35.5364], [137.6746, 35.5318], [137.6486, 35.5306], [137.6438, 35.511], [137.6318, 35.5092], [137.6245, 35.5006], [137.6317, 35.47], [137.6183, 35.4678], [137.5931, 35.4469], [137.6153, 35.4308], [137.622, 35.4119], [137.632, 35.4107], [137.6444, 35.3805], [137.643, 35.3696], [137.6532, 35.3584], [137.6778, 35.3429], [137.6906, 35.3405], [137.7153, 35.3478], [137.7237, 35.3601], [137.7252, 35.3565], [137.7408, 35.3639], [137.744, 35.3701], [137.7382, 35.3744], [137.7394, 35.3824], [137.7282, 35.3846], [137.7391, 35.4001], [137.7588, 35.4083], [137.7706, 35.4205], [137.761, 35.4314], [137.7625, 35.4613], [137.7587, 35.4653], [137.753, 35.4558], [137.7449, 35.4616], [137.7397, 35.4704], [137.7322, 35.4723], [137.7352, 35.4784], [137.7262, 35.4893], [137.7406, 35.5014], [137.7446, 35.5113], [137.7177, 35.5214], [137.7043, 35.5526], [137.6943, 35.5541]]]}}, {"type": "Feature", "properties": {"osm_type": "relation", "osm_id": 875770820, "name": "Anan", "admin_level": "6", "kind": "subdivision_2", "parent_osm_id": 3560284, "parent_name": "Nagano Prefecture", "parent_iso": "JP-20"}, "geometry": {"type": "Polygon", "coordinates": [[[137.7219, 35.2308], [137.7305, 35.2374], [137.749, 35.2412], [137.7622, 35.2534], [137.7681, 35.2525], [137.7723, 35.2716], [137.7935, 35.2922], [137.8021, 35.2947], [137.8045, 35.2886], [137.8124, 35.3], [137.821, 35.2987], [137.8394, 35.306], [137.8423, 35.3119], [137.8328, 35.3269], [137.8444, 35.344], [137.8332, 35.3504], [137.8263, 35.3654], [137.8125, 35.3742], [137.8129, 35.3895], [137.8086, 35.3916], [137.8059, 35.3854], [137.7949, 35.3833], [137.7997, 35.3757], [137.7896, 35.3727], [137.7838, 35.3612], [137.7719, 35.3553], [137.7712, 35.3471], [137.744, 35.3701], [137.7357, 35.3599], [137.7252, 35.3565], [137.7237, 35.3601], [137.7153, 35.3478], [137.6884, 35.3417], [137.6873, 35.3215], [137.6761, 35.3131], [137.675, 35.3066], [137.7032, 35.2968], [137.7255, 35.3017], [137.733, 35.2927], [137.7322, 35.2703], [137.7201, 35.2508], [137.7253, 35.2435], [137.7149, 35.2313], [137.7077, 35.232], [137.7219, 35.2308]]]}}, {"type": "Feature", "properties": {"osm_type": "relation", "osm_id": 322289984, "name": "Adumino", "admin_level": "6", "kind": "subdivision_2", "parent_osm_id": 3560284, "parent_name": "Nagano Prefecture", "parent_iso": "JP-20"}, "geometry": {"type": "Polygon", "coordinates": [[[137.9915, 36.3767], [137.9904, 36.3874], [137.9819, 36.3905], [137.9727, 36.4045], [137.9573, 36.3948], [137.95, 36.3841], [137.943, 36.3865], [137.9297, 36.3817], [137.9263, 36.3919], [137.93, 36.4011], [137.9211, 36.4082], [137.9247, 36.4115], [137.9181, 36.412], [137.9098, 36.4027], [137.9156, 36.3926], [137.9105, 36.3897], [137.9036, 36.3952], [137.9015, 36.39], [137.9119, 36.3682], [137.8881, 36.364], [137.8674, 36.3866], [137.8534, 36.3938], [137.8311, 36.381], [137.8253, 36.3912], [137.8102, 36.3949], [137.7907, 36.3921], [137.7777, 36.3977], [137.7705, 36.3918], [137.7552, 36.4017], [137.7469, 36.4184], [137.727, 36.4253], [137.7122, 36.4169], [137.7152, 36.4012], [137.7063, 36.3871], [137.709, 36.3767], [137.701, 36.365], [137.7212, 36.3529], [137.727, 36.3421], [137.7281, 36.3209], [137.721, 36.3024], [137.7257, 36.2877], [137.7495, 36.2746], [137.7823, 36.2762], [137.7882, 36.2837], [137.7933, 36.2828], [137.7987, 36.2631], [137.7881, 36.2431], [137.8172, 36.2405], [137.8231, 36.2466], [137.8327, 36.2463], [137.8394, 36.2438], [137.8354, 36.2409], [137.8664, 36.2374], [137.9183, 36.2464], [137.9433, 36.2791], [137.9446, 36.2879], [137.9781, 36.305], [137.9695, 36.3177], [137.9583, 36.3172], [137.9458, 36.3276], [137.9575, 36.3406], [137.9533, 36.3439], [137.9572, 36.3628], [137.9688, 36.3641], [137.9803, 36.376], [137.9915, 36.3767]]]}}, {"type": "Feature", "properties": {"osm_type": "relation", "osm_id": 600101943, "name": "Ina", "admin_level": "6", "kind": "subdivision_2", "parent_osm_id": 3560284, "parent_name": "Nagano Prefecture", "parent_iso": "JP-20"}, "geometry": {"type": "Polygon", "coordinates": [[[138.0865, 35.9602], [138.0901, 35.9455], [138.0671, 35.9157], [138.0554, 35.9194], [138.047, 35.9156], [138.0373, 35.8977], [138.0161, 35.8851], [137.9886, 35.8783], [137.9836, 35.8633], [137.9734, 35.8537], [137.9549, 35.865], [137.9469, 35.85], [137.9062, 35.8579], [137.9061, 35.8623], [137.9286, 35.8641], [137.929, 35.872], [137.9353, 35.8713], [137.9404, 35.8639], [137.9487, 35.8666], [137.9529, 35.8757], [137.9331, 35.8813], [137.9394, 35.8944], [137.9532, 35.8903], [137.9502, 35.9018], [137.923, 35.9052], [137.9224, 35.8997], [137.9051, 35.8954], [137.8907, 35.9016], [137.882, 35.8993], [137.8765, 35.8789], [137.8906, 35.8606], [137.8665, 35.8714], [137.8563, 35.8677], [137.8541, 35.8596], [137.8468, 35.858], [137.8473, 35.8347], [137.8241, 35.8131], [137.8283, 35.8062], [137.8685, 35.8038], [137.8811, 35.7847], [137.9196, 35.7789], [137.9241, 35.7816], [137.9267, 35.776], [137.9466, 35.7712], [137.959, 35.781], [137.9689, 35.7692], [137.9804, 35.7812], [137.9863, 35.7815], [138.0399, 35.7669], [138.0522, 35.7401], [138.062, 35.7339], [138.0614, 35.7035], [138.0771, 35.6943], [138.0795, 35.6794], [138.092, 35.655], [138.1019, 35.647], [138.1053, 35.6272], [138.1011, 35.6149], [138.111, 35.6001], [138.1261, 35.5925], [138.1308, 35.5813], [138.1518, 35.571], [138.1674, 35.5829], [138.1844, 35.5731], [138.2061, 35.6084], [138.2034, 35.6322], [138.2187, 35.6445], [138.2055, 35.6643], [138.1933, 35.6723], [138.194, 35.6955], [138.1801, 35.7145], [138.2221, 35.7505], [138.2367, 35.7577], [138.2053, 35.7826], [138.1877, 35.7815], [138.1775, 35.7862], [138.1722, 35.8009], [138.1807, 35.8331], [138.176, 35.8388], [138.1889, 35.8578], [138.1878, 35.8631], [138.1776, 35.8673], [138.1836, 35.8734], [138.1777, 35.8784], [138.1814, 35.8869], [138.1741, 35.8907], [138.1693, 35.9048], [138.1722, 35.9161], [138.1653, 35.92], [138.1608, 35.9335], [138.1467, 35.9425], [138.1506, 35.9541], [138.1132, 35.9749], [138.092, 35.9674], [138.0865, 35.9602]]]}}, {"type": "Feature", "properties": {"osm_type": "relation", "osm_id": 376492164, "name": "Sakae", "admin_level": "6", "kind": "subdivision_2", "parent_osm_id": 3560284, "parent_name": "Nagano Prefecture", "parent_iso": "JP-20"}, "geometry": {"type": "Polygon", "coordinates": [[[138.6903, 36.8457], [138.6932, 36.8548], [138.6869, 36.862], [138.6765, 36.8673], [138.6574, 36.868], [138.6355, 36.8834], [138.6252, 36.8826], [138.6178, 36.8919], [138.621, 36.9041], [138.6129, 36.9085], [138.5962, 36.9071], [138.5893, 36.9155], [138.592, 36.9254], [138.5831, 36.9296], [138.5863, 36.9869], [138.5757, 36.9966], [138.5659, 37.0213], [138.5365, 37.0209], [138.5207, 37.0294], [138.4913, 36.9871], [138.4988, 36.978], [138.5216, 36.9829], [138.5169, 36.9746], [138.4991, 36.9646], [138.4808, 36.9293], [138.4829, 36.9244], [138.497, 36.9247], [138.5141, 36.9086], [138.4939, 36.8857], [138.5014, 36.8763], [138.5013, 36.8643], [138.496, 36.8569], [138.5101, 36.8538], [138.5224, 36.8585], [138.5422, 36.8542], [138.551, 36.8575], [138.5567, 36.8519], [138.5413, 36.8365], [138.5522, 36.82], [138.5644, 36.8185], [138.5756, 36.81], [138.6086, 36.8131], [138.6194, 36.8095], [138.6336, 36.7906], [138.6266, 36.7542], [138.6418, 36.7352], [138.6421, 36.7238], [138.6959, 36.7385], [138.688, 36.7658], [138.6734, 36.77], [138.669, 36.7791], [138.6842, 36.7879], [138.6955, 36.807], [138.6796, 36.8211], [138.69, 36.8324], [138.6903, 36.8457]]]}}, {"type": "Feature", "properties": {"osm_type": "relation", "osm_id": 699668331, "name": "Shiojiri", "admin_level": "6", "kind": "subdivision_2", "parent_osm_id": 3560284, "parent_name": "Nagano Prefecture", "parent_iso": "JP-20"}, "geometry": {"type": "Polygon", "coordinates": [[[137.8939, 36.1307], [137.8989, 36.1208], [137.8902, 36.1189], [137.8707, 36.0935], [137.8628, 36.0918], [137.8519, 36.0764], [137.8409, 36.0723], [137.8391, 36.0645], [137.8271, 36.055], [137.8153, 36.0545], [137.8104, 36.038], [137.8066, 35.9731], [137.8006, 35.9693], [137.7956, 35.9543], [137.8012, 35.9219], [137.8067, 35.9145], [137.8047, 35.8987], [137.8146, 35.8876], [137.8161, 35.8786], [137.8065, 35.8696], [137.8044, 35.8504], [137.8108, 35.8463], [137.8059, 35.8343], [137.8162, 35.8287], [137.8241, 35.8131], [137.8495, 35.8389], [137.8468, 35.858], [137.8541, 35.8596], [137.857, 35.8772], [137.8472, 35.8903], [137.8514, 35.9061], [137.8584, 35.912], [137.8517, 35.9239], [137.8348, 35.9282], [137.8293, 35.9459], [137.8494, 35.9614], [137.8513, 35.968], [137.8614, 35.9714], [137.8795, 36.0007], [137.9045, 36.0182], [137.8967, 36.0245], [137.9002, 36.0295], [137.9273, 36.0424], [137.9274, 36.0487], [137.9383, 36.0535], [137.9387, 36.0615], [137.9497, 36.0638], [137.9505, 36.0546], [137.9797, 36.0443], [138.0009, 36.0545], [138.0068, 36.0532], [138.016, 36.0622], [138.0128, 36.07], [138.0171, 36.0787], [138.0229, 36.0759], [138.0287, 36.0855], [138.0302, 36.1143], [138.0434, 36.1449], [137.9795, 36.1588], [137.9685, 36.1468], [137.9676, 36.1704], [137.9552, 36.1714], [137.9475, 36.1705], [137.9422, 36.15], [137.9278, 36.1437], [137.9243, 36.1448], [137.9331, 36.1625], [137.9241, 36.1641], [137.9146, 36.156], [137.9195, 36.154], [137.9175, 36.1487], [137.9104, 36.1473], [137.8939, 36.1307]]]}}, {"type": "Feature", "properties": {"osm_type": "relation", "osm_id": 785374942, "name": "Outaki", "admin_level": "6", "kind": "subdivision_2", "parent_osm_id": 3560284, "parent_name": "Nagano Prefecture", "parent_iso": "JP-20"}, "geometry": {"type": "Polygon", "coordinates": [[[137.3603, 35.796], [137.3812, 35.8013], [137.3918, 35.7986], [137.3964, 35.7908], [137.3933, 35.7777], [137.4345, 35.7709], [137.4402, 35.7586], [137.4596, 35.7614], [137.4681, 35.747], [137.4666, 35.7412], [137.4852, 35.7247], [137.4876, 35.7165], [137.5061, 35.7143], [137.5119, 35.7087], [137.5325, 35.7088], [137.5427, 35.7127], [137.543, 35.7179], [137.5535, 35.7191], [137.5498, 35.73], [137.5432, 35.7302], [137.5394, 35.7476], [137.533, 35.7537], [137.5664, 35.751], [137.5675, 35.7591], [137.5832, 35.7607], [137.586, 35.7664], [137.5991, 35.7701], [137.5968, 35.7795], [137.59, 35.7829], [137.5926, 35.7924], [137.6243, 35.7879], [137.6252, 35.7968], [137.6076, 35.7947], [137.607, 35.8142], [137.6188, 35.8293], [137.6114, 35.8392], [137.6076, 35.8394], [137.6054, 35.8343], [137.6093, 35.8303], [137.5961, 35.814], [137.5777, 35.8341], [137.5734, 35.8527], [137.5247, 35.8704], [137.5053, 35.8723], [137.4807, 35.893], [137.4586, 35.8893], [137.4487, 35.8929], [137.4376, 35.9051], [137.4194, 35.9045], [137.3808, 35.8924], [137.3644, 35.8789], [137.3676, 35.8607], [137.3611, 35.8462], [137.3321, 35.8407], [137.326, 35.8121], [137.3323, 35.8093], [137.3363, 35.7988], [137.3537, 35.8013], [137.3603, 35.796]]]}}, {"type": "Feature", "properties": {"osm_type": "relation", "osm_id": 274124297, "name": "Shimosuwa-Machi", "admin_level": "6", "kind": "subdivision_2", "parent_osm_id": 3560284, "parent_name": "Nagano Prefecture", "parent_iso": "JP-20"}, "geometry": {"type": "Polygon", "coordinates": [[[138.0883, 36.1575], [138.0818, 36.1467], [138.0925, 36.1384], [138.0921, 36.15], [138.1007, 36.126], [138.0842, 36.1247], [138.0762, 36.1286], [138.0693, 36.0956], [138.075, 36.0736], [138.0728, 36.0648], [138.0861, 36.0501], [138.1129, 36.0622], [138.1288, 36.0769], [138.1254, 36.0884], [138.1377, 36.088], [138.1386, 36.1001], [138.1745, 36.1053], [138.1641, 36.1122], [138.1716, 36.1125], [138.1545, 36.1298], [138.1533, 36.1375], [138.1347, 36.1482], [138.1339, 36.1629], [138.1278, 36.1665], [138.121, 36.1627], [138.104, 36.1639], [138.0883, 36.1575]]]}}, {"type": "Feature", "properties": {"osm_type": "relation", "osm_id": 878629635, "name": "Shimojo", "admin_level": "6", "kind": "subdivision_2", "parent_osm_id": 3560284, "parent_name": "Nagano Prefecture", "parent_iso": "JP-20"}, "geometry": {"type": "Polygon", "coordinates": [[[137.7706, 35.4205], [137.7588, 35.4083], [137.7391, 35.4001], [137.7282, 35.3846], [137.7394, 35.3824], [137.7394, 35.372], [137.7712, 35.3471], [137.7719, 35.3553], [137.7838, 35.3612], [137.7896, 35.3727], [137.7997, 35.3757], [137.7943, 35.3823], [137.8059, 35.3854], [137.8075, 35.4007], [137.8176, 35.4124], [137.8122, 35.4141], [137.8141, 35.4242], [137.792, 35.427], [137.7836, 35.4255], [137.779, 35.4191], [137.7706, 35.4205]]]}}, {"type": "Feature", "properties": {"osm_type": "relation", "osm_id": 876052103, "name": "Chino", "admin_level": "6", "kind": "subdivision_2", "parent_osm_id": 3560284, "parent_name": "Nagano Prefecture", "parent_iso": "JP-20"}, "geometry": {"type": "Polygon", "coordinates": [[[138.3617, 36.0175], [138.3561, 36.0429], [138.3481, 36.0477], [138.3456, 36.0611], [138.3344, 36.0685], [138.3342, 36.0848], [138.3201, 36.0874], [138.328, 36.0915], [138.3256, 36.1082], [138.3178, 36.1124], [138.3017, 36.1109], [138.2867, 36.0899], [138.2754, 36.0863], [138.2466, 36.095], [138.2475, 36.1008], [138.2347, 36.1105], [138.2169, 36.1052], [138.1995, 36.1077], [138.1906, 36.0972], [138.1914, 36.0913], [138.1805, 36.0893], [138.1729, 36.0559], [138.1514, 36.0365], [138.1578, 36.0337], [138.1573, 36.0151], [138.1355, 36.0096], [138.1372, 36.0034], [138.1291, 36.0035], [138.1337, 36.0004], [138.1158, 35.9864], [138.112, 35.9779], [138.1506, 35.9541], [138.1467, 35.9425], [138.1608, 35.9335], [138.1689, 35.9166], [138.1847, 35.9399], [138.1939, 35.9347], [138.201, 35.9395], [138.2185, 35.9407], [138.2182, 35.9457], [138.2065, 35.9444], [138.211, 35.9501], [138.1862, 35.9582], [138.1819, 35.9642], [138.1862, 35.965], [138.1796, 35.9681], [138.1832, 35.9748], [138.2075, 35.9748], [138.2126, 35.9765], [138.2143, 35.9846], [138.2312, 35.9846], [138.2859, 35.9755], [138.3705, 35.9714], [138.374, 35.9895], [138.3596, 36.0133], [138.3617, 36.0175]]]}}, {"type": "Feature", "properties": {"osm_type": "relation", "osm_id": 391736811, "name": "Miyada", "admin_level": "6", "kind": "subdivision_2", "parent_osm_id": 3560284, "parent_name": "Nagano Prefecture", "parent_iso": "JP-20"}, "geometry": {"type": "Polygon", "coordinates": [[[137.8283, 35.8062], [137.8046, 35.7895], [137.8093, 35.7814], [137.8287, 35.7696], [137.847, 35.7601], [137.8573, 35.7601], [137.8595, 35.7484], [137.9639, 35.7505], [137.9587, 35.7607], [137.959, 35.781], [137.9466, 35.7712], [137.9267, 35.776], [137.9241, 35.7816], [137.9196, 35.7789], [137.8811, 35.7847], [137.8624, 35.8061], [137.8283, 35.8062]]]}}, {"type": "Feature", "properties": {"osm_type": "relation", "osm_id": 768633873, "name": "Takagi", "admin_level": "6", "kind": "subdivision_2", "parent_osm_id": 3560284, "parent_name": "Nagano Prefecture", "parent_iso": "JP-20"}, "geometry": {"type": "Polygon", "coordinates": [[[137.9877, 35.4873], [137.9619, 35.5102], [137.9531, 35.5058], [137.9345, 35.5097], [137.9161, 35.5048], [137.8981, 35.5218], [137.8781, 35.5305], [137.8629, 35.5117], [137.8626, 35.4993], [137.8827, 35.4974], [137.883, 35.4899], [137.871, 35.4901], [137.8767, 35.4776], [137.8834, 35.4773], [137.8867, 35.4684], [137.912, 35.4637], [137.9158, 35.4526], [137.9126, 35.4465], [137.9184, 35.4386], [137.9469, 35.4271], [137.964, 35.4416], [137.962, 35.4479], [137.984, 35.4739], [137.9877, 35.4873]]]}}, {"type": "Feature", "properties": {"osm_type": "relation", "osm_id": 352510128, "name": "Komagane", "admin_level": "6", "kind": "subdivision_2", "parent_osm_id": 3560284, "parent_name": "Nagano Prefecture", "parent_iso": "JP-20"}, "geometry": {"type": "Polygon", "coordinates": [[[137.96, 35.7782], [137.9587, 35.7607], [137.9639, 35.7505], [137.8747, 35.7476], [137.8669, 35.7515], [137.8595, 35.7484], [137.8573, 35.7601], [137.847, 35.7601], [137.8093, 35.7814], [137.8138, 35.7533], [137.8042, 35.7425], [137.8052, 35.7265], [137.8246, 35.7119], [137.8674, 35.7011], [137.8716, 35.6939], [137.9077, 35.706], [137.9517, 35.7005], [137.9555, 35.692], [137.9498, 35.6818], [137.9767, 35.6916], [137.9855, 35.6755], [137.9977, 35.6799], [138.0135, 35.6732], [138.0266, 35.6747], [138.0353, 35.6669], [138.044, 35.6747], [138.0472, 35.6991], [138.0614, 35.7035], [138.0643, 35.7106], [138.062, 35.7339], [138.0522, 35.7401], [138.0428, 35.755], [138.0451, 35.7609], [138.0291, 35.7724], [138.0016, 35.7794], [137.9804, 35.7812], [137.9689, 35.7692], [137.96, 35.7782]]]}}, {"type": "Feature", "properties": {"osm_type": "relation", "osm_id": 183407600, "name": "Hara", "admin_level": "6", "kind": "subdivision_2", "parent_osm_id": 3560284, "parent_name": "Nagano Prefecture", "parent_iso": "JP-20"}, "geometry": {"type": "Polygon", "coordinates": [[[138.2185, 35.9407], [138.2333, 35.9314], [138.2461, 35.9439], [138.2692, 35.9478], [138.2684, 35.9521], [138.2858, 35.9617], [138.3067, 35.9664], [138.3603, 35.9572], [138.3705, 35.9714], [138.2859, 35.9755], [138.2143, 35.9846], [138.2126, 35.9765], [138.1832, 35.9748], [138.1796, 35.9681], [138.1862, 35.965], [138.1819, 35.9642], [138.1862, 35.9582], [138.211, 35.9501], [138.2065, 35.9444], [138.2182, 35.9457], [138.2185, 35.9407]]]}}, {"type": "Feature", "properties": {"osm_type": "relation", "osm_id": 781728164, "name": "Takayama", "admin_level": "6", "kind": "subdivision_2", "parent_osm_id": 3560284, "parent_name": "Nagano Prefecture", "parent_iso": "JP-20"}, "geometry": {"type": "Polygon", "coordinates": [[[138.5251, 36.6513], [138.5343, 36.6663], [138.5138, 36.6676], [138.4925, 36.6769], [138.4741, 36.6762], [138.4687, 36.6863], [138.4246, 36.6982], [138.395, 36.696], [138.3646, 36.7037], [138.3556, 36.6951], [138.3483, 36.6967], [138.3408, 36.6918], [138.3414, 36.6864], [138.3315, 36.6822], [138.3463, 36.6481], [138.3702, 36.6442], [138.3837, 36.6479], [138.3941, 36.6331], [138.4416, 36.6107], [138.455, 36.6139], [138.4606, 36.6265], [138.4591, 36.6348], [138.4731, 36.644], [138.4901, 36.6412], [138.5251, 36.6513]]]}}, {"type": "Feature", "properties": {"osm_type": "relation", "osm_id": 976581687, "name": "Takamori", "admin_level": "6", "kind": "subdivision_2", "parent_osm_id": 3560284, "parent_name": "Nagano Prefecture", "parent_iso": "JP-20"}, "geometry": {"type": "Polygon", "coordinates": [[[137.8777, 35.53], [137.8878, 35.5427], [137.8968, 35.5667], [137.9177, 35.5739], [137.8901, 35.5911], [137.8709, 35.5951], [137.8726, 35.6003], [137.8347, 35.6053], [137.8236, 35.6156], [137.8152, 35.6029], [137.8236, 35.594], [137.811, 35.5683], [137.8287, 35.5617], [137.8362, 35.5484], [137.8456, 35.5493], [137.8777, 35.53]]]}}, {"type": "Feature", "properties": {"osm_type": "relation", "osm_id": 577974816, "name": "Neba", "admin_level": "6", "kind": "subdivision_2", "parent_osm_id": 3560284, "parent_name": "Nagano Prefecture", "parent_iso": "JP-20"}, "geometry": {"type": "Polygon", "coordinates": [[[137.6535, 35.2175], [137.6539, 35.2267], [137.6638, 35.2278], [137.6713, 35.2419], [137.6588, 35.266], [137.6446, 35.2721], [137.6343, 35.265], [137.6248, 35.2654], [137.6257, 35.2888], [137.6324, 35.3], [137.612, 35.3056], [137.6036, 35.3131], [137.5913, 35.3121], [137.5715, 35.3183], [137.5565, 35.3092], [137.5576, 35.2947], [137.5707, 35.2831], [137.5558, 35.2745], [137.5575, 35.2646], [137.5484, 35.2597], [137.546, 35.2518], [137.5526, 35.2403], [137.5787, 35.2194], [137.5787, 35.1985], [137.5915, 35.1993], [137.6143, 35.2103], [137.6446, 35.209], [137.6454, 35.214], [137.6535, 35.2175]]]}}, {"type": "Feature", "properties": {"osm_type": "relation", "osm_id": 490958450, "name": "Sakaki", "admin_level": "6", "kind": "subdivision_2", "parent_osm_id": 3560284, "parent_name": "Nagano Prefecture", "parent_iso": "JP-20"}, "geometry": {"type": "Polygon", "coordinates": [[[138.2018, 36.501], [138.197, 36.4928], [138.1762, 36.4855], [138.1732, 36.4735], [138.157, 36.4701], [138.1693, 36.4644], [138.1647, 36.4544], [138.1378, 36.4484], [138.1286, 36.4382], [138.1688, 36.4152], [138.2161, 36.4294], [138.2487, 36.4333], [138.2498, 36.4441], [138.2414, 36.457], [138.2289, 36.4639], [138.2306, 36.4796], [138.2018, 36.501]]]}}, {"type": "Feature", "properties": {"osm_type": "relation", "osm_id": 579100757, "name": "Yamanouchi", "admin_level": "6", "kind": "subdivision_2", "parent_osm_id": 3560284, "parent_name": "Nagano Prefecture", "parent_iso": "JP-20"}, "geometry": {"type": "Polygon", "coordinates": [[[138.5495, 36.8239], [138.5371, 36.8208], [138.5291, 36.8022], [138.5192, 36.8057], [138.4933, 36.7934], [138.4861, 36.8054], [138.4441, 36.813], [138.4324, 36.8201], [138.4164, 36.8019], [138.4038, 36.7992], [138.4035, 36.7885], [138.3834, 36.7719], [138.3977, 36.7617], [138.3877, 36.7458], [138.395, 36.7336], [138.3921, 36.7208], [138.3996, 36.7054], [138.4057, 36.6991], [138.4348, 36.6963], [138.4687, 36.6863], [138.4741, 36.6762], [138.4925, 36.6769], [138.5138, 36.6676], [138.5343, 36.6663], [138.5179, 36.677], [138.5199, 36.6891], [138.5143, 36.6908], [138.5569, 36.7065], [138.5749, 36.7071], [138.5833, 36.7013], [138.5977, 36.7147], [138.6111, 36.7066], [138.6218, 36.7202], [138.6421, 36.7238], [138.6418, 36.7352], [138.6266, 36.7542], [138.6336, 36.7906], [138.6194, 36.8095], [138.6086, 36.8131], [138.5756, 36.81], [138.5495, 36.8239]]]}}, {"type": "Feature", "properties": {"osm_type": "relation", "osm_id": 824924713, "name": "Yamagata", "admin_level": "6", "kind": "subdivision_2", "parent_osm_id": 3560284, "parent_name": "Nagano Prefecture", "parent_iso": "JP-20"}, "geometry": {"type": "Polygon", "coordinates": [[[137.8108, 36.1453], [137.8227, 36.1454], [137.8298, 36.1361], [137.8423, 36.1378], [137.8474, 36.1342], [137.877, 36.1491], [137.8846, 36.1465], [137.9011, 36.1746], [137.8976, 36.1881], [137.8904, 36.1904], [137.8585, 36.179], [137.8398, 36.1612], [137.83, 36.1596], [137.8108, 36.1453]]]}}, {"type": "Feature", "properties": {"osm_type": "relation", "osm_id": 794543378, "name": "Ogawa", "admin_level": "6", "kind": "subdivision_2", "parent_osm_id": 3560284, "parent_name": "Nagano Prefecture", "parent_iso": "JP-20"}, "geometry": {"type": "Polygon", "coordinates": [[[137.9101, 36.6616], [137.9052, 36.6602], [137.9094, 36.649], [137.9205, 36.6354], [137.9144, 36.6186], [137.9263, 36.6092], [137.9275, 36.6], [137.9418, 36.5948], [137.9525, 36.595], [137.963, 36.6038], [137.9769, 36.6028], [137.986, 36.5966], [138.0022, 36.6005], [138.0005, 36.6389], [138.0131, 36.6575], [137.989, 36.6628], [137.975, 36.6726], [137.9698, 36.6679], [137.9448, 36.6721], [137.9204, 36.657], [137.9101, 36.6616]]]}}, {"type": "Feature", "properties": {"osm_type": "relation", "osm_id": 393837259, "name": "Otari", "admin_level": "6", "kind": "subdivision_2", "parent_osm_id": 3560284, "parent_name": "Nagano Prefecture", "parent_iso": "JP-20"}, "geometry": {"type": "Polygon", "coordinates": [[[138.0035, 36.8264], [138.0201, 36.8422], [138.0137, 36.8604], [138.021, 36.8635], [138.0325, 36.881], [138.0312, 36.8913], [138.0156, 36.8932], [138.0137, 36.904], [137.9916, 36.9107], [137.9696, 36.9108], [137.9623, 36.9021], [137.9577, 36.9029], [137.9489, 36.9126], [137.9197, 36.9199], [137.8933, 36.91], [137.8665, 36.9153], [137.8626, 36.907], [137.8711, 36.9002], [137.8617, 36.8908], [137.8683, 36.8778], [137.8778, 36.8732], [137.8763, 36.8661], [137.8579, 36.8528], [137.8569, 36.8438], [137.8316, 36.8195], [137.831, 36.808], [137.8228, 36.806], [137.82, 36.7982], [137.7933, 36.7867], [137.7848, 36.7743], [137.7648, 36.7677], [137.8192, 36.7594], [137.8486, 36.7443], [137.844, 36.7513], [137.8563, 36.7508], [137.8616, 36.7431], [137.8831, 36.7366], [137.8863, 36.7306], [137.9058, 36.7387], [137.9415, 36.7361], [137.9533, 36.7485], [137.9578, 36.7628], [137.9679, 36.771], [137.9677, 36.781], [137.9758, 36.7872], [137.9807, 36.8017], [138.0035, 36.8264]]]}}, {"type": "Feature", "properties": {"osm_type": "relation", "osm_id": 167761251, "name": "Obuse", "admin_level": "6", "kind": "subdivision_2", "parent_osm_id": 3560284, "parent_name": "Nagano Prefecture", "parent_iso": "JP-20"}, "geometry": {"type": "Polygon", "coordinates": [[[138.3315, 36.6822], [138.3414, 36.6864], [138.3408, 36.6918], [138.3483, 36.6967], [138.3386, 36.7085], [138.3437, 36.7156], [138.3347, 36.724], [138.3182, 36.7246], [138.3015, 36.7152], [138.29, 36.7148], [138.2812, 36.6881], [138.3163, 36.6881], [138.3315, 36.6822]]]}}, {"type": "Feature", "properties": {"osm_type": "relation", "osm_id": 590696355, "name": "Matsukawa", "admin_level": "6", "kind": "subdivision_2", "parent_osm_id": 3560284, "parent_name": "Nagano Prefecture", "parent_iso": "JP-20"}, "geometry": {"type": "Polygon", "coordinates": [[[137.8724, 36.3792], [137.8754, 36.3918], [137.8693, 36.4409], [137.8569, 36.4372], [137.8432, 36.446], [137.8198, 36.4416], [137.814, 36.4527], [137.8023, 36.4426], [137.8101, 36.435], [137.8036, 36.4199], [137.7704, 36.4158], [137.7528, 36.407], [137.7705, 36.3918], [137.7777, 36.3977], [137.7907, 36.3921], [137.8102, 36.3949], [137.8253, 36.3912], [137.8311, 36.381], [137.8534, 36.3938], [137.8724, 36.3792]]]}}, {"type": "Feature", "properties": {"osm_type": "relation", "osm_id": 127895847, "name": "Matsukawa", "admin_level": "6", "kind": "subdivision_2", "parent_osm_id": 3560284, "parent_name": "Nagano Prefecture", "parent_iso": "JP-20"}, "geometry": {"type": "Polygon", "coordinates": [[[137.8236, 35.6156], [137.8347, 35.6053], [137.8726, 35.6003], [137.8709, 35.5951], [137.8901, 35.5911], [137.9177, 35.5739], [137.9246, 35.5781], [137.949, 35.5689], [137.9758, 35.5798], [137.9904, 35.5637], [138.0101, 35.5552], [138.0129, 35.5481], [138.0176, 35.5534], [138.0184, 35.561], [138.0068, 35.5674], [138.0053, 35.5744], [137.9932, 35.5847], [138.0024, 35.5973], [137.9921, 35.6096], [137.9608, 35.602], [137.9415, 35.6094], [137.9327, 35.6025], [137.9048, 35.6237], [137.9049, 35.6395], [137.8815, 35.635], [137.8684, 35.6403], [137.8653, 35.6485], [137.8449, 35.6527], [137.8311, 35.6389], [137.8087, 35.6439], [137.8184, 35.6355], [137.8236, 35.6156]]]}}, {"type": "Feature", "properties": {"osm_type": "relation", "osm_id": 261317758, "name": "Agematsu", "admin_level": "6", "kind": "subdivision_2", "parent_osm_id": 3560284, "parent_name": "Nagano Prefecture", "parent_iso": "JP-20"}, "geometry": {"type": "Polygon", "coordinates": [[[137.5526, 35.7256], [137.5761, 35.7385], [137.5875, 35.735], [137.5901, 35.7163], [137.5955, 35.7161], [137.5933, 35.7102], [137.6008, 35.706], [137.6335, 35.7097], [137.6446, 35.7128], [137.6509, 35.7246], [137.6416, 35.7324], [137.6468, 35.7452], [137.6636, 35.7513], [137.6832, 35.7438], [137.6908, 35.7274], [137.7357, 35.7123], [137.753, 35.7237], [137.7523, 35.7357], [137.7575, 35.7435], [137.7658, 35.7458], [137.7703, 35.7553], [137.7906, 35.7622], [137.8093, 35.7814], [137.8046, 35.7895], [137.7936, 35.7896], [137.7703, 35.8121], [137.7503, 35.8126], [137.7329, 35.8226], [137.7046, 35.8222], [137.6848, 35.812], [137.667, 35.7909], [137.6283, 35.7974], [137.6243, 35.7879], [137.5926, 35.7924], [137.59, 35.7829], [137.5968, 35.7795], [137.5991, 35.7701], [137.5953, 35.7672], [137.5675, 35.7591], [137.5664, 35.751], [137.5313, 35.7523], [137.5394, 35.7476], [137.5432, 35.7302], [137.5526, 35.7256]]]}}, {"type": "Feature", "properties": {"osm_type": "relation", "osm_id": 150430377, "name": "Shinano", "admin_level": "6", "kind": "subdivision_2", "parent_osm_id": 3560284, "parent_name": "Nagano Prefecture", "parent_iso": "JP-20"}, "geometry": {"type": "Polygon", "coordinates": [[[138.1401, 36.7475], [138.1796, 36.7476], [138.1801, 36.7528], [138.195, 36.754], [138.1998, 36.76], [138.2145, 36.7601], [138.2155, 36.7735], [138.2516, 36.7903], [138.2524, 36.8037], [138.2732, 36.8084], [138.2775, 36.8162], [138.2621, 36.8229], [138.2757, 36.8367], [138.2684, 36.8605], [138.258, 36.864], [138.2549, 36.8699], [138.2424, 36.864], [138.213, 36.8683], [138.1998, 36.8553], [138.1778, 36.8518], [138.169, 36.8451], [138.115, 36.8504], [138.0933, 36.8402], [138.0889, 36.8302], [138.0967, 36.8255], [138.1016, 36.8096], [138.0953, 36.8009], [138.0985, 36.7796], [138.1264, 36.7846], [138.1201, 36.7743], [138.1225, 36.7623], [138.1401, 36.7475]]]}}, {"type": "Feature", "properties": {"osm_type": "relation", "osm_id": 656119938, "name": "Ikusaka", "admin_level": "6", "kind": "subdivision_2", "parent_osm_id": 3560284, "parent_name": "Nagano Prefecture", "parent_iso": "JP-20"}, "geometry": {"type": "Polygon", "coordinates": [[[137.9532, 36.485], [137.9469, 36.4894], [137.937, 36.4863], [137.9392, 36.481], [137.9263, 36.4712], [137.937, 36.4671], [137.9289, 36.4502], [137.9053, 36.4394], [137.9194, 36.4252], [137.9137, 36.4219], [137.9247, 36.4115], [137.9224, 36.4058], [137.93, 36.4011], [137.9263, 36.3919], [137.9297, 36.3817], [137.943, 36.3865], [137.95, 36.3841], [137.9573, 36.3948], [137.9727, 36.4045], [137.9691, 36.4164], [137.9607, 36.4243], [137.9678, 36.4413], [137.9648, 36.4552], [137.9731, 36.4518], [137.9771, 36.4607], [137.9636, 36.4635], [137.9648, 36.4678], [137.9594, 36.4679], [137.9493, 36.4827], [137.9532, 36.485]]]}}, {"type": "Feature", "properties": {"osm_type": "relation", "osm_id": 603510850, "name": "Aoki", "admin_level": "6", "kind": "subdivision_2", "parent_osm_id": 3560284, "parent_name": "Nagano Prefecture", "parent_iso": "JP-20"}, "geometry": {"type": "Polygon", "coordinates": [[[138.1155, 36.4038], [138.1126, 36.3995], [138.0967, 36.4072], [138.0835, 36.4068], [138.0635, 36.3985], [138.0799, 36.3707], [138.0644, 36.3335], [138.0715, 36.3249], [138.071, 36.3165], [138.081, 36.3123], [138.1101, 36.3286], [138.1146, 36.3222], [138.1305, 36.3353], [138.1296, 36.3475], [138.1436, 36.3545], [138.1542, 36.3705], [138.1476, 36.395], [138.1351, 36.3953], [138.1155, 36.4038]]]}}, {"type": "Feature", "properties": {"osm_type": "relation", "osm_id": 734834752, "name": "Chikuma", "admin_level": "6", "kind": "subdivision_2", "parent_osm_id": 3560284, "parent_name": "Nagano Prefecture", "parent_iso": "JP-20"}, "geometry": {"type": "Polygon", "coordinates": [[[138.1286, 36.4382], [138.1378, 36.4484], [138.1647, 36.4544], [138.1693, 36.4644], [138.157, 36.4701], [138.1732, 36.4735], [138.1762, 36.4855], [138.1998, 36.4948], [138.1994, 36.5229], [138.1905, 36.5394], [138.1712, 36.5488], [138.1678, 36.5592], [138.1515, 36.5601], [138.133, 36.5582], [138.1154, 36.5419], [138.0904, 36.54], [138.0813, 36.5439], [138.0463, 36.5397], [138.0439, 36.5197], [138.0351, 36.511], [138.0296, 36.4907], [138.0391, 36.4878], [138.0465, 36.4949], [138.0734, 36.49], [138.0738, 36.4823], [138.087, 36.4778], [138.0847, 36.4747], [138.106, 36.4687], [138.106, 36.4592], [138.1179, 36.449], [138.1216, 36.4368], [138.1286, 36.4382]]]}}, {"type": "Feature", "properties": {"osm_type": "relation", "osm_id": 991321909, "name": "Yasuoka", "admin_level": "6", "kind": "subdivision_2", "parent_osm_id": 3560284, "parent_name": "Nagano Prefecture", "parent_iso": "JP-20"}, "geometry": {"type": "Polygon", "coordinates": [[[137.8162, 35.4212], [137.8122, 35.4141], [137.8174, 35.4099], [137.8075, 35.4007], [137.8129, 35.3895], [137.8104, 35.3804], [137.8301, 35.3608], [137.8332, 35.3504], [137.8444, 35.344], [137.8328, 35.3269], [137.8423, 35.3119], [137.8529, 35.3238], [137.8962, 35.3224], [137.9241, 35.3449], [137.9276, 35.3606], [137.9136, 35.357], [137.9024, 35.3598], [137.9038, 35.3633], [137.891, 35.3735], [137.8939, 35.3794], [137.8872, 35.386], [137.8705, 35.3881], [137.8654, 35.3978], [137.8527, 35.4056], [137.8162, 35.4212]]]}}, {"type": "Feature", "properties": {"osm_type": "relation", "osm_id": 414121358, "name": "Ookuwa", "admin_level": "6", "kind": "subdivision_2", "parent_osm_id": 3560284, "parent_name": "Nagano Prefecture", "parent_iso": "JP-20"}, "geometry": {"type": "Polygon", "coordinates": [[[137.8013, 35.6557], [137.8031, 35.6814], [137.8136, 35.6921], [137.8115, 35.7017], [137.8167, 35.7098], [137.8165, 35.7196], [137.808, 35.7233], [137.8041, 35.7317], [137.8042, 35.7425], [137.8138, 35.7533], [137.8089, 35.7795], [137.7906, 35.7622], [137.7703, 35.7553], [137.7658, 35.7458], [137.7575, 35.7435], [137.7523, 35.7357], [137.753, 35.7237], [137.7357, 35.7123], [137.6908, 35.7274], [137.6832, 35.7438], [137.6636, 35.7513], [137.6468, 35.7452], [137.6416, 35.7324], [137.6509, 35.7246], [137.6446, 35.7128], [137.6335, 35.7097], [137.6008, 35.706], [137.5933, 35.7102], [137.5955, 35.7161], [137.5901, 35.7163], [137.5875, 35.735], [137.5761, 35.7385], [137.5526, 35.7256], [137.5535, 35.7191], [137.543, 35.7179], [137.5427, 35.7127], [137.5325, 35.7088], [137.5119, 35.7087], [137.5061, 35.7143], [137.4876, 35.7165], [137.486, 35.7055], [137.4973, 35.6984], [137.4972, 35.6885], [137.502, 35.6848], [137.5094, 35.6824], [137.535, 35.6906], [137.5541, 35.6869], [137.5656, 35.6776], [137.5867, 35.6773], [137.6051, 35.6692], [137.6105, 35.6568], [137.6256, 35.6518], [137.6304, 35.6451], [137.6491, 35.648], [137.6614, 35.6585], [137.6705, 35.6592], [137.6793, 35.6484], [137.6898, 35.6469], [137.7009, 35.63], [137.7219, 35.6233], [137.7296, 35.6134], [137.7375, 35.613], [137.7601, 35.6276], [137.7774, 35.6317], [137.8013, 35.6557]]]}}, {"type": "Feature", "properties": {"osm_type": "relation", "osm_id": 903008910, "name": "Ooshika", "admin_level": "6", "kind": "subdivision_2", "parent_osm_id": 3560284, "parent_name": "Nagano Prefecture", "parent_iso": "JP-20"}, "geometry": {"type": "Polygon", "coordinates": [[[138.1205, 35.4546], [138.1552, 35.4591], [138.1602, 35.4678], [138.1564, 35.4769], [138.1646, 35.4939], [138.1402, 35.4997], [138.1463, 35.5186], [138.1383, 35.5221], [138.1594, 35.5449], [138.1542, 35.5535], [138.1428, 35.5556], [138.1518, 35.571], [138.1308, 35.5813], [138.1261, 35.5925], [138.111, 35.6001], [138.1011, 35.6149], [138.1053, 35.6272], [138.1019, 35.647], [138.092, 35.655], [138.0795, 35.6794], [138.0771, 35.6943], [138.0614, 35.7035], [138.0506, 35.7019], [138.0434, 35.6914], [138.044, 35.6747], [138.0353, 35.6669], [138.0383, 35.637], [138.0229, 35.614], [137.9936, 35.588], [138.0068, 35.5674], [138.0184, 35.561], [137.9911, 35.4932], [138.0297, 35.4702], [138.0386, 35.4576], [138.0811, 35.4853], [138.0945, 35.4747], [138.1073, 35.4732], [138.1205, 35.4546]]]}}, {"type": "Feature", "properties": {"osm_type": "relation", "osm_id": 760836037, "name": "Oomachi", "admin_level": "6", "kind": "subdivision_2", "parent_osm_id": 3560284, "parent_name": "Nagano Prefecture", "parent_iso": "JP-20"}, "geometry": {"type": "Polygon", "coordinates": [[[137.9418, 36.5948], [137.9275, 36.6], [137.9263, 36.6092], [137.9144, 36.6186], [137.9205, 36.6354], [137.9094, 36.649], [137.8973, 36.6449], [137.8962, 36.6403], [137.8684, 36.6331], [137.8679, 36.6203], [137.8365, 36.6218], [137.834, 36.6142], [137.8232, 36.6141], [137.8204, 36.6328], [137.8039, 36.6422], [137.7983, 36.6519], [137.7695, 36.6573], [137.7606, 36.6646], [137.7535, 36.6578], [137.7562, 36.6469], [137.7439, 36.6127], [137.7531, 36.5937], [137.7509, 36.5883], [137.7251, 36.5867], [137.6877, 36.5621], [137.6846, 36.5378], [137.7095, 36.5362], [137.7027, 36.5247], [137.7055, 36.5179], [137.6943, 36.5107], [137.6773, 36.5144], [137.6687, 36.5095], [137.6662, 36.4932], [137.652, 36.4882], [137.6551, 36.4587], [137.6453, 36.4545], [137.6333, 36.425], [137.6082, 36.4195], [137.6054, 36.4025], [137.5924, 36.3897], [137.5873, 36.3898], [137.5871, 36.372], [137.6192, 36.3642], [137.6355, 36.3426], [137.6788, 36.337], [137.6929, 36.3627], [137.701, 36.365], [137.709, 36.3767], [137.7063, 36.3871], [137.7152, 36.4012], [137.7122, 36.4169], [137.727, 36.4253], [137.7469, 36.4184], [137.7539, 36.4107], [137.7801, 36.4145], [137.7929, 36.4213], [137.8036, 36.4199], [137.8101, 36.435], [137.8023, 36.4426], [137.814, 36.4527], [137.8198, 36.4416], [137.8432, 36.446], [137.8569, 36.4372], [137.8748, 36.4425], [137.8814, 36.439], [137.8797, 36.4426], [137.8932, 36.4486], [137.8871, 36.4743], [137.9118, 36.4754], [137.9207, 36.4694], [137.9349, 36.4759], [137.9396, 36.4881], [137.9565, 36.4853], [137.9502, 36.5007], [137.9639, 36.5057], [137.9613, 36.5084], [137.9667, 36.5169], [137.9557, 36.527], [137.9399, 36.5167], [137.9308, 36.5197], [137.9171, 36.5473], [137.9343, 36.5729], [137.9418, 36.5948]]]}}, {"type": "Feature", "properties": {"osm_type": "relation", "osm_id": 786414669, "name": "Tatsuno", "admin_level": "6", "kind": "subdivision_2", "parent_osm_id": 3560284, "parent_name": "Nagano Prefecture", "parent_iso": "JP-20"}, "geometry": {"type": "Polygon", "coordinates": [[[138.0068, 36.0532], [138.0009, 36.0545], [137.9797, 36.0443], [137.9505, 36.0546], [137.9497, 36.0638], [137.9387, 36.0615], [137.9383, 36.0535], [137.9274, 36.0487], [137.9273, 36.0424], [137.9002, 36.0295], [137.8967, 36.0245], [137.9045, 36.0182], [137.8795, 36.0007], [137.8614, 35.9714], [137.8513, 35.968], [137.8494, 35.9614], [137.8293, 35.9459], [137.8348, 35.9282], [137.8517, 35.9239], [137.8584, 35.912], [137.8714, 35.9083], [137.8794, 35.9225], [137.8976, 35.9333], [137.9099, 35.9339], [137.9339, 35.9513], [137.9348, 35.9565], [137.9685, 35.9419], [137.9809, 35.9457], [137.9895, 35.9418], [137.9935, 35.9439], [137.9928, 35.9515], [138.0202, 35.9454], [138.0488, 35.9714], [138.0453, 35.9996], [138.0368, 36.0016], [138.0373, 36.0123], [137.992, 36.0141], [138.0068, 36.0532]]]}}, {"type": "Feature", "properties": {"osm_type": "relation", "osm_id": 950022217, "name": "Ikeda", "admin_level": "6", "kind": "subdivision_2", "parent_osm_id": 3560284, "parent_name": "Nagano Prefecture", "parent_iso": "JP-20"}, "geometry": {"type": "Polygon", "coordinates": [[[137.9247, 36.4115], [137.9137, 36.4219], [137.9194, 36.4252], [137.9053, 36.4394], [137.9289, 36.4502], [137.937, 36.4671], [137.9118, 36.4754], [137.8871, 36.4743], [137.8932, 36.4486], [137.8797, 36.4426], [137.8814, 36.439], [137.8693, 36.4409], [137.8754, 36.3918], [137.8724, 36.3792], [137.8881, 36.364], [137.9119, 36.3682], [137.9058, 36.376], [137.9024, 36.3939], [137.9124, 36.3894], [137.9156, 36.3926], [137.9098, 36.4027], [137.9181, 36.412], [137.9247, 36.4115]]]}}, {"type": "Feature", "properties": {"osm_type": "relation", "osm_id": 365638082, "name": "Chikuhoku", "admin_level": "6", "kind": "subdivision_2", "parent_osm_id": 3560284, "parent_name": "Nagano Prefecture", "parent_iso": "JP-20"}, "geometry": {"type": "Polygon", "coordinates": [[[138.1216, 36.4368], [138.1179, 36.449], [138.106, 36.4592], [138.106, 36.4687], [138.0813, 36.4752], [138.0611, 36.456], [138.0508, 36.4526], [138.056, 36.449], [138.0499, 36.4457], [138.0509, 36.4372], [138.0561, 36.4354], [138.0536, 36.4199], [138.0198, 36.4391], [138.0064, 36.4386], [138.0107, 36.4432], [138.0098, 36.4522], [138.0033, 36.4589], [138.0046, 36.466], [137.9988, 36.4678], [137.9939, 36.4618], [137.9771, 36.4607], [137.9731, 36.4518], [137.9648, 36.4552], [137.9678, 36.4413], [137.9606, 36.4216], [137.9691, 36.4164], [137.9743, 36.3988], [137.9904, 36.3874], [137.9915, 36.3767], [137.9965, 36.3768], [137.999, 36.3712], [138.0106, 36.3679], [138.02, 36.3757], [138.0517, 36.3794], [138.0719, 36.3707], [138.0792, 36.3721], [138.0635, 36.3985], [138.0657, 36.4022], [138.0967, 36.4072], [138.1126, 36.3995], [138.1173, 36.4212], [138.1143, 36.4341], [138.1216, 36.4368]]]}}, {"type": "Feature", "properties": {"osm_type": "relation", "osm_id": 898332372, "name": "Nakagawa", "admin_level": "6", "kind": "subdivision_2", "parent_osm_id": 3560284, "parent_name": "Nagano Prefecture", "parent_iso": "JP-20"}, "geometry": {"type": "Polygon", "coordinates": [[[137.9781, 35.6855], [137.973, 35.6847], [137.9738, 35.6769], [137.9662, 35.668], [137.9523, 35.673], [137.9449, 35.6543], [137.9249, 35.6586], [137.9148, 35.6434], [137.9058, 35.6457], [137.8991, 35.64], [137.9049, 35.6395], [137.9048, 35.6237], [137.9327, 35.6025], [137.9415, 35.6094], [137.9608, 35.602], [137.9921, 35.6096], [138.0024, 35.5973], [138.0081, 35.6003], [138.0383, 35.637], [138.0353, 35.6669], [138.0266, 35.6747], [138.0135, 35.6732], [137.9977, 35.6799], [137.9855, 35.6755], [137.9781, 35.6855]]]}}, {"type": "Feature", "properties": {"osm_type": "relation", "osm_id": 971673898, "name": "Nakano", "admin_level": "6", "kind": "subdivision_2", "parent_osm_id": 3560284, "parent_name": "Nagano Prefecture", "parent_iso": "JP-20"}, "geometry": {"type": "Polygon", "coordinates": [[[138.311, 36.7209], [138.3347, 36.724], [138.3437, 36.7156], [138.3386, 36.7085], [138.3483, 36.6967], [138.3556, 36.6951], [138.3682, 36.7042], [138.395, 36.696], [138.4057, 36.6991], [138.3921, 36.7208], [138.395, 36.7336], [138.3877, 36.7458], [138.3977, 36.7617], [138.3834, 36.7719], [138.3926, 36.7769], [138.4064, 36.7953], [138.3969, 36.8023], [138.3976, 36.8272], [138.3787, 36.8261], [138.3749, 36.834], [138.3635, 36.8379], [138.3536, 36.8232], [138.3575, 36.805], [138.3451, 36.8035], [138.3247, 36.8065], [138.3177, 36.8183], [138.3083, 36.8179], [138.2978, 36.8254], [138.3004, 36.8355], [138.2942, 36.8391], [138.2757, 36.8367], [138.2816, 36.8186], [138.2762, 36.8131], [138.283, 36.7942], [138.2799, 36.7901], [138.2937, 36.7902], [138.303, 36.7816], [138.2999, 36.7717], [138.3042, 36.7641], [138.2944, 36.7544], [138.2978, 36.7503], [138.2941, 36.7459], [138.3115, 36.7428], [138.3084, 36.7391], [138.311, 36.7209]]]}}, {"type": "Feature", "properties": {"osm_type": "relation", "osm_id": 220375149, "name": "Asahi", "admin_level": "6", "kind": "subdivision_2", "parent_osm_id": 3560284, "parent_name": "Nagano Prefecture", "parent_iso": "JP-20"}, "geometry": {"type": "Polygon", "coordinates": [[[137.8846, 36.1465], [137.877, 36.1491], [137.8474, 36.1342], [137.8423, 36.1378], [137.8298, 36.1361], [137.8227, 36.1454], [137.8108, 36.1453], [137.7944, 36.1297], [137.778, 36.0994], [137.7546, 36.0865], [137.7819, 36.0732], [137.7967, 36.078], [137.7981, 36.0684], [137.8044, 36.0644], [137.8026, 36.0576], [137.8271, 36.055], [137.846, 36.0772], [137.8519, 36.0764], [137.8587, 36.0885], [137.8707, 36.0935], [137.8902, 36.1189], [137.8989, 36.1208], [137.8939, 36.1307], [137.885, 36.1301], [137.8923, 36.1405], [137.8846, 36.1465]]]}}, {"type": "Feature", "properties": {"osm_type": "relation", "osm_id": 991621294, "name": "Nagawa", "admin_level": "6", "kind": "subdivision_2", "parent_osm_id": 3560284, "parent_name": "Nagano Prefecture", "parent_iso": "JP-20"}, "geometry": {"type": "Polygon", "coordinates": [[[138.1198, 36.2187], [138.1293, 36.2117], [138.1262, 36.1836], [138.1312, 36.1767], [138.1278, 36.1665], [138.1339, 36.1629], [138.1347, 36.1482], [138.1471, 36.1442], [138.162, 36.1213], [138.1886, 36.1241], [138.1899, 36.1164], [138.1995, 36.1077], [138.2169, 36.1052], [138.2347, 36.1105], [138.255, 36.1253], [138.2755, 36.1515], [138.2845, 36.1937], [138.2828, 36.2204], [138.2993, 36.2462], [138.2878, 36.2576], [138.2884, 36.2671], [138.281, 36.2814], [138.2832, 36.2874], [138.2757, 36.2855], [138.2689, 36.2959], [138.2603, 36.2966], [138.2435, 36.2781], [138.2461, 36.2513], [138.234, 36.2471], [138.2344, 36.2374], [138.2212, 36.2238], [138.1927, 36.2254], [138.1612, 36.2174], [138.1548, 36.224], [138.1338, 36.2311], [138.1198, 36.2187]]]}}, {"type": "Feature", "properties": {"osm_type": "relation", "osm_id": 307570942, "name": "Tenryu", "admin_level": "6", "kind": "subdivision_2", "parent_osm_id": 3560284, "parent_name": "Nagano Prefecture", "parent_iso": "JP-20"}, "geometry": {"type": "Polygon", "coordinates": [[[137.8448, 35.3127], [137.8337, 35.3032], [137.8124, 35.3], [137.8045, 35.2886], [137.8021, 35.2947], [137.7935, 35.2922], [137.7723, 35.2716], [137.7681, 35.2525], [137.7565, 35.2503], [137.749, 35.2412], [137.7305, 35.2374], [137.7219, 35.2308], [137.7224, 35.2221], [137.7433, 35.2189], [137.7595, 35.2221], [137.768, 35.2185], [137.7677, 35.2069], [137.7791, 35.2028], [137.8004, 35.2057], [137.8215, 35.2156], [137.8381, 35.2125], [137.8368, 35.2156], [137.847, 35.2217], [137.8766, 35.2219], [137.8849, 35.2362], [137.8825, 35.2481], [137.8935, 35.2542], [137.9001, 35.2807], [137.8786, 35.294], [137.8647, 35.2889], [137.8603, 35.3111], [137.8448, 35.3127]]]}}, {"type": "Feature", "properties": {"osm_type": "relation", "osm_id": 685245532, "name": "Minamiminowa", "admin_level": "6", "kind": "subdivision_2", "parent_osm_id": 3560284, "parent_name": "Nagano Prefecture", "parent_iso": "JP-20"}, "geometry": {"type": "MultiPolygon", "coordinates": [[[[137.9886, 35.8783], [137.9933, 35.8833], [137.9869, 35.8855], [137.9869, 35.8955], [137.9821, 35.898], [137.9505, 35.8982], [137.9549, 35.8949], [137.9532, 35.8903], [137.9394, 35.8944], [137.9331, 35.8813], [137.9529, 35.8757], [137.9487, 35.8666], [137.9404, 35.8639], [137.9353, 35.8713], [137.929, 35.872], [137.9286, 35.8641], [137.9061, 35.8623], [137.9062, 35.8579], [137.9469, 35.85], [137.9549, 35.865], [137.9734, 35.8537], [137.9836, 35.8633], [137.9886, 35.8783]]], [[[137.9273, 35.9055], [137.8869, 35.9255], [137.8794, 35.9225], [137.8714, 35.9083], [137.8662, 35.9129], [137.8514, 35.9061], [137.8472, 35.8903], [137.857, 35.8772], [137.8563, 35.8677], [137.8665, 35.8714], [137.8906, 35.8606], [137.8765, 35.8789], [137.882, 35.8993], [137.8907, 35.9016], [137.9051, 35.8954], [137.9224, 35.8997], [137.923, 35.9052], [137.9273, 35.9055]]]]}}, {"type": "Feature", "properties": {"osm_type": "relation", "osm_id": 121816099, "name": "Nagiso", "admin_level": "6", "kind": "subdivision_2", "parent_osm_id": 3560284, "parent_name": "Nagano Prefecture", "parent_iso": "JP-20"}, "geometry": {"type": "Polygon", "coordinates": [[[137.7296, 35.6134], [137.7219, 35.6233], [137.7009, 35.63], [137.6898, 35.6469], [137.6793, 35.6484], [137.6705, 35.6592], [137.6614, 35.6585], [137.6491, 35.648], [137.6304, 35.6451], [137.6256, 35.6518], [137.6105, 35.6568], [137.6051, 35.6692], [137.5867, 35.6773], [137.5656, 35.6776], [137.5541, 35.6869], [137.535, 35.6906], [137.5094, 35.6824], [137.5354, 35.6658], [137.5454, 35.6511], [137.5382, 35.6383], [137.5266, 35.6343], [137.5277, 35.6287], [137.5227, 35.6194], [137.517, 35.6185], [137.5138, 35.608], [137.5383, 35.5848], [137.5507, 35.5877], [137.5713, 35.5842], [137.5643, 35.569], [137.5723, 35.5604], [137.5745, 35.5445], [137.6025, 35.5307], [137.6073, 35.5335], [137.6318, 35.5092], [137.6438, 35.511], [137.6486, 35.5306], [137.6746, 35.5318], [137.6843, 35.5364], [137.6879, 35.5505], [137.6943, 35.5541], [137.6894, 35.5687], [137.7204, 35.5862], [137.7153, 35.5992], [137.7296, 35.6134]]]}}, {"type": "Feature", "properties": {"osm_type": "relation", "osm_id": 465457291, "name": "Urugi", "admin_level": "6", "kind": "subdivision_2", "parent_osm_id": 3560284, "parent_name": "Nagano Prefecture", "parent_iso": "JP-20"}, "geometry": {"type": "Polygon", "coordinates": [[[137.7077, 35.232], [137.7149, 35.2313], [137.7253, 35.2435], [137.7201, 35.2508], [137.7322, 35.2703], [137.733, 35.2927], [137.7255, 35.3017], [137.7032, 35.2968], [137.675, 35.3066], [137.6661, 35.289], [137.6669, 35.281], [137.6587, 35.2765], [137.6588, 35.266], [137.6713, 35.2419], [137.6638, 35.2278], [137.6813, 35.2351], [137.6872, 35.2307], [137.7077, 35.232]]]}}, {"type": "Feature", "properties": {"osm_type": "relation", "osm_id": 377322830, "name": "Hakuba", "admin_level": "6", "kind": "subdivision_2", "parent_osm_id": 3560284, "parent_name": "Nagano Prefecture", "parent_iso": "JP-20"}, "geometry": {"type": "Polygon", "coordinates": [[[137.9415, 36.7361], [137.9058, 36.7387], [137.8863, 36.7306], [137.8831, 36.7366], [137.8616, 36.7431], [137.8563, 36.7508], [137.844, 36.7513], [137.8486, 36.7443], [137.8192, 36.7594], [137.7648, 36.7677], [137.7518, 36.7511], [137.7593, 36.7406], [137.751, 36.7269], [137.7501, 36.705], [137.7567, 36.6956], [137.7542, 36.6875], [137.7597, 36.6859], [137.7606, 36.6646], [137.7695, 36.6573], [137.7983, 36.6519], [137.8039, 36.6422], [137.8204, 36.6328], [137.8232, 36.6141], [137.834, 36.6142], [137.8365, 36.6218], [137.8679, 36.6203], [137.8684, 36.6331], [137.8962, 36.6403], [137.8973, 36.6449], [137.9094, 36.649], [137.9052, 36.6602], [137.9101, 36.6616], [137.9174, 36.6819], [137.914, 36.6917], [137.9234, 36.7001], [137.9323, 36.7244], [137.9415, 36.7361]]]}}, {"type": "Feature", "properties": {"osm_type": "relation", "osm_id": 143547128, "name": "Iiduna", "admin_level": "6", "kind": "subdivision_2", "parent_osm_id": 3560284, "parent_name": "Nagano Prefecture", "parent_iso": "JP-20"}, "geometry": {"type": "Polygon", "coordinates": [[[138.2941, 36.7459], [138.2978, 36.7503], [138.2944, 36.7544], [138.3042, 36.7641], [138.2999, 36.7717], [138.303, 36.7816], [138.2937, 36.7902], [138.2799, 36.7901], [138.283, 36.7942], [138.2762, 36.8131], [138.2816, 36.8186], [138.2757, 36.8367], [138.2621, 36.8229], [138.2775, 36.8162], [138.2732, 36.8084], [138.2524, 36.8037], [138.2516, 36.7903], [138.2155, 36.7735], [138.2145, 36.7601], [138.1998, 36.76], [138.195, 36.754], [138.1801, 36.7528], [138.1796, 36.7476], [138.1401, 36.7475], [138.1338, 36.7408], [138.1732, 36.7281], [138.1946, 36.7127], [138.2157, 36.709], [138.2314, 36.721], [138.2515, 36.7192], [138.2513, 36.7232], [138.2608, 36.7277], [138.2645, 36.7368], [138.2613, 36.7411], [138.2661, 36.7464], [138.2739, 36.7396], [138.2941, 36.7459]]]}}, {"type": "Feature", "properties": {"osm_type": "relation", "osm_id": 314301536, "name": "Iiyama", "admin_level": "6", "kind": "subdivision_2", "parent_osm_id": 3560284, "parent_name": "Nagano Prefecture", "parent_iso": "JP-20"}, "geometry": {"type": "Polygon", "coordinates": [[[138.3787, 36.9804], [138.3823, 36.9764], [138.3695, 36.964], [138.3577, 36.9338], [138.3432, 36.9208], [138.3293, 36.9269], [138.3176, 36.9252], [138.2963, 36.9108], [138.2903, 36.8968], [138.2994, 36.8867], [138.2886, 36.8684], [138.2956, 36.8551], [138.2743, 36.838], [138.2942, 36.8391], [138.3004, 36.8355], [138.2978, 36.8254], [138.3083, 36.8179], [138.3177, 36.8183], [138.3247, 36.8065], [138.3575, 36.805], [138.3536, 36.8232], [138.3635, 36.8379], [138.3831, 36.8259], [138.3884, 36.8361], [138.3983, 36.842], [138.3842, 36.8508], [138.3882, 36.8549], [138.3962, 36.8534], [138.4025, 36.8661], [138.3966, 36.8722], [138.4008, 36.8811], [138.4224, 36.872], [138.4464, 36.8751], [138.4618, 36.8827], [138.4425, 36.8955], [138.4372, 36.9067], [138.4244, 36.9106], [138.4284, 36.9141], [138.4258, 36.9217], [138.4211, 36.9161], [138.4189, 36.9191], [138.4225, 36.9467], [138.4316, 36.9451], [138.4317, 36.9554], [138.4621, 36.9767], [138.4938, 36.98], [138.4913, 36.9871], [138.496, 36.9985], [138.5198, 37.0278], [138.4974, 37.0264], [138.4917, 37.0205], [138.4551, 37.0196], [138.4354, 37.0076], [138.3938, 36.9951], [138.3787, 36.9804]]]}}, {"type": "Feature", "properties": {"osm_type": "relation", "osm_id": 353312533, "name": "Iijima", "admin_level": "6", "kind": "subdivision_2", "parent_osm_id": 3560284, "parent_name": "Nagano Prefecture", "parent_iso": "JP-20"}, "geometry": {"type": "Polygon", "coordinates": [[[137.8087, 35.6439], [137.8311, 35.6389], [137.8449, 35.6527], [137.8653, 35.6485], [137.8684, 35.6403], [137.8815, 35.635], [137.9058, 35.6457], [137.9148, 35.6434], [137.9249, 35.6586], [137.9449, 35.6543], [137.9523, 35.673], [137.9662, 35.668], [137.9738, 35.6769], [137.973, 35.6847], [137.9781, 35.6855], [137.9767, 35.6916], [137.9498, 35.6818], [137.9555, 35.692], [137.9517, 35.7005], [137.9119, 35.7061], [137.8716, 35.6939], [137.8674, 35.7011], [137.8505, 35.7029], [137.8168, 35.7169], [137.8115, 35.7017], [137.8136, 35.6921], [137.8031, 35.6814], [137.8013, 35.6557], [137.8099, 35.6483], [137.8087, 35.6439]]]}}, {"type": "Feature", "properties": {"osm_type": "relation", "osm_id": 752927676, "name": "Fujimi", "admin_level": "6", "kind": "subdivision_2", "parent_osm_id": 3560284, "parent_name": "Nagano Prefecture", "parent_iso": "JP-20"}, "geometry": {"type": "Polygon", "coordinates": [[[138.1983, 35.7816], [138.1852, 35.7911], [138.1856, 35.7954], [138.2057, 35.8157], [138.2047, 35.8281], [138.2268, 35.8575], [138.2382, 35.8824], [138.252, 35.8847], [138.2836, 35.8593], [138.3263, 35.9032], [138.342, 35.9257], [138.345, 35.9413], [138.3601, 35.951], [138.3603, 35.9572], [138.3067, 35.9664], [138.2858, 35.9617], [138.2684, 35.9521], [138.2692, 35.9478], [138.2461, 35.9439], [138.2333, 35.9314], [138.2185, 35.9407], [138.201, 35.9395], [138.1939, 35.9347], [138.1847, 35.9399], [138.1689, 35.9166], [138.1738, 35.9123], [138.1693, 35.9048], [138.1718, 35.896], [138.1814, 35.8869], [138.1777, 35.8784], [138.1836, 35.8734], [138.1776, 35.8673], [138.1878, 35.8631], [138.1889, 35.8578], [138.1771, 35.8448], [138.1807, 35.8331], [138.1722, 35.8009], [138.1775, 35.7862], [138.1983, 35.7816]]]}}, {"type": "Feature", "properties": {"osm_type": "relation", "osm_id": 631124652, "name": "Hiraya", "admin_level": "6", "kind": "subdivision_2", "parent_osm_id": 3560284, "parent_name": "Nagano Prefecture", "parent_iso": "JP-20"}, "geometry": {"type": "Polygon", "coordinates": [[[137.575, 35.317], [137.6036, 35.3131], [137.612, 35.3056], [137.6324, 35.3], [137.6257, 35.2888], [137.6248, 35.2654], [137.6343, 35.265], [137.6446, 35.2721], [137.6588, 35.266], [137.6587, 35.2765], [137.6669, 35.281], [137.6761, 35.3131], [137.6873, 35.3215], [137.6884, 35.3417], [137.6778, 35.3429], [137.6532, 35.3584], [137.643, 35.3696], [137.6414, 35.3915], [137.6337, 35.399], [137.6184, 35.3917], [137.5907, 35.3936], [137.5752, 35.4], [137.5779, 35.3901], [137.5865, 35.3894], [137.5984, 35.3792], [137.6039, 35.3372], [137.6015, 35.331], [137.5905, 35.3305], [137.5835, 35.3192], [137.575, 35.317]]]}}, {"type": "Feature", "properties": {"osm_type": "relation", "osm_id": 771738139, "name": "Toyooka", "admin_level": "6", "kind": "subdivision_2", "parent_osm_id": 3560284, "parent_name": "Nagano Prefecture", "parent_iso": "JP-20"}, "geometry": {"type": "Polygon", "coordinates": [[[137.9911, 35.4932], [138.0129, 35.5481], [138.0101, 35.5552], [137.9904, 35.5637], [137.9758, 35.5798], [137.949, 35.5689], [137.919, 35.5781], [137.9152, 35.5724], [137.8968, 35.5667], [137.8878, 35.5427], [137.8781, 35.5305], [137.8981, 35.5218], [137.9161, 35.5048], [137.9345, 35.5097], [137.9531, 35.5058], [137.9619, 35.5102], [137.976, 35.494], [137.9877, 35.4873], [137.9911, 35.4932]]]}}, {"type": "Feature", "properties": {"osm_type": "relation", "osm_id": 607028600, "name": "Omi", "admin_level": "6", "kind": "subdivision_2", "parent_osm_id": 3560284, "parent_name": "Nagano Prefecture", "parent_iso": "JP-20"}, "geometry": {"type": "Polygon", "coordinates": [[[137.9771, 36.4607], [138.0046, 36.466], [138.0033, 36.4589], [138.0107, 36.4461], [138.0064, 36.4386], [138.0198, 36.4391], [138.0536, 36.4199], [138.0561, 36.4354], [138.0509, 36.4372], [138.0499, 36.4457], [138.056, 36.449], [138.0508, 36.4526], [138.0611, 36.456], [138.087, 36.4778], [138.0738, 36.4823], [138.0734, 36.49], [138.0465, 36.4949], [138.0334, 36.4849], [138.0055, 36.4801], [137.9771, 36.4607]]]}}, {"type": "Feature", "properties": {"osm_type": "relation", "osm_id": 896184352, "name": "Minowa", "admin_level": "6", "kind": "subdivision_2", "parent_osm_id": 3560284, "parent_name": "Nagano Prefecture", "parent_iso": "JP-20"}, "geometry": {"type": "Polygon", "coordinates": [[[138.035, 35.9624], [138.0359, 35.958], [138.0202, 35.9454], [137.9928, 35.9515], [137.9935, 35.9439], [137.9895, 35.9418], [137.9809, 35.9457], [137.9685, 35.9419], [137.9348, 35.9565], [137.9339, 35.9513], [137.9099, 35.9339], [137.8976, 35.9333], [137.8869, 35.9255], [137.9203, 35.9065], [137.9502, 35.9018], [137.9505, 35.8982], [137.9821, 35.898], [137.9869, 35.8955], [137.9869, 35.8855], [137.9933, 35.8833], [137.9903, 35.8778], [138.0161, 35.8851], [138.0373, 35.8977], [138.047, 35.9156], [138.0554, 35.9194], [138.0671, 35.9157], [138.0901, 35.9455], [138.0865, 35.9602], [138.0796, 35.9605], [138.074, 35.9503], [138.059, 35.9462], [138.035, 35.9624]]]}}, {"type": "Feature", "properties": {"osm_type": "relation", "osm_id": 555674193, "name": "Kiso", "admin_level": "6", "kind": "subdivision_2", "parent_osm_id": 3560284, "parent_name": "Nagano Prefecture", "parent_iso": "JP-20"}, "geometry": {"type": "Polygon", "coordinates": [[[137.5995, 36.0259], [137.5903, 36.0065], [137.5435, 35.9829], [137.5421, 35.9676], [137.5326, 35.9616], [137.5245, 35.9425], [137.5036, 35.9399], [137.4834, 35.9138], [137.4819, 35.9005], [137.4762, 35.894], [137.5053, 35.8723], [137.5247, 35.8704], [137.5734, 35.8527], [137.5777, 35.8341], [137.5925, 35.8154], [137.6007, 35.8185], [137.6093, 35.8303], [137.6054, 35.8343], [137.6076, 35.8394], [137.6114, 35.8392], [137.6188, 35.8293], [137.607, 35.8142], [137.6076, 35.7947], [137.6283, 35.7974], [137.667, 35.7909], [137.6727, 35.8014], [137.695, 35.8148], [137.6969, 35.8201], [137.726, 35.8231], [137.7452, 35.8187], [137.7503, 35.8126], [137.7703, 35.8121], [137.7936, 35.7896], [137.8097, 35.7913], [137.8254, 35.801], [137.8283, 35.8062], [137.8162, 35.8287], [137.8059, 35.8343], [137.8108, 35.8463], [137.8044, 35.8504], [137.8065, 35.8696], [137.8161, 35.8786], [137.8146, 35.8876], [137.8047, 35.8987], [137.8067, 35.9145], [137.8014, 35.9265], [137.7791, 35.9175], [137.7732, 35.9056], [137.7553, 35.9082], [137.7513, 35.918], [137.7198, 35.9422], [137.7165, 35.9514], [137.6962, 35.9692], [137.701, 35.987], [137.6978, 35.9957], [137.7038, 36.0101], [137.6815, 36.0168], [137.6725, 36.0108], [137.6626, 36.0116], [137.6331, 36.0268], [137.6129, 36.0184], [137.6072, 36.0253], [137.5995, 36.0259]]]}}, {"type": "Feature", "properties": {"osm_type": "relation", "osm_id": 908498839, "name": "Kiso", "admin_level": "6", "kind": "subdivision_2", "parent_osm_id": 3560284, "parent_name": "Nagano Prefecture", "parent_iso": "JP-20"}, "geometry": {"type": "Polygon", "coordinates": [[[137.7038, 36.0101], [137.6978, 35.9957], [137.701, 35.987], [137.6962, 35.9692], [137.7165, 35.9514], [137.7198, 35.9422], [137.7513, 35.918], [137.7553, 35.9082], [137.7732, 35.9056], [137.7791, 35.9175], [137.8014, 35.9265], [137.7954, 35.9599], [137.8066, 35.9731], [137.8104, 36.038], [137.8153, 36.0545], [137.8026, 36.0576], [137.8044, 36.0644], [137.7981, 36.0684], [137.7967, 36.078], [137.7819, 36.0732], [137.7546, 36.0865], [137.7471, 36.0813], [137.7357, 36.0696], [137.7371, 36.0478], [137.7038, 36.0101]]]}}, {"type": "Feature", "properties": {"osm_type": "relation", "osm_id": 208581875, "name": "Kijimadaira", "admin_level": "6", "kind": "subdivision_2", "parent_osm_id": 3560284, "parent_name": "Nagano Prefecture", "parent_iso": "JP-20"}, "geometry": {"type": "Polygon", "coordinates": [[[138.4939, 36.8857], [138.494, 36.8927], [138.4872, 36.8949], [138.4713, 36.8819], [138.4592, 36.8826], [138.4464, 36.8751], [138.4224, 36.872], [138.4008, 36.8811], [138.3966, 36.8722], [138.4025, 36.8661], [138.3962, 36.8534], [138.3882, 36.8549], [138.3842, 36.8508], [138.3983, 36.842], [138.3884, 36.8361], [138.3844, 36.8275], [138.3976, 36.8272], [138.3969, 36.8023], [138.4164, 36.8019], [138.4324, 36.8201], [138.4441, 36.813], [138.4861, 36.8054], [138.4933, 36.7934], [138.5192, 36.8057], [138.5291, 36.8022], [138.5371, 36.8208], [138.5495, 36.8239], [138.5413, 36.8365], [138.5567, 36.8519], [138.551, 36.8575], [138.5422, 36.8542], [138.5224, 36.8585], [138.5101, 36.8538], [138.496, 36.8569], [138.5013, 36.8643], [138.5014, 36.8763], [138.4939, 36.8857]]]}}, {"type": "Feature", "properties": {"osm_type": "relation", "osm_id": 119669479, "name": "Nozawaonsen", "admin_level": "6", "kind": "subdivision_2", "parent_osm_id": 3560284, "parent_name": "Nagano Prefecture", "parent_iso": "JP-20"}, "geometry": {"type": "Polygon", "coordinates": [[[138.4938, 36.98], [138.4621, 36.9767], [138.4317, 36.9554], [138.4316, 36.9451], [138.4225, 36.9467], [138.4189, 36.9191], [138.4211, 36.9161], [138.4258, 36.9217], [138.4284, 36.9141], [138.4244, 36.9106], [138.4372, 36.9067], [138.4425, 36.8955], [138.4618, 36.8827], [138.4713, 36.8819], [138.4872, 36.8949], [138.494, 36.8927], [138.4939, 36.8857], [138.5141, 36.9086], [138.497, 36.9247], [138.4829, 36.9244], [138.4808, 36.9293], [138.4991, 36.9646], [138.5169, 36.9746], [138.5216, 36.9829], [138.4938, 36.98]]]}}]}