{"type": "FeatureCollection", "parent": {"osm_id": 356912, "name": "Hyogo Prefecture", "admin_level": "4", "kind": "subdivision_1", "child_kind": "subdivision_2", "iso": "JP-28"}, "features": [{"type": "Feature", "properties": {"osm_type": "relation", "osm_id": 630578131, "name": "Toyooka", "admin_level": "6", "kind": "subdivision_2", "parent_osm_id": 356912, "parent_name": "Hyogo Prefecture", "parent_iso": "JP-28"}, "geometry": {"type": "Polygon", "coordinates": [[[134.8675, 35.6581], [134.8523, 35.6595], [134.8394, 35.6429], [134.8336, 35.6488], [134.8389, 35.6548], [134.8042, 35.664], [134.7986, 35.6705], [134.7845, 35.6666], [134.7842, 35.661], [134.7682, 35.6595], [134.761, 35.6642], [134.7652, 35.6742], [134.7574, 35.6613], [134.7529, 35.664], [134.7491, 35.6598], [134.7459, 35.6662], [134.7429, 35.6592], [134.7329, 35.6582], [134.7133, 35.6348], [134.7194, 35.6207], [134.7105, 35.6119], [134.7137, 35.6014], [134.706, 35.598], [134.688, 35.5751], [134.6619, 35.572], [134.6538, 35.5648], [134.6476, 35.5444], [134.6366, 35.5375], [134.6371, 35.527], [134.6174, 35.5239], [134.6184, 35.502], [134.6367, 35.4941], [134.644, 35.4781], [134.6313, 35.4552], [134.636, 35.4323], [134.6427, 35.4277], [134.6634, 35.4333], [134.6793, 35.4262], [134.6964, 35.4293], [134.7107, 35.4243], [134.7222, 35.4284], [134.7278, 35.4233], [134.7431, 35.4215], [134.7514, 35.4305], [134.7452, 35.4364], [134.7487, 35.4433], [134.7721, 35.4476], [134.7919, 35.4415], [134.7916, 35.4488], [134.8087, 35.4518], [134.8174, 35.4465], [134.8191, 35.4365], [134.8339, 35.4315], [134.8493, 35.4089], [134.9019, 35.4043], [134.9031, 35.4137], [134.9199, 35.4211], [134.9344, 35.4074], [134.9461, 35.4133], [134.9709, 35.399], [134.9855, 35.3962], [134.9906, 35.3857], [135.0192, 35.3941], [135.03, 35.4101], [135.0492, 35.4077], [135.0471, 35.4299], [135.0518, 35.4425], [135.041, 35.4733], [135.0351, 35.477], [135.0427, 35.4923], [135.0324, 35.4976], [135.0452, 35.5087], [135.0355, 35.5398], [134.9934, 35.5343], [134.9793, 35.524], [134.9716, 35.5241], [134.9607, 35.513], [134.955, 35.5161], [134.927, 35.5132], [134.9151, 35.5277], [134.9193, 35.5381], [134.9148, 35.5449], [134.8811, 35.564], [134.8627, 35.5869], [134.854, 35.5893], [134.8655, 35.5994], [134.8665, 35.6135], [134.8739, 35.6212], [134.8713, 35.6363], [134.8657, 35.6394], [134.8675, 35.6581]]]}}, {"type": "Feature", "properties": {"osm_type": "relation", "osm_id": 270155093, "name": "Asago", "admin_level": "6", "kind": "subdivision_2", "parent_osm_id": 356912, "parent_name": "Hyogo Prefecture", "parent_iso": "JP-28"}, "geometry": {"type": "Polygon", "coordinates": [[[134.9344, 35.4074], [134.9154, 35.4217], [134.9031, 35.4137], [134.9019, 35.4043], [134.879, 35.4036], [134.8625, 35.4099], [134.8567, 35.4051], [134.8627, 35.3873], [134.8502, 35.3753], [134.8231, 35.3737], [134.8083, 35.3598], [134.7979, 35.3574], [134.7975, 35.3419], [134.8047, 35.3365], [134.7955, 35.3261], [134.7729, 35.3188], [134.7754, 35.3101], [134.7962, 35.2957], [134.7897, 35.2756], [134.7594, 35.2659], [134.7512, 35.2769], [134.7425, 35.2791], [134.7269, 35.281], [134.7173, 35.2753], [134.7077, 35.2791], [134.7034, 35.289], [134.6859, 35.2732], [134.6996, 35.2589], [134.6944, 35.2488], [134.697, 35.2416], [134.6904, 35.2349], [134.6974, 35.229], [134.6978, 35.2145], [134.7103, 35.2121], [134.7213, 35.1958], [134.7282, 35.1931], [134.7176, 35.1795], [134.7283, 35.166], [134.7235, 35.1599], [134.7353, 35.1411], [134.7552, 35.1366], [134.767, 35.1455], [134.7667, 35.1363], [134.7737, 35.1258], [134.7898, 35.1423], [134.8052, 35.1401], [134.8157, 35.1438], [134.8252, 35.1345], [134.8445, 35.1493], [134.8443, 35.1622], [134.8792, 35.175], [134.8899, 35.1956], [134.9015, 35.1945], [134.9156, 35.2056], [134.9186, 35.2121], [134.8993, 35.2263], [134.9091, 35.2346], [134.9037, 35.2386], [134.903, 35.2542], [134.923, 35.2774], [134.9251, 35.2889], [134.9382, 35.3004], [134.9376, 35.3076], [134.9216, 35.3151], [134.9281, 35.3302], [134.9256, 35.3367], [134.9172, 35.3402], [134.9235, 35.3542], [134.9189, 35.3644], [134.9268, 35.3775], [134.9234, 35.3943], [134.9344, 35.4074]]]}}, {"type": "Feature", "properties": {"osm_type": "relation", "osm_id": 535202498, "name": "Kami", "admin_level": "6", "kind": "subdivision_2", "parent_osm_id": 356912, "parent_name": "Hyogo Prefecture", "parent_iso": "JP-28"}, "geometry": {"type": "Polygon", "coordinates": [[[134.7329, 35.6582], [134.7219, 35.6673], [134.7085, 35.6648], [134.7079, 35.6537], [134.6963, 35.654], [134.6924, 35.6572], [134.6942, 35.665], [134.6877, 35.6651], [134.6865, 35.6555], [134.6787, 35.655], [134.6757, 35.6605], [134.6632, 35.6482], [134.6594, 35.652], [134.6669, 35.6625], [134.6637, 35.6668], [134.6472, 35.6599], [134.6414, 35.6499], [134.6274, 35.6499], [134.6295, 35.642], [134.6179, 35.6394], [134.6008, 35.6581], [134.5911, 35.6554], [134.5795, 35.6607], [134.5761, 35.6523], [134.5695, 35.6575], [134.5599, 35.6506], [134.5401, 35.6702], [134.5201, 35.6625], [134.517, 35.6665], [134.528, 35.6525], [134.5237, 35.6351], [134.5348, 35.6248], [134.5484, 35.6259], [134.5742, 35.617], [134.5794, 35.5967], [134.5865, 35.5927], [134.5856, 35.5819], [134.5692, 35.5682], [134.5505, 35.5641], [134.5426, 35.5558], [134.5492, 35.5106], [134.5289, 35.505], [134.5173, 35.5078], [134.4925, 35.4865], [134.4855, 35.4744], [134.4908, 35.4486], [134.4871, 35.4359], [134.4761, 35.424], [134.4814, 35.4105], [134.4714, 35.38], [134.4747, 35.3747], [134.5029, 35.366], [134.5078, 35.379], [134.5292, 35.3944], [134.5435, 35.3892], [134.5772, 35.3957], [134.6009, 35.3882], [134.6058, 35.3824], [134.6039, 35.3915], [134.6082, 35.3997], [134.6252, 35.4096], [134.6393, 35.4073], [134.6449, 35.4109], [134.6493, 35.4213], [134.636, 35.4323], [134.6309, 35.4468], [134.6354, 35.4659], [134.644, 35.4781], [134.6367, 35.4941], [134.6184, 35.502], [134.6174, 35.5239], [134.6371, 35.527], [134.6366, 35.5375], [134.6476, 35.5444], [134.6538, 35.5648], [134.6619, 35.572], [134.688, 35.5751], [134.706, 35.598], [134.7137, 35.6014], [134.7105, 35.6119], [134.7194, 35.6207], [134.7133, 35.6348], [134.7329, 35.6582]]]}}, {"type": "Feature", "properties": {"osm_type": "relation", "osm_id": 956014617, "name": "Yabu", "admin_level": "6", "kind": "subdivision_2", "parent_osm_id": 356912, "parent_name": "Hyogo Prefecture", "parent_iso": "JP-28"}, "geometry": {"type": "Polygon", "coordinates": [[[134.6446, 35.428], [134.6493, 35.4213], [134.6449, 35.4109], [134.6393, 35.4073], [134.6252, 35.4096], [134.6082, 35.3997], [134.6039, 35.3915], [134.6058, 35.3824], [134.6009, 35.3882], [134.5772, 35.3957], [134.5435, 35.3892], [134.5292, 35.3944], [134.5189, 35.3887], [134.504, 35.3731], [134.5046, 35.3594], [134.5135, 35.3541], [134.5068, 35.3385], [134.534, 35.3223], [134.5356, 35.3173], [134.5791, 35.2963], [134.5832, 35.278], [134.6006, 35.2666], [134.6135, 35.2695], [134.6278, 35.2808], [134.6417, 35.2738], [134.6537, 35.2535], [134.6691, 35.2558], [134.6821, 35.2417], [134.6998, 35.2536], [134.6859, 35.2732], [134.7034, 35.289], [134.7077, 35.2791], [134.7173, 35.2753], [134.7269, 35.281], [134.7425, 35.2791], [134.7512, 35.2769], [134.7594, 35.2659], [134.7897, 35.2756], [134.7962, 35.2957], [134.7754, 35.3101], [134.7729, 35.3188], [134.7955, 35.3261], [134.8047, 35.3365], [134.7975, 35.3419], [134.7979, 35.3574], [134.8083, 35.3598], [134.8231, 35.3737], [134.8502, 35.3753], [134.8627, 35.3873], [134.857, 35.4076], [134.8452, 35.4116], [134.8397, 35.4254], [134.8314, 35.4334], [134.8191, 35.4365], [134.8174, 35.4465], [134.8087, 35.4518], [134.7916, 35.4488], [134.7919, 35.4415], [134.7721, 35.4476], [134.7487, 35.4433], [134.7452, 35.4364], [134.7514, 35.4305], [134.7431, 35.4215], [134.7278, 35.4233], [134.7222, 35.4284], [134.7168, 35.4245], [134.6964, 35.4293], [134.6793, 35.4262], [134.6634, 35.4333], [134.6446, 35.428]]]}}, {"type": "Feature", "properties": {"osm_type": "relation", "osm_id": 200934972, "name": "Shin-onsen", "admin_level": "6", "kind": "subdivision_2", "parent_osm_id": 356912, "parent_name": "Hyogo Prefecture", "parent_iso": "JP-28"}, "geometry": {"type": "Polygon", "coordinates": [[[134.517, 35.6665], [134.5187, 35.661], [134.5067, 35.6612], [134.4876, 35.6519], [134.478, 35.6408], [134.4622, 35.6399], [134.4529, 35.6293], [134.4454, 35.6287], [134.4387, 35.6358], [134.432, 35.6298], [134.4326, 35.6203], [134.4206, 35.6243], [134.4058, 35.6159], [134.3939, 35.6199], [134.3874, 35.6137], [134.3699, 35.6146], [134.3715, 35.6086], [134.3931, 35.6014], [134.4083, 35.5891], [134.4078, 35.5653], [134.4215, 35.5629], [134.4246, 35.5398], [134.4127, 35.5149], [134.4276, 35.5087], [134.4309, 35.5025], [134.4274, 35.4966], [134.4379, 35.4743], [134.4346, 35.4636], [134.4401, 35.4428], [134.4723, 35.4298], [134.4871, 35.4359], [134.4908, 35.4486], [134.4855, 35.4744], [134.4925, 35.4865], [134.5173, 35.5078], [134.5289, 35.505], [134.5492, 35.5106], [134.5426, 35.5558], [134.5505, 35.5641], [134.5692, 35.5682], [134.5856, 35.5819], [134.5865, 35.5927], [134.5794, 35.5967], [134.5742, 35.617], [134.5484, 35.6259], [134.5348, 35.6248], [134.5237, 35.6351], [134.528, 35.6525], [134.517, 35.6665]]]}}, {"type": "Feature", "properties": {"osm_type": "relation", "osm_id": 309462875, "name": "Taka", "admin_level": "6", "kind": "subdivision_2", "parent_osm_id": 356912, "parent_name": "Hyogo Prefecture", "parent_iso": "JP-28"}, "geometry": {"type": "Polygon", "coordinates": [[[134.9015, 35.1945], [134.9074, 35.1892], [134.9074, 35.183], [134.8976, 35.1715], [134.9036, 35.1608], [134.8907, 35.1462], [134.8754, 35.1395], [134.8656, 35.1179], [134.8539, 35.1133], [134.8501, 35.1035], [134.8562, 35.0892], [134.845, 35.084], [134.8425, 35.0702], [134.835, 35.0639], [134.848, 35.0473], [134.8379, 35.0376], [134.8482, 35.0243], [134.8514, 35.0104], [134.8605, 35.0058], [134.8607, 34.9896], [134.8659, 34.9813], [134.892, 34.9812], [134.8988, 34.9869], [134.9061, 34.9807], [134.9216, 34.9825], [134.934, 35.0168], [134.9476, 35.0239], [134.9447, 35.0251], [134.9493, 35.0333], [134.9422, 35.0355], [134.9549, 35.0371], [134.9599, 35.0305], [134.9718, 35.0383], [134.9641, 35.0553], [134.9766, 35.0619], [134.9786, 35.0702], [134.9682, 35.0712], [134.963, 35.0662], [134.9469, 35.0683], [134.946, 35.0935], [134.9304, 35.1081], [134.9327, 35.116], [134.9431, 35.1238], [134.9423, 35.1325], [134.9613, 35.1471], [134.958, 35.1538], [134.9477, 35.1556], [134.9506, 35.1667], [134.9465, 35.1756], [134.9574, 35.1904], [134.9485, 35.1963], [134.9518, 35.2032], [134.9491, 35.2131], [134.9357, 35.2161], [134.9186, 35.2121], [134.9015, 35.1945]]]}}, {"type": "Feature", "properties": {"osm_type": "relation", "osm_id": 836444071, "name": "Tamba", "admin_level": "6", "kind": "subdivision_2", "parent_osm_id": 356912, "parent_name": "Hyogo Prefecture", "parent_iso": "JP-28"}, "geometry": {"type": "Polygon", "coordinates": [[[134.9376, 35.3076], [134.9382, 35.3004], [134.9251, 35.2889], [134.923, 35.2774], [134.903, 35.2542], [134.9037, 35.2386], [134.9091, 35.2346], [134.8993, 35.2263], [134.9186, 35.2121], [134.9472, 35.2147], [134.9518, 35.2032], [134.9485, 35.1963], [134.9574, 35.1904], [134.9465, 35.1756], [134.9506, 35.1667], [134.9477, 35.1556], [134.958, 35.1538], [134.9613, 35.1471], [134.9423, 35.1325], [134.9431, 35.1238], [134.9327, 35.116], [134.9304, 35.1081], [134.946, 35.0935], [134.9469, 35.0683], [135.026, 35.0723], [135.0263, 35.0578], [135.038, 35.0526], [135.0604, 35.0537], [135.0633, 35.0469], [135.1102, 35.0608], [135.1269, 35.0502], [135.131, 35.0517], [135.1287, 35.067], [135.1216, 35.0732], [135.125, 35.0795], [135.1141, 35.0904], [135.1093, 35.1125], [135.1156, 35.1142], [135.1224, 35.1245], [135.1415, 35.1224], [135.1509, 35.1307], [135.1725, 35.1259], [135.2088, 35.1289], [135.2197, 35.1359], [135.2181, 35.1407], [135.2286, 35.1504], [135.2249, 35.1638], [135.2066, 35.1606], [135.1934, 35.1721], [135.1873, 35.1719], [135.1901, 35.1832], [135.1867, 35.1902], [135.2001, 35.1955], [135.1821, 35.216], [135.1751, 35.2146], [135.1547, 35.2267], [135.167, 35.2427], [135.1573, 35.2612], [135.1348, 35.265], [135.1289, 35.2607], [135.1093, 35.2663], [135.0912, 35.2581], [135.0829, 35.2464], [135.0679, 35.2374], [135.0569, 35.2645], [135.0375, 35.2607], [135.0105, 35.2697], [135.0119, 35.2805], [135.0073, 35.2856], [134.9376, 35.3076]]]}}, {"type": "Feature", "properties": {"osm_type": "relation", "osm_id": 140518896, "name": "Shiso", "admin_level": "6", "kind": "subdivision_2", "parent_osm_id": 356912, "parent_name": "Hyogo Prefecture", "parent_iso": "JP-28"}, "geometry": {"type": "Polygon", "coordinates": [[[134.6944, 35.2488], [134.6821, 35.2417], [134.6691, 35.2558], [134.6537, 35.2535], [134.6417, 35.2738], [134.6278, 35.2808], [134.6135, 35.2695], [134.6006, 35.2666], [134.5832, 35.278], [134.5791, 35.2963], [134.5045, 35.3373], [134.505, 35.3163], [134.5148, 35.3077], [134.5093, 35.2938], [134.5152, 35.2772], [134.4864, 35.2627], [134.4795, 35.2514], [134.4618, 35.2431], [134.4638, 35.2374], [134.4442, 35.2368], [134.4353, 35.2292], [134.4233, 35.2369], [134.4028, 35.241], [134.397, 35.2276], [134.3825, 35.2217], [134.383, 35.1944], [134.4111, 35.187], [134.4126, 35.1776], [134.4062, 35.1658], [134.4132, 35.1586], [134.4087, 35.1479], [134.416, 35.1386], [134.4112, 35.1316], [134.4127, 35.1236], [134.4285, 35.1216], [134.4456, 35.1035], [134.4377, 35.0956], [134.4415, 35.0899], [134.435, 35.0773], [134.4397, 35.049], [134.4356, 35.0393], [134.4496, 35.0337], [134.4687, 35.0352], [134.4926, 35.0006], [134.5125, 34.9997], [134.5082, 34.9894], [134.5166, 34.975], [134.5356, 34.968], [134.552, 34.9754], [134.5488, 34.9558], [134.5704, 34.9543], [134.5734, 34.968], [134.5644, 34.9721], [134.5642, 34.9769], [134.5704, 34.9858], [134.5787, 34.9871], [134.5829, 35.0056], [134.5925, 35.0164], [134.5914, 35.0434], [134.5992, 35.0587], [134.6102, 35.0605], [134.6053, 35.0619], [134.6062, 35.0693], [134.6182, 35.0851], [134.6237, 35.0865], [134.6251, 35.0821], [134.637, 35.0881], [134.6502, 35.0875], [134.6589, 35.0811], [134.6626, 35.0898], [134.6718, 35.0932], [134.664, 35.0986], [134.6655, 35.1049], [134.6562, 35.1102], [134.6631, 35.1228], [134.6567, 35.1327], [134.6714, 35.1533], [134.6698, 35.1683], [134.6873, 35.17], [134.6978, 35.1835], [134.7274, 35.1891], [134.7282, 35.1931], [134.7213, 35.1958], [134.7103, 35.2121], [134.6978, 35.2145], [134.6974, 35.229], [134.6904, 35.2349], [134.697, 35.2416], [134.6944, 35.2488]]]}}, {"type": "Feature", "properties": {"osm_type": "relation", "osm_id": 773523189, "name": "Sayo", "admin_level": "6", "kind": "subdivision_2", "parent_osm_id": 356912, "parent_name": "Hyogo Prefecture", "parent_iso": "JP-28"}, "geometry": {"type": "Polygon", "coordinates": [[[134.4087, 35.1479], [134.3943, 35.1527], [134.3674, 35.147], [134.3564, 35.1248], [134.3607, 35.1203], [134.3535, 35.1143], [134.355, 35.0994], [134.3496, 35.0902], [134.3191, 35.0834], [134.3217, 35.0688], [134.3145, 35.0609], [134.3163, 35.0432], [134.3077, 35.0455], [134.3053, 35.0402], [134.2978, 35.0431], [134.2928, 35.0377], [134.2812, 35.0369], [134.2752, 35.0233], [134.2644, 35.0167], [134.2658, 35.005], [134.2861, 34.9953], [134.2711, 34.9839], [134.2696, 34.9787], [134.2766, 34.9771], [134.277, 34.9633], [134.2542, 34.946], [134.2546, 34.9377], [134.2731, 34.9326], [134.2748, 34.9243], [134.2845, 34.921], [134.2931, 34.9081], [134.3, 34.9139], [134.298, 34.9207], [134.3265, 34.9378], [134.3329, 34.9369], [134.3275, 34.929], [134.3387, 34.9249], [134.3601, 34.9424], [134.3773, 34.9422], [134.3876, 34.9348], [134.4249, 34.942], [134.4302, 34.9479], [134.4287, 34.9557], [134.4404, 34.9667], [134.4625, 34.9686], [134.4671, 34.9773], [134.4758, 34.9789], [134.4736, 34.9879], [134.4866, 35.0131], [134.4687, 35.0352], [134.4496, 35.0337], [134.4356, 35.0393], [134.4397, 35.049], [134.435, 35.0773], [134.4415, 35.0899], [134.4377, 35.0956], [134.4456, 35.1035], [134.4285, 35.1216], [134.4127, 35.1236], [134.4112, 35.1316], [134.416, 35.1386], [134.4087, 35.1479]]]}}, {"type": "Feature", "properties": {"osm_type": "relation", "osm_id": 827872763, "name": "Kamikawa", "admin_level": "6", "kind": "subdivision_2", "parent_osm_id": 356912, "parent_name": "Hyogo Prefecture", "parent_iso": "JP-28"}, "geometry": {"type": "Polygon", "coordinates": [[[134.7209, 35.1865], [134.6978, 35.1835], [134.6873, 35.17], [134.6698, 35.1683], [134.6714, 35.1533], [134.6567, 35.1327], [134.6631, 35.1228], [134.6562, 35.1102], [134.6655, 35.1049], [134.6658, 35.0961], [134.6833, 35.0927], [134.6856, 35.082], [134.6989, 35.0775], [134.7015, 35.0585], [134.71, 35.0537], [134.7174, 35.0565], [134.7348, 35.0522], [134.7446, 35.0397], [134.7613, 35.0438], [134.7672, 35.0353], [134.7679, 35.04], [134.7749, 35.0411], [134.7939, 35.0383], [134.8132, 35.0559], [134.8363, 35.06], [134.845, 35.084], [134.8562, 35.0892], [134.8501, 35.1035], [134.8539, 35.1133], [134.8656, 35.1179], [134.8754, 35.1395], [134.8907, 35.1462], [134.9036, 35.1608], [134.8976, 35.1715], [134.9074, 35.183], [134.9058, 35.1923], [134.8899, 35.1956], [134.8792, 35.175], [134.8443, 35.1622], [134.8445, 35.1493], [134.8354, 35.14], [134.8252, 35.1345], [134.8157, 35.1438], [134.8052, 35.1401], [134.7898, 35.1423], [134.7737, 35.1258], [134.7667, 35.1363], [134.767, 35.1455], [134.7552, 35.1366], [134.7353, 35.1411], [134.7296, 35.1472], [134.7235, 35.1599], [134.7283, 35.166], [134.7176, 35.1795], [134.7209, 35.1865]]]}}, {"type": "Feature", "properties": {"osm_type": "relation", "osm_id": 521869891, "name": "Sasayama", "admin_level": "6", "kind": "subdivision_2", "parent_osm_id": 356912, "parent_name": "Hyogo Prefecture", "parent_iso": "JP-28"}, "geometry": {"type": "Polygon", "coordinates": [[[135.2249, 35.1638], [135.2286, 35.1504], [135.2181, 35.1407], [135.2197, 35.1359], [135.2088, 35.1289], [135.1725, 35.1259], [135.1509, 35.1307], [135.1415, 35.1224], [135.1224, 35.1245], [135.1156, 35.1142], [135.1093, 35.1125], [135.1141, 35.0904], [135.125, 35.0795], [135.1216, 35.0732], [135.1287, 35.067], [135.131, 35.0517], [135.1269, 35.0502], [135.1102, 35.0608], [135.096, 35.055], [135.1008, 35.0486], [135.0961, 35.0422], [135.0709, 35.0258], [135.0594, 35.0089], [135.0702, 35.0033], [135.0725, 34.9933], [135.0788, 34.9955], [135.0819, 34.9886], [135.0937, 34.991], [135.0927, 34.9646], [135.1003, 34.9582], [135.116, 34.9646], [135.1216, 34.956], [135.1266, 34.9559], [135.1399, 34.9703], [135.1395, 34.9899], [135.1458, 34.9923], [135.1576, 34.9877], [135.1676, 35.0008], [135.1702, 34.9954], [135.1749, 34.9964], [135.1755, 35.0092], [135.1924, 35.0177], [135.1968, 35.0273], [135.2142, 35.0276], [135.2203, 35.0353], [135.2317, 35.0282], [135.2388, 35.037], [135.2517, 35.0251], [135.2486, 35.0234], [135.2534, 35.0217], [135.2549, 35.0115], [135.285, 35.0158], [135.2878, 35.0115], [135.3089, 35.0097], [135.3214, 35.0141], [135.3228, 35.0247], [135.3398, 35.0259], [135.3327, 35.0373], [135.3392, 35.0437], [135.3491, 35.0462], [135.3495, 35.0509], [135.3712, 35.0453], [135.3687, 35.0549], [135.3772, 35.0609], [135.3766, 35.066], [135.3995, 35.0761], [135.4043, 35.089], [135.3877, 35.0992], [135.3933, 35.1105], [135.3861, 35.1207], [135.3898, 35.1288], [135.3432, 35.1356], [135.3374, 35.1441], [135.341, 35.1497], [135.2937, 35.1416], [135.2823, 35.1451], [135.2785, 35.1511], [135.2922, 35.1613], [135.2893, 35.1724], [135.2741, 35.1772], [135.232, 35.1775], [135.2249, 35.1638]]]}}, {"type": "Feature", "properties": {"osm_type": "relation", "osm_id": 599458517, "name": "Takarazuka", "admin_level": "6", "kind": "subdivision_2", "parent_osm_id": 356912, "parent_name": "Hyogo Prefecture", "parent_iso": "JP-28"}, "geometry": {"type": "Polygon", "coordinates": [[[135.3608, 34.8638], [135.3505, 34.8642], [135.3393, 34.8757], [135.3362, 34.8915], [135.3239, 34.8938], [135.3223, 34.8985], [135.3387, 34.9031], [135.3421, 34.9114], [135.3339, 34.9166], [135.3306, 34.9323], [135.3251, 34.9342], [135.3265, 34.9413], [135.314, 34.9531], [135.3145, 34.9596], [135.3053, 34.9624], [135.303, 34.9493], [135.3094, 34.9399], [135.3056, 34.9236], [135.2945, 34.9282], [135.2768, 34.9206], [135.2745, 34.8947], [135.2937, 34.8592], [135.3018, 34.8584], [135.3007, 34.8541], [135.3139, 34.8582], [135.3137, 34.8489], [135.3243, 34.8344], [135.3231, 34.8262], [135.3377, 34.8156], [135.302, 34.801], [135.307, 34.7921], [135.3009, 34.7879], [135.3131, 34.7888], [135.3536, 34.7721], [135.3696, 34.7762], [135.3698, 34.7924], [135.3784, 34.7909], [135.3834, 34.7961], [135.3754, 34.8108], [135.3892, 34.8148], [135.3948, 34.8057], [135.4037, 34.8095], [135.4, 34.8242], [135.4111, 34.8344], [135.4101, 34.8426], [135.3704, 34.8494], [135.3736, 34.8574], [135.3608, 34.8638]]]}}, {"type": "Feature", "properties": {"osm_type": "relation", "osm_id": 458246800, "name": "Sanda", "admin_level": "6", "kind": "subdivision_2", "parent_osm_id": 356912, "parent_name": "Hyogo Prefecture", "parent_iso": "JP-28"}, "geometry": {"type": "Polygon", "coordinates": [[[135.0927, 34.9646], [135.0936, 34.9544], [135.1037, 34.9476], [135.1075, 34.9298], [135.1216, 34.9291], [135.1455, 34.9427], [135.1528, 34.9242], [135.1507, 34.9146], [135.1631, 34.8901], [135.1824, 34.8886], [135.2012, 34.876], [135.2121, 34.8783], [135.2287, 34.8726], [135.2615, 34.8852], [135.2804, 34.8857], [135.2745, 34.8947], [135.2752, 34.9173], [135.2945, 34.9282], [135.3056, 34.9236], [135.3094, 34.9399], [135.303, 34.9493], [135.3053, 34.9624], [135.298, 34.9743], [135.3017, 34.9823], [135.3104, 34.9846], [135.3029, 34.9951], [135.2863, 34.9974], [135.2899, 35.009], [135.285, 35.0158], [135.2549, 35.0115], [135.2534, 35.0217], [135.2486, 35.0234], [135.2517, 35.0251], [135.2388, 35.037], [135.2353, 35.0287], [135.2269, 35.0284], [135.2203, 35.0353], [135.2142, 35.0276], [135.1968, 35.0273], [135.1924, 35.0177], [135.1755, 35.0092], [135.1769, 34.9984], [135.1702, 34.9954], [135.1676, 35.0008], [135.1646, 34.9991], [135.1609, 34.9891], [135.1395, 34.9899], [135.1399, 34.9703], [135.1266, 34.9559], [135.1216, 34.956], [135.116, 34.9646], [135.1003, 34.9582], [135.0927, 34.9646]]]}}, {"type": "Feature", "properties": {"osm_type": "relation", "osm_id": 900853822, "name": "Inagawa", "admin_level": "6", "kind": "subdivision_2", "parent_osm_id": 356912, "parent_name": "Hyogo Prefecture", "parent_iso": "JP-28"}, "geometry": {"type": "Polygon", "coordinates": [[[135.3398, 35.0259], [135.3228, 35.0247], [135.3214, 35.0141], [135.3089, 35.0097], [135.2878, 35.0115], [135.2852, 34.9997], [135.3029, 34.9951], [135.3104, 34.9846], [135.3017, 34.9823], [135.298, 34.9743], [135.3021, 34.9629], [135.3145, 34.9596], [135.314, 34.9531], [135.3265, 34.9413], [135.3251, 34.9342], [135.3306, 34.9323], [135.3339, 34.9166], [135.3421, 34.9114], [135.3387, 34.9031], [135.3223, 34.8985], [135.3239, 34.8938], [135.3362, 34.8915], [135.3393, 34.8757], [135.3505, 34.8642], [135.3608, 34.8638], [135.3651, 34.8739], [135.3718, 34.8701], [135.3719, 34.8742], [135.3837, 34.8775], [135.3808, 34.8911], [135.3976, 34.9115], [135.4067, 34.9157], [135.4113, 34.9227], [135.4071, 34.9281], [135.4163, 34.9298], [135.4178, 34.9395], [135.4073, 34.9437], [135.3924, 34.9414], [135.3819, 34.9562], [135.3607, 34.9544], [135.3464, 34.9647], [135.3505, 34.9802], [135.3595, 34.9825], [135.3526, 34.9904], [135.3547, 35.0246], [135.3398, 35.0259]]]}}, {"type": "Feature", "properties": {"osm_type": "relation", "osm_id": 508427268, "name": "Nishiwaki", "admin_level": "6", "kind": "subdivision_2", "parent_osm_id": 356912, "parent_name": "Hyogo Prefecture", "parent_iso": "JP-28"}, "geometry": {"type": "Polygon", "coordinates": [[[134.892, 34.9812], [134.8945, 34.9646], [134.9259, 34.9565], [134.9338, 34.9606], [134.9629, 34.9611], [134.9731, 34.9528], [135.004, 34.9647], [135.0317, 34.9654], [135.0514, 34.9769], [135.045, 34.9966], [135.0709, 35.0258], [135.1008, 35.0486], [135.096, 35.055], [135.0831, 35.0538], [135.0719, 35.0468], [135.0633, 35.0469], [135.0604, 35.0537], [135.0311, 35.0547], [135.0263, 35.0578], [135.026, 35.0723], [134.9786, 35.0702], [134.9766, 35.0619], [134.9641, 35.0553], [134.9718, 35.0383], [134.9599, 35.0305], [134.9549, 35.0371], [134.9422, 35.0355], [134.9493, 35.0333], [134.9447, 35.0251], [134.9476, 35.0239], [134.934, 35.0168], [134.9216, 34.9825], [134.9061, 34.9807], [134.8988, 34.9869], [134.892, 34.9812]]]}}, {"type": "Feature", "properties": {"osm_type": "relation", "osm_id": 745715549, "name": "Himeji", "admin_level": "6", "kind": "subdivision_2", "parent_osm_id": 356912, "parent_name": "Hyogo Prefecture", "parent_iso": "JP-28"}, "geometry": {"type": "MultiPolygon", "coordinates": [[[[134.5157, 34.6595], [134.5019, 34.6456], [134.5146, 34.6365], [134.5179, 34.644], [134.5104, 34.648], [134.5182, 34.6502], [134.5157, 34.6595]]], [[[134.4873, 34.6711], [134.4872, 34.663], [134.4804, 34.6589], [134.4786, 34.6639], [134.4763, 34.6596], [134.4675, 34.6614], [134.4705, 34.6661], [134.4643, 34.6646], [134.4604, 34.6448], [134.4676, 34.6404], [134.4808, 34.6499], [134.4906, 34.6481], [134.4841, 34.6417], [134.5001, 34.6441], [134.4951, 34.6594], [134.4906, 34.6593], [134.4959, 34.6674], [134.4873, 34.6711]]], [[[134.5721, 34.6771], [134.5616, 34.6688], [134.576, 34.6509], [134.5914, 34.6653], [134.5721, 34.6771]]], [[[134.5356, 34.6866], [134.5105, 34.6767], [134.5174, 34.6682], [134.5419, 34.6582], [134.5455, 34.6609], [134.5461, 34.6793], [134.5282, 34.677], [134.5356, 34.6866]]], [[[134.5704, 34.9543], [134.5738, 34.9406], [134.5679, 34.9275], [134.5719, 34.9114], [134.5634, 34.9032], [134.5711, 34.8964], [134.588, 34.8947], [134.5934, 34.8983], [134.598, 34.8949], [134.5984, 34.8804], [134.5874, 34.8702], [134.5847, 34.8602], [134.5888, 34.8564], [134.5966, 34.8585], [134.607, 34.8496], [134.6169, 34.8528], [134.6153, 34.8462], [134.6317, 34.837], [134.6273, 34.8208], [134.6195, 34.8178], [134.6031, 34.8201], [134.6044, 34.8264], [134.5955, 34.8276], [134.5811, 34.8223], [134.5889, 34.8207], [134.5775, 34.809], [134.5575, 34.8093], [134.573, 34.7892], [134.5699, 34.758], [134.5865, 34.7619], [134.5855, 34.7702], [134.6035, 34.7747], [134.6054, 34.7795], [134.613, 34.7771], [134.6088, 34.775], [134.6115, 34.7678], [134.6286, 34.7731], [134.6225, 34.7838], [134.6439, 34.7834], [134.6319, 34.7775], [134.632, 34.7726], [134.6334, 34.7673], [134.6457, 34.7673], [134.6462, 34.7795], [134.6543, 34.7828], [134.6556, 34.7884], [134.6501, 34.7707], [134.6642, 34.7839], [134.6703, 34.78], [134.6597, 34.7738], [134.6679, 34.7707], [134.6737, 34.7765], [134.6832, 34.7721], [134.6853, 34.7782], [134.6895, 34.7773], [134.6877, 34.7712], [134.7019, 34.7721], [134.7002, 34.7777], [134.7335, 34.7673], [134.7447, 34.7692], [134.7597, 34.7604], [134.7672, 34.782], [134.7579, 34.7922], [134.7498, 34.7757], [134.7451, 34.7878], [134.7482, 34.7915], [134.7427, 34.798], [134.7462, 34.8057], [134.7515, 34.7954], [134.7643, 34.7966], [134.7736, 34.8085], [134.7715, 34.8133], [134.7796, 34.8173], [134.7749, 34.8238], [134.7636, 34.8254], [134.7646, 34.8303], [134.7749, 34.8287], [134.7769, 34.8393], [134.7989, 34.8399], [134.7988, 34.8445], [134.8035, 34.8434], [134.796, 34.865], [134.8071, 34.8622], [134.8136, 34.8671], [134.8078, 34.8749], [134.7892, 34.8811], [134.7861, 34.8874], [134.7967, 34.9056], [134.7922, 34.9201], [134.7848, 34.9176], [134.77, 34.9242], [134.7674, 34.9354], [134.729, 34.9381], [134.7175, 34.9528], [134.7174, 34.9661], [134.705, 34.9801], [134.7123, 34.9938], [134.7008, 35.0013], [134.6951, 35.0116], [134.706, 35.0199], [134.7103, 35.0316], [134.7206, 35.0355], [134.7203, 35.0532], [134.7015, 35.0585], [134.6989, 35.0775], [134.6856, 35.082], [134.6833, 35.0927], [134.6754, 35.0943], [134.6626, 35.0898], [134.6589, 35.0811], [134.6502, 35.0875], [134.637, 35.0881], [134.6251, 35.0821], [134.6237, 35.0865], [134.6182, 35.0851], [134.6062, 35.0693], [134.6053, 35.0619], [134.6102, 35.0605], [134.5992, 35.0587], [134.5914, 35.0434], [134.5944, 35.0226], [134.5829, 35.0056], [134.5787, 34.9871], [134.5704, 34.9858], [134.5642, 34.9769], [134.5644, 34.9721], [134.5734, 34.968], [134.5704, 34.9543]]]]}}, {"type": "Feature", "properties": {"osm_type": "relation", "osm_id": 733725299, "name": "Kamigori", "admin_level": "6", "kind": "subdivision_2", "parent_osm_id": 356912, "parent_name": "Hyogo Prefecture", "parent_iso": "JP-28"}, "geometry": {"type": "Polygon", "coordinates": [[[134.295, 34.9075], [134.2891, 34.8977], [134.2693, 34.8891], [134.2701, 34.8838], [134.2627, 34.8839], [134.2671, 34.8755], [134.2593, 34.8704], [134.2537, 34.8531], [134.2653, 34.8404], [134.2618, 34.8358], [134.2638, 34.8267], [134.2874, 34.8288], [134.2879, 34.8216], [134.2956, 34.8181], [134.2987, 34.8231], [134.3222, 34.8269], [134.3187, 34.8393], [134.3261, 34.8482], [134.3376, 34.8527], [134.3441, 34.8455], [134.3523, 34.8474], [134.3654, 34.8422], [134.369, 34.8596], [134.3864, 34.8398], [134.4059, 34.8534], [134.4122, 34.8515], [134.4244, 34.8791], [134.4188, 34.8822], [134.4199, 34.8871], [134.4332, 34.8968], [134.4341, 34.9041], [134.4486, 34.909], [134.4516, 34.9202], [134.4446, 34.9391], [134.4333, 34.9454], [134.4146, 34.938], [134.3876, 34.9348], [134.3773, 34.9422], [134.3601, 34.9424], [134.3387, 34.9249], [134.3275, 34.929], [134.3329, 34.9369], [134.3302, 34.9382], [134.3176, 34.9304], [134.3147, 34.9333], [134.3139, 34.9276], [134.298, 34.9207], [134.3, 34.9139], [134.295, 34.9075]]]}}, {"type": "Feature", "properties": {"osm_type": "relation", "osm_id": 756929017, "name": "Tatsuno", "admin_level": "6", "kind": "subdivision_2", "parent_osm_id": 356912, "parent_name": "Hyogo Prefecture", "parent_iso": "JP-28"}, "geometry": {"type": "Polygon", "coordinates": [[[134.4847, 35.0073], [134.4736, 34.9879], [134.4758, 34.9789], [134.4671, 34.9773], [134.4625, 34.9686], [134.4404, 34.9667], [134.4267, 34.9515], [134.4488, 34.9316], [134.4486, 34.909], [134.4707, 34.9077], [134.4749, 34.9212], [134.4846, 34.9217], [134.4868, 34.9193], [134.4795, 34.9122], [134.4914, 34.9047], [134.4894, 34.8997], [134.496, 34.8932], [134.488, 34.8889], [134.4922, 34.883], [134.4827, 34.8788], [134.4811, 34.8695], [134.4639, 34.8614], [134.4645, 34.8505], [134.4749, 34.8473], [134.4824, 34.8304], [134.4876, 34.8258], [134.4983, 34.8303], [134.5036, 34.8133], [134.4977, 34.7976], [134.5021, 34.7835], [134.4767, 34.7715], [134.4743, 34.7552], [134.4809, 34.7597], [134.4814, 34.7663], [134.4918, 34.7665], [134.5003, 34.7746], [134.5049, 34.7613], [134.5268, 34.7827], [134.5396, 34.771], [134.5595, 34.7695], [134.5584, 34.7642], [134.5699, 34.758], [134.573, 34.7892], [134.5575, 34.8093], [134.557, 34.8295], [134.5662, 34.8445], [134.5766, 34.845], [134.5874, 34.8702], [134.5984, 34.8804], [134.598, 34.8949], [134.5934, 34.8983], [134.588, 34.8947], [134.5711, 34.8964], [134.5634, 34.9032], [134.5719, 34.9114], [134.5679, 34.9275], [134.5738, 34.9406], [134.5704, 34.9543], [134.5488, 34.9558], [134.552, 34.9754], [134.5356, 34.968], [134.5166, 34.975], [134.5082, 34.9894], [134.5125, 34.9997], [134.4926, 35.0006], [134.4847, 35.0073]]]}}, {"type": "Feature", "properties": {"osm_type": "relation", "osm_id": 970275632, "name": "Aioi", "admin_level": "6", "kind": "subdivision_2", "parent_osm_id": 356912, "parent_name": "Hyogo Prefecture", "parent_iso": "JP-28"}, "geometry": {"type": "Polygon", "coordinates": [[[134.4122, 34.8515], [134.4085, 34.8383], [134.4135, 34.8304], [134.4092, 34.8244], [134.4254, 34.8088], [134.4223, 34.7978], [134.4259, 34.7895], [134.4456, 34.7877], [134.4406, 34.7752], [134.4594, 34.7687], [134.4508, 34.7538], [134.4566, 34.756], [134.4639, 34.7639], [134.4565, 34.7835], [134.466, 34.7906], [134.4679, 34.7981], [134.4593, 34.8038], [134.4645, 34.8044], [134.4701, 34.7977], [134.468, 34.7929], [134.4761, 34.7872], [134.4698, 34.7843], [134.4743, 34.7552], [134.4767, 34.7715], [134.503, 34.7853], [134.4981, 34.7933], [134.5036, 34.8133], [134.4983, 34.8303], [134.4876, 34.8258], [134.4749, 34.8473], [134.4645, 34.8505], [134.4639, 34.8614], [134.4811, 34.8695], [134.4827, 34.8788], [134.4922, 34.883], [134.488, 34.8889], [134.496, 34.8932], [134.4894, 34.8997], [134.4914, 34.9047], [134.4795, 34.9122], [134.4868, 34.9193], [134.4749, 34.9212], [134.4707, 34.9077], [134.4455, 34.9094], [134.4399, 34.9031], [134.4341, 34.9041], [134.4332, 34.8968], [134.4199, 34.8871], [134.4188, 34.8822], [134.4244, 34.8791], [134.4122, 34.8515]]]}}, {"type": "Feature", "properties": {"osm_type": "relation", "osm_id": 242904721, "name": "Fukusaki", "admin_level": "6", "kind": "subdivision_2", "parent_osm_id": 356912, "parent_name": "Hyogo Prefecture", "parent_iso": "JP-28"}, "geometry": {"type": "Polygon", "coordinates": [[[134.7937, 34.9179], [134.7942, 34.9291], [134.8004, 34.9362], [134.796, 34.9534], [134.8054, 34.9696], [134.7884, 34.9723], [134.7624, 34.9637], [134.7629, 34.9779], [134.7323, 34.9869], [134.7202, 35.0137], [134.706, 35.0199], [134.6983, 35.0176], [134.6951, 35.0116], [134.7008, 35.0013], [134.7123, 34.9938], [134.705, 34.9801], [134.7065, 34.9739], [134.7174, 34.9661], [134.7151, 34.9573], [134.729, 34.9381], [134.7674, 34.9354], [134.77, 34.9242], [134.7937, 34.9179]]]}}, {"type": "Feature", "properties": {"osm_type": "relation", "osm_id": 347194060, "name": "Kasai", "admin_level": "6", "kind": "subdivision_2", "parent_osm_id": 356912, "parent_name": "Hyogo Prefecture", "parent_iso": "JP-28"}, "geometry": {"type": "Polygon", "coordinates": [[[134.8467, 35.0185], [134.8327, 35.0055], [134.8302, 34.9899], [134.8213, 34.9917], [134.8216, 34.9873], [134.8134, 34.9845], [134.811, 34.9739], [134.796, 34.9534], [134.8004, 34.9362], [134.7942, 34.9291], [134.7967, 34.9056], [134.7861, 34.8874], [134.7892, 34.8811], [134.8106, 34.8718], [134.8169, 34.8644], [134.8119, 34.8566], [134.8161, 34.8531], [134.8287, 34.8575], [134.8501, 34.85], [134.8577, 34.8541], [134.8648, 34.8516], [134.8728, 34.8401], [134.8877, 34.8402], [134.8898, 34.8642], [134.9059, 34.8827], [134.8982, 34.8907], [134.9037, 34.8952], [134.9068, 34.9089], [134.8972, 34.9114], [134.9094, 34.9195], [134.9022, 34.9295], [134.9053, 34.9339], [134.9184, 34.9284], [134.9336, 34.9335], [134.9341, 34.9498], [134.9299, 34.9579], [134.8945, 34.9646], [134.892, 34.9812], [134.8659, 34.9813], [134.8607, 34.9896], [134.8605, 35.0058], [134.8467, 35.0185]]]}}, {"type": "Feature", "properties": {"osm_type": "relation", "osm_id": 143691916, "name": "Ichikawa", "admin_level": "6", "kind": "subdivision_2", "parent_osm_id": 356912, "parent_name": "Hyogo Prefecture", "parent_iso": "JP-28"}, "geometry": {"type": "Polygon", "coordinates": [[[134.8363, 35.06], [134.8132, 35.0559], [134.7939, 35.0383], [134.7749, 35.0411], [134.7679, 35.04], [134.7672, 35.0353], [134.7613, 35.0438], [134.7446, 35.0397], [134.7348, 35.0522], [134.7203, 35.0532], [134.7184, 35.0437], [134.7222, 35.0382], [134.7103, 35.0316], [134.706, 35.0199], [134.7202, 35.0137], [134.7323, 34.9869], [134.7629, 34.9779], [134.7624, 34.9637], [134.7884, 34.9723], [134.809, 34.9706], [134.8134, 34.9845], [134.8216, 34.9873], [134.8213, 34.9917], [134.8302, 34.9899], [134.8327, 35.0055], [134.8467, 35.0185], [134.8482, 35.0243], [134.8379, 35.0376], [134.848, 35.0473], [134.8363, 35.06]]]}}, {"type": "Feature", "properties": {"osm_type": "relation", "osm_id": 688940126, "name": "Kato", "admin_level": "6", "kind": "subdivision_2", "parent_osm_id": 356912, "parent_name": "Hyogo Prefecture", "parent_iso": "JP-28"}, "geometry": {"type": "Polygon", "coordinates": [[[135.0594, 35.0089], [135.045, 34.9966], [135.0452, 34.987], [135.0524, 34.9817], [135.0411, 34.9686], [135.004, 34.9647], [134.9731, 34.9528], [134.9629, 34.9611], [134.9338, 34.9606], [134.9299, 34.9579], [134.9336, 34.9335], [134.9184, 34.9284], [134.9053, 34.9339], [134.9022, 34.9295], [134.9094, 34.9195], [134.8972, 34.9114], [134.9068, 34.9089], [134.9103, 34.9152], [134.9133, 34.9063], [134.9219, 34.9153], [134.93, 34.9128], [134.9289, 34.9082], [134.938, 34.8981], [134.9289, 34.8799], [134.9422, 34.8854], [134.9641, 34.884], [134.973, 34.8971], [135.0014, 34.9008], [135.005, 34.8894], [135.0235, 34.8792], [135.0248, 34.853], [135.0413, 34.8618], [135.0474, 34.8606], [135.0627, 34.8717], [135.0622, 34.8844], [135.0859, 34.8865], [135.0942, 34.8918], [135.1098, 34.9219], [135.1184, 34.9289], [135.1075, 34.9298], [135.1037, 34.9476], [135.0936, 34.9544], [135.0937, 34.991], [135.0819, 34.9886], [135.0788, 34.9955], [135.0725, 34.9933], [135.0702, 35.0033], [135.0594, 35.0089]]]}}, {"type": "Feature", "properties": {"osm_type": "relation", "osm_id": 529571871, "name": "Nishinomiya", "admin_level": "6", "kind": "subdivision_2", "parent_osm_id": 356912, "parent_name": "Hyogo Prefecture", "parent_iso": "JP-28"}, "geometry": {"type": "MultiPolygon", "coordinates": [[[[135.3382, 34.7191], [135.3302, 34.7217], [135.3249, 34.7103], [135.3387, 34.7109], [135.3382, 34.7191]]], [[[135.2938, 34.8613], [135.2829, 34.849], [135.2656, 34.8484], [135.2606, 34.842], [135.244, 34.8481], [135.2332, 34.8454], [135.2297, 34.8247], [135.2337, 34.8125], [135.2467, 34.8035], [135.2488, 34.8087], [135.2698, 34.8018], [135.2676, 34.7809], [135.2845, 34.7807], [135.2947, 34.7755], [135.3174, 34.7461], [135.3243, 34.7255], [135.3454, 34.7216], [135.3437, 34.7186], [135.3632, 34.7063], [135.363, 34.7016], [135.3539, 34.6968], [135.3657, 34.6859], [135.3842, 34.7212], [135.3734, 34.7573], [135.3724, 34.7845], [135.3696, 34.7762], [135.3536, 34.7721], [135.3131, 34.7888], [135.3009, 34.7879], [135.307, 34.7921], [135.302, 34.801], [135.3377, 34.8156], [135.3231, 34.8262], [135.3243, 34.8344], [135.3137, 34.8489], [135.3139, 34.8582], [135.3007, 34.8541], [135.3018, 34.8584], [135.2938, 34.8613]]]]}}, {"type": "Feature", "properties": {"osm_type": "relation", "osm_id": 589932808, "name": "Kawanishi", "admin_level": "6", "kind": "subdivision_2", "parent_osm_id": 356912, "parent_name": "Hyogo Prefecture", "parent_iso": "JP-28"}, "geometry": {"type": "Polygon", "coordinates": [[[135.4185, 34.9339], [135.4071, 34.9281], [135.4113, 34.9227], [135.4067, 34.9157], [135.3976, 34.9115], [135.3808, 34.8911], [135.3837, 34.8775], [135.3719, 34.8742], [135.3718, 34.8701], [135.3651, 34.8739], [135.3608, 34.8638], [135.3736, 34.8574], [135.3704, 34.8494], [135.4101, 34.8426], [135.4111, 34.8344], [135.4, 34.8242], [135.4041, 34.8005], [135.4237, 34.8021], [135.416, 34.8177], [135.4238, 34.8299], [135.4186, 34.8495], [135.4314, 34.8564], [135.4451, 34.8954], [135.4436, 34.8989], [135.4326, 34.8917], [135.4257, 34.9067], [135.4191, 34.9098], [135.4393, 34.9205], [135.4621, 34.9179], [135.4685, 34.9254], [135.4528, 34.9297], [135.4416, 34.9394], [135.4185, 34.9339]]]}}, {"type": "Feature", "properties": {"osm_type": "relation", "osm_id": 123419334, "name": "Ono", "admin_level": "6", "kind": "subdivision_2", "parent_osm_id": 356912, "parent_name": "Hyogo Prefecture", "parent_iso": "JP-28"}, "geometry": {"type": "Polygon", "coordinates": [[[134.8826, 34.8398], [134.8901, 34.8287], [134.9205, 34.8243], [134.9274, 34.8103], [134.941, 34.8057], [134.9522, 34.8143], [134.9684, 34.8159], [134.975, 34.823], [134.9977, 34.8287], [135.0025, 34.8381], [134.9968, 34.8421], [135.0097, 34.8544], [135.0248, 34.853], [135.0269, 34.8655], [135.0235, 34.8792], [135.005, 34.8894], [135.0014, 34.9008], [134.973, 34.8971], [134.9641, 34.884], [134.9422, 34.8854], [134.9289, 34.8799], [134.9363, 34.8912], [134.9373, 34.903], [134.9289, 34.9082], [134.93, 34.9128], [134.9219, 34.9153], [134.9133, 34.9063], [134.908, 34.9156], [134.9037, 34.8952], [134.8982, 34.8907], [134.9059, 34.8827], [134.8898, 34.8642], [134.8888, 34.8424], [134.8826, 34.8398]]]}}, {"type": "Feature", "properties": {"osm_type": "relation", "osm_id": 863756494, "name": "Miki", "admin_level": "6", "kind": "subdivision_2", "parent_osm_id": 356912, "parent_name": "Hyogo Prefecture", "parent_iso": "JP-28"}, "geometry": {"type": "Polygon", "coordinates": [[[135.1184, 34.9289], [135.1098, 34.9219], [135.0942, 34.8918], [135.0859, 34.8865], [135.0622, 34.8844], [135.0627, 34.8717], [135.0474, 34.8606], [135.0413, 34.8618], [135.0274, 34.8523], [135.0097, 34.8544], [134.9968, 34.8421], [135.0025, 34.8381], [134.9977, 34.8287], [134.975, 34.823], [134.9684, 34.8159], [134.9522, 34.8143], [134.941, 34.8057], [134.9274, 34.8103], [134.9257, 34.7957], [134.9351, 34.7791], [134.9629, 34.7772], [134.9614, 34.763], [134.9725, 34.7628], [134.9826, 34.7722], [135.0018, 34.7756], [135.0006, 34.7703], [135.0237, 34.7632], [135.0387, 34.7647], [135.0475, 34.7716], [135.0609, 34.7638], [135.0783, 34.7713], [135.0833, 34.7787], [135.0946, 34.7786], [135.0958, 34.7878], [135.075, 34.8057], [135.076, 34.8161], [135.1114, 34.8464], [135.1225, 34.8377], [135.1402, 34.8345], [135.1554, 34.8411], [135.1585, 34.8762], [135.1551, 34.8821], [135.1675, 34.8891], [135.1595, 34.8937], [135.1566, 34.9092], [135.1507, 34.9146], [135.1528, 34.9242], [135.1455, 34.9427], [135.1184, 34.9289]]]}}, {"type": "Feature", "properties": {"osm_type": "relation", "osm_id": 354683947, "name": "Kobe", "admin_level": "6", "kind": "subdivision_2", "parent_osm_id": 356912, "parent_name": "Hyogo Prefecture", "parent_iso": "JP-28"}, "geometry": {"type": "MultiPolygon", "coordinates": [[[[135.236, 34.6418], [135.2133, 34.64], [135.2092, 34.6301], [135.2406, 34.6331], [135.236, 34.6418]]], [[[135.2255, 34.6779], [135.22, 34.6828], [135.2103, 34.6813], [135.2014, 34.6736], [135.2023, 34.6592], [135.2172, 34.6502], [135.2452, 34.6508], [135.2389, 34.6613], [135.2281, 34.658], [135.2257, 34.662], [135.2364, 34.6653], [135.2334, 34.671], [135.221, 34.6673], [135.2317, 34.6738], [135.2163, 34.6751], [135.2255, 34.6779]]], [[[135.2814, 34.6976], [135.2522, 34.6933], [135.2545, 34.6778], [135.2905, 34.6816], [135.2895, 34.688], [135.2788, 34.6897], [135.2891, 34.6909], [135.2882, 34.6967], [135.2814, 34.6976]]], [[[135.2868, 34.7119], [135.2714, 34.7064], [135.272, 34.7023], [135.288, 34.704], [135.2868, 34.7119]]], [[[135.3037, 34.712], [135.3033, 34.7169], [135.294, 34.7176], [135.2934, 34.7048], [135.304, 34.7057], [135.3037, 34.712]]], [[[135.2804, 34.8857], [135.2615, 34.8852], [135.2287, 34.8726], [135.2121, 34.8783], [135.2012, 34.876], [135.1824, 34.8886], [135.1675, 34.8891], [135.1551, 34.8821], [135.1585, 34.8762], [135.1554, 34.8411], [135.1402, 34.8345], [135.1225, 34.8377], [135.1114, 34.8464], [135.076, 34.8161], [135.075, 34.8057], [135.0958, 34.7878], [135.0946, 34.7786], [135.0833, 34.7787], [135.0783, 34.7713], [135.0609, 34.7638], [135.0475, 34.7716], [135.0387, 34.7647], [135.0237, 34.7632], [135.0006, 34.7703], [135.0018, 34.7756], [134.9826, 34.7722], [134.9725, 34.7628], [134.9614, 34.763], [134.9661, 34.7512], [134.9485, 34.7326], [134.9101, 34.7203], [134.9123, 34.7112], [134.9215, 34.7088], [134.9306, 34.6991], [134.9429, 34.7126], [134.9647, 34.7119], [134.9652, 34.6856], [134.9767, 34.6586], [134.9997, 34.6569], [135.014, 34.6616], [135.0139, 34.6582], [135.0223, 34.6574], [135.029, 34.6609], [135.0325, 34.6584], [135.0187, 34.6433], [135.0456, 34.6248], [135.0745, 34.6283], [135.1105, 34.6411], [135.1833, 34.6494], [135.1869, 34.6531], [135.1786, 34.6607], [135.187, 34.6669], [135.1781, 34.6667], [135.1776, 34.6704], [135.1894, 34.6723], [135.1838, 34.6778], [135.1863, 34.6826], [135.1888, 34.6789], [135.1901, 34.6855], [135.1931, 34.6794], [135.2008, 34.6838], [135.2024, 34.6786], [135.2039, 34.6869], [135.2074, 34.6843], [135.2182, 34.69], [135.211, 34.694], [135.2054, 34.6908], [135.2114, 34.6959], [135.2252, 34.6996], [135.2185, 34.6969], [135.224, 34.6917], [135.238, 34.6932], [135.228, 34.7], [135.2532, 34.7002], [135.2544, 34.7082], [135.2694, 34.7062], [135.2945, 34.7195], [135.3036, 34.7188], [135.2843, 34.7444], [135.2893, 34.7446], [135.2802, 34.7519], [135.28, 34.7605], [135.2676, 34.7809], [135.2698, 34.8018], [135.2488, 34.8087], [135.2467, 34.8035], [135.2337, 34.8125], [135.2297, 34.8247], [135.2332, 34.8454], [135.244, 34.8481], [135.2606, 34.842], [135.2656, 34.8484], [135.2829, 34.849], [135.2898, 34.8556], [135.2938, 34.8613], [135.2804, 34.8857]]]]}}, {"type": "Feature", "properties": {"osm_type": "relation", "osm_id": 168051943, "name": "Kakogawa", "admin_level": "6", "kind": "subdivision_2", "parent_osm_id": 356912, "parent_name": "Hyogo Prefecture", "parent_iso": "JP-28"}, "geometry": {"type": "Polygon", "coordinates": [[[134.7785, 34.8158], [134.7946, 34.8126], [134.8035, 34.7913], [134.8139, 34.7867], [134.8101, 34.7839], [134.8227, 34.7743], [134.8233, 34.7713], [134.8134, 34.7711], [134.8069, 34.7573], [134.8087, 34.7322], [134.8131, 34.7308], [134.8089, 34.7184], [134.8313, 34.6995], [134.8286, 34.71], [134.8367, 34.7072], [134.8437, 34.7205], [134.8485, 34.7202], [134.8473, 34.7153], [134.8535, 34.7257], [134.8799, 34.7303], [134.8907, 34.7212], [134.9, 34.7256], [134.8858, 34.7373], [134.8873, 34.7491], [134.8801, 34.7558], [134.884, 34.7638], [134.8944, 34.7655], [134.8918, 34.7713], [134.8968, 34.7774], [134.9075, 34.7723], [134.9188, 34.7761], [134.9321, 34.7685], [134.9351, 34.7791], [134.9257, 34.7957], [134.9285, 34.8067], [134.9205, 34.8243], [134.8901, 34.8287], [134.8826, 34.8398], [134.8728, 34.8401], [134.8648, 34.8516], [134.8577, 34.8541], [134.8501, 34.85], [134.8287, 34.8575], [134.8161, 34.8531], [134.8119, 34.8566], [134.8169, 34.8644], [134.8136, 34.8671], [134.8071, 34.8622], [134.796, 34.865], [134.8035, 34.8434], [134.7988, 34.8445], [134.7989, 34.8399], [134.7769, 34.8393], [134.7749, 34.8287], [134.7646, 34.8303], [134.7636, 34.8254], [134.7764, 34.8229], [134.7785, 34.8158]]]}}, {"type": "Feature", "properties": {"osm_type": "relation", "osm_id": 271645087, "name": "Taishi", "admin_level": "6", "kind": "subdivision_2", "parent_osm_id": 356912, "parent_name": "Hyogo Prefecture", "parent_iso": "JP-28"}, "geometry": {"type": "Polygon", "coordinates": [[[134.5847, 34.8602], [134.5766, 34.845], [134.5662, 34.8445], [134.5604, 34.8384], [134.5575, 34.8093], [134.5775, 34.809], [134.5889, 34.8207], [134.5811, 34.8223], [134.5955, 34.8276], [134.6044, 34.8264], [134.6031, 34.8201], [134.6138, 34.8175], [134.6273, 34.8208], [134.6317, 34.837], [134.6153, 34.8462], [134.6169, 34.8528], [134.607, 34.8496], [134.5966, 34.8585], [134.5888, 34.8564], [134.5847, 34.8602]]]}}, {"type": "Feature", "properties": {"osm_type": "relation", "osm_id": 438692838, "name": "Ako", "admin_level": "6", "kind": "subdivision_2", "parent_osm_id": 356912, "parent_name": "Hyogo Prefecture", "parent_iso": "JP-28"}, "geometry": {"type": "Polygon", "coordinates": [[[134.2956, 34.8181], [134.3074, 34.8109], [134.3113, 34.8026], [134.3164, 34.8026], [134.3192, 34.7882], [134.3158, 34.781], [134.3348, 34.7689], [134.3215, 34.7617], [134.313, 34.7384], [134.3237, 34.731], [134.3217, 34.7219], [134.3399, 34.7391], [134.3448, 34.7354], [134.3636, 34.7408], [134.363, 34.7461], [134.3581, 34.7467], [134.3584, 34.7562], [134.3735, 34.7329], [134.3799, 34.7363], [134.3757, 34.7313], [134.3853, 34.7261], [134.3876, 34.7305], [134.4061, 34.7301], [134.4071, 34.7265], [134.4344, 34.7478], [134.426, 34.755], [134.4319, 34.756], [134.4331, 34.7662], [134.455, 34.7683], [134.4508, 34.7538], [134.4576, 34.7621], [134.4594, 34.7687], [134.4406, 34.7752], [134.4456, 34.7877], [134.4423, 34.7907], [134.4306, 34.7866], [134.4259, 34.7895], [134.4223, 34.7978], [134.4254, 34.8088], [134.4092, 34.8244], [134.4135, 34.8304], [134.4085, 34.8383], [134.4122, 34.8515], [134.4083, 34.8542], [134.3864, 34.8398], [134.369, 34.8596], [134.3654, 34.8422], [134.3523, 34.8474], [134.3441, 34.8455], [134.3376, 34.8527], [134.3261, 34.8482], [134.3187, 34.8393], [134.3222, 34.8269], [134.2987, 34.8231], [134.2956, 34.8181]]]}}, {"type": "Feature", "properties": {"osm_type": "relation", "osm_id": 903802147, "name": "Takasago", "admin_level": "6", "kind": "subdivision_2", "parent_osm_id": 356912, "parent_name": "Hyogo Prefecture", "parent_iso": "JP-28"}, "geometry": {"type": "Polygon", "coordinates": [[[134.7613, 34.7622], [134.7661, 34.7605], [134.7572, 34.7518], [134.7633, 34.7486], [134.7694, 34.7515], [134.7854, 34.7413], [134.7882, 34.7478], [134.7921, 34.7446], [134.7877, 34.74], [134.797, 34.7325], [134.8087, 34.7322], [134.8095, 34.7657], [134.8134, 34.7711], [134.8233, 34.7713], [134.8193, 34.7802], [134.8101, 34.7839], [134.8139, 34.7867], [134.8035, 34.7913], [134.7946, 34.8126], [134.7785, 34.8158], [134.7715, 34.8133], [134.7736, 34.8085], [134.7643, 34.7966], [134.7515, 34.7954], [134.7462, 34.8057], [134.7427, 34.798], [134.7482, 34.7915], [134.7451, 34.7878], [134.7498, 34.7757], [134.7579, 34.7922], [134.7672, 34.782], [134.7613, 34.7622]]]}}, {"type": "Feature", "properties": {"osm_type": "relation", "osm_id": 313951835, "name": "Akashi", "admin_level": "6", "kind": "subdivision_2", "parent_osm_id": 356912, "parent_name": "Hyogo Prefecture", "parent_iso": "JP-28"}, "geometry": {"type": "MultiPolygon", "coordinates": [[[[134.8629, 34.6899], [134.8777, 34.6845], [134.884, 34.6919], [134.8697, 34.7014], [134.8629, 34.6899]]], [[[134.9125, 34.7213], [134.8929, 34.7243], [134.8705, 34.7028], [134.9103, 34.6753], [134.9287, 34.6715], [134.9654, 34.6463], [134.9878, 34.6417], [134.9897, 34.6453], [135.0187, 34.6433], [135.0325, 34.6584], [135.0156, 34.6574], [135.014, 34.6616], [134.9997, 34.6569], [134.9767, 34.6586], [134.9652, 34.6856], [134.9647, 34.7119], [134.9429, 34.7126], [134.9306, 34.6991], [134.9215, 34.7088], [134.9123, 34.7112], [134.9125, 34.7213]]]]}}, {"type": "Feature", "properties": {"osm_type": "relation", "osm_id": 646011966, "name": "Harima", "admin_level": "6", "kind": "subdivision_2", "parent_osm_id": 356912, "parent_name": "Hyogo Prefecture", "parent_iso": "JP-28"}, "geometry": {"type": "MultiPolygon", "coordinates": [[[[134.8666, 34.6963], [134.8572, 34.692], [134.8629, 34.6899], [134.8666, 34.6963]]], [[[134.8697, 34.7014], [134.8638, 34.7007], [134.8697, 34.7014]]], [[[134.8536, 34.7109], [134.8481, 34.7122], [134.8532, 34.7056], [134.846, 34.7081], [134.84, 34.6966], [134.8535, 34.694], [134.8621, 34.7074], [134.8536, 34.7109]]], [[[134.8473, 34.7153], [134.8705, 34.7028], [134.8907, 34.7212], [134.8799, 34.7303], [134.8535, 34.7257], [134.8473, 34.7153]]]]}}, {"type": "Feature", "properties": {"osm_type": "relation", "osm_id": 697922772, "name": "Inami", "admin_level": "6", "kind": "subdivision_2", "parent_osm_id": 356912, "parent_name": "Hyogo Prefecture", "parent_iso": "JP-28"}, "geometry": {"type": "Polygon", "coordinates": [[[134.9351, 34.7791], [134.9321, 34.7685], [134.9188, 34.7761], [134.9075, 34.7723], [134.8968, 34.7774], [134.8918, 34.7713], [134.8944, 34.7655], [134.8805, 34.7604], [134.8873, 34.7491], [134.8836, 34.7426], [134.8913, 34.7315], [134.9125, 34.7213], [134.9541, 34.737], [134.9661, 34.7512], [134.9593, 34.7695], [134.9629, 34.7772], [134.9351, 34.7791]]]}}, {"type": "Feature", "properties": {"osm_type": "relation", "osm_id": 371760469, "name": "Ashiya", "admin_level": "6", "kind": "subdivision_2", "parent_osm_id": 356912, "parent_name": "Hyogo Prefecture", "parent_iso": "JP-28"}, "geometry": {"type": "MultiPolygon", "coordinates": [[[[135.3221, 34.715], [135.3062, 34.7132], [135.3067, 34.7082], [135.3209, 34.7048], [135.3221, 34.715]]], [[[135.2676, 34.7809], [135.28, 34.7605], [135.2802, 34.7519], [135.2893, 34.7446], [135.2843, 34.7444], [135.3063, 34.7145], [135.3238, 34.718], [135.3174, 34.7461], [135.2947, 34.7755], [135.2845, 34.7807], [135.2676, 34.7809]]]]}}, {"type": "Feature", "properties": {"osm_type": "relation", "osm_id": 442964653, "name": "Amagasaki", "admin_level": "6", "kind": "subdivision_2", "parent_osm_id": 356912, "parent_name": "Hyogo Prefecture", "parent_iso": "JP-28"}, "geometry": {"type": "Polygon", "coordinates": [[[135.4447, 34.7685], [135.4397, 34.7737], [135.4213, 34.7708], [135.4154, 34.7568], [135.4028, 34.7657], [135.3963, 34.7619], [135.3896, 34.7708], [135.384, 34.7687], [135.3734, 34.7812], [135.3734, 34.7573], [135.3842, 34.7212], [135.3657, 34.6859], [135.3713, 34.6808], [135.3775, 34.6927], [135.3851, 34.6965], [135.3893, 34.6919], [135.396, 34.7003], [135.4012, 34.6992], [135.3927, 34.6882], [135.3739, 34.6786], [135.3762, 34.6767], [135.392, 34.6801], [135.4064, 34.6976], [135.4458, 34.7181], [135.4474, 34.7334], [135.4603, 34.7331], [135.4559, 34.7605], [135.4501, 34.76], [135.4504, 34.7663], [135.4447, 34.7685]]]}}, {"type": "Feature", "properties": {"osm_type": "relation", "osm_id": 268092061, "name": "Itami", "admin_level": "6", "kind": "subdivision_2", "parent_osm_id": 356912, "parent_name": "Hyogo Prefecture", "parent_iso": "JP-28"}, "geometry": {"type": "Polygon", "coordinates": [[[135.4237, 34.8021], [135.4041, 34.8005], [135.4006, 34.8083], [135.3948, 34.8057], [135.3892, 34.8148], [135.3754, 34.8108], [135.3834, 34.7961], [135.3784, 34.7909], [135.3698, 34.7924], [135.3826, 34.7697], [135.3896, 34.7708], [135.39, 34.7655], [135.3985, 34.7609], [135.4028, 34.7657], [135.4154, 34.7568], [135.4213, 34.7708], [135.4397, 34.7737], [135.4447, 34.7685], [135.4427, 34.791], [135.4237, 34.8021]]]}}, {"type": "Feature", "properties": {"osm_type": "relation", "osm_id": 832564161, "name": "Awaji", "admin_level": "6", "kind": "subdivision_2", "parent_osm_id": 356912, "parent_name": "Hyogo Prefecture", "parent_iso": "JP-28"}, "geometry": {"type": "Polygon", "coordinates": [[[134.8947, 34.399], [134.8983, 34.4245], [134.9429, 34.4657], [134.9604, 34.4906], [134.9868, 34.5122], [134.9937, 34.5237], [134.9954, 34.5455], [135.0257, 34.5763], [135.0211, 34.59], [135.0029, 34.6091], [134.9758, 34.5977], [134.9352, 34.5496], [134.922, 34.5464], [134.9088, 34.5337], [134.8877, 34.5302], [134.8779, 34.5227], [134.8469, 34.477], [134.8337, 34.4661], [134.8199, 34.4692], [134.7982, 34.4493], [134.7877, 34.4272], [134.8125, 34.4265], [134.8204, 34.4204], [134.839, 34.4221], [134.8508, 34.402], [134.8582, 34.4039], [134.864, 34.4136], [134.8776, 34.4094], [134.8805, 34.3944], [134.8947, 34.399]]]}}, {"type": "Feature", "properties": {"osm_type": "relation", "osm_id": 477425441, "name": "Sumoto", "admin_level": "6", "kind": "subdivision_2", "parent_osm_id": 356912, "parent_name": "Hyogo Prefecture", "parent_iso": "JP-28"}, "geometry": {"type": "Polygon", "coordinates": [[[134.7877, 34.4272], [134.7799, 34.4133], [134.7758, 34.4165], [134.7627, 34.3858], [134.7548, 34.3845], [134.7406, 34.3525], [134.755, 34.354], [134.7616, 34.3478], [134.7748, 34.3546], [134.7771, 34.3483], [134.7837, 34.3513], [134.7911, 34.3478], [134.8157, 34.3556], [134.8259, 34.3388], [134.848, 34.3328], [134.8406, 34.3274], [134.844, 34.3199], [134.8412, 34.316], [134.8353, 34.3163], [134.8442, 34.2901], [134.8346, 34.2696], [134.8466, 34.266], [134.8709, 34.2399], [134.9525, 34.2672], [134.943, 34.2982], [134.9198, 34.3129], [134.9147, 34.3369], [134.9039, 34.3408], [134.8938, 34.3524], [134.8981, 34.3748], [134.8947, 34.399], [134.8805, 34.3944], [134.8776, 34.4094], [134.864, 34.4136], [134.8582, 34.4039], [134.8508, 34.402], [134.839, 34.4221], [134.8204, 34.4204], [134.8125, 34.4265], [134.7877, 34.4272]]]}}, {"type": "Feature", "properties": {"osm_type": "relation", "osm_id": 562417253, "name": "Minamiawaji", "admin_level": "6", "kind": "subdivision_2", "parent_osm_id": 356912, "parent_name": "Hyogo Prefecture", "parent_iso": "JP-28"}, "geometry": {"type": "MultiPolygon", "coordinates": [[[[134.8212, 34.1797], [134.8192, 34.1677], [134.8114, 34.1651], [134.813, 34.1561], [134.8227, 34.1571], [134.8307, 34.1653], [134.8303, 34.1723], [134.8212, 34.1797]]], [[[134.7406, 34.3525], [134.7297, 34.3296], [134.7222, 34.3302], [134.7063, 34.321], [134.6931, 34.3246], [134.6875, 34.331], [134.6611, 34.2959], [134.6542, 34.2932], [134.6631, 34.2874], [134.6593, 34.2724], [134.6716, 34.2684], [134.6764, 34.2564], [134.6621, 34.2441], [134.6951, 34.2477], [134.701, 34.2415], [134.7071, 34.2446], [134.7033, 34.2476], [134.7082, 34.2515], [134.7207, 34.2557], [134.7215, 34.2415], [134.7102, 34.2388], [134.6998, 34.2224], [134.7013, 34.2172], [134.7184, 34.215], [134.7307, 34.2067], [134.7297, 34.1889], [134.7341, 34.1887], [134.7764, 34.2005], [134.8004, 34.2], [134.8333, 34.2243], [134.8709, 34.2399], [134.8466, 34.266], [134.8346, 34.2696], [134.8442, 34.2901], [134.8353, 34.3163], [134.8412, 34.316], [134.844, 34.3199], [134.8406, 34.3274], [134.848, 34.3328], [134.8259, 34.3388], [134.8157, 34.3556], [134.7911, 34.3478], [134.7837, 34.3513], [134.7771, 34.3483], [134.7748, 34.3546], [134.7616, 34.3478], [134.755, 34.354], [134.7406, 34.3525]]]]}}]}