{"type": "FeatureCollection", "parent": {"osm_id": 3667317, "name": "Najran Region", "admin_level": "4", "kind": "subdivision_1", "child_kind": "subdivision_2", "iso": "SA-10"}, "features": [{"type": "Feature", "properties": {"osm_type": "relation", "osm_id": 784564887, "name": "Khubash", "admin_level": "6", "kind": "subdivision_2", "parent_osm_id": 3667317, "parent_name": "Najran Region", "parent_iso": "SA-10"}, "geometry": {"type": "Polygon", "coordinates": [[[45.5307, 18.5071], [45.4493, 18.3616], [45.4444, 18.3436], [45.4164, 18.3209], [45.409, 18.2938], [45.4062, 18.251], [45.3757, 18.1877], [45.3549, 18.1604], [45.3544, 18.135], [45.342, 18.1123], [45.3419, 18.0969], [45.043, 18.0414], [44.9619, 17.9963], [44.8511, 17.9551], [44.82, 17.92], [44.7847, 17.9294], [44.7466, 17.9522], [44.716, 17.9626], [44.6944, 17.9643], [44.6489, 17.9552], [44.5891, 17.9771], [44.5761, 17.9771], [44.5678, 17.9371], [44.5729, 17.8972], [44.5471, 17.7967], [44.5451, 17.7276], [44.5641, 17.7062], [44.5948, 17.572], [44.592, 17.5585], [44.5703, 17.5216], [44.5301, 17.521], [44.4842, 17.5242], [44.4713, 17.5297], [44.4611, 17.5427], [44.4582, 17.556], [44.3954, 17.5604], [44.3909, 17.5561], [44.3926, 17.5405], [44.4158, 17.5416], [44.4153, 17.5312], [44.4266, 17.5225], [44.4182, 17.5028], [44.3346, 17.4296], [44.4667, 17.4333], [44.5667, 17.4056], [44.65, 17.4333], [45.2167, 17.4333], [45.4, 17.3333], [46.1, 17.25], [46.3825, 17.2354], [46.3731, 17.4158], [46.3586, 17.4511], [46.3369, 17.4833], [46.3232, 17.4953], [46.2437, 17.5492], [46.1633, 17.6641], [46.1472, 17.6705], [46.1336, 17.693], [46.1103, 17.7581], [46.0781, 17.8023], [45.9754, 17.9037], [45.9061, 17.9541], [45.818, 18.1111], [45.6003, 18.3288], [45.5614, 18.4687], [45.5414, 18.5126], [45.5307, 18.5071]]]}}, {"type": "Feature", "properties": {"osm_type": "relation", "osm_id": 646304802, "name": "Thar", "admin_level": "6", "kind": "subdivision_2", "parent_osm_id": 3667317, "parent_name": "Najran Region", "parent_iso": "SA-10"}, "geometry": {"type": "Polygon", "coordinates": [[[45.5307, 18.5071], [45.4897, 18.4861], [45.3746, 18.4529], [45.3757, 18.4398], [45.3675, 18.4446], [45.3187, 18.4406], [45.2834, 18.4302], [45.2423, 18.4591], [45.2329, 18.4598], [45.2205, 18.4514], [45.1712, 18.3948], [45.0318, 18.3685], [44.9962, 18.3662], [44.9568, 18.3849], [44.9282, 18.4076], [44.8437, 18.4488], [44.8422, 18.4566], [44.8646, 18.5109], [44.7152, 18.62], [44.6974, 18.6254], [44.6622, 18.6011], [44.6495, 18.5853], [44.6145, 18.5872], [44.5926, 18.5753], [44.5856, 18.5587], [44.5794, 18.518], [44.5485, 18.4876], [44.5338, 18.4543], [44.5069, 18.465], [44.4987, 18.493], [44.4481, 18.4928], [44.4272, 18.4792], [44.4203, 18.4644], [44.3923, 18.3427], [44.3227, 18.2662], [44.2942, 18.2461], [44.2619, 18.237], [44.2574, 18.2192], [44.2647, 18.2112], [44.2681, 18.1945], [44.2542, 18.1806], [44.2415, 18.2014], [44.1897, 18.2231], [44.1495, 18.2321], [44.1023, 18.2284], [44.0718, 18.2321], [44.0596, 18.2559], [44.0653, 18.2839], [44.0565, 18.3128], [44.0611, 18.3298], [44.0195, 18.3544], [43.9979, 18.3615], [43.9526, 18.3649], [43.9323, 18.3781], [43.9357, 18.4052], [43.9291, 18.4151], [43.9375, 18.4283], [43.9391, 18.4411], [43.9293, 18.4378], [43.9187, 18.4443], [43.9058, 18.42], [43.8998, 18.4228], [43.899, 18.4173], [43.892, 18.4163], [43.8932, 18.4032], [43.8843, 18.3846], [43.8828, 18.3688], [43.8607, 18.3533], [43.8565, 18.3364], [43.8454, 18.3191], [43.8436, 18.312], [43.8545, 18.289], [43.8492, 18.275], [43.8216, 18.2502], [43.7857, 18.2512], [43.7644, 18.2576], [43.7424, 18.2455], [43.7363, 18.2282], [43.7529, 18.2249], [43.7763, 18.189], [43.7696, 18.1709], [43.7405, 18.1378], [43.7409, 18.1257], [43.7611, 18.1055], [43.8323, 18.0732], [43.9198, 18.0071], [43.9238, 18.0004], [43.9244, 17.9748], [43.8819, 17.9259], [43.9178, 17.9086], [43.9566, 17.8998], [43.9919, 17.9069], [44.0343, 17.8814], [44.0661, 17.8934], [44.0886, 17.8962], [44.1203, 17.8839], [44.1678, 17.8865], [44.2187, 17.8599], [44.2926, 17.8616], [44.3144, 17.8578], [44.3618, 17.8797], [44.3756, 17.9065], [44.3897, 17.9159], [44.4054, 17.8977], [44.4234, 17.8885], [44.4841, 17.8784], [44.5088, 17.8664], [44.555, 17.8324], [44.5729, 17.8972], [44.5678, 17.9371], [44.5761, 17.9771], [44.5891, 17.9771], [44.6489, 17.9552], [44.6944, 17.9643], [44.716, 17.9626], [44.7466, 17.9522], [44.7847, 17.9294], [44.82, 17.92], [44.8511, 17.9551], [44.9619, 17.9963], [45.043, 18.0414], [45.3419, 18.0969], [45.342, 18.1123], [45.3544, 18.135], [45.3549, 18.1604], [45.3757, 18.1877], [45.4062, 18.251], [45.409, 18.2938], [45.4164, 18.3209], [45.4444, 18.3436], [45.4493, 18.3616], [45.5307, 18.5071]]]}}, {"type": "Feature", "properties": {"osm_type": "relation", "osm_id": 646921823, "name": "Najran", "admin_level": "6", "kind": "subdivision_2", "parent_osm_id": 3667317, "parent_name": "Najran Region", "parent_iso": "SA-10"}, "geometry": {"type": "Polygon", "coordinates": [[[44.555, 17.8324], [44.5088, 17.8664], [44.4841, 17.8784], [44.4234, 17.8885], [44.4054, 17.8977], [44.3897, 17.9159], [44.3831, 17.914], [44.3618, 17.8797], [44.3144, 17.8578], [44.312, 17.8309], [44.3063, 17.8221], [44.2645, 17.7974], [44.2538, 17.7797], [44.223, 17.6945], [44.1816, 17.7064], [44.1724, 17.7182], [44.1586, 17.723], [44.1367, 17.7446], [44.127, 17.7484], [44.0512, 17.7351], [44.0133, 17.7036], [43.9938, 17.6743], [43.9367, 17.6444], [43.9165, 17.6212], [43.8802, 17.6005], [43.8662, 17.5833], [43.8516, 17.5829], [43.8242, 17.551], [43.7903, 17.5338], [43.7835, 17.5165], [43.7364, 17.5166], [43.7069, 17.5305], [43.6751, 17.582], [43.6634, 17.6238], [43.6493, 17.631], [43.6465, 17.6224], [43.651, 17.5757], [43.6339, 17.5598], [43.6376, 17.5485], [43.6519, 17.5265], [43.6927, 17.5053], [43.6899, 17.4896], [43.7087, 17.4848], [43.7148, 17.4632], [43.7238, 17.4539], [43.7204, 17.4446], [43.7065, 17.4381], [43.7041, 17.4324], [43.684, 17.4309], [43.6943, 17.4169], [43.693, 17.4021], [43.7177, 17.3786], [43.7204, 17.37], [43.7889, 17.375], [43.8058, 17.3566], [43.8319, 17.3389], [43.9056, 17.3417], [43.9667, 17.3306], [44.0114, 17.4025], [44.0233, 17.3913], [44.0496, 17.4049], [44.0667, 17.4058], [44.1006, 17.3661], [44.1108, 17.3664], [44.1308, 17.3836], [44.1381, 17.4089], [44.3346, 17.4296], [44.4182, 17.5028], [44.4266, 17.5225], [44.4153, 17.5312], [44.4158, 17.5416], [44.3926, 17.5405], [44.3909, 17.5561], [44.3954, 17.5604], [44.4582, 17.556], [44.4653, 17.5353], [44.4842, 17.5242], [44.5703, 17.5216], [44.592, 17.5585], [44.5948, 17.572], [44.5641, 17.7062], [44.5451, 17.7276], [44.5471, 17.7967], [44.555, 17.8324]]]}}, {"type": "Feature", "properties": {"osm_type": "relation", "osm_id": 188480620, "name": "Yadamah", "admin_level": "6", "kind": "subdivision_2", "parent_osm_id": 3667317, "parent_name": "Najran Region", "parent_iso": "SA-10"}, "geometry": {"type": "Polygon", "coordinates": [[[44.3902, 19.4172], [44.3834, 19.391], [44.3965, 19.3412], [44.3872, 19.3182], [44.4202, 19.3137], [44.4365, 19.3194], [44.4796, 19.3122], [44.4738, 19.3041], [44.4756, 19.2976], [44.4453, 19.2586], [44.4526, 19.2416], [44.4492, 19.2298], [44.4788, 19.2203], [44.4873, 19.2088], [44.4793, 19.2011], [44.4798, 19.1853], [44.4715, 19.166], [44.4603, 19.1926], [44.4495, 19.2016], [44.4393, 19.2016], [44.4348, 19.1888], [44.4228, 19.1843], [44.421, 19.1598], [44.4099, 19.1405], [44.4045, 19.1164], [44.3679, 19.0917], [44.3762, 19.0264], [44.3724, 18.9706], [44.3777, 18.94], [44.3692, 18.9336], [44.3256, 18.9386], [44.3156, 18.9426], [44.3111, 18.953], [44.2296, 18.9233], [44.2153, 18.9055], [44.1883, 18.8902], [44.1572, 18.8902], [44.1402, 18.8992], [44.128, 18.8645], [44.1004, 18.8543], [44.0884, 18.8289], [44.0639, 18.8142], [44.0941, 18.8037], [44.1315, 18.7717], [44.1347, 18.7621], [44.1225, 18.7586], [44.1185, 18.7506], [44.1089, 18.7544], [44.0874, 18.7489], [44.0674, 18.7288], [44.0554, 18.7071], [44.0466, 18.7043], [44.0264, 18.6786], [44.0153, 18.6783], [44.0139, 18.6691], [43.9893, 18.6508], [43.9848, 18.643], [43.9909, 18.6257], [43.9743, 18.6068], [43.9741, 18.5925], [43.9858, 18.5812], [43.9968, 18.5858], [44.0018, 18.5612], [43.9846, 18.5505], [43.9555, 18.5499], [43.9623, 18.5375], [43.9456, 18.5179], [43.9446, 18.5046], [43.9138, 18.4746], [43.9273, 18.4688], [43.9986, 18.4579], [44.0013, 18.4429], [43.9921, 18.4384], [43.9843, 18.4266], [43.9576, 18.4171], [43.9453, 18.4006], [43.9357, 18.4052], [43.9314, 18.3799], [43.9526, 18.3649], [43.9979, 18.3615], [44.0195, 18.3544], [44.0611, 18.3298], [44.0565, 18.3128], [44.0653, 18.2839], [44.0596, 18.2559], [44.0683, 18.235], [44.0757, 18.2297], [44.1023, 18.2284], [44.1495, 18.2321], [44.1897, 18.2231], [44.2415, 18.2014], [44.2542, 18.1806], [44.2681, 18.1945], [44.2647, 18.2112], [44.2574, 18.2192], [44.2619, 18.237], [44.2942, 18.2461], [44.3227, 18.2662], [44.3923, 18.3427], [44.4203, 18.4644], [44.4272, 18.4792], [44.4481, 18.4928], [44.4987, 18.493], [44.5069, 18.465], [44.5338, 18.4543], [44.5485, 18.4876], [44.5794, 18.518], [44.5856, 18.5587], [44.5926, 18.5753], [44.6145, 18.5872], [44.6495, 18.5853], [44.6622, 18.6011], [44.6903, 18.6226], [44.6974, 18.6254], [44.7152, 18.62], [44.8646, 18.5109], [44.8422, 18.4566], [44.8437, 18.4488], [44.9282, 18.4076], [44.9568, 18.3849], [44.9962, 18.3662], [45.0318, 18.3685], [45.1712, 18.3948], [45.2205, 18.4514], [45.2329, 18.4598], [45.2423, 18.4591], [45.2834, 18.4302], [45.3187, 18.4406], [45.3675, 18.4446], [45.3757, 18.4398], [45.3746, 18.4529], [45.4897, 18.4861], [46.1064, 18.8041], [46.3472, 18.9149], [46.54, 19.0787], [46.5373, 19.3157], [45.407, 19.2959], [45.4056, 19.3045], [45.3617, 19.3039], [45.1192, 19.2083], [45.0889, 19.4489], [44.5529, 19.4195], [44.3902, 19.4172]]]}}, {"type": "Feature", "properties": {"osm_type": "relation", "osm_id": 667028399, "name": "Sharurah", "admin_level": "6", "kind": "subdivision_2", "parent_osm_id": 3667317, "parent_name": "Najran Region", "parent_iso": "SA-10"}, "geometry": {"type": "Polygon", "coordinates": [[[47.5244, 19.333], [46.5373, 19.3157], [46.54, 19.0787], [46.3472, 18.9149], [46.1064, 18.8041], [45.5414, 18.5126], [45.5614, 18.4687], [45.6003, 18.3288], [45.818, 18.1111], [45.9061, 17.9541], [45.9754, 17.9037], [46.0781, 17.8023], [46.1103, 17.7581], [46.1336, 17.693], [46.1472, 17.6705], [46.1633, 17.6641], [46.2437, 17.5492], [46.3232, 17.4953], [46.3369, 17.4833], [46.3586, 17.4511], [46.3731, 17.4158], [46.3812, 17.2357], [46.75, 17.2833], [47.0, 16.95], [47.1833, 16.95], [47.4667, 17.1167], [47.6, 17.45], [48.1833, 18.1667], [49.1167, 18.6167], [50.7833, 18.7889], [52.0015, 19.0005], [51.9975, 19.3333], [47.5244, 19.333]]]}}, {"type": "Feature", "properties": {"osm_type": "relation", "osm_id": 711893374, "name": "Badr Al Janub", "admin_level": "6", "kind": "subdivision_2", "parent_osm_id": 3667317, "parent_name": "Najran Region", "parent_iso": "SA-10"}, "geometry": {"type": "Polygon", "coordinates": [[[43.7739, 18.1781], [43.7561, 18.1784], [43.7338, 18.1611], [43.7201, 18.1433], [43.7113, 18.1], [43.6893, 18.0753], [43.6843, 18.063], [43.6936, 18.0377], [43.7086, 18.018], [43.6695, 17.9735], [43.6678, 17.9596], [43.6585, 17.9501], [43.668, 17.9391], [43.633, 17.9121], [43.6212, 17.91], [43.6133, 17.9001], [43.6225, 17.8781], [43.6193, 17.8745], [43.6077, 17.877], [43.6065, 17.8731], [43.6247, 17.8288], [43.619, 17.8203], [43.6044, 17.8131], [43.5967, 17.7794], [43.6115, 17.7514], [43.6034, 17.6771], [43.5959, 17.6593], [43.6042, 17.6603], [43.6052, 17.654], [43.6105, 17.6553], [43.6153, 17.649], [43.6339, 17.5598], [43.651, 17.5757], [43.6465, 17.6224], [43.6493, 17.631], [43.6551, 17.6298], [43.6634, 17.6238], [43.6751, 17.582], [43.7069, 17.5305], [43.7364, 17.5166], [43.7625, 17.5195], [43.7757, 17.515], [43.7863, 17.5194], [43.7903, 17.5338], [43.8242, 17.551], [43.8516, 17.5829], [43.8596, 17.6048], [43.8633, 17.6396], [43.8578, 17.6625], [43.8463, 17.6826], [43.852, 17.7218], [43.8409, 17.7544], [43.8782, 17.7769], [43.868, 17.8211], [43.858, 17.8384], [43.8819, 17.9259], [43.9244, 17.9748], [43.9238, 18.0004], [43.907, 18.0196], [43.8323, 18.0732], [43.7611, 18.1055], [43.7409, 18.1257], [43.7405, 18.1378], [43.7739, 18.1781]]]}}, {"type": "Feature", "properties": {"osm_type": "relation", "osm_id": 938967455, "name": "Hubuna", "admin_level": "6", "kind": "subdivision_2", "parent_osm_id": 3667317, "parent_name": "Najran Region", "parent_iso": "SA-10"}, "geometry": {"type": "Polygon", "coordinates": [[[43.8819, 17.9259], [43.858, 17.8384], [43.868, 17.8211], [43.8782, 17.7769], [43.8409, 17.7544], [43.852, 17.7218], [43.8463, 17.6826], [43.8578, 17.6625], [43.8633, 17.6396], [43.8596, 17.6048], [43.8516, 17.5829], [43.8662, 17.5833], [43.8802, 17.6005], [43.9165, 17.6212], [43.9367, 17.6444], [43.9938, 17.6743], [44.0133, 17.7036], [44.0512, 17.7351], [44.127, 17.7484], [44.1367, 17.7446], [44.1586, 17.723], [44.1724, 17.7182], [44.1816, 17.7064], [44.223, 17.6945], [44.2538, 17.7797], [44.2645, 17.7974], [44.3063, 17.8221], [44.312, 17.8309], [44.3144, 17.8578], [44.2926, 17.8616], [44.2187, 17.8599], [44.1678, 17.8865], [44.1203, 17.8839], [44.0886, 17.8962], [44.0661, 17.8934], [44.0343, 17.8814], [43.9919, 17.9069], [43.9422, 17.9008], [43.8819, 17.9259]]]}}]}