{"type": "FeatureCollection", "parent": {"osm_id": 3678639, "name": "Makkah Region", "admin_level": "4", "kind": "subdivision_1", "child_kind": "subdivision_2", "iso": "SA-02"}, "features": [{"type": "Feature", "properties": {"osm_type": "relation", "osm_id": 927551020, "name": "Al Kamil", "admin_level": "6", "kind": "subdivision_2", "parent_osm_id": 3678639, "parent_name": "Makkah Region", "parent_iso": "SA-02"}, "geometry": {"type": "Polygon", "coordinates": [[[39.9401, 22.7856], [39.9221, 22.7696], [39.9206, 22.7563], [39.8965, 22.7469], [39.8797, 22.7158], [39.8654, 22.7001], [39.8575, 22.6429], [39.8343, 22.6251], [39.8047, 22.6158], [39.7954, 22.6069], [39.7883, 22.5739], [39.7881, 22.5344], [39.7941, 22.5201], [39.7513, 22.4729], [39.724, 22.4563], [39.675, 22.4469], [39.6617, 22.4294], [39.6602, 22.4201], [39.6647, 22.413], [39.6929, 22.4025], [39.6925, 22.37], [39.6807, 22.341], [39.6491, 22.298], [39.6501, 22.291], [39.6322, 22.2872], [39.6134, 22.2637], [39.5783, 22.2547], [39.5551, 22.2362], [39.5436, 22.2401], [39.5331, 22.2344], [39.5255, 22.2399], [39.5176, 22.2346], [39.5271, 22.2114], [39.5606, 22.2271], [39.6322, 22.2366], [39.6491, 22.2329], [39.6531, 22.2207], [39.6121, 22.2082], [39.6095, 22.1899], [39.6136, 22.1746], [39.6336, 22.1413], [39.6427, 22.1355], [39.6559, 22.104], [39.6702, 22.0942], [39.686, 22.1], [39.696, 22.1265], [39.7192, 22.1416], [39.7463, 22.1415], [39.7623, 22.1346], [39.8048, 22.1453], [39.8724, 22.1539], [39.8817, 22.1451], [39.8792, 22.1286], [39.8971, 22.1156], [39.9189, 22.1321], [39.9449, 22.136], [39.9615, 22.1534], [39.9813, 22.1649], [40.0566, 22.1769], [40.1073, 22.2174], [40.1089, 22.2329], [40.1048, 22.2397], [40.1128, 22.2536], [40.1098, 22.2799], [40.1166, 22.2907], [40.1272, 22.2954], [40.1283, 22.3064], [40.1143, 22.3157], [40.0863, 22.364], [40.1081, 22.3883], [40.1266, 22.3993], [40.1226, 22.4248], [40.1352, 22.4354], [40.1391, 22.4548], [40.1529, 22.4588], [40.1536, 22.4704], [40.1907, 22.4661], [40.2105, 22.4719], [40.219, 22.4629], [40.2379, 22.4601], [40.2353, 22.4819], [40.2139, 22.5181], [40.2099, 22.5354], [40.1947, 22.5392], [40.1772, 22.5297], [40.1714, 22.5422], [40.1456, 22.5632], [40.1476, 22.594], [40.1632, 22.6147], [40.1657, 22.6288], [40.1614, 22.638], [40.1464, 22.6336], [40.1299, 22.6383], [40.1469, 22.664], [40.138, 22.6993], [40.1098, 22.7256], [40.0958, 22.7281], [40.0798, 22.7238], [40.0821, 22.7536], [40.0688, 22.7687], [40.0481, 22.7792], [40.031, 22.7699], [39.9933, 22.7721], [39.9757, 22.7621], [39.962, 22.7764], [39.9401, 22.7856]]]}}, {"type": "Feature", "properties": {"osm_type": "relation", "osm_id": 767217844, "name": "Makkah Al Mukarramah", "admin_level": "6", "kind": "subdivision_2", "parent_osm_id": 3678639, "parent_name": "Makkah Region", "parent_iso": "SA-02"}, "geometry": {"type": "Polygon", "coordinates": [[[40.1906, 21.1812], [40.2199, 21.1758], [40.2421, 21.197], [40.2398, 21.2179], [40.2259, 21.2421], [40.2249, 21.2627], [40.2353, 21.2739], [40.2377, 21.2849], [40.2644, 21.2919], [40.2697, 21.2982], [40.2429, 21.3319], [40.2509, 21.3525], [40.2579, 21.3562], [40.2621, 21.3658], [40.2304, 21.3783], [40.2233, 21.3875], [40.2301, 21.407], [40.2209, 21.4373], [40.2293, 21.4558], [40.1991, 21.4728], [40.1898, 21.4834], [40.2168, 21.5228], [40.2443, 21.5319], [40.2891, 21.5257], [40.3055, 21.5108], [40.3204, 21.5089], [40.3269, 21.5198], [40.3267, 21.5393], [40.3331, 21.5399], [40.341, 21.5247], [40.3402, 21.5089], [40.3683, 21.5156], [40.3688, 21.5232], [40.3499, 21.5534], [40.344, 21.5792], [40.3518, 21.622], [40.3595, 21.6267], [40.3815, 21.6254], [40.389, 21.6312], [40.3833, 21.65], [40.394, 21.664], [40.3888, 21.699], [40.403, 21.7221], [40.4025, 21.7546], [40.4171, 21.7641], [40.4398, 21.7598], [40.4483, 21.7664], [40.4566, 21.7593], [40.4638, 21.7599], [40.4744, 21.7738], [40.4681, 21.8009], [40.3737, 21.8191], [40.3284, 21.8479], [40.2985, 21.842], [40.2842, 21.8332], [40.2463, 21.7888], [40.2116, 21.7774], [40.1916, 21.7509], [40.1656, 21.7383], [40.1247, 21.7306], [40.0842, 21.7403], [40.0432, 21.7378], [40.0206, 21.7193], [39.9712, 21.7075], [39.9611, 21.6916], [39.9494, 21.6845], [39.9499, 21.6757], [39.9583, 21.6588], [39.9593, 21.6443], [39.9836, 21.62], [39.9827, 21.6064], [39.9757, 21.6054], [39.9689, 21.6143], [39.9606, 21.6161], [39.9269, 21.5957], [39.8885, 21.5922], [39.795, 21.6135], [39.7912, 21.6109], [39.7935, 21.602], [39.8186, 21.5915], [39.8351, 21.5761], [39.8613, 21.5662], [39.8522, 21.5364], [39.8388, 21.5246], [39.8094, 21.5183], [39.7987, 21.5204], [39.7889, 21.5287], [39.7762, 21.5604], [39.7617, 21.5749], [39.7256, 21.5657], [39.7217, 21.5561], [39.7241, 21.5427], [39.6437, 21.463], [39.6261, 21.413], [39.6226, 21.3395], [39.6147, 21.3346], [39.6073, 21.3207], [39.557, 21.3102], [39.538, 21.2959], [39.5249, 21.2828], [39.5213, 21.2614], [39.5059, 21.2352], [39.5308, 21.19], [39.5701, 21.1579], [39.5844, 21.1389], [39.6034, 21.1281], [39.6403, 21.1222], [39.6617, 21.127], [39.676, 21.1198], [39.6867, 21.1317], [39.7331, 21.1567], [39.7557, 21.1329], [39.8699, 21.1629], [39.9238, 21.1993], [39.9327, 21.2], [39.9559, 21.2282], [39.9192, 21.2386], [39.9181, 21.2507], [39.9534, 21.2796], [39.972, 21.3053], [39.9852, 21.3117], [40.0069, 21.2812], [40.0297, 21.2298], [40.0278, 21.2203], [40.0373, 21.2117], [40.0535, 21.2079], [40.0773, 21.2155], [40.1125, 21.1927], [40.1306, 21.1974], [40.181, 21.1869], [40.1906, 21.1812]]]}}, {"type": "Feature", "properties": {"osm_type": "relation", "osm_id": 148248070, "name": "Al Qunfudhah", "admin_level": "6", "kind": "subdivision_2", "parent_osm_id": 3678639, "parent_name": "Makkah Region", "parent_iso": "SA-02"}, "geometry": {"type": "MultiPolygon", "coordinates": [[[[41.5132, 19.5191], [41.5048, 19.5294], [41.4893, 19.5171], [41.4695, 19.5294], [41.4711, 19.5109], [41.4617, 19.5113], [41.4363, 19.4896], [41.4075, 19.4961], [41.3942, 19.4954], [41.3829, 19.488], [41.3295, 19.4925], [41.3017, 19.4587], [41.2579, 19.4419], [41.2595, 19.4775], [41.2552, 19.4896], [41.2756, 19.5202], [41.2728, 19.5295], [41.2473, 19.5283], [41.2251, 19.5201], [41.1929, 19.5307], [41.1752, 19.5224], [41.1669, 19.529], [41.1469, 19.5265], [41.1141, 19.5099], [41.1052, 19.5128], [41.0954, 19.5251], [41.0968, 19.5331], [41.114, 19.5369], [41.1166, 19.5481], [41.168, 19.5671], [41.1734, 19.5864], [41.1985, 19.6107], [41.2023, 19.6267], [41.1942, 19.6381], [41.1526, 19.6462], [41.1159, 19.6737], [41.0784, 19.6901], [41.064, 19.7042], [41.0316, 19.7134], [41.0051, 19.737], [41.0079, 19.7588], [41.0428, 19.8019], [41.0464, 19.8297], [41.0422, 19.8369], [40.9949, 19.8153], [40.9883, 19.8006], [40.9905, 19.7829], [40.9542, 19.7485], [40.9442, 19.7327], [40.9252, 19.7271], [40.8974, 19.71], [40.8699, 19.7085], [40.8035, 19.6922], [40.8063, 19.6782], [40.8032, 19.673], [40.8108, 19.6678], [40.7994, 19.644], [40.8068, 19.6192], [40.8031, 19.5994], [40.7978, 19.5984], [40.8011, 19.6063], [40.788, 19.6088], [40.7857, 19.619], [40.7764, 19.6146], [40.8054, 19.5796], [40.8287, 19.5744], [40.8335, 19.5659], [40.8607, 19.5479], [40.9222, 19.535], [40.9278, 19.5245], [40.9376, 19.5205], [40.9468, 19.5021], [40.9627, 19.4968], [40.9617, 19.4659], [40.9477, 19.4223], [40.9492, 19.3904], [40.9618, 19.363], [40.9528, 19.351], [40.967, 19.3516], [40.9819, 19.3324], [40.9987, 19.3312], [41.0119, 19.3194], [41.0166, 19.2872], [41.0317, 19.2829], [41.0451, 19.2632], [41.0514, 19.2374], [41.0423, 19.2246], [41.0463, 19.214], [41.0401, 19.1957], [41.0484, 19.1869], [41.0442, 19.1748], [41.055, 19.1565], [41.0458, 19.1778], [41.0609, 19.1517], [41.0574, 19.148], [41.0733, 19.1419], [41.0691, 19.1395], [41.0718, 19.1297], [41.0683, 19.1264], [41.0725, 19.1202], [41.0778, 19.1187], [41.0834, 19.1284], [41.0782, 19.1177], [41.0838, 19.1176], [41.0983, 19.1035], [41.124, 19.1022], [41.1402, 19.0948], [41.1489, 19.0967], [41.1598, 19.0899], [41.1667, 19.0404], [41.1551, 19.0243], [41.154, 19.0117], [41.1495, 19.0113], [41.1522, 18.9955], [41.1397, 18.9851], [41.1438, 18.9735], [41.1318, 18.9654], [41.1296, 18.9556], [41.1397, 18.9506], [41.1485, 18.9387], [41.1535, 18.9113], [41.1578, 18.9095], [41.1605, 18.8827], [41.1897, 18.8599], [41.215, 18.8568], [41.2266, 18.8506], [41.2339, 18.8525], [41.2337, 18.8576], [41.2425, 18.8503], [41.2409, 18.8379], [41.2375, 18.8414], [41.234, 18.8375], [41.238, 18.8336], [41.2366, 18.8048], [41.2174, 18.7597], [41.2207, 18.7512], [41.2061, 18.7215], [41.2086, 18.7073], [41.2387, 18.6743], [41.2479, 18.6507], [41.2427, 18.6413], [41.2591, 18.6367], [41.2521, 18.6327], [41.2531, 18.6218], [41.2572, 18.6115], [41.2706, 18.6067], [41.2649, 18.6052], [41.2689, 18.6], [41.2829, 18.5978], [41.2785, 18.593], [41.2888, 18.591], [41.2929, 18.5835], [41.2982, 18.5832], [41.2921, 18.5856], [41.2942, 18.5899], [41.2954, 18.5837], [41.3009, 18.5878], [41.3078, 18.584], [41.3022, 18.5831], [41.3284, 18.5832], [41.3313, 18.5848], [41.3257, 18.5854], [41.3344, 18.5889], [41.3389, 18.5821], [41.3551, 18.5822], [41.3657, 18.5647], [41.3726, 18.5792], [41.3825, 18.6387], [41.3916, 18.6535], [41.5, 18.667], [41.6243, 18.6984], [41.619, 18.7231], [41.5999, 18.7666], [41.5892, 18.7737], [41.5924, 18.7785], [41.6036, 18.7803], [41.6071, 18.7887], [41.6192, 18.7843], [41.6222, 18.7911], [41.6102, 18.809], [41.5833, 18.8225], [41.5813, 18.8509], [41.5722, 18.8598], [41.5691, 18.8819], [41.55, 18.8962], [41.5384, 18.8957], [41.51, 18.9479], [41.498, 18.9548], [41.4844, 18.9532], [41.4835, 18.9601], [41.4941, 18.9829], [41.4625, 18.9859], [41.4395, 19.0001], [41.4502, 19.0189], [41.4789, 19.033], [41.5029, 19.0586], [41.5387, 19.0554], [41.5507, 19.0603], [41.576, 19.0496], [41.5812, 19.0554], [41.5719, 19.0968], [41.581, 19.1093], [41.5909, 19.1432], [41.588, 19.1551], [41.5937, 19.1575], [41.5959, 19.1676], [41.5746, 19.1916], [41.543, 19.2596], [41.5235, 19.2864], [41.5306, 19.3226], [41.5425, 19.3208], [41.5461, 19.3262], [41.5449, 19.3345], [41.5229, 19.3589], [41.5288, 19.3625], [41.5276, 19.3892], [41.5389, 19.3928], [41.5288, 19.4255], [41.5371, 19.4594], [41.5247, 19.4683], [41.5306, 19.4731], [41.5122, 19.4814], [41.5247, 19.4945], [41.5151, 19.4933], [41.5132, 19.5191]]], [[[41.0689, 18.5622], [41.0751, 18.5683], [41.0706, 18.6008], [41.0651, 18.6055], [41.0535, 18.6037], [41.0457, 18.5967], [41.0458, 18.5833], [41.0544, 18.5695], [41.0689, 18.5622]]], [[[40.8928, 18.5545], [40.8931, 18.5555], [40.892, 18.5553], [40.8928, 18.5545]]], [[[40.8049, 18.5842], [40.8071, 18.5867], [40.8049, 18.5842]]], [[[40.6605, 18.5083], [40.6656, 18.509], [40.6605, 18.5083]]], [[[40.4194, 18.7997], [40.42, 18.8012], [40.4178, 18.801], [40.4194, 18.7997]]], [[[40.824, 18.6561], [40.8289, 18.6584], [40.824, 18.6561]]], [[[41.02, 18.6729], [41.0201, 18.6747], [41.0182, 18.6745], [41.02, 18.6729]]], [[[40.976, 18.7403], [40.979, 18.7428], [40.9752, 18.7444], [40.976, 18.7403]]], [[[40.8838, 18.8867], [40.8864, 18.8945], [40.8838, 18.8867]]], [[[40.7392, 18.8912], [40.7416, 18.8956], [40.7392, 18.8912]]], [[[40.31, 19.2544], [40.3111, 19.2563], [40.3089, 19.2558], [40.31, 19.2544]]], [[[40.3401, 19.3851], [40.3371, 19.3885], [40.3401, 19.3851]]], [[[40.1133, 19.3566], [40.1149, 19.3575], [40.1125, 19.3575], [40.1133, 19.3566]]], [[[40.0324, 19.5268], [40.0321, 19.5298], [40.0308, 19.5275], [40.0324, 19.5268]]], [[[40.5913, 19.6345], [40.5889, 19.6344], [40.5902, 19.6322], [40.5918, 19.633], [40.5913, 19.6345]]], [[[40.5953, 19.6334], [40.6164, 19.6198], [40.6438, 19.6126], [40.6471, 19.6158], [40.6047, 19.6394], [40.5938, 19.6359], [40.6, 19.6317], [40.6046, 19.6345], [40.6046, 19.6308], [40.5953, 19.6334]]], [[[40.6593, 19.6147], [40.6555, 19.6155], [40.6593, 19.6147]]], [[[40.7365, 19.6383], [40.7444, 19.6407], [40.7365, 19.6383]]], [[[40.7478, 19.6602], [40.7493, 19.665], [40.7478, 19.6602]]], [[[40.7474, 19.6484], [40.7576, 19.6562], [40.7567, 19.6779], [40.7563, 19.6604], [40.7507, 19.6512], [40.7475, 19.6551], [40.7474, 19.6484]]], [[[40.7768, 19.6231], [40.7712, 19.635], [40.7768, 19.6231]]], [[[40.7797, 19.5951], [40.7825, 19.5976], [40.7773, 19.5976], [40.7797, 19.5951]]], [[[40.8266, 19.4347], [40.8188, 19.4582], [40.8216, 19.4731], [40.8167, 19.4752], [40.8169, 19.4577], [40.8266, 19.4347]]], [[[40.7435, 19.5318], [40.739, 19.5413], [40.7435, 19.5318]]], [[[40.7398, 19.5455], [40.7374, 19.5522], [40.7398, 19.5455]]], [[[40.749, 19.5141], [40.7501, 19.5181], [40.742, 19.5159], [40.7474, 19.5196], [40.7411, 19.5161], [40.749, 19.5141]]], [[[40.7602, 19.5229], [40.7584, 19.527], [40.7502, 19.5263], [40.7602, 19.5229]]], [[[40.7869, 19.501], [40.7867, 19.5087], [40.7815, 19.5098], [40.7869, 19.501]]], [[[40.8009, 19.4952], [40.7925, 19.4973], [40.8009, 19.4952]]], [[[40.8127, 19.4781], [40.8084, 19.4874], [40.8127, 19.4781]]], [[[40.8322, 19.4251], [40.8266, 19.4344], [40.8322, 19.4251]]], [[[40.8495, 19.4035], [40.8447, 19.4144], [40.8329, 19.423], [40.8495, 19.4035]]], [[[40.8954, 19.4959], [40.8914, 19.5007], [40.8954, 19.4959]]], [[[40.8915, 19.5079], [40.8923, 19.5092], [40.8909, 19.5101], [40.8897, 19.5087], [40.8915, 19.5079]]], [[[40.908, 19.4821], [40.9034, 19.4864], [40.908, 19.4821]]], [[[40.9176, 19.4704], [40.9141, 19.4742], [40.9176, 19.4704]]], [[[40.9269, 19.4533], [40.9248, 19.4566], [40.9269, 19.4533]]], [[[40.8714, 19.3711], [40.8746, 19.3755], [40.8691, 19.3807], [40.8714, 19.3711]]], [[[40.8952, 19.2706], [40.8994, 19.2761], [40.8938, 19.2798], [40.8976, 19.2869], [40.894, 19.284], [40.8889, 19.2898], [40.8893, 19.2729], [40.8952, 19.2706]]], [[[40.9059, 19.2783], [40.9038, 19.2812], [40.9059, 19.2783]]], [[[40.9104, 19.2717], [40.9072, 19.2737], [40.9104, 19.2717]]], [[[40.9811, 19.2467], [40.9814, 19.2479], [40.9803, 19.2477], [40.9811, 19.2467]]], [[[40.98, 19.263], [40.9757, 19.267], [40.98, 19.263]]], [[[40.9847, 19.2722], [40.9877, 19.2741], [40.9847, 19.2722]]], [[[41.0415, 19.0415], [41.0426, 19.0421], [41.0399, 19.0426], [41.0415, 19.0415]]], [[[41.0995, 18.9817], [41.1025, 18.9837], [41.0995, 18.9817]]], [[[41.0777, 18.9726], [41.078, 18.9742], [41.0769, 18.974], [41.0777, 18.9726]]], [[[41.1706, 18.8737], [41.165, 18.8759], [41.1706, 18.8737]]]]}}, {"type": "Feature", "properties": {"osm_type": "relation", "osm_id": 202679835, "name": "Khulays", "admin_level": "6", "kind": "subdivision_2", "parent_osm_id": 3678639, "parent_name": "Makkah Region", "parent_iso": "SA-02"}, "geometry": {"type": "Polygon", "coordinates": [[[39.9388, 22.786], [39.9196, 22.7952], [39.8822, 22.7997], [39.8723, 22.8147], [39.8581, 22.8132], [39.8348, 22.8011], [39.7971, 22.799], [39.7795, 22.7862], [39.7756, 22.7674], [39.7685, 22.7576], [39.7627, 22.7569], [39.7558, 22.7461], [39.758, 22.7429], [39.747, 22.7412], [39.7263, 22.7151], [39.709, 22.7109], [39.7032, 22.7044], [39.6774, 22.7033], [39.6679, 22.6931], [39.6482, 22.6866], [39.6364, 22.6755], [39.6272, 22.679], [39.6217, 22.692], [39.6249, 22.6991], [39.6096, 22.7158], [39.6207, 22.7232], [39.6206, 22.7354], [39.6004, 22.7313], [39.5964, 22.7389], [39.5868, 22.7378], [39.5733, 22.7451], [39.55, 22.7328], [39.5251, 22.7373], [39.5196, 22.7143], [39.5003, 22.6745], [39.4607, 22.6331], [39.467, 22.6055], [39.4448, 22.5953], [39.4389, 22.5594], [39.4305, 22.533], [39.421, 22.5201], [39.4292, 22.5144], [39.428, 22.5101], [39.415, 22.5064], [39.4059, 22.4964], [39.3871, 22.4952], [39.3631, 22.4827], [39.3572, 22.4634], [39.3359, 22.4664], [39.3239, 22.4405], [39.3046, 22.4318], [39.2899, 22.4051], [39.2781, 22.3991], [39.2635, 22.3825], [39.2455, 22.375], [39.2465, 22.3505], [39.2238, 22.351], [39.2431, 22.2817], [39.2391, 22.2439], [39.2424, 22.2256], [39.2607, 22.2051], [39.2843, 22.1974], [39.2826, 22.1918], [39.2598, 22.1759], [39.2608, 22.1714], [39.2724, 22.1636], [39.2788, 22.1476], [39.3014, 22.1378], [39.3129, 22.085], [39.3289, 22.0645], [39.3334, 22.0385], [39.3499, 22.0102], [39.3492, 22.0014], [39.3255, 21.9845], [39.3162, 21.9719], [39.3157, 21.9635], [39.3212, 21.9589], [39.3908, 21.9387], [39.4361, 21.9309], [39.5032, 21.9072], [39.535, 21.9046], [39.5467, 21.8927], [39.5705, 21.8861], [39.6016, 21.8884], [39.6333, 21.9059], [39.6573, 21.9079], [39.7432, 21.8984], [39.7662, 21.9054], [39.7807, 21.9047], [39.8378, 21.8729], [39.864, 21.8708], [39.8948, 21.8773], [39.9143, 21.8913], [39.9258, 21.9071], [39.9331, 21.9332], [39.914, 21.9734], [39.9214, 21.9984], [39.8857, 22.0185], [39.8851, 22.0289], [39.8706, 22.0389], [39.8889, 22.0633], [39.8974, 22.0653], [39.9186, 22.0848], [39.9292, 22.0862], [39.94, 22.0987], [39.9157, 22.1306], [39.9042, 22.1178], [39.8917, 22.1168], [39.8896, 22.1238], [39.8792, 22.1286], [39.8817, 22.1451], [39.8724, 22.1539], [39.8048, 22.1453], [39.7623, 22.1346], [39.7463, 22.1415], [39.7192, 22.1416], [39.696, 22.1265], [39.686, 22.1], [39.6702, 22.0942], [39.6559, 22.104], [39.6427, 22.1355], [39.6336, 22.1413], [39.6136, 22.1746], [39.6095, 22.1899], [39.6121, 22.2082], [39.6531, 22.2207], [39.6491, 22.2329], [39.6322, 22.2366], [39.5606, 22.2271], [39.5271, 22.2114], [39.5168, 22.2292], [39.5225, 22.2397], [39.5331, 22.2344], [39.5436, 22.2401], [39.5551, 22.2362], [39.5783, 22.2547], [39.6134, 22.2637], [39.6322, 22.2872], [39.6501, 22.291], [39.6491, 22.298], [39.6807, 22.341], [39.6925, 22.37], [39.6929, 22.4025], [39.6647, 22.413], [39.6602, 22.4201], [39.6617, 22.4294], [39.675, 22.4469], [39.724, 22.4563], [39.7513, 22.4729], [39.7941, 22.5201], [39.7881, 22.5344], [39.7883, 22.5739], [39.7954, 22.6069], [39.8047, 22.6158], [39.8343, 22.6251], [39.8575, 22.6429], [39.8654, 22.7001], [39.8797, 22.7158], [39.8965, 22.7469], [39.9206, 22.7563], [39.9221, 22.7696], [39.9388, 22.786]]]}}, {"type": "Feature", "properties": {"osm_type": "relation", "osm_id": 648340256, "name": "Turubah", "admin_level": "6", "kind": "subdivision_2", "parent_osm_id": 3678639, "parent_name": "Makkah Region", "parent_iso": "SA-02"}, "geometry": {"type": "Polygon", "coordinates": [[[41.7006, 21.8261], [41.6832, 21.8333], [41.6566, 21.8297], [41.6131, 21.8321], [41.5969, 21.8445], [41.5788, 21.8466], [41.5725, 21.856], [41.5442, 21.8602], [41.538, 21.8403], [41.51, 21.8094], [41.5098, 21.784], [41.5046, 21.7741], [41.4954, 21.7669], [41.4509, 21.7538], [41.4371, 21.7388], [41.4135, 21.7311], [41.3916, 21.7053], [41.3874, 21.7176], [41.3613, 21.7536], [41.3551, 21.7758], [41.3382, 21.7865], [41.32, 21.7865], [41.3116, 21.7925], [41.3012, 21.7816], [41.2674, 21.7821], [41.2016, 21.7705], [41.1922, 21.7613], [41.2318, 21.7273], [41.233, 21.721], [41.2275, 21.7176], [41.2079, 21.6763], [41.1651, 21.691], [41.162, 21.683], [41.1745, 21.6548], [41.1671, 21.6492], [41.162, 21.6541], [41.1514, 21.6531], [41.1512, 21.6294], [41.1549, 21.6179], [41.1877, 21.6095], [41.1968, 21.5794], [41.2071, 21.5608], [41.2168, 21.5533], [41.2373, 21.5058], [41.2533, 21.4828], [41.2553, 21.4458], [41.2478, 21.4344], [41.2417, 21.3938], [41.2451, 21.3707], [41.2565, 21.346], [41.2824, 21.3189], [41.2753, 21.3177], [41.2738, 21.3099], [41.249, 21.3042], [41.2659, 21.2582], [41.278, 21.2314], [41.3072, 21.194], [41.3353, 21.1983], [41.3353, 21.1858], [41.3512, 21.172], [41.3454, 21.1575], [41.3152, 21.1249], [41.314, 21.1109], [41.3551, 21.1109], [41.3732, 21.1048], [41.3795, 21.0964], [41.3988, 21.0947], [41.392, 21.0659], [41.3768, 21.0524], [41.3623, 21.0521], [41.3587, 21.0478], [41.3807, 20.9949], [41.4135, 20.9852], [41.4363, 20.9958], [41.4522, 20.9978], [41.4452, 20.9806], [41.4452, 20.9531], [41.401, 20.9448], [41.3894, 20.9265], [41.3708, 20.9188], [41.349, 20.9183], [41.3449, 20.911], [41.3681, 20.89], [41.3737, 20.8779], [41.4056, 20.8755], [41.4275, 20.8859], [41.4324, 20.8383], [41.4243, 20.8271], [41.4424, 20.8231], [41.4686, 20.7821], [41.4988, 20.7689], [41.505, 20.7615], [41.5301, 20.7602], [41.5371, 20.7546], [41.5668, 20.7582], [41.6055, 20.7413], [41.6246, 20.7256], [41.642, 20.6968], [41.6876, 20.6644], [41.6934, 20.6566], [41.6949, 20.639], [41.7259, 20.608], [41.7423, 20.6053], [41.7357, 20.646], [41.811, 20.6361], [41.8322, 20.6279], [41.8442, 20.6297], [41.8812, 20.6512], [41.8985, 20.654], [41.9285, 20.6854], [41.9373, 20.6879], [41.9539, 20.6681], [41.9581, 20.6561], [41.9475, 20.6336], [41.9458, 20.6089], [41.9613, 20.599], [41.9722, 20.5796], [41.9885, 20.5725], [42.0076, 20.5838], [42.0098, 20.6563], [42.0359, 20.6832], [42.0429, 20.7005], [42.0, 20.7502], [41.921, 20.97], [41.9132, 21.0553], [41.9169, 21.0799], [41.9403, 21.1258], [41.9625, 21.1488], [41.9603, 21.156], [41.9401, 21.1659], [41.8954, 21.1998], [41.8816, 21.2232], [41.8796, 21.2568], [41.8966, 21.3066], [41.8905, 21.3771], [41.8961, 21.4177], [41.8188, 21.4151], [41.82, 21.4303], [41.8323, 21.4595], [41.8034, 21.4675], [41.7903, 21.4617], [41.7501, 21.4625], [41.7332, 21.4662], [41.7209, 21.4806], [41.6897, 21.4921], [41.6516, 21.4984], [41.6155, 21.4972], [41.5962, 21.4912], [41.5902, 21.4955], [41.5909, 21.5025], [41.6083, 21.5141], [41.6172, 21.5286], [41.6385, 21.5233], [41.6583, 21.5436], [41.7079, 21.5736], [41.7402, 21.6195], [41.732, 21.6458], [41.71, 21.6719], [41.7158, 21.6908], [41.7134, 21.712], [41.7185, 21.7198], [41.7206, 21.7471], [41.7161, 21.7814], [41.7006, 21.8261]]]}}, {"type": "Feature", "properties": {"osm_type": "relation", "osm_id": 328305650, "name": "Al Jumum", "admin_level": "6", "kind": "subdivision_2", "parent_osm_id": 3678639, "parent_name": "Makkah Region", "parent_iso": "SA-02"}, "geometry": {"type": "Polygon", "coordinates": [[[40.2099, 22.5354], [40.2139, 22.5181], [40.2353, 22.4819], [40.2379, 22.4601], [40.219, 22.4629], [40.2105, 22.4719], [40.1907, 22.4661], [40.1536, 22.4704], [40.1529, 22.4588], [40.1391, 22.4548], [40.1352, 22.4354], [40.1226, 22.4248], [40.1266, 22.3993], [40.1081, 22.3883], [40.0863, 22.364], [40.1143, 22.3157], [40.1283, 22.3064], [40.1272, 22.2954], [40.1166, 22.2907], [40.1098, 22.2799], [40.1128, 22.2536], [40.1048, 22.2397], [40.1089, 22.2329], [40.1073, 22.2174], [40.0566, 22.1769], [40.0346, 22.1709], [39.9922, 22.1689], [39.9615, 22.1534], [39.9449, 22.136], [39.9157, 22.1306], [39.94, 22.0987], [39.9292, 22.0862], [39.9186, 22.0848], [39.8974, 22.0653], [39.8889, 22.0633], [39.8796, 22.0465], [39.8707, 22.0412], [39.8851, 22.0289], [39.8857, 22.0185], [39.9214, 21.9984], [39.914, 21.9734], [39.9331, 21.9332], [39.9258, 21.9071], [39.9143, 21.8913], [39.8948, 21.8773], [39.8775, 21.8716], [39.8378, 21.8729], [39.7722, 21.9062], [39.7432, 21.8984], [39.6421, 21.9076], [39.6016, 21.8884], [39.5705, 21.8861], [39.5467, 21.8927], [39.535, 21.9046], [39.5032, 21.9072], [39.4361, 21.9309], [39.3908, 21.9387], [39.3212, 21.9589], [39.3157, 21.9635], [39.3162, 21.9719], [39.3255, 21.9845], [39.3492, 22.0014], [39.3499, 22.0102], [39.3334, 22.0385], [39.3289, 22.0645], [39.3129, 22.085], [39.3014, 22.1378], [39.2788, 22.1476], [39.2295, 22.109], [39.2048, 22.098], [39.2385, 22.0635], [39.245, 22.0427], [39.239, 22.0195], [39.226, 22.003], [39.2246, 21.9431], [39.2104, 21.8888], [39.236, 21.8491], [39.241, 21.8265], [39.2432, 21.7439], [39.2535, 21.7246], [39.2452, 21.7162], [39.2425, 21.7016], [39.2426, 21.6627], [39.2485, 21.6596], [39.2783, 21.6714], [39.2872, 21.6659], [39.3242, 21.6887], [39.3396, 21.6916], [39.345, 21.7102], [39.3786, 21.7159], [39.3697, 21.6353], [39.3713, 21.6169], [39.376, 21.6105], [39.4099, 21.6021], [39.4247, 21.5851], [39.4359, 21.5809], [39.4602, 21.5777], [39.4793, 21.5676], [39.5155, 21.5602], [39.534, 21.5458], [39.5568, 21.5017], [39.5962, 21.4897], [39.6039, 21.4778], [39.645, 21.4622], [39.6641, 21.4866], [39.7241, 21.5427], [39.7224, 21.5614], [39.7351, 21.5694], [39.7617, 21.5749], [39.7672, 21.5721], [39.7889, 21.5287], [39.7987, 21.5204], [39.8283, 21.5203], [39.848, 21.5319], [39.8613, 21.5662], [39.8351, 21.5761], [39.8186, 21.5915], [39.7935, 21.602], [39.7912, 21.6109], [39.795, 21.6135], [39.8885, 21.5922], [39.9269, 21.5957], [39.9606, 21.6161], [39.9689, 21.6143], [39.9757, 21.6054], [39.9827, 21.6064], [39.9836, 21.62], [39.9593, 21.6443], [39.9583, 21.6588], [39.9499, 21.6757], [39.9494, 21.6845], [39.9611, 21.6916], [39.9712, 21.7075], [40.0206, 21.7193], [40.0432, 21.7378], [40.0842, 21.7403], [40.1247, 21.7306], [40.1656, 21.7383], [40.1916, 21.7509], [40.2116, 21.7774], [40.2463, 21.7888], [40.2711, 21.8212], [40.2985, 21.842], [40.3284, 21.8479], [40.3737, 21.8191], [40.4681, 21.8009], [40.4881, 21.8036], [40.4998, 21.8257], [40.5125, 21.8248], [40.5329, 21.816], [40.537, 21.8075], [40.5626, 21.8034], [40.6193, 21.7816], [40.5868, 21.827], [40.579, 21.8607], [40.5582, 21.8686], [40.5456, 21.8645], [40.5162, 21.9124], [40.5301, 21.966], [40.5456, 21.9711], [40.5465, 21.9764], [40.4766, 22.0152], [40.4684, 22.0263], [40.4515, 22.0304], [40.4242, 22.0468], [40.4233, 22.0533], [40.435, 22.0717], [40.4318, 22.0878], [40.3988, 22.0969], [40.4046, 22.118], [40.3967, 22.1314], [40.3982, 22.1534], [40.39, 22.1698], [40.4011, 22.1756], [40.4511, 22.1756], [40.4602, 22.1885], [40.4696, 22.1888], [40.4544, 22.2181], [40.4588, 22.2315], [40.4658, 22.2365], [40.4722, 22.264], [40.4559, 22.2779], [40.4249, 22.2929], [40.4167, 22.2832], [40.3961, 22.2755], [40.3473, 22.2812], [40.3358, 22.2732], [40.292, 22.2744], [40.2901, 22.2904], [40.2848, 22.2967], [40.2897, 22.321], [40.264, 22.3237], [40.2602, 22.3288], [40.267, 22.3666], [40.2628, 22.3896], [40.2677, 22.3986], [40.2802, 22.4066], [40.2888, 22.4334], [40.2693, 22.4769], [40.244, 22.5152], [40.2403, 22.5315], [40.2099, 22.5354]]]}}, {"type": "Feature", "properties": {"osm_type": "relation", "osm_id": 195468981, "name": "Rabigh", "admin_level": "6", "kind": "subdivision_2", "parent_osm_id": 3678639, "parent_name": "Makkah Region", "parent_iso": "SA-02"}, "geometry": {"type": "MultiPolygon", "coordinates": [[[[39.0274, 23.3272], [39.0162, 23.3496], [38.9922, 23.3584], [38.9912, 23.3773], [38.9858, 23.3841], [38.9725, 23.3874], [38.9481, 23.3807], [38.935, 23.3863], [38.8882, 23.4307], [38.8822, 23.4568], [38.8999, 23.4915], [38.894, 23.497], [38.8382, 23.4815], [38.7989, 23.4795], [38.7809, 23.4895], [38.7801, 23.471], [38.7334, 23.4405], [38.6783, 23.4235], [38.6659, 23.4122], [38.6717, 23.3977], [38.6702, 23.3846], [38.675, 23.3807], [38.671, 23.3673], [38.6762, 23.3619], [38.6672, 23.3581], [38.6681, 23.3478], [38.6726, 23.3457], [38.6723, 23.3537], [38.681, 23.3375], [38.6971, 23.3334], [38.696, 23.3286], [38.6881, 23.3313], [38.6834, 23.319], [38.695, 23.2999], [38.6956, 23.2909], [38.6891, 23.3011], [38.6827, 23.304], [38.6841, 23.2981], [38.6987, 23.275], [38.7023, 23.2729], [38.6982, 23.283], [38.7028, 23.2881], [38.713, 23.2773], [38.7134, 23.2719], [38.7041, 23.2758], [38.7121, 23.2531], [38.7087, 23.2536], [38.7272, 23.2307], [38.7456, 23.1963], [38.7674, 23.1757], [38.7682, 23.1822], [38.7799, 23.1835], [38.7749, 23.1968], [38.7829, 23.1953], [38.7929, 23.1657], [38.7928, 23.1498], [38.7983, 23.1454], [38.797, 23.1341], [38.8092, 23.1142], [38.8122, 23.0877], [38.8085, 23.0615], [38.7882, 23.0375], [38.7896, 23.0282], [38.8015, 23.0125], [38.7983, 23.0087], [38.8027, 23.0107], [38.8102, 22.9943], [38.8325, 22.9691], [38.8267, 22.9909], [38.8314, 22.9984], [38.8392, 22.9902], [38.8383, 22.9808], [38.8648, 22.9808], [38.8712, 22.9701], [38.8965, 22.969], [38.919, 22.9575], [38.9198, 22.9406], [38.9365, 22.9019], [38.9559, 22.8862], [38.9732, 22.861], [38.9705, 22.8633], [38.9624, 22.8536], [38.966, 22.8463], [38.9593, 22.8493], [38.9574, 22.8417], [38.9552, 22.847], [38.9343, 22.8519], [38.9307, 22.8571], [38.9277, 22.851], [38.9205, 22.8525], [38.9152, 22.8615], [38.9271, 22.8644], [38.911, 22.8819], [38.8878, 22.9228], [38.8623, 22.9401], [38.8494, 22.9381], [38.8829, 22.8939], [38.8875, 22.878], [38.9185, 22.8329], [38.9422, 22.8122], [38.9537, 22.7878], [38.9863, 22.7413], [38.9921, 22.7436], [38.9844, 22.7555], [38.9993, 22.7555], [38.9953, 22.7504], [39.0009, 22.7497], [39.0116, 22.7601], [39.0123, 22.7508], [39.0028, 22.7444], [39.009, 22.7367], [39.0021, 22.7321], [38.9976, 22.7383], [38.9894, 22.7364], [38.9907, 22.7223], [39.0179, 22.6944], [39.0286, 22.6695], [39.0264, 22.6551], [39.0319, 22.643], [39.0477, 22.6191], [39.0519, 22.6212], [39.0709, 22.5914], [39.0662, 22.593], [39.0785, 22.5804], [39.0865, 22.5538], [39.0817, 22.5532], [39.0793, 22.5402], [39.0804, 22.5198], [39.0838, 22.5262], [39.1133, 22.5262], [39.1133, 22.5216], [39.0915, 22.5219], [39.0893, 22.5058], [39.0859, 22.5059], [39.0855, 22.5191], [39.0777, 22.5092], [39.0773, 22.4977], [39.0894, 22.4624], [39.0828, 22.4482], [39.0754, 22.4037], [39.081, 22.3948], [39.0791, 22.4011], [39.0864, 22.4071], [39.08, 22.4009], [39.0923, 22.3954], [39.0821, 22.3945], [39.0854, 22.3866], [39.0956, 22.3856], [39.0922, 22.3909], [39.0981, 22.3914], [39.096, 22.3602], [39.105, 22.37], [39.1057, 22.3818], [39.1232, 22.3787], [39.1224, 22.3981], [39.1079, 22.4063], [39.1159, 22.4104], [39.1239, 22.4076], [39.1292, 22.4148], [39.1433, 22.4059], [39.1374, 22.3937], [39.1353, 22.37], [39.1198, 22.3699], [39.1115, 22.3647], [39.1087, 22.3568], [39.1167, 22.3521], [39.1107, 22.3437], [39.1051, 22.3445], [39.1074, 22.3544], [39.1017, 22.3435], [39.0936, 22.3467], [39.0947, 22.3542], [39.0891, 22.349], [39.088, 22.3401], [39.0951, 22.3353], [39.0975, 22.3435], [39.1077, 22.337], [39.0994, 22.3234], [39.1029, 22.3215], [39.0991, 22.3114], [39.1097, 22.316], [39.2321, 22.3207], [39.2238, 22.351], [39.2465, 22.3505], [39.2455, 22.375], [39.2635, 22.3825], [39.2781, 22.3991], [39.2899, 22.4051], [39.3046, 22.4318], [39.3239, 22.4405], [39.3359, 22.4664], [39.3572, 22.4634], [39.3631, 22.4827], [39.3871, 22.4952], [39.4059, 22.4964], [39.415, 22.5064], [39.428, 22.5101], [39.4292, 22.5144], [39.421, 22.5201], [39.4305, 22.533], [39.4389, 22.5594], [39.4448, 22.5953], [39.467, 22.6055], [39.4607, 22.6331], [39.5003, 22.6745], [39.5196, 22.7143], [39.523, 22.7358], [39.55, 22.7328], [39.5733, 22.7451], [39.5868, 22.7378], [39.5964, 22.7389], [39.6004, 22.7313], [39.6206, 22.7354], [39.6207, 22.7232], [39.6096, 22.7158], [39.6249, 22.6991], [39.6217, 22.692], [39.6272, 22.679], [39.6364, 22.6755], [39.6482, 22.6866], [39.6679, 22.6931], [39.6774, 22.7033], [39.7032, 22.7044], [39.709, 22.7109], [39.7263, 22.7151], [39.747, 22.7412], [39.758, 22.7429], [39.7566, 22.7479], [39.7756, 22.7674], [39.775, 22.7762], [39.7865, 22.7942], [39.8193, 22.8003], [39.8188, 22.829], [39.8329, 22.8363], [39.8475, 22.88], [39.8759, 22.8963], [39.8839, 22.9175], [39.8786, 22.938], [39.8634, 22.9544], [39.8599, 22.9809], [39.8464, 22.9936], [39.8452, 23.0041], [39.8336, 23.0084], [39.8314, 23.0136], [39.8344, 23.0211], [39.8547, 23.0206], [39.8687, 23.0354], [39.8685, 23.0416], [39.8559, 23.0585], [39.7921, 23.0731], [39.7855, 23.081], [39.7639, 23.0854], [39.7376, 23.0984], [39.7293, 23.0942], [39.7203, 23.0804], [39.6685, 23.0639], [39.6592, 23.0731], [39.6489, 23.0676], [39.6492, 23.0866], [39.6373, 23.0844], [39.6292, 23.0889], [39.6387, 23.1009], [39.6342, 23.1129], [39.5612, 23.1107], [39.5373, 23.1144], [39.5417, 23.0722], [39.5666, 23.0326], [39.5659, 23.0268], [39.5156, 23.0363], [39.4935, 23.011], [39.4906, 23.0009], [39.4763, 23.0133], [39.4748, 23.0403], [39.4653, 23.0462], [39.4553, 23.0412], [39.4197, 23.0448], [39.4107, 23.0408], [39.4065, 23.0223], [39.3957, 23.0157], [39.3621, 23.0285], [39.3308, 23.0185], [39.3073, 23.0198], [39.2927, 23.0261], [39.2778, 23.0447], [39.2541, 23.054], [39.2716, 23.0617], [39.2858, 23.0898], [39.2601, 23.0963], [39.245, 23.1068], [39.2156, 23.1058], [39.1917, 23.1181], [39.1927, 23.1256], [39.1868, 23.1288], [39.1747, 23.1556], [39.1576, 23.17], [39.1313, 23.1781], [39.1218, 23.1899], [39.1218, 23.2036], [39.1367, 23.2172], [39.1407, 23.2399], [39.1241, 23.279], [39.1096, 23.2847], [39.1088, 23.3115], [39.0785, 23.3381], [39.045, 23.3268], [39.042, 23.3203], [39.0274, 23.3272]]], [[[38.6671, 23.3771], [38.6663, 23.3876], [38.6602, 23.3927], [38.6615, 23.3786], [38.6671, 23.3771]]], [[[38.7696, 23.1703], [38.7682, 23.1737], [38.7696, 23.1703]]], [[[38.783, 23.1371], [38.7794, 23.151], [38.7747, 23.1528], [38.783, 23.1371]]], [[[38.7825, 23.1466], [38.7788, 23.1563], [38.7825, 23.1466]]], [[[38.7853, 23.1448], [38.7861, 23.1472], [38.7847, 23.1474], [38.7853, 23.1448]]], [[[38.7866, 23.179], [38.7794, 23.1791], [38.7744, 23.1683], [38.7749, 23.1613], [38.7872, 23.1474], [38.7912, 23.1678], [38.7866, 23.179]]], [[[39.1179, 22.4066], [39.1184, 22.4081], [39.1168, 22.4081], [39.1179, 22.4066]]], [[[39.13, 22.3916], [39.1303, 22.3952], [39.13, 22.3916]]], [[[39.1051, 22.3589], [39.1123, 22.3751], [39.1051, 22.3589]]], [[[39.0972, 22.3199], [39.0919, 22.327], [39.0944, 22.3025], [39.0984, 22.3035], [39.0944, 22.3045], [39.0981, 22.305], [39.0972, 22.3199]]], [[[39.0592, 22.6051], [39.0556, 22.612], [39.0592, 22.6051]]], [[[38.8409, 22.978], [38.8431, 22.9783], [38.8392, 22.9794], [38.8409, 22.978]]], [[[38.827, 22.9651], [38.8253, 22.9667], [38.825, 22.9655], [38.827, 22.9651]]], [[[38.8487, 22.9683], [38.8492, 22.9701], [38.8477, 22.9693], [38.8487, 22.9683]]], [[[38.8448, 22.971], [38.8364, 22.9719], [38.8448, 22.971]]], [[[38.8598, 22.975], [38.8562, 22.9735], [38.8578, 22.9683], [38.8537, 22.9711], [38.8573, 22.9672], [38.865, 22.9742], [38.8617, 22.9799], [38.8598, 22.975]]], [[[38.8495, 22.959], [38.8409, 22.9688], [38.8495, 22.959]]], [[[38.8425, 22.9576], [38.8456, 22.9593], [38.8349, 22.9663], [38.8425, 22.9576]]], [[[38.8579, 22.9417], [38.8623, 22.9436], [38.8462, 22.958], [38.8428, 22.9565], [38.8579, 22.9417]]], [[[38.8798, 22.9346], [38.883, 22.9377], [38.8773, 22.9416], [38.8798, 22.9346]]], [[[38.8765, 22.9426], [38.8723, 22.9506], [38.8517, 22.9621], [38.8765, 22.9426]]], [[[38.9382, 22.8785], [38.9428, 22.8801], [38.9402, 22.8873], [38.9265, 22.8911], [38.925, 22.9019], [38.9213, 22.9027], [38.925, 22.886], [38.9382, 22.8785]]], [[[38.9061, 22.4615], [38.905, 22.4603], [38.906, 22.4586], [38.9073, 22.4604], [38.9061, 22.4615]]], [[[38.919, 22.4661], [38.9182, 22.4647], [38.9197, 22.4638], [38.919, 22.4661]]], [[[38.9233, 22.4551], [38.9237, 22.4529], [38.9256, 22.4536], [38.9254, 22.455], [38.9233, 22.4551]]]]}}, {"type": "Feature", "properties": {"osm_type": "relation", "osm_id": 671406032, "name": "Al Lith", "admin_level": "6", "kind": "subdivision_2", "parent_osm_id": 3678639, "parent_name": "Makkah Region", "parent_iso": "SA-02"}, "geometry": {"type": "MultiPolygon", "coordinates": [[[[40.9949, 19.8153], [40.9875, 19.8382], [40.9713, 19.8614], [40.9514, 19.8872], [40.9395, 19.8914], [40.9371, 19.9069], [40.9223, 19.9161], [40.8888, 19.9253], [40.8976, 19.963], [40.8636, 20.0039], [40.8569, 20.0186], [40.8482, 20.0535], [40.8482, 20.0873], [40.8512, 20.0979], [40.865, 20.1076], [40.8634, 20.112], [40.8498, 20.1113], [40.8376, 20.118], [40.8359, 20.1251], [40.8436, 20.1375], [40.8364, 20.1512], [40.8402, 20.1625], [40.8342, 20.176], [40.8244, 20.1805], [40.8327, 20.188], [40.7567, 20.2662], [40.7402, 20.3054], [40.7146, 20.3399], [40.7048, 20.3715], [40.6935, 20.3715], [40.6417, 20.4189], [40.6319, 20.44], [40.6341, 20.4603], [40.6123, 20.4941], [40.6048, 20.5212], [40.5905, 20.5385], [40.5979, 20.5547], [40.6274, 20.5744], [40.6367, 20.6022], [40.6439, 20.6037], [40.6522, 20.6144], [40.6567, 20.6329], [40.6748, 20.641], [40.6922, 20.6805], [40.7153, 20.6965], [40.7786, 20.7004], [40.7997, 20.746], [40.7653, 20.7823], [40.7396, 20.7799], [40.6898, 20.7891], [40.6531, 20.8085], [40.6069, 20.8189], [40.5732, 20.8178], [40.5564, 20.7833], [40.5406, 20.7793], [40.5356, 20.771], [40.5288, 20.7723], [40.5229, 20.7839], [40.5285, 20.8185], [40.5355, 20.8318], [40.5441, 20.8347], [40.5388, 20.8428], [40.5437, 20.8478], [40.5413, 20.8534], [40.5565, 20.8807], [40.5495, 20.8831], [40.546, 20.8912], [40.5385, 20.891], [40.5376, 20.9039], [40.513, 20.9294], [40.506, 20.9259], [40.4906, 20.9292], [40.4638, 20.9403], [40.4243, 20.9312], [40.3882, 20.9394], [40.3883, 20.9281], [40.3763, 20.9147], [40.3687, 20.8959], [40.356, 20.8886], [40.3414, 20.8878], [40.3447, 20.9199], [40.3379, 20.9298], [40.3417, 20.947], [40.3209, 20.9533], [40.3249, 20.9613], [40.3336, 20.9642], [40.333, 20.972], [40.3528, 20.9729], [40.339, 20.9773], [40.3459, 20.9821], [40.3414, 20.9843], [40.3429, 20.9886], [40.3278, 20.9978], [40.3168, 20.9958], [40.3042, 20.9861], [40.2916, 20.9885], [40.3092, 20.9549], [40.2995, 20.9326], [40.2668, 20.9542], [40.2414, 20.9474], [40.2334, 20.9366], [40.2157, 20.9267], [40.2067, 20.9277], [40.2049, 20.9422], [40.1648, 20.9357], [40.1149, 20.9401], [40.0935, 20.9345], [40.0838, 20.9199], [40.0619, 20.9191], [40.0638, 20.9064], [40.0603, 20.9025], [40.0358, 20.8935], [40.0241, 20.8787], [39.9993, 20.8822], [39.9877, 20.8772], [39.9845, 20.8521], [39.9767, 20.8427], [39.9602, 20.8457], [39.9103, 20.8304], [39.8981, 20.8441], [39.887, 20.8434], [39.8771, 20.8361], [39.8727, 20.8215], [39.8434, 20.7922], [39.8208, 20.7758], [39.8089, 20.7753], [39.8069, 20.765], [39.7876, 20.7447], [39.7634, 20.7456], [39.7594, 20.739], [39.7602, 20.7194], [39.754, 20.7078], [39.7362, 20.7074], [39.7215, 20.6994], [39.7112, 20.6778], [39.7074, 20.6517], [39.6737, 20.6298], [39.6535, 20.6249], [39.6069, 20.6275], [39.5845, 20.6354], [39.5678, 20.6508], [39.5633, 20.6486], [39.5499, 20.6217], [39.5506, 20.6173], [39.5583, 20.6234], [39.5515, 20.6174], [39.56, 20.6218], [39.5622, 20.6183], [39.5539, 20.6138], [39.5512, 20.617], [39.5521, 20.6137], [39.5626, 20.6175], [39.5827, 20.5837], [39.5887, 20.5893], [39.6007, 20.5864], [39.6062, 20.5899], [39.6063, 20.5737], [39.6191, 20.5636], [39.6165, 20.5573], [39.6103, 20.5637], [39.6173, 20.5613], [39.6002, 20.5794], [39.5868, 20.5826], [39.5803, 20.5774], [39.5837, 20.565], [39.612, 20.5325], [39.6152, 20.5371], [39.6096, 20.5487], [39.6134, 20.5443], [39.6252, 20.5453], [39.6129, 20.5299], [39.6221, 20.527], [39.6327, 20.5115], [39.6529, 20.5138], [39.6477, 20.5081], [39.6528, 20.4811], [39.6618, 20.4831], [39.6612, 20.4715], [39.673, 20.4712], [39.6655, 20.4542], [39.6835, 20.4441], [39.6821, 20.435], [39.7012, 20.4291], [39.6993, 20.4245], [39.7289, 20.3996], [39.7322, 20.3904], [39.7409, 20.3883], [39.7964, 20.3458], [39.8236, 20.3356], [39.8698, 20.2952], [39.8992, 20.2825], [39.9016, 20.2758], [39.904, 20.2787], [39.9477, 20.26], [39.9543, 20.267], [39.951, 20.2649], [39.9529, 20.268], [39.9435, 20.2711], [39.9418, 20.2802], [39.9309, 20.2809], [39.9123, 20.2913], [39.9179, 20.2988], [39.9384, 20.3021], [39.965, 20.2824], [39.9808, 20.2763], [39.9854, 20.2635], [39.9966, 20.2651], [39.9908, 20.2525], [39.9979, 20.2641], [40.0118, 20.2666], [40.0074, 20.2752], [40.0103, 20.2822], [40.0458, 20.2788], [40.0655, 20.2882], [40.1169, 20.2683], [40.1166, 20.2611], [40.1271, 20.2433], [40.1262, 20.2325], [40.1444, 20.2249], [40.169, 20.1907], [40.1838, 20.1883], [40.1835, 20.193], [40.1963, 20.1958], [40.2205, 20.1896], [40.2361, 20.1918], [40.2374, 20.1717], [40.2309, 20.1586], [40.2388, 20.1539], [40.248, 20.1584], [40.2493, 20.1546], [40.2525, 20.1591], [40.2503, 20.1497], [40.273, 20.1174], [40.2826, 20.1147], [40.2863, 20.0997], [40.3117, 20.0983], [40.329, 20.0838], [40.369, 20.0768], [40.388, 20.0626], [40.3939, 20.0629], [40.3876, 20.0668], [40.3907, 20.0691], [40.4015, 20.0563], [40.4196, 20.0516], [40.4146, 20.0456], [40.4261, 20.0377], [40.4304, 20.0285], [40.4391, 20.0278], [40.4356, 20.0263], [40.4989, 19.9861], [40.5174, 19.9764], [40.5228, 19.9782], [40.5385, 19.9672], [40.5474, 19.9535], [40.547, 19.9247], [40.5519, 19.9252], [40.5469, 19.9244], [40.5363, 19.9034], [40.5734, 19.8889], [40.5856, 19.8667], [40.5883, 19.8502], [40.5827, 19.8397], [40.587, 19.8288], [40.6227, 19.8141], [40.6258, 19.7963], [40.631, 19.796], [40.6319, 19.7797], [40.6492, 19.7631], [40.6584, 19.7612], [40.6589, 19.7558], [40.666, 19.758], [40.6776, 19.7449], [40.6844, 19.7532], [40.6754, 19.7532], [40.6538, 19.7696], [40.647, 19.7917], [40.659, 19.7944], [40.6681, 19.7848], [40.6766, 19.7833], [40.7267, 19.7925], [40.7371, 19.7983], [40.7886, 19.7342], [40.794, 19.7329], [40.7906, 19.7283], [40.8035, 19.6922], [40.8699, 19.7085], [40.8974, 19.71], [40.9252, 19.7271], [40.9478, 19.7349], [40.9542, 19.7485], [40.9905, 19.7829], [40.9883, 19.8006], [40.9949, 19.8153]]], [[[39.925, 19.8322], [39.9283, 19.8391], [39.925, 19.8322]]], [[[39.9001, 19.8228], [39.8955, 19.8279], [39.9001, 19.8228]]], [[[39.9086, 19.7491], [39.9111, 19.752], [39.9086, 19.7491]]], [[[39.9546, 19.7876], [39.956, 19.789], [39.9522, 19.7888], [39.9522, 19.7877], [39.9546, 19.7876]]], [[[40.1204, 19.9674], [40.122, 19.9695], [40.121, 19.9701], [40.1189, 19.9677], [40.1204, 19.9674]]], [[[40.1468, 19.9471], [40.1521, 19.9563], [40.1331, 19.9778], [40.1345, 19.9816], [40.1306, 19.978], [40.1211, 19.9817], [40.1264, 19.9685], [40.1433, 19.9564], [40.1468, 19.9471]]], [[[39.9749, 20.2688], [39.9788, 20.2714], [39.9749, 20.2688]]], [[[39.9608, 20.2671], [39.9636, 20.2708], [39.957, 20.2675], [39.9608, 20.2671]]], [[[40.0366, 20.2559], [40.0363, 20.2577], [40.0347, 20.2575], [40.0366, 20.2559]]], [[[40.0522, 20.2601], [40.0369, 20.2602], [40.0666, 20.2524], [40.0522, 20.2601]]], [[[40.0872, 20.2404], [40.0783, 20.2446], [40.0872, 20.2404]]], [[[40.0739, 20.2467], [40.0707, 20.2508], [40.0739, 20.2467]]], [[[40.1071, 20.2115], [40.1751, 20.1734], [40.1938, 20.1664], [40.1926, 20.1728], [40.0896, 20.2306], [40.0188, 20.2457], [40.0028, 20.2587], [39.9954, 20.2594], [40.0272, 20.2344], [40.0705, 20.2333], [40.1071, 20.2115]]], [[[40.2244, 20.1583], [40.2282, 20.1617], [40.217, 20.1632], [40.2193, 20.1667], [40.2149, 20.1631], [40.2086, 20.1688], [40.1991, 20.1658], [40.2244, 20.1583]]], [[[40.5896, 19.7663], [40.5818, 19.7734], [40.5764, 19.7722], [40.5896, 19.7663]]], [[[40.6066, 19.777], [40.6069, 19.7787], [40.6053, 19.7787], [40.6066, 19.777]]], [[[40.5964, 19.7636], [40.6003, 19.7705], [40.5964, 19.7636]]], [[[40.6977, 19.7508], [40.7018, 19.7562], [40.6919, 19.7637], [40.6896, 19.756], [40.6977, 19.7508]]], [[[40.6479, 19.7241], [40.6452, 19.7258], [40.6479, 19.7241]]], [[[40.6884, 19.7197], [40.6844, 19.7267], [40.6884, 19.7197]]], [[[40.6971, 19.6965], [40.6889, 19.7182], [40.6971, 19.6965]]], [[[40.7095, 19.7112], [40.7065, 19.7129], [40.7095, 19.7112]]], [[[40.705, 19.6972], [40.7034, 19.7], [40.705, 19.6972]]], [[[40.7089, 19.6819], [40.705, 19.6907], [40.7033, 19.6856], [40.7089, 19.6819]]], [[[40.7546, 19.6791], [40.7584, 19.6804], [40.747, 19.687], [40.7365, 19.6889], [40.7298, 19.6802], [40.7367, 19.6875], [40.7546, 19.6791]]]]}}, {"type": "Feature", "properties": {"osm_type": "relation", "osm_id": 304420832, "name": "Ranyah", "admin_level": "6", "kind": "subdivision_2", "parent_osm_id": 3678639, "parent_name": "Makkah Region", "parent_iso": "SA-02"}, "geometry": {"type": "Polygon", "coordinates": [[[43.4839, 21.9305], [43.4814, 21.9357], [43.4902, 21.9617], [43.464, 22.0002], [43.3989, 22.0135], [43.3779, 22.0226], [43.3599, 22.1094], [43.3506, 22.0975], [43.3387, 22.0618], [43.3408, 22.0394], [43.3233, 22.0184], [43.3268, 21.9925], [43.3002, 21.9743], [43.2946, 21.9575], [43.2568, 21.9029], [43.2306, 21.8801], [43.1888, 21.8145], [43.1758, 21.8011], [43.1455, 21.736], [43.1004, 21.705], [43.0242, 21.6899], [43.0123, 21.6837], [43.0016, 21.67], [42.9809, 21.6812], [42.9586, 21.682], [42.931, 21.6945], [42.7786, 21.7945], [42.7406, 21.7868], [42.6786, 21.7602], [42.5868, 21.6842], [42.5434, 21.6727], [42.5354, 21.6664], [42.5537, 21.6018], [42.5544, 21.5713], [42.573, 21.5348], [42.5922, 21.51], [42.5855, 21.4942], [42.4756, 21.4868], [42.4674, 21.4898], [42.4211, 21.476], [42.4, 21.4623], [42.387, 21.4625], [42.3816, 21.457], [42.3433, 21.4457], [42.3188, 21.4232], [42.3, 21.435], [42.2799, 21.4134], [42.2387, 21.4119], [42.2182, 21.3992], [42.1669, 21.402], [42.1586, 21.4074], [42.1431, 21.402], [42.1228, 21.4197], [42.0783, 21.4132], [42.0563, 21.4335], [42.0385, 21.4389], [42.0265, 21.4523], [42.017, 21.4537], [41.8961, 21.4177], [41.8905, 21.3771], [41.8966, 21.3066], [41.8796, 21.2568], [41.8816, 21.2232], [41.8954, 21.1998], [41.9401, 21.1659], [41.9603, 21.156], [41.9625, 21.1488], [41.9403, 21.1258], [41.9169, 21.0799], [41.9132, 21.0553], [41.921, 20.97], [42.0, 20.7502], [42.0429, 20.7005], [42.0359, 20.6832], [42.0098, 20.6563], [42.0076, 20.5838], [42.0394, 20.5812], [42.0826, 20.5902], [42.1145, 20.5856], [42.1289, 20.5784], [42.1274, 20.5689], [42.0997, 20.5263], [42.1176, 20.5149], [42.1131, 20.5011], [42.1289, 20.4461], [42.13, 20.4133], [42.1224, 20.4064], [42.1423, 20.3916], [42.1383, 20.3771], [42.1494, 20.3486], [42.1543, 20.3093], [42.1899, 20.3009], [42.2124, 20.2873], [42.2517, 20.2875], [42.3016, 20.3167], [42.335, 20.3246], [42.3781, 20.3246], [42.4201, 20.3069], [42.4724, 20.2625], [42.4915, 20.255], [42.5119, 20.2538], [42.551, 20.2791], [42.5878, 20.3139], [42.5993, 20.3373], [42.6283, 20.3737], [42.6523, 20.3834], [42.7191, 20.3841], [42.7267, 20.4082], [42.7068, 20.459], [42.7068, 20.4845], [42.7116, 20.4934], [42.7329, 20.501], [42.7439, 20.5133], [42.7542, 20.5161], [42.7803, 20.501], [42.8098, 20.5126], [42.8353, 20.5161], [42.8937, 20.5077], [42.9631, 20.591], [42.968, 20.5906], [42.9727, 20.5822], [42.9904, 20.577], [43.0024, 20.5958], [43.0162, 20.5996], [43.0302, 20.5868], [43.043, 20.5848], [43.0955, 20.6537], [43.1118, 20.6849], [43.1398, 20.7177], [43.1465, 20.7447], [43.1668, 20.7608], [43.1992, 20.8016], [43.2661, 20.8027], [43.389, 20.7757], [43.4462, 20.7757], [43.4958, 20.7595], [43.5659, 20.7574], [43.6069, 20.7293], [43.6813, 20.6927], [43.7898, 20.6807], [43.8173, 20.6317], [43.8152, 20.6379], [43.8192, 20.6409], [43.8302, 20.6905], [43.8302, 20.7239], [43.8032, 20.7983], [43.8032, 20.8188], [43.7935, 20.8436], [43.7913, 20.8652], [43.7784, 20.8782], [43.7633, 20.9084], [43.7158, 20.9709], [43.6926, 20.9918], [43.6651, 21.0369], [43.6403, 21.0625], [43.5804, 21.1018], [43.5674, 21.1308], [43.5666, 21.1572], [43.5781, 21.1995], [43.6174, 21.2981], [43.6604, 21.3714], [43.6671, 21.4041], [43.6598, 21.4206], [43.6319, 21.4394], [43.5177, 21.4872], [43.4999, 21.4993], [43.485, 21.5218], [43.49, 21.5954], [43.4686, 21.7168], [43.4562, 21.7398], [43.4364, 21.75], [43.4244, 21.7627], [43.4854, 21.7771], [43.4955, 21.7896], [43.4867, 21.8338], [43.4909, 21.8723], [43.4987, 21.8917], [43.4839, 21.9305]]]}}, {"type": "Feature", "properties": {"osm_type": "relation", "osm_id": 992146730, "name": "Al Khurmah", "admin_level": "6", "kind": "subdivision_2", "parent_osm_id": 3678639, "parent_name": "Makkah Region", "parent_iso": "SA-02"}, "geometry": {"type": "Polygon", "coordinates": [[[43.3147, 22.4321], [43.2544, 22.4186], [43.2407, 22.4219], [43.2318, 22.4465], [43.2322, 22.4846], [43.2274, 22.4976], [43.1968, 22.5258], [43.1474, 22.5916], [43.1461, 22.6052], [43.1519, 22.6173], [43.1616, 22.6233], [43.2109, 22.6292], [43.2368, 22.6433], [43.2447, 22.6553], [43.2451, 22.6684], [43.2367, 22.6879], [43.2204, 22.6993], [43.1944, 22.7065], [42.9831, 22.7205], [42.9305, 22.7427], [42.9133, 22.7639], [42.9029, 22.8176], [42.8723, 22.8865], [42.8408, 22.8233], [42.843, 22.8109], [42.8723, 22.7617], [42.8789, 22.7409], [42.8266, 22.6817], [42.8173, 22.658], [42.8058, 22.6003], [42.7823, 22.5624], [42.7834, 22.4999], [42.7648, 22.4864], [42.7645, 22.4343], [42.7552, 22.4117], [42.7535, 22.3164], [42.7603, 22.279], [42.7559, 22.2564], [42.6885, 22.2191], [42.5451, 22.1677], [42.5265, 22.1921], [42.4789, 22.2153], [42.4303, 22.206], [42.3921, 22.2091], [42.3673, 22.2184], [42.264, 22.206], [42.1809, 22.1544], [42.057, 22.0624], [42.0185, 22.0252], [42.0131, 21.9919], [41.9975, 21.9897], [41.9891, 21.9977], [41.9768, 21.9906], [41.9532, 21.9974], [41.8776, 21.9996], [41.8736, 21.995], [41.877, 21.9884], [41.9086, 21.9714], [41.9182, 21.9568], [41.9163, 21.9482], [41.9055, 21.9364], [41.8934, 21.8756], [41.8732, 21.8601], [41.8497, 21.8533], [41.7778, 21.853], [41.7239, 21.8394], [41.7006, 21.8261], [41.7161, 21.7814], [41.7206, 21.7471], [41.7185, 21.7198], [41.7134, 21.712], [41.7158, 21.6908], [41.71, 21.6719], [41.732, 21.6458], [41.7402, 21.6195], [41.7079, 21.5736], [41.6583, 21.5436], [41.6385, 21.5233], [41.6172, 21.5286], [41.6083, 21.5141], [41.5909, 21.5025], [41.5902, 21.4955], [41.5962, 21.4912], [41.6155, 21.4972], [41.6602, 21.4979], [41.7209, 21.4806], [41.7332, 21.4662], [41.7903, 21.4617], [41.7997, 21.4682], [41.8323, 21.4595], [41.8178, 21.4216], [41.8188, 21.4151], [41.8246, 21.4134], [41.9042, 21.4192], [42.017, 21.4537], [42.0265, 21.4523], [42.0385, 21.4389], [42.0563, 21.4335], [42.0783, 21.4132], [42.1228, 21.4197], [42.1431, 21.402], [42.1586, 21.4074], [42.1669, 21.402], [42.2182, 21.3992], [42.2387, 21.4119], [42.2799, 21.4134], [42.3, 21.435], [42.3188, 21.4232], [42.3433, 21.4457], [42.3816, 21.457], [42.387, 21.4625], [42.4, 21.4623], [42.4211, 21.476], [42.4674, 21.4898], [42.4756, 21.4868], [42.5855, 21.4942], [42.5922, 21.51], [42.573, 21.5348], [42.5544, 21.5713], [42.5537, 21.6018], [42.5354, 21.6664], [42.5434, 21.6727], [42.5868, 21.6842], [42.6786, 21.7602], [42.7406, 21.7868], [42.7786, 21.7945], [42.931, 21.6945], [42.9586, 21.682], [42.9809, 21.6812], [43.0016, 21.67], [43.0123, 21.6837], [43.0242, 21.6899], [43.0927, 21.7024], [43.117, 21.714], [43.1455, 21.736], [43.1758, 21.8011], [43.1888, 21.8145], [43.2306, 21.8801], [43.2568, 21.9029], [43.2946, 21.9575], [43.3002, 21.9743], [43.3268, 21.9925], [43.3233, 22.0184], [43.3408, 22.0394], [43.3387, 22.0618], [43.3506, 22.0975], [43.3599, 22.1094], [43.3448, 22.165], [43.3377, 22.1717], [43.3377, 22.1883], [43.3136, 22.2375], [43.2912, 22.2486], [43.285, 22.2639], [43.2715, 22.277], [43.2708, 22.2891], [43.3021, 22.3089], [43.3182, 22.3297], [43.3681, 22.3403], [43.3785, 22.3512], [43.3705, 22.3643], [43.336, 22.3814], [43.3282, 22.4082], [43.3147, 22.4321]]]}}, {"type": "Feature", "properties": {"osm_type": "relation", "osm_id": 784118450, "name": "Bahrah", "admin_level": "6", "kind": "subdivision_2", "parent_osm_id": 3678639, "parent_name": "Makkah Region", "parent_iso": "SA-02"}, "geometry": {"type": "MultiPolygon", "coordinates": [[[[39.6437, 21.463], [39.6039, 21.4778], [39.5962, 21.4897], [39.5568, 21.5017], [39.534, 21.5458], [39.5155, 21.5602], [39.4793, 21.5676], [39.4602, 21.5777], [39.4359, 21.5809], [39.4247, 21.5851], [39.4099, 21.6021], [39.376, 21.6105], [39.3551, 21.598], [39.3484, 21.586], [39.3611, 21.583], [39.3957, 21.5522], [39.4399, 21.5274], [39.4542, 21.5154], [39.4535, 21.5019], [39.4467, 21.4989], [39.446, 21.4816], [39.4084, 21.4523], [39.4062, 21.4388], [39.3927, 21.4328], [39.3766, 21.3987], [39.382, 21.3855], [39.4063, 21.3745], [39.4084, 21.3641], [39.3677, 21.3498], [39.3699, 21.3663], [39.3659, 21.3834], [39.3472, 21.4006], [39.3266, 21.378], [39.3288, 21.3405], [39.3108, 21.3337], [39.3206, 21.321], [39.3191, 21.3067], [39.3619, 21.2714], [39.3551, 21.2616], [39.3551, 21.2526], [39.3699, 21.2006], [39.355, 21.1697], [39.3541, 21.1338], [39.3756, 21.0345], [39.3936, 21.002], [39.3925, 20.9761], [39.3978, 20.9462], [39.3927, 20.9205], [39.3723, 20.8866], [39.3611, 20.8924], [39.3597, 20.8834], [39.3558, 20.8857], [39.3635, 20.8672], [39.4086, 20.8413], [39.4225, 20.8214], [39.4346, 20.825], [39.4291, 20.8329], [39.4401, 20.8314], [39.4403, 20.8246], [39.4565, 20.8234], [39.4573, 20.8188], [39.4491, 20.8149], [39.4649, 20.8041], [39.4545, 20.7988], [39.4406, 20.8027], [39.429, 20.8205], [39.4236, 20.8182], [39.4316, 20.79], [39.4364, 20.7879], [39.4565, 20.7446], [39.4791, 20.7383], [39.4866, 20.7289], [39.4907, 20.7342], [39.458, 20.7647], [39.4471, 20.7833], [39.4594, 20.7894], [39.4668, 20.7743], [39.4829, 20.7734], [39.4895, 20.7659], [39.4856, 20.7707], [39.481, 20.7677], [39.4977, 20.7651], [39.4933, 20.7551], [39.504, 20.7478], [39.5029, 20.7424], [39.4962, 20.7401], [39.5021, 20.7329], [39.4865, 20.7265], [39.4988, 20.7015], [39.5234, 20.6732], [39.5235, 20.6663], [39.5261, 20.6686], [39.53, 20.6631], [39.5277, 20.657], [39.533, 20.6578], [39.5329, 20.6413], [39.5405, 20.6306], [39.5488, 20.6275], [39.5483, 20.6235], [39.5649, 20.6505], [39.5901, 20.6321], [39.6257, 20.626], [39.665, 20.6265], [39.6961, 20.6425], [39.7074, 20.6517], [39.7112, 20.6778], [39.7215, 20.6994], [39.7362, 20.7074], [39.754, 20.7078], [39.7602, 20.7194], [39.7594, 20.739], [39.7634, 20.7456], [39.7876, 20.7447], [39.8069, 20.765], [39.8089, 20.7753], [39.8208, 20.7758], [39.8434, 20.7922], [39.8727, 20.8215], [39.8771, 20.8361], [39.887, 20.8434], [39.8981, 20.8441], [39.9103, 20.8304], [39.9602, 20.8457], [39.9767, 20.8427], [39.9845, 20.8521], [39.9877, 20.8772], [39.9993, 20.8822], [40.0241, 20.8787], [40.0358, 20.8935], [40.0603, 20.9025], [40.0638, 20.9064], [40.0619, 20.9191], [40.0838, 20.9199], [40.0935, 20.9345], [40.1149, 20.9401], [40.1648, 20.9357], [40.187, 20.9399], [40.1867, 20.9472], [40.1946, 20.9554], [40.193, 20.9737], [40.2187, 20.9974], [40.2321, 21.0374], [40.2497, 21.0412], [40.2532, 21.0481], [40.2428, 21.075], [40.2446, 21.1062], [40.2193, 21.0962], [40.1986, 21.1007], [40.1979, 21.1068], [40.2104, 21.1253], [40.2111, 21.1388], [40.1923, 21.168], [40.1906, 21.1812], [40.181, 21.1869], [40.1306, 21.1974], [40.1125, 21.1927], [40.0773, 21.2155], [40.0535, 21.2079], [40.0373, 21.2117], [40.0278, 21.2203], [40.0297, 21.2298], [40.0069, 21.2812], [39.9852, 21.3117], [39.972, 21.3053], [39.9534, 21.2796], [39.9181, 21.2507], [39.9192, 21.2386], [39.9559, 21.2282], [39.9327, 21.2], [39.9238, 21.1993], [39.8699, 21.1629], [39.7557, 21.1329], [39.7331, 21.1567], [39.6867, 21.1317], [39.676, 21.1198], [39.6617, 21.127], [39.6403, 21.1222], [39.6034, 21.1281], [39.5844, 21.1389], [39.5701, 21.1579], [39.5308, 21.19], [39.5059, 21.2352], [39.5213, 21.2614], [39.5249, 21.2828], [39.538, 21.2959], [39.557, 21.3102], [39.6073, 21.3207], [39.6147, 21.3346], [39.6226, 21.3395], [39.6261, 21.413], [39.6437, 21.463]]], [[[39.4368, 20.8228], [39.4397, 20.8238], [39.4368, 20.8228]]], [[[39.442, 20.8213], [39.4431, 20.8224], [39.4401, 20.8224], [39.442, 20.8213]]], [[[39.4755, 20.769], [39.4722, 20.7708], [39.4755, 20.769]]], [[[39.4629, 20.7631], [39.4728, 20.7677], [39.4637, 20.7671], [39.4629, 20.7631]]], [[[39.4856, 20.7547], [39.4894, 20.7607], [39.4856, 20.7547]]]]}}, {"type": "Feature", "properties": {"osm_type": "relation", "osm_id": 274056651, "name": "Maysan", "admin_level": "6", "kind": "subdivision_2", "parent_osm_id": 3678639, "parent_name": "Makkah Region", "parent_iso": "SA-02"}, "geometry": {"type": "Polygon", "coordinates": [[[41.2498, 21.3562], [41.204, 21.3381], [41.192, 21.3243], [41.1863, 21.3021], [41.165, 21.2635], [41.1724, 21.2383], [41.164, 21.2284], [41.1603, 21.203], [41.1732, 21.1391], [41.1695, 21.0983], [41.1753, 21.0785], [41.1507, 21.0341], [41.1552, 21.0111], [41.1513, 20.9897], [41.1578, 20.9732], [41.1557, 20.9563], [41.1369, 20.9339], [41.0646, 20.9328], [41.045, 20.9268], [41.0073, 20.8741], [40.9963, 20.8808], [40.9795, 20.9086], [40.9736, 20.9105], [40.9629, 20.9107], [40.9376, 20.8853], [40.9309, 20.8862], [40.9217, 20.9033], [40.9154, 20.9031], [40.9158, 20.9211], [40.8963, 20.9418], [40.8853, 20.9692], [40.886, 20.9805], [40.8918, 20.9878], [40.8923, 21.0193], [40.8606, 21.0307], [40.8565, 21.0397], [40.8509, 21.0396], [40.8377, 21.0539], [40.8231, 21.0575], [40.8149, 21.066], [40.8281, 21.111], [40.8249, 21.1171], [40.781, 21.1281], [40.7506, 21.1228], [40.7349, 21.1249], [40.7077, 21.1582], [40.6971, 21.1542], [40.6881, 21.1333], [40.6774, 21.1338], [40.6719, 21.1232], [40.6745, 21.1138], [40.6652, 21.1124], [40.6525, 21.0969], [40.6471, 21.0612], [40.6228, 21.0662], [40.608, 21.0518], [40.5914, 21.0474], [40.5779, 21.0694], [40.5723, 21.0703], [40.5661, 21.0497], [40.5511, 21.0456], [40.5524, 21.0388], [40.5383, 21.0289], [40.5384, 21.0182], [40.5268, 21.0129], [40.5007, 21.0151], [40.4906, 20.9995], [40.4883, 20.972], [40.4961, 20.9435], [40.4887, 20.9339], [40.4906, 20.9292], [40.5168, 20.9268], [40.5376, 20.9039], [40.5385, 20.891], [40.546, 20.8912], [40.5495, 20.8831], [40.5565, 20.8807], [40.5413, 20.8534], [40.5437, 20.8478], [40.5388, 20.8428], [40.5441, 20.8347], [40.5355, 20.8318], [40.5285, 20.8185], [40.5229, 20.7839], [40.5288, 20.7723], [40.5356, 20.771], [40.5406, 20.7793], [40.5564, 20.7833], [40.5702, 20.8145], [40.584, 20.8198], [40.6374, 20.8134], [40.6809, 20.7921], [40.7153, 20.7832], [40.7705, 20.7792], [40.7997, 20.746], [40.7786, 20.7004], [40.8128, 20.699], [40.827, 20.6912], [40.8327, 20.6804], [40.8288, 20.664], [40.8004, 20.6226], [40.7955, 20.5999], [40.8038, 20.5684], [40.812, 20.5594], [40.8252, 20.5559], [40.8621, 20.5781], [40.9604, 20.5784], [40.9731, 20.5543], [41.0137, 20.5295], [41.023, 20.4992], [41.0088, 20.4893], [41.0156, 20.4806], [41.0135, 20.4654], [41.0324, 20.4472], [41.0577, 20.4039], [41.0701, 20.4006], [41.0759, 20.3812], [41.0934, 20.3663], [41.1044, 20.3628], [41.1311, 20.3796], [41.1418, 20.3754], [41.1381, 20.3445], [41.1458, 20.3246], [41.1683, 20.3254], [41.1732, 20.3408], [41.1933, 20.3429], [41.1898, 20.3659], [41.193, 20.3849], [41.2098, 20.4103], [41.2065, 20.4196], [41.2099, 20.4249], [41.1998, 20.4379], [41.2007, 20.4538], [41.2051, 20.4553], [41.2114, 20.4495], [41.2329, 20.4693], [41.2477, 20.4728], [41.241, 20.4809], [41.2681, 20.5056], [41.2678, 20.5211], [41.2878, 20.5307], [41.2835, 20.545], [41.2881, 20.5529], [41.2849, 20.5616], [41.2925, 20.6136], [41.296, 20.6201], [41.305, 20.6194], [41.3082, 20.6384], [41.3201, 20.6528], [41.3208, 20.6707], [41.3383, 20.6731], [41.34, 20.6946], [41.3312, 20.7203], [41.3319, 20.7556], [41.3281, 20.7625], [41.3355, 20.7838], [41.3656, 20.8131], [41.384, 20.8146], [41.4117, 20.8294], [41.4243, 20.8271], [41.4324, 20.8383], [41.4275, 20.8859], [41.4056, 20.8755], [41.3737, 20.8779], [41.3681, 20.89], [41.3452, 20.9139], [41.349, 20.9183], [41.3708, 20.9188], [41.3894, 20.9265], [41.401, 20.9448], [41.4452, 20.9531], [41.4452, 20.9806], [41.4522, 20.9978], [41.4363, 20.9958], [41.4135, 20.9852], [41.3807, 20.9949], [41.3587, 21.0478], [41.3623, 21.0521], [41.3768, 21.0524], [41.392, 21.0659], [41.3988, 21.0947], [41.3795, 21.0964], [41.3732, 21.1048], [41.3551, 21.1109], [41.314, 21.1109], [41.3152, 21.1249], [41.3454, 21.1575], [41.3512, 21.172], [41.3353, 21.1858], [41.3353, 21.1983], [41.3072, 21.194], [41.278, 21.2314], [41.249, 21.3042], [41.2738, 21.3099], [41.2753, 21.3177], [41.2824, 21.3189], [41.2498, 21.3562]]]}}, {"type": "Feature", "properties": {"osm_type": "relation", "osm_id": 556885043, "name": "Al Ardiyat", "admin_level": "6", "kind": "subdivision_2", "parent_osm_id": 3678639, "parent_name": "Makkah Region", "parent_iso": "SA-02"}, "geometry": {"type": "Polygon", "coordinates": [[[41.5959, 19.1676], [41.6089, 19.1838], [41.6458, 19.1993], [41.6423, 19.2038], [41.6119, 19.2084], [41.6053, 19.2215], [41.7101, 19.2142], [41.7559, 19.181], [41.7672, 19.1615], [41.7671, 19.1514], [41.7797, 19.1405], [41.7896, 19.1077], [41.7962, 19.1017], [41.8135, 19.1243], [41.8427, 19.1288], [41.8684, 19.1412], [41.8633, 19.1552], [41.8697, 19.175], [41.868, 19.1852], [41.8764, 19.2033], [41.891, 19.2048], [41.8907, 19.1899], [41.9058, 19.1952], [41.9118, 19.203], [41.9127, 19.225], [41.9043, 19.2373], [41.9173, 19.2532], [41.9149, 19.2915], [41.9128, 19.3011], [41.9016, 19.3114], [41.91, 19.3097], [41.9043, 19.3192], [41.9226, 19.3248], [41.9139, 19.3671], [41.9332, 19.3721], [41.9527, 19.3696], [41.9178, 19.4146], [41.9173, 19.4374], [41.9078, 19.4408], [41.876, 19.4314], [41.8598, 19.4467], [41.8657, 19.4632], [41.8482, 19.4754], [41.8534, 19.4821], [41.851, 19.4876], [41.8424, 19.4942], [41.8405, 19.5084], [41.8208, 19.5378], [41.8292, 19.5478], [41.8319, 19.5752], [41.8094, 19.6008], [41.8174, 19.6434], [41.8344, 19.6805], [41.8324, 19.7379], [41.8217, 19.7681], [41.8091, 19.7624], [41.7989, 19.7333], [41.791, 19.7236], [41.7597, 19.7021], [41.7454, 19.6825], [41.7362, 19.683], [41.7025, 19.6981], [41.6996, 19.7044], [41.6804, 19.7098], [41.6716, 19.725], [41.6639, 19.7186], [41.6159, 19.7082], [41.5858, 19.6924], [41.5651, 19.6748], [41.5523, 19.6724], [41.5535, 19.6539], [41.5735, 19.6319], [41.5747, 19.616], [41.5646, 19.6128], [41.5451, 19.5866], [41.5517, 19.5572], [41.5461, 19.5294], [41.5253, 19.5264], [41.5183, 19.5185], [41.5132, 19.5191], [41.5151, 19.4933], [41.5247, 19.4945], [41.5122, 19.4814], [41.5306, 19.4731], [41.5247, 19.4683], [41.5371, 19.4594], [41.5288, 19.4255], [41.5389, 19.3928], [41.5276, 19.3892], [41.5288, 19.3625], [41.5229, 19.3589], [41.5449, 19.3345], [41.5461, 19.3262], [41.5425, 19.3208], [41.5306, 19.3226], [41.5235, 19.2864], [41.543, 19.2596], [41.5746, 19.1916], [41.5959, 19.1676]]]}}, {"type": "Feature", "properties": {"osm_type": "relation", "osm_id": 107145495, "name": "Adam", "admin_level": "6", "kind": "subdivision_2", "parent_osm_id": 3678639, "parent_name": "Makkah Region", "parent_iso": "SA-02"}, "geometry": {"type": "Polygon", "coordinates": [[[40.8436, 20.1375], [40.8732, 20.1608], [40.8828, 20.1756], [40.9889, 20.2454], [40.978, 20.2788], [40.9966, 20.2865], [41.0222, 20.3123], [41.0325, 20.3445], [41.0302, 20.3497], [41.0191, 20.3498], [41.0216, 20.3585], [41.0829, 20.375], [41.0759, 20.3812], [41.0701, 20.4006], [41.0577, 20.4039], [41.0324, 20.4472], [41.0135, 20.4654], [41.0156, 20.4806], [41.0088, 20.4893], [41.023, 20.4992], [41.0137, 20.5295], [40.9731, 20.5543], [40.9604, 20.5784], [40.8621, 20.5781], [40.8191, 20.5555], [40.7987, 20.5773], [40.7955, 20.5999], [40.8004, 20.6226], [40.8331, 20.6754], [40.827, 20.6912], [40.8035, 20.7014], [40.7153, 20.6965], [40.6922, 20.6805], [40.6748, 20.641], [40.6567, 20.6329], [40.6522, 20.6144], [40.6439, 20.6037], [40.6367, 20.6022], [40.6274, 20.5744], [40.5979, 20.5547], [40.5905, 20.5385], [40.6048, 20.5212], [40.6123, 20.4941], [40.6341, 20.4603], [40.6319, 20.44], [40.6417, 20.4189], [40.6935, 20.3715], [40.7048, 20.3715], [40.7146, 20.3399], [40.7402, 20.3054], [40.7567, 20.2662], [40.8327, 20.188], [40.8244, 20.1805], [40.8342, 20.176], [40.8402, 20.1625], [40.8364, 20.1512], [40.8436, 20.1375]]]}}, {"type": "Feature", "properties": {"osm_type": "relation", "osm_id": 450613246, "name": "Farat Ghamid Az Zinad", "admin_level": "6", "kind": "subdivision_2", "parent_osm_id": 3678639, "parent_name": "Makkah Region", "parent_iso": "SA-02"}, "geometry": {"type": "Polygon", "coordinates": [[[41.5132, 19.5191], [41.5183, 19.5185], [41.5253, 19.5264], [41.5461, 19.5294], [41.5517, 19.5572], [41.5451, 19.5866], [41.5646, 19.6128], [41.5747, 19.616], [41.5735, 19.6319], [41.5535, 19.6539], [41.5523, 19.6724], [41.5651, 19.6748], [41.5858, 19.6924], [41.6159, 19.7082], [41.6639, 19.7186], [41.6716, 19.725], [41.6554, 19.7501], [41.6576, 19.7751], [41.6456, 19.7868], [41.637, 19.7711], [41.6134, 19.7506], [41.6045, 19.731], [41.5723, 19.7263], [41.5525, 19.7176], [41.508, 19.7079], [41.4975, 19.7158], [41.4958, 19.7225], [41.502, 19.7357], [41.5129, 19.7375], [41.5201, 19.7314], [41.5283, 19.7411], [41.5186, 19.7516], [41.5178, 19.7663], [41.5109, 19.764], [41.5059, 19.7522], [41.4938, 19.7585], [41.4706, 19.7453], [41.4671, 19.7378], [41.4524, 19.7428], [41.4346, 19.7236], [41.3843, 19.6907], [41.3721, 19.666], [41.3579, 19.6053], [41.3446, 19.581], [41.3065, 19.5496], [41.2786, 19.5414], [41.2728, 19.5295], [41.2756, 19.5202], [41.2552, 19.4896], [41.2595, 19.4775], [41.2579, 19.4419], [41.3017, 19.4587], [41.3295, 19.4925], [41.3829, 19.488], [41.3942, 19.4954], [41.4075, 19.4961], [41.4363, 19.4896], [41.4617, 19.5113], [41.4711, 19.5109], [41.4695, 19.5294], [41.4893, 19.5171], [41.5048, 19.5294], [41.5132, 19.5191]]]}}, {"type": "Feature", "properties": {"osm_type": "relation", "osm_id": 181418453, "name": "Al Birk", "admin_level": "6", "kind": "subdivision_2", "parent_osm_id": 3678639, "parent_name": "Makkah Region", "parent_iso": "SA-02"}, "geometry": {"type": "MultiPolygon", "coordinates": [[[[41.7563, 18.3434], [41.7678, 18.3419], [41.7876, 18.3636], [41.7881, 18.3872], [41.8004, 18.4308], [41.8175, 18.4543], [41.8132, 18.4662], [41.7959, 18.4832], [41.7943, 18.4994], [41.785, 18.5063], [41.7801, 18.5255], [41.7561, 18.5364], [41.7576, 18.5472], [41.7442, 18.5694], [41.6972, 18.5719], [41.6937, 18.563], [41.6722, 18.5528], [41.6629, 18.5553], [41.6515, 18.6002], [41.6353, 18.6077], [41.6024, 18.6133], [41.5843, 18.6228], [41.575, 18.6219], [41.539, 18.6065], [41.4978, 18.559], [41.446, 18.544], [41.4185, 18.5145], [41.4182, 18.5024], [41.4243, 18.4972], [41.4143, 18.488], [41.4159, 18.4736], [41.4209, 18.4782], [41.4164, 18.4839], [41.4196, 18.4868], [41.4384, 18.4823], [41.4309, 18.4642], [41.4404, 18.457], [41.4351, 18.4566], [41.4421, 18.4463], [41.4409, 18.4275], [41.4463, 18.434], [41.4533, 18.4224], [41.4507, 18.4178], [41.4549, 18.4111], [41.4415, 18.4033], [41.4516, 18.3576], [41.459, 18.3366], [41.479, 18.3191], [41.477, 18.3125], [41.4816, 18.3127], [41.4726, 18.3076], [41.4728, 18.2942], [41.4809, 18.2882], [41.478, 18.2903], [41.4905, 18.2966], [41.4937, 18.2922], [41.489, 18.2886], [41.4974, 18.2872], [41.4976, 18.2818], [41.5084, 18.2845], [41.4998, 18.2689], [41.5063, 18.2681], [41.5087, 18.2706], [41.5036, 18.2726], [41.5095, 18.2709], [41.5126, 18.2796], [41.5154, 18.2739], [41.5148, 18.2662], [41.5095, 18.2664], [41.4994, 18.2511], [41.4905, 18.2465], [41.4913, 18.2331], [41.4995, 18.226], [41.5018, 18.2294], [41.4968, 18.2282], [41.5043, 18.2321], [41.5044, 18.2351], [41.4959, 18.2312], [41.5015, 18.2339], [41.5033, 18.2536], [41.5127, 18.2479], [41.5114, 18.2531], [41.5155, 18.2538], [41.5172, 18.2419], [41.5276, 18.2384], [41.5279, 18.2281], [41.5346, 18.2236], [41.5306, 18.2127], [41.5244, 18.2115], [41.5245, 18.2018], [41.5329, 18.2076], [41.5427, 18.1963], [41.5465, 18.1993], [41.5518, 18.1931], [41.5538, 18.182], [41.5632, 18.1734], [41.5496, 18.1738], [41.5463, 18.1695], [41.5716, 18.165], [41.5687, 18.1573], [41.5759, 18.1524], [41.5779, 18.1407], [41.5828, 18.1399], [41.5764, 18.1392], [41.5754, 18.1323], [41.5797, 18.1343], [41.5811, 18.1301], [41.5817, 18.1018], [41.5875, 18.0951], [41.5845, 18.0943], [41.5882, 18.0896], [41.5934, 18.0916], [41.5906, 18.0883], [41.5962, 18.0828], [41.6069, 18.0809], [41.6013, 18.0797], [41.6022, 18.0615], [41.6139, 18.0637], [41.6251, 18.0578], [41.6388, 18.0639], [41.6513, 18.0779], [41.6583, 18.0978], [41.6462, 18.1186], [41.6468, 18.1327], [41.6561, 18.1461], [41.6616, 18.1444], [41.6813, 18.1541], [41.6755, 18.1816], [41.6828, 18.1931], [41.6763, 18.1933], [41.6799, 18.1993], [41.69, 18.2009], [41.6949, 18.2094], [41.69, 18.2179], [41.6949, 18.228], [41.6898, 18.2324], [41.6934, 18.2447], [41.6876, 18.2613], [41.688, 18.2701], [41.6973, 18.2746], [41.6957, 18.2901], [41.7088, 18.2996], [41.7092, 18.3097], [41.7251, 18.3181], [41.734, 18.344], [41.7453, 18.3482], [41.7563, 18.3434]]], [[[41.5425, 18.1466], [41.5408, 18.156], [41.5331, 18.1542], [41.5384, 18.1342], [41.5425, 18.1466]]], [[[40.7324, 18.2503], [40.7348, 18.2511], [40.734, 18.2524], [40.7308, 18.2519], [40.7307, 18.2507], [40.7324, 18.2503]]], [[[40.7324, 18.2721], [40.7359, 18.2761], [40.7324, 18.2721]]], [[[40.7552, 18.2629], [40.7565, 18.2648], [40.7536, 18.2644], [40.7552, 18.2629]]], [[[40.8867, 18.2354], [40.8835, 18.2374], [40.8867, 18.2354]]], [[[40.786, 18.0619], [40.7855, 18.0632], [40.7833, 18.0627], [40.786, 18.0619]]], [[[41.276, 18.3807], [41.2707, 18.3848], [41.276, 18.3807]]], [[[41.3238, 18.2256], [41.3328, 18.2322], [41.325, 18.2302], [41.3238, 18.2256]]], [[[41.5746, 18.1139], [41.5739, 18.1217], [41.5679, 18.1211], [41.5746, 18.1139]]], [[[41.4872, 18.2755], [41.4822, 18.2854], [41.4872, 18.2755]]], [[[41.4298, 18.4665], [41.429, 18.4688], [41.428, 18.4683], [41.4279, 18.467], [41.4298, 18.4665]]], [[[41.4329, 18.476], [41.4286, 18.4778], [41.4329, 18.476]]], [[[41.4318, 18.4707], [41.4316, 18.475], [41.4318, 18.4707]]], [[[41.4319, 18.4581], [41.4268, 18.466], [41.4319, 18.4581]]], [[[41.4277, 18.4688], [41.4278, 18.4784], [41.4222, 18.4791], [41.4277, 18.4688]]]]}}, {"type": "Feature", "properties": {"osm_type": "relation", "osm_id": 165222914, "name": "Al Taif", "admin_level": "6", "kind": "subdivision_2", "parent_osm_id": 3678639, "parent_name": "Makkah Region", "parent_iso": "SA-02"}, "geometry": {"type": "Polygon", "coordinates": [[[41.6958, 23.6815], [41.6698, 23.6883], [41.6507, 23.683], [41.6309, 23.6952], [41.6018, 23.6891], [41.5453, 23.6624], [41.527, 23.6601], [41.5161, 23.6733], [41.4782, 23.6586], [41.4324, 23.6372], [41.4148, 23.6051], [41.3888, 23.5906], [41.3789, 23.5555], [41.3644, 23.5333], [41.3614, 23.5143], [41.3644, 23.473], [41.3594, 23.4565], [41.347, 23.4405], [41.3453, 23.428], [41.3493, 23.4166], [41.3645, 23.4078], [41.3693, 23.3935], [41.3572, 23.3697], [41.3507, 23.338], [41.357, 23.2732], [41.345, 23.2609], [41.367, 23.2594], [41.393, 23.2701], [41.3698, 23.2357], [41.3692, 23.1844], [41.3751, 23.1786], [41.3903, 23.1769], [41.4071, 23.1605], [41.4263, 23.1498], [41.4366, 23.1328], [41.4613, 23.1087], [41.4474, 23.1078], [41.4365, 23.0923], [41.4255, 23.0897], [41.4143, 23.0775], [41.3878, 23.0797], [41.3743, 23.0684], [41.3508, 23.0652], [41.3335, 23.0758], [41.3129, 23.0735], [41.291, 23.0594], [41.2709, 23.0267], [41.2562, 23.0299], [41.2441, 23.0189], [41.2143, 23.0297], [41.2016, 23.0279], [41.1779, 23.0442], [41.142, 23.0325], [41.0878, 22.9725], [41.0958, 22.942], [41.0797, 22.9202], [41.0697, 22.8821], [41.0433, 22.8647], [41.0195, 22.8636], [40.9568, 22.8863], [40.9189, 22.8885], [40.8324, 22.8658], [40.8064, 22.7976], [40.8021, 22.7219], [40.7848, 22.6895], [40.7754, 22.6422], [40.757, 22.6219], [40.7375, 22.6087], [40.6521, 22.5821], [40.6053, 22.5784], [40.5861, 22.5909], [40.5871, 22.6111], [40.5715, 22.6297], [40.5182, 22.647], [40.4971, 22.6389], [40.4307, 22.5973], [40.4107, 22.58], [40.3834, 22.5715], [40.3589, 22.5707], [40.3336, 22.5201], [40.319, 22.5285], [40.3031, 22.5241], [40.2668, 22.5342], [40.2403, 22.5315], [40.244, 22.5152], [40.2693, 22.4769], [40.2888, 22.4334], [40.2802, 22.4066], [40.2677, 22.3986], [40.2628, 22.3896], [40.267, 22.3666], [40.2602, 22.3288], [40.264, 22.3237], [40.2897, 22.321], [40.2848, 22.2967], [40.2901, 22.2904], [40.292, 22.2744], [40.3358, 22.2732], [40.3473, 22.2812], [40.3961, 22.2755], [40.4167, 22.2832], [40.4249, 22.2929], [40.4559, 22.2779], [40.4722, 22.264], [40.4658, 22.2365], [40.4588, 22.2315], [40.4544, 22.2181], [40.4696, 22.1888], [40.4602, 22.1885], [40.4511, 22.1756], [40.4011, 22.1756], [40.39, 22.1698], [40.3982, 22.1534], [40.3967, 22.1314], [40.4046, 22.118], [40.3988, 22.0969], [40.4318, 22.0878], [40.435, 22.0717], [40.4233, 22.0533], [40.4242, 22.0468], [40.4515, 22.0304], [40.4684, 22.0263], [40.4766, 22.0152], [40.5465, 21.9764], [40.5456, 21.9711], [40.5301, 21.966], [40.5162, 21.9124], [40.5456, 21.8645], [40.5582, 21.8686], [40.579, 21.8607], [40.5868, 21.827], [40.6206, 21.7829], [40.5793, 21.7942], [40.5626, 21.8034], [40.5459, 21.804], [40.537, 21.8075], [40.5301, 21.8176], [40.4998, 21.8257], [40.4881, 21.8036], [40.4681, 21.8009], [40.4756, 21.7808], [40.4668, 21.7619], [40.4566, 21.7593], [40.4483, 21.7664], [40.4398, 21.7598], [40.4295, 21.7591], [40.4171, 21.7641], [40.4025, 21.7546], [40.403, 21.7221], [40.3888, 21.699], [40.394, 21.664], [40.3833, 21.65], [40.389, 21.6312], [40.3815, 21.6254], [40.3595, 21.6267], [40.3518, 21.622], [40.344, 21.5792], [40.3499, 21.5534], [40.3688, 21.5232], [40.3683, 21.5156], [40.3402, 21.5089], [40.341, 21.5247], [40.3331, 21.5399], [40.3267, 21.5393], [40.3269, 21.5198], [40.3204, 21.5089], [40.3055, 21.5108], [40.2891, 21.5257], [40.2443, 21.5319], [40.2168, 21.5228], [40.1898, 21.4834], [40.1991, 21.4728], [40.2293, 21.4558], [40.2209, 21.4373], [40.2301, 21.407], [40.2233, 21.3875], [40.2304, 21.3783], [40.2621, 21.3658], [40.2579, 21.3562], [40.2509, 21.3525], [40.2429, 21.3319], [40.2697, 21.2982], [40.2644, 21.2919], [40.2377, 21.2849], [40.2353, 21.2739], [40.2249, 21.2627], [40.2259, 21.2421], [40.2398, 21.2179], [40.2421, 21.197], [40.2199, 21.1758], [40.1906, 21.1812], [40.1923, 21.168], [40.2111, 21.1388], [40.2104, 21.1253], [40.1979, 21.1068], [40.1986, 21.1007], [40.2193, 21.0962], [40.2446, 21.1062], [40.2428, 21.075], [40.2532, 21.0481], [40.2497, 21.0412], [40.2321, 21.0374], [40.2187, 20.9974], [40.193, 20.9737], [40.1946, 20.9554], [40.1867, 20.9472], [40.187, 20.9399], [40.2049, 20.9422], [40.2067, 20.9277], [40.2157, 20.9267], [40.2334, 20.9366], [40.2414, 20.9474], [40.2668, 20.9542], [40.2995, 20.9326], [40.3092, 20.9549], [40.2916, 20.9885], [40.3042, 20.9861], [40.3168, 20.9958], [40.3278, 20.9978], [40.3429, 20.9886], [40.3414, 20.9843], [40.3459, 20.9821], [40.339, 20.9773], [40.3528, 20.9729], [40.333, 20.972], [40.3336, 20.9642], [40.3249, 20.9613], [40.3209, 20.9533], [40.3417, 20.947], [40.3379, 20.9298], [40.3447, 20.9199], [40.3414, 20.8878], [40.356, 20.8886], [40.3687, 20.8959], [40.3763, 20.9147], [40.3883, 20.9281], [40.3882, 20.9394], [40.4243, 20.9312], [40.4638, 20.9403], [40.4906, 20.9292], [40.4887, 20.9339], [40.4961, 20.9435], [40.4883, 20.972], [40.4906, 20.9995], [40.5007, 21.0151], [40.5268, 21.0129], [40.5384, 21.0182], [40.5383, 21.0289], [40.5524, 21.0388], [40.5511, 21.0456], [40.5661, 21.0497], [40.5723, 21.0703], [40.5779, 21.0694], [40.5914, 21.0474], [40.608, 21.0518], [40.6228, 21.0662], [40.6471, 21.0612], [40.6525, 21.0969], [40.6652, 21.1124], [40.6745, 21.1138], [40.6719, 21.1232], [40.6774, 21.1338], [40.6881, 21.1333], [40.6971, 21.1542], [40.7077, 21.1582], [40.7349, 21.1249], [40.7506, 21.1228], [40.781, 21.1281], [40.8249, 21.1171], [40.8281, 21.111], [40.8149, 21.066], [40.8231, 21.0575], [40.8377, 21.0539], [40.8509, 21.0396], [40.8565, 21.0397], [40.8606, 21.0307], [40.8923, 21.0193], [40.8918, 20.9878], [40.886, 20.9805], [40.8853, 20.9692], [40.8963, 20.9418], [40.9158, 20.9211], [40.9154, 20.9031], [40.9217, 20.9033], [40.9309, 20.8862], [40.9376, 20.8853], [40.9629, 20.9107], [40.9736, 20.9105], [40.9795, 20.9086], [40.9963, 20.8808], [41.0073, 20.8741], [41.045, 20.9268], [41.0646, 20.9328], [41.1369, 20.9339], [41.1557, 20.9563], [41.1578, 20.9732], [41.1513, 20.9897], [41.1552, 21.0111], [41.1507, 21.0341], [41.1753, 21.0785], [41.1695, 21.0983], [41.1732, 21.1391], [41.1603, 21.203], [41.164, 21.2284], [41.1724, 21.2383], [41.165, 21.2635], [41.1863, 21.3021], [41.192, 21.3243], [41.204, 21.3381], [41.2498, 21.3562], [41.2417, 21.3938], [41.2478, 21.4344], [41.2553, 21.4458], [41.2533, 21.4828], [41.2373, 21.5058], [41.2168, 21.5533], [41.2071, 21.5608], [41.1968, 21.5794], [41.1877, 21.6095], [41.1549, 21.6179], [41.1487, 21.6412], [41.1514, 21.6531], [41.162, 21.6541], [41.1671, 21.6492], [41.1745, 21.6548], [41.162, 21.683], [41.1651, 21.691], [41.2079, 21.6763], [41.2275, 21.7176], [41.233, 21.721], [41.2318, 21.7273], [41.2148, 21.738], [41.1927, 21.764], [41.2156, 21.7753], [41.3012, 21.7816], [41.3116, 21.7925], [41.32, 21.7865], [41.3382, 21.7865], [41.3551, 21.7758], [41.3613, 21.7536], [41.3874, 21.7176], [41.3916, 21.7053], [41.4135, 21.7311], [41.4371, 21.7388], [41.4509, 21.7538], [41.4954, 21.7669], [41.5046, 21.7741], [41.5098, 21.784], [41.51, 21.8094], [41.538, 21.8403], [41.5442, 21.8602], [41.5725, 21.856], [41.5788, 21.8466], [41.5969, 21.8445], [41.6131, 21.8321], [41.6566, 21.8297], [41.6832, 21.8333], [41.7006, 21.8261], [41.7239, 21.8394], [41.7778, 21.853], [41.8497, 21.8533], [41.8853, 21.8667], [41.8934, 21.8756], [41.9055, 21.9364], [41.9163, 21.9482], [41.9182, 21.9568], [41.9086, 21.9714], [41.877, 21.9884], [41.8748, 21.9971], [41.8832, 22.0005], [41.9383, 21.9987], [41.9768, 21.9906], [41.9891, 21.9977], [41.9975, 21.9897], [42.0131, 21.9919], [42.0185, 22.0252], [42.057, 22.0624], [42.1809, 22.1544], [42.264, 22.206], [42.3673, 22.2184], [42.3921, 22.2091], [42.4303, 22.206], [42.4789, 22.2153], [42.5265, 22.1921], [42.5451, 22.1677], [42.6885, 22.2191], [42.7559, 22.2564], [42.7603, 22.279], [42.7535, 22.3164], [42.7552, 22.4117], [42.7645, 22.4343], [42.7648, 22.4864], [42.7798, 22.4964], [42.7854, 22.5068], [42.7809, 22.5276], [42.7823, 22.5624], [42.8058, 22.6003], [42.8173, 22.658], [42.8266, 22.6817], [42.8789, 22.7409], [42.8723, 22.7617], [42.843, 22.8109], [42.8408, 22.8233], [42.8723, 22.8865], [42.8634, 22.8996], [42.8191, 22.9115], [42.79, 22.8854], [42.7743, 22.8838], [42.7515, 22.892], [42.7422, 22.9144], [42.7484, 22.943], [42.7226, 22.9616], [42.7282, 22.9652], [42.7348, 23.0021], [42.731, 23.0424], [42.7223, 23.0644], [42.7067, 23.0789], [42.6894, 23.0851], [42.5959, 23.0899], [42.4925, 23.1069], [42.4667, 23.1189], [42.4575, 23.141], [42.4447, 23.2141], [42.429, 23.237], [42.4104, 23.2828], [42.4169, 23.3416], [42.3997, 23.3799], [42.4034, 23.4127], [42.3995, 23.4363], [42.3865, 23.4435], [42.3561, 23.44], [42.3354, 23.443], [42.3229, 23.4537], [42.3256, 23.4673], [42.3049, 23.4677], [42.2745, 23.4908], [42.2373, 23.6116], [42.2003, 23.6044], [42.1792, 23.5947], [42.1462, 23.6011], [42.1174, 23.5941], [42.0761, 23.5964], [41.9921, 23.5892], [41.7412, 23.6549], [41.7325, 23.6643], [41.7331, 23.6768], [41.7389, 23.6845], [41.7095, 23.6876], [41.6958, 23.6815]]]}}]}