{"type": "FeatureCollection", "parent": {"osm_id": 3717154, "name": "Ekiti State", "admin_level": "4", "kind": "subdivision_1", "child_kind": "subdivision_2", "iso": "NG-EK"}, "features": [{"type": "Feature", "properties": {"osm_type": "relation", "osm_id": 536211227, "name": "Oye", "admin_level": "6", "kind": "subdivision_2", "parent_osm_id": 3717154, "parent_name": "Ekiti State", "parent_iso": "NG-EK"}, "geometry": {"type": "Polygon", "coordinates": [[[5.4013, 7.7205], [5.4025, 7.7621], [5.4199, 7.7826], [5.4171, 7.8157], [5.3982, 7.8382], [5.4081, 7.8564], [5.4455, 7.8737], [5.4445, 7.8825], [5.4209, 7.9152], [5.4273, 7.9383], [5.4102, 7.9869], [5.4169, 8.0018], [5.4191, 8.0273], [5.4119, 8.0417], [5.3658, 8.0919], [5.3587, 8.0739], [5.3606, 8.0385], [5.3324, 8.0096], [5.2829, 8.0085], [5.2482, 8.0198], [5.2502, 8.0024], [5.2652, 7.9837], [5.2717, 7.9515], [5.2626, 7.9397], [5.2664, 7.8832], [5.25, 7.8824], [5.2414, 7.8439], [5.2474, 7.8348], [5.2487, 7.8151], [5.2534, 7.8142], [5.2633, 7.7687], [5.2969, 7.7535], [5.3216, 7.7277], [5.3358, 7.7204], [5.3578, 7.7155], [5.3683, 7.7201], [5.3876, 7.7172], [5.4013, 7.7205]]]}}, {"type": "Feature", "properties": {"osm_type": "relation", "osm_id": 452628315, "name": "Ikole", "admin_level": "6", "kind": "subdivision_2", "parent_osm_id": 3717154, "parent_name": "Ekiti State", "parent_iso": "NG-EK"}, "geometry": {"type": "Polygon", "coordinates": [[[5.6436, 8.074], [5.5766, 8.0712], [5.5087, 8.0176], [5.5038, 8.0236], [5.5139, 8.1112], [5.3873, 8.1021], [5.3658, 8.0919], [5.4119, 8.0417], [5.4191, 8.0273], [5.4169, 8.0018], [5.4102, 7.9869], [5.4273, 7.9383], [5.4209, 7.9152], [5.4445, 7.8825], [5.4455, 7.8737], [5.4081, 7.8564], [5.3982, 7.8382], [5.4171, 7.8157], [5.4199, 7.7826], [5.4025, 7.7621], [5.4013, 7.7205], [5.4362, 7.7298], [5.4398, 7.7262], [5.4383, 7.7008], [5.4318, 7.6937], [5.4437, 7.6723], [5.4806, 7.6627], [5.4894, 7.6503], [5.5008, 7.6544], [5.5167, 7.65], [5.5569, 7.6808], [5.5666, 7.7211], [5.5822, 7.7198], [5.5996, 7.7445], [5.6142, 7.7464], [5.6244, 7.7741], [5.6582, 7.8279], [5.6427, 7.8287], [5.6232, 7.843], [5.6142, 7.8656], [5.5988, 7.9519], [5.6016, 7.9637], [5.6096, 7.9661], [5.627, 7.9571], [5.6455, 7.963], [5.6476, 7.9862], [5.6681, 8.0023], [5.6625, 8.0152], [5.6507, 8.0236], [5.6399, 8.0538], [5.6597, 8.0698], [5.6563, 8.0747], [5.6436, 8.074]]]}}, {"type": "Feature", "properties": {"osm_type": "relation", "osm_id": 275709414, "name": "Moba", "admin_level": "6", "kind": "subdivision_2", "parent_osm_id": 3717154, "parent_name": "Ekiti State", "parent_iso": "NG-EK"}, "geometry": {"type": "Polygon", "coordinates": [[[5.0203, 7.9609], [5.0456, 7.9433], [5.0747, 7.9529], [5.0948, 7.9371], [5.1212, 7.9391], [5.1396, 7.9285], [5.1555, 7.9423], [5.1612, 7.9394], [5.1722, 7.947], [5.1742, 7.9544], [5.1896, 7.9611], [5.1973, 7.9731], [5.2289, 7.9716], [5.2397, 7.9787], [5.2502, 8.0024], [5.2482, 8.0198], [5.1958, 8.0182], [5.1819, 8.0363], [5.1423, 8.0619], [5.1179, 8.0626], [5.0844, 8.0242], [5.0757, 8.025], [5.0576, 8.0395], [5.0531, 8.0235], [5.0355, 8.0052], [5.0332, 7.9823], [5.0203, 7.9609]]]}}, {"type": "Feature", "properties": {"osm_type": "relation", "osm_id": 948433104, "name": "Ado-Ekiti", "admin_level": "6", "kind": "subdivision_2", "parent_osm_id": 3717154, "parent_name": "Ekiti State", "parent_iso": "NG-EK"}, "geometry": {"type": "Polygon", "coordinates": [[[5.1719, 7.5402], [5.1883, 7.56], [5.2001, 7.5606], [5.2071, 7.5669], [5.2109, 7.567], [5.2213, 7.5421], [5.2377, 7.5541], [5.2501, 7.5884], [5.299, 7.5858], [5.3197, 7.5765], [5.3323, 7.5592], [5.3522, 7.547], [5.3659, 7.5485], [5.3645, 7.5745], [5.3692, 7.5755], [5.3527, 7.6213], [5.3515, 7.6517], [5.3471, 7.6582], [5.3672, 7.6788], [5.3162, 7.67], [5.285, 7.6731], [5.2831, 7.668], [5.2783, 7.6685], [5.2702, 7.6812], [5.2544, 7.6667], [5.2425, 7.6732], [5.2471, 7.6822], [5.235, 7.7009], [5.2247, 7.6985], [5.2236, 7.6744], [5.2125, 7.6736], [5.207, 7.6594], [5.1881, 7.6551], [5.1734, 7.6401], [5.1133, 7.6367], [5.1193, 7.6063], [5.1349, 7.5864], [5.1603, 7.5719], [5.1719, 7.5402]]]}}, {"type": "Feature", "properties": {"osm_type": "relation", "osm_id": 368627082, "name": "Ido-Osi", "admin_level": "6", "kind": "subdivision_2", "parent_osm_id": 3717154, "parent_name": "Ekiti State", "parent_iso": "NG-EK"}, "geometry": {"type": "Polygon", "coordinates": [[[5.25, 7.8824], [5.2412, 7.8777], [5.2222, 7.8834], [5.224, 7.8975], [5.2184, 7.9064], [5.1775, 7.8982], [5.1612, 7.9394], [5.1555, 7.9423], [5.1396, 7.9285], [5.1212, 7.9391], [5.1002, 7.9376], [5.1103, 7.9087], [5.1183, 7.9057], [5.1152, 7.9016], [5.1237, 7.8992], [5.1138, 7.8935], [5.1087, 7.8939], [5.1009, 7.9117], [5.0848, 7.9255], [5.0694, 7.9099], [5.0906, 7.8892], [5.137, 7.8824], [5.1291, 7.8617], [5.1029, 7.8623], [5.0976, 7.8483], [5.1144, 7.8242], [5.1401, 7.822], [5.135, 7.8068], [5.1395, 7.7846], [5.1487, 7.7707], [5.1734, 7.7699], [5.1785, 7.7642], [5.2262, 7.7723], [5.2405, 7.7816], [5.2429, 7.7886], [5.2584, 7.7924], [5.2414, 7.8439], [5.25, 7.8824]]]}}, {"type": "Feature", "properties": {"osm_type": "relation", "osm_id": 713285027, "name": "Ekiti South-West", "admin_level": "6", "kind": "subdivision_2", "parent_osm_id": 3717154, "parent_name": "Ekiti State", "parent_iso": "NG-EK"}, "geometry": {"type": "Polygon", "coordinates": [[[5.0862, 7.4563], [5.1105, 7.4985], [5.1188, 7.5003], [5.1374, 7.5203], [5.1719, 7.5402], [5.1603, 7.5719], [5.1349, 7.5864], [5.1193, 7.6063], [5.1133, 7.6367], [5.1019, 7.636], [5.0828, 7.6158], [5.0736, 7.5601], [5.0755, 7.5405], [5.0577, 7.5356], [5.0349, 7.5366], [4.9749, 7.5609], [4.9676, 7.5422], [4.9476, 7.5481], [4.9194, 7.5215], [4.9524, 7.4478], [4.997, 7.415], [5.0046, 7.4139], [5.0089, 7.4256], [5.0486, 7.4573], [5.0708, 7.4602], [5.0862, 7.4563]]]}}, {"type": "Feature", "properties": {"osm_type": "relation", "osm_id": 931049703, "name": "Ilejemeje", "admin_level": "6", "kind": "subdivision_2", "parent_osm_id": 3717154, "parent_name": "Ekiti State", "parent_iso": "NG-EK"}, "geometry": {"type": "Polygon", "coordinates": [[[5.2502, 8.0024], [5.2397, 7.9787], [5.2289, 7.9716], [5.1973, 7.9731], [5.1896, 7.9611], [5.1817, 7.9608], [5.1612, 7.9394], [5.1775, 7.8982], [5.2184, 7.9064], [5.224, 7.8975], [5.2222, 7.8834], [5.2283, 7.88], [5.2412, 7.8777], [5.2664, 7.8832], [5.2626, 7.9397], [5.2717, 7.9515], [5.2652, 7.9837], [5.2502, 8.0024]]]}}, {"type": "Feature", "properties": {"osm_type": "relation", "osm_id": 883540873, "name": "Gbonyin", "admin_level": "6", "kind": "subdivision_2", "parent_osm_id": 3717154, "parent_name": "Ekiti State", "parent_iso": "NG-EK"}, "geometry": {"type": "Polygon", "coordinates": [[[5.4318, 7.6937], [5.4216, 7.6878], [5.4155, 7.6619], [5.395, 7.6532], [5.3797, 7.6717], [5.3672, 7.6788], [5.3471, 7.6582], [5.3515, 7.6517], [5.3527, 7.6213], [5.3692, 7.5755], [5.3645, 7.5745], [5.3659, 7.5485], [5.3975, 7.5485], [5.4084, 7.541], [5.4301, 7.5361], [5.4326, 7.5495], [5.4512, 7.5496], [5.4661, 7.5404], [5.4898, 7.5528], [5.4985, 7.5319], [5.5186, 7.5347], [5.5405, 7.5152], [5.5807, 7.5066], [5.5891, 7.4831], [5.6055, 7.4732], [5.6103, 7.4845], [5.6182, 7.5639], [5.6386, 7.605], [5.624, 7.6315], [5.6169, 7.6588], [5.6013, 7.674], [5.6025, 7.6938], [5.5617, 7.7016], [5.5569, 7.6808], [5.5167, 7.65], [5.5008, 7.6544], [5.4894, 7.6503], [5.4806, 7.6627], [5.4437, 7.6723], [5.4318, 7.6937]]]}}, {"type": "Feature", "properties": {"osm_type": "relation", "osm_id": 420656063, "name": "Irepodun/Ifelodun", "admin_level": "6", "kind": "subdivision_2", "parent_osm_id": 3717154, "parent_name": "Ekiti State", "parent_iso": "NG-EK"}, "geometry": {"type": "Polygon", "coordinates": [[[5.2584, 7.7924], [5.2429, 7.7886], [5.2405, 7.7816], [5.2262, 7.7723], [5.1954, 7.7642], [5.1487, 7.7707], [5.1028, 7.7369], [5.1155, 7.6983], [5.0978, 7.6509], [5.1019, 7.636], [5.1734, 7.6401], [5.1881, 7.6551], [5.207, 7.6594], [5.2125, 7.6736], [5.2236, 7.6744], [5.2247, 7.6985], [5.235, 7.7009], [5.2471, 7.6822], [5.2425, 7.6732], [5.2544, 7.6667], [5.2702, 7.6812], [5.2783, 7.6685], [5.2831, 7.668], [5.285, 7.6731], [5.3162, 7.67], [5.3672, 7.6788], [5.3797, 7.6717], [5.395, 7.6532], [5.4155, 7.6619], [5.4216, 7.6878], [5.4383, 7.7008], [5.4398, 7.7262], [5.4362, 7.7298], [5.3876, 7.7172], [5.3683, 7.7201], [5.3578, 7.7155], [5.3358, 7.7204], [5.3216, 7.7277], [5.2969, 7.7535], [5.2633, 7.7687], [5.2584, 7.7924]]]}}, {"type": "Feature", "properties": {"osm_type": "relation", "osm_id": 669156171, "name": "Ekiti East", "admin_level": "6", "kind": "subdivision_2", "parent_osm_id": 3717154, "parent_name": "Ekiti State", "parent_iso": "NG-EK"}, "geometry": {"type": "Polygon", "coordinates": [[[5.6582, 7.8279], [5.6244, 7.7741], [5.6142, 7.7464], [5.5996, 7.7445], [5.5822, 7.7198], [5.5666, 7.7211], [5.5617, 7.7016], [5.6025, 7.6938], [5.6013, 7.674], [5.6169, 7.6588], [5.624, 7.6315], [5.6386, 7.605], [5.6551, 7.6287], [5.681, 7.6237], [5.6886, 7.6324], [5.6994, 7.6829], [5.7165, 7.701], [5.7676, 7.7372], [5.7916, 7.7821], [5.768, 7.7876], [5.7558, 7.7956], [5.729, 7.8283], [5.6582, 7.8279]]]}}, {"type": "Feature", "properties": {"osm_type": "relation", "osm_id": 611416129, "name": "Ise/Orun", "admin_level": "6", "kind": "subdivision_2", "parent_osm_id": 3717154, "parent_name": "Ekiti State", "parent_iso": "NG-EK"}, "geometry": {"type": "Polygon", "coordinates": [[[5.3882, 7.2832], [5.4046, 7.2903], [5.4675, 7.3018], [5.4419, 7.353], [5.4414, 7.3669], [5.4322, 7.3842], [5.4385, 7.4397], [5.4508, 7.4448], [5.459, 7.4373], [5.4599, 7.4632], [5.4722, 7.4671], [5.4851, 7.4789], [5.4985, 7.4702], [5.5405, 7.5152], [5.5186, 7.5347], [5.4985, 7.5319], [5.4898, 7.5528], [5.4661, 7.5404], [5.4512, 7.5496], [5.4326, 7.5495], [5.4301, 7.5361], [5.4084, 7.541], [5.3975, 7.5485], [5.3522, 7.547], [5.3323, 7.5592], [5.3279, 7.567], [5.3153, 7.5468], [5.3158, 7.5339], [5.3073, 7.5248], [5.3042, 7.4845], [5.3089, 7.48], [5.3075, 7.4631], [5.3155, 7.4635], [5.3246, 7.4503], [5.3222, 7.4364], [5.3485, 7.374], [5.3582, 7.2956], [5.3882, 7.2832]]]}}, {"type": "Feature", "properties": {"osm_type": "relation", "osm_id": 899180127, "name": "Emure", "admin_level": "6", "kind": "subdivision_2", "parent_osm_id": 3717154, "parent_name": "Ekiti State", "parent_iso": "NG-EK"}, "geometry": {"type": "Polygon", "coordinates": [[[5.5405, 7.5152], [5.4985, 7.4702], [5.4851, 7.4789], [5.4722, 7.4671], [5.4599, 7.4632], [5.459, 7.4373], [5.4508, 7.4448], [5.4385, 7.4397], [5.4322, 7.3842], [5.4414, 7.3669], [5.4419, 7.353], [5.4675, 7.3018], [5.5044, 7.3162], [5.5212, 7.3325], [5.5994, 7.4502], [5.6055, 7.4732], [5.5891, 7.4831], [5.5807, 7.5066], [5.5405, 7.5152]]]}}, {"type": "Feature", "properties": {"osm_type": "relation", "osm_id": 549595868, "name": "Ikere", "admin_level": "6", "kind": "subdivision_2", "parent_osm_id": 3717154, "parent_name": "Ekiti State", "parent_iso": "NG-EK"}, "geometry": {"type": "Polygon", "coordinates": [[[5.3222, 7.4364], [5.3246, 7.4503], [5.3155, 7.4635], [5.3075, 7.4631], [5.3089, 7.48], [5.3042, 7.4845], [5.3073, 7.5248], [5.3158, 7.5339], [5.3153, 7.5468], [5.3279, 7.567], [5.3197, 7.5765], [5.299, 7.5858], [5.2501, 7.5884], [5.2377, 7.5541], [5.2194, 7.5415], [5.2109, 7.567], [5.1883, 7.56], [5.1805, 7.5463], [5.1374, 7.5203], [5.1188, 7.5003], [5.1105, 7.4985], [5.0862, 7.4563], [5.1265, 7.4458], [5.2174, 7.4343], [5.2944, 7.4365], [5.3148, 7.4431], [5.3222, 7.4364]]]}}, {"type": "Feature", "properties": {"osm_type": "relation", "osm_id": 265513162, "name": "Ijero", "admin_level": "6", "kind": "subdivision_2", "parent_osm_id": 3717154, "parent_name": "Ekiti State", "parent_iso": "NG-EK"}, "geometry": {"type": "Polygon", "coordinates": [[[4.947, 7.9022], [4.9585, 7.8725], [4.9423, 7.8596], [4.9826, 7.8315], [4.9898, 7.8075], [4.9835, 7.8037], [4.9767, 7.8074], [4.968, 7.8052], [4.9677, 7.7986], [4.9953, 7.7652], [4.9925, 7.7605], [5.0047, 7.7449], [5.0293, 7.7292], [5.0469, 7.747], [5.0472, 7.7537], [5.062, 7.7506], [5.0791, 7.7398], [5.1028, 7.7369], [5.1487, 7.7707], [5.1395, 7.7846], [5.135, 7.8068], [5.1401, 7.822], [5.1144, 7.8242], [5.0976, 7.8483], [5.1029, 7.8623], [5.1291, 7.8617], [5.137, 7.8824], [5.0906, 7.8892], [5.0694, 7.9099], [5.0848, 7.9255], [5.1009, 7.9117], [5.1087, 7.8939], [5.1237, 7.8992], [5.1152, 7.9016], [5.1183, 7.9057], [5.1103, 7.9087], [5.1002, 7.9376], [5.0948, 7.9371], [5.0747, 7.9529], [5.0456, 7.9433], [5.0203, 7.9609], [4.9905, 7.9312], [4.947, 7.9022]]]}}, {"type": "Feature", "properties": {"osm_type": "relation", "osm_id": 889361008, "name": "Efon", "admin_level": "6", "kind": "subdivision_2", "parent_osm_id": 3717154, "parent_name": "Ekiti State", "parent_iso": "NG-EK"}, "geometry": {"type": "Polygon", "coordinates": [[[4.8872, 7.6896], [4.8639, 7.6227], [4.8876, 7.6046], [4.9126, 7.5466], [4.9165, 7.5658], [4.9277, 7.5681], [4.9269, 7.5906], [4.9378, 7.6175], [4.9641, 7.6031], [4.9852, 7.6095], [4.9978, 7.6347], [5.0097, 7.6413], [5.0166, 7.6663], [4.9855, 7.6884], [4.9741, 7.7074], [4.9773, 7.753], [4.9401, 7.8056], [4.9323, 7.8105], [4.9158, 7.8027], [4.9094, 7.7664], [4.8932, 7.7303], [4.8872, 7.6896]]]}}, {"type": "Feature", "properties": {"osm_type": "relation", "osm_id": 954063523, "name": "Ekiti West", "admin_level": "6", "kind": "subdivision_2", "parent_osm_id": 3717154, "parent_name": "Ekiti State", "parent_iso": "NG-EK"}, "geometry": {"type": "Polygon", "coordinates": [[[4.9463, 7.9018], [4.9273, 7.8804], [4.9238, 7.8635], [4.9111, 7.8501], [4.9086, 7.8298], [4.9158, 7.8221], [4.9158, 7.8027], [4.9323, 7.8105], [4.9401, 7.8056], [4.9724, 7.7632], [4.9782, 7.739], [4.9741, 7.7074], [4.9855, 7.6884], [5.0166, 7.6663], [5.0097, 7.6413], [4.9978, 7.6347], [4.9852, 7.6095], [4.9641, 7.6031], [4.9378, 7.6175], [4.9269, 7.5906], [4.9277, 7.5681], [4.9165, 7.5658], [4.9126, 7.5466], [4.9194, 7.5215], [4.9476, 7.5481], [4.9676, 7.5422], [4.9749, 7.5609], [5.0349, 7.5366], [5.0577, 7.5356], [5.0755, 7.5405], [5.0736, 7.5601], [5.0828, 7.6158], [5.1019, 7.636], [5.0978, 7.6509], [5.1155, 7.6983], [5.1149, 7.7094], [5.1028, 7.7369], [5.0791, 7.7398], [5.062, 7.7506], [5.0472, 7.7537], [5.0469, 7.747], [5.0293, 7.7292], [5.0047, 7.7449], [4.9925, 7.7605], [4.9953, 7.7652], [4.9677, 7.7986], [4.968, 7.8052], [4.9767, 7.8074], [4.9835, 7.8037], [4.9898, 7.8075], [4.9826, 7.8315], [4.9423, 7.8596], [4.9585, 7.8725], [4.9562, 7.8866], [4.9463, 7.9018]]]}}]}