{"type": "FeatureCollection", "parent": {"osm_id": 3718090, "name": "Kwara State", "admin_level": "4", "kind": "subdivision_1", "child_kind": "subdivision_2", "iso": "NG-KW"}, "features": [{"type": "Feature", "properties": {"osm_type": "relation", "osm_id": 677808540, "name": "Oyun", "admin_level": "6", "kind": "subdivision_2", "parent_osm_id": 3718090, "parent_name": "Kwara State", "parent_iso": "NG-KW"}, "geometry": {"type": "Polygon", "coordinates": [[[4.7993, 8.0651], [4.8194, 8.0817], [4.815, 8.1311], [4.7995, 8.1637], [4.7859, 8.1801], [4.7595, 8.1941], [4.7393, 8.1971], [4.7376, 8.2076], [4.7474, 8.2097], [4.7375, 8.2307], [4.7057, 8.2551], [4.6883, 8.286], [4.6912, 8.3153], [4.679, 8.3115], [4.6714, 8.3017], [4.6502, 8.3237], [4.638, 8.3269], [4.6221, 8.2814], [4.5908, 8.2513], [4.5831, 8.235], [4.5848, 8.2127], [4.5977, 8.1861], [4.5946, 8.1711], [4.5843, 8.1591], [4.5684, 8.1525], [4.5729, 8.1264], [4.5393, 8.1043], [4.5274, 8.0761], [4.569, 8.0548], [4.6217, 8.0757], [4.629, 8.0745], [4.6339, 8.0715], [4.6324, 8.0612], [4.6374, 8.0536], [4.6484, 8.0536], [4.6656, 8.0433], [4.6873, 8.057], [4.7044, 8.0482], [4.7117, 8.0597], [4.7212, 8.0642], [4.7792, 8.0684], [4.7993, 8.0651]], [[4.6504, 8.1625], [4.6697, 8.1981], [4.6938, 8.2174], [4.7116, 8.2107], [4.7235, 8.1936], [4.7258, 8.1756], [4.7298, 8.1737], [4.7273, 8.1649], [4.7391, 8.1645], [4.7405, 8.1588], [4.7342, 8.1591], [4.7332, 8.155], [4.7386, 8.1483], [4.7434, 8.1524], [4.7573, 8.1505], [4.7541, 8.1438], [4.7584, 8.1377], [4.7278, 8.1236], [4.715, 8.1232], [4.6972, 8.1315], [4.6845, 8.1246], [4.6792, 8.132], [4.6741, 8.1307], [4.6718, 8.1383], [4.6506, 8.1444], [4.6504, 8.1625]]]}}, {"type": "Feature", "properties": {"osm_type": "relation", "osm_id": 358387815, "name": "Baruten", "admin_level": "6", "kind": "subdivision_2", "parent_osm_id": 3718090, "parent_name": "Kwara State", "parent_iso": "NG-KW"}, "geometry": {"type": "Polygon", "coordinates": [[[2.7564, 8.5752], [2.8024, 8.6104], [2.9207, 8.6119], [3.0145, 8.7103], [3.1036, 8.7502], [3.1636, 8.8086], [3.1836, 8.8117], [3.1974, 8.7963], [3.2374, 8.7825], [3.2819, 8.804], [3.388, 8.8425], [3.5248, 8.9285], [3.6, 8.9569], [3.5957, 8.9993], [3.6175, 9.0032], [3.6605, 8.9985], [3.6738, 9.0046], [3.6871, 9.0034], [3.6915, 8.9966], [3.7204, 9.016], [3.7431, 9.0469], [3.7523, 9.0869], [3.7538, 9.1207], [3.7707, 9.1468], [3.724, 9.3648], [3.7186, 9.4169], [3.7171, 9.5303], [3.6767, 9.6325], [3.7987, 10.0281], [3.7969, 10.0661], [3.7846, 10.0625], [3.7802, 10.0523], [3.7882, 10.0384], [3.7838, 10.0312], [3.7751, 10.0333], [3.7715, 10.0472], [3.7503, 10.0683], [3.7431, 10.0843], [3.7351, 10.0879], [3.7365, 10.0683], [3.7307, 10.0683], [3.7154, 10.0894], [3.7125, 10.1083], [3.6843, 10.1567], [3.6758, 10.1033], [3.6094, 9.9481], [3.5589, 9.8803], [3.5253, 9.8442], [3.4769, 9.8569], [3.3666, 9.8373], [3.3412, 9.8079], [3.3312, 9.781], [3.3311, 9.7558], [3.3528, 9.7031], [3.2856, 9.6364], [3.2051, 9.5314], [3.1714, 9.4964], [3.1417, 9.4411], [3.145, 9.4189], [3.1669, 9.3658], [3.1664, 9.3028], [3.095, 9.0906], [2.9875, 9.0611], [2.9679, 9.0813], [2.9051, 9.0792], [2.8142, 9.0652], [2.7947, 9.0569], [2.7831, 9.0167], [2.743, 8.7708], [2.7564, 8.5752]]]}}, {"type": "Feature", "properties": {"osm_type": "relation", "osm_id": 220963152, "name": "Kaiama", "admin_level": "6", "kind": "subdivision_2", "parent_osm_id": 3718090, "parent_name": "Kwara State", "parent_iso": "NG-KW"}, "geometry": {"type": "Polygon", "coordinates": [[[3.7707, 9.1468], [3.8261, 9.1822], [3.863, 9.1883], [3.9214, 9.1729], [3.9444, 9.1483], [3.9721, 9.0776], [3.9906, 9.0484], [4.0121, 9.0346], [4.2105, 8.97], [4.2534, 8.967], [4.2903, 8.9916], [4.3164, 8.9977], [4.3256, 8.9946], [4.3349, 8.9808], [4.4281, 9.0361], [4.5241, 9.0742], [4.6035, 9.0843], [4.6364, 9.0814], [4.6695, 9.0716], [4.6703, 9.0647], [4.6795, 9.0589], [4.6831, 9.0734], [4.7211, 9.0655], [4.7231, 9.0754], [4.7488, 9.088], [4.7566, 9.1346], [4.7646, 9.1499], [4.7519, 9.1799], [4.7572, 9.2244], [4.7545, 9.2479], [4.7375, 9.2689], [4.6393, 9.3082], [4.6171, 9.3304], [4.6097, 9.3618], [4.5012, 9.4404], [4.4436, 9.5098], [4.3872, 9.5622], [4.3506, 9.5884], [4.2825, 9.6945], [4.1712, 9.8202], [4.1529, 9.8621], [4.1411, 9.8608], [4.128, 9.8516], [4.1188, 9.8555], [4.1241, 9.8752], [4.1149, 9.8817], [4.0952, 9.8778], [4.0952, 9.8673], [4.0835, 9.8516], [4.0389, 9.8647], [4.0219, 9.8568], [4.0114, 9.8987], [4.0023, 9.9066], [3.9853, 9.8935], [3.98, 9.9066], [3.9673, 9.903], [3.9623, 9.9079], [3.946, 9.9079], [3.9362, 9.9161], [3.9345, 9.9275], [3.9591, 9.9341], [3.9705, 9.9488], [3.9656, 9.957], [3.9345, 9.9668], [3.9411, 9.9766], [3.9525, 9.9783], [3.9492, 9.9914], [3.9345, 9.9996], [3.9214, 9.9996], [3.91, 9.9897], [3.887, 9.9881], [3.8903, 10.0159], [3.9034, 10.0192], [3.8641, 10.0503], [3.851, 10.0552], [3.833, 10.047], [3.8233, 10.0543], [3.818, 10.0668], [3.7991, 10.0712], [3.7987, 10.0281], [3.6767, 9.6325], [3.7171, 9.5303], [3.7186, 9.4169], [3.724, 9.3648], [3.7707, 9.1468]]]}}, {"type": "Feature", "properties": {"osm_type": "relation", "osm_id": 583689639, "name": "Ilorin East", "admin_level": "6", "kind": "subdivision_2", "parent_osm_id": 3718090, "parent_name": "Kwara State", "parent_iso": "NG-KW"}, "geometry": {"type": "MultiPolygon", "coordinates": [[[[4.5488, 8.4943], [4.5527, 8.5002], [4.5615, 8.4995], [4.568, 8.4929], [4.5612, 8.488], [4.5606, 8.4806], [4.5665, 8.4723], [4.5827, 8.474], [4.5875, 8.4683], [4.5987, 8.4739], [4.5883, 8.4829], [4.5939, 8.4945], [4.5698, 8.5066], [4.5729, 8.5272], [4.5676, 8.534], [4.5691, 8.5437], [4.5579, 8.5508], [4.5538, 8.5482], [4.5532, 8.5283], [4.5329, 8.5245], [4.5325, 8.5164], [4.5483, 8.504], [4.543, 8.5033], [4.5414, 8.4974], [4.5488, 8.4943]]], [[[4.7684, 8.479], [4.7516, 8.4874], [4.7458, 8.5108], [4.7518, 8.5308], [4.7642, 8.5428], [4.7916, 8.5489], [4.8314, 8.5473], [4.8544, 8.554], [4.8651, 8.5729], [4.8928, 8.554], [4.9146, 8.5725], [4.9218, 8.5867], [4.9204, 8.5979], [4.9334, 8.6048], [4.9499, 8.6503], [4.9741, 8.6672], [4.9663, 8.6903], [4.9439, 8.6986], [4.9174, 8.716], [4.9071, 8.7282], [4.9062, 8.742], [4.8956, 8.7474], [4.8808, 8.7464], [4.861, 8.7373], [4.8454, 8.7244], [4.825, 8.6932], [4.7416, 8.6308], [4.6792, 8.5745], [4.6526, 8.5708], [4.6409, 8.5538], [4.6045, 8.5409], [4.6021, 8.5365], [4.6016, 8.5241], [4.6342, 8.5095], [4.6584, 8.5187], [4.6684, 8.5173], [4.6987, 8.4859], [4.7684, 8.479]]]]}}, {"type": "Feature", "properties": {"osm_type": "relation", "osm_id": 258279978, "name": "Ifelodun", "admin_level": "6", "kind": "subdivision_2", "parent_osm_id": 3718090, "parent_name": "Kwara State", "parent_iso": "NG-KW"}, "geometry": {"type": "Polygon", "coordinates": [[[4.7474, 8.2097], [4.7672, 8.216], [4.7893, 8.2338], [4.798, 8.2481], [4.8169, 8.3026], [4.8198, 8.3341], [4.8157, 8.3442], [4.8202, 8.359], [4.8567, 8.3677], [4.9072, 8.3699], [4.9415, 8.3564], [4.9976, 8.3464], [5.0354, 8.3499], [5.0871, 8.3642], [5.1345, 8.3642], [5.1524, 8.346], [5.178, 8.2925], [5.1758, 8.2521], [5.1867, 8.2473], [5.2206, 8.2494], [5.2458, 8.2573], [5.2558, 8.2655], [5.281, 8.2738], [5.3062, 8.3007], [5.3245, 8.3338], [5.3228, 8.3444], [5.3477, 8.3827], [5.3966, 8.4383], [5.4464, 8.4797], [5.4356, 8.4922], [5.4207, 8.5336], [5.4232, 8.6406], [5.4136, 8.6862], [5.4024, 8.6886], [5.3808, 8.6777], [5.3557, 8.6768], [5.349, 8.6967], [5.339, 8.7094], [5.3266, 8.7053], [5.2743, 8.6563], [5.237, 8.6605], [5.1931, 8.6895], [5.1624, 8.6945], [5.0985, 8.7293], [5.0902, 8.7376], [5.0513, 8.8172], [5.0115, 8.8296], [4.9761, 8.8214], [4.9711, 8.8303], [4.972, 8.841], [4.9601, 8.8529], [4.9252, 8.867], [4.9071, 8.8662], [4.8962, 8.8603], [4.878, 8.8699], [4.8636, 8.9014], [4.8712, 8.9266], [4.8932, 8.9475], [4.897, 8.9756], [4.9078, 8.9938], [4.9078, 9.0195], [4.8904, 9.0568], [4.8846, 9.0577], [4.8776, 9.0477], [4.8776, 9.0212], [4.8519, 9.0137], [4.851, 8.998], [4.8303, 8.9905], [4.8129, 8.9747], [4.8021, 8.9515], [4.7907, 8.9508], [4.7813, 8.9216], [4.7917, 8.8916], [4.8087, 8.8794], [4.8154, 8.8462], [4.8353, 8.8139], [4.8626, 8.7832], [4.8808, 8.7464], [4.8956, 8.7474], [4.9062, 8.742], [4.9071, 8.7282], [4.9174, 8.716], [4.9439, 8.6986], [4.9663, 8.6903], [4.9741, 8.6672], [4.9499, 8.6503], [4.9334, 8.6048], [4.9204, 8.5979], [4.9218, 8.5867], [4.9146, 8.5725], [4.8928, 8.554], [4.8651, 8.5729], [4.8544, 8.554], [4.8314, 8.5473], [4.7704, 8.5459], [4.7518, 8.5308], [4.7458, 8.5108], [4.751, 8.5022], [4.7505, 8.4896], [4.7661, 8.4816], [4.7697, 8.4743], [4.764, 8.4645], [4.7677, 8.4531], [4.7615, 8.4392], [4.7662, 8.4264], [4.7832, 8.4129], [4.7576, 8.4065], [4.7367, 8.3872], [4.7239, 8.3814], [4.68, 8.4158], [4.6683, 8.3959], [4.6311, 8.4129], [4.6322, 8.4257], [4.627, 8.4295], [4.6211, 8.4227], [4.6161, 8.4235], [4.6092, 8.4275], [4.6131, 8.4325], [4.5936, 8.4362], [4.6005, 8.4242], [4.5998, 8.4082], [4.6148, 8.3954], [4.6178, 8.3813], [4.6292, 8.3716], [4.6369, 8.379], [4.6438, 8.3767], [4.6619, 8.3589], [4.6504, 8.3514], [4.638, 8.3269], [4.6502, 8.3237], [4.6714, 8.3017], [4.679, 8.3115], [4.6912, 8.3153], [4.6883, 8.286], [4.7057, 8.2551], [4.7375, 8.2307], [4.7474, 8.2097]]]}}, {"type": "Feature", "properties": {"osm_type": "relation", "osm_id": 396891479, "name": "Pategi", "admin_level": "6", "kind": "subdivision_2", "parent_osm_id": 3718090, "parent_name": "Kwara State", "parent_iso": "NG-KW"}, "geometry": {"type": "Polygon", "coordinates": [[[5.4464, 8.4797], [5.4766, 8.4999], [5.4962, 8.529], [5.503, 8.5345], [5.5146, 8.5351], [5.5132, 8.5385], [5.5241, 8.5369], [5.5542, 8.5125], [5.5745, 8.506], [5.6429, 8.4629], [5.7047, 8.4458], [5.8055, 8.4255], [5.9121, 8.4239], [5.9568, 8.4084], [6.0406, 8.393], [6.078, 8.3979], [6.1113, 8.4312], [6.1251, 8.5556], [6.1479, 8.5963], [6.1699, 8.663], [6.2085, 8.7324], [6.2032, 8.7346], [6.1691, 8.7215], [6.1495, 8.7207], [6.1316, 8.7516], [6.1146, 8.7581], [6.0845, 8.7606], [6.0332, 8.759], [5.9787, 8.75], [5.9747, 8.7565], [5.9283, 8.7427], [5.9015, 8.75], [5.7958, 8.7419], [5.7746, 8.7533], [5.7282, 8.82], [5.7128, 8.8289], [5.642, 8.8354], [5.6193, 8.8525], [5.6014, 8.8769], [5.5631, 8.8988], [5.5486, 8.9122], [5.4305, 8.8487], [5.4232, 8.8294], [5.4304, 8.7847], [5.4414, 8.7663], [5.4559, 8.7546], [5.4621, 8.74], [5.4336, 8.6919], [5.4186, 8.6821], [5.4136, 8.6862], [5.4232, 8.6406], [5.4207, 8.5336], [5.4356, 8.4922], [5.4464, 8.4797]]]}}, {"type": "Feature", "properties": {"osm_type": "relation", "osm_id": 351854195, "name": "Edu", "admin_level": "6", "kind": "subdivision_2", "parent_osm_id": 3718090, "parent_name": "Kwara State", "parent_iso": "NG-KW"}, "geometry": {"type": "Polygon", "coordinates": [[[5.4136, 8.6862], [5.4186, 8.6821], [5.4336, 8.6919], [5.4621, 8.74], [5.4559, 8.7546], [5.4414, 8.7663], [5.4304, 8.7847], [5.4232, 8.8294], [5.4305, 8.8487], [5.5486, 8.9122], [5.5396, 8.9306], [5.5119, 8.9442], [5.4739, 8.9476], [5.4576, 8.9686], [5.425, 8.9788], [5.3911, 8.9828], [5.3701, 8.9964], [5.3484, 8.9984], [5.3233, 8.9923], [5.2724, 9.0147], [5.2378, 9.0188], [5.209, 9.0351], [5.1595, 9.107], [5.0652, 9.1626], [5.0482, 9.1877], [5.0163, 9.2053], [4.9967, 9.2074], [4.9716, 9.2006], [4.9234, 9.1762], [4.8766, 9.1612], [4.8895, 9.1361], [4.8861, 9.1246], [4.8976, 9.1171], [4.9003, 9.0866], [4.8904, 9.0568], [4.9078, 9.0195], [4.9078, 8.9938], [4.897, 8.9756], [4.8932, 8.9475], [4.8712, 8.9266], [4.8636, 8.9014], [4.878, 8.8699], [4.8962, 8.8603], [4.9071, 8.8662], [4.9252, 8.867], [4.9601, 8.8529], [4.972, 8.841], [4.9711, 8.8303], [4.9761, 8.8214], [5.0115, 8.8296], [5.0513, 8.8172], [5.0902, 8.7376], [5.0985, 8.7293], [5.1624, 8.6945], [5.1931, 8.6895], [5.237, 8.6605], [5.2743, 8.6563], [5.3266, 8.7053], [5.339, 8.7094], [5.349, 8.6967], [5.3557, 8.6768], [5.3808, 8.6777], [5.4024, 8.6886], [5.4136, 8.6862]]]}}, {"type": "Feature", "properties": {"osm_type": "relation", "osm_id": 657223058, "name": "Ilorin South", "admin_level": "6", "kind": "subdivision_2", "parent_osm_id": 3718090, "parent_name": "Kwara State", "parent_iso": "NG-KW"}, "geometry": {"type": "MultiPolygon", "coordinates": [[[[4.5488, 8.4943], [4.553, 8.4827], [4.5606, 8.4806], [4.5612, 8.488], [4.568, 8.4929], [4.5615, 8.4995], [4.5527, 8.5002], [4.5488, 8.4943]]], [[[4.5665, 8.4723], [4.5936, 8.4362], [4.6131, 8.4325], [4.6092, 8.4275], [4.6161, 8.4235], [4.6211, 8.4227], [4.627, 8.4295], [4.6322, 8.4257], [4.6311, 8.4129], [4.6584, 8.3984], [4.6699, 8.3956], [4.68, 8.4158], [4.7239, 8.3814], [4.7367, 8.3872], [4.7576, 8.4065], [4.7832, 8.4129], [4.7662, 8.4264], [4.7615, 8.4392], [4.7677, 8.4531], [4.764, 8.4645], [4.7684, 8.479], [4.6987, 8.4859], [4.6684, 8.5173], [4.6584, 8.5187], [4.6342, 8.5095], [4.6076, 8.5194], [4.6016, 8.5241], [4.6021, 8.5365], [4.5832, 8.5659], [4.586, 8.5722], [4.5731, 8.5777], [4.5486, 8.5802], [4.5332, 8.5723], [4.4985, 8.5667], [4.4929, 8.5606], [4.4791, 8.5614], [4.473, 8.5344], [4.468, 8.5293], [4.4773, 8.5221], [4.4734, 8.5122], [4.4786, 8.5076], [4.4976, 8.506], [4.5121, 8.5134], [4.5128, 8.5265], [4.5215, 8.5207], [4.5216, 8.5153], [4.5412, 8.529], [4.5532, 8.5283], [4.5538, 8.5482], [4.5645, 8.548], [4.5729, 8.5272], [4.5698, 8.5066], [4.5939, 8.4945], [4.5883, 8.4829], [4.5987, 8.4739], [4.5875, 8.4683], [4.5827, 8.474], [4.5665, 8.4723]]]]}}, {"type": "Feature", "properties": {"osm_type": "relation", "osm_id": 843013180, "name": "Irepodun", "admin_level": "6", "kind": "subdivision_2", "parent_osm_id": 3718090, "parent_name": "Kwara State", "parent_iso": "NG-KW"}, "geometry": {"type": "Polygon", "coordinates": [[[4.7993, 8.0651], [4.8186, 8.0536], [4.83, 8.0555], [4.8575, 8.0726], [4.8541, 8.0955], [4.9132, 8.0856], [4.9269, 8.0799], [4.9497, 8.0555], [4.9669, 8.0467], [4.9692, 8.0242], [4.9732, 8.0214], [4.9834, 8.0323], [4.999, 8.0303], [5.01, 8.0501], [5.0397, 8.0719], [5.0496, 8.0646], [5.0549, 8.0492], [5.0665, 8.0545], [5.0788, 8.0641], [5.0904, 8.0945], [5.1329, 8.1233], [5.1592, 8.1228], [5.1811, 8.1403], [5.1907, 8.1642], [5.1848, 8.1815], [5.166, 8.1881], [5.1532, 8.1999], [5.1325, 8.2093], [5.1226, 8.2078], [5.1103, 8.1954], [5.0959, 8.1629], [5.0811, 8.1486], [5.0441, 8.1442], [5.0119, 8.1503], [4.9641, 8.1842], [4.926, 8.2267], [4.9331, 8.2483], [4.9302, 8.2707], [4.937, 8.2778], [4.9382, 8.2939], [4.9302, 8.3372], [4.9072, 8.3699], [4.8567, 8.3677], [4.8202, 8.359], [4.8157, 8.3442], [4.8198, 8.3341], [4.8169, 8.3026], [4.798, 8.2481], [4.7893, 8.2338], [4.7672, 8.216], [4.7376, 8.2076], [4.7353, 8.2032], [4.7393, 8.1971], [4.7595, 8.1941], [4.7859, 8.1801], [4.8105, 8.1433], [4.8194, 8.0817], [4.7993, 8.0651]]]}}, {"type": "Feature", "properties": {"osm_type": "relation", "osm_id": 972208115, "name": "Offa", "admin_level": "6", "kind": "subdivision_2", "parent_osm_id": 3718090, "parent_name": "Kwara State", "parent_iso": "NG-KW"}, "geometry": {"type": "Polygon", "coordinates": [[[4.6504, 8.1625], [4.6506, 8.1444], [4.6718, 8.1383], [4.6741, 8.1307], [4.6792, 8.132], [4.6845, 8.1246], [4.6972, 8.1315], [4.715, 8.1232], [4.7278, 8.1236], [4.7584, 8.1377], [4.7541, 8.1438], [4.7573, 8.1505], [4.7434, 8.1524], [4.7386, 8.1483], [4.7332, 8.155], [4.7342, 8.1591], [4.7405, 8.1588], [4.7391, 8.1645], [4.7273, 8.1649], [4.7298, 8.1737], [4.7258, 8.1756], [4.7235, 8.1936], [4.7116, 8.2107], [4.6938, 8.2174], [4.6697, 8.1981], [4.6504, 8.1625]]]}}, {"type": "Feature", "properties": {"osm_type": "relation", "osm_id": 609934610, "name": "Ekiti", "admin_level": "6", "kind": "subdivision_2", "parent_osm_id": 3718090, "parent_name": "Kwara State", "parent_iso": "NG-KW"}, "geometry": {"type": "Polygon", "coordinates": [[[5.3658, 8.0919], [5.3873, 8.1021], [5.498, 8.1107], [5.5045, 8.1238], [5.5327, 8.1468], [5.5397, 8.1986], [5.5371, 8.2055], [5.4949, 8.2147], [5.4662, 8.2025], [5.4575, 8.2064], [5.4319, 8.1875], [5.3673, 8.1804], [5.2767, 8.1534], [5.2247, 8.1449], [5.1837, 8.0726], [5.1626, 8.0495], [5.1819, 8.0363], [5.1958, 8.0182], [5.2308, 8.022], [5.2829, 8.0085], [5.3324, 8.0096], [5.3606, 8.0385], [5.3587, 8.0739], [5.3658, 8.0919]]]}}, {"type": "Feature", "properties": {"osm_type": "relation", "osm_id": 724449589, "name": "Isin", "admin_level": "6", "kind": "subdivision_2", "parent_osm_id": 3718090, "parent_name": "Kwara State", "parent_iso": "NG-KW"}, "geometry": {"type": "Polygon", "coordinates": [[[4.9072, 8.3699], [4.9302, 8.3372], [4.9382, 8.2939], [4.937, 8.2778], [4.9302, 8.2707], [4.9331, 8.2483], [4.926, 8.2267], [4.9641, 8.1842], [5.0119, 8.1503], [5.0441, 8.1442], [5.0811, 8.1486], [5.0959, 8.1629], [5.1103, 8.1954], [5.1226, 8.2078], [5.1325, 8.2093], [5.1532, 8.1999], [5.166, 8.1881], [5.1848, 8.1815], [5.1945, 8.1939], [5.198, 8.2142], [5.2399, 8.2551], [5.1867, 8.2473], [5.1758, 8.2521], [5.178, 8.2925], [5.1524, 8.346], [5.1345, 8.3642], [5.0871, 8.3642], [5.0354, 8.3499], [4.9976, 8.3464], [4.9415, 8.3564], [4.9072, 8.3699]]]}}, {"type": "Feature", "properties": {"osm_type": "relation", "osm_id": 977629873, "name": "Oke Ero", "admin_level": "6", "kind": "subdivision_2", "parent_osm_id": 3718090, "parent_name": "Kwara State", "parent_iso": "NG-KW"}, "geometry": {"type": "Polygon", "coordinates": [[[5.0576, 8.0395], [5.0757, 8.025], [5.0844, 8.0242], [5.1179, 8.0626], [5.1423, 8.0619], [5.1626, 8.0495], [5.1837, 8.0726], [5.2247, 8.1449], [5.2767, 8.1534], [5.3673, 8.1804], [5.4319, 8.1875], [5.451, 8.2004], [5.4575, 8.2064], [5.4223, 8.2281], [5.4188, 8.2355], [5.4223, 8.2512], [5.4184, 8.2838], [5.3971, 8.292], [5.3723, 8.2742], [5.3567, 8.2747], [5.3532, 8.3099], [5.3358, 8.3286], [5.3245, 8.3338], [5.3062, 8.3007], [5.281, 8.2738], [5.2399, 8.2551], [5.198, 8.2142], [5.1945, 8.1939], [5.1848, 8.1815], [5.1907, 8.1585], [5.1811, 8.1403], [5.1592, 8.1228], [5.1329, 8.1233], [5.1237, 8.1191], [5.0904, 8.0945], [5.0788, 8.0641], [5.0549, 8.0492], [5.0576, 8.0395]]]}}, {"type": "Feature", "properties": {"osm_type": "relation", "osm_id": 185941513, "name": "Moro", "admin_level": "6", "kind": "subdivision_2", "parent_osm_id": 3718090, "parent_name": "Kwara State", "parent_iso": "NG-KW"}, "geometry": {"type": "Polygon", "coordinates": [[[4.3349, 8.9808], [4.3349, 8.9577], [4.321, 8.9424], [4.258, 8.9009], [4.2211, 8.8609], [4.195, 8.8163], [4.2346, 8.8047], [4.2579, 8.7342], [4.3011, 8.7466], [4.3409, 8.7178], [4.3425, 8.6902], [4.3948, 8.6562], [4.4189, 8.6132], [4.4193, 8.5979], [4.4281, 8.5834], [4.4791, 8.5614], [4.4929, 8.5606], [4.4985, 8.5667], [4.5332, 8.5723], [4.5486, 8.5802], [4.586, 8.5722], [4.5832, 8.5659], [4.6021, 8.5365], [4.6045, 8.5409], [4.6378, 8.5518], [4.6526, 8.5708], [4.6792, 8.5745], [4.7416, 8.6308], [4.825, 8.6932], [4.8454, 8.7244], [4.8808, 8.7464], [4.8626, 8.7832], [4.8353, 8.8139], [4.8154, 8.8462], [4.8087, 8.8794], [4.7917, 8.8916], [4.7813, 8.9216], [4.7907, 8.9508], [4.8021, 8.9515], [4.8129, 8.9747], [4.8303, 8.9905], [4.851, 8.998], [4.8519, 9.0137], [4.8776, 9.0212], [4.8776, 9.0477], [4.8846, 9.0577], [4.8929, 9.0595], [4.8922, 9.0697], [4.9003, 9.0866], [4.8976, 9.1171], [4.8861, 9.1246], [4.8895, 9.1361], [4.8761, 9.1576], [4.8481, 9.1412], [4.8152, 9.1316], [4.8076, 9.1364], [4.7853, 9.1353], [4.7687, 9.1535], [4.7566, 9.1346], [4.7488, 9.088], [4.7231, 9.0754], [4.7211, 9.0655], [4.6831, 9.0734], [4.6795, 9.0589], [4.6703, 9.0647], [4.6695, 9.0716], [4.6364, 9.0814], [4.6035, 9.0843], [4.5241, 9.0742], [4.4281, 9.0361], [4.3349, 8.9808]]]}}, {"type": "Feature", "properties": {"osm_type": "relation", "osm_id": 351617273, "name": "Ilorin West", "admin_level": "6", "kind": "subdivision_2", "parent_osm_id": 3718090, "parent_name": "Kwara State", "parent_iso": "NG-KW"}, "geometry": {"type": "Polygon", "coordinates": [[[4.5329, 8.5245], [4.5216, 8.5153], [4.5215, 8.5207], [4.5128, 8.5265], [4.5121, 8.5134], [4.4976, 8.506], [4.4786, 8.5076], [4.4734, 8.5122], [4.4702, 8.5027], [4.4436, 8.4901], [4.44, 8.4821], [4.4533, 8.4304], [4.4745, 8.4086], [4.4918, 8.4034], [4.5132, 8.4096], [4.5311, 8.4064], [4.5523, 8.4122], [4.5748, 8.4085], [4.5899, 8.4256], [4.598, 8.4267], [4.5628, 8.4801], [4.553, 8.4827], [4.5486, 8.496], [4.5414, 8.4974], [4.543, 8.5033], [4.5483, 8.504], [4.5325, 8.5164], [4.5329, 8.5245]]]}}, {"type": "Feature", "properties": {"osm_type": "relation", "osm_id": 555450831, "name": "Asa", "admin_level": "6", "kind": "subdivision_2", "parent_osm_id": 3718090, "parent_name": "Kwara State", "parent_iso": "NG-KW"}, "geometry": {"type": "Polygon", "coordinates": [[[4.638, 8.3269], [4.6504, 8.3514], [4.6619, 8.3589], [4.6438, 8.3767], [4.6369, 8.379], [4.6292, 8.3716], [4.6178, 8.3813], [4.6148, 8.3954], [4.5998, 8.4082], [4.598, 8.4267], [4.5899, 8.4256], [4.5748, 8.4085], [4.5523, 8.4122], [4.5311, 8.4064], [4.5132, 8.4096], [4.4918, 8.4034], [4.4745, 8.4086], [4.4533, 8.4304], [4.44, 8.4821], [4.4436, 8.4901], [4.4702, 8.5027], [4.4773, 8.5221], [4.468, 8.5293], [4.473, 8.5344], [4.4786, 8.5647], [4.4281, 8.5834], [4.4193, 8.5979], [4.4189, 8.6132], [4.3948, 8.6562], [4.3425, 8.6902], [4.3409, 8.7178], [4.3011, 8.7466], [4.2579, 8.7342], [4.2346, 8.8047], [4.195, 8.8163], [4.1904, 8.7533], [4.2134, 8.6826], [4.2091, 8.6807], [4.3917, 8.304], [4.4805, 8.2105], [4.4941, 8.1667], [4.4954, 8.1171], [4.5056, 8.092], [4.5274, 8.0761], [4.5393, 8.1043], [4.5729, 8.1264], [4.5684, 8.1525], [4.5843, 8.1591], [4.5946, 8.1711], [4.5977, 8.1861], [4.5848, 8.2127], [4.5831, 8.235], [4.5908, 8.2513], [4.6221, 8.2814], [4.638, 8.3269]]]}}]}