{"type": "FeatureCollection", "parent": {"osm_id": 3793170, "name": "Normandy", "admin_level": "4", "kind": "subdivision_1", "child_kind": "subdivision_2", "iso": "FR-NOR"}, "features": [{"type": "Feature", "properties": {"osm_type": "relation", "osm_id": 860691880, "name": "Calvados", "admin_level": "6", "kind": "subdivision_2", "parent_osm_id": 3793170, "parent_name": "Normandy", "parent_iso": "FR-NOR"}, "geometry": {"type": "MultiPolygon", "coordinates": [[[[-0.4299, 48.8641], [-0.4334, 48.8659], [-0.4299, 48.8641]]], [[[0.2969, 49.4299], [0.223, 49.4283], [0.1306, 49.4034], [0.1121, 49.395], [0.0756, 49.3673], [0.0856, 49.3614], [0.0709, 49.3686], [0.0452, 49.3479], [-0.0039, 49.3246], [-0.0779, 49.3047], [-0.0895, 49.295], [-0.1021, 49.2951], [-0.1113, 49.2858], [-0.1037, 49.2957], [-0.0899, 49.2965], [-0.0938, 49.2985], [-0.1657, 49.2866], [-0.2292, 49.2861], [-0.2269, 49.2807], [-0.2278, 49.2839], [-0.2174, 49.285], [-0.2263, 49.2825], [-0.2195, 49.2709], [-0.2315, 49.2647], [-0.2442, 49.266], [-0.2493, 49.26], [-0.2521, 49.2617], [-0.2458, 49.2734], [-0.2272, 49.2762], [-0.2463, 49.2794], [-0.2463, 49.2853], [-0.2496, 49.2806], [-0.2469, 49.2923], [-0.2724, 49.292], [-0.3019, 49.2983], [-0.3962, 49.3333], [-0.4572, 49.3366], [-0.4616, 49.3336], [-0.4575, 49.3375], [-0.5282, 49.3458], [-0.6017, 49.3397], [-0.6507, 49.3468], [-0.7553, 49.3486], [-0.8418, 49.3603], [-0.896, 49.3766], [-0.9238, 49.3923], [-0.9526, 49.3961], [-0.9895, 49.3977], [-1.0284, 49.3898], [-1.0785, 49.3882], [-1.1195, 49.3594], [-1.1124, 49.3263], [-1.0996, 49.3198], [-1.1131, 49.3263], [-1.1403, 49.3088], [-1.1343, 49.286], [-1.1205, 49.2801], [-1.1244, 49.2744], [-1.1348, 49.2785], [-1.1359, 49.2704], [-1.1284, 49.2668], [-1.1263, 49.2716], [-1.1222, 49.2639], [-1.1118, 49.2627], [-1.1044, 49.2526], [-1.0977, 49.2552], [-1.0951, 49.2457], [-1.0876, 49.2464], [-1.0747, 49.2321], [-1.0603, 49.2251], [-1.0504, 49.228], [-1.0485, 49.2203], [-1.0351, 49.2206], [-1.0365, 49.2167], [-1.0299, 49.2168], [-1.033, 49.2145], [-1.0249, 49.2101], [-1.0239, 49.2036], [-1.0087, 49.2047], [-0.9737, 49.1915], [-0.9543, 49.2006], [-0.953, 49.2072], [-0.9418, 49.212], [-0.9466, 49.2152], [-0.9312, 49.2166], [-0.9324, 49.2272], [-0.9261, 49.2322], [-0.9211, 49.2309], [-0.9247, 49.2245], [-0.901, 49.2029], [-0.8884, 49.2034], [-0.9146, 49.1916], [-0.9038, 49.1846], [-0.916, 49.1845], [-0.9134, 49.1791], [-0.9219, 49.177], [-0.9258, 49.164], [-0.9365, 49.1612], [-0.9499, 49.1677], [-0.9585, 49.1614], [-0.9316, 49.1582], [-0.9407, 49.1525], [-0.9333, 49.1461], [-0.9083, 49.139], [-0.9056, 49.1329], [-0.8865, 49.1293], [-0.8913, 49.1218], [-0.9133, 49.115], [-0.9249, 49.1015], [-0.8913, 49.1197], [-0.8891, 49.116], [-0.8786, 49.1168], [-0.8769, 49.0959], [-0.8809, 49.0903], [-0.8709, 49.08], [-0.8694, 49.0676], [-0.8764, 49.0548], [-0.8921, 49.046], [-0.8848, 49.0386], [-0.8685, 49.0386], [-0.8682, 49.0339], [-0.861, 49.031], [-0.863, 49.0265], [-0.887, 49.0223], [-0.8976, 49.0099], [-0.9052, 49.0116], [-0.9113, 48.9936], [-0.9431, 48.9679], [-0.9891, 48.9519], [-0.9926, 48.9419], [-1.0044, 48.9356], [-1.0118, 48.941], [-1.0325, 48.9381], [-1.0663, 48.9201], [-1.0206, 48.9276], [-1.0201, 48.9233], [-1.0136, 48.9222], [-1.0135, 48.9152], [-1.023, 48.9034], [-1.0494, 48.8942], [-1.0592, 48.8774], [-1.0778, 48.8676], [-1.0915, 48.8798], [-1.0983, 48.8762], [-1.1041, 48.8642], [-1.1214, 48.8556], [-1.1215, 48.8483], [-1.1309, 48.8499], [-1.1425, 48.8372], [-1.1572, 48.8363], [-1.1596, 48.8263], [-1.1025, 48.8143], [-1.0912, 48.7932], [-1.1017, 48.7908], [-1.0813, 48.7774], [-1.0588, 48.7734], [-1.0438, 48.7836], [-1.0143, 48.7719], [-1.0065, 48.7774], [-0.9913, 48.7782], [-0.9712, 48.7728], [-0.9675, 48.7861], [-0.9513, 48.7892], [-0.9366, 48.7749], [-0.8943, 48.7677], [-0.8833, 48.7563], [-0.8707, 48.7558], [-0.8221, 48.7717], [-0.8212, 48.7665], [-0.8342, 48.7612], [-0.8412, 48.7524], [-0.8207, 48.7532], [-0.7996, 48.7664], [-0.7945, 48.7769], [-0.7807, 48.7866], [-0.7128, 48.8005], [-0.7044, 48.8106], [-0.6821, 48.8219], [-0.7056, 48.8369], [-0.6932, 48.8475], [-0.6809, 48.8406], [-0.6723, 48.8438], [-0.6697, 48.8394], [-0.6603, 48.8415], [-0.6556, 48.8375], [-0.6436, 48.8411], [-0.6455, 48.8273], [-0.6238, 48.8271], [-0.5806, 48.838], [-0.5712, 48.8302], [-0.5594, 48.8346], [-0.5488, 48.848], [-0.5171, 48.8508], [-0.5093, 48.8458], [-0.4993, 48.847], [-0.4941, 48.8486], [-0.5001, 48.8544], [-0.4962, 48.8585], [-0.4763, 48.8589], [-0.4635, 48.8715], [-0.449, 48.8693], [-0.4385, 48.873], [-0.434, 48.8688], [-0.4321, 48.8714], [-0.4369, 48.8725], [-0.4325, 48.875], [-0.4254, 48.8724], [-0.4264, 48.8656], [-0.4066, 48.8703], [-0.4046, 48.8613], [-0.3857, 48.8451], [-0.3825, 48.8494], [-0.375, 48.8455], [-0.3603, 48.8481], [-0.3602, 48.8429], [-0.3745, 48.8408], [-0.3675, 48.84], [-0.3733, 48.835], [-0.3645, 48.8355], [-0.3456, 48.8219], [-0.3265, 48.84], [-0.3357, 48.8452], [-0.3303, 48.8563], [-0.306, 48.8584], [-0.2989, 48.8493], [-0.2799, 48.8545], [-0.2617, 48.8536], [-0.2608, 48.8495], [-0.2419, 48.8495], [-0.2129, 48.8402], [-0.205, 48.8468], [-0.1958, 48.8382], [-0.1917, 48.8406], [-0.178, 48.8355], [-0.1792, 48.8292], [-0.17, 48.8247], [-0.1277, 48.8165], [-0.1464, 48.8346], [-0.1233, 48.8397], [-0.1259, 48.8473], [-0.1151, 48.8392], [-0.0828, 48.8449], [-0.0669, 48.8397], [-0.059, 48.8539], [-0.0362, 48.8652], [-0.0268, 48.8766], [-0.0122, 48.8776], [-0.0062, 48.8724], [-0.0101, 48.884], [-0.007, 48.8857], [0.056, 48.9017], [0.071, 48.9321], [0.081, 48.9384], [0.1007, 48.9344], [0.1269, 48.9521], [0.1433, 48.9452], [0.1479, 48.929], [0.1539, 48.9245], [0.1796, 48.9296], [0.1841, 48.9386], [0.1952, 48.9435], [0.2174, 48.9464], [0.2324, 48.9393], [0.2422, 48.9444], [0.2392, 48.952], [0.2451, 48.9594], [0.2637, 48.9649], [0.2803, 48.9632], [0.2774, 48.95], [0.3085, 48.9544], [0.3331, 48.9427], [0.3585, 48.9506], [0.3775, 48.9725], [0.3859, 48.9662], [0.4063, 48.9632], [0.4002, 48.9528], [0.4127, 48.9504], [0.4315, 48.9666], [0.4329, 48.9791], [0.4247, 48.985], [0.4299, 48.9874], [0.4339, 49.0048], [0.4463, 49.0189], [0.4419, 49.0192], [0.4421, 49.0248], [0.4311, 49.0236], [0.4349, 49.0259], [0.4278, 49.0323], [0.3902, 49.034], [0.3801, 49.0389], [0.3833, 49.0438], [0.379, 49.0512], [0.367, 49.0522], [0.3812, 49.0602], [0.3784, 49.0705], [0.3911, 49.078], [0.4179, 49.0736], [0.4162, 49.0882], [0.3977, 49.0896], [0.4154, 49.0951], [0.3986, 49.099], [0.401, 49.1108], [0.4069, 49.112], [0.4083, 49.1285], [0.4246, 49.1301], [0.4281, 49.1402], [0.4332, 49.1407], [0.4238, 49.1479], [0.4116, 49.146], [0.3858, 49.1537], [0.392, 49.1601], [0.3936, 49.1781], [0.3873, 49.1852], [0.3949, 49.2094], [0.3875, 49.2163], [0.3668, 49.2161], [0.3386, 49.2305], [0.3205, 49.2484], [0.3202, 49.2525], [0.3391, 49.2525], [0.3645, 49.2631], [0.3677, 49.2596], [0.3828, 49.2641], [0.3806, 49.2809], [0.384, 49.2856], [0.3624, 49.2972], [0.3427, 49.2956], [0.3259, 49.2779], [0.3089, 49.2833], [0.3229, 49.2967], [0.3148, 49.3042], [0.316, 49.3113], [0.2979, 49.3144], [0.3129, 49.3226], [0.326, 49.3404], [0.3208, 49.3415], [0.3021, 49.37], [0.3092, 49.3896], [0.2968, 49.4103], [0.2969, 49.4299]]]]}}, {"type": "Feature", "properties": {"osm_type": "relation", "osm_id": 399300088, "name": "Eure", "admin_level": "6", "kind": "subdivision_2", "parent_osm_id": 3793170, "parent_name": "Normandy", "parent_iso": "FR-NOR"}, "geometry": {"type": "Polygon", "coordinates": [[[0.4127, 48.9504], [0.3914, 48.9281], [0.3861, 48.9105], [0.406, 48.9006], [0.4212, 48.8987], [0.4206, 48.8869], [0.4414, 48.8853], [0.4388, 48.8888], [0.4482, 48.8913], [0.4431, 48.8813], [0.4528, 48.8791], [0.4632, 48.8885], [0.4948, 48.8787], [0.5209, 48.8808], [0.5513, 48.8744], [0.578, 48.8937], [0.5956, 48.888], [0.5953, 48.883], [0.5862, 48.8815], [0.5896, 48.8726], [0.6155, 48.8775], [0.6049, 48.8701], [0.6023, 48.8626], [0.612, 48.8577], [0.6092, 48.8533], [0.6362, 48.8544], [0.6202, 48.8471], [0.6076, 48.8328], [0.6651, 48.8099], [0.689, 48.7936], [0.6953, 48.7951], [0.7154, 48.7854], [0.7322, 48.7856], [0.7402, 48.7766], [0.7528, 48.7728], [0.7594, 48.7676], [0.7494, 48.7608], [0.775, 48.7374], [0.7606, 48.7284], [0.7591, 48.7204], [0.7422, 48.7167], [0.7287, 48.7068], [0.7313, 48.7033], [0.7499, 48.7047], [0.7665, 48.6966], [0.7601, 48.6868], [0.7615, 48.6802], [0.7693, 48.6786], [0.764, 48.6754], [0.7823, 48.6667], [0.7961, 48.6753], [0.8148, 48.6702], [0.8273, 48.6807], [0.8408, 48.6784], [0.8639, 48.6876], [0.8605, 48.6929], [0.8687, 48.6989], [0.8666, 48.7036], [0.8726, 48.7132], [0.8902, 48.7204], [0.8994, 48.7105], [0.9198, 48.7125], [0.9212, 48.7092], [0.9471, 48.7134], [0.9615, 48.7258], [0.9782, 48.7309], [0.9905, 48.7256], [1.0168, 48.7284], [1.0211, 48.7349], [1.0339, 48.7286], [1.0378, 48.7323], [1.0348, 48.7406], [1.0452, 48.7437], [1.0639, 48.7595], [1.07, 48.7486], [1.0821, 48.7511], [1.0866, 48.7573], [1.0923, 48.75], [1.1015, 48.7537], [1.1139, 48.7461], [1.1127, 48.7519], [1.1196, 48.7557], [1.1181, 48.7661], [1.1279, 48.7656], [1.1205, 48.7706], [1.1174, 48.7845], [1.1214, 48.7892], [1.1519, 48.7859], [1.149, 48.7778], [1.1609, 48.7707], [1.1577, 48.7695], [1.1874, 48.773], [1.2229, 48.758], [1.233, 48.763], [1.2244, 48.7634], [1.2229, 48.7673], [1.2441, 48.7697], [1.2566, 48.7657], [1.2546, 48.7585], [1.2601, 48.7578], [1.297, 48.7682], [1.3294, 48.7609], [1.3534, 48.7793], [1.3651, 48.784], [1.375, 48.7813], [1.3769, 48.792], [1.3558, 48.8167], [1.3612, 48.8337], [1.3899, 48.8463], [1.4043, 48.8607], [1.4409, 48.8648], [1.4607, 48.8726], [1.4718, 48.8971], [1.4612, 48.9], [1.4604, 48.91], [1.4552, 48.9133], [1.4595, 48.9145], [1.4478, 48.9246], [1.4596, 48.928], [1.4611, 48.9375], [1.4804, 48.9405], [1.4914, 48.9361], [1.5014, 48.941], [1.5109, 48.9536], [1.5011, 48.9514], [1.4952, 48.9568], [1.4999, 48.9602], [1.4918, 48.9646], [1.5183, 48.9784], [1.5079, 48.9839], [1.4984, 48.9791], [1.4787, 48.9807], [1.471, 48.975], [1.4615, 48.9857], [1.4615, 48.989], [1.4717, 48.9897], [1.4691, 48.9932], [1.4807, 49.001], [1.48, 49.0072], [1.4739, 49.0097], [1.477, 49.0168], [1.458, 49.026], [1.4582, 49.0345], [1.4463, 49.0463], [1.4528, 49.0504], [1.4473, 49.0535], [1.4618, 49.064], [1.4797, 49.052], [1.5023, 49.0589], [1.5143, 49.0795], [1.5079, 49.0854], [1.5177, 49.0793], [1.523, 49.0682], [1.5411, 49.0739], [1.5579, 49.0691], [1.573, 49.0782], [1.605, 49.0852], [1.6087, 49.0777], [1.6234, 49.086], [1.6184, 49.0886], [1.6234, 49.0935], [1.6171, 49.0939], [1.6184, 49.0969], [1.6578, 49.1319], [1.6567, 49.1376], [1.6527, 49.135], [1.6514, 49.1387], [1.6558, 49.1485], [1.6645, 49.1534], [1.6606, 49.1574], [1.6702, 49.1695], [1.6661, 49.1768], [1.6716, 49.1804], [1.669, 49.1871], [1.6769, 49.2026], [1.6722, 49.2064], [1.674, 49.2119], [1.7039, 49.2289], [1.6989, 49.2351], [1.7023, 49.2405], [1.6986, 49.2472], [1.7078, 49.2552], [1.7087, 49.2647], [1.7262, 49.2648], [1.7364, 49.2703], [1.751, 49.2675], [1.7589, 49.2724], [1.7566, 49.2662], [1.7668, 49.2615], [1.7669, 49.252], [1.7903, 49.2468], [1.7894, 49.2537], [1.8029, 49.2719], [1.7935, 49.2743], [1.7976, 49.2885], [1.7844, 49.2932], [1.7722, 49.2911], [1.775, 49.306], [1.7671, 49.3174], [1.7744, 49.337], [1.768, 49.3396], [1.7581, 49.3568], [1.7613, 49.3663], [1.748, 49.3716], [1.7444, 49.3808], [1.7205, 49.394], [1.7405, 49.4056], [1.737, 49.4073], [1.7165, 49.4033], [1.714, 49.4093], [1.7073, 49.4066], [1.7044, 49.4107], [1.6941, 49.4013], [1.6986, 49.3989], [1.6945, 49.3951], [1.6804, 49.4063], [1.668, 49.4072], [1.6573, 49.399], [1.6319, 49.4083], [1.6283, 49.4151], [1.6139, 49.4099], [1.6045, 49.4117], [1.5939, 49.4186], [1.5989, 49.4207], [1.5917, 49.4273], [1.5751, 49.4375], [1.5764, 49.4405], [1.5474, 49.441], [1.5371, 49.43], [1.5297, 49.4424], [1.5036, 49.4382], [1.4961, 49.4463], [1.4762, 49.4516], [1.4488, 49.4502], [1.4308, 49.4559], [1.4008, 49.4568], [1.3938, 49.4493], [1.3838, 49.4482], [1.3805, 49.4499], [1.3836, 49.456], [1.3912, 49.4607], [1.3865, 49.4633], [1.371, 49.451], [1.3429, 49.4465], [1.341, 49.4422], [1.3512, 49.4379], [1.3473, 49.4346], [1.3374, 49.4389], [1.3366, 49.4277], [1.327, 49.4315], [1.3093, 49.4286], [1.3154, 49.4077], [1.3134, 49.4146], [1.308, 49.3954], [1.2931, 49.395], [1.2916, 49.3883], [1.2851, 49.3881], [1.2899, 49.3758], [1.2859, 49.3743], [1.2865, 49.3629], [1.2828, 49.3631], [1.2818, 49.3569], [1.2722, 49.3569], [1.2722, 49.3463], [1.2179, 49.3488], [1.2096, 49.3526], [1.199, 49.3508], [1.2033, 49.3366], [1.185, 49.338], [1.1876, 49.3414], [1.1815, 49.3441], [1.1686, 49.336], [1.1632, 49.3428], [1.1546, 49.3351], [1.1455, 49.3353], [1.1457, 49.3295], [1.1346, 49.3249], [1.1336, 49.3099], [1.0861, 49.3095], [1.0481, 49.2979], [1.0688, 49.2767], [1.052, 49.2729], [1.065, 49.263], [1.0629, 49.259], [1.0532, 49.2623], [1.0512, 49.2584], [1.0492, 49.2635], [1.0388, 49.2577], [1.0367, 49.261], [1.0157, 49.2587], [1.0193, 49.2566], [1.0164, 49.2535], [1.0037, 49.2564], [1.0145, 49.253], [1.0051, 49.2507], [0.9932, 49.2533], [0.9922, 49.2579], [1.0082, 49.2626], [1.0065, 49.2652], [0.985, 49.2607], [0.9887, 49.2684], [0.9746, 49.2732], [0.9733, 49.2809], [0.9562, 49.2713], [0.9496, 49.2797], [0.9563, 49.2801], [0.9589, 49.2867], [0.9714, 49.2852], [0.9573, 49.2885], [0.9634, 49.2945], [0.9502, 49.2964], [0.9503, 49.3049], [0.9413, 49.3132], [0.9399, 49.3228], [0.929, 49.3139], [0.907, 49.3077], [0.9103, 49.2986], [0.9007, 49.2971], [0.8925, 49.3028], [0.8964, 49.3031], [0.8927, 49.3111], [0.8992, 49.3189], [0.8919, 49.3142], [0.8877, 49.3211], [0.8647, 49.3226], [0.8629, 49.3279], [0.8444, 49.3248], [0.8419, 49.3295], [0.8528, 49.3315], [0.848, 49.3361], [0.8595, 49.3398], [0.8564, 49.3437], [0.8603, 49.3468], [0.8712, 49.3418], [0.8821, 49.3479], [0.9207, 49.3382], [0.9308, 49.3437], [0.9209, 49.3532], [0.9245, 49.3589], [0.9183, 49.3697], [0.9179, 49.3854], [0.8959, 49.3796], [0.8931, 49.3723], [0.8788, 49.3725], [0.8857, 49.3833], [0.8808, 49.3874], [0.8855, 49.3882], [0.8738, 49.3909], [0.8783, 49.3963], [0.8621, 49.3923], [0.823, 49.3963], [0.8104, 49.4053], [0.8027, 49.4276], [0.7993, 49.427], [0.805, 49.4115], [0.7981, 49.4175], [0.7833, 49.4107], [0.7671, 49.4201], [0.758, 49.4143], [0.7423, 49.413], [0.7387, 49.4082], [0.7081, 49.4111], [0.7052, 49.4023], [0.6905, 49.4065], [0.6646, 49.4016], [0.6494, 49.409], [0.66, 49.4158], [0.6524, 49.422], [0.6445, 49.4149], [0.6394, 49.4184], [0.6455, 49.4262], [0.6299, 49.4228], [0.6364, 49.4367], [0.6495, 49.438], [0.6426, 49.4445], [0.6144, 49.4299], [0.5905, 49.4306], [0.5728, 49.4387], [0.5229, 49.4793], [0.5028, 49.4853], [0.4855, 49.4822], [0.4056, 49.451], [0.3715, 49.4446], [0.3384, 49.4454], [0.3372, 49.434], [0.2969, 49.4299], [0.2968, 49.4103], [0.3092, 49.3896], [0.3021, 49.37], [0.3208, 49.3415], [0.326, 49.3404], [0.3129, 49.3226], [0.2979, 49.3144], [0.316, 49.3113], [0.3148, 49.3042], [0.3229, 49.2967], [0.3089, 49.2833], [0.3259, 49.2779], [0.3427, 49.2956], [0.3624, 49.2972], [0.384, 49.2856], [0.3806, 49.2809], [0.3828, 49.2641], [0.3677, 49.2596], [0.3645, 49.2631], [0.3391, 49.2525], [0.3202, 49.2525], [0.3205, 49.2484], [0.3386, 49.2305], [0.3668, 49.2161], [0.3875, 49.2163], [0.3949, 49.2094], [0.3873, 49.1852], [0.3936, 49.1781], [0.392, 49.1601], [0.3858, 49.1537], [0.4116, 49.146], [0.4238, 49.1479], [0.4332, 49.1407], [0.4281, 49.1402], [0.4246, 49.1301], [0.4083, 49.1285], [0.4069, 49.112], [0.401, 49.1108], [0.3986, 49.099], [0.4154, 49.0951], [0.3977, 49.0896], [0.4162, 49.0882], [0.4179, 49.0736], [0.3911, 49.078], [0.3784, 49.0705], [0.3812, 49.0602], [0.367, 49.0522], [0.379, 49.0512], [0.3833, 49.0438], [0.3801, 49.0389], [0.3902, 49.034], [0.4278, 49.0323], [0.4349, 49.0259], [0.4311, 49.0236], [0.4421, 49.0248], [0.4419, 49.0192], [0.4463, 49.0189], [0.4339, 49.0048], [0.4299, 48.9874], [0.4247, 48.985], [0.4329, 48.9791], [0.4315, 48.9666], [0.4127, 48.9504]]]}}, {"type": "Feature", "properties": {"osm_type": "relation", "osm_id": 532230545, "name": "Manche", "admin_level": "6", "kind": "subdivision_2", "parent_osm_id": 3793170, "parent_name": "Normandy", "parent_iso": "FR-NOR"}, "geometry": {"type": "MultiPolygon", "coordinates": [[[[-1.2491, 49.5883], [-1.2391, 49.5889], [-1.2469, 49.5917], [-1.2491, 49.5883]]], [[[-1.1475, 49.4978], [-1.1444, 49.4981], [-1.1475, 49.4978]]], [[[-1.1564, 49.4928], [-1.1505, 49.4938], [-1.1564, 49.4928]]], [[[-1.5545, 48.9312], [-1.5534, 48.9306], [-1.5532, 48.932], [-1.5545, 48.9312]]], [[[-1.8392, 48.8771], [-1.8324, 48.8691], [-1.8215, 48.8686], [-1.8392, 48.8771]]], [[[-1.8428, 48.8775], [-1.8416, 48.8762], [-1.8419, 48.879], [-1.8428, 48.8775]]], [[[-1.7675, 48.8733], [-1.7658, 48.8723], [-1.7667, 48.875], [-1.7675, 48.8733]]], [[[-1.7982, 48.878], [-1.7965, 48.8773], [-1.7954, 48.8786], [-1.7982, 48.878]]], [[[-1.1403, 49.3088], [-1.1143, 49.3263], [-1.1179, 49.3447], [-1.1385, 49.3583], [-1.1552, 49.3623], [-1.1709, 49.3572], [-1.1914, 49.3381], [-1.2129, 49.3311], [-1.234, 49.3024], [-1.2242, 49.3126], [-1.2255, 49.3172], [-1.2456, 49.3256], [-1.2253, 49.3196], [-1.2139, 49.3316], [-1.1839, 49.3459], [-1.1834, 49.3627], [-1.1755, 49.3636], [-1.1797, 49.3779], [-1.1666, 49.3837], [-1.1622, 49.3914], [-1.1675, 49.4082], [-1.1782, 49.4201], [-1.2526, 49.481], [-1.2881, 49.5178], [-1.2928, 49.5164], [-1.2907, 49.5217], [-1.3073, 49.5411], [-1.3064, 49.5676], [-1.2963, 49.5833], [-1.2857, 49.5873], [-1.2714, 49.5848], [-1.268, 49.5824], [-1.2763, 49.5732], [-1.2727, 49.5708], [-1.272, 49.5775], [-1.2605, 49.5866], [-1.2664, 49.593], [-1.2558, 49.6127], [-1.2289, 49.6058], [-1.2281, 49.623], [-1.2435, 49.6478], [-1.2397, 49.6546], [-1.2549, 49.6645], [-1.2577, 49.672], [-1.2626, 49.668], [-1.2589, 49.6732], [-1.2656, 49.6748], [-1.2657, 49.6789], [-1.2731, 49.6791], [-1.2653, 49.697], [-1.2931, 49.6929], [-1.3721, 49.7068], [-1.4143, 49.7012], [-1.4207, 49.7049], [-1.453, 49.6915], [-1.4729, 49.6972], [-1.4779, 49.6901], [-1.4726, 49.6872], [-1.4747, 49.6821], [-1.485, 49.6779], [-1.4878, 49.6682], [-1.4929, 49.6704], [-1.5076, 49.6614], [-1.542, 49.654], [-1.57, 49.657], [-1.5869, 49.651], [-1.6002, 49.6605], [-1.6072, 49.6569], [-1.6026, 49.6464], [-1.6096, 49.644], [-1.6135, 49.6502], [-1.6149, 49.643], [-1.618, 49.6486], [-1.6201, 49.6392], [-1.6197, 49.6444], [-1.6252, 49.6465], [-1.6192, 49.648], [-1.6283, 49.6476], [-1.628, 49.6526], [-1.6363, 49.6537], [-1.6313, 49.6534], [-1.6297, 49.6598], [-1.6162, 49.6581], [-1.6717, 49.6579], [-1.6827, 49.6642], [-1.6801, 49.6695], [-1.687, 49.6738], [-1.7015, 49.67], [-1.7183, 49.6798], [-1.7589, 49.6782], [-1.8237, 49.6903], [-1.8394, 49.7113], [-1.8509, 49.7134], [-1.8527, 49.7182], [-1.8858, 49.706], [-1.8966, 49.7113], [-1.8951, 49.7157], [-1.8996, 49.7189], [-1.9219, 49.7267], [-1.9424, 49.7257], [-1.9485, 49.7163], [-1.9434, 49.7142], [-1.9474, 49.7049], [-1.936, 49.6887], [-1.9471, 49.6751], [-1.8724, 49.6572], [-1.8591, 49.6484], [-1.8473, 49.6245], [-1.8416, 49.5727], [-1.8558, 49.555], [-1.8631, 49.5537], [-1.8578, 49.5514], [-1.865, 49.5534], [-1.8892, 49.5341], [-1.8816, 49.5191], [-1.8498, 49.5073], [-1.8447, 49.4902], [-1.8472, 49.4742], [-1.8338, 49.4658], [-1.8243, 49.4479], [-1.8225, 49.3982], [-1.8092, 49.3725], [-1.7898, 49.3698], [-1.7865, 49.3771], [-1.7719, 49.3802], [-1.7706, 49.3757], [-1.7609, 49.373], [-1.764, 49.3712], [-1.7873, 49.3747], [-1.7579, 49.3577], [-1.7243, 49.3272], [-1.7038, 49.3289], [-1.7011, 49.3337], [-1.7177, 49.3313], [-1.7098, 49.3361], [-1.7179, 49.3465], [-1.7035, 49.3422], [-1.6955, 49.3309], [-1.687, 49.3305], [-1.6991, 49.3238], [-1.7084, 49.3269], [-1.7076, 49.3174], [-1.6861, 49.2883], [-1.6571, 49.2821], [-1.6564, 49.2789], [-1.6745, 49.2795], [-1.6756, 49.2866], [-1.6782, 49.2794], [-1.6613, 49.26], [-1.6481, 49.2309], [-1.6284, 49.2116], [-1.6228, 49.2114], [-1.6257, 49.2231], [-1.6134, 49.2344], [-1.6164, 49.2401], [-1.6087, 49.2317], [-1.5875, 49.2348], [-1.5667, 49.2211], [-1.6138, 49.2183], [-1.6033, 49.205], [-1.6074, 49.1963], [-1.5919, 49.1348], [-1.6103, 49.099], [-1.6098, 49.072], [-1.6085, 49.0826], [-1.5975, 49.0736], [-1.6023, 49.069], [-1.5955, 49.0666], [-1.6027, 49.0616], [-1.5981, 49.0634], [-1.6013, 49.0527], [-1.6069, 49.0679], [-1.5945, 49.0234], [-1.5782, 48.9988], [-1.5685, 48.9962], [-1.5816, 49.0039], [-1.5745, 49.0013], [-1.5789, 49.0048], [-1.5748, 49.0059], [-1.5787, 49.0154], [-1.5697, 49.0317], [-1.5601, 49.0383], [-1.5424, 49.0411], [-1.5132, 49.029], [-1.5049, 49.0203], [-1.5335, 49.0341], [-1.5572, 49.0263], [-1.5538, 49.0194], [-1.5568, 49.0109], [-1.5486, 48.9898], [-1.5538, 48.9859], [-1.5494, 48.9918], [-1.5552, 49.0005], [-1.559, 48.9966], [-1.5609, 49.0047], [-1.5583, 48.988], [-1.5626, 48.9421], [-1.5481, 48.9399], [-1.5397, 48.9323], [-1.5485, 48.9249], [-1.5493, 48.9046], [-1.5546, 48.9016], [-1.5492, 48.9021], [-1.5485, 48.8934], [-1.5553, 48.8937], [-1.5546, 48.9008], [-1.5627, 48.9139], [-1.5529, 48.9367], [-1.565, 48.9218], [-1.5824, 48.853], [-1.5981, 48.8394], [-1.6144, 48.8341], [-1.6063, 48.8309], [-1.6089, 48.8338], [-1.6053, 48.8354], [-1.5989, 48.8315], [-1.5993, 48.8355], [-1.5939, 48.8347], [-1.5742, 48.8214], [-1.5666, 48.7969], [-1.5694, 48.8031], [-1.5742, 48.7558], [-1.5704, 48.7437], [-1.5529, 48.7328], [-1.529, 48.7299], [-1.5202, 48.7206], [-1.5138, 48.6984], [-1.5016, 48.6862], [-1.4783, 48.6844], [-1.4641, 48.674], [-1.4495, 48.6701], [-1.4466, 48.6542], [-1.4387, 48.6555], [-1.4323, 48.6665], [-1.4017, 48.6739], [-1.3762, 48.6862], [-1.3793, 48.6897], [-1.3729, 48.6929], [-1.3992, 48.6632], [-1.3997, 48.6555], [-1.3933, 48.6507], [-1.3638, 48.6469], [-1.358, 48.6356], [-1.3453, 48.6329], [-1.3637, 48.6344], [-1.3684, 48.6409], [-1.3922, 48.6448], [-1.4148, 48.6398], [-1.4259, 48.6437], [-1.4296, 48.6411], [-1.4262, 48.6375], [-1.4497, 48.623], [-1.4543, 48.6258], [-1.4893, 48.6162], [-1.4953, 48.6205], [-1.5108, 48.6192], [-1.5061, 48.6275], [-1.5106, 48.637], [-1.5063, 48.6279], [-1.5116, 48.6175], [-1.5189, 48.6271], [-1.5298, 48.6296], [-1.5709, 48.6262], [-1.5659, 48.6144], [-1.544, 48.6061], [-1.5468, 48.6015], [-1.5373, 48.5989], [-1.5443, 48.5871], [-1.5431, 48.5799], [-1.5316, 48.5809], [-1.519, 48.5667], [-1.5273, 48.5654], [-1.5234, 48.5626], [-1.5335, 48.5532], [-1.533, 48.5462], [-1.5157, 48.5376], [-1.5179, 48.5298], [-1.4956, 48.5089], [-1.4899, 48.4893], [-1.4843, 48.4913], [-1.4736, 48.4853], [-1.4498, 48.4875], [-1.4349, 48.4779], [-1.441, 48.4712], [-1.428, 48.4617], [-1.3972, 48.4623], [-1.3804, 48.4558], [-1.3646, 48.4668], [-1.3451, 48.4725], [-1.3495, 48.4817], [-1.3371, 48.4912], [-1.3287, 48.4862], [-1.3315, 48.4926], [-1.3268, 48.4987], [-1.3009, 48.4989], [-1.2875, 48.5096], [-1.279, 48.5093], [-1.2696, 48.5245], [-1.2728, 48.5339], [-1.2519, 48.5438], [-1.2389, 48.5377], [-1.2173, 48.5368], [-1.207, 48.5386], [-1.2068, 48.5423], [-1.1929, 48.5288], [-1.1699, 48.5312], [-1.1542, 48.5192], [-1.1172, 48.5217], [-1.1036, 48.513], [-1.0732, 48.508], [-1.0619, 48.5104], [-1.0602, 48.5155], [-1.0211, 48.498], [-1.0172, 48.4921], [-1.0029, 48.4891], [-0.9723, 48.4945], [-0.9714, 48.5008], [-0.9624, 48.5036], [-0.9633, 48.5129], [-0.9554, 48.5173], [-0.9235, 48.5133], [-0.9225, 48.5031], [-0.9073, 48.4962], [-0.8697, 48.4981], [-0.8603, 48.5015], [-0.8474, 48.5216], [-0.8271, 48.5305], [-0.8139, 48.5453], [-0.8057, 48.5507], [-0.7925, 48.5508], [-0.7743, 48.5629], [-0.7762, 48.5734], [-0.77, 48.5897], [-0.7517, 48.6019], [-0.7527, 48.6223], [-0.7384, 48.6224], [-0.7424, 48.6275], [-0.7631, 48.6314], [-0.7731, 48.6579], [-0.7597, 48.6643], [-0.7569, 48.6736], [-0.7432, 48.681], [-0.7367, 48.6796], [-0.7351, 48.686], [-0.7626, 48.6919], [-0.7907, 48.7043], [-0.8045, 48.7137], [-0.805, 48.722], [-0.8178, 48.7312], [-0.8284, 48.7337], [-0.8349, 48.7274], [-0.8498, 48.7309], [-0.8521, 48.746], [-0.8212, 48.7665], [-0.8221, 48.7717], [-0.8707, 48.7558], [-0.8833, 48.7563], [-0.8943, 48.7677], [-0.9366, 48.7749], [-0.9513, 48.7892], [-0.9675, 48.7861], [-0.9712, 48.7728], [-0.9913, 48.7782], [-1.0065, 48.7774], [-1.0143, 48.7719], [-1.0438, 48.7836], [-1.0588, 48.7734], [-1.0813, 48.7774], [-1.1017, 48.7908], [-1.0912, 48.7932], [-1.1025, 48.8143], [-1.1596, 48.8263], [-1.1572, 48.8363], [-1.1425, 48.8372], [-1.1309, 48.8499], [-1.1215, 48.8483], [-1.1214, 48.8556], [-1.1041, 48.8642], [-1.0983, 48.8762], [-1.0915, 48.8798], [-1.0778, 48.8676], [-1.0592, 48.8774], [-1.0494, 48.8942], [-1.023, 48.9034], [-1.0135, 48.9152], [-1.0136, 48.9222], [-1.0201, 48.9233], [-1.0206, 48.9276], [-1.0663, 48.9201], [-1.0325, 48.9381], [-1.0118, 48.941], [-1.0044, 48.9356], [-0.9926, 48.9419], [-0.9891, 48.9519], [-0.9431, 48.9679], [-0.9113, 48.9936], [-0.9052, 49.0116], [-0.8976, 49.0099], [-0.887, 49.0223], [-0.863, 49.0265], [-0.861, 49.031], [-0.8682, 49.0339], [-0.8685, 49.0386], [-0.8848, 49.0386], [-0.8921, 49.046], [-0.8764, 49.0548], [-0.8694, 49.0676], [-0.8709, 49.08], [-0.8809, 49.0903], [-0.8769, 49.0959], [-0.8786, 49.1168], [-0.8891, 49.116], [-0.8913, 49.1197], [-0.9249, 49.1015], [-0.9133, 49.115], [-0.8913, 49.1218], [-0.8865, 49.1293], [-0.9056, 49.1329], [-0.9083, 49.139], [-0.9333, 49.1461], [-0.9407, 49.1525], [-0.9316, 49.1582], [-0.9585, 49.1614], [-0.9499, 49.1677], [-0.9365, 49.1612], [-0.9258, 49.164], [-0.9219, 49.177], [-0.9134, 49.1791], [-0.916, 49.1845], [-0.9038, 49.1846], [-0.9146, 49.1916], [-0.8884, 49.2034], [-0.901, 49.2029], [-0.9247, 49.2245], [-0.9211, 49.2309], [-0.9261, 49.2322], [-0.9324, 49.2272], [-0.9312, 49.2166], [-0.9466, 49.2152], [-0.9418, 49.212], [-0.953, 49.2072], [-0.9543, 49.2006], [-0.9737, 49.1915], [-1.0087, 49.2047], [-1.0239, 49.2036], [-1.0249, 49.2101], [-1.033, 49.2145], [-1.0299, 49.2168], [-1.0365, 49.2167], [-1.0351, 49.2206], [-1.0485, 49.2203], [-1.0504, 49.228], [-1.0603, 49.2251], [-1.0747, 49.2321], [-1.0876, 49.2464], [-1.0951, 49.2457], [-1.0977, 49.2552], [-1.1044, 49.2526], [-1.1118, 49.2627], [-1.1222, 49.2639], [-1.1263, 49.2716], [-1.1284, 49.2668], [-1.1359, 49.2704], [-1.1348, 49.2785], [-1.1244, 49.2744], [-1.1205, 49.2801], [-1.1343, 49.286], [-1.1403, 49.3088]]], [[[-1.6868, 49.673], [-1.6789, 49.6692], [-1.6633, 49.6717], [-1.6868, 49.673]]], [[[-1.648, 49.6743], [-1.5981, 49.6714], [-1.648, 49.6743]]], [[[-1.5829, 49.6701], [-1.5848, 49.6701], [-1.5804, 49.6687], [-1.5829, 49.6701]]]]}}, {"type": "Feature", "properties": {"osm_type": "relation", "osm_id": 453396699, "name": "Orne", "admin_level": "6", "kind": "subdivision_2", "parent_osm_id": 3793170, "parent_name": "Normandy", "parent_iso": "FR-NOR"}, "geometry": {"type": "Polygon", "coordinates": [[[-0.8412, 48.7524], [-0.8521, 48.746], [-0.8498, 48.7309], [-0.8349, 48.7274], [-0.8284, 48.7337], [-0.8178, 48.7312], [-0.805, 48.722], [-0.8045, 48.7137], [-0.7907, 48.7043], [-0.7626, 48.6919], [-0.7351, 48.686], [-0.7367, 48.6796], [-0.7432, 48.681], [-0.7569, 48.6736], [-0.7597, 48.6643], [-0.7731, 48.6579], [-0.7631, 48.6314], [-0.7424, 48.6275], [-0.7384, 48.6224], [-0.7527, 48.6223], [-0.7517, 48.6019], [-0.77, 48.5897], [-0.7762, 48.5734], [-0.7743, 48.5629], [-0.7925, 48.5508], [-0.8057, 48.5507], [-0.8271, 48.5305], [-0.8474, 48.5216], [-0.8603, 48.5015], [-0.8455, 48.4991], [-0.8378, 48.4846], [-0.8316, 48.4844], [-0.8323, 48.4793], [-0.8148, 48.4722], [-0.8184, 48.4689], [-0.8132, 48.4552], [-0.7987, 48.4592], [-0.7968, 48.4662], [-0.7779, 48.4655], [-0.7798, 48.4461], [-0.7646, 48.4363], [-0.7149, 48.449], [-0.715, 48.4546], [-0.736, 48.4614], [-0.7309, 48.4732], [-0.7144, 48.4691], [-0.7047, 48.4756], [-0.6997, 48.4739], [-0.7027, 48.4678], [-0.6922, 48.4681], [-0.6815, 48.4709], [-0.6856, 48.4772], [-0.6775, 48.4789], [-0.6745, 48.4851], [-0.6691, 48.4829], [-0.6688, 48.4865], [-0.6622, 48.4839], [-0.6629, 48.4765], [-0.6558, 48.475], [-0.6599, 48.4694], [-0.6535, 48.4596], [-0.6558, 48.4475], [-0.6511, 48.4439], [-0.5953, 48.4726], [-0.5725, 48.4686], [-0.5653, 48.4771], [-0.5598, 48.4721], [-0.5512, 48.4733], [-0.5494, 48.4806], [-0.5392, 48.4842], [-0.5377, 48.4904], [-0.5283, 48.4965], [-0.5162, 48.4983], [-0.5174, 48.5035], [-0.5099, 48.5091], [-0.4889, 48.5013], [-0.4738, 48.5032], [-0.4695, 48.5123], [-0.4474, 48.5154], [-0.4337, 48.5137], [-0.4235, 48.5068], [-0.4076, 48.5056], [-0.3958, 48.5104], [-0.3911, 48.5087], [-0.3935, 48.5012], [-0.3666, 48.4941], [-0.3688, 48.4881], [-0.3532, 48.4837], [-0.3494, 48.4888], [-0.3559, 48.4957], [-0.3504, 48.501], [-0.3372, 48.5008], [-0.3361, 48.5095], [-0.3201, 48.5231], [-0.2935, 48.5152], [-0.2881, 48.5194], [-0.2852, 48.5064], [-0.2715, 48.5074], [-0.2678, 48.517], [-0.2748, 48.5179], [-0.2611, 48.5271], [-0.251, 48.5269], [-0.2409, 48.5369], [-0.2627, 48.5484], [-0.2465, 48.5579], [-0.2489, 48.5635], [-0.2426, 48.568], [-0.2172, 48.558], [-0.2082, 48.5642], [-0.1794, 48.5409], [-0.1444, 48.5277], [-0.1459, 48.5203], [-0.1558, 48.5207], [-0.1733, 48.5098], [-0.1724, 48.5023], [-0.1683, 48.5039], [-0.1561, 48.496], [-0.1554, 48.4869], [-0.1492, 48.4812], [-0.1528, 48.4766], [-0.1472, 48.4731], [-0.1506, 48.4651], [-0.1475, 48.4569], [-0.1063, 48.447], [-0.0731, 48.4506], [-0.0707, 48.4584], [-0.051, 48.453], [-0.0498, 48.4445], [-0.0574, 48.4296], [-0.0526, 48.4243], [-0.0578, 48.4208], [-0.0523, 48.4133], [-0.0578, 48.4087], [-0.0525, 48.393], [-0.0578, 48.3881], [-0.05, 48.3752], [-0.0509, 48.3802], [-0.0364, 48.3808], [-0.0349, 48.3864], [-0.0213, 48.3854], [-0.0196, 48.3944], [-0.0018, 48.3975], [0.0165, 48.3813], [0.0612, 48.3798], [0.0538, 48.3919], [0.0705, 48.4091], [0.0999, 48.4102], [0.1104, 48.4232], [0.1065, 48.4266], [0.1174, 48.4364], [0.1577, 48.4408], [0.1449, 48.4528], [0.1459, 48.4576], [0.1713, 48.4495], [0.1695, 48.4613], [0.1731, 48.4652], [0.1904, 48.4619], [0.2136, 48.4736], [0.2489, 48.474], [0.2593, 48.477], [0.2655, 48.485], [0.2757, 48.4792], [0.3006, 48.4806], [0.3102, 48.472], [0.3225, 48.4732], [0.3384, 48.4618], [0.3568, 48.4578], [0.3641, 48.4518], [0.3675, 48.438], [0.3826, 48.4251], [0.381, 48.4163], [0.3715, 48.4108], [0.3773, 48.3914], [0.3739, 48.387], [0.3799, 48.3802], [0.3794, 48.3665], [0.3881, 48.3493], [0.3805, 48.3432], [0.3825, 48.334], [0.3957, 48.3203], [0.406, 48.3148], [0.4164, 48.3224], [0.426, 48.318], [0.4313, 48.3066], [0.4665, 48.306], [0.4805, 48.2985], [0.4902, 48.3096], [0.5075, 48.2953], [0.4935, 48.2834], [0.5134, 48.2708], [0.513, 48.2667], [0.5326, 48.2648], [0.5381, 48.2589], [0.5365, 48.2493], [0.6117, 48.2419], [0.6243, 48.2455], [0.6339, 48.2343], [0.6385, 48.2354], [0.6311, 48.2526], [0.6402, 48.2614], [0.6518, 48.2642], [0.6732, 48.2548], [0.6831, 48.255], [0.6821, 48.2488], [0.6883, 48.2465], [0.6861, 48.2407], [0.7002, 48.2318], [0.7068, 48.2227], [0.7041, 48.2191], [0.7157, 48.2148], [0.7236, 48.1983], [0.7301, 48.201], [0.7377, 48.1892], [0.7577, 48.1799], [0.8088, 48.1976], [0.8054, 48.2055], [0.8306, 48.2107], [0.8258, 48.221], [0.8102, 48.2337], [0.8012, 48.2513], [0.7875, 48.2613], [0.7918, 48.2651], [0.7859, 48.2711], [0.7935, 48.2843], [0.8077, 48.2898], [0.7936, 48.293], [0.7785, 48.3034], [0.7557, 48.2999], [0.7704, 48.3143], [0.7691, 48.3224], [0.7915, 48.3428], [0.8184, 48.3495], [0.828, 48.3423], [0.8424, 48.3466], [0.844, 48.3509], [0.8399, 48.3527], [0.8523, 48.3485], [0.8714, 48.3596], [0.8756, 48.3554], [0.8835, 48.3565], [0.9006, 48.374], [0.9091, 48.3703], [0.9299, 48.3914], [0.9504, 48.3995], [0.9444, 48.4171], [0.9764, 48.4388], [0.9735, 48.4438], [0.9578, 48.4427], [0.9477, 48.456], [0.9416, 48.4569], [0.9357, 48.4756], [0.9564, 48.4824], [0.9554, 48.4929], [0.9415, 48.4988], [0.9542, 48.5037], [0.9674, 48.5239], [0.9225, 48.5377], [0.9393, 48.5492], [0.9257, 48.5599], [0.8941, 48.5717], [0.8683, 48.5728], [0.8506, 48.5826], [0.8471, 48.6097], [0.8226, 48.6089], [0.8172, 48.6157], [0.8318, 48.6334], [0.8217, 48.6361], [0.8245, 48.6499], [0.8182, 48.6594], [0.8097, 48.6624], [0.8148, 48.6702], [0.7961, 48.6753], [0.7823, 48.6667], [0.7687, 48.6699], [0.764, 48.6754], [0.7693, 48.6786], [0.7615, 48.6802], [0.7601, 48.6868], [0.7665, 48.6966], [0.7499, 48.7047], [0.7313, 48.7033], [0.7287, 48.7068], [0.7422, 48.7167], [0.7591, 48.7204], [0.7606, 48.7284], [0.775, 48.7374], [0.7494, 48.7608], [0.7594, 48.7676], [0.7402, 48.7766], [0.7322, 48.7856], [0.7154, 48.7854], [0.6953, 48.7951], [0.689, 48.7936], [0.6651, 48.8099], [0.6076, 48.8328], [0.6202, 48.8471], [0.6362, 48.8544], [0.6092, 48.8533], [0.612, 48.8577], [0.6023, 48.8626], [0.6049, 48.8701], [0.6155, 48.8775], [0.5896, 48.8726], [0.5862, 48.8815], [0.5953, 48.883], [0.5956, 48.888], [0.578, 48.8937], [0.5513, 48.8744], [0.5209, 48.8808], [0.4948, 48.8787], [0.4632, 48.8885], [0.4528, 48.8791], [0.4431, 48.8813], [0.4482, 48.8913], [0.4388, 48.8888], [0.4414, 48.8853], [0.4206, 48.8869], [0.4212, 48.8987], [0.406, 48.9006], [0.3861, 48.9105], [0.3914, 48.9281], [0.4122, 48.9463], [0.4127, 48.9504], [0.4002, 48.9528], [0.4063, 48.9632], [0.3859, 48.9662], [0.3775, 48.9725], [0.3585, 48.9506], [0.3331, 48.9427], [0.3085, 48.9544], [0.2774, 48.95], [0.2814, 48.9587], [0.2771, 48.9597], [0.2775, 48.9657], [0.2451, 48.9594], [0.2392, 48.952], [0.2422, 48.9444], [0.2324, 48.9393], [0.2174, 48.9464], [0.1952, 48.9435], [0.1698, 48.9263], [0.1539, 48.9245], [0.1479, 48.929], [0.1433, 48.9452], [0.1269, 48.9521], [0.1007, 48.9344], [0.081, 48.9384], [0.0653, 48.9253], [0.056, 48.9017], [-0.007, 48.8857], [-0.0101, 48.884], [-0.0062, 48.8724], [-0.0122, 48.8776], [-0.0268, 48.8766], [-0.0362, 48.8652], [-0.059, 48.8539], [-0.0669, 48.8397], [-0.0828, 48.8449], [-0.1151, 48.8392], [-0.1259, 48.8473], [-0.1233, 48.8397], [-0.1464, 48.8346], [-0.1277, 48.8165], [-0.17, 48.8247], [-0.1792, 48.8292], [-0.178, 48.8355], [-0.1917, 48.8406], [-0.1958, 48.8382], [-0.205, 48.8468], [-0.2129, 48.8402], [-0.2419, 48.8495], [-0.2608, 48.8495], [-0.2617, 48.8536], [-0.2799, 48.8545], [-0.2989, 48.8493], [-0.306, 48.8584], [-0.3303, 48.8563], [-0.3357, 48.8452], [-0.3265, 48.84], [-0.3456, 48.8219], [-0.3645, 48.8355], [-0.3733, 48.835], [-0.3675, 48.84], [-0.3745, 48.8408], [-0.3602, 48.8429], [-0.3603, 48.8481], [-0.375, 48.8455], [-0.3825, 48.8494], [-0.3857, 48.8451], [-0.4046, 48.8613], [-0.4066, 48.8703], [-0.4264, 48.8656], [-0.4254, 48.8724], [-0.4325, 48.875], [-0.4369, 48.8725], [-0.4321, 48.8714], [-0.434, 48.8688], [-0.4385, 48.873], [-0.449, 48.8693], [-0.4635, 48.8715], [-0.4763, 48.8589], [-0.4962, 48.8585], [-0.5001, 48.8544], [-0.4941, 48.8486], [-0.4993, 48.847], [-0.5093, 48.8458], [-0.5171, 48.8508], [-0.5488, 48.848], [-0.5594, 48.8346], [-0.5712, 48.8302], [-0.5806, 48.838], [-0.6238, 48.8271], [-0.6455, 48.8273], [-0.6436, 48.8411], [-0.6556, 48.8375], [-0.6603, 48.8415], [-0.6697, 48.8394], [-0.6723, 48.8438], [-0.6809, 48.8406], [-0.6932, 48.8475], [-0.7056, 48.8369], [-0.6821, 48.8219], [-0.7044, 48.8106], [-0.7128, 48.8005], [-0.7807, 48.7866], [-0.7945, 48.7769], [-0.7996, 48.7664], [-0.8207, 48.7532], [-0.8412, 48.7524]], [[-0.4299, 48.8641], [-0.4334, 48.8659], [-0.4299, 48.8641]]]}}, {"type": "Feature", "properties": {"osm_type": "relation", "osm_id": 587761994, "name": "Seine-Maritime", "admin_level": "6", "kind": "subdivision_2", "parent_osm_id": 3793170, "parent_name": "Normandy", "parent_iso": "FR-NOR"}, "geometry": {"type": "Polygon", "coordinates": [[[1.714, 49.4093], [1.7242, 49.4223], [1.7208, 49.4242], [1.7227, 49.4329], [1.7284, 49.4366], [1.7245, 49.4412], [1.7326, 49.4405], [1.7378, 49.4489], [1.7521, 49.4535], [1.7478, 49.4597], [1.7759, 49.4714], [1.7727, 49.4781], [1.7763, 49.4827], [1.772, 49.485], [1.7791, 49.4908], [1.789, 49.4904], [1.7908, 49.498], [1.7852, 49.4988], [1.7903, 49.5035], [1.7803, 49.5099], [1.7595, 49.5114], [1.7563, 49.5053], [1.7485, 49.5038], [1.7526, 49.4973], [1.7451, 49.4889], [1.7398, 49.5], [1.7253, 49.4997], [1.7154, 49.5056], [1.7409, 49.5191], [1.7353, 49.525], [1.7442, 49.5292], [1.7418, 49.533], [1.7478, 49.5387], [1.7228, 49.5442], [1.73, 49.5614], [1.7141, 49.5776], [1.7032, 49.5778], [1.6977, 49.5723], [1.6944, 49.575], [1.7008, 49.5797], [1.6904, 49.5799], [1.7201, 49.5817], [1.7223, 49.589], [1.7092, 49.5869], [1.7053, 49.5909], [1.7088, 49.5949], [1.6939, 49.6011], [1.7179, 49.6147], [1.7216, 49.6235], [1.7173, 49.6331], [1.6986, 49.6442], [1.7085, 49.6464], [1.7128, 49.6548], [1.7211, 49.6582], [1.7229, 49.6723], [1.7524, 49.6807], [1.7511, 49.6944], [1.7398, 49.7014], [1.7242, 49.6941], [1.7155, 49.6831], [1.7052, 49.6813], [1.6889, 49.6953], [1.7055, 49.7073], [1.7137, 49.7058], [1.7131, 49.7342], [1.7232, 49.7302], [1.7459, 49.7387], [1.7388, 49.7493], [1.7498, 49.7639], [1.7642, 49.7567], [1.7867, 49.762], [1.7736, 49.7774], [1.7582, 49.7804], [1.7524, 49.7934], [1.7445, 49.7989], [1.7464, 49.8033], [1.7341, 49.8124], [1.7253, 49.8326], [1.7258, 49.8452], [1.7172, 49.8482], [1.7201, 49.8625], [1.7114, 49.8738], [1.7128, 49.8873], [1.6933, 49.8945], [1.6905, 49.9023], [1.6851, 49.9028], [1.6846, 49.9109], [1.6704, 49.9217], [1.6035, 49.9428], [1.5777, 49.9633], [1.5758, 49.9729], [1.5274, 49.9947], [1.5163, 50.0121], [1.4985, 50.0198], [1.4917, 50.018], [1.4708, 50.0351], [1.453, 50.039], [1.4484, 50.0468], [1.4559, 50.0444], [1.4549, 50.0558], [1.4592, 50.0627], [1.4496, 50.0701], [1.4318, 50.0722], [1.4232, 50.0711], [1.4088, 50.0571], [1.3973, 50.0583], [1.3967, 50.0642], [1.3925, 50.0608], [1.3703, 50.0644], [1.3769, 50.06], [1.369, 50.0647], [1.3291, 50.046], [1.2276, 49.9852], [1.2054, 49.9809], [1.2113, 49.9785], [1.2065, 49.976], [1.2037, 49.9798], [1.2061, 49.9742], [1.2018, 49.9712], [1.106, 49.9364], [1.0845, 49.9362], [1.0891, 49.934], [1.0854, 49.9273], [1.08, 49.9267], [1.0851, 49.9298], [1.0832, 49.934], [1.0666, 49.9259], [1.0218, 49.9159], [0.9604, 49.9194], [0.9283, 49.9061], [0.8333, 49.8895], [0.7873, 49.8746], [0.7211, 49.8695], [0.7087, 49.8735], [0.5803, 49.8518], [0.5424, 49.8375], [0.4874, 49.8087], [0.4105, 49.7793], [0.3668, 49.7679], [0.3652, 49.7653], [0.3758, 49.7608], [0.3646, 49.7642], [0.3554, 49.7554], [0.3225, 49.7418], [0.2867, 49.7384], [0.2368, 49.719], [0.2058, 49.7147], [0.1641, 49.6867], [0.1556, 49.6614], [0.1417, 49.6694], [0.1231, 49.67], [0.1178, 49.6622], [0.1241, 49.6699], [0.1413, 49.6691], [0.1509, 49.6639], [0.1519, 49.6552], [0.1461, 49.6495], [0.1508, 49.6537], [0.1534, 49.645], [0.0725, 49.533], [0.0656, 49.5127], [0.0698, 49.5064], [0.0887, 49.5], [0.0939, 49.4927], [0.0906, 49.4865], [0.0968, 49.4916], [0.0936, 49.4893], [0.0984, 49.4872], [0.0927, 49.4877], [0.1075, 49.4842], [0.1106, 49.4897], [0.1161, 49.4839], [0.1057, 49.4811], [0.148, 49.471], [0.1686, 49.4761], [0.1744, 49.4686], [0.1263, 49.4695], [0.0895, 49.4844], [0.1125, 49.471], [0.1085, 49.4673], [0.113, 49.4704], [0.1205, 49.4634], [0.1785, 49.4559], [0.1518, 49.4519], [0.1143, 49.4579], [0.1055, 49.4653], [0.1148, 49.4575], [0.1519, 49.4517], [0.2233, 49.456], [0.2691, 49.4536], [0.2721, 49.4425], [0.2734, 49.4534], [0.3715, 49.4446], [0.4353, 49.46], [0.4855, 49.4822], [0.5028, 49.4853], [0.5229, 49.4793], [0.5728, 49.4387], [0.5905, 49.4306], [0.6144, 49.4299], [0.6426, 49.4445], [0.6495, 49.438], [0.6364, 49.4367], [0.6299, 49.4228], [0.6455, 49.4262], [0.6394, 49.4184], [0.6445, 49.4149], [0.6524, 49.422], [0.66, 49.4158], [0.6494, 49.409], [0.6646, 49.4016], [0.6905, 49.4065], [0.7052, 49.4023], [0.7081, 49.4111], [0.7387, 49.4082], [0.7423, 49.413], [0.758, 49.4143], [0.7671, 49.4201], [0.7833, 49.4107], [0.7981, 49.4175], [0.805, 49.4115], [0.7993, 49.427], [0.8027, 49.4276], [0.8104, 49.4053], [0.823, 49.3963], [0.8621, 49.3923], [0.8783, 49.3963], [0.8738, 49.3909], [0.8855, 49.3882], [0.8808, 49.3874], [0.8857, 49.3833], [0.8788, 49.3725], [0.8931, 49.3723], [0.8959, 49.3796], [0.9179, 49.3854], [0.9183, 49.3697], [0.9245, 49.3589], [0.9209, 49.3532], [0.9308, 49.3437], [0.9207, 49.3382], [0.8821, 49.3479], [0.8712, 49.3418], [0.8603, 49.3468], [0.8564, 49.3437], [0.8595, 49.3398], [0.848, 49.3361], [0.8528, 49.3315], [0.8419, 49.3295], [0.8444, 49.3248], [0.8629, 49.3279], [0.8647, 49.3226], [0.8877, 49.3211], [0.8919, 49.3142], [0.8992, 49.3189], [0.8927, 49.3111], [0.8964, 49.3031], [0.8925, 49.3028], [0.9007, 49.2971], [0.9103, 49.2986], [0.907, 49.3077], [0.929, 49.3139], [0.9399, 49.3228], [0.9413, 49.3132], [0.9503, 49.3049], [0.9502, 49.2964], [0.9634, 49.2945], [0.9573, 49.2885], [0.9714, 49.2852], [0.9589, 49.2867], [0.9563, 49.2801], [0.9496, 49.2797], [0.9562, 49.2713], [0.9733, 49.2809], [0.9746, 49.2732], [0.9887, 49.2684], [0.985, 49.2607], [1.0065, 49.2652], [1.0082, 49.2626], [0.9922, 49.2579], [0.9932, 49.2533], [1.0051, 49.2507], [1.0145, 49.253], [1.0037, 49.2564], [1.0164, 49.2535], [1.0193, 49.2566], [1.0157, 49.2587], [1.0367, 49.261], [1.0388, 49.2577], [1.0492, 49.2635], [1.0512, 49.2584], [1.0532, 49.2623], [1.0629, 49.259], [1.065, 49.263], [1.052, 49.2729], [1.0688, 49.2767], [1.0481, 49.2979], [1.0861, 49.3095], [1.1336, 49.3099], [1.1346, 49.3249], [1.1457, 49.3295], [1.1455, 49.3353], [1.1546, 49.3351], [1.1632, 49.3428], [1.1686, 49.336], [1.1815, 49.3441], [1.1876, 49.3414], [1.185, 49.338], [1.2033, 49.3366], [1.199, 49.3508], [1.2096, 49.3526], [1.2179, 49.3488], [1.2722, 49.3463], [1.2722, 49.3569], [1.2818, 49.3569], [1.2828, 49.3631], [1.2865, 49.3629], [1.2859, 49.3743], [1.2899, 49.3758], [1.2851, 49.3881], [1.2916, 49.3883], [1.2931, 49.395], [1.308, 49.3954], [1.3134, 49.4146], [1.3154, 49.4077], [1.3093, 49.4286], [1.327, 49.4315], [1.3366, 49.4277], [1.3374, 49.4389], [1.3473, 49.4346], [1.3512, 49.4379], [1.341, 49.4422], [1.3429, 49.4465], [1.371, 49.451], [1.3865, 49.4633], [1.3912, 49.4607], [1.3836, 49.456], [1.3805, 49.4499], [1.3838, 49.4482], [1.3938, 49.4493], [1.4008, 49.4568], [1.4308, 49.4559], [1.4488, 49.4502], [1.4762, 49.4516], [1.4961, 49.4463], [1.5036, 49.4382], [1.5297, 49.4424], [1.5371, 49.43], [1.5474, 49.441], [1.5764, 49.4405], [1.5751, 49.4375], [1.5917, 49.4273], [1.5989, 49.4207], [1.5939, 49.4186], [1.6045, 49.4117], [1.6139, 49.4099], [1.6283, 49.4151], [1.6319, 49.4083], [1.6573, 49.399], [1.668, 49.4072], [1.6804, 49.4063], [1.6945, 49.3951], [1.6986, 49.3989], [1.6941, 49.4013], [1.7044, 49.4107], [1.7073, 49.4066], [1.714, 49.4093]]]}}]}