{"type": "FeatureCollection", "parent": {"osm_id": 3795635, "name": "Okinawa Prefecture", "admin_level": "4", "kind": "subdivision_1", "child_kind": "subdivision_2", "iso": "JP-47"}, "features": [{"type": "Feature", "properties": {"osm_type": "relation", "osm_id": 392623099, "name": "Yomitan", "admin_level": "6", "kind": "subdivision_2", "parent_osm_id": 3795635, "parent_name": "Okinawa Prefecture", "parent_iso": "JP-47"}, "geometry": {"type": "Polygon", "coordinates": [[[127.7419, 26.4223], [127.7335, 26.4253], [127.7249, 26.4403], [127.7116, 26.4408], [127.7172, 26.4331], [127.7158, 26.4041], [127.7382, 26.3628], [127.7465, 26.3613], [127.755, 26.3681], [127.7676, 26.3693], [127.7731, 26.3911], [127.7847, 26.4039], [127.786, 26.4159], [127.7645, 26.4225], [127.7491, 26.4156], [127.7419, 26.4223]]]}}, {"type": "Feature", "properties": {"osm_type": "relation", "osm_id": 484222433, "name": "Yamato", "admin_level": "6", "kind": "subdivision_2", "parent_osm_id": 3795635, "parent_name": "Okinawa Prefecture", "parent_iso": "JP-47"}, "geometry": {"type": "Polygon", "coordinates": [[[129.3606, 28.2842], [129.3605, 28.2933], [129.3991, 28.3076], [129.4049, 28.3044], [129.4044, 28.3235], [129.4098, 28.3269], [129.4398, 28.3254], [129.446, 28.3337], [129.4263, 28.3456], [129.4223, 28.3721], [129.3948, 28.3851], [129.4044, 28.3778], [129.4088, 28.3663], [129.4001, 28.3559], [129.3959, 28.3682], [129.3877, 28.3737], [129.3667, 28.3546], [129.3448, 28.3695], [129.3391, 28.3685], [129.3265, 28.3501], [129.3116, 28.3438], [129.313, 28.335], [129.3051, 28.3301], [129.292, 28.3274], [129.2856, 28.332], [129.283, 28.3276], [129.2651, 28.3276], [129.259, 28.3234], [129.2652, 28.3177], [129.26, 28.3104], [129.2653, 28.3069], [129.2881, 28.3041], [129.3033, 28.3102], [129.3174, 28.2961], [129.3423, 28.2953], [129.3539, 28.2833], [129.3606, 28.2842]]]}}, {"type": "Feature", "properties": {"osm_type": "relation", "osm_id": 586899043, "name": "China", "admin_level": "6", "kind": "subdivision_2", "parent_osm_id": 3795635, "parent_name": "Okinawa Prefecture", "parent_iso": "JP-47"}, "geometry": {"type": "Polygon", "coordinates": [[[128.5777, 27.4011], [128.5589, 27.3958], [128.5331, 27.4052], [128.5236, 27.391], [128.52, 27.3732], [128.5315, 27.3486], [128.5598, 27.3291], [128.579, 27.3313], [128.6069, 27.3447], [128.624, 27.3622], [128.6022, 27.3848], [128.5919, 27.375], [128.5788, 27.3776], [128.5747, 27.3813], [128.5801, 27.3908], [128.5777, 27.4011]]]}}, {"type": "Feature", "properties": {"osm_type": "relation", "osm_id": 768649359, "name": "Amagi", "admin_level": "6", "kind": "subdivision_2", "parent_osm_id": 3795635, "parent_name": "Okinawa Prefecture", "parent_iso": "JP-47"}, "geometry": {"type": "Polygon", "coordinates": [[[128.9081, 27.8926], [128.8997, 27.8929], [128.8897, 27.8827], [128.8921, 27.8527], [128.8836, 27.8357], [128.8816, 27.8464], [128.8789, 27.8288], [128.8917, 27.8194], [128.8873, 27.807], [128.8893, 27.787], [128.8954, 27.7834], [128.8969, 27.7719], [128.9072, 27.7633], [128.9056, 27.7498], [128.9232, 27.7408], [128.9531, 27.7392], [128.9547, 27.7465], [128.9705, 27.7519], [128.978, 27.7653], [128.9768, 27.772], [128.9849, 27.7808], [128.9685, 27.7864], [128.96, 27.7969], [128.943, 27.8001], [128.9325, 27.8166], [128.9238, 27.8151], [128.9276, 27.8284], [128.9208, 27.8316], [128.9169, 27.8433], [128.933, 27.8542], [128.9266, 27.87], [128.9076, 27.872], [128.9081, 27.8926]]]}}, {"type": "Feature", "properties": {"osm_type": "relation", "osm_id": 820661789, "name": "Tokunoshima", "admin_level": "6", "kind": "subdivision_2", "parent_osm_id": 3795635, "parent_name": "Okinawa Prefecture", "parent_iso": "JP-47"}, "geometry": {"type": "Polygon", "coordinates": [[[128.9531, 27.7392], [128.9561, 27.7377], [128.9519, 27.7222], [128.97, 27.7189], [128.9715, 27.7222], [128.9982, 27.6958], [129.004, 27.6985], [129.0079, 27.711], [129.0213, 27.7176], [129.0212, 27.742], [129.0321, 27.7463], [129.0377, 27.7682], [129.0336, 27.7746], [129.0143, 27.7815], [129.0164, 27.7856], [128.9973, 27.8056], [128.9861, 27.8044], [128.9812, 27.8122], [128.9686, 27.8182], [128.9664, 27.827], [128.9741, 27.8313], [128.9656, 27.841], [128.9716, 27.8552], [128.9558, 27.8612], [128.9652, 27.8711], [128.9759, 27.8724], [128.9695, 27.8929], [128.9276, 27.8886], [128.9081, 27.8926], [128.9076, 27.872], [128.9266, 27.87], [128.933, 27.8542], [128.9169, 27.8433], [128.9208, 27.8316], [128.9276, 27.8284], [128.9238, 27.8151], [128.9325, 27.8166], [128.943, 27.8001], [128.96, 27.7969], [128.9685, 27.7864], [128.9849, 27.7808], [128.9768, 27.772], [128.978, 27.7653], [128.9705, 27.7519], [128.9547, 27.7465], [128.9531, 27.7392]]]}}, {"type": "Feature", "properties": {"osm_type": "relation", "osm_id": 229705735, "name": "Yoron", "admin_level": "6", "kind": "subdivision_2", "parent_osm_id": 3795635, "parent_name": "Okinawa Prefecture", "parent_iso": "JP-47"}, "geometry": {"type": "Polygon", "coordinates": [[[128.432, 27.0681], [128.4194, 27.0648], [128.412, 27.0476], [128.3974, 27.051], [128.3983, 27.0371], [128.4056, 27.0383], [128.4125, 27.0283], [128.42, 27.029], [128.4246, 27.0226], [128.4453, 27.019], [128.4579, 27.0239], [128.4545, 27.0497], [128.4441, 27.0626], [128.432, 27.0681]]]}}, {"type": "Feature", "properties": {"osm_type": "relation", "osm_id": 342962719, "name": "Tatsugo", "admin_level": "6", "kind": "subdivision_2", "parent_osm_id": 3795635, "parent_name": "Okinawa Prefecture", "parent_iso": "JP-47"}, "geometry": {"type": "Polygon", "coordinates": [[[129.6434, 28.4324], [129.6392, 28.4164], [129.6202, 28.4184], [129.619, 28.4275], [129.6301, 28.436], [129.6283, 28.4455], [129.6209, 28.45], [129.6152, 28.4465], [129.6198, 28.4403], [129.6178, 28.4324], [129.6121, 28.4319], [129.6131, 28.4372], [129.603, 28.4317], [129.6021, 28.4154], [129.5962, 28.4191], [129.5965, 28.4144], [129.5897, 28.4137], [129.5973, 28.436], [129.6068, 28.4365], [129.605, 28.4513], [129.615, 28.4656], [129.6215, 28.4676], [129.62, 28.4767], [129.5952, 28.4749], [129.5882, 28.4668], [129.5766, 28.4668], [129.57, 28.4575], [129.5629, 28.4588], [129.5628, 28.4508], [129.5583, 28.4479], [129.5442, 28.4625], [129.5413, 28.4595], [129.5503, 28.4386], [129.5454, 28.4273], [129.5482, 28.4122], [129.5427, 28.4051], [129.5577, 28.407], [129.5571, 28.3995], [129.551, 28.3901], [129.5524, 28.3823], [129.5418, 28.3767], [129.5371, 28.366], [129.5308, 28.3671], [129.5219, 28.3539], [129.5436, 28.3436], [129.5709, 28.3454], [129.5843, 28.365], [129.5934, 28.3669], [129.5977, 28.3807], [129.6084, 28.3888], [129.6133, 28.4008], [129.6474, 28.4084], [129.6483, 28.4224], [129.6434, 28.4324]]]}}, {"type": "Feature", "properties": {"osm_type": "relation", "osm_id": 229485291, "name": "Wadomari", "admin_level": "6", "kind": "subdivision_2", "parent_osm_id": 3795635, "parent_name": "Okinawa Prefecture", "parent_iso": "JP-47"}, "geometry": {"type": "Polygon", "coordinates": [[[128.624, 27.3622], [128.6361, 27.3652], [128.6649, 27.4029], [128.676, 27.4136], [128.708, 27.4285], [128.7137, 27.4348], [128.7112, 27.4389], [128.6915, 27.4408], [128.681, 27.4313], [128.6549, 27.4235], [128.6349, 27.4093], [128.6212, 27.4049], [128.6131, 27.4091], [128.5964, 27.3978], [128.5777, 27.4011], [128.5801, 27.3908], [128.5747, 27.3813], [128.5788, 27.3776], [128.5919, 27.375], [128.6022, 27.3848], [128.624, 27.3622]]]}}, {"type": "Feature", "properties": {"osm_type": "relation", "osm_id": 298043997, "name": "Isen", "admin_level": "6", "kind": "subdivision_2", "parent_osm_id": 3795635, "parent_name": "Okinawa Prefecture", "parent_iso": "JP-47"}, "geometry": {"type": "Polygon", "coordinates": [[[128.9032, 27.7532], [128.8997, 27.736], [128.881, 27.7223], [128.8933, 27.708], [128.9166, 27.6963], [128.9258, 27.666], [128.9362, 27.661], [128.9663, 27.6711], [128.9872, 27.6702], [129.0001, 27.6906], [128.9832, 27.7114], [128.9715, 27.7222], [128.97, 27.7189], [128.9519, 27.7222], [128.9561, 27.7377], [128.9232, 27.7408], [128.9032, 27.7532]]]}}, {"type": "Feature", "properties": {"osm_type": "relation", "osm_id": 254905107, "name": "Amami", "admin_level": "6", "kind": "subdivision_2", "parent_osm_id": 3795635, "parent_name": "Okinawa Prefecture", "parent_iso": "JP-47"}, "geometry": {"type": "MultiPolygon", "coordinates": [[[[129.4301, 28.1935], [129.4333, 28.1988], [129.4408, 28.195], [129.4536, 28.1996], [129.452, 28.2046], [129.4621, 28.2113], [129.4768, 28.2106], [129.4716, 28.2213], [129.4555, 28.2326], [129.448, 28.2259], [129.4349, 28.2375], [129.4073, 28.2486], [129.4392, 28.2449], [129.4459, 28.2486], [129.4432, 28.2509], [129.4489, 28.2613], [129.46, 28.2681], [129.4552, 28.2751], [129.4544, 28.2946], [129.4527, 28.2883], [129.4467, 28.2874], [129.4444, 28.2924], [129.4618, 28.2974], [129.4827, 28.2888], [129.5, 28.2983], [129.5377, 28.3064], [129.5448, 28.3116], [129.5439, 28.3159], [129.5343, 28.3204], [129.5332, 28.3269], [129.5539, 28.3343], [129.5624, 28.3328], [129.5709, 28.3454], [129.5436, 28.3436], [129.5219, 28.3539], [129.5308, 28.3671], [129.5371, 28.366], [129.5418, 28.3767], [129.5524, 28.3823], [129.551, 28.3901], [129.5571, 28.3995], [129.5577, 28.407], [129.5427, 28.4051], [129.5482, 28.4122], [129.5454, 28.4273], [129.5503, 28.4386], [129.5413, 28.4595], [129.5332, 28.4482], [129.5216, 28.4452], [129.5164, 28.4352], [129.519, 28.4262], [129.5111, 28.4113], [129.5226, 28.3998], [129.5078, 28.3991], [129.4999, 28.3829], [129.493, 28.3841], [129.4967, 28.403], [129.4901, 28.413], [129.477, 28.4001], [129.4678, 28.402], [129.4702, 28.4102], [129.463, 28.4137], [129.4561, 28.411], [129.4474, 28.3875], [129.45, 28.3823], [129.446, 28.38], [129.4311, 28.3832], [129.4254, 28.3893], [129.405, 28.3826], [129.3948, 28.3851], [129.4223, 28.3721], [129.4263, 28.3456], [129.446, 28.3337], [129.4398, 28.3254], [129.4098, 28.3269], [129.4044, 28.3235], [129.4049, 28.3044], [129.3991, 28.3076], [129.3605, 28.2933], [129.3606, 28.2842], [129.3795, 28.2709], [129.3593, 28.2615], [129.3433, 28.2364], [129.3634, 28.2174], [129.3895, 28.212], [129.4028, 28.2181], [129.4069, 28.2119], [129.4156, 28.2136], [129.4301, 28.1935]]], [[[129.6338, 28.4062], [129.6643, 28.3975], [129.669, 28.4088], [129.6941, 28.4135], [129.7089, 28.4291], [129.7056, 28.423], [129.7104, 28.4222], [129.719, 28.4391], [129.7137, 28.4468], [129.7221, 28.458], [129.7169, 28.4655], [129.719, 28.4731], [129.7047, 28.4767], [129.6983, 28.4841], [129.6903, 28.5028], [129.6937, 28.5101], [129.6901, 28.5303], [129.6769, 28.5266], [129.6575, 28.5], [129.6467, 28.5031], [129.6565, 28.4815], [129.6717, 28.468], [129.6735, 28.4576], [129.666, 28.4474], [129.6727, 28.4425], [129.6645, 28.4405], [129.6594, 28.4579], [129.6492, 28.4685], [129.652, 28.4569], [129.6483, 28.4487], [129.6589, 28.4321], [129.6518, 28.4232], [129.6434, 28.4324], [129.6483, 28.4224], [129.6474, 28.4084], [129.6338, 28.4062]]]]}}, {"type": "Feature", "properties": {"osm_type": "relation", "osm_id": 558077813, "name": "Kikai", "admin_level": "6", "kind": "subdivision_2", "parent_osm_id": 3795635, "parent_name": "Okinawa Prefecture", "parent_iso": "JP-47"}, "geometry": {"type": "Polygon", "coordinates": [[[130.019, 28.3786], [130.0095, 28.3763], [129.9509, 28.3266], [129.9231, 28.3236], [129.9132, 28.3119], [129.9197, 28.2905], [129.9301, 28.2922], [129.9438, 28.2744], [129.9778, 28.288], [129.9996, 28.3192], [130.0047, 28.3316], [130.0008, 28.337], [130.0179, 28.338], [130.031, 28.3538], [130.0269, 28.3575], [130.0341, 28.3584], [130.0318, 28.3711], [130.019, 28.3786]]]}}, {"type": "Feature", "properties": {"osm_type": "relation", "osm_id": 716174750, "name": "Iheya", "admin_level": "6", "kind": "subdivision_2", "parent_osm_id": 3795635, "parent_name": "Okinawa Prefecture", "parent_iso": "JP-47"}, "geometry": {"type": "MultiPolygon", "coordinates": [[[[127.9239, 27.0012], [127.9127, 26.9952], [127.9159, 26.9913], [127.9248, 26.9931], [127.9273, 26.9987], [127.9239, 27.0012]]], [[[128.0208, 27.0945], [127.9964, 27.0891], [127.9873, 27.0748], [127.9513, 27.045], [127.9322, 27.0193], [127.9378, 27.0073], [127.9346, 26.9949], [127.9419, 27.0159], [127.9635, 27.0219], [127.9667, 27.0291], [127.9632, 27.0316], [127.9716, 27.0398], [127.9914, 27.0442], [128.0012, 27.0748], [128.0219, 27.0902], [128.0208, 27.0945]]]]}}, {"type": "Feature", "properties": {"osm_type": "relation", "osm_id": 846053627, "name": "Kunigami", "admin_level": "6", "kind": "subdivision_2", "parent_osm_id": 3795635, "parent_name": "Okinawa Prefecture", "parent_iso": "JP-47"}, "geometry": {"type": "Polygon", "coordinates": [[[128.2648, 26.6677], [128.2784, 26.6751], [128.2815, 26.6967], [128.294, 26.7019], [128.2911, 26.7085], [128.2994, 26.7128], [128.2936, 26.7173], [128.3025, 26.7212], [128.3061, 26.7299], [128.3185, 26.7345], [128.3183, 26.7433], [128.3271, 26.7506], [128.3212, 26.757], [128.3265, 26.7785], [128.317, 26.7932], [128.3209, 26.796], [128.3207, 26.8122], [128.3047, 26.831], [128.3065, 26.8435], [128.2979, 26.8463], [128.2902, 26.8416], [128.2803, 26.8563], [128.262, 26.8665], [128.2654, 26.8727], [128.2574, 26.8755], [128.2467, 26.868], [128.2441, 26.859], [128.2531, 26.8511], [128.2535, 26.8435], [128.2339, 26.8117], [128.2312, 26.7973], [128.2263, 26.7972], [128.2187, 26.7843], [128.2044, 26.7744], [128.2025, 26.766], [128.1907, 26.7618], [128.1835, 26.7495], [128.1635, 26.7431], [128.1533, 26.7458], [128.1505, 26.7411], [128.1554, 26.7403], [128.1605, 26.7299], [128.1547, 26.7177], [128.1903, 26.6999], [128.2001, 26.6896], [128.2061, 26.6897], [128.2084, 26.6987], [128.222, 26.7083], [128.2425, 26.7031], [128.2439, 26.6898], [128.2648, 26.6677]]]}}, {"type": "Feature", "properties": {"osm_type": "relation", "osm_id": 817720801, "name": "Ogimi", "admin_level": "6", "kind": "subdivision_2", "parent_osm_id": 3795635, "parent_name": "Okinawa Prefecture", "parent_iso": "JP-47"}, "geometry": {"type": "Polygon", "coordinates": [[[128.1547, 26.7177], [128.1415, 26.7077], [128.1177, 26.7031], [128.0988, 26.681], [128.1048, 26.6702], [128.1143, 26.6713], [128.1252, 26.6613], [128.1112, 26.6593], [128.1129, 26.6674], [128.1088, 26.6628], [128.0971, 26.6622], [128.0806, 26.6457], [128.0857, 26.629], [128.0983, 26.6152], [128.1094, 26.6304], [128.117, 26.6296], [128.1334, 26.6477], [128.1575, 26.6421], [128.2001, 26.6896], [128.1903, 26.6999], [128.1547, 26.7177]]]}}, {"type": "Feature", "properties": {"osm_type": "relation", "osm_id": 985780475, "name": "Higashi", "admin_level": "6", "kind": "subdivision_2", "parent_osm_id": 3795635, "parent_name": "Okinawa Prefecture", "parent_iso": "JP-47"}, "geometry": {"type": "Polygon", "coordinates": [[[128.2001, 26.6896], [128.1575, 26.6421], [128.1334, 26.6477], [128.117, 26.6296], [128.1094, 26.6304], [128.0957, 26.6093], [128.1128, 26.5992], [128.1175, 26.5907], [128.1244, 26.5902], [128.1286, 26.5927], [128.1236, 26.6027], [128.1508, 26.5976], [128.1551, 26.6088], [128.1456, 26.6233], [128.1483, 26.6292], [128.1594, 26.6308], [128.182, 26.624], [128.212, 26.6262], [128.2346, 26.6304], [128.2446, 26.6376], [128.2563, 26.659], [128.264, 26.6602], [128.2648, 26.6677], [128.2439, 26.6898], [128.2425, 26.7031], [128.222, 26.7083], [128.2084, 26.6987], [128.2061, 26.6897], [128.2001, 26.6896]]]}}, {"type": "Feature", "properties": {"osm_type": "relation", "osm_id": 486166775, "name": "Nago", "admin_level": "6", "kind": "subdivision_2", "parent_osm_id": 3795635, "parent_name": "Okinawa Prefecture", "parent_iso": "JP-47"}, "geometry": {"type": "MultiPolygon", "coordinates": [[[[128.0806, 26.6457], [128.0522, 26.6348], [128.034, 26.6354], [128.0276, 26.6285], [128.0069, 26.6302], [128.0019, 26.6406], [127.9886, 26.6466], [127.9856, 26.6396], [127.9775, 26.6371], [127.9751, 26.6414], [127.9699, 26.6359], [127.9651, 26.6402], [127.9512, 26.6372], [127.9453, 26.6306], [127.9205, 26.634], [127.9122, 26.628], [127.9089, 26.6191], [127.9003, 26.6146], [127.9001, 26.6057], [127.9127, 26.6012], [127.921, 26.6094], [127.9275, 26.6088], [127.9831, 26.585], [127.9798, 26.5651], [127.9642, 26.5412], [127.9575, 26.5465], [127.9413, 26.5353], [127.9333, 26.5432], [127.9293, 26.5315], [127.9377, 26.5226], [127.941, 26.5102], [127.9568, 26.5123], [127.976, 26.5282], [127.9797, 26.5204], [127.9922, 26.5185], [128.0036, 26.5053], [128.0108, 26.5149], [128.025, 26.5109], [128.035, 26.5197], [128.053, 26.5204], [128.0346, 26.5497], [128.0427, 26.5591], [128.0446, 26.5479], [128.0642, 26.5519], [128.0931, 26.5345], [128.0942, 26.5413], [128.1017, 26.539], [128.1002, 26.5431], [128.1108, 26.551], [128.1397, 26.5559], [128.138, 26.5664], [128.149, 26.5695], [128.1367, 26.587], [128.1286, 26.5927], [128.1175, 26.5907], [128.1128, 26.5992], [128.0957, 26.6093], [128.0983, 26.6152], [128.0857, 26.629], [128.0806, 26.6457]]], [[[128.02, 26.6807], [127.9956, 26.6714], [127.9937, 26.6601], [128.0073, 26.6514], [128.0149, 26.6575], [128.0326, 26.6484], [128.0343, 26.6544], [128.0225, 26.6693], [128.02, 26.6807]]]]}}, {"type": "Feature", "properties": {"osm_type": "relation", "osm_id": 409040912, "name": "Nakijin", "admin_level": "6", "kind": "subdivision_2", "parent_osm_id": 3795635, "parent_name": "Okinawa Prefecture", "parent_iso": "JP-47"}, "geometry": {"type": "MultiPolygon", "coordinates": [[[[127.9886, 26.6466], [127.9823, 26.6513], [127.9909, 26.6518], [127.9932, 26.6721], [128.0082, 26.6831], [128.006, 26.6878], [127.9785, 26.6976], [127.9699, 26.6948], [127.9658, 26.6976], [127.9702, 26.7028], [127.9529, 26.7082], [127.9183, 26.7019], [127.9174, 26.683], [127.923, 26.6823], [127.9297, 26.6723], [127.9587, 26.668], [127.9629, 26.6468], [127.959, 26.6393], [127.9699, 26.6359], [127.9751, 26.6414], [127.9775, 26.6371], [127.9856, 26.6396], [127.9886, 26.6466]]], [[[128.0167, 26.7145], [128.0099, 26.7117], [128.009, 26.704], [128.0212, 26.6945], [128.0277, 26.7103], [128.0167, 26.7145]]]]}}, {"type": "Feature", "properties": {"osm_type": "relation", "osm_id": 336416738, "name": "Motobu", "admin_level": "6", "kind": "subdivision_2", "parent_osm_id": 3795635, "parent_name": "Okinawa Prefecture", "parent_iso": "JP-47"}, "geometry": {"type": "MultiPolygon", "coordinates": [[[[127.8667, 26.6538], [127.8546, 26.6482], [127.8601, 26.629], [127.8741, 26.6484], [127.8667, 26.6538]]], [[[127.959, 26.6393], [127.9629, 26.6468], [127.9569, 26.6704], [127.9495, 26.6665], [127.9451, 26.6714], [127.9297, 26.6723], [127.923, 26.6823], [127.9174, 26.683], [127.9183, 26.7019], [127.9038, 26.6989], [127.88, 26.7099], [127.8744, 26.6843], [127.8879, 26.6746], [127.8909, 26.6608], [127.8942, 26.6609], [127.879, 26.654], [127.8792, 26.6403], [127.8949, 26.6144], [127.8951, 26.6064], [127.9001, 26.6057], [127.9003, 26.6146], [127.9205, 26.634], [127.9453, 26.6306], [127.959, 26.6393]]]]}}, {"type": "Feature", "properties": {"osm_type": "relation", "osm_id": 746623957, "name": "Ie", "admin_level": "6", "kind": "subdivision_2", "parent_osm_id": 3795635, "parent_name": "Okinawa Prefecture", "parent_iso": "JP-47"}, "geometry": {"type": "Polygon", "coordinates": [[[127.8079, 26.7391], [127.7919, 26.7336], [127.7573, 26.7367], [127.7524, 26.7329], [127.7502, 26.7164], [127.7571, 26.7093], [127.7926, 26.7098], [127.8037, 26.705], [127.8287, 26.7099], [127.829, 26.724], [127.8079, 26.7391]]]}}, {"type": "Feature", "properties": {"osm_type": "relation", "osm_id": 819270069, "name": "Onna", "admin_level": "6", "kind": "subdivision_2", "parent_osm_id": 3795635, "parent_name": "Okinawa Prefecture", "parent_iso": "JP-47"}, "geometry": {"type": "Polygon", "coordinates": [[[127.786, 26.4159], [127.8172, 26.4451], [127.8354, 26.4496], [127.8355, 26.4572], [127.8529, 26.4693], [127.8732, 26.479], [127.8913, 26.4767], [127.8931, 26.4859], [127.9039, 26.4918], [127.9077, 26.4852], [127.9159, 26.485], [127.9198, 26.5006], [127.9281, 26.5001], [127.941, 26.5102], [127.9338, 26.5289], [127.9211, 26.5285], [127.9193, 26.5178], [127.906, 26.5183], [127.8922, 26.5123], [127.8872, 26.5031], [127.8702, 26.5092], [127.8695, 26.5131], [127.8556, 26.5001], [127.8509, 26.5052], [127.8439, 26.5038], [127.8402, 26.4956], [127.8458, 26.4812], [127.8355, 26.4794], [127.8268, 26.4682], [127.8111, 26.4627], [127.801, 26.4503], [127.8039, 26.4447], [127.7998, 26.4381], [127.7824, 26.4356], [127.7715, 26.4461], [127.7419, 26.4223], [127.7491, 26.4156], [127.7645, 26.4225], [127.786, 26.4159]]]}}, {"type": "Feature", "properties": {"osm_type": "relation", "osm_id": 734310004, "name": "Ginoza", "admin_level": "6", "kind": "subdivision_2", "parent_osm_id": 3795635, "parent_name": "Okinawa Prefecture", "parent_iso": "JP-47"}, "geometry": {"type": "Polygon", "coordinates": [[[127.941, 26.5102], [127.9281, 26.5001], [127.9279, 26.4943], [127.9373, 26.4854], [127.9468, 26.4646], [127.9538, 26.4738], [127.9676, 26.4681], [127.9913, 26.4752], [127.9891, 26.4806], [128.0007, 26.4831], [128.0012, 26.4935], [127.9919, 26.5041], [127.9977, 26.5096], [127.9954, 26.5158], [127.9797, 26.5204], [127.9785, 26.5276], [127.9666, 26.5232], [127.9537, 26.5109], [127.941, 26.5102]]]}}, {"type": "Feature", "properties": {"osm_type": "relation", "osm_id": 858730456, "name": "Kin", "admin_level": "6", "kind": "subdivision_2", "parent_osm_id": 3795635, "parent_name": "Okinawa Prefecture", "parent_iso": "JP-47"}, "geometry": {"type": "Polygon", "coordinates": [[[127.8354, 26.4496], [127.8416, 26.4353], [127.8523, 26.4506], [127.8708, 26.4576], [127.9165, 26.447], [127.9241, 26.439], [127.9496, 26.4388], [127.9432, 26.4506], [127.9505, 26.4563], [127.9373, 26.4854], [127.9229, 26.502], [127.9127, 26.4831], [127.9039, 26.4918], [127.8979, 26.4897], [127.8913, 26.4767], [127.8732, 26.479], [127.8405, 26.4622], [127.8354, 26.4496]]]}}, {"type": "Feature", "properties": {"osm_type": "relation", "osm_id": 775459083, "name": "Aguni", "admin_level": "6", "kind": "subdivision_2", "parent_osm_id": 3795635, "parent_name": "Okinawa Prefecture", "parent_iso": "JP-47"}, "geometry": {"type": "Polygon", "coordinates": [[[127.2314, 26.602], [127.2166, 26.5927], [127.2093, 26.5749], [127.2347, 26.58], [127.2415, 26.5774], [127.246, 26.5826], [127.2459, 26.5925], [127.24, 26.6], [127.2314, 26.602]]]}}, {"type": "Feature", "properties": {"osm_type": "relation", "osm_id": 973645219, "name": "Kadena", "admin_level": "6", "kind": "subdivision_2", "parent_osm_id": 3795635, "parent_name": "Okinawa Prefecture", "parent_iso": "JP-47"}, "geometry": {"type": "Polygon", "coordinates": [[[127.7409, 26.3629], [127.7459, 26.3426], [127.7695, 26.3412], [127.7734, 26.3459], [127.7809, 26.3417], [127.7845, 26.3487], [127.7793, 26.3509], [127.7781, 26.3662], [127.7882, 26.4074], [127.7731, 26.3911], [127.7676, 26.3693], [127.7409, 26.3629]]]}}, {"type": "Feature", "properties": {"osm_type": "relation", "osm_id": 284551999, "name": "Chatan", "admin_level": "6", "kind": "subdivision_2", "parent_osm_id": 3795635, "parent_name": "Okinawa Prefecture", "parent_iso": "JP-47"}, "geometry": {"type": "Polygon", "coordinates": [[[127.7459, 26.3426], [127.7426, 26.3312], [127.76, 26.3099], [127.757, 26.2951], [127.7793, 26.2962], [127.7759, 26.3085], [127.7859, 26.3149], [127.7786, 26.3176], [127.7821, 26.3214], [127.7722, 26.3393], [127.7778, 26.343], [127.7734, 26.3459], [127.7695, 26.3412], [127.7459, 26.3426]]]}}, {"type": "Feature", "properties": {"osm_type": "relation", "osm_id": 325464584, "name": "Kitanakagusuku", "admin_level": "6", "kind": "subdivision_2", "parent_osm_id": 3795635, "parent_name": "Okinawa Prefecture", "parent_iso": "JP-47"}, "geometry": {"type": "Polygon", "coordinates": [[[127.7793, 26.2962], [127.7871, 26.2875], [127.8042, 26.285], [127.8144, 26.2901], [127.8105, 26.2938], [127.8163, 26.3052], [127.829, 26.3039], [127.8109, 26.305], [127.8085, 26.323], [127.8014, 26.3261], [127.7759, 26.3085], [127.7793, 26.2962]]]}}, {"type": "Feature", "properties": {"osm_type": "relation", "osm_id": 939850598, "name": "Nakagusuku", "admin_level": "6", "kind": "subdivision_2", "parent_osm_id": 3795635, "parent_name": "Okinawa Prefecture", "parent_iso": "JP-47"}, "geometry": {"type": "Polygon", "coordinates": [[[127.7871, 26.2875], [127.7673, 26.2587], [127.7664, 26.2406], [127.788, 26.2316], [127.7895, 26.2485], [127.7977, 26.2653], [127.8162, 26.2774], [127.8169, 26.2834], [127.8144, 26.2901], [127.8042, 26.285], [127.7871, 26.2875]]]}}, {"type": "Feature", "properties": {"osm_type": "relation", "osm_id": 412552930, "name": "Nishihara", "admin_level": "6", "kind": "subdivision_2", "parent_osm_id": 3795635, "parent_name": "Okinawa Prefecture", "parent_iso": "JP-47"}, "geometry": {"type": "MultiPolygon", "coordinates": [[[[127.77, 26.2084], [127.7707, 26.2135], [127.763, 26.2108], [127.77, 26.2084]]], [[[127.7692, 26.2544], [127.7513, 26.2513], [127.7397, 26.2395], [127.7332, 26.2265], [127.7359, 26.2178], [127.7627, 26.211], [127.7748, 26.2147], [127.7875, 26.2259], [127.788, 26.2316], [127.7668, 26.2387], [127.7692, 26.2544]]]]}}, {"type": "Feature", "properties": {"osm_type": "relation", "osm_id": 300026179, "name": "Okinawa", "admin_level": "6", "kind": "subdivision_2", "parent_osm_id": 3795635, "parent_name": "Okinawa Prefecture", "parent_iso": "JP-47"}, "geometry": {"type": "MultiPolygon", "coordinates": [[[[127.8432, 26.3343], [127.8396, 26.3276], [127.8554, 26.3263], [127.8432, 26.3343]]], [[[127.7851, 26.408], [127.7886, 26.4045], [127.7862, 26.3883], [127.7781, 26.3662], [127.7793, 26.3509], [127.7845, 26.3487], [127.7799, 26.3409], [127.7722, 26.3393], [127.7821, 26.3214], [127.7786, 26.3176], [127.7922, 26.3163], [127.7952, 26.3223], [127.8058, 26.3261], [127.8109, 26.305], [127.829, 26.3039], [127.8292, 26.3133], [127.8475, 26.3155], [127.8348, 26.3228], [127.8425, 26.3347], [127.8296, 26.3445], [127.8248, 26.3519], [127.8266, 26.3574], [127.8212, 26.3592], [127.837, 26.382], [127.8252, 26.3929], [127.8209, 26.3889], [127.8114, 26.3997], [127.8082, 26.3933], [127.8018, 26.393], [127.7883, 26.4217], [127.7851, 26.408]]]]}}, {"type": "Feature", "properties": {"osm_type": "relation", "osm_id": 339776718, "name": "Ginowan", "admin_level": "6", "kind": "subdivision_2", "parent_osm_id": 3795635, "parent_name": "Okinawa Prefecture", "parent_iso": "JP-47"}, "geometry": {"type": "Polygon", "coordinates": [[[127.757, 26.2951], [127.7529, 26.2957], [127.7413, 26.2813], [127.7329, 26.2825], [127.7261, 26.277], [127.7319, 26.2551], [127.7388, 26.2534], [127.7423, 26.258], [127.7575, 26.2499], [127.7692, 26.2544], [127.7673, 26.2587], [127.7871, 26.2875], [127.7793, 26.2962], [127.757, 26.2951]]]}}, {"type": "Feature", "properties": {"osm_type": "relation", "osm_id": 882493886, "name": "Urasoe", "admin_level": "6", "kind": "subdivision_2", "parent_osm_id": 3795635, "parent_name": "Okinawa Prefecture", "parent_iso": "JP-47"}, "geometry": {"type": "MultiPolygon", "coordinates": [[[[127.675, 26.2461], [127.6749, 26.2504], [127.6687, 26.2505], [127.6689, 26.2461], [127.675, 26.2461]]], [[[127.753, 26.2513], [127.7423, 26.258], [127.7388, 26.2534], [127.7319, 26.2551], [127.7294, 26.2676], [127.7245, 26.2724], [127.7199, 26.2701], [127.7195, 26.2747], [127.7066, 26.2732], [127.6909, 26.2552], [127.6782, 26.2567], [127.6836, 26.2558], [127.6851, 26.2426], [127.704, 26.2335], [127.7384, 26.2363], [127.753, 26.2513]]]]}}, {"type": "Feature", "properties": {"osm_type": "relation", "osm_id": 395814983, "name": "Naha", "admin_level": "6", "kind": "subdivision_2", "parent_osm_id": 3795635, "parent_name": "Okinawa Prefecture", "parent_iso": "JP-47"}, "geometry": {"type": "Polygon", "coordinates": [[[127.7384, 26.2363], [127.704, 26.2335], [127.696, 26.2398], [127.6689, 26.2461], [127.6722, 26.2386], [127.6671, 26.2377], [127.6671, 26.2323], [127.6737, 26.2323], [127.6751, 26.2402], [127.678, 26.2365], [127.6794, 26.2401], [127.6811, 26.2265], [127.6617, 26.2173], [127.6743, 26.2092], [127.6712, 26.2053], [127.6531, 26.2177], [127.6442, 26.2115], [127.6366, 26.1986], [127.6437, 26.1886], [127.6441, 26.1778], [127.6529, 26.176], [127.6709, 26.1822], [127.6806, 26.1891], [127.6832, 26.1984], [127.7077, 26.1903], [127.7177, 26.1955], [127.7225, 26.2097], [127.7359, 26.2178], [127.7332, 26.2265], [127.7384, 26.2363]]]}}, {"type": "Feature", "properties": {"osm_type": "relation", "osm_id": 132858263, "name": "Tomigusuku", "admin_level": "6", "kind": "subdivision_2", "parent_osm_id": 3795635, "parent_name": "Okinawa Prefecture", "parent_iso": "JP-47"}, "geometry": {"type": "MultiPolygon", "coordinates": [[[[127.6555, 26.16], [127.6499, 26.1596], [127.6502, 26.1527], [127.6678, 26.1536], [127.6555, 26.16]]], [[[127.6441, 26.1778], [127.64, 26.1753], [127.6483, 26.1739], [127.6508, 26.1642], [127.6537, 26.1653], [127.6459, 26.1597], [127.6469, 26.1558], [127.6508, 26.1612], [127.6607, 26.1613], [127.6692, 26.1522], [127.6799, 26.1593], [127.6836, 26.1556], [127.6907, 26.1658], [127.7007, 26.1639], [127.7137, 26.1801], [127.6993, 26.1955], [127.6832, 26.1984], [127.6806, 26.1891], [127.6709, 26.1822], [127.6529, 26.176], [127.6441, 26.1778]]]]}}, {"type": "Feature", "properties": {"osm_type": "relation", "osm_id": 929026779, "name": "Itoman", "admin_level": "6", "kind": "subdivision_2", "parent_osm_id": 3795635, "parent_name": "Okinawa Prefecture", "parent_iso": "JP-47"}, "geometry": {"type": "Polygon", "coordinates": [[[127.6692, 26.1522], [127.648, 26.1453], [127.6527, 26.1268], [127.6559, 26.1274], [127.6535, 26.1351], [127.6684, 26.1336], [127.6683, 26.1295], [127.6626, 26.13], [127.6612, 26.1154], [127.6645, 26.1146], [127.6594, 26.1044], [127.6586, 26.0817], [127.6772, 26.0745], [127.6982, 26.0872], [127.724, 26.09], [127.7316, 26.0981], [127.7207, 26.1056], [127.7083, 26.1267], [127.7058, 26.1331], [127.7126, 26.1444], [127.6966, 26.1514], [127.7065, 26.1646], [127.7041, 26.1696], [127.7007, 26.1639], [127.6907, 26.1658], [127.6836, 26.1556], [127.6799, 26.1593], [127.6692, 26.1522]]]}}, {"type": "Feature", "properties": {"osm_type": "relation", "osm_id": 871895410, "name": "Yaese", "admin_level": "6", "kind": "subdivision_2", "parent_osm_id": 3795635, "parent_name": "Okinawa Prefecture", "parent_iso": "JP-47"}, "geometry": {"type": "Polygon", "coordinates": [[[127.7041, 26.1696], [127.7065, 26.1646], [127.6966, 26.1514], [127.7026, 26.1457], [127.7104, 26.1479], [127.7121, 26.1394], [127.7058, 26.1331], [127.7118, 26.1184], [127.7207, 26.1056], [127.7345, 26.0993], [127.7478, 26.1187], [127.7625, 26.1253], [127.7394, 26.1518], [127.7309, 26.1522], [127.7317, 26.1662], [127.7249, 26.1698], [127.7244, 26.1765], [127.7137, 26.1801], [127.7041, 26.1696]]]}}, {"type": "Feature", "properties": {"osm_type": "relation", "osm_id": 502301342, "name": "Haebaru", "admin_level": "6", "kind": "subdivision_2", "parent_osm_id": 3795635, "parent_name": "Okinawa Prefecture", "parent_iso": "JP-47"}, "geometry": {"type": "Polygon", "coordinates": [[[127.7359, 26.2178], [127.7275, 26.2151], [127.7216, 26.1984], [127.7077, 26.1903], [127.7137, 26.1801], [127.7244, 26.1765], [127.7249, 26.1698], [127.7295, 26.1686], [127.7408, 26.1974], [127.7486, 26.2014], [127.7359, 26.2178]]]}}, {"type": "Feature", "properties": {"osm_type": "relation", "osm_id": 229050225, "name": "Nanjo", "admin_level": "6", "kind": "subdivision_2", "parent_osm_id": 3795635, "parent_name": "Okinawa Prefecture", "parent_iso": "JP-47"}, "geometry": {"type": "MultiPolygon", "coordinates": [[[[127.9095, 26.1719], [127.8833, 26.1564], [127.8885, 26.1542], [127.9095, 26.1719]]], [[[127.7625, 26.1253], [127.7754, 26.135], [127.7931, 26.135], [127.8035, 26.1474], [127.8105, 26.1489], [127.8119, 26.1552], [127.8311, 26.1666], [127.8295, 26.1785], [127.8211, 26.1825], [127.8208, 26.1914], [127.7951, 26.1854], [127.7875, 26.1707], [127.778, 26.173], [127.7759, 26.1887], [127.7655, 26.1863], [127.7624, 26.1947], [127.7408, 26.1974], [127.7295, 26.1686], [127.7309, 26.1522], [127.7394, 26.1518], [127.7625, 26.1253]]]]}}, {"type": "Feature", "properties": {"osm_type": "relation", "osm_id": 124733365, "name": "Yonabaru", "admin_level": "6", "kind": "subdivision_2", "parent_osm_id": 3795635, "parent_name": "Okinawa Prefecture", "parent_iso": "JP-47"}, "geometry": {"type": "MultiPolygon", "coordinates": [[[[127.763, 26.2108], [127.7567, 26.2038], [127.7709, 26.2024], [127.7657, 26.2047], [127.77, 26.2084], [127.763, 26.2108]]], [[[127.7416, 26.2149], [127.7393, 26.2104], [127.7486, 26.2014], [127.7471, 26.1961], [127.7624, 26.1947], [127.7655, 26.1863], [127.7759, 26.1887], [127.7694, 26.1995], [127.7563, 26.2039], [127.7627, 26.211], [127.7416, 26.2149]]]]}}, {"type": "Feature", "properties": {"osm_type": "relation", "osm_id": 963710308, "name": "Miyakojima", "admin_level": "6", "kind": "subdivision_2", "parent_osm_id": 3795635, "parent_name": "Okinawa Prefecture", "parent_iso": "JP-47"}, "geometry": {"type": "MultiPolygon", "coordinates": [[[[125.2418, 24.7317], [125.2387, 24.7219], [125.2418, 24.7156], [125.2567, 24.7155], [125.2557, 24.724], [125.2418, 24.7317]]], [[[125.1415, 24.8424], [125.1356, 24.8347], [125.1384, 24.8164], [125.1477, 24.8066], [125.1704, 24.8035], [125.1755, 24.8136], [125.1586, 24.8309], [125.1476, 24.8321], [125.1415, 24.8424]]], [[[125.1633, 24.8655], [125.1566, 24.8565], [125.1599, 24.8402], [125.1564, 24.8339], [125.178, 24.8113], [125.2011, 24.8031], [125.2159, 24.8065], [125.2217, 24.8214], [125.2098, 24.8467], [125.1633, 24.8655]]], [[[125.2668, 24.915], [125.2687, 24.9031], [125.2573, 24.9077], [125.2716, 24.8922], [125.2723, 24.8812], [125.2953, 24.8495], [125.2966, 24.8373], [125.2878, 24.8432], [125.2783, 24.8382], [125.2792, 24.8101], [125.2561, 24.7947], [125.2593, 24.7843], [125.2681, 24.7831], [125.276, 24.7747], [125.2851, 24.7532], [125.2679, 24.7509], [125.2605, 24.7592], [125.2608, 24.7681], [125.2526, 24.7566], [125.2608, 24.7357], [125.2956, 24.7189], [125.2939, 24.731], [125.2974, 24.7338], [125.2964, 24.7208], [125.3089, 24.7116], [125.3223, 24.7187], [125.3415, 24.7171], [125.371, 24.7293], [125.3835, 24.7252], [125.3994, 24.7296], [125.4251, 24.7262], [125.439, 24.7294], [125.4466, 24.725], [125.4534, 24.7307], [125.4693, 24.7193], [125.4333, 24.761], [125.4031, 24.766], [125.3828, 24.7878], [125.3696, 24.7924], [125.355, 24.789], [125.3374, 24.7976], [125.3309, 24.8106], [125.3355, 24.8208], [125.3132, 24.837], [125.2985, 24.8786], [125.285, 24.8829], [125.2668, 24.915]]], [[[125.2398, 24.9383], [125.2313, 24.9354], [125.2336, 24.9289], [125.2427, 24.9224], [125.2484, 24.9223], [125.247, 24.9263], [125.2559, 24.9248], [125.2494, 24.9348], [125.2398, 24.9383]]]]}}, {"type": "Feature", "properties": {"osm_type": "relation", "osm_id": 450841149, "name": "Taketomi", "admin_level": "6", "kind": "subdivision_2", "parent_osm_id": 3795635, "parent_name": "Okinawa Prefecture", "parent_iso": "JP-47"}, "geometry": {"type": "MultiPolygon", "coordinates": [[[[123.787, 24.0718], [123.7541, 24.0628], [123.7531, 24.0531], [123.7883, 24.0456], [123.803, 24.0489], [123.8097, 24.0582], [123.809, 24.0651], [123.787, 24.0718]]], [[[123.9346, 24.2207], [123.9208, 24.2175], [123.9312, 24.2088], [123.9365, 24.2146], [123.9346, 24.2207]]], [[[123.9506, 24.2428], [123.9395, 24.2351], [123.9361, 24.2258], [123.9544, 24.2374], [123.9506, 24.2428]]], [[[124.0002, 24.2543], [123.9932, 24.2505], [123.9912, 24.2413], [124.0041, 24.2214], [124.0109, 24.2206], [124.0269, 24.2303], [124.0299, 24.2419], [124.0257, 24.2494], [124.0162, 24.2471], [124.0002, 24.2543]]], [[[124.0868, 24.3405], [124.076, 24.3253], [124.0847, 24.3118], [124.102, 24.3209], [124.0868, 24.3405]]], [[[123.9744, 24.3548], [123.9636, 24.3483], [123.9687, 24.3384], [123.9524, 24.3329], [123.9838, 24.331], [123.9936, 24.3235], [124.0037, 24.3279], [123.9897, 24.3409], [123.9923, 24.3468], [123.9744, 24.3548]]], [[[123.7313, 24.363], [123.7242, 24.3645], [123.7241, 24.3592], [123.7426, 24.3462], [123.7439, 24.354], [123.7313, 24.363]]], [[[123.7255, 24.3799], [123.7147, 24.378], [123.7119, 24.3701], [123.7186, 24.3652], [123.7222, 24.3756], [123.7287, 24.3758], [123.7255, 24.3799]]], [[[123.7819, 24.4374], [123.7657, 24.434], [123.7645, 24.4267], [123.772, 24.4272], [123.7727, 24.4176], [123.7612, 24.4144], [123.7512, 24.403], [123.7537, 24.3932], [123.743, 24.3936], [123.753, 24.377], [123.743, 24.3684], [123.7535, 24.3532], [123.7447, 24.3427], [123.7502, 24.3384], [123.7465, 24.3234], [123.7516, 24.3127], [123.7426, 24.3199], [123.7403, 24.3152], [123.7367, 24.3309], [123.7294, 24.3312], [123.7266, 24.3435], [123.7149, 24.3347], [123.7143, 24.3294], [123.7107, 24.3321], [123.7044, 24.3497], [123.7007, 24.34], [123.7112, 24.3161], [123.7038, 24.3136], [123.7008, 24.3257], [123.6866, 24.3327], [123.6802, 24.325], [123.6873, 24.3106], [123.6819, 24.3078], [123.671, 24.314], [123.6617, 24.3083], [123.6777, 24.286], [123.6863, 24.2821], [123.719, 24.2783], [123.7231, 24.2996], [123.7559, 24.2796], [123.806, 24.2696], [123.8317, 24.2722], [123.8626, 24.2563], [123.8806, 24.2562], [123.8842, 24.2698], [123.879, 24.2772], [123.8812, 24.2807], [123.9045, 24.2752], [123.8991, 24.301], [123.9129, 24.3201], [123.911, 24.324], [123.9178, 24.3246], [123.9274, 24.3152], [123.9268, 24.3427], [123.9362, 24.3496], [123.9396, 24.365], [123.9223, 24.3665], [123.917, 24.3784], [123.9061, 24.3846], [123.8869, 24.3848], [123.881, 24.3999], [123.8729, 24.404], [123.8684, 24.4043], [123.8641, 24.395], [123.8547, 24.4029], [123.8325, 24.4075], [123.8295, 24.3991], [123.817, 24.3911], [123.8095, 24.3999], [123.8119, 24.4111], [123.8031, 24.4139], [123.7998, 24.4222], [123.7819, 24.4374]]]]}}, {"type": "Feature", "properties": {"osm_type": "relation", "osm_id": 125425733, "name": "Yonaguni", "admin_level": "6", "kind": "subdivision_2", "parent_osm_id": 3795635, "parent_name": "Okinawa Prefecture", "parent_iso": "JP-47"}, "geometry": {"type": "Polygon", "coordinates": [[[123.0065, 24.4744], [122.9748, 24.4679], [122.9626, 24.4726], [122.955, 24.4621], [122.9413, 24.4563], [122.9398, 24.4481], [122.9337, 24.4488], [122.9668, 24.4376], [122.9843, 24.443], [123.0114, 24.4369], [123.0431, 24.4636], [123.0065, 24.4744]]]}}, {"type": "Feature", "properties": {"osm_type": "relation", "osm_id": 756126483, "name": "Minamidaito", "admin_level": "6", "kind": "subdivision_2", "parent_osm_id": 3795635, "parent_name": "Okinawa Prefecture", "parent_iso": "JP-47"}, "geometry": {"type": "Polygon", "coordinates": [[[131.2407, 25.8724], [131.2207, 25.8667], [131.2135, 25.8229], [131.2335, 25.8126], [131.2555, 25.8167], [131.2635, 25.8234], [131.2734, 25.8529], [131.2627, 25.8686], [131.2407, 25.8724]]]}}]}