{"type": "FeatureCollection", "parent": {"osm_id": 3795031, "name": "Kochi Prefecture", "admin_level": "4", "kind": "subdivision_1", "child_kind": "subdivision_2", "iso": "JP-39"}, "features": [{"type": "Feature", "properties": {"osm_type": "relation", "osm_id": 546909643, "name": "Ino", "admin_level": "6", "kind": "subdivision_2", "parent_osm_id": 3795031, "parent_name": "Kochi Prefecture", "parent_iso": "JP-39"}, "geometry": {"type": "Polygon", "coordinates": [[[133.3263, 33.8148], [133.3103, 33.8159], [133.2938, 33.8287], [133.2774, 33.8309], [133.2674, 33.8234], [133.2608, 33.8006], [133.2499, 33.7883], [133.2198, 33.7804], [133.2057, 33.7945], [133.1927, 33.7938], [133.1837, 33.7681], [133.1578, 33.7503], [133.1593, 33.7339], [133.1672, 33.7285], [133.1663, 33.7209], [133.1741, 33.7077], [133.2287, 33.6792], [133.2257, 33.6618], [133.2347, 33.6387], [133.2229, 33.6317], [133.2283, 33.605], [133.2379, 33.6021], [133.2658, 33.6129], [133.2806, 33.602], [133.2779, 33.5952], [133.2892, 33.5857], [133.3037, 33.5919], [133.313, 33.5738], [133.3237, 33.5708], [133.3329, 33.5583], [133.3446, 33.5653], [133.3485, 33.5591], [133.3544, 33.559], [133.3561, 33.5754], [133.3632, 33.5798], [133.3665, 33.5648], [133.3968, 33.5453], [133.4043, 33.5474], [133.3938, 33.519], [133.4301, 33.5228], [133.4366, 33.5101], [133.4491, 33.5144], [133.458, 33.5237], [133.456, 33.5326], [133.4631, 33.5356], [133.4631, 33.5443], [133.4745, 33.5627], [133.4631, 33.5733], [133.4466, 33.5673], [133.4335, 33.5758], [133.4161, 33.5779], [133.4111, 33.5891], [133.401, 33.5933], [133.4157, 33.6083], [133.4093, 33.6187], [133.399, 33.6197], [133.3945, 33.6371], [133.4006, 33.6507], [133.4127, 33.6605], [133.4494, 33.6723], [133.45, 33.6765], [133.446, 33.6862], [133.4352, 33.6939], [133.3961, 33.6807], [133.3995, 33.697], [133.3828, 33.7032], [133.3855, 33.7076], [133.3806, 33.7138], [133.3689, 33.7191], [133.3691, 33.7263], [133.3601, 33.7313], [133.3634, 33.7419], [133.3591, 33.7482], [133.3683, 33.755], [133.3646, 33.7734], [133.3509, 33.7828], [133.3591, 33.7895], [133.3355, 33.8036], [133.3263, 33.8148]]]}}, {"type": "Feature", "properties": {"osm_type": "relation", "osm_id": 279899497, "name": "Aki", "admin_level": "6", "kind": "subdivision_2", "parent_osm_id": 3795031, "parent_name": "Kochi Prefecture", "parent_iso": "JP-39"}, "geometry": {"type": "Polygon", "coordinates": [[[134.065, 33.7195], [134.0374, 33.712], [134.0272, 33.7188], [134.0195, 33.7124], [134.0018, 33.7125], [133.9906, 33.6935], [133.9776, 33.6886], [133.9602, 33.6661], [133.9193, 33.6439], [133.9091, 33.6487], [133.9036, 33.6449], [133.8983, 33.6582], [133.8864, 33.653], [133.8765, 33.6416], [133.8799, 33.628], [133.8724, 33.6202], [133.876, 33.6122], [133.8569, 33.6038], [133.8644, 33.5959], [133.8721, 33.5727], [133.8687, 33.5641], [133.8598, 33.5586], [133.8565, 33.5364], [133.8371, 33.5215], [133.836, 33.5285], [133.8251, 33.5254], [133.82, 33.5152], [133.835, 33.5128], [133.8433, 33.5062], [133.8867, 33.5016], [133.9343, 33.4873], [133.9446, 33.4736], [133.9414, 33.4645], [133.9557, 33.4461], [133.9619, 33.4613], [133.9816, 33.4782], [133.9787, 33.4831], [133.9897, 33.498], [133.9908, 33.5118], [134.0102, 33.525], [134.012, 33.5366], [134.0304, 33.5552], [134.0208, 33.57], [134.0123, 33.5681], [134.0069, 33.577], [134.01, 33.5865], [134.0208, 33.5895], [134.0226, 33.6029], [134.013, 33.6079], [134.0286, 33.6387], [134.0557, 33.6465], [134.0549, 33.6518], [134.0705, 33.6636], [134.0629, 33.6718], [134.0472, 33.6779], [134.0566, 33.6939], [134.0648, 33.6985], [134.0647, 33.7066], [134.0701, 33.7112], [134.065, 33.7195]]]}}, {"type": "Feature", "properties": {"osm_type": "relation", "osm_id": 917337631, "name": "Yasuda", "admin_level": "6", "kind": "subdivision_2", "parent_osm_id": 3795031, "parent_name": "Kochi Prefecture", "parent_iso": "JP-39"}, "geometry": {"type": "Polygon", "coordinates": [[[133.9557, 33.4461], [133.993, 33.4278], [133.9936, 33.4355], [134.0059, 33.4374], [134.0116, 33.4558], [134.0247, 33.4595], [134.0286, 33.5036], [134.0402, 33.505], [134.0557, 33.5205], [134.0691, 33.5269], [134.0369, 33.5379], [134.0257, 33.5471], [134.012, 33.5366], [134.0102, 33.525], [133.9908, 33.5118], [133.9897, 33.498], [133.9787, 33.4831], [133.9816, 33.4782], [133.9619, 33.4613], [133.9557, 33.4461]]]}}, {"type": "Feature", "properties": {"osm_type": "relation", "osm_id": 781267165, "name": "Ochi", "admin_level": "6", "kind": "subdivision_2", "parent_osm_id": 3795031, "parent_name": "Kochi Prefecture", "parent_iso": "JP-39"}, "geometry": {"type": "Polygon", "coordinates": [[[133.2283, 33.605], [133.2135, 33.5973], [133.214, 33.5703], [133.2107, 33.5673], [133.1968, 33.5745], [133.1946, 33.5663], [133.1839, 33.5659], [133.1808, 33.563], [133.1852, 33.5548], [133.179, 33.5408], [133.1483, 33.5186], [133.1521, 33.5074], [133.1469, 33.5006], [133.1508, 33.4957], [133.1463, 33.4848], [133.1582, 33.4786], [133.1594, 33.467], [133.1784, 33.4652], [133.1833, 33.4726], [133.1968, 33.4743], [133.1963, 33.4903], [133.2069, 33.5039], [133.1991, 33.5095], [133.2065, 33.514], [133.2494, 33.5038], [133.2484, 33.5155], [133.267, 33.5241], [133.2622, 33.5519], [133.2779, 33.5581], [133.3022, 33.5538], [133.2968, 33.5655], [133.3014, 33.5744], [133.2986, 33.5776], [133.3106, 33.5788], [133.3037, 33.5919], [133.2892, 33.5857], [133.2779, 33.5952], [133.2806, 33.602], [133.2658, 33.6129], [133.2379, 33.6021], [133.2283, 33.605]]]}}, {"type": "Feature", "properties": {"osm_type": "relation", "osm_id": 973128640, "name": "Geisei", "admin_level": "6", "kind": "subdivision_2", "parent_osm_id": 3795031, "parent_name": "Kochi Prefecture", "parent_iso": "JP-39"}, "geometry": {"type": "Polygon", "coordinates": [[[133.8646, 33.5934], [133.8435, 33.5768], [133.8294, 33.5835], [133.8205, 33.58], [133.8173, 33.5748], [133.8218, 33.5673], [133.8132, 33.5571], [133.7941, 33.5494], [133.77, 33.5158], [133.82, 33.5152], [133.8251, 33.5254], [133.836, 33.5285], [133.8371, 33.5215], [133.8532, 33.5305], [133.8598, 33.5586], [133.8687, 33.5641], [133.8721, 33.5727], [133.8646, 33.5934]]]}}, {"type": "Feature", "properties": {"osm_type": "relation", "osm_id": 853486583, "name": "Kounan", "admin_level": "6", "kind": "subdivision_2", "parent_osm_id": 3795031, "parent_name": "Kochi Prefecture", "parent_iso": "JP-39"}, "geometry": {"type": "Polygon", "coordinates": [[[133.8864, 33.653], [133.8757, 33.6627], [133.857, 33.6582], [133.8372, 33.6453], [133.837, 33.6331], [133.8232, 33.6271], [133.7972, 33.6028], [133.7861, 33.6168], [133.7339, 33.5933], [133.7249, 33.5999], [133.7022, 33.594], [133.7036, 33.6003], [133.6943, 33.5942], [133.6797, 33.5658], [133.6852, 33.5444], [133.68, 33.5409], [133.6818, 33.5341], [133.7226, 33.5387], [133.7487, 33.5361], [133.7559, 33.5315], [133.7541, 33.5207], [133.77, 33.5158], [133.7941, 33.5494], [133.8132, 33.5571], [133.8218, 33.5673], [133.8173, 33.5748], [133.8205, 33.58], [133.8294, 33.5835], [133.8435, 33.5768], [133.8646, 33.5934], [133.8569, 33.6038], [133.876, 33.6122], [133.8724, 33.6202], [133.8799, 33.628], [133.8765, 33.6416], [133.8864, 33.653]]]}}, {"type": "Feature", "properties": {"osm_type": "relation", "osm_id": 222722440, "name": "Kami", "admin_level": "6", "kind": "subdivision_2", "parent_osm_id": 3795031, "parent_name": "Kochi Prefecture", "parent_iso": "JP-39"}, "geometry": {"type": "Polygon", "coordinates": [[[134.065, 33.7195], [134.0684, 33.7283], [134.0561, 33.7519], [134.0588, 33.7767], [134.0553, 33.7847], [134.0459, 33.79], [134.0466, 33.7991], [134.0333, 33.8093], [134.0369, 33.8203], [134.0328, 33.8284], [133.9989, 33.8211], [133.9831, 33.8408], [133.9511, 33.8287], [133.9527, 33.8155], [133.9413, 33.7992], [133.9249, 33.8006], [133.9128, 33.7914], [133.9011, 33.7944], [133.8934, 33.8049], [133.8735, 33.8059], [133.8631, 33.7877], [133.8538, 33.7843], [133.8544, 33.7751], [133.8407, 33.7725], [133.8316, 33.7625], [133.8322, 33.7556], [133.8236, 33.7543], [133.816, 33.7442], [133.8106, 33.7493], [133.8053, 33.747], [133.7866, 33.7316], [133.7844, 33.7244], [133.7761, 33.7253], [133.7713, 33.7334], [133.7511, 33.731], [133.7367, 33.7218], [133.734, 33.7105], [133.6911, 33.6838], [133.6396, 33.7214], [133.5967, 33.7018], [133.615, 33.6776], [133.6197, 33.6613], [133.6347, 33.6647], [133.6451, 33.6555], [133.6673, 33.6573], [133.6624, 33.6103], [133.668, 33.6082], [133.6709, 33.5889], [133.6768, 33.5878], [133.6749, 33.583], [133.6838, 33.5851], [133.6845, 33.5797], [133.7036, 33.6003], [133.7022, 33.594], [133.7249, 33.5999], [133.7339, 33.5933], [133.7861, 33.6168], [133.7972, 33.6028], [133.8232, 33.6271], [133.837, 33.6331], [133.8372, 33.6453], [133.8653, 33.6614], [133.8792, 33.6615], [133.8864, 33.653], [133.8983, 33.6582], [133.9036, 33.6449], [133.9091, 33.6487], [133.9193, 33.6439], [133.9602, 33.6661], [133.9776, 33.6886], [133.9906, 33.6935], [134.0018, 33.7125], [134.0195, 33.7124], [134.0272, 33.7188], [134.0374, 33.712], [134.065, 33.7195]]]}}, {"type": "Feature", "properties": {"osm_type": "relation", "osm_id": 788980563, "name": "Kochi", "admin_level": "6", "kind": "subdivision_2", "parent_osm_id": 3795031, "parent_name": "Kochi Prefecture", "parent_iso": "JP-39"}, "geometry": {"type": "Polygon", "coordinates": [[[133.4366, 33.5101], [133.4447, 33.4966], [133.4601, 33.4871], [133.461, 33.4756], [133.4792, 33.4581], [133.5757, 33.4977], [133.559, 33.4981], [133.5596, 33.5085], [133.5477, 33.5175], [133.5461, 33.523], [133.5617, 33.5318], [133.5613, 33.5354], [133.5519, 33.5368], [133.5551, 33.5399], [133.566, 33.5434], [133.5714, 33.539], [133.5669, 33.5356], [133.5649, 33.5215], [133.5705, 33.5265], [133.5739, 33.5179], [133.5701, 33.5117], [133.5648, 33.512], [133.5643, 33.5012], [133.5708, 33.5019], [133.5794, 33.5118], [133.5883, 33.5089], [133.5908, 33.5159], [133.6014, 33.5195], [133.6065, 33.5419], [133.6238, 33.5594], [133.6254, 33.5679], [133.6145, 33.568], [133.612, 33.573], [133.6233, 33.573], [133.6244, 33.5768], [133.6084, 33.5805], [133.6113, 33.5897], [133.5886, 33.5939], [133.576, 33.6096], [133.5724, 33.6281], [133.5849, 33.6354], [133.5801, 33.6505], [133.5634, 33.666], [133.5404, 33.6649], [133.5356, 33.6779], [133.5155, 33.6819], [133.5058, 33.6698], [133.4734, 33.6712], [133.4647, 33.6616], [133.4494, 33.6723], [133.4365, 33.6705], [133.4006, 33.6507], [133.3945, 33.6371], [133.399, 33.6197], [133.4093, 33.6187], [133.4157, 33.6083], [133.401, 33.5933], [133.4111, 33.5891], [133.4161, 33.5779], [133.4335, 33.5758], [133.4466, 33.5673], [133.4631, 33.5733], [133.4745, 33.5627], [133.4631, 33.5443], [133.4631, 33.5356], [133.456, 33.5326], [133.458, 33.5237], [133.4491, 33.5144], [133.4366, 33.5101]]]}}, {"type": "Feature", "properties": {"osm_type": "relation", "osm_id": 570605033, "name": "Kuroshio", "admin_level": "6", "kind": "subdivision_2", "parent_osm_id": 3795031, "parent_name": "Kochi Prefecture", "parent_iso": "JP-39"}, "geometry": {"type": "Polygon", "coordinates": [[[133.164, 33.1353], [133.1532, 33.1467], [133.1832, 33.1824], [133.1732, 33.1897], [133.1641, 33.188], [133.1462, 33.1719], [133.1387, 33.1672], [133.1308, 33.1697], [133.1248, 33.1619], [133.1145, 33.1589], [133.1114, 33.1636], [133.0986, 33.1649], [133.0894, 33.1541], [133.0955, 33.1441], [133.0758, 33.1474], [133.071, 33.1232], [133.0589, 33.1178], [133.0513, 33.1227], [133.0436, 33.1107], [133.0219, 33.1139], [133.0065, 33.1104], [132.9969, 33.0992], [132.9887, 33.0988], [132.9831, 33.0883], [132.9714, 33.0863], [132.9735, 33.074], [132.9616, 33.0469], [132.9642, 33.0303], [132.9527, 33.0176], [132.9618, 33.0038], [132.9692, 33.0032], [132.9799, 32.9911], [132.9737, 32.9841], [132.999, 32.9803], [133.007, 32.9946], [133.0095, 33.0115], [133.0344, 33.0363], [133.0707, 33.0379], [133.0822, 33.0267], [133.0949, 33.0237], [133.093, 33.0341], [133.0993, 33.0581], [133.1086, 33.0626], [133.1061, 33.0742], [133.1144, 33.0772], [133.1188, 33.0867], [133.143, 33.0977], [133.1546, 33.1252], [133.164, 33.1353]]]}}, {"type": "Feature", "properties": {"osm_type": "relation", "osm_id": 186105676, "name": "Sakawa", "admin_level": "6", "kind": "subdivision_2", "parent_osm_id": 3795031, "parent_name": "Kochi Prefecture", "parent_iso": "JP-39"}, "geometry": {"type": "Polygon", "coordinates": [[[133.1968, 33.4743], [133.2065, 33.4666], [133.2497, 33.4545], [133.2519, 33.4454], [133.2582, 33.4414], [133.275, 33.4407], [133.3079, 33.4603], [133.3084, 33.47], [133.319, 33.4726], [133.3272, 33.4818], [133.3234, 33.4933], [133.3411, 33.5063], [133.3432, 33.514], [133.3283, 33.5228], [133.3288, 33.5359], [133.3167, 33.5484], [133.3144, 33.5574], [133.3022, 33.5538], [133.2779, 33.5581], [133.2622, 33.5519], [133.267, 33.5241], [133.2484, 33.5155], [133.2494, 33.5038], [133.2065, 33.514], [133.1991, 33.5095], [133.2069, 33.5039], [133.1963, 33.4903], [133.1968, 33.4743]]]}}, {"type": "Feature", "properties": {"osm_type": "relation", "osm_id": 658646022, "name": "Mihara", "admin_level": "6", "kind": "subdivision_2", "parent_osm_id": 3795031, "parent_name": "Kochi Prefecture", "parent_iso": "JP-39"}, "geometry": {"type": "Polygon", "coordinates": [[[132.9179, 32.9353], [132.8928, 32.945], [132.8767, 32.9397], [132.8607, 32.9452], [132.849, 32.9387], [132.8298, 32.9403], [132.8204, 32.9215], [132.8028, 32.9201], [132.7998, 32.9104], [132.8048, 32.8995], [132.7829, 32.9035], [132.7801, 32.9078], [132.7673, 32.899], [132.7667, 32.8926], [132.7838, 32.8674], [132.7859, 32.8771], [132.7944, 32.8746], [132.7995, 32.8809], [132.8172, 32.8649], [132.841, 32.8595], [132.852, 32.8668], [132.8693, 32.8668], [132.8755, 32.8726], [132.8904, 32.871], [132.9027, 32.8806], [132.9117, 32.8771], [132.9136, 32.8916], [132.9032, 32.9034], [132.9129, 32.9096], [132.9091, 32.9174], [132.9176, 32.9246], [132.9179, 32.9353]]]}}, {"type": "Feature", "properties": {"osm_type": "relation", "osm_id": 104452356, "name": "Shimanto", "admin_level": "6", "kind": "subdivision_2", "parent_osm_id": 3795031, "parent_name": "Kochi Prefecture", "parent_iso": "JP-39"}, "geometry": {"type": "Polygon", "coordinates": [[[133.0513, 33.1227], [133.0568, 33.1334], [133.0345, 33.1405], [133.0222, 33.1502], [133.0034, 33.1472], [133.0025, 33.1559], [132.994, 33.1601], [132.9728, 33.1609], [132.9632, 33.148], [132.9403, 33.1453], [132.9355, 33.1375], [132.8992, 33.1442], [132.8769, 33.1592], [132.8809, 33.1709], [132.8776, 33.1796], [132.8612, 33.1773], [132.8417, 33.1879], [132.8188, 33.1921], [132.8245, 33.2066], [132.8176, 33.2139], [132.818, 33.2207], [132.823, 33.2227], [132.8275, 33.2378], [132.8047, 33.2358], [132.7869, 33.2622], [132.7719, 33.2411], [132.7754, 33.2058], [132.7406, 33.2013], [132.7378, 33.1822], [132.7106, 33.1532], [132.6986, 33.1464], [132.6962, 33.138], [132.6869, 33.1348], [132.6736, 33.15], [132.6624, 33.1544], [132.6467, 33.1719], [132.6387, 33.1736], [132.6357, 33.1864], [132.6194, 33.1809], [132.6149, 33.1693], [132.6323, 33.1492], [132.6282, 33.1348], [132.6378, 33.1316], [132.6466, 33.1156], [132.6857, 33.0961], [132.7157, 33.0874], [132.7216, 33.0751], [132.752, 33.0654], [132.742, 33.0474], [132.7473, 33.0425], [132.7586, 33.0367], [132.7683, 33.0439], [132.7852, 33.0384], [132.7983, 33.0435], [132.8073, 33.0351], [132.8076, 33.0258], [132.8295, 33.0155], [132.8311, 33.0125], [132.8235, 33.0117], [132.8175, 33.0031], [132.822, 32.9982], [132.8248, 32.977], [132.8215, 32.9576], [132.8298, 32.9403], [132.849, 32.9387], [132.8607, 32.9452], [132.8767, 32.9397], [132.8928, 32.945], [132.9125, 32.935], [132.9294, 32.9358], [132.9453, 32.9115], [132.9487, 32.9141], [132.9534, 32.9094], [132.963, 32.9095], [132.9666, 32.9175], [132.9817, 32.9193], [132.9932, 32.9119], [133.0088, 32.912], [132.9979, 32.9225], [132.9999, 32.9311], [132.9884, 32.9329], [133.0002, 32.9429], [132.9927, 32.9529], [132.9999, 32.972], [133.0053, 32.9754], [132.999, 32.9803], [132.9737, 32.9841], [132.9799, 32.9911], [132.9692, 33.0032], [132.9618, 33.0038], [132.9527, 33.0176], [132.9642, 33.0303], [132.9616, 33.0469], [132.9735, 33.074], [132.9714, 33.0863], [132.9831, 33.0883], [132.9887, 33.0988], [132.9969, 33.0992], [133.0065, 33.1104], [133.0219, 33.1139], [133.0436, 33.1107], [133.0513, 33.1227]]]}}, {"type": "Feature", "properties": {"osm_type": "relation", "osm_id": 944474090, "name": "Shimanto", "admin_level": "6", "kind": "subdivision_2", "parent_osm_id": 3795031, "parent_name": "Kochi Prefecture", "parent_iso": "JP-39"}, "geometry": {"type": "Polygon", "coordinates": [[[133.164, 33.1353], [133.1706, 33.1504], [133.1919, 33.1674], [133.207, 33.165], [133.2081, 33.1493], [133.223, 33.1533], [133.2146, 33.1633], [133.2191, 33.1619], [133.2216, 33.1739], [133.2105, 33.1837], [133.2194, 33.1942], [133.2402, 33.1965], [133.2353, 33.2023], [133.2383, 33.2151], [133.2561, 33.2252], [133.2495, 33.2329], [133.2561, 33.2378], [133.2285, 33.2357], [133.216, 33.2505], [133.1931, 33.2566], [133.1969, 33.2706], [133.193, 33.2804], [133.1984, 33.2897], [133.1792, 33.3085], [133.1849, 33.3195], [133.1802, 33.3216], [133.172, 33.3211], [133.1635, 33.31], [133.1404, 33.3033], [133.1253, 33.3047], [133.1064, 33.3183], [133.1063, 33.312], [133.0976, 33.3101], [133.0721, 33.3379], [133.0579, 33.3334], [133.0567, 33.3427], [133.0682, 33.3414], [133.0716, 33.3488], [133.0627, 33.3553], [133.0509, 33.3564], [133.0285, 33.343], [133.0355, 33.3212], [133.0258, 33.3064], [133.0003, 33.3088], [132.9941, 33.2981], [132.9816, 33.2908], [132.9804, 33.2838], [132.9591, 33.2961], [132.9523, 33.3135], [132.9406, 33.3147], [132.922, 33.3253], [132.9017, 33.3273], [132.8955, 33.312], [132.8725, 33.3049], [132.8497, 33.2896], [132.7931, 33.2748], [132.7871, 33.267], [132.8047, 33.2358], [132.8275, 33.2378], [132.823, 33.2227], [132.818, 33.2207], [132.8176, 33.2139], [132.8245, 33.2066], [132.8188, 33.1921], [132.8417, 33.1879], [132.8612, 33.1773], [132.8776, 33.1796], [132.8809, 33.1709], [132.8769, 33.1592], [132.8992, 33.1442], [132.9355, 33.1375], [132.9403, 33.1453], [132.9632, 33.148], [132.9728, 33.1609], [132.994, 33.1601], [133.0025, 33.1559], [133.0034, 33.1472], [133.0222, 33.1502], [133.0345, 33.1405], [133.0568, 33.1334], [133.0513, 33.1227], [133.0589, 33.1178], [133.071, 33.1232], [133.0758, 33.1474], [133.0955, 33.1441], [133.0894, 33.1541], [133.0986, 33.1649], [133.1114, 33.1636], [133.1145, 33.1589], [133.1248, 33.1619], [133.1308, 33.1697], [133.1387, 33.1672], [133.1641, 33.188], [133.1732, 33.1897], [133.1832, 33.1824], [133.1826, 33.1778], [133.1532, 33.1467], [133.164, 33.1353]]]}}, {"type": "Feature", "properties": {"osm_type": "relation", "osm_id": 216845729, "name": "Muroto", "admin_level": "6", "kind": "subdivision_2", "parent_osm_id": 3795031, "parent_name": "Kochi Prefecture", "parent_iso": "JP-39"}, "geometry": {"type": "Polygon", "coordinates": [[[134.2353, 33.4421], [134.2278, 33.4509], [134.2267, 33.4609], [134.2169, 33.4634], [134.2068, 33.4792], [134.1951, 33.4877], [134.1554, 33.4774], [134.1442, 33.4683], [134.1319, 33.4746], [134.1127, 33.4578], [134.1072, 33.4431], [134.0946, 33.439], [134.0957, 33.4327], [134.0878, 33.4281], [134.0868, 33.4166], [134.0686, 33.4076], [134.066, 33.3961], [134.0338, 33.3784], [134.0391, 33.3705], [134.0495, 33.3703], [134.0615, 33.3626], [134.0808, 33.3371], [134.1032, 33.3265], [134.1107, 33.2939], [134.1231, 33.2991], [134.1406, 33.2951], [134.1534, 33.2828], [134.1602, 33.2676], [134.1657, 33.2659], [134.1767, 33.2432], [134.1845, 33.2592], [134.1864, 33.2929], [134.1985, 33.3297], [134.2001, 33.3502], [134.2133, 33.3822], [134.2094, 33.3928], [134.2353, 33.4421]]]}}, {"type": "Feature", "properties": {"osm_type": "relation", "osm_id": 846729982, "name": "Sukumo", "admin_level": "6", "kind": "subdivision_2", "parent_osm_id": 3795031, "parent_name": "Kochi Prefecture", "parent_iso": "JP-39"}, "geometry": {"type": "MultiPolygon", "coordinates": [[[[132.5456, 32.7552], [132.5442, 32.7422], [132.5482, 32.7389], [132.5349, 32.729], [132.5505, 32.7166], [132.5419, 32.7029], [132.5719, 32.7174], [132.5666, 32.7271], [132.5718, 32.7348], [132.5456, 32.7552]]], [[[132.4875, 32.8076], [132.48, 32.7982], [132.4958, 32.7967], [132.4942, 32.8011], [132.4996, 32.8054], [132.4875, 32.8076]]], [[[132.8298, 32.9403], [132.8215, 32.9576], [132.8248, 32.977], [132.822, 32.9982], [132.8175, 33.0031], [132.8235, 33.0117], [132.8311, 33.0125], [132.8295, 33.0155], [132.8076, 33.0258], [132.8073, 33.0351], [132.7983, 33.0435], [132.7852, 33.0384], [132.7683, 33.0439], [132.7586, 33.0367], [132.7473, 33.0425], [132.742, 33.0474], [132.752, 33.0654], [132.7216, 33.0751], [132.7157, 33.0874], [132.6857, 33.0961], [132.6633, 33.1091], [132.6693, 33.0924], [132.6695, 33.0712], [132.6577, 33.0571], [132.678, 33.038], [132.6757, 33.0167], [132.6867, 32.9973], [132.6814, 32.9938], [132.6915, 32.9736], [132.6818, 32.9584], [132.6834, 32.9468], [132.6525, 32.9392], [132.6553, 32.9251], [132.6666, 32.9193], [132.6721, 32.9194], [132.6705, 32.9225], [132.6909, 32.9204], [132.6938, 32.9295], [132.6982, 32.9184], [132.6876, 32.9156], [132.6961, 32.9101], [132.7046, 32.9142], [132.7032, 32.9225], [132.7109, 32.924], [132.7171, 32.9086], [132.711, 32.9014], [132.7219, 32.8991], [132.72, 32.8937], [132.7041, 32.8966], [132.7156, 32.8882], [132.721, 32.8776], [132.7135, 32.8752], [132.7136, 32.8822], [132.7079, 32.8788], [132.7048, 32.8881], [132.6967, 32.8734], [132.71, 32.8629], [132.7236, 32.87], [132.7314, 32.854], [132.7403, 32.8519], [132.7386, 32.8388], [132.748, 32.8392], [132.7629, 32.8303], [132.785, 32.8393], [132.779, 32.8506], [132.7838, 32.8674], [132.7667, 32.8926], [132.7673, 32.899], [132.7801, 32.9078], [132.7829, 32.9035], [132.8048, 32.8995], [132.7998, 32.9104], [132.8028, 32.9201], [132.8204, 32.9215], [132.8298, 32.9403]]]]}}, {"type": "Feature", "properties": {"osm_type": "relation", "osm_id": 445987705, "name": "Niyodogawa", "admin_level": "6", "kind": "subdivision_2", "parent_osm_id": 3795031, "parent_name": "Kochi Prefecture", "parent_iso": "JP-39"}, "geometry": {"type": "Polygon", "coordinates": [[[133.1612, 33.7315], [133.1398, 33.7157], [133.1446, 33.7047], [133.1253, 33.6983], [133.1203, 33.6906], [133.1215, 33.674], [133.1165, 33.6601], [133.0908, 33.6578], [133.075, 33.6506], [133.0672, 33.6226], [133.0796, 33.6087], [133.0546, 33.5935], [133.0468, 33.5752], [133.0623, 33.5615], [133.0641, 33.5425], [133.0379, 33.5264], [133.0343, 33.5118], [133.0134, 33.4906], [133.0154, 33.481], [133.0447, 33.4746], [133.0588, 33.4797], [133.0602, 33.4703], [133.0683, 33.4658], [133.0734, 33.4526], [133.0906, 33.4517], [133.1023, 33.443], [133.1233, 33.4556], [133.1512, 33.461], [133.1594, 33.467], [133.1582, 33.4786], [133.1463, 33.4848], [133.1508, 33.4957], [133.1469, 33.5006], [133.1521, 33.5074], [133.1483, 33.5186], [133.179, 33.5408], [133.1852, 33.5548], [133.1808, 33.563], [133.1839, 33.5659], [133.1946, 33.5663], [133.1968, 33.5745], [133.2107, 33.5673], [133.214, 33.5703], [133.2135, 33.5973], [133.2283, 33.605], [133.2229, 33.6317], [133.2347, 33.6387], [133.2257, 33.6618], [133.2287, 33.6792], [133.1741, 33.7077], [133.1663, 33.7209], [133.1672, 33.7285], [133.1612, 33.7315]]]}}, {"type": "Feature", "properties": {"osm_type": "relation", "osm_id": 634594952, "name": "Susaki", "admin_level": "6", "kind": "subdivision_2", "parent_osm_id": 3795031, "parent_name": "Kochi Prefecture", "parent_iso": "JP-39"}, "geometry": {"type": "Polygon", "coordinates": [[[133.2582, 33.4414], [133.2485, 33.4317], [133.2081, 33.4287], [133.2096, 33.4047], [133.1962, 33.3966], [133.1755, 33.3986], [133.1791, 33.3831], [133.176, 33.3793], [133.228, 33.3791], [133.2312, 33.3694], [133.241, 33.3648], [133.2638, 33.3406], [133.2603, 33.3464], [133.2647, 33.3591], [133.2592, 33.3664], [133.2812, 33.3767], [133.2783, 33.3839], [133.2956, 33.3895], [133.2903, 33.4048], [133.2945, 33.4057], [133.3038, 33.3904], [133.29, 33.3833], [133.299, 33.3794], [133.299, 33.3746], [133.3062, 33.3803], [133.3137, 33.3764], [133.3179, 33.3829], [133.3245, 33.3792], [133.3209, 33.376], [133.3242, 33.3656], [133.3201, 33.3628], [133.313, 33.3671], [133.3185, 33.3558], [133.3279, 33.3653], [133.328, 33.3715], [133.3321, 33.3716], [133.3293, 33.3867], [133.3414, 33.3921], [133.3459, 33.4008], [133.3711, 33.4022], [133.3761, 33.3929], [133.3763, 33.4014], [133.389, 33.4056], [133.3949, 33.4012], [133.4015, 33.4046], [133.4062, 33.3975], [133.4129, 33.4111], [133.425, 33.4127], [133.4288, 33.4092], [133.4285, 33.4145], [133.4415, 33.4139], [133.443, 33.4195], [133.4344, 33.4282], [133.4243, 33.429], [133.4164, 33.4391], [133.4069, 33.4273], [133.4095, 33.4238], [133.4023, 33.4234], [133.4039, 33.4146], [133.3949, 33.4245], [133.3928, 33.4171], [133.3861, 33.4214], [133.3842, 33.4111], [133.3729, 33.4252], [133.3677, 33.4086], [133.3604, 33.4073], [133.3648, 33.4114], [133.3619, 33.4153], [133.351, 33.416], [133.3699, 33.4305], [133.3875, 33.4318], [133.391, 33.4265], [133.4068, 33.4336], [133.4079, 33.4392], [133.401, 33.4379], [133.3956, 33.4424], [133.4056, 33.4436], [133.4057, 33.4476], [133.4178, 33.4436], [133.4187, 33.4493], [133.4249, 33.4493], [133.4238, 33.44], [133.4323, 33.4372], [133.4295, 33.4637], [133.4082, 33.4681], [133.4007, 33.4652], [133.3992, 33.4596], [133.3863, 33.4568], [133.376, 33.4458], [133.3602, 33.4531], [133.3499, 33.4412], [133.3306, 33.44], [133.3185, 33.4317], [133.3103, 33.4356], [133.3056, 33.4591], [133.275, 33.4407], [133.2582, 33.4414]]]}}, {"type": "Feature", "properties": {"osm_type": "relation", "osm_id": 201828281, "name": "Otsuki", "admin_level": "6", "kind": "subdivision_2", "parent_osm_id": 3795031, "parent_name": "Kochi Prefecture", "parent_iso": "JP-39"}, "geometry": {"type": "Polygon", "coordinates": [[[132.7048, 32.8881], [132.6924, 32.884], [132.6883, 32.8799], [132.6905, 32.8749], [132.6689, 32.8651], [132.6567, 32.853], [132.6722, 32.8435], [132.6595, 32.8393], [132.6646, 32.8326], [132.658, 32.8242], [132.6534, 32.8283], [132.6499, 32.8189], [132.644, 32.8198], [132.6454, 32.8079], [132.6557, 32.8059], [132.6556, 32.8019], [132.6292, 32.801], [132.6356, 32.7892], [132.6446, 32.786], [132.634, 32.7837], [132.6404, 32.7695], [132.6309, 32.7677], [132.6287, 32.7629], [132.651, 32.7663], [132.6477, 32.7739], [132.6546, 32.7811], [132.6845, 32.7816], [132.6908, 32.7883], [132.6977, 32.7848], [132.6965, 32.7893], [132.6867, 32.7886], [132.6838, 32.7936], [132.7073, 32.7952], [132.7105, 32.799], [132.7141, 32.7942], [132.7187, 32.7972], [132.7215, 32.7862], [132.7434, 32.7729], [132.758, 32.753], [132.7691, 32.7619], [132.7795, 32.7541], [132.7864, 32.757], [132.7826, 32.7813], [132.7717, 32.7886], [132.7722, 32.7956], [132.7611, 32.8011], [132.7702, 32.8173], [132.7629, 32.8303], [132.748, 32.8392], [132.7386, 32.8388], [132.7403, 32.8519], [132.7314, 32.854], [132.7236, 32.87], [132.71, 32.8629], [132.6967, 32.8734], [132.7048, 32.8881]]]}}, {"type": "Feature", "properties": {"osm_type": "relation", "osm_id": 346406262, "name": "Okawa", "admin_level": "6", "kind": "subdivision_2", "parent_osm_id": 3795031, "parent_name": "Kochi Prefecture", "parent_iso": "JP-39"}, "geometry": {"type": "Polygon", "coordinates": [[[133.3683, 33.755], [133.3918, 33.7549], [133.394, 33.7607], [133.4057, 33.7612], [133.4169, 33.7682], [133.4375, 33.766], [133.4782, 33.7801], [133.4934, 33.7921], [133.4801, 33.8111], [133.4866, 33.8297], [133.4705, 33.8368], [133.4413, 33.8337], [133.415, 33.8399], [133.4008, 33.8362], [133.3917, 33.8244], [133.3558, 33.8344], [133.3456, 33.8248], [133.3333, 33.8213], [133.3263, 33.8148], [133.3285, 33.8095], [133.3591, 33.7895], [133.3509, 33.7828], [133.3646, 33.7734], [133.3683, 33.755]]]}}, {"type": "Feature", "properties": {"osm_type": "relation", "osm_id": 132369565, "name": "Otoyo", "admin_level": "6", "kind": "subdivision_2", "parent_osm_id": 3795031, "parent_name": "Kochi Prefecture", "parent_iso": "JP-39"}, "geometry": {"type": "Polygon", "coordinates": [[[133.8735, 33.8059], [133.8538, 33.8344], [133.8387, 33.8452], [133.8285, 33.8447], [133.8178, 33.8373], [133.7886, 33.8362], [133.7867, 33.8408], [133.7758, 33.8423], [133.748, 33.8368], [133.7383, 33.8497], [133.7016, 33.8498], [133.6949, 33.8563], [133.6777, 33.8585], [133.6629, 33.8703], [133.6607, 33.8818], [133.6441, 33.883], [133.6273, 33.872], [133.6111, 33.8808], [133.5981, 33.8803], [133.583, 33.8676], [133.58, 33.8559], [133.5862, 33.837], [133.5997, 33.8289], [133.6133, 33.8291], [133.6345, 33.813], [133.6369, 33.7998], [133.6272, 33.7873], [133.6327, 33.7736], [133.6395, 33.7722], [133.6359, 33.7703], [133.6432, 33.7564], [133.6382, 33.7444], [133.6428, 33.7398], [133.6368, 33.7291], [133.6396, 33.7214], [133.6857, 33.6844], [133.7216, 33.7013], [133.7356, 33.712], [133.7367, 33.7218], [133.7511, 33.731], [133.7713, 33.7334], [133.7761, 33.7253], [133.7844, 33.7244], [133.7866, 33.7316], [133.8053, 33.747], [133.8106, 33.7493], [133.816, 33.7442], [133.8236, 33.7543], [133.8322, 33.7556], [133.8316, 33.7625], [133.8407, 33.7725], [133.8544, 33.7751], [133.8538, 33.7843], [133.8631, 33.7877], [133.8735, 33.8059]]]}}, {"type": "Feature", "properties": {"osm_type": "relation", "osm_id": 401755345, "name": "Nakatosa", "admin_level": "6", "kind": "subdivision_2", "parent_osm_id": 3795031, "parent_name": "Kochi Prefecture", "parent_iso": "JP-39"}, "geometry": {"type": "Polygon", "coordinates": [[[133.2561, 33.2378], [133.248, 33.2424], [133.2478, 33.2497], [133.2555, 33.2497], [133.263, 33.2564], [133.2556, 33.2667], [133.2604, 33.2777], [133.2566, 33.2809], [133.243, 33.2751], [133.2459, 33.292], [133.2388, 33.2952], [133.2414, 33.3003], [133.2507, 33.3007], [133.2498, 33.3068], [133.261, 33.3096], [133.2315, 33.3264], [133.2435, 33.3346], [133.2559, 33.3327], [133.2583, 33.3404], [133.2638, 33.3406], [133.241, 33.3648], [133.2312, 33.3694], [133.228, 33.3791], [133.2091, 33.3822], [133.1772, 33.3764], [133.1791, 33.3831], [133.1689, 33.408], [133.1697, 33.4175], [133.1585, 33.4198], [133.1471, 33.415], [133.1136, 33.4216], [133.1065, 33.4112], [133.108, 33.3915], [133.0988, 33.3832], [133.0985, 33.37], [133.0762, 33.3892], [133.052, 33.3677], [133.0509, 33.3564], [133.0627, 33.3553], [133.0716, 33.3488], [133.0682, 33.3414], [133.0567, 33.3427], [133.0579, 33.3334], [133.0721, 33.3379], [133.0976, 33.3101], [133.1063, 33.312], [133.1064, 33.3183], [133.1253, 33.3047], [133.1404, 33.3033], [133.1635, 33.31], [133.172, 33.3211], [133.1849, 33.3195], [133.1792, 33.3085], [133.1984, 33.2897], [133.193, 33.2804], [133.1969, 33.2706], [133.1931, 33.2566], [133.216, 33.2505], [133.2285, 33.2357], [133.2561, 33.2378]]]}}, {"type": "Feature", "properties": {"osm_type": "relation", "osm_id": 507813705, "name": "Tsuno", "admin_level": "6", "kind": "subdivision_2", "parent_osm_id": 3795031, "parent_name": "Kochi Prefecture", "parent_iso": "JP-39"}, "geometry": {"type": "Polygon", "coordinates": [[[133.1594, 33.467], [133.1512, 33.461], [133.1233, 33.4556], [133.1023, 33.443], [133.0906, 33.4517], [133.0734, 33.4526], [133.0683, 33.4658], [133.0602, 33.4703], [133.0588, 33.4797], [133.0447, 33.4746], [133.0251, 33.4813], [132.9927, 33.4758], [132.9893, 33.4739], [132.9969, 33.4472], [132.9866, 33.4347], [132.9937, 33.4304], [132.9838, 33.4249], [132.9854, 33.4153], [132.9631, 33.4131], [132.9561, 33.4005], [132.9694, 33.3826], [132.9796, 33.3908], [132.9882, 33.3899], [132.997, 33.3812], [132.9923, 33.3608], [133.0285, 33.343], [133.0494, 33.3544], [133.052, 33.3677], [133.0712, 33.388], [133.0799, 33.3873], [133.0985, 33.37], [133.0988, 33.3832], [133.108, 33.3915], [133.1065, 33.4112], [133.1136, 33.4216], [133.1471, 33.415], [133.1635, 33.4198], [133.1697, 33.4175], [133.1689, 33.408], [133.1755, 33.3986], [133.1962, 33.3966], [133.2096, 33.4047], [133.2081, 33.4287], [133.2485, 33.4317], [133.2582, 33.4414], [133.2519, 33.4454], [133.2497, 33.4545], [133.2065, 33.4666], [133.1968, 33.4743], [133.1833, 33.4726], [133.1784, 33.4652], [133.1594, 33.467]]]}}, {"type": "Feature", "properties": {"osm_type": "relation", "osm_id": 521420477, "name": "Tano", "admin_level": "6", "kind": "subdivision_2", "parent_osm_id": 3795031, "parent_name": "Kochi Prefecture", "parent_iso": "JP-39"}, "geometry": {"type": "Polygon", "coordinates": [[[133.993, 33.4278], [134.0112, 33.4227], [134.0299, 33.4406], [134.0302, 33.4458], [134.018, 33.4495], [134.0247, 33.4595], [134.0116, 33.4558], [134.0059, 33.4374], [133.9936, 33.4355], [133.993, 33.4278]]]}}, {"type": "Feature", "properties": {"osm_type": "relation", "osm_id": 687889365, "name": "Tosa", "admin_level": "6", "kind": "subdivision_2", "parent_osm_id": 3795031, "parent_name": "Kochi Prefecture", "parent_iso": "JP-39"}, "geometry": {"type": "MultiPolygon", "coordinates": [[[[133.443, 33.4195], [133.4575, 33.4196], [133.4627, 33.4305], [133.4423, 33.4398], [133.4434, 33.435], [133.436, 33.4335], [133.4344, 33.4282], [133.443, 33.4195]]], [[[133.3938, 33.519], [133.393, 33.5095], [133.3805, 33.5109], [133.3441, 33.4979], [133.336, 33.5016], [133.3234, 33.4933], [133.3272, 33.4818], [133.319, 33.4726], [133.3084, 33.47], [133.3056, 33.4591], [133.3103, 33.4356], [133.3185, 33.4317], [133.3306, 33.44], [133.3499, 33.4412], [133.3602, 33.4531], [133.376, 33.4458], [133.3863, 33.4568], [133.3992, 33.4596], [133.4007, 33.4652], [133.4082, 33.4681], [133.4295, 33.4637], [133.4323, 33.4372], [133.4414, 33.4493], [133.4504, 33.452], [133.4576, 33.4457], [133.4792, 33.4581], [133.461, 33.4756], [133.4601, 33.4871], [133.4447, 33.4966], [133.4301, 33.5228], [133.3938, 33.519]]]]}}, {"type": "Feature", "properties": {"osm_type": "relation", "osm_id": 962403730, "name": "Tosashimizu", "admin_level": "6", "kind": "subdivision_2", "parent_osm_id": 3795031, "parent_name": "Kochi Prefecture", "parent_iso": "JP-39"}, "geometry": {"type": "Polygon", "coordinates": [[[132.7838, 32.8674], [132.779, 32.8506], [132.785, 32.8393], [132.7629, 32.8303], [132.7702, 32.8173], [132.7611, 32.8011], [132.7722, 32.7956], [132.7717, 32.7886], [132.7826, 32.7813], [132.7907, 32.7489], [132.8155, 32.7533], [132.8153, 32.7617], [132.8333, 32.766], [132.8336, 32.7755], [132.8397, 32.7815], [132.8464, 32.7783], [132.8524, 32.7866], [132.8626, 32.7907], [132.8715, 32.7857], [132.8712, 32.7765], [132.8663, 32.7721], [132.8707, 32.766], [132.8792, 32.7705], [132.8759, 32.7751], [132.8801, 32.7836], [132.8751, 32.7881], [132.8796, 32.7897], [132.9161, 32.787], [132.9206, 32.7783], [132.9362, 32.7868], [132.9474, 32.78], [132.9416, 32.7797], [132.9396, 32.7742], [132.9455, 32.7659], [132.9564, 32.7783], [132.9656, 32.7751], [132.953, 32.7657], [132.9539, 32.7592], [132.9641, 32.7569], [132.961, 32.7519], [132.9714, 32.7474], [132.966, 32.7293], [132.9869, 32.7335], [133.0004, 32.7227], [133.0189, 32.724], [133.0221, 32.7315], [133.0142, 32.7548], [133.0179, 32.7616], [133.0104, 32.7673], [133.0027, 32.7871], [132.9655, 32.7989], [132.952, 32.813], [132.9508, 32.8234], [132.961, 32.8295], [132.9541, 32.8346], [132.9563, 32.8515], [132.9494, 32.8575], [132.956, 32.8644], [132.9572, 32.8589], [132.9659, 32.8655], [132.9872, 32.868], [132.9926, 32.8625], [132.9967, 32.8644], [132.994, 32.8675], [132.9995, 32.8764], [133.0094, 32.8812], [133.0059, 32.901], [133.0088, 32.912], [132.9932, 32.9119], [132.9817, 32.9193], [132.9666, 32.9175], [132.963, 32.9095], [132.9453, 32.9115], [132.9294, 32.9358], [132.9207, 32.9365], [132.9176, 32.9246], [132.9091, 32.9174], [132.9129, 32.9096], [132.9032, 32.9034], [132.9136, 32.8916], [132.9117, 32.8771], [132.9027, 32.8806], [132.8904, 32.871], [132.8786, 32.8732], [132.8693, 32.8668], [132.852, 32.8668], [132.8452, 32.8593], [132.8172, 32.8649], [132.7995, 32.8809], [132.7944, 32.8746], [132.7859, 32.8771], [132.7838, 32.8674]]]}}, {"type": "Feature", "properties": {"osm_type": "relation", "osm_id": 329131590, "name": "Tosa", "admin_level": "6", "kind": "subdivision_2", "parent_osm_id": 3795031, "parent_name": "Kochi Prefecture", "parent_iso": "JP-39"}, "geometry": {"type": "Polygon", "coordinates": [[[133.4494, 33.6723], [133.4647, 33.6616], [133.4734, 33.6712], [133.5058, 33.6698], [133.5155, 33.6819], [133.5356, 33.6779], [133.5404, 33.6649], [133.5634, 33.666], [133.5659, 33.6819], [133.5599, 33.6925], [133.5834, 33.7056], [133.5772, 33.7261], [133.5723, 33.7269], [133.5764, 33.7386], [133.5687, 33.7484], [133.5466, 33.7594], [133.5491, 33.7728], [133.5344, 33.7941], [133.5298, 33.8138], [133.5079, 33.8359], [133.4995, 33.8292], [133.4911, 33.8323], [133.4827, 33.8265], [133.4801, 33.8111], [133.4934, 33.7921], [133.4782, 33.7801], [133.4375, 33.766], [133.4169, 33.7682], [133.4057, 33.7612], [133.394, 33.7607], [133.3918, 33.7549], [133.3683, 33.755], [133.3591, 33.7482], [133.3634, 33.7419], [133.3601, 33.7313], [133.3691, 33.7263], [133.3689, 33.7191], [133.3806, 33.7138], [133.3855, 33.7076], [133.3828, 33.7032], [133.3995, 33.697], [133.3961, 33.6807], [133.4352, 33.6939], [133.446, 33.6862], [133.4494, 33.6723]]]}}, {"type": "Feature", "properties": {"osm_type": "relation", "osm_id": 248807002, "name": "Touyou", "admin_level": "6", "kind": "subdivision_2", "parent_osm_id": 3795031, "parent_name": "Kochi Prefecture", "parent_iso": "JP-39"}, "geometry": {"type": "Polygon", "coordinates": [[[134.2353, 33.4421], [134.2416, 33.4507], [134.2421, 33.4639], [134.2523, 33.4787], [134.2899, 33.5202], [134.2838, 33.5214], [134.2853, 33.5308], [134.2902, 33.5321], [134.2924, 33.5419], [134.3026, 33.5413], [134.3037, 33.5539], [134.2817, 33.561], [134.2737, 33.5606], [134.27, 33.5549], [134.2385, 33.5529], [134.2187, 33.5675], [134.1958, 33.5608], [134.1984, 33.5519], [134.1931, 33.5373], [134.2011, 33.534], [134.2013, 33.5255], [134.2159, 33.5128], [134.2101, 33.4969], [134.1944, 33.5019], [134.199, 33.4929], [134.1951, 33.4877], [134.2068, 33.4792], [134.2169, 33.4634], [134.2267, 33.4609], [134.2278, 33.4509], [134.2353, 33.4421]]]}}, {"type": "Feature", "properties": {"osm_type": "relation", "osm_id": 911356439, "name": "Nahari", "admin_level": "6", "kind": "subdivision_2", "parent_osm_id": 3795031, "parent_name": "Kochi Prefecture", "parent_iso": "JP-39"}, "geometry": {"type": "Polygon", "coordinates": [[[134.1084, 33.4468], [134.0836, 33.4477], [134.0594, 33.435], [134.0299, 33.4406], [134.0112, 33.4227], [134.0195, 33.4221], [134.0159, 33.4204], [134.0319, 33.4111], [134.0378, 33.3925], [134.0338, 33.3784], [134.066, 33.3961], [134.0686, 33.4076], [134.0868, 33.4166], [134.0878, 33.4281], [134.0957, 33.4327], [134.0946, 33.439], [134.1084, 33.4468]]]}}, {"type": "Feature", "properties": {"osm_type": "relation", "osm_id": 615571975, "name": "Nankoku", "admin_level": "6", "kind": "subdivision_2", "parent_osm_id": 3795031, "parent_name": "Kochi Prefecture", "parent_iso": "JP-39"}, "geometry": {"type": "Polygon", "coordinates": [[[133.6845, 33.5797], [133.6838, 33.5851], [133.6749, 33.583], [133.6768, 33.5878], [133.6709, 33.5889], [133.668, 33.6082], [133.6624, 33.6103], [133.6673, 33.6573], [133.6451, 33.6555], [133.6347, 33.6647], [133.6197, 33.6613], [133.615, 33.6776], [133.5907, 33.7058], [133.5599, 33.6925], [133.5659, 33.6819], [133.5634, 33.666], [133.5801, 33.6505], [133.5849, 33.6354], [133.5724, 33.6281], [133.576, 33.6096], [133.5886, 33.5939], [133.6113, 33.5897], [133.6084, 33.5805], [133.6244, 33.5768], [133.6233, 33.573], [133.612, 33.573], [133.6145, 33.568], [133.6254, 33.5679], [133.6238, 33.5594], [133.6065, 33.5419], [133.6014, 33.5195], [133.6818, 33.5341], [133.68, 33.5409], [133.6852, 33.5444], [133.6797, 33.5658], [133.6845, 33.5797]]]}}, {"type": "Feature", "properties": {"osm_type": "relation", "osm_id": 748681577, "name": "Hidaka", "admin_level": "6", "kind": "subdivision_2", "parent_osm_id": 3795031, "parent_name": "Kochi Prefecture", "parent_iso": "JP-39"}, "geometry": {"type": "Polygon", "coordinates": [[[133.3106, 33.5788], [133.3, 33.5793], [133.2968, 33.5655], [133.3022, 33.5538], [133.3144, 33.5574], [133.3167, 33.5484], [133.3288, 33.5359], [133.3283, 33.5228], [133.3432, 33.514], [133.3371, 33.4987], [133.3957, 33.5112], [133.3922, 33.516], [133.4035, 33.5367], [133.4043, 33.5474], [133.3968, 33.5453], [133.3665, 33.5648], [133.3632, 33.5798], [133.3561, 33.5754], [133.3544, 33.559], [133.3485, 33.5591], [133.3446, 33.5653], [133.3329, 33.5583], [133.3106, 33.5788]]]}}, {"type": "Feature", "properties": {"osm_type": "relation", "osm_id": 434625726, "name": "Umaji", "admin_level": "6", "kind": "subdivision_2", "parent_osm_id": 3795031, "parent_name": "Kochi Prefecture", "parent_iso": "JP-39"}, "geometry": {"type": "Polygon", "coordinates": [[[134.0257, 33.5471], [134.0369, 33.5379], [134.0691, 33.5269], [134.0769, 33.5318], [134.0821, 33.5469], [134.0901, 33.5513], [134.0827, 33.5643], [134.0945, 33.5732], [134.0938, 33.5906], [134.1116, 33.5982], [134.1444, 33.5908], [134.1561, 33.6117], [134.1502, 33.6306], [134.1842, 33.649], [134.1713, 33.6577], [134.1754, 33.6616], [134.169, 33.6707], [134.1755, 33.6759], [134.1748, 33.684], [134.1638, 33.6881], [134.1486, 33.6857], [134.1223, 33.696], [134.0544, 33.6879], [134.0472, 33.6779], [134.0629, 33.6718], [134.0705, 33.6636], [134.0549, 33.6518], [134.0557, 33.6465], [134.0286, 33.6387], [134.013, 33.6079], [134.0226, 33.6029], [134.0208, 33.5895], [134.01, 33.5865], [134.0069, 33.577], [134.0123, 33.5681], [134.0208, 33.57], [134.0275, 33.5631], [134.0304, 33.5552], [134.0257, 33.5471]]]}}, {"type": "Feature", "properties": {"osm_type": "relation", "osm_id": 762240368, "name": "Kitagawa", "admin_level": "6", "kind": "subdivision_2", "parent_osm_id": 3795031, "parent_name": "Kochi Prefecture", "parent_iso": "JP-39"}, "geometry": {"type": "Polygon", "coordinates": [[[134.0247, 33.4595], [134.018, 33.4495], [134.0302, 33.4458], [134.0336, 33.4383], [134.0658, 33.4362], [134.0836, 33.4477], [134.1084, 33.4468], [134.1127, 33.4578], [134.1319, 33.4746], [134.1442, 33.4683], [134.1554, 33.4774], [134.1921, 33.4859], [134.199, 33.4929], [134.1944, 33.5019], [134.2101, 33.4969], [134.2159, 33.5128], [134.2013, 33.5255], [134.2011, 33.534], [134.1931, 33.5373], [134.1984, 33.5519], [134.1932, 33.5616], [134.1954, 33.5687], [134.1878, 33.5758], [134.1847, 33.5887], [134.1706, 33.597], [134.176, 33.6071], [134.1561, 33.6117], [134.1444, 33.5908], [134.1378, 33.5894], [134.1116, 33.5982], [134.0938, 33.5906], [134.0945, 33.5732], [134.0827, 33.5643], [134.0901, 33.5513], [134.0821, 33.5469], [134.0769, 33.5318], [134.0668, 33.5226], [134.0557, 33.5205], [134.0402, 33.505], [134.0286, 33.5036], [134.0247, 33.4595]]]}}, {"type": "Feature", "properties": {"osm_type": "relation", "osm_id": 847314102, "name": "Motoyama", "admin_level": "6", "kind": "subdivision_2", "parent_osm_id": 3795031, "parent_name": "Kochi Prefecture", "parent_iso": "JP-39"}, "geometry": {"type": "Polygon", "coordinates": [[[133.6396, 33.7214], [133.6368, 33.7291], [133.6428, 33.7398], [133.6382, 33.7444], [133.6432, 33.7564], [133.6359, 33.7703], [133.6395, 33.7722], [133.6327, 33.7736], [133.6272, 33.7873], [133.6369, 33.7998], [133.6345, 33.813], [133.6133, 33.8291], [133.5997, 33.8289], [133.5862, 33.837], [133.58, 33.8559], [133.583, 33.8676], [133.5711, 33.8703], [133.5571, 33.8822], [133.5402, 33.8787], [133.5362, 33.866], [133.5264, 33.8621], [133.5264, 33.8537], [133.5181, 33.8473], [133.5097, 33.8483], [133.5065, 33.8399], [133.5298, 33.8138], [133.5344, 33.7941], [133.5491, 33.7728], [133.5466, 33.7594], [133.5687, 33.7484], [133.5764, 33.7386], [133.5723, 33.7269], [133.5772, 33.7261], [133.5834, 33.7056], [133.5967, 33.7018], [133.6102, 33.7049], [133.6396, 33.7214]]]}}, {"type": "Feature", "properties": {"osm_type": "relation", "osm_id": 548105046, "name": "Yusuhara", "admin_level": "6", "kind": "subdivision_2", "parent_osm_id": 3795031, "parent_name": "Kochi Prefecture", "parent_iso": "JP-39"}, "geometry": {"type": "Polygon", "coordinates": [[[133.0285, 33.343], [132.9923, 33.3608], [132.997, 33.3812], [132.9882, 33.3899], [132.9796, 33.3908], [132.9694, 33.3826], [132.9561, 33.4005], [132.9631, 33.4131], [132.9854, 33.4153], [132.9838, 33.4249], [132.9937, 33.4304], [132.9866, 33.4347], [132.9969, 33.4472], [132.9893, 33.4739], [132.9596, 33.4663], [132.9442, 33.4719], [132.9152, 33.4677], [132.8883, 33.4734], [132.8645, 33.4723], [132.8475, 33.4792], [132.8203, 33.4724], [132.8189, 33.4666], [132.807, 33.4608], [132.8081, 33.4539], [132.8266, 33.4456], [132.8249, 33.4229], [132.834, 33.4202], [132.8316, 33.4089], [132.837, 33.3991], [132.8545, 33.3983], [132.853, 33.3882], [132.8613, 33.3676], [132.8901, 33.3575], [132.9029, 33.338], [132.9017, 33.3273], [132.922, 33.3253], [132.9406, 33.3147], [132.9523, 33.3135], [132.9591, 33.2961], [132.9739, 33.2845], [132.9804, 33.2838], [132.9816, 33.2908], [132.9941, 33.2981], [133.0003, 33.3088], [133.0258, 33.3064], [133.0355, 33.3212], [133.0285, 33.343]]]}}]}