{"type": "FeatureCollection", "parent": {"osm_id": 38092, "name": "Southwest Finland", "admin_level": "4", "kind": "subdivision_1", "child_kind": "subdivision_2", "iso": "FI-19"}, "features": [{"type": "Feature", "properties": {"osm_type": "relation", "osm_id": 112014184, "name": "Turunmaan seutukunta", "admin_level": "6", "kind": "subdivision_2", "parent_osm_id": 38092, "parent_name": "Southwest Finland", "parent_iso": "FI-19"}, "geometry": {"type": "MultiPolygon", "coordinates": [[[[21.621, 59.8297], [21.6044, 59.8334], [21.5849, 59.8304], [21.5842, 59.8248], [21.5779, 59.8263], [21.5796, 59.8224], [21.551, 59.8116], [21.5727, 59.8194], [21.5722, 59.8137], [21.5853, 59.8205], [21.5882, 59.8188], [21.5847, 59.8159], [21.6108, 59.8265], [21.6235, 59.8239], [21.6475, 59.8364], [21.621, 59.8297]]], [[[22.3241, 59.8082], [22.3415, 59.805], [22.338, 59.811], [22.3335, 59.81], [22.3382, 59.8143], [22.3287, 59.814], [22.3215, 59.8212], [22.325, 59.825], [22.3182, 59.8287], [22.3208, 59.819], [22.3095, 59.8002], [22.324, 59.8035], [22.3195, 59.807], [22.3241, 59.8082]]], [[[22.3828, 59.8207], [22.3788, 59.8173], [22.3867, 59.8145], [22.3837, 59.8077], [22.3985, 59.8128], [22.4015, 59.8098], [22.3935, 59.809], [22.3995, 59.806], [22.4078, 59.8143], [22.3955, 59.8203], [22.3983, 59.822], [22.3942, 59.8263], [22.3925, 59.82], [22.3897, 59.8255], [22.3828, 59.8207]]], [[[22.208, 59.8708], [22.2168, 59.873], [22.2135, 59.8765], [22.186, 59.8777], [22.1728, 59.8683], [22.2045, 59.8672], [22.2003, 59.869], [22.208, 59.8708]]], [[[22.412, 59.8535], [22.4118, 59.848], [22.4163, 59.847], [22.4267, 59.8522], [22.4423, 59.8507], [22.4572, 59.8545], [22.467, 59.8625], [22.4835, 59.86], [22.5083, 59.8665], [22.5068, 59.872], [22.5177, 59.8747], [22.499, 59.879], [22.4868, 59.8773], [22.4805, 59.8715], [22.4703, 59.8743], [22.4728, 59.8715], [22.4672, 59.869], [22.4525, 59.8735], [22.4428, 59.871], [22.4503, 59.8695], [22.438, 59.8625], [22.4217, 59.8663], [22.4195, 59.8639], [22.4241, 59.8625], [22.4168, 59.8578], [22.4148, 59.865], [22.4103, 59.8597], [22.418, 59.855], [22.412, 59.8535]]], [[[22.4999, 59.8848], [22.5261, 59.8867], [22.5189, 59.8893], [22.5324, 59.8951], [22.5291, 59.9008], [22.5186, 59.8969], [22.5115, 59.8993], [22.4906, 59.8909], [22.4969, 59.8874], [22.4784, 59.8902], [22.4736, 59.886], [22.485, 59.8842], [22.4719, 59.8838], [22.4755, 59.8804], [22.4716, 59.8774], [22.4812, 59.8745], [22.4999, 59.8848]]], [[[22.3884, 59.8536], [22.3805, 59.853], [22.3835, 59.8495], [22.3753, 59.852], [22.3738, 59.8468], [22.403, 59.8398], [22.397, 59.8447], [22.409, 59.8537], [22.405, 59.8567], [22.396, 59.8515], [22.3957, 59.8567], [22.4028, 59.8603], [22.3992, 59.8612], [22.3805, 59.8585], [22.3884, 59.8536]]], [[[22.3798, 59.8933], [22.395, 59.8948], [22.4025, 59.9002], [22.3765, 59.8985], [22.372, 59.8995], [22.3732, 59.9053], [22.3682, 59.9047], [22.3678, 59.8967], [22.3783, 59.8957], [22.369, 59.8948], [22.3693, 59.8912], [22.3798, 59.8933]]], [[[21.6839, 59.902], [21.6834, 59.905], [21.6941, 59.9032], [21.6989, 59.9111], [21.687, 59.9164], [21.6743, 59.9134], [21.672, 59.904], [21.684, 59.9097], [21.6752, 59.9028], [21.6839, 59.902]]], [[[21.761, 59.9053], [21.777, 59.9123], [21.768, 59.9153], [21.7767, 59.9145], [21.7647, 59.9188], [21.7647, 59.9147], [21.755, 59.9153], [21.758, 59.9132], [21.753, 59.9135], [21.745, 59.9032], [21.7578, 59.9053], [21.7602, 59.9102], [21.761, 59.9053]]], [[[22.603, 59.9415], [22.6313, 59.9357], [22.6058, 59.948], [22.5904, 59.9452], [22.5998, 59.946], [22.603, 59.9415]]], [[[22.5742, 59.9475], [22.5867, 59.9502], [22.5753, 59.9502], [22.5855, 59.9562], [22.5658, 59.954], [22.5542, 59.9461], [22.5742, 59.9475]]], [[[22.6231, 59.9415], [22.6358, 59.9368], [22.6532, 59.9378], [22.625, 59.9492], [22.6477, 59.948], [22.6567, 59.9517], [22.6152, 59.9537], [22.6298, 59.9575], [22.6178, 59.9655], [22.638, 59.96], [22.648, 59.9637], [22.6385, 59.9693], [22.643, 59.9723], [22.6388, 59.978], [22.6197, 59.9845], [22.6273, 59.9892], [22.6118, 59.9907], [22.6077, 59.9875], [22.6155, 59.9847], [22.6002, 59.9785], [22.6025, 59.9705], [22.6118, 59.9708], [22.6083, 59.968], [22.6133, 59.9637], [22.605, 59.9652], [22.5869, 59.9583], [22.5979, 59.9517], [22.6088, 59.9532], [22.6043, 59.9495], [22.6231, 59.9415]]], [[[22.4485, 59.9865], [22.4375, 59.984], [22.4365, 59.9579], [22.455, 59.9697], [22.4685, 59.963], [22.4657, 59.9775], [22.4615, 59.9783], [22.4615, 59.9735], [22.4585, 59.9778], [22.4503, 59.9748], [22.4533, 59.982], [22.4485, 59.9865]]], [[[22.5015, 59.9826], [22.5065, 59.9753], [22.5005, 59.9709], [22.507, 59.9657], [22.5015, 59.9636], [22.509, 59.9584], [22.5598, 59.9718], [22.556, 59.9745], [22.5599, 59.9815], [22.5528, 59.9839], [22.5194, 59.9881], [22.5015, 59.9826]]], [[[21.7089, 59.9093], [21.7425, 59.9205], [21.7273, 59.9117], [21.7368, 59.9102], [21.7465, 59.9195], [21.7535, 59.9198], [21.722, 59.9198], [21.718, 59.9143], [21.7075, 59.915], [21.7055, 59.9113], [21.7172, 59.9138], [21.7089, 59.9093]]], [[[22.4641, 59.9415], [22.4657, 59.937], [22.4575, 59.9265], [22.48, 59.9165], [22.485, 59.9265], [22.477, 59.9203], [22.4737, 59.928], [22.482, 59.9278], [22.482, 59.9382], [22.4705, 59.9405], [22.4788, 59.9348], [22.473, 59.9285], [22.47, 59.9327], [22.4735, 59.9355], [22.4641, 59.9415]]], [[[22.4924, 59.9413], [22.4928, 59.9355], [22.4985, 59.9427], [22.4992, 59.9375], [22.4955, 59.9375], [22.5045, 59.928], [22.494, 59.923], [22.5015, 59.9225], [22.5027, 59.9265], [22.5083, 59.9213], [22.5105, 59.927], [22.5162, 59.9278], [22.517, 59.9333], [22.5128, 59.9325], [22.519, 59.9408], [22.5085, 59.9498], [22.4997, 59.9472], [22.5035, 59.9507], [22.498, 59.9552], [22.4924, 59.9413]]], [[[21.79, 59.9177], [21.7945, 59.923], [21.7895, 59.9323], [21.773, 59.9312], [21.7782, 59.9243], [21.7677, 59.9218], [21.7817, 59.9173], [21.7785, 59.9145], [21.7823, 59.9125], [21.79, 59.9177]]], [[[22.3442, 59.9285], [22.3603, 59.9193], [22.3654, 59.9228], [22.3584, 59.9284], [22.3692, 59.9256], [22.3764, 59.9361], [22.3607, 59.9387], [22.3442, 59.9285]]], [[[22.3777, 59.9135], [22.3865, 59.9228], [22.3753, 59.925], [22.3493, 59.9072], [22.356, 59.9047], [22.3777, 59.9135]]], [[[21.7193, 59.9413], [21.7623, 59.9455], [21.7662, 59.949], [21.7623, 59.9502], [21.78, 59.9558], [21.7778, 59.9708], [21.764, 59.9665], [21.7662, 59.9708], [21.7563, 59.969], [21.761, 59.9648], [21.7455, 59.966], [21.7482, 59.9627], [21.7445, 59.956], [21.756, 59.9558], [21.7553, 59.9515], [21.7193, 59.9413]]], [[[22.3331, 59.9415], [22.3405, 59.9322], [22.347, 59.9328], [22.3729, 59.9498], [22.3659, 59.9533], [22.3701, 59.9628], [22.3358, 59.9624], [22.33, 59.9493], [22.3331, 59.9415]]], [[[22.3977, 59.9413], [22.3955, 59.9367], [22.4054, 59.921], [22.4254, 59.9274], [22.425, 59.9518], [22.4301, 59.9527], [22.4363, 59.9637], [22.4268, 59.9821], [22.4135, 59.969], [22.4163, 59.9657], [22.4105, 59.966], [22.418, 59.96], [22.4073, 59.9565], [22.4058, 59.9595], [22.4038, 59.9527], [22.3955, 59.9512], [22.3977, 59.9413]]], [[[22.5627, 59.9672], [22.5374, 59.9632], [22.5508, 59.9563], [22.5342, 59.9621], [22.5145, 59.9547], [22.5257, 59.9536], [22.5225, 59.9518], [22.5278, 59.9464], [22.5352, 59.9475], [22.5407, 59.9532], [22.5284, 59.9538], [22.5521, 59.9545], [22.5761, 59.9613], [22.5626, 59.9607], [22.5723, 59.964], [22.5627, 59.9672]]], [[[21.0795, 60.1347], [21.0873, 60.1362], [21.0877, 60.14], [21.082, 60.1407], [21.0897, 60.1445], [21.083, 60.1478], [21.0763, 60.148], [21.0695, 60.1358], [21.068, 60.144], [21.061, 60.1397], [21.0678, 60.1335], [21.0795, 60.1347]]], [[[21.4818, 60.1172], [21.4626, 60.1128], [21.4627, 60.1082], [21.4705, 60.1053], [21.4819, 60.1094], [21.4984, 60.1037], [21.518, 60.1087], [21.5149, 60.1128], [21.4895, 60.1177], [21.4917, 60.1208], [21.4818, 60.1172]]], [[[21.6212, 60.1026], [21.6288, 60.1015], [21.6322, 60.0955], [21.6462, 60.1], [21.682, 60.0927], [21.6883, 60.0988], [21.6805, 60.0995], [21.6917, 60.1015], [21.6645, 60.1082], [21.606, 60.1033], [21.607, 60.0988], [21.6175, 60.0958], [21.6155, 60.0995], [21.6212, 60.1026]]], [[[21.621, 60.1066], [21.6416, 60.1054], [21.6593, 60.1103], [21.616, 60.1105], [21.594, 60.108], [21.621, 60.1066]]], [[[21.7091, 60.1128], [21.7052, 60.1109], [21.7155, 60.1085], [21.7115, 60.105], [21.7355, 60.1043], [21.7425, 60.106], [21.7362, 60.1088], [21.7578, 60.1067], [21.752, 60.1133], [21.7402, 60.1138], [21.7503, 60.1178], [21.7667, 60.1125], [21.788, 60.1163], [21.7455, 60.1215], [21.7359, 60.1202], [21.734, 60.1148], [21.7091, 60.1128]]], [[[22.817, 60.0632], [22.823, 60.0706], [22.8178, 60.0733], [22.792, 60.066], [22.817, 60.0632]]], [[[22.7372, 59.9988], [22.7425, 59.9975], [22.7495, 60.0035], [22.742, 60.0003], [22.743, 60.0065], [22.7175, 60.0108], [22.717, 60.004], [22.7225, 60.0003], [22.7372, 59.9988]]], [[[22.6247, 60.0151], [22.6182, 60.013], [22.6202, 60.0087], [22.6142, 60.0037], [22.619, 60.0033], [22.6115, 59.9995], [22.6305, 60.0033], [22.633, 60.0063], [22.6253, 60.005], [22.628, 60.01], [22.6483, 60.011], [22.6247, 60.0151]]], [[[22.6759, 60.0324], [22.6708, 60.0355], [22.658, 60.0315], [22.666, 60.0305], [22.6608, 60.0252], [22.6668, 60.019], [22.648, 60.0142], [22.6552, 60.0093], [22.6612, 59.9952], [22.6797, 59.9915], [22.6852, 59.9925], [22.6767, 59.9958], [22.684, 59.9958], [22.6825, 59.9997], [22.6867, 60.0007], [22.6765, 60.003], [22.6842, 60.0048], [22.6758, 60.01], [22.677, 60.015], [22.683, 60.011], [22.6822, 60.0225], [22.671, 60.0228], [22.6807, 60.026], [22.6759, 60.0324]]], [[[22.337, 59.9677], [22.3591, 59.9639], [22.3531, 59.9763], [22.3651, 59.9751], [22.3631, 59.988], [22.3722, 59.9895], [22.3747, 59.9966], [22.361, 59.9983], [22.3616, 59.9926], [22.3567, 59.9908], [22.3485, 59.9933], [22.3518, 59.9772], [22.3432, 59.9792], [22.337, 59.9677]]], [[[22.412, 59.9744], [22.4325, 59.9896], [22.419, 60.0029], [22.4073, 59.9787], [22.409, 59.9728], [22.412, 59.9744]]], [[[21.1552, 60.3122], [21.1615, 60.31], [21.1715, 60.3215], [21.17, 60.3255], [21.1612, 60.3252], [21.1528, 60.3327], [21.1438, 60.3297], [21.15, 60.326], [21.145, 60.3252], [21.1468, 60.3212], [21.1578, 60.3237], [21.1513, 60.3175], [21.159, 60.3137], [21.1457, 60.3147], [21.1552, 60.3122]]], [[[21.1817, 60.3276], [21.194, 60.3353], [21.1795, 60.3425], [21.184, 60.337], [21.173, 60.3317], [21.1747, 60.326], [21.1817, 60.3276]]], [[[21.153, 60.34], [21.1618, 60.346], [21.1573, 60.352], [21.1672, 60.3485], [21.1685, 60.357], [21.1558, 60.3585], [21.1403, 60.3473], [21.1405, 60.341], [21.153, 60.34]]], [[[21.484, 60.3685], [21.4975, 60.3717], [21.4862, 60.3747], [21.4865, 60.381], [21.4965, 60.384], [21.4877, 60.3847], [21.4847, 60.3895], [21.4668, 60.3858], [21.4675, 60.3805], [21.4793, 60.383], [21.4735, 60.3757], [21.4833, 60.3717], [21.4772, 60.3664], [21.472, 60.3684], [21.4727, 60.3586], [21.4792, 60.3582], [21.4779, 60.3638], [21.484, 60.3685]]], [[[21.1817, 60.3561], [21.1883, 60.3575], [21.1905, 60.3715], [21.1805, 60.3638], [21.169, 60.3625], [21.1773, 60.3533], [21.1817, 60.3561]]], [[[21.3034, 60.3808], [21.2891, 60.375], [21.3109, 60.3591], [21.3194, 60.3609], [21.3239, 60.3715], [21.3258, 60.3609], [21.3354, 60.3685], [21.3412, 60.3664], [21.3298, 60.3594], [21.3371, 60.3562], [21.3348, 60.3521], [21.366, 60.355], [21.3587, 60.3709], [21.3475, 60.3712], [21.3474, 60.3795], [21.3325, 60.3905], [21.3135, 60.3944], [21.2975, 60.3919], [21.3029, 60.388], [21.2949, 60.3886], [21.3022, 60.3844], [21.3149, 60.3886], [21.3034, 60.3808]]], [[[21.18, 60.379], [21.17, 60.3877], [21.1642, 60.3846], [21.161, 60.3723], [21.1713, 60.3717], [21.1755, 60.3817], [21.18, 60.379]]], [[[21.3575, 60.4044], [21.365, 60.4065], [21.3585, 60.4102], [21.3517, 60.411], [21.3555, 60.407], [21.3283, 60.415], [21.3158, 60.4042], [21.3385, 60.4085], [21.3385, 60.404], [21.347, 60.401], [21.3575, 60.4044]]], [[[21.1963, 60.3915], [21.1998, 60.3979], [21.1868, 60.4106], [21.184, 60.4083], [21.192, 60.4039], [21.1832, 60.3972], [21.188, 60.3897], [21.1963, 60.3915]]], [[[21.3574, 60.3954], [21.365, 60.3845], [21.4027, 60.3659], [21.4013, 60.3699], [21.4088, 60.3781], [21.4012, 60.3903], [21.4086, 60.3882], [21.4146, 60.3922], [21.393, 60.4013], [21.3903, 60.3964], [21.3872, 60.4026], [21.3741, 60.4064], [21.3542, 60.3999], [21.3574, 60.3954]]], [[[21.23, 60.397], [21.2338, 60.3997], [21.2175, 60.4186], [21.2228, 60.4243], [21.2155, 60.431], [21.209, 60.4255], [21.2035, 60.4327], [21.2072, 60.4385], [21.202, 60.4412], [21.1973, 60.434], [21.2022, 60.4278], [21.2, 60.4237], [21.2067, 60.4235], [21.206, 60.4173], [21.213, 60.4165], [21.2138, 60.412], [21.2125, 60.4093], [21.2057, 60.4147], [21.1973, 60.4113], [21.2015, 60.3997], [21.211, 60.3948], [21.2094, 60.4009], [21.2143, 60.4006], [21.2147, 60.4048], [21.23, 60.397]]], [[[21.4245, 60.4005], [21.434, 60.399], [21.4428, 60.4105], [21.4395, 60.4183], [21.43, 60.4165], [21.426, 60.427], [21.4, 60.413], [21.4168, 60.4132], [21.4138, 60.402], [21.4245, 60.4005]]], [[[21.2696, 60.4197], [21.2533, 60.4225], [21.2458, 60.4185], [21.2583, 60.4123], [21.2707, 60.415], [21.2745, 60.4185], [21.2696, 60.4197]]], [[[21.3575, 60.4123], [21.385, 60.4147], [21.3968, 60.427], [21.4115, 60.4235], [21.4193, 60.4375], [21.4055, 60.4402], [21.393, 60.4285], [21.3961, 60.4395], [21.3814, 60.4384], [21.3848, 60.4365], [21.3745, 60.4327], [21.3685, 60.4213], [21.3545, 60.4175], [21.3575, 60.4123]]], [[[21.2764, 60.2929], [21.275, 60.2885], [21.2885, 60.2835], [21.3012, 60.2822], [21.3032, 60.285], [21.2935, 60.2865], [21.309, 60.2888], [21.2985, 60.2945], [21.2764, 60.2929]]], [[[21.5212, 60.2931], [21.5178, 60.2894], [21.528, 60.2859], [21.526, 60.2828], [21.5422, 60.2848], [21.567, 60.2769], [21.5545, 60.2858], [21.5803, 60.2869], [21.5824, 60.2905], [21.5752, 60.3012], [21.5553, 60.3053], [21.5451, 60.2968], [21.5384, 60.302], [21.5277, 60.2979], [21.5317, 60.2942], [21.5212, 60.2931]]], [[[21.621, 60.2864], [21.61, 60.287], [21.6172, 60.2908], [21.6077, 60.292], [21.6053, 60.2885], [21.6107, 60.285], [21.6447, 60.2828], [21.6393, 60.2792], [21.642, 60.2758], [21.653, 60.2767], [21.651, 60.2815], [21.6863, 60.2833], [21.6785, 60.2905], [21.643, 60.2998], [21.6423, 60.289], [21.624, 60.29], [21.621, 60.2864]]], [[[21.4452, 60.2705], [21.4435, 60.2755], [21.4518, 60.286], [21.4462, 60.2912], [21.4348, 60.288], [21.4277, 60.2923], [21.4175, 60.2845], [21.393, 60.2867], [21.3798, 60.282], [21.3785, 60.2728], [21.3738, 60.274], [21.3867, 60.2715], [21.3807, 60.2687], [21.3865, 60.2677], [21.4452, 60.2705]]], [[[22.3243, 60.3271], [22.3738, 60.3188], [22.3927, 60.3285], [22.3652, 60.306], [22.3708, 60.2972], [22.4493, 60.3063], [22.5233, 60.3438], [22.5167, 60.3488], [22.4617, 60.3432], [22.444, 60.3513], [22.4172, 60.35], [22.4193, 60.3563], [22.4088, 60.3595], [22.4232, 60.3693], [22.4193, 60.371], [22.4255, 60.373], [22.4228, 60.3745], [22.3581, 60.3649], [22.351, 60.3603], [22.3336, 60.3619], [22.3307, 60.3598], [22.3365, 60.36], [22.3337, 60.3563], [22.3385, 60.3513], [22.3182, 60.3495], [22.3223, 60.3468], [22.3163, 60.3447], [22.3182, 60.3405], [22.3055, 60.3315], [22.3063, 60.3276], [22.3243, 60.3271]]], [[[21.4623, 60.293], [21.4862, 60.2897], [21.499, 60.293], [21.4958, 60.2965], [21.4995, 60.2978], [21.477, 60.2953], [21.4735, 60.299], [21.4623, 60.293]]], [[[21.2303, 60.301], [21.2323, 60.305], [21.242, 60.304], [21.2345, 60.3073], [21.2432, 60.311], [21.2207, 60.3167], [21.2125, 60.3137], [21.2303, 60.301]]], [[[21.2888, 60.3205], [21.3092, 60.323], [21.3115, 60.3302], [21.2995, 60.3278], [21.2993, 60.3317], [21.2875, 60.3338], [21.2898, 60.331], [21.2775, 60.3308], [21.2812, 60.3272], [21.278, 60.3212], [21.2888, 60.3205]]], [[[21.3263, 60.333], [21.338, 60.3375], [21.3245, 60.337], [21.326, 60.3398], [21.31, 60.3443], [21.2945, 60.3432], [21.304, 60.3395], [21.311, 60.3425], [21.3095, 60.3392], [21.3188, 60.336], [21.3107, 60.3345], [21.3263, 60.333]]], [[[21.3002, 60.149], [21.314, 60.1527], [21.3218, 60.1602], [21.3175, 60.1683], [21.2948, 60.166], [21.3012, 60.161], [21.296, 60.1535], [21.2922, 60.1598], [21.2865, 60.157], [21.2922, 60.1542], [21.2918, 60.1497], [21.3002, 60.149]]], [[[21.9322, 60.141], [21.9524, 60.1395], [21.9632, 60.145], [21.9495, 60.149], [21.9322, 60.141]]], [[[22.128, 60.1379], [22.1375, 60.1462], [22.1318, 60.1595], [22.1112, 60.1557], [22.1097, 60.152], [22.1148, 60.1495], [22.103, 60.1434], [22.1135, 60.137], [22.128, 60.1379]]], [[[22.167, 60.1465], [22.194, 60.1553], [22.1657, 60.153], [22.1606, 60.1468], [22.1515, 60.1495], [22.149, 60.143], [22.167, 60.1465]]], [[[21.5018, 60.1687], [21.497, 60.1703], [21.5004, 60.1749], [21.4799, 60.1756], [21.4821, 60.1713], [21.477, 60.1695], [21.4843, 60.1684], [21.4659, 60.1683], [21.4629, 60.1634], [21.4925, 60.1638], [21.5018, 60.1687]]], [[[22.3835, 60.1173], [22.3875, 60.1115], [22.4013, 60.116], [22.3955, 60.115], [22.3968, 60.1208], [22.3878, 60.1229], [22.3913, 60.1253], [22.3874, 60.1276], [22.3819, 60.1204], [22.3795, 60.1262], [22.3725, 60.1235], [22.3835, 60.1173]]], [[[21.8314, 60.1173], [21.8535, 60.114], [21.8498, 60.1187], [21.8675, 60.1245], [21.8723, 60.1217], [21.8672, 60.1172], [21.881, 60.1217], [21.8955, 60.116], [21.9025, 60.122], [21.896, 60.1257], [21.8717, 60.1253], [21.871, 60.1295], [21.8795, 60.1283], [21.876, 60.1305], [21.8433, 60.1272], [21.8568, 60.131], [21.8257, 60.134], [21.8166, 60.129], [21.8197, 60.1277], [21.817, 60.1243], [21.8235, 60.1202], [21.8278, 60.123], [21.8314, 60.1173]]], [[[21.7091, 60.1218], [21.7213, 60.1178], [21.7291, 60.1217], [21.6999, 60.1279], [21.6855, 60.124], [21.7091, 60.1218]]], [[[22.3241, 60.1438], [22.3002, 60.1418], [22.3005, 60.1322], [22.3197, 60.1283], [22.3135, 60.1375], [22.3205, 60.135], [22.3388, 60.1452], [22.3241, 60.1438]]], [[[21.9728, 60.1338], [21.9732, 60.1407], [21.9247, 60.13], [21.9202, 60.1249], [21.9419, 60.1213], [21.9429, 60.1178], [21.937, 60.1158], [21.9422, 60.1132], [21.9642, 60.1109], [22.0111, 60.1156], [22.0191, 60.1186], [22.0179, 60.124], [21.9865, 60.1311], [21.9706, 60.1296], [21.9728, 60.1338]]], [[[21.4713, 60.122], [21.4915, 60.1265], [21.5075, 60.1392], [21.489, 60.1405], [21.4632, 60.1202], [21.4713, 60.122]]], [[[22.2362, 60.1367], [22.2297, 60.1325], [22.247, 60.1352], [22.243, 60.1377], [22.2455, 60.143], [22.2275, 60.14], [22.22, 60.1433], [22.2235, 60.14], [22.211, 60.1355], [22.2185, 60.132], [22.2362, 60.1367]]], [[[21.464, 60.1322], [21.4713, 60.131], [21.4855, 60.1452], [21.4725, 60.147], [21.4677, 60.1457], [21.4725, 60.143], [21.4565, 60.1448], [21.4477, 60.14], [21.4518, 60.1365], [21.4582, 60.14], [21.4545, 60.1343], [21.464, 60.1322]]], [[[22.0064, 60.1335], [22.0212, 60.1324], [22.0108, 60.1365], [22.0238, 60.137], [22.0435, 60.146], [21.9827, 60.1427], [21.9767, 60.1388], [21.9804, 60.1344], [22.0064, 60.1335]]], [[[22.2662, 60.134], [22.2772, 60.1373], [22.2817, 60.1437], [22.285, 60.157], [22.2767, 60.157], [22.287, 60.1598], [22.282, 60.1587], [22.2812, 60.1635], [22.267, 60.1583], [22.2602, 60.1632], [22.2595, 60.157], [22.2503, 60.1555], [22.2583, 60.1542], [22.251, 60.1495], [22.252, 60.1415], [22.2462, 60.137], [22.2593, 60.137], [22.2525, 60.1292], [22.2662, 60.134]]], [[[21.5333, 60.1436], [21.5372, 60.1403], [21.5587, 60.1435], [21.5888, 60.139], [21.5795, 60.1388], [21.5805, 60.135], [21.5733, 60.1403], [21.5515, 60.138], [21.5483, 60.1419], [21.5376, 60.1377], [21.5282, 60.1435], [21.5224, 60.1383], [21.5092, 60.137], [21.4989, 60.1266], [21.5097, 60.1255], [21.4986, 60.1209], [21.5188, 60.1262], [21.514, 60.123], [21.5212, 60.119], [21.5143, 60.116], [21.5173, 60.1113], [21.5383, 60.1165], [21.5297, 60.111], [21.5458, 60.1082], [21.5727, 60.1093], [21.5712, 60.1127], [21.5753, 60.1139], [21.5822, 60.1085], [21.6077, 60.1148], [21.6098, 60.1112], [21.6462, 60.112], [21.6702, 60.1202], [21.6608, 60.1385], [21.6537, 60.1437], [21.6435, 60.1403], [21.644, 60.1465], [21.6755, 60.1485], [21.69, 60.1557], [21.6928, 60.162], [21.6884, 60.1704], [21.6924, 60.1715], [21.6854, 60.1729], [21.6915, 60.1733], [21.6922, 60.1778], [21.6475, 60.178], [21.6103, 60.1868], [21.5783, 60.1863], [21.5617, 60.181], [21.578, 60.179], [21.5643, 60.1783], [21.553, 60.1713], [21.545, 60.1735], [21.5435, 60.1675], [21.5341, 60.1664], [21.5454, 60.1629], [21.513, 60.1557], [21.5064, 60.1483], [21.5071, 60.1416], [21.5333, 60.1436]]], [[[21.8849, 60.142], [21.8843, 60.1477], [21.9011, 60.1528], [21.9003, 60.1487], [21.9185, 60.1492], [21.9161, 60.1548], [21.8664, 60.1595], [21.8308, 60.1406], [21.8366, 60.1378], [21.8329, 60.1343], [21.8559, 60.1317], [21.8625, 60.1355], [21.8869, 60.1336], [21.9065, 60.1441], [21.8849, 60.142]]], [[[22.8665, 60.2476], [22.8562, 60.2468], [22.8616, 60.2428], [22.8449, 60.2378], [22.8268, 60.24], [22.8194, 60.2358], [22.8189, 60.2422], [22.8079, 60.2361], [22.7904, 60.2348], [22.7763, 60.24], [22.7688, 60.2361], [22.7381, 60.2384], [22.6491, 60.2284], [22.6337, 60.2305], [22.63, 60.2252], [22.6128, 60.2293], [22.5704, 60.2099], [22.5395, 60.2055], [22.5197, 60.2096], [22.473, 60.2067], [22.498, 60.2146], [22.4951, 60.2217], [22.5068, 60.2297], [22.4816, 60.2409], [22.4661, 60.2375], [22.454, 60.2168], [22.4563, 60.2094], [22.4626, 60.2088], [22.4609, 60.2031], [22.4404, 60.1938], [22.4399, 60.1891], [22.4142, 60.1812], [22.4122, 60.1727], [22.4157, 60.1701], [22.4118, 60.1683], [22.42, 60.1631], [22.4148, 60.1595], [22.4552, 60.1669], [22.4589, 60.1655], [22.4495, 60.164], [22.4888, 60.1578], [22.5376, 60.1634], [22.5455, 60.16], [22.5409, 60.1572], [22.6109, 60.1551], [22.6187, 60.151], [22.5558, 60.1543], [22.4685, 60.1454], [22.4591, 60.1425], [22.468, 60.1421], [22.4622, 60.1375], [22.4517, 60.137], [22.4536, 60.1322], [22.4461, 60.1393], [22.4393, 60.1384], [22.4268, 60.127], [22.4285, 60.1235], [22.4401, 60.1243], [22.4405, 60.1196], [22.4639, 60.1103], [22.4934, 60.1077], [22.4816, 60.1038], [22.4649, 60.1073], [22.4762, 60.0945], [22.4731, 60.0935], [22.4888, 60.0848], [22.4853, 60.0785], [22.4653, 60.074], [22.4654, 60.0799], [22.4718, 60.0845], [22.4614, 60.087], [22.4656, 60.0921], [22.4602, 60.0992], [22.4373, 60.1031], [22.4341, 60.0992], [22.4369, 60.1042], [22.4259, 60.1108], [22.4087, 60.111], [22.4048, 60.1048], [22.4179, 60.0973], [22.4114, 60.0869], [22.4077, 60.0871], [22.4096, 60.0938], [22.4054, 60.1008], [22.3906, 60.0925], [22.3655, 60.0898], [22.3692, 60.0768], [22.3638, 60.0606], [22.3787, 60.0412], [22.3744, 60.0388], [22.3836, 60.0376], [22.3855, 60.0317], [22.3775, 60.0271], [22.3782, 60.0136], [22.3927, 60.0002], [22.4019, 60.0046], [22.4052, 60.0098], [22.3951, 60.0324], [22.4049, 60.0335], [22.4091, 60.0246], [22.4039, 60.0169], [22.4067, 60.0104], [22.4209, 60.0105], [22.4349, 60.0244], [22.4285, 60.0343], [22.4386, 60.0317], [22.4372, 60.0235], [22.4464, 60.0117], [22.4434, 60.0057], [22.4382, 60.0124], [22.4355, 60.0032], [22.4438, 60.0045], [22.452, 59.9979], [22.4653, 60.005], [22.4595, 60.0174], [22.4634, 60.0243], [22.4672, 60.0251], [22.4624, 60.0219], [22.4667, 60.0177], [22.4631, 60.015], [22.4702, 60.0104], [22.4988, 60.0178], [22.5122, 60.0156], [22.5035, 60.0197], [22.5454, 60.028], [22.5555, 60.0262], [22.5476, 60.0315], [22.5714, 60.032], [22.595, 60.0389], [22.6115, 60.0522], [22.6094, 60.0614], [22.6157, 60.0588], [22.6129, 60.0498], [22.5979, 60.0338], [22.5907, 60.0368], [22.5774, 60.0314], [22.5759, 60.0201], [22.5814, 60.0285], [22.5804, 60.0245], [22.5923, 60.0212], [22.6047, 60.0261], [22.6045, 60.0304], [22.6183, 60.0294], [22.6113, 60.0248], [22.6282, 60.0199], [22.6242, 60.0153], [22.655, 60.019], [22.6543, 60.0243], [22.6472, 60.0262], [22.6592, 60.0335], [22.6569, 60.0367], [22.6637, 60.0434], [22.6695, 60.044], [22.6695, 60.0493], [22.682, 60.043], [22.6739, 60.0407], [22.6754, 60.0346], [22.6828, 60.0295], [22.6861, 60.0144], [22.6959, 60.0127], [22.6902, 60.0102], [22.6947, 60.0069], [22.7075, 60.0074], [22.7026, 60.013], [22.7054, 60.0143], [22.7214, 60.0137], [22.7241, 60.0182], [22.7196, 60.021], [22.7442, 60.0146], [22.7548, 60.0048], [22.7607, 60.0069], [22.7554, 60.0138], [22.7467, 60.0156], [22.7562, 60.0213], [22.7488, 60.0244], [22.7518, 60.0264], [22.7468, 60.0307], [22.7655, 60.0343], [22.7609, 60.0304], [22.7687, 60.0279], [22.7574, 60.024], [22.7661, 60.0111], [22.7834, 60.018], [22.784, 60.0217], [22.7735, 60.0258], [22.7895, 60.0267], [22.7922, 60.031], [22.776, 60.0314], [22.7877, 60.0358], [22.7738, 60.0405], [22.7758, 60.0443], [22.7548, 60.0428], [22.766, 60.0495], [22.7781, 60.0474], [22.7797, 60.0529], [22.7769, 60.0638], [22.7536, 60.0641], [22.7713, 60.0663], [22.7711, 60.0741], [22.7784, 60.0758], [22.7717, 60.0771], [22.7974, 60.0833], [22.7945, 60.0865], [22.8008, 60.0882], [22.7983, 60.0916], [22.8107, 60.0862], [22.8118, 60.0904], [22.8157, 60.0866], [22.8383, 60.0941], [22.8522, 60.1055], [22.8477, 60.1077], [22.8558, 60.1103], [22.8509, 60.1119], [22.8568, 60.1178], [22.8571, 60.1273], [22.8685, 60.1319], [22.8666, 60.1372], [22.8418, 60.1489], [22.8471, 60.1516], [22.8417, 60.1549], [22.8524, 60.1595], [22.8453, 60.1623], [22.8573, 60.1674], [22.8284, 60.1751], [22.833, 60.1798], [22.8688, 60.1865], [22.8563, 60.1896], [22.8524, 60.1978], [22.8602, 60.2048], [22.8544, 60.2062], [22.8626, 60.2106], [22.856, 60.2155], [22.8357, 60.2137], [22.8724, 60.2163], [22.896, 60.223], [22.8978, 60.2385], [22.9106, 60.2481], [22.9009, 60.251], [22.9183, 60.2546], [22.9089, 60.2639], [22.8864, 60.2495], [22.8665, 60.2476]]], [[[22.2364, 60.1763], [22.2255, 60.1797], [22.202, 60.1775], [22.2075, 60.1722], [22.1745, 60.1684], [22.1825, 60.1653], [22.1693, 60.1615], [22.1867, 60.163], [22.1895, 60.1683], [22.202, 60.1675], [22.2065, 60.1608], [22.2132, 60.1665], [22.2183, 60.1628], [22.25, 60.1658], [22.2485, 60.169], [22.2669, 60.1754], [22.2447, 60.1805], [22.2447, 60.1748], [22.2364, 60.1763]]], [[[21.4996, 60.1754], [21.5078, 60.1745], [21.5128, 60.1848], [21.493, 60.1857], [21.4797, 60.1793], [21.4996, 60.1754]]], [[[21.9284, 60.1615], [21.9466, 60.1806], [21.9089, 60.1706], [21.9127, 60.1615], [21.9284, 60.1615]]], [[[22.0933, 60.1752], [22.113, 60.1845], [22.099, 60.1802], [22.0668, 60.1833], [22.0747, 60.1715], [22.0933, 60.1752]]], [[[21.3573, 60.2379], [21.4078, 60.2407], [21.4247, 60.246], [21.4265, 60.2525], [21.4222, 60.2557], [21.422, 60.266], [21.3715, 60.2638], [21.372, 60.2572], [21.3565, 60.2632], [21.3502, 60.2605], [21.3605, 60.2507], [21.384, 60.2465], [21.4142, 60.253], [21.4058, 60.2488], [21.4168, 60.2495], [21.399, 60.2433], [21.3568, 60.2422], [21.356, 60.2465], [21.3502, 60.2463], [21.3562, 60.2507], [21.3355, 60.2505], [21.333, 60.2542], [21.327, 60.253], [21.334, 60.2505], [21.3122, 60.251], [21.302, 60.2458], [21.3173, 60.2465], [21.3167, 60.2422], [21.3, 60.2422], [21.3057, 60.2376], [21.3573, 60.2379]]], [[[21.7695, 60.2481], [21.7897, 60.2537], [21.7878, 60.2609], [21.752, 60.2598], [21.7529, 60.2445], [21.7695, 60.2481]]], [[[21.5331, 60.2548], [21.525, 60.2503], [21.53, 60.247], [21.5265, 60.2433], [21.5463, 60.241], [21.5455, 60.2445], [21.5542, 60.249], [21.5445, 60.255], [21.5331, 60.2548]]], [[[21.4454, 60.2534], [21.4713, 60.258], [21.463, 60.2615], [21.4522, 60.257], [21.4565, 60.2612], [21.4462, 60.262], [21.4352, 60.2545], [21.4454, 60.2534]]], [[[21.7089, 60.2623], [21.672, 60.2595], [21.707, 60.2548], [21.7235, 60.2623], [21.7089, 60.2623]]], [[[22.3241, 60.2488], [22.3292, 60.2455], [22.3285, 60.238], [22.3377, 60.237], [22.3495, 60.2422], [22.3575, 60.24], [22.422, 60.2497], [22.4183, 60.261], [22.4252, 60.2683], [22.4168, 60.2705], [22.4393, 60.2755], [22.4507, 60.2843], [22.451, 60.2942], [22.4692, 60.2968], [22.4682, 60.3033], [22.4602, 60.303], [22.4665, 60.3085], [22.369, 60.2956], [22.3597, 60.2855], [22.3605, 60.2795], [22.3557, 60.2846], [22.3515, 60.2828], [22.355, 60.2818], [22.3513, 60.2782], [22.3613, 60.275], [22.3511, 60.2652], [22.3478, 60.2653], [22.3547, 60.2758], [22.3508, 60.2773], [22.3085, 60.2638], [22.311, 60.2567], [22.3241, 60.2488]]], [[[22.3243, 60.2882], [22.3353, 60.2864], [22.3251, 60.2828], [22.3362, 60.2822], [22.3409, 60.2843], [22.3377, 60.2861], [22.3614, 60.2911], [22.348, 60.2963], [22.3636, 60.3095], [22.364, 60.3173], [22.3227, 60.3249], [22.3178, 60.3204], [22.2983, 60.321], [22.3022, 60.3133], [22.2952, 60.3135], [22.2843, 60.327], [22.245, 60.3339], [22.2268, 60.3248], [22.2177, 60.3308], [22.1875, 60.326], [22.18, 60.3283], [22.1973, 60.3314], [22.1891, 60.3333], [22.1061, 60.3273], [22.1003, 60.3245], [22.1038, 60.3219], [22.101, 60.3192], [22.1158, 60.3159], [22.0997, 60.31], [22.1017, 60.3009], [22.0889, 60.3002], [22.0971, 60.2959], [22.0913, 60.2956], [22.0875, 60.2858], [22.109, 60.2738], [22.1211, 60.2829], [22.1228, 60.2755], [22.1588, 60.271], [22.1525, 60.2672], [22.1596, 60.2654], [22.192, 60.2695], [22.1998, 60.2767], [22.1949, 60.2798], [22.1967, 60.2845], [22.2045, 60.2844], [22.2112, 60.2807], [22.2024, 60.2781], [22.2131, 60.2758], [22.2028, 60.2673], [22.2075, 60.266], [22.2015, 60.265], [22.21, 60.2629], [22.2051, 60.2586], [22.191, 60.263], [22.186, 60.2546], [22.2218, 60.2515], [22.2422, 60.2542], [22.2345, 60.2548], [22.2365, 60.2612], [22.226, 60.267], [22.2675, 60.2675], [22.2663, 60.2713], [22.2862, 60.2764], [22.2884, 60.2828], [22.3022, 60.2878], [22.2993, 60.2964], [22.3039, 60.2984], [22.311, 60.292], [22.3345, 60.2942], [22.3193, 60.2893], [22.3243, 60.2882]]], [[[22.3241, 60.1937], [22.31, 60.1932], [22.3087, 60.188], [22.295, 60.1823], [22.2937, 60.1755], [22.3105, 60.1758], [22.2883, 60.1677], [22.2975, 60.1605], [22.2928, 60.1555], [22.3062, 60.1535], [22.2851, 60.1475], [22.2913, 60.144], [22.2996, 60.1485], [22.338, 60.148], [22.339, 60.1647], [22.331, 60.1595], [22.3047, 60.162], [22.3502, 60.1713], [22.3652, 60.1695], [22.3717, 60.1773], [22.3685, 60.1797], [22.3825, 60.1865], [22.3773, 60.1938], [22.3865, 60.1962], [22.3917, 60.209], [22.3612, 60.2065], [22.349, 60.2], [22.3411, 60.2024], [22.3241, 60.1937]]], [[[21.2255, 60.1913], [21.2591, 60.1942], [21.2323, 60.2024], [21.2257, 60.1987], [21.2125, 60.2008], [21.2108, 60.1931], [21.2255, 60.1913]]], [[[21.2694, 60.2005], [21.2633, 60.2021], [21.263, 60.1989], [21.2912, 60.1914], [21.3087, 60.1933], [21.3063, 60.1984], [21.2694, 60.2005]]], [[[21.2893, 60.205], [21.3115, 60.2002], [21.3275, 60.2055], [21.3292, 60.2022], [21.3205, 60.1998], [21.3305, 60.1992], [21.3287, 60.2017], [21.3463, 60.2075], [21.3347, 60.2], [21.3513, 60.1985], [21.3113, 60.1983], [21.3152, 60.1953], [21.3106, 60.1924], [21.3283, 60.1905], [21.33, 60.1868], [21.363, 60.1875], [21.3612, 60.1785], [21.3695, 60.176], [21.3938, 60.1885], [21.3995, 60.1853], [21.3893, 60.1812], [21.397, 60.1808], [21.3965, 60.1775], [21.4255, 60.1893], [21.4401, 60.187], [21.4578, 60.1962], [21.4702, 60.2095], [21.4353, 60.2056], [21.4305, 60.209], [21.4287, 60.2052], [21.405, 60.2081], [21.3715, 60.2017], [21.3805, 60.209], [21.3553, 60.2105], [21.3725, 60.2145], [21.3702, 60.211], [21.383, 60.2103], [21.3935, 60.2145], [21.3975, 60.2203], [21.3937, 60.2216], [21.3993, 60.2254], [21.3612, 60.223], [21.3568, 60.2262], [21.3362, 60.222], [21.3393, 60.2262], [21.3851, 60.2327], [21.333, 60.2339], [21.3188, 60.2325], [21.313, 60.2225], [21.283, 60.2133], [21.2808, 60.2085], [21.2893, 60.205]]], [[[21.2564, 60.2052], [21.2681, 60.2034], [21.2773, 60.2138], [21.301, 60.2247], [21.2961, 60.2316], [21.2875, 60.2231], [21.2725, 60.2286], [21.2732, 60.22], [21.2607, 60.2283], [21.2577, 60.2245], [21.2486, 60.2259], [21.2594, 60.2144], [21.2445, 60.2142], [21.2564, 60.2052]]], [[[21.7091, 60.1377], [21.691, 60.1335], [21.7759, 60.1241], [21.7623, 60.1317], [21.7971, 60.1298], [21.8168, 60.1415], [21.8109, 60.1534], [21.8261, 60.1493], [21.8398, 60.1573], [21.8226, 60.1571], [21.8261, 60.1538], [21.8232, 60.1531], [21.817, 60.1569], [21.8019, 60.1546], [21.8033, 60.1576], [21.826, 60.1625], [21.853, 60.16], [21.862, 60.1653], [21.7983, 60.1697], [21.8517, 60.1673], [21.8968, 60.172], [21.9095, 60.1793], [21.8935, 60.1827], [21.8667, 60.1795], [21.8635, 60.1895], [21.9272, 60.1808], [21.9475, 60.1918], [21.9122, 60.1939], [21.9123, 60.1978], [21.9037, 60.199], [21.8947, 60.2077], [21.8855, 60.2045], [21.8378, 60.2086], [21.8645, 60.2125], [21.8807, 60.207], [21.893, 60.2112], [21.8825, 60.213], [21.892, 60.2185], [21.8822, 60.2208], [21.8407, 60.2218], [21.8364, 60.2206], [21.8418, 60.217], [21.8238, 60.2125], [21.7815, 60.2152], [21.7715, 60.2128], [21.7788, 60.2014], [21.7717, 60.1976], [21.7637, 60.2106], [21.7468, 60.2094], [21.7239, 60.1976], [21.7286, 60.1902], [21.7188, 60.1812], [21.7225, 60.1765], [21.7105, 60.1763], [21.721, 60.1708], [21.7397, 60.1734], [21.7438, 60.1786], [21.7431, 60.1708], [21.7538, 60.1685], [21.7386, 60.1689], [21.7458, 60.1655], [21.7255, 60.1688], [21.715, 60.1624], [21.7053, 60.1648], [21.7178, 60.1536], [21.7142, 60.1433], [21.7061, 60.1448], [21.7001, 60.1397], [21.7091, 60.1377]]], [[[22.1485, 60.1959], [22.1206, 60.1895], [22.1211, 60.1802], [22.0948, 60.1745], [22.0913, 60.1715], [22.0973, 60.1707], [22.0922, 60.1658], [22.1085, 60.1685], [22.113, 60.1739], [22.1393, 60.1758], [22.1345, 60.1838], [22.1575, 60.1915], [22.1485, 60.1959]]], [[[21.9728, 60.1987], [21.967, 60.1932], [21.9546, 60.1929], [21.9706, 60.1898], [21.9585, 60.1903], [21.9525, 60.1845], [21.9611, 60.1803], [21.9553, 60.1785], [21.9606, 60.1763], [21.9432, 60.1739], [21.939, 60.1663], [21.958, 60.1597], [21.9615, 60.1628], [21.9588, 60.1582], [21.9723, 60.1486], [21.9826, 60.1576], [21.9802, 60.1544], [21.9839, 60.1527], [21.9779, 60.1496], [21.9806, 60.1467], [21.9909, 60.1544], [21.9785, 60.1628], [21.9798, 60.1667], [21.9981, 60.1651], [21.9911, 60.1566], [21.9988, 60.1476], [22.0576, 60.1579], [22.0444, 60.1652], [22.0665, 60.1639], [22.0679, 60.1779], [22.0387, 60.1888], [22.0606, 60.1892], [22.0635, 60.1847], [22.0874, 60.1954], [22.1053, 60.1977], [22.1076, 60.2018], [22.1015, 60.2145], [22.0839, 60.2068], [22.0984, 60.2234], [22.0496, 60.2174], [22.0414, 60.2109], [22.043, 60.2075], [22.0376, 60.2092], [22.0204, 60.1977], [22.0091, 60.2023], [21.9728, 60.1987]]], [[[21.6212, 60.1927], [21.6156, 60.1887], [21.6393, 60.1827], [21.6612, 60.185], [21.667, 60.1905], [21.6585, 60.1953], [21.6605, 60.199], [21.6235, 60.203], [21.5983, 60.201], [21.6118, 60.1972], [21.6028, 60.1946], [21.6041, 60.1905], [21.6212, 60.1927]]], [[[21.9115, 60.205], [21.9365, 60.1989], [21.9329, 60.2063], [21.9482, 60.2019], [21.9582, 60.2062], [21.9502, 60.2136], [21.911, 60.209], [21.9115, 60.205]]], [[[21.9619, 60.205], [21.9835, 60.205], [21.9685, 60.2075], [21.9695, 60.2104], [21.9915, 60.2067], [22.0078, 60.2125], [21.9855, 60.2155], [21.9695, 60.2118], [21.9647, 60.2163], [21.9542, 60.2103], [21.9612, 60.2112], [21.9619, 60.205]]], [[[21.2233, 60.2338], [21.2402, 60.2495], [21.2172, 60.2435], [21.211, 60.2465], [21.221, 60.2392], [21.2165, 60.2335], [21.2233, 60.2338]]], [[[21.4452, 60.2136], [21.4665, 60.2157], [21.4655, 60.2212], [21.4545, 60.226], [21.474, 60.2285], [21.4557, 60.232], [21.4735, 60.2388], [21.422, 60.2305], [21.4458, 60.2398], [21.444, 60.244], [21.4342, 60.2433], [21.4163, 60.2373], [21.407, 60.2225], [21.4153, 60.2268], [21.4185, 60.2235], [21.406, 60.2223], [21.4073, 60.2175], [21.4, 60.2137], [21.406, 60.2112], [21.3962, 60.209], [21.4452, 60.2136]]], [[[21.9726, 60.219], [21.9917, 60.2205], [21.9823, 60.2253], [21.934, 60.2205], [21.9726, 60.219]]], [[[22.3243, 60.2248], [22.3055, 60.2145], [22.308, 60.2043], [22.3173, 60.2043], [22.3478, 60.212], [22.3435, 60.2148], [22.3493, 60.2172], [22.3637, 60.2178], [22.3753, 60.2275], [22.3565, 60.2283], [22.3545, 60.2317], [22.3243, 60.2248]]], [[[22.189, 60.2052], [22.2012, 60.2044], [22.1931, 60.1944], [22.2085, 60.197], [22.2173, 60.1933], [22.2133, 60.1922], [22.2154, 60.1881], [22.23, 60.1942], [22.2725, 60.1978], [22.287, 60.2068], [22.2902, 60.2143], [22.2993, 60.2133], [22.3055, 60.2225], [22.3272, 60.2358], [22.3248, 60.2433], [22.3065, 60.2554], [22.307, 60.2723], [22.2957, 60.2706], [22.2873, 60.2759], [22.2855, 60.2733], [22.2929, 60.2719], [22.284, 60.267], [22.2347, 60.2513], [22.2143, 60.2287], [22.2174, 60.2269], [22.2109, 60.2209], [22.2149, 60.2157], [22.1935, 60.2118], [22.189, 60.2052]]], [[[22.3927, 60.2425], [22.3685, 60.2373], [22.3785, 60.232], [22.3927, 60.2365], [22.3927, 60.2425]]], [[[22.2318, 60.248], [22.1842, 60.25], [22.1758, 60.242], [22.1891, 60.2401], [22.1812, 60.2373], [22.1878, 60.235], [22.1795, 60.2332], [22.1827, 60.2308], [22.1725, 60.225], [22.1728, 60.22], [22.2076, 60.2172], [22.2117, 60.2245], [22.2076, 60.2266], [22.215, 60.2377], [22.211, 60.2405], [22.2318, 60.248]]], [[[22.1485, 60.2389], [22.157, 60.239], [22.1521, 60.2354], [22.1566, 60.2334], [22.1445, 60.2365], [22.1423, 60.229], [22.1694, 60.2342], [22.1762, 60.2465], [22.1313, 60.246], [22.1339, 60.2427], [22.1145, 60.2398], [22.1115, 60.2355], [22.1485, 60.2389]]], [[[22.0604, 60.2515], [22.0405, 60.2428], [22.0553, 60.2385], [22.052, 60.2313], [22.0635, 60.2278], [22.0755, 60.229], [22.072, 60.23], [22.0745, 60.2347], [22.0948, 60.245], [22.0847, 60.2448], [22.0874, 60.2514], [22.0604, 60.2515]]], [[[21.9726, 60.2326], [21.981, 60.234], [21.9808, 60.2375], [21.9662, 60.2383], [21.9703, 60.242], [21.956, 60.2444], [21.9623, 60.247], [21.9548, 60.2527], [21.9481, 60.245], [21.9524, 60.2414], [21.9499, 60.2384], [21.9603, 60.2329], [21.9726, 60.2326]]], [[[21.5333, 60.235], [21.5265, 60.2362], [21.5297, 60.2385], [21.5188, 60.2485], [21.5252, 60.2552], [21.5087, 60.2525], [21.5055, 60.2493], [21.517, 60.248], [21.514, 60.2407], [21.4977, 60.2395], [21.4932, 60.2335], [21.5358, 60.2313], [21.5333, 60.235]]], [[[21.6212, 60.2382], [21.6324, 60.2395], [21.6245, 60.2456], [21.6391, 60.2512], [21.6394, 60.2558], [21.5863, 60.2535], [21.6003, 60.2573], [21.6034, 60.2626], [21.6132, 60.2582], [21.6179, 60.2613], [21.6055, 60.2736], [21.599, 60.272], [21.6037, 60.2749], [21.5841, 60.2744], [21.5745, 60.2566], [21.5808, 60.2545], [21.5646, 60.2483], [21.5662, 60.2359], [21.56, 60.2334], [21.5551, 60.2229], [21.5598, 60.2206], [21.5576, 60.2175], [21.5656, 60.2162], [21.5682, 60.2213], [21.5806, 60.2249], [21.5965, 60.2204], [21.6089, 60.2227], [21.607, 60.2314], [21.6001, 60.236], [21.6212, 60.2382]]]]}}, {"type": "Feature", "properties": {"osm_type": "relation", "osm_id": 752159500, "name": "Salon seutukunta", "admin_level": "6", "kind": "subdivision_2", "parent_osm_id": 38092, "parent_name": "Southwest Finland", "parent_iso": "FI-19"}, "geometry": {"type": "MultiPolygon", "coordinates": [[[[22.9396, 60.047], [22.9221, 60.0385], [22.9185, 60.0279], [22.9283, 60.0225], [22.9185, 60.0199], [22.9192, 60.0157], [22.9063, 60.0191], [22.9069, 60.0087], [22.917, 60.0079], [22.9162, 60.0129], [22.929, 60.0033], [22.9285, 60.0107], [22.9343, 60.0089], [22.9321, 60.0133], [22.9399, 60.02], [22.9553, 60.0177], [22.959, 60.0224], [22.9557, 60.0302], [22.9636, 60.0242], [22.9624, 60.034], [22.9681, 60.0314], [22.9755, 60.0349], [22.9702, 60.0383], [22.9758, 60.0408], [22.9563, 60.0462], [22.965, 60.0505], [22.9616, 60.0519], [22.9396, 60.047]]], [[[22.8077, 60.0335], [22.8188, 60.0315], [22.8158, 60.037], [22.821, 60.0385], [22.8203, 60.0442], [22.8143, 60.0505], [22.801, 60.0513], [22.8077, 60.0335]]], [[[22.8517, 60.0575], [22.8472, 60.055], [22.8517, 60.0517], [22.877, 60.0515], [22.8788, 60.048], [22.873, 60.0463], [22.88, 60.046], [22.887, 60.051], [22.8895, 60.0472], [22.8855, 60.0448], [22.889, 60.0405], [22.8807, 60.0365], [22.8835, 60.035], [22.871, 60.0425], [22.855, 60.046], [22.851, 60.0423], [22.8517, 60.0365], [22.8618, 60.0315], [22.857, 60.0315], [22.8585, 60.0202], [22.852, 60.0138], [22.863, 60.0102], [22.856, 60.007], [22.8758, 60.0045], [22.8873, 60.0093], [22.877, 60.0185], [22.8975, 60.0262], [22.892, 60.0315], [22.882, 60.032], [22.9145, 60.0405], [22.9138, 60.0465], [22.9225, 60.051], [22.9058, 60.051], [22.9237, 60.0547], [22.9138, 60.0545], [22.9157, 60.0618], [22.9085, 60.063], [22.9202, 60.0618], [22.9345, 60.0673], [22.9073, 60.072], [22.9037, 60.0655], [22.8852, 60.0688], [22.8517, 60.0575]]], [[[23.0007, 60.318], [23.0095, 60.3093], [22.9931, 60.3018], [22.9964, 60.2985], [23.0164, 60.3035], [23.0336, 60.3235], [23.0243, 60.3284], [23.0007, 60.318]]], [[[22.9183, 60.2546], [22.9381, 60.2593], [22.9527, 60.273], [22.9494, 60.2755], [22.9576, 60.2782], [22.9836, 60.3029], [22.9511, 60.3151], [22.923, 60.3102], [22.9052, 60.3017], [22.9072, 60.2937], [22.9002, 60.2801], [22.8891, 60.2731], [22.8797, 60.2795], [22.8678, 60.2713], [22.877, 60.2667], [22.8661, 60.2613], [22.8695, 60.2594], [22.863, 60.25], [22.8864, 60.2495], [22.9089, 60.2639], [22.9183, 60.2546]]], [[[22.8785, 60.306], [22.8836, 60.3087], [22.8884, 60.3026], [22.896, 60.3084], [22.9512, 60.3194], [22.9967, 60.336], [23.0053, 60.3261], [23.0248, 60.3319], [23.0285, 60.3342], [23.024, 60.3407], [23.0301, 60.3413], [23.0256, 60.3429], [23.0309, 60.3487], [23.0584, 60.3591], [23.0581, 60.3653], [23.05, 60.3679], [23.0688, 60.3779], [23.0839, 60.3729], [23.0827, 60.3674], [23.0759, 60.3666], [23.0896, 60.3664], [23.0495, 60.3463], [23.0474, 60.3316], [23.0322, 60.3116], [23.0104, 60.295], [23.0097, 60.2893], [22.9779, 60.2858], [22.9784, 60.2755], [22.9737, 60.2715], [22.965, 60.2702], [22.9639, 60.2749], [22.9484, 60.266], [22.9509, 60.2583], [22.9451, 60.2527], [22.9509, 60.2483], [22.9071, 60.2285], [22.8903, 60.2079], [22.8701, 60.1975], [22.8903, 60.1805], [22.8687, 60.1708], [22.8716, 60.1626], [22.8801, 60.1617], [22.8785, 60.1685], [22.8876, 60.1665], [22.8873, 60.1622], [22.8752, 60.1562], [22.8925, 60.1523], [22.9074, 60.1418], [22.9829, 60.1286], [22.9662, 60.1238], [22.9846, 60.1167], [22.9754, 60.1157], [22.9721, 60.109], [22.989, 60.1088], [23.008, 60.1164], [23.0165, 60.1248], [23.0046, 60.1292], [23.0182, 60.1344], [23.0165, 60.1313], [23.0224, 60.1316], [23.0155, 60.1299], [23.0278, 60.122], [23.0349, 60.1256], [23.0305, 60.1274], [23.0639, 60.1306], [23.0469, 60.1261], [23.0253, 60.1106], [23.033, 60.1066], [23.0278, 60.1022], [23.0544, 60.0877], [23.0697, 60.0969], [23.0729, 60.0913], [23.1486, 60.1007], [23.1982, 60.1229], [23.1963, 60.134], [23.2127, 60.1318], [23.2151, 60.1363], [23.2766, 60.1538], [23.2775, 60.1726], [23.3059, 60.1887], [23.3259, 60.1885], [23.3155, 60.172], [23.3629, 60.1499], [23.3792, 60.1671], [23.4154, 60.1652], [23.4702, 60.1726], [23.5536, 60.2022], [23.5874, 60.1995], [23.6085, 60.1915], [23.6489, 60.2016], [23.6431, 60.2085], [23.6475, 60.2111], [23.6372, 60.2193], [23.6327, 60.23], [23.6334, 60.2348], [23.6458, 60.2363], [23.5872, 60.2581], [23.5961, 60.2647], [23.5934, 60.2672], [23.6132, 60.2608], [23.6135, 60.2709], [23.6193, 60.2712], [23.6205, 60.2613], [23.6272, 60.2605], [23.6294, 60.2827], [23.643, 60.2828], [23.6739, 60.3031], [23.6898, 60.2937], [23.7278, 60.3077], [23.7289, 60.329], [23.7353, 60.3379], [23.7339, 60.3557], [23.7226, 60.36], [23.7232, 60.3688], [23.7516, 60.3739], [23.7756, 60.3879], [23.7671, 60.3885], [23.7905, 60.3878], [23.7844, 60.4048], [23.7963, 60.4297], [23.7841, 60.4502], [23.6922, 60.4499], [23.7152, 60.4648], [23.7094, 60.4728], [23.7375, 60.4904], [23.823, 60.4946], [23.8376, 60.4913], [23.8718, 60.5079], [23.8646, 60.5215], [23.8515, 60.5306], [23.8645, 60.5387], [23.8445, 60.5564], [23.8875, 60.5585], [23.8891, 60.5741], [23.9083, 60.5869], [23.9205, 60.6061], [23.8664, 60.6186], [23.9005, 60.6497], [23.7925, 60.6572], [23.7456, 60.6518], [23.7135, 60.6639], [23.6753, 60.6558], [23.6672, 60.6667], [23.6807, 60.6837], [23.6263, 60.6938], [23.5759, 60.6943], [23.5394, 60.7044], [23.5283, 60.7209], [23.5013, 60.7283], [23.5022, 60.7441], [23.4876, 60.7482], [23.4543, 60.7487], [23.3332, 60.718], [23.2786, 60.7258], [23.2776, 60.7113], [23.2524, 60.7304], [23.1827, 60.7579], [23.1547, 60.7743], [23.189, 60.7384], [23.2185, 60.6815], [23.2427, 60.6763], [23.2193, 60.643], [23.2595, 60.6271], [23.1904, 60.5712], [23.161, 60.5812], [23.1118, 60.577], [23.0651, 60.5601], [22.9335, 60.5373], [22.8462, 60.5109], [22.8575, 60.4905], [22.8457, 60.4702], [22.8759, 60.4453], [22.8651, 60.4361], [22.8686, 60.4339], [22.8642, 60.4352], [22.8558, 60.4282], [22.8709, 60.4266], [22.8694, 60.4176], [22.8529, 60.4178], [22.8352, 60.4061], [22.8323, 60.3872], [22.819, 60.373], [22.8411, 60.3588], [22.8414, 60.3377], [22.8785, 60.306]]], [[[22.8625, 60.0715], [22.8727, 60.0697], [22.8863, 60.0787], [22.8525, 60.0778], [22.8625, 60.0715]]], [[[22.8517, 60.0868], [22.8382, 60.0845], [22.8382, 60.0793], [22.8815, 60.0847], [22.8826, 60.0803], [22.901, 60.078], [22.9165, 60.0815], [22.9197, 60.0909], [22.943, 60.0947], [22.9447, 60.0907], [22.9323, 60.0899], [22.9277, 60.0848], [22.9372, 60.0885], [22.9542, 60.0834], [22.971, 60.0917], [22.969, 60.098], [22.973, 60.099], [22.9623, 60.0998], [22.969, 60.1035], [22.9677, 60.1073], [22.9566, 60.1115], [22.9641, 60.1193], [22.9095, 60.1243], [22.8885, 60.119], [22.8657, 60.102], [22.8693, 60.1015], [22.8625, 60.093], [22.8693, 60.0845], [22.8517, 60.0868]]]]}}, {"type": "Feature", "properties": {"osm_type": "relation", "osm_id": 218832604, "name": "Loimaan seutukunta", "admin_level": "6", "kind": "subdivision_2", "parent_osm_id": 38092, "parent_name": "Southwest Finland", "parent_iso": "FI-19"}, "geometry": {"type": "Polygon", "coordinates": [[[22.1603, 60.872], [22.2002, 60.8309], [22.2077, 60.8304], [22.2008, 60.8302], [22.2221, 60.8079], [22.2467, 60.799], [22.2395, 60.7977], [22.2478, 60.7917], [22.2571, 60.7953], [22.415, 60.7373], [22.4472, 60.696], [22.4517, 60.6967], [22.448, 60.6942], [22.4536, 60.674], [22.4582, 60.6723], [22.4534, 60.672], [22.4531, 60.651], [22.4457, 60.6409], [22.5106, 60.6354], [22.503, 60.6347], [22.5062, 60.6324], [22.502, 60.6295], [22.4962, 60.6309], [22.4807, 60.6104], [22.4775, 60.5971], [22.4873, 60.5708], [22.5252, 60.5831], [22.5673, 60.565], [22.5815, 60.574], [22.5501, 60.5899], [22.5721, 60.6055], [22.6286, 60.6074], [22.6826, 60.6398], [22.76, 60.6287], [22.8543, 60.6292], [22.837, 60.6107], [22.7993, 60.5936], [22.8029, 60.5558], [22.8462, 60.5109], [22.9335, 60.5373], [23.0651, 60.5601], [23.1118, 60.577], [23.161, 60.5812], [23.1904, 60.5712], [23.2595, 60.6271], [23.2193, 60.643], [23.2427, 60.6763], [23.2185, 60.6815], [23.189, 60.7384], [23.1547, 60.7743], [23.1991, 60.8179], [23.2294, 60.8256], [23.2212, 60.8298], [23.1426, 60.8378], [23.1379, 60.8407], [23.1425, 60.8481], [23.1375, 60.85], [23.1351, 60.8834], [23.1551, 60.8925], [23.2663, 60.8892], [23.2526, 60.9194], [23.2907, 60.9183], [23.2934, 60.9546], [23.255, 60.9636], [23.1954, 61.0012], [23.165, 61.0055], [23.158, 61.0232], [23.148, 61.0314], [23.0553, 61.031], [23.0414, 61.0279], [23.0486, 61.0253], [23.0402, 61.0277], [23.0163, 61.0224], [22.9725, 61.0428], [22.9357, 61.0448], [22.9287, 61.0479], [22.9332, 61.0528], [22.9286, 61.0547], [22.9183, 61.0518], [22.8823, 61.059], [22.866, 61.0876], [22.8239, 61.1014], [22.8163, 61.0788], [22.8369, 61.0691], [22.8363, 61.0601], [22.8243, 61.0521], [22.827, 61.0455], [22.8237, 61.042], [22.8059, 61.0402], [22.8266, 61.0234], [22.8264, 61.0136], [22.816, 60.9934], [22.7928, 61.0004], [22.7556, 60.9902], [22.7544, 60.9854], [22.7505, 60.9894], [22.7094, 60.9826], [22.7014, 60.9869], [22.5791, 60.9902], [22.5224, 60.9764], [22.5862, 60.9388], [22.5197, 60.9511], [22.5164, 60.9462], [22.511, 60.9501], [22.4527, 60.9427], [22.4436, 60.9469], [22.4504, 60.9424], [22.3645, 60.9318], [22.3131, 60.916], [22.2711, 60.9221], [22.2636, 60.9269], [22.2402, 60.9241], [22.1888, 60.901], [22.2182, 60.8952], [22.2139, 60.8916], [22.1888, 60.8975], [22.171, 60.8772], [22.1603, 60.872]]]}}]}