{"type": "FeatureCollection", "parent": {"osm_id": 391186, "name": "Alberta", "admin_level": "4", "kind": "subdivision_1", "child_kind": "subdivision_2", "iso": "CA-AB"}, "features": [{"type": "Feature", "properties": {"osm_type": "relation", "osm_id": 798740494, "name": "Division No.  1", "admin_level": "6", "kind": "subdivision_2", "parent_osm_id": 391186, "parent_name": "Alberta", "parent_iso": "CA-AB"}, "geometry": {"type": "Polygon", "coordinates": [[[-111.1831, 50.703], [-111.3892, 50.7032], [-111.3702, 50.1358], [-111.669, 50.1336], [-111.607, 50.0892], [-111.625, 50.0599], [-111.5736, 50.0363], [-111.5942, 49.9888], [-111.6596, 49.9763], [-111.6977, 49.9333], [-111.6303, 49.8731], [-111.6306, 49.5303], [-111.9016, 49.5673], [-111.889, 49.3499], [-111.7545, 49.3485], [-111.7545, 49.261], [-111.4408, 49.2611], [-111.4307, 49.1328], [-111.3669, 49.1167], [-111.3416, 49.1359], [-111.341, 48.9972], [-110.005, 48.9997], [-110.003, 50.8347], [-110.0812, 50.7957], [-110.0534, 50.7328], [-110.1311, 50.7257], [-110.14, 50.6682], [-110.2825, 50.6109], [-110.2822, 50.7034], [-111.1831, 50.703]]]}}, {"type": "Feature", "properties": {"osm_type": "relation", "osm_id": 423527496, "name": "Division No.  2", "admin_level": "6", "kind": "subdivision_2", "parent_osm_id": 391186, "parent_name": "Alberta", "parent_iso": "CA-AB"}, "geometry": {"type": "Polygon", "coordinates": [[[-112.0934, 51.133], [-112.2373, 51.2133], [-112.2377, 51.0961], [-112.3772, 51.0961], [-112.3771, 51.0089], [-112.5166, 51.0087], [-112.5167, 50.9214], [-112.6356, 50.9214], [-112.6342, 50.8341], [-112.6128, 50.8341], [-112.6134, 50.813], [-112.4975, 50.7911], [-112.4979, 50.7469], [-112.5614, 50.7414], [-112.5198, 50.712], [-112.5227, 50.679], [-112.4815, 50.666], [-112.4907, 50.6383], [-112.3691, 50.6186], [-112.3974, 50.5641], [-112.3519, 50.5405], [-112.3667, 50.49], [-112.2964, 50.4472], [-112.3044, 50.4301], [-112.1726, 50.4241], [-112.1848, 50.3477], [-112.1561, 50.3225], [-112.433, 50.3101], [-112.4329, 50.2663], [-112.5247, 50.2662], [-112.5297, 50.2081], [-112.5524, 50.1936], [-112.6434, 50.1935], [-112.6435, 50.1353], [-112.8124, 50.1353], [-112.8141, 50.077], [-113.2768, 50.0484], [-113.2768, 49.9076], [-113.2327, 49.9095], [-113.2307, 49.8496], [-113.1842, 49.7885], [-113.0205, 49.7707], [-113.0317, 49.7511], [-112.9671, 49.7342], [-112.9921, 49.7152], [-112.9724, 49.7055], [-112.9913, 49.6782], [-112.9324, 49.6564], [-112.9187, 49.6239], [-112.8872, 49.6264], [-112.9138, 49.6049], [-112.7797, 49.5523], [-112.7524, 49.3338], [-112.6962, 49.334], [-112.6954, 49.174], [-112.4085, 49.1735], [-112.4108, 48.9987], [-111.341, 48.9972], [-111.3416, 49.1359], [-111.3669, 49.1167], [-111.4307, 49.1328], [-111.4408, 49.2611], [-111.7545, 49.261], [-111.7545, 49.3485], [-111.889, 49.3499], [-111.9015, 49.5237], [-111.9016, 49.5673], [-111.6306, 49.5303], [-111.6303, 49.8731], [-111.6977, 49.9333], [-111.6596, 49.9763], [-111.5942, 49.9888], [-111.5736, 50.0363], [-111.625, 50.0599], [-111.607, 50.0892], [-111.669, 50.1336], [-111.3702, 50.1358], [-111.3884, 50.7697], [-111.4195, 50.7533], [-111.4732, 50.7764], [-111.5655, 50.7693], [-111.6303, 50.8552], [-111.8109, 50.8367], [-111.8546, 50.9071], [-111.968, 50.9239], [-111.9545, 50.953], [-111.9245, 50.955], [-111.9346, 51.0067], [-111.9972, 51.092], [-112.0934, 51.133]]]}}, {"type": "Feature", "properties": {"osm_type": "relation", "osm_id": 279422530, "name": "Division No.  3", "admin_level": "6", "kind": "subdivision_2", "parent_osm_id": 391186, "parent_name": "Alberta", "parent_iso": "CA-AB"}, "geometry": {"type": "Polygon", "coordinates": [[[-114.073, 50.3971], [-114.208, 50.3972], [-114.2078, 50.3096], [-114.0699, 50.31], [-114.0679, 50.1933], [-113.9995, 50.1937], [-113.999, 49.8425], [-114.2251, 49.8431], [-114.3398, 49.874], [-114.3406, 49.801], [-114.3179, 49.8009], [-114.3178, 49.5821], [-114.2949, 49.5823], [-114.3185, 49.5502], [-114.2945, 49.5388], [-114.3458, 49.539], [-114.3396, 49.5135], [-114.4073, 49.4976], [-114.434, 49.5333], [-114.477, 49.5202], [-114.5091, 49.5743], [-114.5736, 49.5575], [-114.5966, 49.502], [-114.5906, 49.3961], [-114.4876, 49.3473], [-114.4921, 49.3138], [-114.454, 49.2981], [-114.448, 49.2644], [-114.3814, 49.2508], [-114.4027, 49.2417], [-114.399, 49.2104], [-114.2873, 49.178], [-114.2216, 49.1891], [-114.1726, 49.1624], [-114.1491, 49.1437], [-114.1661, 49.1356], [-114.1532, 49.0995], [-114.0635, 49.0453], [-114.0683, 48.9989], [-112.4108, 48.9987], [-112.4085, 49.1735], [-112.6954, 49.174], [-112.6962, 49.334], [-112.7524, 49.3338], [-112.7797, 49.5523], [-112.9138, 49.6049], [-112.8872, 49.6264], [-112.9187, 49.6239], [-112.9324, 49.6564], [-112.9913, 49.6782], [-112.9724, 49.7055], [-112.9921, 49.7152], [-112.9671, 49.7342], [-113.0317, 49.7511], [-113.0205, 49.7707], [-113.1843, 49.7886], [-113.2307, 49.8496], [-113.2327, 49.9095], [-113.2768, 49.9076], [-113.2767, 50.1357], [-113.3129, 50.154], [-113.3002, 50.1792], [-113.3917, 50.2143], [-113.4653, 50.2707], [-113.4692, 50.3058], [-113.5302, 50.3268], [-113.5628, 50.4116], [-114.073, 50.3971]]]}}, {"type": "Feature", "properties": {"osm_type": "relation", "osm_id": 885917812, "name": "Division No.  4", "admin_level": "6", "kind": "subdivision_2", "parent_osm_id": 391186, "parent_name": "Alberta", "parent_iso": "CA-AB"}, "geometry": {"type": "Polygon", "coordinates": [[[-111.0008, 52.2304], [-111.1477, 52.2303], [-111.1458, 52.1722], [-111.2429, 52.143], [-111.2423, 51.9829], [-111.2907, 51.9677], [-112.0037, 51.9691], [-112.0239, 51.9462], [-112.0508, 51.9619], [-112.0053, 51.9366], [-112.044, 51.9294], [-111.9894, 51.8818], [-112.1546, 51.8818], [-112.1547, 51.8527], [-112.2026, 51.853], [-112.1783, 51.8089], [-112.1075, 51.7648], [-112.1146, 51.5908], [-112.2553, 51.5907], [-112.2539, 51.4161], [-112.4436, 51.4159], [-112.5133, 51.4014], [-112.5131, 51.3723], [-112.478, 51.3723], [-112.4532, 51.3235], [-112.3568, 51.2945], [-112.0748, 51.1159], [-111.9972, 51.092], [-111.9171, 50.9745], [-111.9711, 50.9279], [-111.8546, 50.9071], [-111.8105, 50.8366], [-111.6278, 50.8546], [-111.5655, 50.7693], [-111.4732, 50.7764], [-111.4195, 50.7533], [-111.3884, 50.7697], [-111.3892, 50.7032], [-110.2822, 50.7034], [-110.2825, 50.6109], [-110.1887, 50.6338], [-110.131, 50.6774], [-110.1364, 50.7228], [-110.0528, 50.7333], [-110.0812, 50.7957], [-110.003, 50.8347], [-110.005, 52.0556], [-110.2196, 52.0556], [-110.2192, 52.1139], [-110.3627, 52.1138], [-110.3621, 52.2304], [-111.0008, 52.2304]]]}}, {"type": "Feature", "properties": {"osm_type": "relation", "osm_id": 470740189, "name": "Division No.  5", "admin_level": "6", "kind": "subdivision_2", "parent_osm_id": 391186, "parent_name": "Alberta", "parent_iso": "CA-AB"}, "geometry": {"type": "Polygon", "coordinates": [[[-113.4773, 51.9549], [-113.6427, 51.9545], [-113.6426, 51.8965], [-113.7135, 51.8963], [-113.7133, 51.7805], [-113.7364, 51.781], [-113.7135, 51.7209], [-113.6899, 51.7214], [-113.6899, 51.6783], [-113.6426, 51.6782], [-113.6617, 51.4451], [-113.3804, 51.4451], [-113.3767, 51.2419], [-113.4933, 51.2421], [-113.4934, 51.1834], [-113.5859, 51.1835], [-113.6096, 51.1252], [-113.6329, 51.1252], [-113.6334, 50.9221], [-113.606, 50.9215], [-113.6062, 50.7947], [-113.4903, 50.7989], [-113.4904, 50.5721], [-113.5985, 50.5721], [-113.5987, 50.4539], [-113.5328, 50.3294], [-113.4692, 50.3058], [-113.4653, 50.2707], [-113.3917, 50.2143], [-113.3054, 50.186], [-113.3129, 50.154], [-113.2767, 50.1357], [-113.2768, 50.0484], [-112.8141, 50.077], [-112.8124, 50.1353], [-112.6435, 50.1353], [-112.6434, 50.1935], [-112.5524, 50.1936], [-112.5297, 50.2081], [-112.5247, 50.2662], [-112.4329, 50.2663], [-112.433, 50.3101], [-112.1692, 50.3111], [-112.1549, 50.3294], [-112.1851, 50.3517], [-112.1701, 50.4216], [-112.3033, 50.4298], [-112.2964, 50.4472], [-112.3571, 50.4795], [-112.3522, 50.5411], [-112.3974, 50.5641], [-112.3689, 50.6183], [-112.4898, 50.6372], [-112.4815, 50.666], [-112.5227, 50.679], [-112.5198, 50.712], [-112.5614, 50.7414], [-112.4979, 50.7469], [-112.4975, 50.7911], [-112.6134, 50.813], [-112.6128, 50.8341], [-112.6342, 50.8341], [-112.6356, 50.9214], [-112.5167, 50.9214], [-112.5166, 51.0087], [-112.3771, 51.0089], [-112.3772, 51.0961], [-112.2377, 51.0961], [-112.2403, 51.2246], [-112.4532, 51.3235], [-112.478, 51.3723], [-112.5131, 51.3723], [-112.5133, 51.4014], [-112.2539, 51.4161], [-112.2553, 51.5907], [-112.1146, 51.5908], [-112.106, 51.7586], [-112.1311, 51.7654], [-112.1311, 51.7954], [-112.1783, 51.8089], [-112.2026, 51.853], [-112.3672, 51.8819], [-112.6976, 51.8817], [-112.6975, 51.9109], [-112.9837, 51.9251], [-112.9122, 51.9695], [-113.4809, 51.9831], [-113.4773, 51.9549]]]}}, {"type": "Feature", "properties": {"osm_type": "relation", "osm_id": 101415408, "name": "Division No.  6", "admin_level": "6", "kind": "subdivision_2", "parent_osm_id": 391186, "parent_name": "Alberta", "parent_iso": "CA-AB"}, "geometry": {"type": "Polygon", "coordinates": [[[-114.8835, 51.8894], [-114.9944, 51.8892], [-114.9937, 51.868], [-114.9697, 51.8676], [-114.9697, 51.809], [-114.9228, 51.795], [-114.923, 51.7644], [-114.8516, 51.7643], [-114.8514, 51.7063], [-114.7805, 51.7078], [-114.7817, 51.6495], [-114.7102, 51.6495], [-114.7038, 51.5328], [-114.7518, 51.5326], [-114.7516, 51.5046], [-114.7038, 51.4898], [-114.7214, 51.2121], [-114.5827, 51.2149], [-114.5131, 51.1932], [-114.6984, 51.1557], [-114.6995, 50.9651], [-114.6241, 50.9213], [-114.625, 50.8923], [-114.556, 50.8928], [-114.533, 50.7033], [-114.4637, 50.7031], [-114.4638, 50.6013], [-114.4406, 50.6012], [-114.4407, 50.572], [-114.5294, 50.5455], [-114.529, 50.4553], [-114.5059, 50.4552], [-114.5061, 50.4105], [-114.5291, 50.3968], [-114.5059, 50.3971], [-114.506, 50.3682], [-114.4602, 50.3682], [-114.4604, 50.3246], [-114.3916, 50.3099], [-114.2078, 50.3096], [-114.208, 50.3972], [-113.5628, 50.4116], [-113.5987, 50.4539], [-113.5985, 50.5721], [-113.4904, 50.5721], [-113.4903, 50.7989], [-113.6062, 50.7947], [-113.606, 50.9215], [-113.6334, 50.9221], [-113.6329, 51.1252], [-113.6096, 51.1252], [-113.5859, 51.1835], [-113.4934, 51.1834], [-113.4933, 51.2421], [-113.3767, 51.2419], [-113.3804, 51.4451], [-113.6617, 51.4451], [-113.6616, 51.6199], [-113.6417, 51.6199], [-113.6394, 51.6567], [-113.6426, 51.6782], [-113.6899, 51.6783], [-113.6899, 51.7214], [-113.7357, 51.7514], [-113.7364, 51.781], [-113.7133, 51.7805], [-113.7135, 51.8963], [-114.1671, 51.8824], [-114.1908, 51.9115], [-114.4506, 51.9115], [-114.4505, 51.9407], [-114.4758, 51.9408], [-114.5678, 51.9036], [-114.758, 51.9262], [-114.7932, 51.8967], [-114.8835, 51.8894]]]}}, {"type": "Feature", "properties": {"osm_type": "relation", "osm_id": 738719891, "name": "Division No.  7", "admin_level": "6", "kind": "subdivision_2", "parent_osm_id": 391186, "parent_name": "Alberta", "parent_iso": "CA-AB"}, "geometry": {"type": "Polygon", "coordinates": [[[-111.4092, 52.9299], [-111.7939, 52.9306], [-111.9873, 52.9598], [-111.9873, 53.0175], [-112.3263, 53.0179], [-112.3263, 52.7274], [-112.3624, 52.7268], [-112.3626, 52.6825], [-112.5959, 52.6681], [-112.5961, 52.6377], [-112.6795, 52.6382], [-112.6799, 52.5797], [-112.7877, 52.5798], [-112.779, 52.5575], [-112.8162, 52.5322], [-112.7833, 52.5178], [-112.7814, 52.4921], [-112.9321, 52.4921], [-112.9734, 52.4607], [-113.0279, 52.4607], [-112.9978, 52.4325], [-113.028, 52.4161], [-113.0279, 52.376], [-113.0757, 52.376], [-113.0757, 52.3177], [-113.0932, 52.3176], [-113.064, 52.2808], [-113.0714, 52.2284], [-113.0249, 52.1798], [-113.0227, 52.1041], [-112.906, 51.9855], [-112.9097, 51.9587], [-112.9837, 51.9251], [-112.6975, 51.9109], [-112.6976, 51.8817], [-112.3672, 51.8819], [-112.2728, 51.8528], [-112.1547, 51.8527], [-112.1546, 51.8818], [-111.9894, 51.8818], [-112.044, 51.9294], [-112.0051, 51.9248], [-112.0121, 51.9452], [-112.0533, 51.9519], [-112.0228, 51.9464], [-112.0037, 51.9691], [-111.2907, 51.9677], [-111.2423, 51.9829], [-111.2429, 52.143], [-111.1458, 52.1722], [-111.1477, 52.2303], [-110.3621, 52.2304], [-110.3627, 52.1138], [-110.2192, 52.1139], [-110.2196, 52.0556], [-110.005, 52.0556], [-110.0052, 52.8573], [-110.1116, 52.8643], [-110.1992, 52.9112], [-110.2939, 52.908], [-110.4575, 52.9584], [-110.4519, 53.0005], [-110.4748, 53.0287], [-110.5864, 53.0332], [-110.5899, 53.0725], [-110.6156, 53.0878], [-110.6932, 53.0597], [-111.0289, 53.0601], [-111.0409, 53.0887], [-111.1506, 53.1032], [-111.2108, 53.1466], [-111.4303, 53.1471], [-111.4092, 52.9299]]]}}, {"type": "Feature", "properties": {"osm_type": "relation", "osm_id": 200002792, "name": "Division No.  8", "admin_level": "6", "kind": "subdivision_2", "parent_osm_id": 391186, "parent_name": "Alberta", "parent_iso": "CA-AB"}, "geometry": {"type": "Polygon", "coordinates": [[[-114.531, 52.8874], [-114.5334, 52.8438], [-114.5825, 52.8439], [-114.5831, 52.7127], [-114.656, 52.713], [-114.6495, 52.5952], [-114.4663, 52.5666], [-114.4652, 52.5091], [-114.5294, 52.5087], [-114.5296, 52.4493], [-114.5055, 52.4496], [-114.4815, 52.3776], [-114.4574, 52.3775], [-114.4576, 52.3191], [-114.4301, 52.2753], [-114.43, 52.1298], [-114.5719, 52.13], [-114.5727, 52.072], [-114.5015, 52.0722], [-114.4976, 51.9397], [-114.4505, 51.9407], [-114.4506, 51.9115], [-114.1908, 51.9115], [-114.1671, 51.8824], [-113.8316, 51.8818], [-113.6426, 51.8965], [-113.6427, 51.9545], [-113.4773, 51.9549], [-113.4809, 51.9831], [-112.9122, 51.9695], [-112.9151, 52.0033], [-113.0246, 52.1073], [-113.0247, 52.1795], [-113.0635, 52.2087], [-113.064, 52.2808], [-113.0932, 52.3176], [-113.0757, 52.3177], [-113.0757, 52.376], [-113.0279, 52.376], [-113.028, 52.4161], [-112.9978, 52.4325], [-113.0279, 52.4607], [-112.9309, 52.4884], [-112.9668, 52.5227], [-113.0, 52.5217], [-113.0, 52.5503], [-113.0277, 52.5647], [-113.1477, 52.5793], [-113.1478, 52.6227], [-113.0516, 52.6234], [-113.0518, 52.7232], [-113.0885, 52.7558], [-113.2794, 52.7684], [-113.309, 52.7851], [-113.2936, 52.8434], [-113.4552, 52.8213], [-113.499, 52.8434], [-114.0502, 52.8434], [-114.147, 52.8879], [-114.531, 52.8874]]]}}, {"type": "Feature", "properties": {"osm_type": "relation", "osm_id": 722896440, "name": "Division No.  9", "admin_level": "6", "kind": "subdivision_2", "parent_osm_id": 391186, "parent_name": "Alberta", "parent_iso": "CA-AB"}, "geometry": {"type": "Polygon", "coordinates": [[[-116.2762, 52.8437], [-116.6127, 52.8424], [-116.6125, 52.7557], [-116.8295, 52.7569], [-116.7963, 52.6747], [-116.8203, 52.6634], [-116.8205, 52.6176], [-116.8458, 52.6173], [-116.9027, 52.5368], [-116.8692, 52.487], [-116.9634, 52.4192], [-117.0302, 52.3023], [-117.0912, 52.2592], [-117.0338, 52.2425], [-117.0243, 52.2118], [-116.963, 52.1765], [-116.9667, 52.1465], [-116.8233, 52.1037], [-116.7565, 52.054], [-116.7057, 52.0569], [-116.6596, 51.9906], [-116.6065, 51.976], [-116.6061, 51.8826], [-116.547, 51.8666], [-116.5091, 51.8146], [-116.464, 51.84], [-116.4102, 51.8343], [-116.3247, 51.7868], [-116.2872, 51.8239], [-116.1868, 51.8359], [-116.0857, 51.9204], [-116.0248, 51.8968], [-115.9857, 51.8446], [-115.9377, 51.8551], [-115.9477, 51.8069], [-115.9211, 51.7945], [-115.9375, 51.7705], [-115.9173, 51.7507], [-115.814, 51.7619], [-115.7411, 51.7095], [-115.6687, 51.6944], [-115.5741, 51.6191], [-114.9932, 51.6209], [-114.9607, 51.691], [-114.905, 51.682], [-114.843, 51.7074], [-114.8516, 51.7643], [-114.923, 51.7644], [-114.9228, 51.795], [-114.9697, 51.809], [-114.9697, 51.8676], [-114.9937, 51.868], [-114.9944, 51.8892], [-114.7932, 51.8967], [-114.758, 51.9262], [-114.5678, 51.9036], [-114.4975, 51.9352], [-114.5015, 52.0722], [-114.5727, 52.072], [-114.5719, 52.13], [-114.43, 52.1298], [-114.4301, 52.2753], [-114.4576, 52.3191], [-114.4574, 52.3775], [-114.4815, 52.3776], [-114.5055, 52.4496], [-114.5296, 52.4493], [-114.5294, 52.5087], [-114.4652, 52.5091], [-114.4663, 52.5666], [-114.6495, 52.5952], [-114.656, 52.713], [-114.5831, 52.7127], [-114.5825, 52.8439], [-115.0159, 52.8436], [-115.0237, 53.0623], [-115.0758, 53.0697], [-115.2036, 53.0542], [-115.2261, 53.0332], [-115.1981, 52.9654], [-115.2274, 52.9157], [-115.1784, 52.8959], [-115.1452, 52.8432], [-115.2826, 52.843], [-115.2812, 52.8589], [-116.2762, 52.8437]]]}}, {"type": "Feature", "properties": {"osm_type": "relation", "osm_id": 687894334, "name": "Division No. 10", "admin_level": "6", "kind": "subdivision_2", "parent_osm_id": 391186, "parent_name": "Alberta", "parent_iso": "CA-AB"}, "geometry": {"type": "Polygon", "coordinates": [[[-112.5463, 53.9967], [-112.8009, 54.0618], [-112.8456, 54.0283], [-112.8588, 53.9442], [-112.9514, 53.8934], [-112.951, 53.7744], [-112.9262, 53.7743], [-112.9264, 53.7163], [-112.8768, 53.7021], [-112.8776, 53.6578], [-112.9512, 53.6287], [-112.9514, 53.4831], [-112.8529, 53.4604], [-112.8408, 53.3669], [-113.0499, 53.364], [-113.0, 53.3377], [-113.0, 53.2941], [-113.0499, 53.2942], [-113.0499, 53.2357], [-113.1718, 53.236], [-113.1843, 53.2126], [-113.1717, 53.1198], [-113.0986, 53.1197], [-113.0979, 53.0763], [-113.0743, 53.0761], [-113.1002, 52.9741], [-113.1245, 52.9742], [-113.1245, 52.8436], [-113.0518, 52.8434], [-113.0518, 52.7561], [-113.0888, 52.7534], [-113.0518, 52.7232], [-113.0516, 52.6234], [-113.1478, 52.6227], [-113.1477, 52.5793], [-113.0277, 52.5647], [-112.9403, 52.4904], [-112.7814, 52.4921], [-112.7833, 52.5178], [-112.8162, 52.5322], [-112.805, 52.5553], [-112.779, 52.5575], [-112.7877, 52.5798], [-112.6799, 52.5797], [-112.6795, 52.6382], [-112.5961, 52.6377], [-112.5959, 52.6681], [-112.3626, 52.6825], [-112.3624, 52.7268], [-112.3263, 52.7274], [-112.3263, 53.0179], [-111.9873, 53.0175], [-111.9873, 52.9598], [-111.7939, 52.9306], [-111.4053, 52.9299], [-111.4068, 53.0169], [-111.431, 53.0169], [-111.4303, 53.1471], [-111.2108, 53.1466], [-111.1506, 53.1032], [-111.0409, 53.0887], [-111.0289, 53.0601], [-110.6932, 53.0597], [-110.6162, 53.0879], [-110.5899, 53.0725], [-110.5864, 53.0332], [-110.4748, 53.0287], [-110.4519, 53.0005], [-110.4575, 52.9584], [-110.2939, 52.908], [-110.1992, 52.9112], [-110.1116, 52.8643], [-110.0052, 52.8573], [-110.0066, 53.8893], [-110.2593, 53.8748], [-110.2681, 53.8219], [-110.3646, 53.8221], [-110.3757, 53.7153], [-110.5405, 53.7735], [-111.0199, 53.7734], [-111.0199, 53.8025], [-111.1518, 53.7505], [-111.383, 53.7496], [-111.4164, 53.7847], [-111.4895, 53.7984], [-111.516, 53.8457], [-111.5996, 53.8457], [-111.6004, 53.9036], [-111.7236, 53.889], [-111.8186, 53.9289], [-111.9692, 53.9068], [-112.1877, 53.9884], [-112.1836, 54.0266], [-112.2305, 54.0624], [-112.3661, 54.0308], [-112.4199, 53.9916], [-112.5463, 53.9967]]]}}, {"type": "Feature", "properties": {"osm_type": "relation", "osm_id": 880301753, "name": "Division No. 11", "admin_level": "6", "kind": "subdivision_2", "parent_osm_id": 391186, "parent_name": "Alberta", "parent_iso": "CA-AB"}, "geometry": {"type": "Polygon", "coordinates": [[[-113.694, 53.9927], [-113.7812, 53.9928], [-113.8063, 53.9201], [-113.8681, 53.9048], [-114.0515, 53.9267], [-114.0265, 53.6576], [-114.124, 53.6575], [-114.1231, 53.5993], [-114.6897, 53.6138], [-114.688, 53.6294], [-114.7689, 53.6264], [-114.8023, 53.5992], [-114.8126, 53.7164], [-114.8873, 53.7157], [-114.8994, 53.7041], [-114.8768, 53.7086], [-114.8737, 53.6879], [-114.9451, 53.6599], [-114.9682, 53.6107], [-115.0054, 53.6069], [-115.0224, 53.5448], [-114.9846, 53.5184], [-115.0213, 53.4816], [-114.9935, 53.4781], [-115.046, 53.4415], [-115.0681, 53.4533], [-115.0586, 53.4363], [-115.091, 53.4435], [-115.0753, 53.4265], [-115.1036, 53.4364], [-115.0889, 53.4163], [-115.1179, 53.4035], [-115.0932, 53.3998], [-115.1083, 53.367], [-115.6111, 53.3666], [-115.5974, 52.8434], [-115.2812, 52.8589], [-115.2826, 52.843], [-115.1452, 52.8432], [-115.1784, 52.8959], [-115.2274, 52.9157], [-115.1981, 52.9654], [-115.2261, 53.0332], [-115.2036, 53.0542], [-115.0751, 53.0697], [-115.0237, 53.0623], [-115.0159, 52.8436], [-114.5334, 52.8438], [-114.5337, 52.8874], [-114.147, 52.8879], [-114.0502, 52.8434], [-113.499, 52.8434], [-113.4516, 52.8212], [-113.2936, 52.8434], [-113.309, 52.7851], [-113.2626, 52.7617], [-113.0518, 52.7561], [-113.0518, 52.8434], [-113.1245, 52.8436], [-113.1245, 52.9742], [-113.1002, 52.9741], [-113.0743, 53.0761], [-113.0979, 53.0763], [-113.0986, 53.1197], [-113.1717, 53.1198], [-113.1843, 53.2126], [-113.1718, 53.236], [-113.0499, 53.2357], [-113.0499, 53.2942], [-113.0, 53.2941], [-113.0, 53.3377], [-113.0499, 53.364], [-112.8408, 53.3669], [-112.8529, 53.4604], [-112.9514, 53.4831], [-112.9512, 53.6287], [-112.8776, 53.6578], [-112.8768, 53.7021], [-112.9264, 53.7163], [-112.9262, 53.7743], [-112.951, 53.7744], [-112.9514, 53.8934], [-112.8611, 53.9419], [-112.8438, 53.9778], [-113.3477, 53.978], [-113.3474, 54.023], [-113.5706, 54.0216], [-113.694, 53.9927]]]}}, {"type": "Feature", "properties": {"osm_type": "relation", "osm_id": 474850912, "name": "Division No. 12", "admin_level": "6", "kind": "subdivision_2", "parent_osm_id": 391186, "parent_name": "Alberta", "parent_iso": "CA-AB"}, "geometry": {"type": "Polygon", "coordinates": [[[-112.4032, 55.9862], [-112.6364, 55.9851], [-112.6532, 55.9537], [-112.619, 55.9407], [-112.6796, 55.9021], [-112.629, 55.8585], [-112.6489, 55.8451], [-112.6169, 55.777], [-112.6369, 55.7652], [-112.5972, 55.727], [-112.7225, 55.6934], [-112.791, 55.6414], [-112.7726, 55.6251], [-112.7893, 55.597], [-112.7563, 55.5752], [-112.7615, 55.5327], [-112.7996, 55.5183], [-112.7533, 55.4956], [-112.7757, 55.4677], [-112.3135, 55.4606], [-112.3118, 55.1117], [-112.3449, 55.1115], [-112.3445, 55.024], [-112.4459, 55.024], [-112.4252, 54.5875], [-112.5765, 54.5655], [-112.5767, 54.4153], [-112.6009, 54.4131], [-112.6011, 54.3262], [-112.6886, 54.3265], [-112.688, 54.2679], [-112.7634, 54.2679], [-112.7633, 54.2096], [-112.8508, 54.2096], [-112.8401, 54.0494], [-112.7902, 54.0625], [-112.6178, 54.0058], [-112.4714, 53.9889], [-112.2305, 54.0624], [-112.1836, 54.0266], [-112.1877, 53.9884], [-111.9692, 53.9068], [-111.8186, 53.9289], [-111.7236, 53.889], [-111.6004, 53.9036], [-111.5996, 53.8457], [-111.516, 53.8457], [-111.4895, 53.7984], [-111.4164, 53.7847], [-111.383, 53.7496], [-111.1518, 53.7505], [-111.0199, 53.8025], [-111.0199, 53.7734], [-110.5405, 53.7735], [-110.3757, 53.7153], [-110.3646, 53.8221], [-110.2681, 53.8219], [-110.2593, 53.8748], [-110.0066, 53.8893], [-110.0, 55.5493], [-111.4014, 55.5548], [-111.4127, 55.9844], [-111.8848, 55.9883], [-111.8831, 55.9412], [-111.9287, 55.9408], [-112.0387, 55.9433], [-112.0395, 55.9872], [-112.4032, 55.9862]]]}}, {"type": "Feature", "properties": {"osm_type": "relation", "osm_id": 976851763, "name": "Division No. 13", "admin_level": "6", "kind": "subdivision_2", "parent_osm_id": 391186, "parent_name": "Alberta", "parent_iso": "CA-AB"}, "geometry": {"type": "Polygon", "coordinates": [[[-112.3132, 55.3963], [-112.3135, 55.4606], [-112.7511, 55.4609], [-112.6849, 55.3054], [-112.7858, 55.2632], [-112.8894, 55.0772], [-112.836, 55.046], [-112.7566, 55.0385], [-112.7162, 54.9871], [-112.7365, 54.9739], [-112.9038, 54.9704], [-112.9039, 55.0241], [-113.3613, 55.0239], [-113.3611, 54.9373], [-113.6656, 54.9367], [-113.6645, 54.7621], [-113.6945, 54.742], [-113.6872, 54.5879], [-114.3222, 54.5887], [-114.3013, 54.6475], [-114.3268, 54.6745], [-114.2928, 54.7006], [-114.2829, 54.7843], [-114.2224, 54.8505], [-115.07, 54.8503], [-115.0628, 54.5022], [-115.9659, 54.5], [-115.9701, 54.4126], [-116.1015, 54.4145], [-116.1005, 54.3263], [-116.2549, 54.3265], [-116.2504, 54.2561], [-116.2953, 54.2309], [-116.4615, 54.2104], [-116.5261, 54.1689], [-116.6989, 54.1219], [-116.7016, 54.0663], [-116.5284, 54.0654], [-116.5269, 53.9777], [-115.8687, 53.9778], [-115.8735, 53.958], [-115.845, 53.9535], [-115.8755, 53.9198], [-115.8446, 53.9229], [-115.8747, 53.8918], [-115.7853, 53.8902], [-115.785, 53.8188], [-114.9751, 53.7882], [-114.9166, 53.7161], [-114.8126, 53.7164], [-114.8023, 53.5992], [-114.7689, 53.6264], [-114.688, 53.6294], [-114.6897, 53.6138], [-114.1231, 53.5993], [-114.124, 53.6575], [-114.0265, 53.6576], [-114.0515, 53.9267], [-113.8681, 53.9048], [-113.8063, 53.9201], [-113.7812, 53.9928], [-113.3474, 54.023], [-113.3477, 53.978], [-112.8438, 53.9778], [-112.8456, 54.0283], [-112.8164, 54.0496], [-112.8508, 54.0646], [-112.8508, 54.2096], [-112.7633, 54.2096], [-112.7634, 54.2679], [-112.688, 54.2679], [-112.6886, 54.3265], [-112.6011, 54.3262], [-112.6009, 54.4131], [-112.5767, 54.4153], [-112.5765, 54.5655], [-112.4252, 54.5875], [-112.4459, 55.024], [-112.3445, 55.024], [-112.3449, 55.1115], [-112.3118, 55.1117], [-112.3132, 55.3963]]]}}, {"type": "Feature", "properties": {"osm_type": "relation", "osm_id": 776880542, "name": "Division No. 14", "admin_level": "6", "kind": "subdivision_2", "parent_osm_id": 391186, "parent_name": "Alberta", "parent_iso": "CA-AB"}, "geometry": {"type": "Polygon", "coordinates": [[[-119.9628, 53.9467], [-120.0, 53.9374], [-120.0, 53.8062], [-119.9424, 53.7759], [-119.8883, 53.7795], [-119.9157, 53.7173], [-119.7929, 53.7061], [-119.7345, 53.6632], [-119.7134, 53.6146], [-119.7592, 53.591], [-119.9259, 53.6145], [-119.861, 53.5565], [-119.8995, 53.5191], [-119.8539, 53.4999], [-119.8329, 53.5193], [-119.7804, 53.4918], [-119.7907, 53.4754], [-119.7254, 53.3888], [-119.6241, 53.3596], [-119.5984, 53.3657], [-119.6045, 53.3834], [-119.4104, 53.3654], [-119.432, 53.3951], [-119.5414, 53.4331], [-119.4642, 53.4762], [-119.2371, 53.4741], [-119.0417, 53.4208], [-118.9992, 53.444], [-119.02, 53.4709], [-118.9848, 53.4817], [-118.7917, 53.4162], [-118.6932, 53.4788], [-118.5811, 53.435], [-118.5247, 53.4712], [-118.4755, 53.449], [-118.3602, 53.457], [-118.2124, 53.3833], [-118.2399, 53.3519], [-118.2078, 53.3254], [-118.092, 53.3686], [-117.9588, 53.3302], [-117.8665, 53.2302], [-117.8046, 53.2252], [-117.7425, 53.1799], [-117.6977, 53.1835], [-117.6717, 53.126], [-117.6061, 53.0742], [-117.4895, 53.0386], [-117.5397, 53.0146], [-117.5458, 52.9703], [-117.1929, 52.8109], [-117.197, 52.7918], [-117.0806, 52.7165], [-116.9816, 52.715], [-116.8982, 52.6522], [-116.8145, 52.7216], [-116.8295, 52.7569], [-116.6125, 52.7557], [-116.6127, 52.8424], [-115.5973, 52.8435], [-115.6111, 53.3666], [-115.1083, 53.367], [-115.0932, 53.3998], [-115.1179, 53.4035], [-115.0889, 53.4163], [-115.1036, 53.4364], [-115.0753, 53.4265], [-115.091, 53.4435], [-115.0586, 53.4363], [-115.0681, 53.4533], [-115.046, 53.4415], [-114.9935, 53.4781], [-115.0213, 53.4816], [-114.9846, 53.5184], [-115.0224, 53.5448], [-115.0053, 53.607], [-114.9682, 53.6107], [-114.9451, 53.6599], [-114.8686, 53.6971], [-114.9174, 53.7166], [-114.9751, 53.7882], [-115.785, 53.8188], [-115.7853, 53.8902], [-115.8747, 53.8918], [-115.8446, 53.9229], [-115.8755, 53.9198], [-115.845, 53.9535], [-115.8735, 53.958], [-115.8687, 53.9778], [-116.5269, 53.9777], [-116.5284, 54.0654], [-116.7016, 54.0663], [-116.7002, 54.1221], [-116.7359, 54.1128], [-116.7754, 54.0423], [-116.8414, 54.003], [-116.958, 54.0172], [-117.1009, 53.9725], [-117.1122, 53.9962], [-117.2171, 53.9974], [-117.1995, 54.0111], [-117.2767, 53.9875], [-117.2836, 54.0245], [-117.2464, 54.0358], [-117.2754, 54.0579], [-117.3458, 54.0505], [-117.336, 54.0233], [-117.5324, 54.0526], [-117.5735, 54.0289], [-117.6904, 54.0241], [-117.7852, 53.9569], [-117.8654, 53.9644], [-117.9001, 53.9366], [-118.0656, 53.9162], [-118.116, 53.8786], [-118.1251, 53.8067], [-118.9994, 53.8049], [-118.9978, 53.8448], [-119.485, 53.8466], [-119.4841, 54.0249], [-119.5602, 54.0182], [-119.6781, 53.9297], [-119.7762, 53.8941], [-119.9628, 53.9467]]]}}, {"type": "Feature", "properties": {"osm_type": "relation", "osm_id": 480676222, "name": "Division No. 15", "admin_level": "6", "kind": "subdivision_2", "parent_osm_id": 391186, "parent_name": "Alberta", "parent_iso": "CA-AB"}, "geometry": {"type": "Polygon", "coordinates": [[[-119.4383, 53.4724], [-119.5414, 53.4331], [-119.432, 53.3951], [-119.3559, 53.3401], [-119.3405, 53.2871], [-119.2515, 53.199], [-119.2571, 53.1766], [-119.146, 53.1912], [-119.0246, 53.1267], [-118.9999, 53.1486], [-119.0288, 53.1642], [-118.9994, 53.1928], [-119.0238, 53.232], [-118.9475, 53.2389], [-118.7324, 53.1193], [-118.7762, 53.0454], [-118.7265, 53.0602], [-118.6959, 53.0328], [-118.6554, 53.0348], [-118.6408, 52.9993], [-118.6712, 52.9783], [-118.6134, 52.936], [-118.6082, 52.8796], [-118.5002, 52.9064], [-118.4483, 52.8853], [-118.4525, 52.8554], [-118.387, 52.8471], [-118.4224, 52.7758], [-118.3428, 52.7386], [-118.3433, 52.7089], [-118.2902, 52.6777], [-118.3545, 52.6337], [-118.3525, 52.6107], [-118.3326, 52.5802], [-118.2728, 52.566], [-118.2892, 52.5385], [-118.2355, 52.4902], [-118.1934, 52.4778], [-118.2554, 52.4495], [-118.2194, 52.3742], [-118.1801, 52.3726], [-118.1381, 52.4075], [-118.0442, 52.3985], [-118.0304, 52.4381], [-118.0507, 52.4572], [-118.0211, 52.4555], [-117.988, 52.5002], [-117.8869, 52.4261], [-117.7665, 52.4177], [-117.7058, 52.3654], [-117.8396, 52.2741], [-117.8183, 52.2264], [-117.7432, 52.194], [-117.6635, 52.1979], [-117.6113, 52.1443], [-117.5231, 52.1583], [-117.3813, 52.1377], [-117.3341, 52.1486], [-117.3173, 52.194], [-117.3051, 52.0743], [-117.2147, 52.0285], [-117.2336, 52.0118], [-117.196, 51.9791], [-117.1032, 51.9565], [-117.0108, 51.8897], [-117.0335, 51.8564], [-116.9798, 51.8356], [-116.989, 51.8111], [-116.9612, 51.7909], [-116.9764, 51.7602], [-116.9206, 51.7098], [-116.8098, 51.7054], [-116.798, 51.7236], [-116.8193, 51.7386], [-116.749, 51.8051], [-116.6591, 51.8052], [-116.6504, 51.7537], [-116.5854, 51.7128], [-116.595, 51.6618], [-116.4999, 51.6277], [-116.4647, 51.5658], [-116.3909, 51.5456], [-116.3938, 51.5057], [-116.3606, 51.4709], [-116.284, 51.4565], [-116.2825, 51.4068], [-116.3114, 51.385], [-116.2777, 51.3617], [-116.29, 51.3431], [-116.268, 51.3119], [-116.1641, 51.2978], [-116.1533, 51.2634], [-116.0076, 51.222], [-116.0, 51.194], [-116.0369, 51.1701], [-116.0074, 51.1563], [-116.0088, 51.126], [-115.9236, 51.0831], [-115.7534, 51.0744], [-115.7671, 51.0394], [-115.6924, 51.0286], [-115.6283, 50.9809], [-115.5971, 50.9399], [-115.6098, 50.9263], [-115.5621, 50.8943], [-115.6489, 50.8742], [-115.6394, 50.838], [-115.5731, 50.8377], [-115.5604, 50.8047], [-115.4811, 50.7552], [-115.4363, 50.7557], [-115.4138, 50.7113], [-115.3123, 50.7239], [-115.2742, 50.6489], [-115.3115, 50.6286], [-115.2397, 50.5892], [-115.2081, 50.5278], [-115.1546, 50.5733], [-115.0151, 50.5824], [-114.9122, 50.4514], [-114.8598, 50.4238], [-114.8623, 50.3945], [-114.7686, 50.3588], [-114.8, 50.3298], [-114.7528, 50.2938], [-114.7702, 50.25], [-114.7247, 50.1902], [-114.736, 50.1204], [-114.6625, 50.0649], [-114.6761, 50.0481], [-114.6515, 49.9755], [-114.6833, 49.9671], [-114.6918, 49.8963], [-114.6399, 49.8277], [-114.6361, 49.7848], [-114.6591, 49.7651], [-114.6337, 49.7304], [-114.6768, 49.6962], [-114.6678, 49.6375], [-114.7524, 49.6088], [-114.6962, 49.5468], [-114.5091, 49.5743], [-114.4719, 49.5175], [-114.434, 49.5333], [-114.4073, 49.4976], [-114.3396, 49.5135], [-114.3458, 49.539], [-114.2945, 49.5388], [-114.3185, 49.5502], [-114.2949, 49.5823], [-114.3178, 49.5821], [-114.3179, 49.8009], [-114.3406, 49.801], [-114.3398, 49.874], [-114.2251, 49.8431], [-113.999, 49.8425], [-113.9995, 50.1937], [-114.0679, 50.1933], [-114.0699, 50.31], [-114.3916, 50.3099], [-114.4604, 50.3246], [-114.4602, 50.3682], [-114.506, 50.3682], [-114.5059, 50.3971], [-114.5291, 50.3968], [-114.5061, 50.4105], [-114.5059, 50.4552], [-114.529, 50.4553], [-114.5294, 50.5455], [-114.4407, 50.572], [-114.4406, 50.6012], [-114.4638, 50.6013], [-114.4637, 50.7031], [-114.533, 50.7033], [-114.556, 50.8928], [-114.625, 50.8923], [-114.6241, 50.9213], [-114.6995, 50.9651], [-114.6994, 51.124], [-114.6984, 51.1557], [-114.6686, 51.169], [-114.5588, 51.1688], [-114.5131, 51.1932], [-114.5827, 51.2149], [-114.7214, 51.2121], [-114.7038, 51.4898], [-114.7516, 51.5046], [-114.7518, 51.5326], [-114.7038, 51.5328], [-114.7042, 51.6203], [-114.7102, 51.6495], [-114.7817, 51.6495], [-114.7805, 51.7078], [-114.9595, 51.6916], [-114.9944, 51.6535], [-114.9932, 51.6209], [-115.5741, 51.6191], [-115.6687, 51.6944], [-115.7411, 51.7095], [-115.814, 51.7619], [-115.9173, 51.7507], [-115.9375, 51.7705], [-115.9211, 51.7945], [-115.9477, 51.8069], [-115.9377, 51.8551], [-115.9857, 51.8446], [-116.0248, 51.8968], [-116.0857, 51.9204], [-116.1868, 51.8359], [-116.2872, 51.8239], [-116.3247, 51.7868], [-116.4102, 51.8343], [-116.464, 51.84], [-116.5091, 51.8146], [-116.547, 51.8666], [-116.6061, 51.8826], [-116.6065, 51.976], [-116.6596, 51.9906], [-116.7057, 52.0569], [-116.7565, 52.054], [-116.8233, 52.1037], [-116.9667, 52.1465], [-116.963, 52.1765], [-117.0243, 52.2118], [-117.0338, 52.2425], [-117.0912, 52.2592], [-117.0302, 52.3023], [-116.9634, 52.4192], [-116.8692, 52.487], [-116.9027, 52.5368], [-116.8458, 52.6173], [-116.8204, 52.6177], [-116.8203, 52.6634], [-116.7963, 52.6747], [-116.813, 52.721], [-116.8982, 52.6522], [-116.9816, 52.715], [-117.0806, 52.7165], [-117.197, 52.7918], [-117.1929, 52.8109], [-117.5458, 52.9703], [-117.5397, 53.0146], [-117.4895, 53.0386], [-117.6061, 53.0742], [-117.6717, 53.126], [-117.6977, 53.1835], [-117.7425, 53.1799], [-117.8046, 53.2252], [-117.8665, 53.2302], [-117.9588, 53.3302], [-118.0495, 53.3641], [-118.2078, 53.3254], [-118.2399, 53.3519], [-118.2124, 53.3833], [-118.3602, 53.457], [-118.4755, 53.449], [-118.5247, 53.4712], [-118.5811, 53.435], [-118.6932, 53.4788], [-118.7917, 53.4162], [-118.9848, 53.4817], [-119.02, 53.4709], [-118.9992, 53.444], [-119.0417, 53.4208], [-119.2371, 53.4741], [-119.4383, 53.4724]]]}}, {"type": "Feature", "properties": {"osm_type": "relation", "osm_id": 177928879, "name": "Division No. 16", "admin_level": "6", "kind": "subdivision_2", "parent_osm_id": 391186, "parent_name": "Alberta", "parent_iso": "CA-AB"}, "geometry": {"type": "Polygon", "coordinates": [[[-110.0, 59.9526], [-110.0, 60.0], [-115.5672, 60.0001], [-115.5692, 59.6489], [-115.553, 59.648], [-115.5557, 59.476], [-114.0001, 59.4747], [-114.0, 57.3811], [-113.0946, 57.3824], [-113.0938, 57.2949], [-112.7651, 57.2944], [-112.7633, 57.2079], [-112.7392, 57.2064], [-112.7434, 56.8563], [-112.7203, 56.856], [-112.7157, 56.5071], [-112.6917, 56.507], [-112.6925, 56.4501], [-112.7171, 56.4316], [-112.6659, 56.4121], [-112.6565, 56.3592], [-112.5945, 56.3169], [-112.5124, 56.1993], [-112.5756, 56.1347], [-112.5905, 56.0869], [-112.6322, 56.0795], [-112.6264, 56.0328], [-112.6004, 56.0208], [-112.6446, 55.988], [-112.0395, 55.9872], [-112.0387, 55.9433], [-111.9287, 55.9408], [-111.8831, 55.9412], [-111.8848, 55.9883], [-111.4127, 55.9844], [-111.4014, 55.5548], [-110.0, 55.5493], [-110.0, 59.9526]]]}}, {"type": "Feature", "properties": {"osm_type": "relation", "osm_id": 348281350, "name": "Division No. 17", "admin_level": "6", "kind": "subdivision_2", "parent_osm_id": 391186, "parent_name": "Alberta", "parent_iso": "CA-AB"}, "geometry": {"type": "Polygon", "coordinates": [[[-114.0, 58.8654], [-114.0001, 59.4747], [-115.5557, 59.476], [-115.5672, 60.0001], [-120.0, 60.0], [-120.0, 56.1455], [-119.8653, 56.1335], [-119.7661, 56.174], [-119.644, 56.167], [-119.5368, 56.2153], [-119.3781, 56.238], [-119.1609, 56.3122], [-119.0757, 56.2758], [-118.9551, 56.2631], [-118.9695, 56.2074], [-118.9394, 56.1478], [-118.9028, 56.1305], [-118.7837, 56.1307], [-118.7836, 56.1599], [-118.0004, 56.16], [-118.0004, 56.2474], [-117.3207, 56.2483], [-117.263, 56.2746], [-117.2816, 56.2631], [-117.2787, 56.2057], [-117.4545, 56.078], [-117.5285, 55.9856], [-117.2898, 55.9852], [-117.2898, 55.9416], [-116.9763, 55.9415], [-116.9727, 55.8117], [-116.9217, 55.8107], [-116.9196, 55.7376], [-116.7933, 55.7231], [-116.7934, 55.462], [-116.7677, 55.4612], [-116.7699, 55.3746], [-116.9206, 55.3737], [-116.9246, 55.1126], [-116.7427, 55.1126], [-116.7454, 54.8503], [-115.9844, 54.8496], [-115.9625, 54.5], [-115.0628, 54.5022], [-115.07, 54.8503], [-114.2224, 54.8505], [-114.2829, 54.7843], [-114.2928, 54.7006], [-114.3268, 54.6745], [-114.3013, 54.6475], [-114.3222, 54.5887], [-113.6872, 54.5879], [-113.6945, 54.742], [-113.6645, 54.7621], [-113.6656, 54.9367], [-113.3611, 54.9373], [-113.3613, 55.0239], [-112.9039, 55.0241], [-112.9038, 54.9704], [-112.7272, 54.9775], [-112.7566, 55.0385], [-112.836, 55.046], [-112.8894, 55.0772], [-112.7871, 55.2618], [-112.6839, 55.3083], [-112.7514, 55.463], [-112.7778, 55.4702], [-112.7533, 55.4956], [-112.8005, 55.5131], [-112.7582, 55.538], [-112.791, 55.6414], [-112.7225, 55.6934], [-112.5972, 55.727], [-112.6369, 55.7652], [-112.6169, 55.777], [-112.6489, 55.8451], [-112.629, 55.8585], [-112.6796, 55.9021], [-112.619, 55.9407], [-112.6541, 55.9574], [-112.6277, 55.976], [-112.6468, 56.0023], [-112.6004, 56.0208], [-112.6264, 56.0328], [-112.6322, 56.0795], [-112.5905, 56.0869], [-112.5756, 56.1347], [-112.5124, 56.1993], [-112.5945, 56.3169], [-112.6565, 56.3592], [-112.6659, 56.4121], [-112.7171, 56.4316], [-112.6925, 56.4501], [-112.6917, 56.507], [-112.7157, 56.5071], [-112.7203, 56.856], [-112.7434, 56.8563], [-112.7392, 57.2064], [-112.7633, 57.2079], [-112.7651, 57.2944], [-113.0938, 57.2949], [-113.0946, 57.3824], [-114.0, 57.3811], [-114.0, 58.8654]]]}}, {"type": "Feature", "properties": {"osm_type": "relation", "osm_id": 133413682, "name": "Division No. 18", "admin_level": "6", "kind": "subdivision_2", "parent_osm_id": 391186, "parent_name": "Alberta", "parent_iso": "CA-AB"}, "geometry": {"type": "Polygon", "coordinates": [[[-118.0806, 55.5466], [-118.1983, 55.549], [-118.1425, 55.494], [-118.1773, 55.4796], [-118.1722, 55.4544], [-118.224, 55.4543], [-118.1961, 55.4387], [-118.2306, 55.409], [-118.2175, 55.362], [-118.2831, 55.3265], [-118.2741, 55.2579], [-118.2952, 55.2434], [-118.2523, 55.2451], [-118.2802, 55.1998], [-118.2188, 55.1849], [-118.2756, 55.138], [-118.354, 55.1477], [-118.385, 55.1147], [-118.4463, 55.122], [-118.5469, 55.074], [-118.6609, 55.0595], [-118.7569, 55.0819], [-118.9021, 55.0535], [-118.9676, 55.0803], [-119.0573, 55.0453], [-119.1912, 55.0539], [-119.2252, 55.0325], [-119.2802, 55.0451], [-119.3748, 55.0026], [-119.4225, 55.0142], [-119.4721, 54.9937], [-119.4535, 54.974], [-119.5815, 54.9678], [-119.6815, 54.9167], [-119.6472, 54.9071], [-119.6718, 54.8959], [-119.6374, 54.869], [-119.8672, 54.8188], [-119.8455, 54.7781], [-119.9308, 54.7269], [-119.9915, 54.7485], [-120.0, 53.9374], [-119.9304, 53.9464], [-119.7762, 53.8941], [-119.6781, 53.9297], [-119.5602, 54.0182], [-119.4841, 54.0249], [-119.485, 53.8466], [-118.9978, 53.8448], [-118.9994, 53.8049], [-118.1251, 53.8067], [-118.116, 53.8786], [-118.0648, 53.9166], [-117.9072, 53.9349], [-117.8654, 53.9644], [-117.7852, 53.9569], [-117.708, 54.0175], [-117.5735, 54.0289], [-117.5332, 54.0526], [-117.3549, 54.0221], [-117.3328, 54.0269], [-117.3458, 54.0505], [-117.2751, 54.0579], [-117.2464, 54.0358], [-117.2836, 54.0245], [-117.2767, 53.9875], [-117.1995, 54.0111], [-117.2171, 53.9974], [-117.1122, 53.9962], [-117.1018, 53.9724], [-116.958, 54.0172], [-116.8414, 54.003], [-116.7754, 54.0423], [-116.7354, 54.1132], [-116.5261, 54.1689], [-116.4615, 54.2104], [-116.2945, 54.2311], [-116.2504, 54.2561], [-116.2549, 54.3265], [-116.1005, 54.3263], [-116.1015, 54.4145], [-115.9701, 54.4126], [-115.9844, 54.8496], [-116.7454, 54.8503], [-116.7427, 55.1126], [-116.9246, 55.1126], [-116.9203, 55.3739], [-117.5387, 55.3749], [-117.5395, 55.4616], [-117.571, 55.4615], [-117.5688, 55.6703], [-117.5861, 55.6803], [-117.63, 55.6715], [-117.6202, 55.6219], [-117.718, 55.612], [-117.7019, 55.5634], [-117.8794, 55.5507], [-117.9677, 55.5596], [-117.985, 55.5816], [-118.0557, 55.5731], [-118.0806, 55.5466]]]}}, {"type": "Feature", "properties": {"osm_type": "relation", "osm_id": 315213818, "name": "Division No. 19", "admin_level": "6", "kind": "subdivision_2", "parent_osm_id": 391186, "parent_name": "Alberta", "parent_iso": "CA-AB"}, "geometry": {"type": "Polygon", "coordinates": [[[-119.9913, 56.1476], [-120.0, 54.737], [-119.9834, 54.7503], [-119.9308, 54.7269], [-119.8455, 54.7781], [-119.8672, 54.8188], [-119.6374, 54.869], [-119.6718, 54.8959], [-119.6472, 54.9071], [-119.6815, 54.9167], [-119.5815, 54.9678], [-119.4535, 54.974], [-119.4721, 54.9937], [-119.4225, 55.0142], [-119.3748, 55.0026], [-119.2802, 55.0451], [-119.2252, 55.0325], [-119.1912, 55.0539], [-119.0573, 55.0453], [-118.9676, 55.0803], [-118.9021, 55.0535], [-118.7569, 55.0819], [-118.6609, 55.0595], [-118.5469, 55.074], [-118.4463, 55.122], [-118.385, 55.1147], [-118.354, 55.1477], [-118.2756, 55.138], [-118.2188, 55.1849], [-118.2802, 55.1998], [-118.2523, 55.2451], [-118.2952, 55.2434], [-118.2741, 55.2579], [-118.2831, 55.3265], [-118.2175, 55.362], [-118.2306, 55.409], [-118.1961, 55.4387], [-118.224, 55.4543], [-118.1722, 55.4544], [-118.1773, 55.4796], [-118.1425, 55.494], [-118.1983, 55.549], [-118.0806, 55.5466], [-118.0557, 55.5731], [-117.985, 55.5816], [-117.9677, 55.5596], [-117.8794, 55.5507], [-117.7019, 55.5634], [-117.7203, 55.6089], [-117.6202, 55.6219], [-117.6231, 55.6788], [-117.5688, 55.6703], [-117.571, 55.4615], [-117.5395, 55.4616], [-117.5387, 55.3749], [-116.7699, 55.3746], [-116.7677, 55.4612], [-116.7934, 55.462], [-116.7933, 55.7231], [-116.9196, 55.7376], [-116.9217, 55.8107], [-116.9727, 55.8117], [-116.9763, 55.9415], [-117.2898, 55.9416], [-117.2898, 55.9852], [-117.5285, 55.9856], [-117.4545, 56.078], [-117.2787, 56.2057], [-117.2816, 56.2631], [-117.263, 56.2746], [-117.3207, 56.2483], [-118.0004, 56.2474], [-118.0004, 56.16], [-118.7836, 56.1599], [-118.7837, 56.1307], [-118.9028, 56.1305], [-118.9394, 56.1478], [-118.9695, 56.2074], [-118.9551, 56.2631], [-119.0757, 56.2758], [-119.1609, 56.3122], [-119.3781, 56.238], [-119.5368, 56.2153], [-119.644, 56.167], [-119.7661, 56.174], [-119.8653, 56.1335], [-119.9913, 56.1476]]]}}]}