{"type": "FeatureCollection", "parent": {"osm_id": 3921211, "name": "Rangpur Division", "admin_level": "4", "kind": "subdivision_1", "child_kind": "subdivision_2", "iso": "BD-F"}, "features": [{"type": "Feature", "properties": {"osm_type": "relation", "osm_id": 691278825, "name": "Dinajpur", "admin_level": "6", "kind": "subdivision_2", "parent_osm_id": 3921211, "parent_name": "Rangpur Division", "parent_iso": "BD-F"}, "geometry": {"type": "Polygon", "coordinates": [[[88.6268, 26.0559], [88.6159, 26.0629], [88.6187, 26.057], [88.6143, 26.0586], [88.6057, 26.051], [88.6092, 26.0352], [88.5972, 26.0309], [88.5893, 26.0204], [88.5734, 26.02], [88.5694, 26.0272], [88.5574, 26.0285], [88.5656, 26.0237], [88.5459, 26.0192], [88.542, 26.008], [88.5454, 25.9981], [88.5305, 25.9915], [88.5297, 25.9771], [88.5379, 25.9635], [88.5369, 25.9519], [88.5236, 25.9516], [88.5119, 25.9413], [88.5064, 25.9324], [88.5077, 25.9178], [88.5063, 25.9261], [88.4957, 25.9279], [88.4983, 25.9233], [88.5033, 25.9244], [88.5028, 25.9137], [88.5086, 25.9162], [88.5018, 25.9056], [88.48, 25.9027], [88.4826, 25.8879], [88.4754, 25.8887], [88.4855, 25.8852], [88.4843, 25.8656], [88.4697, 25.8633], [88.4656, 25.8732], [88.4613, 25.8733], [88.4608, 25.862], [88.4531, 25.8584], [88.4446, 25.862], [88.4432, 25.8714], [88.4347, 25.8709], [88.4358, 25.8657], [88.4221, 25.871], [88.4175, 25.8693], [88.4259, 25.861], [88.4224, 25.8555], [88.4085, 25.8684], [88.4038, 25.8648], [88.3988, 25.8419], [88.3863, 25.8398], [88.3858, 25.8226], [88.3908, 25.811], [88.3854, 25.8083], [88.3891, 25.8035], [88.3858, 25.7922], [88.3827, 25.7937], [88.3921, 25.7433], [88.4006, 25.7384], [88.3988, 25.734], [88.4051, 25.7285], [88.4144, 25.7339], [88.4127, 25.7377], [88.4188, 25.7295], [88.4221, 25.7325], [88.4284, 25.7287], [88.4233, 25.7249], [88.4341, 25.7181], [88.4236, 25.7149], [88.425, 25.7082], [88.4362, 25.7084], [88.4337, 25.6961], [88.4381, 25.689], [88.4284, 25.6877], [88.4306, 25.6837], [88.4252, 25.6786], [88.4311, 25.6741], [88.4271, 25.6697], [88.4544, 25.6636], [88.4558, 25.6287], [88.4451, 25.6138], [88.4496, 25.6051], [88.4443, 25.597], [88.457, 25.599], [88.4688, 25.5832], [88.4811, 25.5857], [88.4826, 25.5823], [88.4836, 25.5866], [88.4999, 25.5841], [88.5013, 25.5589], [88.4975, 25.5557], [88.5094, 25.5442], [88.519, 25.5452], [88.5187, 25.5384], [88.5235, 25.5353], [88.5277, 25.5434], [88.5331, 25.5422], [88.5328, 25.5323], [88.5394, 25.5348], [88.5405, 25.5303], [88.5399, 25.5084], [88.5463, 25.5084], [88.548, 25.5182], [88.5549, 25.521], [88.553, 25.5154], [88.56, 25.5126], [88.5963, 25.5062], [88.6027, 25.516], [88.6091, 25.5164], [88.6061, 25.5095], [88.613, 25.51], [88.6224, 25.497], [88.6397, 25.4996], [88.6485, 25.4963], [88.6427, 25.4928], [88.6463, 25.4785], [88.6602, 25.4818], [88.663, 25.4738], [88.6882, 25.4756], [88.6995, 25.4713], [88.7004, 25.4761], [88.7103, 25.4807], [88.7075, 25.4999], [88.7133, 25.5001], [88.7138, 25.4957], [88.7143, 25.4996], [88.7421, 25.5051], [88.7439, 25.4949], [88.74, 25.4894], [88.7648, 25.495], [88.7708, 25.5052], [88.7591, 25.5097], [88.7616, 25.526], [88.7826, 25.5152], [88.7923, 25.5228], [88.8106, 25.5232], [88.808, 25.5128], [88.8137, 25.488], [88.8296, 25.4904], [88.8393, 25.4587], [88.8265, 25.4449], [88.8343, 25.4318], [88.8344, 25.4275], [88.8285, 25.4261], [88.8299, 25.417], [88.8183, 25.4182], [88.8124, 25.4105], [88.8232, 25.4096], [88.8237, 25.4011], [88.8371, 25.4019], [88.8408, 25.3977], [88.8368, 25.3846], [88.8417, 25.3817], [88.8384, 25.3815], [88.8401, 25.3639], [88.8548, 25.3635], [88.8556, 25.3543], [88.8689, 25.3523], [88.8667, 25.3428], [88.8851, 25.3257], [88.8885, 25.3262], [88.8876, 25.3372], [88.9064, 25.3379], [88.906, 25.328], [88.9151, 25.3126], [88.924, 25.3121], [88.9278, 25.3173], [88.9294, 25.3042], [88.9392, 25.3008], [88.9499, 25.3039], [88.9579, 25.3009], [88.961, 25.306], [88.9716, 25.3011], [88.9759, 25.3063], [88.9853, 25.306], [88.9853, 25.2988], [88.9963, 25.2958], [89.0089, 25.3031], [89.0078, 25.2677], [89.0187, 25.2657], [89.0277, 25.2719], [89.0276, 25.2776], [89.0597, 25.2609], [89.0704, 25.2698], [89.0968, 25.2406], [89.1177, 25.2419], [89.1229, 25.253], [89.1298, 25.2443], [89.1402, 25.2467], [89.1388, 25.255], [89.1508, 25.2564], [89.1614, 25.2507], [89.156, 25.2471], [89.1733, 25.2399], [89.1746, 25.2346], [89.1871, 25.2357], [89.1928, 25.2409], [89.1964, 25.2308], [89.2046, 25.2285], [89.2167, 25.2366], [89.2459, 25.2237], [89.2741, 25.2237], [89.2724, 25.2306], [89.2992, 25.2225], [89.3037, 25.2296], [89.2977, 25.2311], [89.2899, 25.2428], [89.2871, 25.2573], [89.2725, 25.2652], [89.2746, 25.2684], [89.2666, 25.2801], [89.2559, 25.2852], [89.2734, 25.2918], [89.2658, 25.2951], [89.2684, 25.3005], [89.2825, 25.3019], [89.2706, 25.3059], [89.2658, 25.3131], [89.2568, 25.3108], [89.2654, 25.3187], [89.2632, 25.3232], [89.2547, 25.3155], [89.2378, 25.3191], [89.2358, 25.326], [89.2454, 25.3341], [89.2352, 25.333], [89.2309, 25.3384], [89.2267, 25.3304], [89.2213, 25.3323], [89.2305, 25.3471], [89.2378, 25.3397], [89.2339, 25.3454], [89.2462, 25.3524], [89.2333, 25.3525], [89.2321, 25.3559], [89.2377, 25.3577], [89.2361, 25.3649], [89.2299, 25.366], [89.2316, 25.3607], [89.2254, 25.3579], [89.222, 25.3586], [89.2254, 25.3647], [89.2097, 25.3645], [89.2065, 25.3681], [89.2171, 25.3767], [89.2021, 25.3941], [89.2017, 25.3892], [89.1881, 25.3865], [89.1842, 25.3961], [89.1765, 25.3979], [89.1718, 25.4052], [89.1647, 25.3999], [89.1626, 25.4054], [89.1518, 25.4035], [89.1582, 25.4037], [89.154, 25.41], [89.1377, 25.4121], [89.1511, 25.4129], [89.1485, 25.4339], [89.1325, 25.441], [89.138, 25.4469], [89.13, 25.4482], [89.1299, 25.4449], [89.1252, 25.4517], [89.1153, 25.4535], [89.1303, 25.4582], [89.1216, 25.4605], [89.1234, 25.4688], [89.1151, 25.4614], [89.1128, 25.4705], [89.1046, 25.4744], [89.1117, 25.4811], [89.104, 25.4844], [89.1082, 25.4869], [89.1029, 25.4897], [89.1039, 25.4998], [89.1111, 25.5029], [89.1068, 25.5083], [89.1148, 25.5067], [89.1047, 25.5118], [89.1108, 25.5139], [89.1039, 25.5162], [89.1048, 25.5344], [89.1002, 25.5368], [89.1009, 25.5434], [89.0934, 25.5456], [89.1038, 25.5693], [89.0964, 25.5683], [89.078, 25.5773], [89.0767, 25.5843], [89.0609, 25.5883], [89.0447, 25.5838], [89.0447, 25.5983], [89.0383, 25.604], [89.016, 25.6025], [89.0107, 25.6187], [88.9992, 25.62], [89.0021, 25.6217], [88.9981, 25.6301], [89.003, 25.6337], [88.9913, 25.6422], [89.0017, 25.6499], [88.9979, 25.6581], [88.9763, 25.658], [88.9734, 25.6617], [88.9777, 25.6705], [88.9677, 25.6723], [88.9644, 25.683], [88.9553, 25.6785], [88.939, 25.6857], [88.942, 25.6914], [88.932, 25.7062], [88.9317, 25.7218], [88.9415, 25.7237], [88.9461, 25.7302], [88.9383, 25.7347], [88.9401, 25.7314], [88.9352, 25.7311], [88.925, 25.7408], [88.9161, 25.7387], [88.9091, 25.7457], [88.9049, 25.7378], [88.9158, 25.7355], [88.8976, 25.7353], [88.8916, 25.7418], [88.8898, 25.7708], [88.867, 25.7711], [88.8566, 25.7766], [88.8522, 25.7851], [88.8551, 25.7868], [88.8479, 25.7917], [88.8443, 25.8108], [88.8276, 25.8132], [88.8274, 25.8326], [88.8225, 25.8406], [88.8277, 25.8538], [88.8201, 25.8555], [88.816, 25.8772], [88.8015, 25.9005], [88.8015, 25.922], [88.7786, 25.9349], [88.7595, 25.939], [88.7551, 25.931], [88.7445, 25.9382], [88.7515, 25.9474], [88.7437, 25.965], [88.7482, 25.9773], [88.7375, 25.9976], [88.735, 26.0147], [88.7257, 26.0163], [88.7197, 26.0082], [88.7065, 26.0063], [88.7003, 26.0078], [88.6996, 26.0157], [88.6696, 26.0131], [88.646, 26.043], [88.6299, 26.0494], [88.6268, 26.0559]]]}}, {"type": "Feature", "properties": {"osm_type": "relation", "osm_id": 131598410, "name": "Gaibandha", "admin_level": "6", "kind": "subdivision_2", "parent_osm_id": 3921211, "parent_name": "Rangpur Division", "parent_iso": "BD-F"}, "geometry": {"type": "Polygon", "coordinates": [[[89.6478, 25.0467], [89.6559, 25.05], [89.6531, 25.078], [89.6386, 25.0901], [89.6449, 25.1061], [89.6498, 25.1061], [89.6519, 25.1441], [89.672, 25.1697], [89.7012, 25.2322], [89.7489, 25.2364], [89.7487, 25.2695], [89.7563, 25.2809], [89.7449, 25.2987], [89.7422, 25.3195], [89.7316, 25.344], [89.7218, 25.3563], [89.7444, 25.374], [89.7478, 25.3873], [89.7391, 25.3891], [89.7366, 25.3982], [89.7008, 25.3901], [89.6945, 25.399], [89.7013, 25.4022], [89.6993, 25.4181], [89.6907, 25.4125], [89.6866, 25.4147], [89.7003, 25.4373], [89.7068, 25.4672], [89.6964, 25.4702], [89.6834, 25.4658], [89.685, 25.4745], [89.67, 25.4887], [89.6983, 25.4962], [89.6814, 25.5165], [89.6977, 25.5337], [89.6914, 25.5378], [89.6675, 25.5358], [89.6159, 25.5692], [89.6056, 25.5682], [89.5966, 25.5582], [89.5873, 25.5565], [89.5665, 25.5846], [89.5363, 25.5905], [89.5327, 25.6006], [89.5391, 25.6012], [89.5417, 25.6093], [89.5481, 25.6082], [89.5489, 25.626], [89.5438, 25.6388], [89.5356, 25.6425], [89.5359, 25.649], [89.5225, 25.634], [89.5219, 25.623], [89.5082, 25.6182], [89.4971, 25.6222], [89.5029, 25.6115], [89.4945, 25.6147], [89.4884, 25.5999], [89.4905, 25.5904], [89.4982, 25.5857], [89.4941, 25.5762], [89.4875, 25.5759], [89.471, 25.5987], [89.4428, 25.5844], [89.4343, 25.592], [89.4323, 25.5876], [89.4129, 25.5883], [89.413, 25.5758], [89.4075, 25.5695], [89.4087, 25.553], [89.4046, 25.5501], [89.4133, 25.5494], [89.4049, 25.5473], [89.4059, 25.5422], [89.4118, 25.5416], [89.4057, 25.5357], [89.4035, 25.5389], [89.4026, 25.5343], [89.4122, 25.5363], [89.4184, 25.5286], [89.4258, 25.537], [89.4285, 25.5316], [89.4379, 25.5385], [89.4378, 25.5271], [89.4432, 25.5276], [89.434, 25.5205], [89.4435, 25.5184], [89.4445, 25.5218], [89.4505, 25.5176], [89.4398, 25.5121], [89.4443, 25.504], [89.4394, 25.5011], [89.4421, 25.4883], [89.4336, 25.4871], [89.4301, 25.4742], [89.4256, 25.4759], [89.4152, 25.4628], [89.4083, 25.467], [89.4051, 25.4629], [89.3993, 25.4646], [89.3914, 25.4418], [89.3803, 25.4437], [89.3779, 25.4322], [89.3836, 25.4287], [89.378, 25.4243], [89.3817, 25.4185], [89.3775, 25.4171], [89.3784, 25.4098], [89.3657, 25.4029], [89.3646, 25.3901], [89.3508, 25.3788], [89.355, 25.3729], [89.3432, 25.3669], [89.3451, 25.3527], [89.3402, 25.337], [89.3472, 25.3365], [89.3463, 25.3278], [89.3397, 25.329], [89.3302, 25.3219], [89.3364, 25.3142], [89.3439, 25.3198], [89.3463, 25.3098], [89.3407, 25.3067], [89.3428, 25.3043], [89.3134, 25.2994], [89.2684, 25.3005], [89.2658, 25.2951], [89.2734, 25.2918], [89.2559, 25.2852], [89.2666, 25.2801], [89.2746, 25.2684], [89.2725, 25.2652], [89.2871, 25.2573], [89.2899, 25.2428], [89.2977, 25.2311], [89.3037, 25.2296], [89.2992, 25.2225], [89.2724, 25.2306], [89.2741, 25.2237], [89.2459, 25.2237], [89.2167, 25.2366], [89.1946, 25.2169], [89.1924, 25.1939], [89.1839, 25.1845], [89.1952, 25.1823], [89.1978, 25.1708], [89.2042, 25.1665], [89.2167, 25.1646], [89.2233, 25.1543], [89.2169, 25.145], [89.2313, 25.1444], [89.2481, 25.1178], [89.2516, 25.0973], [89.2638, 25.0976], [89.264, 25.093], [89.2801, 25.0876], [89.2974, 25.117], [89.3173, 25.1159], [89.3223, 25.1221], [89.3312, 25.123], [89.34, 25.11], [89.3313, 25.0999], [89.3368, 25.1014], [89.3398, 25.0974], [89.345, 25.101], [89.3533, 25.0891], [89.3597, 25.089], [89.3555, 25.0814], [89.3601, 25.0664], [89.3695, 25.0677], [89.3808, 25.0603], [89.389, 25.0471], [89.3914, 25.0665], [89.4033, 25.0676], [89.3989, 25.0788], [89.4096, 25.0774], [89.4132, 25.0831], [89.4226, 25.0754], [89.4256, 25.0652], [89.4296, 25.0733], [89.4413, 25.0689], [89.4448, 25.0705], [89.4421, 25.0734], [89.4521, 25.0759], [89.4543, 25.0713], [89.4491, 25.0615], [89.4526, 25.0556], [89.4533, 25.0655], [89.4651, 25.0613], [89.4625, 25.0545], [89.4721, 25.055], [89.4746, 25.0617], [89.4878, 25.0617], [89.4929, 25.0507], [89.5151, 25.0404], [89.5303, 25.0463], [89.5336, 25.0402], [89.5641, 25.0379], [89.5731, 25.0396], [89.5748, 25.045], [89.6099, 25.0509], [89.6403, 25.0389], [89.6478, 25.0467]]]}}, {"type": "Feature", "properties": {"osm_type": "relation", "osm_id": 106031327, "name": "Kurigram", "admin_level": "6", "kind": "subdivision_2", "parent_osm_id": 3921211, "parent_name": "Rangpur Division", "parent_iso": "BD-F"}, "geometry": {"type": "MultiPolygon", "coordinates": [[[[89.5174, 26.0265], [89.5105, 26.0241], [89.5141, 26.0109], [89.5219, 26.0244], [89.5174, 26.0265]]], [[[89.5647, 26.0607], [89.5555, 26.0656], [89.5516, 26.0631], [89.5584, 26.0501], [89.5716, 26.0525], [89.5728, 26.063], [89.5647, 26.0607]]], [[[89.5018, 26.0699], [89.4981, 26.0672], [89.5027, 26.06], [89.5117, 26.0577], [89.5144, 26.0656], [89.5018, 26.0699]]], [[[89.6206, 26.0683], [89.6171, 26.08], [89.6115, 26.0724], [89.6139, 26.0674], [89.6206, 26.0683]]], [[[89.7026, 26.1772], [89.6993, 26.1837], [89.7026, 26.1772]]], [[[89.5859, 26.1837], [89.5868, 26.1895], [89.5859, 26.1837]]], [[[89.6039, 26.1925], [89.59, 26.1893], [89.5879, 26.1822], [89.5927, 26.1834], [89.5874, 26.1803], [89.5886, 26.1759], [89.6073, 26.1756], [89.5994, 26.1804], [89.6062, 26.1843], [89.6039, 26.1925]]], [[[89.6219, 26.2004], [89.6137, 26.1969], [89.6157, 26.1896], [89.6091, 26.191], [89.6187, 26.1862], [89.6219, 26.2004]]], [[[89.598, 26.1971], [89.5942, 26.2027], [89.5893, 26.1971], [89.5983, 26.1932], [89.598, 26.1971]]], [[[89.6106, 26.2053], [89.6172, 26.2024], [89.6106, 26.2053]]], [[[89.7444, 25.374], [89.7487, 25.3791], [89.7705, 25.3815], [89.7803, 25.388], [89.7841, 25.413], [89.7811, 25.4173], [89.7825, 25.4127], [89.7716, 25.4153], [89.7744, 25.4234], [89.7669, 25.4327], [89.7865, 25.4285], [89.7993, 25.4198], [89.8256, 25.4152], [89.8327, 25.4389], [89.8523, 25.4664], [89.8492, 25.4925], [89.8551, 25.4973], [89.8602, 25.5177], [89.8512, 25.5387], [89.8659, 25.5463], [89.8824, 25.6173], [89.871, 25.6626], [89.8632, 25.666], [89.8466, 25.6957], [89.8505, 25.7131], [89.835, 25.7159], [89.8273, 25.73], [89.829, 25.7425], [89.8413, 25.7591], [89.8267, 25.8096], [89.817, 25.8144], [89.8352, 25.8408], [89.8325, 25.8707], [89.8785, 25.9243], [89.887, 25.9453], [89.8427, 25.9401], [89.8391, 25.9412], [89.8423, 25.9444], [89.8253, 25.9456], [89.831, 25.9552], [89.8493, 25.9492], [89.8381, 25.9681], [89.8718, 25.9742], [89.8707, 25.9815], [89.8671, 25.9794], [89.8502, 25.9902], [89.8476, 26.0008], [89.8358, 26.0127], [89.831, 26.0099], [89.8309, 26.002], [89.8359, 25.9825], [89.8202, 25.9877], [89.8148, 25.9979], [89.8204, 25.998], [89.8219, 26.01], [89.8153, 26.0203], [89.8192, 26.0259], [89.8086, 26.0434], [89.8056, 26.0446], [89.802, 26.0318], [89.7906, 26.0179], [89.7876, 26.0214], [89.7938, 26.0226], [89.8018, 26.0404], [89.7935, 26.0424], [89.7906, 26.0344], [89.7879, 26.0404], [89.7798, 26.0405], [89.7765, 26.035], [89.7736, 26.0377], [89.7878, 26.0478], [89.7852, 26.057], [89.7987, 26.0597], [89.7965, 26.0764], [89.7903, 26.0755], [89.7948, 26.0874], [89.7906, 26.0894], [89.7812, 26.0836], [89.786, 26.0964], [89.7817, 26.0983], [89.7858, 26.1015], [89.7831, 26.1061], [89.7563, 26.1091], [89.7664, 26.1308], [89.7541, 26.1403], [89.7476, 26.1574], [89.7204, 26.1564], [89.7193, 26.1664], [89.7145, 26.1689], [89.7099, 26.1563], [89.7013, 26.1519], [89.6972, 26.1586], [89.6743, 26.167], [89.702, 26.1741], [89.6917, 26.1776], [89.6734, 26.2058], [89.6914, 26.2118], [89.685, 26.2087], [89.6797, 26.2141], [89.679, 26.2242], [89.6894, 26.2214], [89.6836, 26.2239], [89.6866, 26.2293], [89.6818, 26.2278], [89.6787, 26.2383], [89.6718, 26.22], [89.6555, 26.2192], [89.6338, 26.2303], [89.6359, 26.2189], [89.6321, 26.212], [89.6383, 26.2111], [89.6394, 26.1998], [89.6499, 26.1903], [89.6424, 26.1854], [89.6301, 26.1959], [89.6285, 26.1919], [89.6328, 26.1904], [89.6276, 26.1894], [89.6277, 26.1841], [89.639, 26.1787], [89.6402, 26.1823], [89.6554, 26.1815], [89.6586, 26.1765], [89.6492, 26.1645], [89.6321, 26.172], [89.637, 26.1789], [89.6321, 26.1808], [89.6239, 26.1712], [89.6238, 26.1792], [89.6133, 26.1767], [89.6087, 26.1807], [89.6082, 26.1764], [89.6151, 26.176], [89.6112, 26.1687], [89.6197, 26.1682], [89.6101, 26.1619], [89.6103, 26.1539], [89.5998, 26.161], [89.5911, 26.1573], [89.5979, 26.154], [89.5955, 26.14], [89.6069, 26.1258], [89.6012, 26.1235], [89.6053, 26.1172], [89.6123, 26.1279], [89.6204, 26.1198], [89.6263, 26.1285], [89.6303, 26.1185], [89.6141, 26.1069], [89.6052, 26.1065], [89.5979, 26.1131], [89.6008, 26.1091], [89.5956, 26.1079], [89.6007, 26.1076], [89.6, 26.1035], [89.5942, 26.1034], [89.5967, 26.098], [89.6083, 26.0885], [89.6094, 26.0955], [89.6172, 26.0948], [89.6139, 26.1037], [89.6215, 26.1004], [89.624, 26.108], [89.6301, 26.1069], [89.6361, 26.0995], [89.6335, 26.094], [89.6393, 26.091], [89.634, 26.0801], [89.65, 26.0645], [89.6317, 26.063], [89.6193, 26.0535], [89.6177, 26.0602], [89.605, 26.0633], [89.6132, 26.0536], [89.5922, 26.0449], [89.5977, 26.0379], [89.5868, 26.0384], [89.5853, 26.0264], [89.5787, 26.0264], [89.5787, 26.0069], [89.5862, 25.9943], [89.5851, 25.976], [89.5763, 25.982], [89.5734, 25.9787], [89.5778, 25.9694], [89.5688, 25.9679], [89.5664, 25.9804], [89.5576, 25.9655], [89.5409, 25.9696], [89.5381, 25.9757], [89.5416, 25.9833], [89.5351, 25.989], [89.5482, 26.0007], [89.5408, 26.006], [89.5336, 26.0055], [89.5394, 26.0055], [89.5374, 26.0022], [89.5192, 26.0089], [89.5091, 26.0021], [89.4912, 26.0061], [89.4812, 25.9975], [89.4819, 25.9905], [89.4725, 25.9762], [89.482, 25.9618], [89.501, 25.9702], [89.4987, 25.9662], [89.5037, 25.959], [89.4966, 25.9544], [89.5116, 25.9441], [89.5098, 25.9334], [89.5177, 25.9261], [89.5175, 25.9175], [89.5295, 25.9153], [89.5334, 25.9002], [89.5443, 25.8967], [89.5463, 25.8886], [89.5709, 25.8826], [89.5544, 25.8773], [89.5523, 25.8616], [89.5327, 25.8685], [89.5299, 25.8656], [89.5357, 25.8239], [89.5294, 25.8141], [89.5224, 25.8141], [89.5168, 25.8203], [89.5211, 25.8145], [89.519, 25.8055], [89.4923, 25.8091], [89.4968, 25.813], [89.4886, 25.8132], [89.4846, 25.8314], [89.4798, 25.8347], [89.4704, 25.8249], [89.4637, 25.8295], [89.4548, 25.825], [89.4518, 25.8175], [89.4628, 25.8229], [89.4663, 25.8174], [89.4703, 25.8187], [89.4698, 25.8115], [89.4594, 25.8122], [89.4619, 25.7988], [89.4579, 25.7836], [89.4628, 25.7862], [89.4694, 25.7794], [89.4808, 25.7531], [89.4866, 25.7544], [89.5004, 25.7459], [89.4983, 25.7302], [89.485, 25.7277], [89.492, 25.7134], [89.5083, 25.7173], [89.5152, 25.7069], [89.5146, 25.6912], [89.5198, 25.6841], [89.5142, 25.6598], [89.5192, 25.6588], [89.5187, 25.6442], [89.5263, 25.6511], [89.5308, 25.6489], [89.5308, 25.655], [89.5489, 25.626], [89.5481, 25.6082], [89.5417, 25.6093], [89.5391, 25.6012], [89.5327, 25.6006], [89.5363, 25.5905], [89.5665, 25.5846], [89.5873, 25.5565], [89.5966, 25.5582], [89.6056, 25.5682], [89.6159, 25.5692], [89.6675, 25.5358], [89.6914, 25.5378], [89.6977, 25.5337], [89.6814, 25.5165], [89.6983, 25.4962], [89.67, 25.4887], [89.685, 25.4745], [89.6834, 25.4658], [89.6964, 25.4702], [89.7068, 25.4672], [89.7003, 25.4373], [89.6866, 25.4147], [89.6907, 25.4125], [89.6993, 25.4181], [89.7013, 25.4022], [89.6945, 25.399], [89.7008, 25.3901], [89.7397, 25.3977], [89.7391, 25.3891], [89.7478, 25.3873], [89.7444, 25.374]]]]}}, {"type": "Feature", "properties": {"osm_type": "relation", "osm_id": 587869272, "name": "Nilphamari", "admin_level": "6", "kind": "subdivision_2", "parent_osm_id": 3921211, "parent_name": "Rangpur Division", "parent_iso": "BD-F"}, "geometry": {"type": "Polygon", "coordinates": [[[88.9411, 25.7343], [88.9466, 25.7428], [88.9547, 25.741], [88.9534, 25.7506], [88.9454, 25.7526], [88.9457, 25.7614], [88.9404, 25.7637], [88.9455, 25.7641], [88.9455, 25.7751], [88.9618, 25.7843], [88.9551, 25.7882], [88.9607, 25.7921], [88.9546, 25.8026], [88.9476, 25.8], [88.9422, 25.8022], [88.943, 25.8065], [88.9567, 25.8138], [88.9857, 25.8074], [88.9903, 25.8142], [89.0047, 25.8123], [89.002, 25.8157], [89.0067, 25.814], [89.014, 25.8197], [89.0433, 25.8164], [89.0428, 25.8126], [89.062, 25.8341], [89.0905, 25.8268], [89.0873, 25.8459], [89.1005, 25.8514], [89.0963, 25.8619], [89.1036, 25.8675], [89.1026, 25.8752], [89.1149, 25.8814], [89.1163, 25.8861], [89.0993, 25.8976], [89.0976, 25.9054], [89.1036, 25.913], [89.1002, 25.928], [89.1042, 25.9347], [89.0942, 25.9367], [89.1021, 25.9395], [89.1097, 25.9662], [89.1254, 25.9605], [89.1418, 25.9642], [89.1122, 25.9936], [89.1016, 26.0272], [89.0935, 26.0337], [89.0976, 26.0362], [89.0904, 26.0599], [89.0946, 26.0634], [89.092, 26.0705], [89.0994, 26.0762], [89.0891, 26.0888], [89.089, 26.0997], [89.0903, 26.1153], [89.0987, 26.1157], [89.1016, 26.1204], [89.098, 26.1463], [89.0729, 26.1705], [89.057, 26.1679], [89.0474, 26.1751], [89.0372, 26.1744], [89.0374, 26.1819], [89.0333, 26.1787], [89.0283, 26.1891], [89.0193, 26.1913], [89.033, 26.2037], [89.0361, 26.2204], [89.022, 26.228], [89.0158, 26.2447], [88.9568, 26.2406], [88.9262, 26.2839], [88.8982, 26.2887], [88.8758, 26.2866], [88.8613, 26.2727], [88.8614, 26.2521], [88.8717, 26.2405], [88.8777, 26.2423], [88.8778, 26.2335], [88.8597, 26.2315], [88.8518, 26.2352], [88.8403, 26.2314], [88.8381, 26.2382], [88.8276, 26.2397], [88.8291, 26.2498], [88.8135, 26.2547], [88.815, 26.2691], [88.81, 26.277], [88.8191, 26.2946], [88.7935, 26.3101], [88.764, 26.299], [88.7593, 26.3041], [88.7583, 26.2978], [88.7664, 26.2865], [88.7581, 26.2614], [88.7629, 26.2361], [88.7762, 26.2394], [88.7901, 26.2304], [88.7975, 26.2148], [88.7903, 26.2054], [88.7978, 26.2034], [88.7935, 26.1888], [88.7758, 26.1806], [88.7817, 26.1775], [88.779, 26.1652], [88.7861, 26.1477], [88.7836, 26.1326], [88.7893, 26.1304], [88.7892, 26.1235], [88.7743, 26.1058], [88.7672, 26.0878], [88.7577, 26.0846], [88.7753, 26.0731], [88.7788, 26.0624], [88.7622, 26.0423], [88.7612, 26.0339], [88.7577, 26.0363], [88.759, 26.0248], [88.7447, 26.0248], [88.735, 26.0147], [88.7375, 25.9976], [88.7482, 25.9773], [88.7437, 25.965], [88.7515, 25.9474], [88.7445, 25.9382], [88.7551, 25.931], [88.7595, 25.939], [88.7786, 25.9349], [88.8015, 25.922], [88.8015, 25.9005], [88.816, 25.8772], [88.8201, 25.8555], [88.8277, 25.8538], [88.8225, 25.8406], [88.8274, 25.8326], [88.8276, 25.8132], [88.8443, 25.8108], [88.8479, 25.7917], [88.8551, 25.7868], [88.8522, 25.7851], [88.8566, 25.7766], [88.867, 25.7711], [88.8898, 25.7708], [88.8916, 25.7418], [88.8976, 25.7353], [88.9158, 25.7355], [88.9049, 25.7378], [88.9091, 25.7457], [88.9161, 25.7387], [88.925, 25.7408], [88.9352, 25.7311], [88.9411, 25.7343]]]}}, {"type": "Feature", "properties": {"osm_type": "relation", "osm_id": 909867500, "name": "Panchagarh", "admin_level": "6", "kind": "subdivision_2", "parent_osm_id": 3921211, "parent_name": "Rangpur Division", "parent_iso": "BD-F"}, "geometry": {"type": "Polygon", "coordinates": [[[88.735, 26.0147], [88.7447, 26.0248], [88.759, 26.0248], [88.7577, 26.0363], [88.7612, 26.0339], [88.7622, 26.0423], [88.7788, 26.0624], [88.7753, 26.0731], [88.7577, 26.0846], [88.7672, 26.0878], [88.7743, 26.1058], [88.7892, 26.1235], [88.7893, 26.1304], [88.7836, 26.1326], [88.7861, 26.1477], [88.779, 26.1652], [88.7817, 26.1775], [88.7758, 26.1806], [88.7935, 26.1888], [88.7976, 26.2063], [88.7906, 26.2076], [88.7975, 26.2148], [88.7818, 26.2369], [88.7629, 26.2361], [88.7581, 26.2614], [88.7664, 26.2865], [88.7583, 26.2978], [88.7566, 26.3106], [88.7466, 26.3111], [88.7408, 26.2957], [88.7451, 26.2907], [88.7197, 26.2931], [88.7219, 26.2829], [88.6958, 26.2795], [88.6924, 26.2691], [88.6794, 26.259], [88.6767, 26.2648], [88.6662, 26.2627], [88.6721, 26.2686], [88.6668, 26.2739], [88.6696, 26.2809], [88.6657, 26.2849], [88.6696, 26.2897], [88.668, 26.2973], [88.6747, 26.2985], [88.6872, 26.2883], [88.6815, 26.2872], [88.6862, 26.2821], [88.7094, 26.2889], [88.6847, 26.2952], [88.6846, 26.3015], [88.6782, 26.3044], [88.6825, 26.3126], [88.6752, 26.3114], [88.6751, 26.3202], [88.6957, 26.3288], [88.6898, 26.3234], [88.6932, 26.3141], [88.715, 26.3181], [88.7192, 26.3123], [88.7312, 26.3185], [88.7306, 26.3238], [88.7465, 26.3225], [88.7487, 26.332], [88.7338, 26.3286], [88.744, 26.3386], [88.7458, 26.3472], [88.7332, 26.3539], [88.7359, 26.3481], [88.7296, 26.3481], [88.7261, 26.3414], [88.7128, 26.3437], [88.7101, 26.3348], [88.7027, 26.3345], [88.7039, 26.342], [88.6985, 26.3412], [88.694, 26.3469], [88.6985, 26.3569], [88.6915, 26.36], [88.6962, 26.362], [88.6891, 26.3638], [88.6866, 26.3789], [88.681, 26.3802], [88.7022, 26.3886], [88.6874, 26.3869], [88.6885, 26.396], [88.6781, 26.3935], [88.6703, 26.3978], [88.6874, 26.4011], [88.6857, 26.4127], [88.6804, 26.4138], [88.6817, 26.408], [88.6795, 26.4117], [88.6779, 26.4078], [88.6677, 26.4073], [88.6604, 26.4164], [88.6444, 26.4188], [88.651, 26.4218], [88.6498, 26.4297], [88.6237, 26.4349], [88.6282, 26.4411], [88.6229, 26.4712], [88.594, 26.4708], [88.5925, 26.4487], [88.5843, 26.4504], [88.5829, 26.4557], [88.56, 26.4571], [88.5624, 26.4675], [88.5578, 26.4667], [88.5601, 26.4726], [88.5523, 26.4756], [88.5565, 26.4849], [88.5265, 26.4815], [88.5242, 26.4849], [88.5279, 26.4862], [88.5228, 26.4868], [88.5247, 26.4917], [88.5186, 26.5013], [88.5214, 26.5106], [88.5056, 26.5164], [88.4897, 26.5104], [88.4835, 26.5411], [88.4588, 26.5472], [88.4564, 26.537], [88.4482, 26.5354], [88.443, 26.5441], [88.4373, 26.5441], [88.4211, 26.5711], [88.418, 26.6217], [88.4146, 26.6225], [88.416, 26.6317], [88.4106, 26.6345], [88.3877, 26.612], [88.3985, 26.6037], [88.3759, 26.5943], [88.3708, 26.5607], [88.3574, 26.5427], [88.3594, 26.5303], [88.3519, 26.5233], [88.3487, 26.5076], [88.336, 26.4996], [88.3312, 26.4846], [88.3337, 26.4788], [88.3407, 26.4784], [88.3405, 26.4691], [88.347, 26.4684], [88.3549, 26.4471], [88.366, 26.4709], [88.3605, 26.4847], [88.3711, 26.4883], [88.3877, 26.4789], [88.4049, 26.4859], [88.4049, 26.4807], [88.4195, 26.4659], [88.4228, 26.4728], [88.4284, 26.473], [88.4371, 26.4661], [88.4581, 26.4667], [88.4852, 26.4603], [88.4788, 26.4526], [88.4864, 26.4507], [88.4962, 26.4372], [88.4898, 26.4297], [88.4982, 26.4256], [88.4939, 26.4189], [88.5027, 26.4176], [88.4956, 26.4095], [88.5031, 26.4031], [88.5089, 26.4073], [88.5096, 26.4011], [88.5048, 26.399], [88.5132, 26.3875], [88.5191, 26.3901], [88.5128, 26.3773], [88.5173, 26.3707], [88.5243, 26.3754], [88.5222, 26.3672], [88.5153, 26.3651], [88.5232, 26.3616], [88.5185, 26.3519], [88.5093, 26.3527], [88.5056, 26.3487], [88.5077, 26.3626], [88.4883, 26.3604], [88.4919, 26.3515], [88.4835, 26.3497], [88.4773, 26.3578], [88.4632, 26.3574], [88.4573, 26.3645], [88.4576, 26.3768], [88.4465, 26.365], [88.4355, 26.3359], [88.4138, 26.3374], [88.4046, 26.3299], [88.407, 26.3237], [88.4156, 26.3244], [88.415, 26.3152], [88.3887, 26.3152], [88.3638, 26.3001], [88.3638, 26.2941], [88.3496, 26.2823], [88.3483, 26.2505], [88.3592, 26.2429], [88.3493, 26.2259], [88.3513, 26.2218], [88.3312, 26.2171], [88.3311, 26.2128], [88.3231, 26.2103], [88.323, 26.2012], [88.3338, 26.1915], [88.3307, 26.185], [88.3434, 26.1898], [88.3573, 26.1805], [88.3838, 26.1821], [88.3856, 26.2012], [88.4082, 26.1951], [88.4154, 26.1978], [88.4095, 26.204], [88.4316, 26.2014], [88.4334, 26.1955], [88.4565, 26.1978], [88.4599, 26.1931], [88.4733, 26.1976], [88.4686, 26.2015], [88.4775, 26.2038], [88.5167, 26.201], [88.522, 26.1804], [88.5306, 26.1828], [88.5342, 26.1785], [88.548, 26.1892], [88.5445, 26.1815], [88.5563, 26.1797], [88.5588, 26.1731], [88.5637, 26.1754], [88.5595, 26.1656], [88.5658, 26.1642], [88.5727, 26.1496], [88.5854, 26.1503], [88.586, 26.1412], [88.5968, 26.144], [88.6077, 26.1401], [88.622, 26.1306], [88.6276, 26.1166], [88.6384, 26.1079], [88.6343, 26.1042], [88.6412, 26.1027], [88.6465, 26.0827], [88.6365, 26.0791], [88.6338, 26.0728], [88.6379, 26.0704], [88.6268, 26.0559], [88.6299, 26.0494], [88.646, 26.043], [88.6636, 26.0169], [88.6696, 26.0131], [88.6996, 26.0157], [88.7003, 26.0078], [88.7065, 26.0063], [88.7197, 26.0082], [88.7257, 26.0163], [88.735, 26.0147]]]}}, {"type": "Feature", "properties": {"osm_type": "relation", "osm_id": 964551721, "name": "Rangpur", "admin_level": "6", "kind": "subdivision_2", "parent_osm_id": 3921211, "parent_name": "Rangpur Division", "parent_iso": "BD-F"}, "geometry": {"type": "Polygon", "coordinates": [[[89.2807, 25.3013], [89.3134, 25.2994], [89.3428, 25.3043], [89.3407, 25.3067], [89.3463, 25.3098], [89.3439, 25.3198], [89.3364, 25.3142], [89.3302, 25.3219], [89.3397, 25.329], [89.3463, 25.3278], [89.3472, 25.3365], [89.3402, 25.337], [89.3451, 25.3527], [89.3432, 25.3669], [89.355, 25.3729], [89.3508, 25.3788], [89.3646, 25.3901], [89.3657, 25.4029], [89.3784, 25.4098], [89.3775, 25.4171], [89.3817, 25.4185], [89.378, 25.4243], [89.3836, 25.4287], [89.3779, 25.4322], [89.3803, 25.4437], [89.3914, 25.4418], [89.3993, 25.4646], [89.4051, 25.4629], [89.4083, 25.467], [89.4152, 25.4628], [89.4256, 25.4759], [89.4301, 25.4742], [89.4336, 25.4871], [89.4421, 25.4883], [89.4394, 25.5011], [89.4443, 25.504], [89.4398, 25.5121], [89.4505, 25.5176], [89.4445, 25.5218], [89.4435, 25.5184], [89.434, 25.5205], [89.4432, 25.5276], [89.4378, 25.5271], [89.4379, 25.5385], [89.4285, 25.5316], [89.4258, 25.537], [89.4184, 25.5286], [89.4122, 25.5363], [89.4026, 25.5343], [89.4035, 25.5389], [89.4057, 25.5357], [89.4118, 25.5416], [89.4059, 25.5422], [89.4049, 25.5473], [89.4133, 25.5494], [89.4046, 25.5501], [89.4087, 25.553], [89.4075, 25.5695], [89.413, 25.5758], [89.4129, 25.5883], [89.4323, 25.5876], [89.4343, 25.592], [89.4428, 25.5844], [89.471, 25.5987], [89.4875, 25.5759], [89.4941, 25.5762], [89.4982, 25.5857], [89.4905, 25.5904], [89.4884, 25.5999], [89.4945, 25.6147], [89.5029, 25.6115], [89.4971, 25.6222], [89.5082, 25.6182], [89.5219, 25.623], [89.5225, 25.634], [89.5359, 25.649], [89.5308, 25.655], [89.5308, 25.6489], [89.5263, 25.6511], [89.5187, 25.6442], [89.5192, 25.6588], [89.5142, 25.6598], [89.5198, 25.6841], [89.5146, 25.6912], [89.5152, 25.7069], [89.5083, 25.7173], [89.492, 25.7134], [89.485, 25.7277], [89.4983, 25.7302], [89.5004, 25.7459], [89.4866, 25.7544], [89.4808, 25.7531], [89.4799, 25.7625], [89.4628, 25.7862], [89.4552, 25.7839], [89.4507, 25.7879], [89.447, 25.7842], [89.4295, 25.7883], [89.4294, 25.7952], [89.4189, 25.7923], [89.3857, 25.7981], [89.3713, 25.81], [89.3706, 25.8175], [89.3475, 25.8211], [89.3475, 25.8281], [89.3344, 25.8375], [89.3348, 25.8504], [89.3055, 25.8668], [89.2928, 25.8805], [89.2914, 25.89], [89.2818, 25.8962], [89.2641, 25.8904], [89.2589, 25.8975], [89.2348, 25.9047], [89.2223, 25.923], [89.2176, 25.9203], [89.2006, 25.9456], [89.1921, 25.9426], [89.1795, 25.9527], [89.1564, 25.9536], [89.1418, 25.9642], [89.1254, 25.9605], [89.1097, 25.9662], [89.1021, 25.9395], [89.0942, 25.9367], [89.1042, 25.9347], [89.1002, 25.928], [89.1036, 25.913], [89.0976, 25.9054], [89.0993, 25.8976], [89.1163, 25.8861], [89.1026, 25.8752], [89.1036, 25.8675], [89.0963, 25.8619], [89.1005, 25.8514], [89.0873, 25.8459], [89.0905, 25.8268], [89.062, 25.8341], [89.0428, 25.8126], [89.0433, 25.8164], [89.014, 25.8197], [89.0067, 25.814], [89.002, 25.8157], [89.0047, 25.8123], [88.9903, 25.8142], [88.9857, 25.8074], [88.9567, 25.8138], [88.943, 25.8065], [88.9422, 25.8022], [88.9476, 25.8], [88.9546, 25.8026], [88.9607, 25.7921], [88.9551, 25.7882], [88.9618, 25.7843], [88.9455, 25.7751], [88.9455, 25.7641], [88.9404, 25.7637], [88.9457, 25.7614], [88.9454, 25.7526], [88.9534, 25.7506], [88.9545, 25.7395], [88.9466, 25.7428], [88.9411, 25.7343], [88.9462, 25.727], [88.9317, 25.7218], [88.9303, 25.712], [88.942, 25.6914], [88.941, 25.6832], [88.9553, 25.6785], [88.9644, 25.683], [88.9677, 25.6723], [88.9777, 25.6705], [88.9734, 25.6617], [88.9763, 25.658], [88.9979, 25.6581], [89.0017, 25.6499], [88.9913, 25.6422], [89.003, 25.6337], [88.9981, 25.6301], [89.0021, 25.6217], [88.9992, 25.62], [89.0107, 25.6187], [89.016, 25.6025], [89.0383, 25.604], [89.0447, 25.5983], [89.0447, 25.5838], [89.0609, 25.5883], [89.0767, 25.5843], [89.078, 25.5773], [89.0964, 25.5683], [89.1038, 25.5693], [89.0934, 25.5456], [89.1009, 25.5434], [89.1002, 25.5368], [89.1048, 25.5344], [89.1039, 25.5162], [89.1108, 25.5139], [89.1047, 25.5118], [89.1148, 25.5067], [89.1068, 25.5083], [89.1111, 25.5029], [89.1039, 25.4998], [89.1029, 25.4897], [89.1082, 25.4869], [89.104, 25.4844], [89.1117, 25.4811], [89.1046, 25.4744], [89.1128, 25.4705], [89.1151, 25.4614], [89.1234, 25.4688], [89.1216, 25.4605], [89.1303, 25.4582], [89.1153, 25.4535], [89.1252, 25.4517], [89.1299, 25.4449], [89.13, 25.4482], [89.138, 25.4469], [89.1325, 25.441], [89.1485, 25.4339], [89.1511, 25.4129], [89.1377, 25.4121], [89.154, 25.41], [89.1582, 25.4037], [89.1518, 25.4035], [89.1626, 25.4054], [89.1647, 25.3999], [89.1718, 25.4052], [89.1765, 25.3979], [89.1842, 25.3961], [89.1881, 25.3865], [89.2017, 25.3892], [89.2021, 25.3941], [89.2171, 25.3767], [89.2065, 25.3681], [89.2097, 25.3645], [89.2254, 25.3647], [89.222, 25.3586], [89.2254, 25.3579], [89.2337, 25.3666], [89.2377, 25.3577], [89.2321, 25.3559], [89.2333, 25.3525], [89.2462, 25.3524], [89.2339, 25.3454], [89.2378, 25.3397], [89.2305, 25.3471], [89.2213, 25.3323], [89.2267, 25.3304], [89.2309, 25.3384], [89.2352, 25.333], [89.2454, 25.3341], [89.2358, 25.326], [89.2378, 25.3191], [89.2547, 25.3155], [89.2632, 25.3232], [89.2654, 25.3187], [89.2568, 25.3108], [89.2658, 25.3131], [89.2807, 25.3013]]]}}, {"type": "Feature", "properties": {"osm_type": "relation", "osm_id": 105316066, "name": "Thakurgaon", "admin_level": "6", "kind": "subdivision_2", "parent_osm_id": 3921211, "parent_name": "Rangpur Division", "parent_iso": "BD-F"}, "geometry": {"type": "Polygon", "coordinates": [[[88.6268, 26.0559], [88.6379, 26.0704], [88.6338, 26.0728], [88.6365, 26.0791], [88.6465, 26.0827], [88.6412, 26.1027], [88.6343, 26.1042], [88.6384, 26.1079], [88.6276, 26.1166], [88.622, 26.1306], [88.5968, 26.144], [88.586, 26.1412], [88.5854, 26.1503], [88.5727, 26.1496], [88.5658, 26.1642], [88.5595, 26.1656], [88.5637, 26.1754], [88.5588, 26.1731], [88.5563, 26.1797], [88.5445, 26.1815], [88.548, 26.1892], [88.5342, 26.1785], [88.5306, 26.1828], [88.522, 26.1804], [88.5167, 26.201], [88.4775, 26.2038], [88.4686, 26.2015], [88.4733, 26.1976], [88.4599, 26.1931], [88.4593, 26.1971], [88.4517, 26.1984], [88.4334, 26.1955], [88.4316, 26.2014], [88.4169, 26.204], [88.4095, 26.204], [88.4154, 26.1978], [88.4082, 26.1951], [88.3856, 26.2012], [88.3851, 26.1836], [88.3758, 26.1844], [88.3702, 26.179], [88.3519, 26.1821], [88.3434, 26.1898], [88.3307, 26.185], [88.3338, 26.1915], [88.3171, 26.205], [88.3084, 26.2044], [88.3046, 26.199], [88.3013, 26.2021], [88.2982, 26.1971], [88.2919, 26.1987], [88.2924, 26.2023], [88.2875, 26.1975], [88.2856, 26.2002], [88.2693, 26.1866], [88.2636, 26.1902], [88.2537, 26.1854], [88.2494, 26.19], [88.2418, 26.1892], [88.2365, 26.1827], [88.2328, 26.184], [88.237, 26.1774], [88.2327, 26.1722], [88.2261, 26.1731], [88.2278, 26.1686], [88.2128, 26.1692], [88.2152, 26.1631], [88.204, 26.1592], [88.1961, 26.1634], [88.1915, 26.1571], [88.1945, 26.152], [88.1894, 26.1551], [88.1771, 26.1481], [88.1763, 26.1413], [88.1799, 26.1399], [88.1741, 26.1273], [88.1776, 26.1223], [88.1726, 26.1111], [88.1624, 26.1055], [88.1583, 26.095], [88.1643, 26.0857], [88.1584, 26.0808], [88.1603, 26.0779], [88.1673, 26.0845], [88.1823, 26.0721], [88.1855, 26.0634], [88.176, 26.0581], [88.1793, 26.0466], [88.171, 26.0487], [88.1695, 26.0453], [88.1754, 26.0398], [88.1711, 26.0365], [88.1727, 26.0316], [88.1828, 26.0267], [88.1396, 26.013], [88.1436, 26.0005], [88.1296, 25.997], [88.1278, 25.9767], [88.1193, 25.9717], [88.1246, 25.968], [88.1151, 25.9628], [88.1223, 25.9485], [88.1129, 25.9438], [88.1111, 25.9332], [88.0946, 25.9315], [88.0858, 25.9157], [88.0936, 25.9112], [88.0903, 25.8965], [88.1029, 25.8893], [88.0939, 25.8744], [88.1, 25.8732], [88.1029, 25.8618], [88.1089, 25.8691], [88.1138, 25.8546], [88.1014, 25.8435], [88.1077, 25.8388], [88.1011, 25.8291], [88.1115, 25.8217], [88.107, 25.8152], [88.1201, 25.8126], [88.1144, 25.798], [88.1442, 25.7937], [88.1416, 25.7802], [88.1486, 25.7812], [88.147, 25.7764], [88.1521, 25.7758], [88.1593, 25.7876], [88.1724, 25.7867], [88.1837, 25.8018], [88.1934, 25.8016], [88.1994, 25.7901], [88.2091, 25.7872], [88.2149, 25.8009], [88.2322, 25.7979], [88.2354, 25.8085], [88.2469, 25.8061], [88.2486, 25.8135], [88.2596, 25.8139], [88.2709, 25.805], [88.2685, 25.7808], [88.2788, 25.7742], [88.2907, 25.7739], [88.289, 25.7679], [88.3163, 25.7532], [88.3151, 25.7466], [88.3207, 25.7453], [88.3209, 25.7376], [88.3375, 25.7377], [88.3441, 25.7295], [88.3588, 25.7282], [88.3567, 25.7214], [88.3739, 25.7173], [88.3697, 25.7088], [88.3714, 25.6966], [88.3915, 25.6936], [88.3901, 25.6841], [88.404, 25.6851], [88.4017, 25.6727], [88.4271, 25.6697], [88.4311, 25.6741], [88.4252, 25.6786], [88.4306, 25.6837], [88.4284, 25.6877], [88.4381, 25.689], [88.4337, 25.6961], [88.4362, 25.7084], [88.427, 25.7069], [88.4236, 25.7149], [88.4341, 25.7181], [88.4256, 25.7206], [88.4233, 25.7249], [88.4284, 25.7287], [88.4221, 25.7325], [88.4188, 25.7295], [88.4152, 25.7367], [88.4051, 25.7285], [88.3988, 25.734], [88.4006, 25.7384], [88.3921, 25.7433], [88.3827, 25.7937], [88.3858, 25.7922], [88.3891, 25.8035], [88.3854, 25.8083], [88.3908, 25.811], [88.3858, 25.8226], [88.3863, 25.8398], [88.3988, 25.8419], [88.4038, 25.8648], [88.4085, 25.8684], [88.4224, 25.8555], [88.4259, 25.861], [88.4175, 25.8693], [88.4221, 25.871], [88.4358, 25.8657], [88.4347, 25.8709], [88.4432, 25.8714], [88.4446, 25.862], [88.4531, 25.8584], [88.4608, 25.862], [88.4613, 25.8733], [88.4656, 25.8732], [88.4697, 25.8633], [88.4843, 25.8656], [88.4855, 25.8852], [88.4754, 25.8887], [88.4826, 25.8879], [88.48, 25.9027], [88.5018, 25.9056], [88.5086, 25.9162], [88.5028, 25.9137], [88.5033, 25.9244], [88.4983, 25.9233], [88.4957, 25.9279], [88.5063, 25.9261], [88.5077, 25.9178], [88.5064, 25.9324], [88.5119, 25.9413], [88.5236, 25.9516], [88.5369, 25.9519], [88.5379, 25.9635], [88.5297, 25.9771], [88.5305, 25.9915], [88.5454, 25.9981], [88.542, 26.008], [88.5459, 26.0192], [88.5656, 26.0237], [88.5574, 26.0285], [88.5694, 26.0272], [88.5734, 26.02], [88.5893, 26.0204], [88.5972, 26.0309], [88.6092, 26.0352], [88.6057, 26.051], [88.6143, 26.0586], [88.6187, 26.057], [88.6159, 26.0629], [88.6268, 26.0559]]]}}]}