{"type": "FeatureCollection", "parent": {"osm_id": 392915, "name": "Rhode Island", "admin_level": "4", "kind": "subdivision_1", "child_kind": "subdivision_2", "iso": "US-RI"}, "features": [{"type": "Feature", "properties": {"osm_type": "relation", "osm_id": 268308369, "name": "Washington", "admin_level": "6", "kind": "subdivision_2", "parent_osm_id": 392915, "parent_name": "Rhode Island", "parent_iso": "US-RI"}, "geometry": {"type": "MultiPolygon", "coordinates": [[[[-71.6131, 41.1603], [-71.6117, 41.1532], [-71.6, 41.1469], [-71.5471, 41.1537], [-71.5444, 41.1649], [-71.5658, 41.1844], [-71.5541, 41.213], [-71.5611, 41.2242], [-71.5738, 41.2284], [-71.5802, 41.2048], [-71.6056, 41.1821], [-71.6131, 41.1603]]], [[[-71.8605, 41.3203], [-71.8628, 41.3098], [-71.8574, 41.3063], [-71.786, 41.3257], [-71.7207, 41.3316], [-71.6245, 41.3609], [-71.5554, 41.3733], [-71.5267, 41.3766], [-71.4833, 41.3717], [-71.4554, 41.408], [-71.4558, 41.433], [-71.4336, 41.445], [-71.4279, 41.4595], [-71.4307, 41.4706], [-71.4184, 41.4727], [-71.4214, 41.4986], [-71.4149, 41.5163], [-71.4174, 41.5345], [-71.4426, 41.5651], [-71.4477, 41.5804], [-71.4038, 41.5893], [-71.4086, 41.6538], [-71.4425, 41.6458], [-71.4514, 41.6295], [-71.4678, 41.6342], [-71.488, 41.6152], [-71.4844, 41.6026], [-71.7894, 41.5969], [-71.7977, 41.4167], [-71.8184, 41.4196], [-71.8426, 41.4099], [-71.8421, 41.3954], [-71.8334, 41.3845], [-71.8316, 41.3709], [-71.8377, 41.3635], [-71.836, 41.3539], [-71.8296, 41.3446], [-71.8605, 41.3203]]]]}}, {"type": "Feature", "properties": {"osm_type": "relation", "osm_id": 662771839, "name": "Kent", "admin_level": "6", "kind": "subdivision_2", "parent_osm_id": 392915, "parent_name": "Rhode Island", "parent_iso": "US-RI"}, "geometry": {"type": "Polygon", "coordinates": [[[-71.4086, 41.6538], [-71.4093, 41.6627], [-71.4255, 41.6708], [-71.4445, 41.6644], [-71.4493, 41.6874], [-71.4459, 41.6912], [-71.4413, 41.6865], [-71.3906, 41.6841], [-71.3899, 41.6719], [-71.3779, 41.6667], [-71.373, 41.6726], [-71.3639, 41.7174], [-71.3811, 41.7273], [-71.3846, 41.7575], [-71.3996, 41.7683], [-71.4407, 41.7578], [-71.4465, 41.7489], [-71.4441, 41.7406], [-71.4602, 41.7323], [-71.7897, 41.7252], [-71.7894, 41.5969], [-71.4844, 41.6026], [-71.488, 41.6152], [-71.4678, 41.6342], [-71.4514, 41.6295], [-71.4425, 41.6458], [-71.4086, 41.6538]]]}}, {"type": "Feature", "properties": {"osm_type": "relation", "osm_id": 701311460, "name": "Bristol", "admin_level": "6", "kind": "subdivision_2", "parent_osm_id": 392915, "parent_name": "Rhode Island", "parent_iso": "US-RI"}, "geometry": {"type": "Polygon", "coordinates": [[[-71.3622, 41.7563], [-71.3361, 41.725], [-71.3148, 41.7238], [-71.2912, 41.7027], [-71.2931, 41.6884], [-71.3026, 41.6818], [-71.3061, 41.6726], [-71.3014, 41.65], [-71.2853, 41.6369], [-71.2727, 41.6385], [-71.2547, 41.6491], [-71.2534, 41.6606], [-71.2354, 41.6721], [-71.2453, 41.6949], [-71.2248, 41.7105], [-71.2614, 41.7523], [-71.3179, 41.7762], [-71.3424, 41.759], [-71.3622, 41.7563]]]}}, {"type": "Feature", "properties": {"osm_type": "relation", "osm_id": 455022073, "name": "Providence", "admin_level": "6", "kind": "subdivision_2", "parent_osm_id": 392915, "parent_name": "Rhode Island", "parent_iso": "US-RI"}, "geometry": {"type": "Polygon", "coordinates": [[[-71.3846, 41.7575], [-71.3906, 41.7837], [-71.3715, 41.7834], [-71.3651, 41.7775], [-71.3622, 41.7563], [-71.3424, 41.759], [-71.3179, 41.7762], [-71.3279, 41.7805], [-71.3322, 41.7923], [-71.3407, 41.7983], [-71.3389, 41.8083], [-71.3472, 41.8231], [-71.3352, 41.8355], [-71.3422, 41.8448], [-71.334, 41.8623], [-71.3408, 41.8816], [-71.3387, 41.8984], [-71.3817, 41.8932], [-71.3814, 42.0188], [-71.7992, 42.0081], [-71.7897, 41.7252], [-71.4602, 41.7323], [-71.4441, 41.7406], [-71.4465, 41.7489], [-71.4341, 41.7609], [-71.3996, 41.7683], [-71.3846, 41.7575]]]}}, {"type": "Feature", "properties": {"osm_type": "relation", "osm_id": 668567581, "name": "Newport", "admin_level": "6", "kind": "subdivision_2", "parent_osm_id": 392915, "parent_name": "Rhode Island", "parent_iso": "US-RI"}, "geometry": {"type": "MultiPolygon", "coordinates": [[[[-71.1956, 41.6751], [-71.205, 41.6585], [-71.2192, 41.6537], [-71.2332, 41.6402], [-71.2511, 41.6388], [-71.2752, 41.6195], [-71.2734, 41.607], [-71.2851, 41.5771], [-71.3037, 41.5599], [-71.3131, 41.5347], [-71.3308, 41.5184], [-71.3307, 41.5077], [-71.343, 41.4956], [-71.3278, 41.483], [-71.3274, 41.4764], [-71.336, 41.4697], [-71.3471, 41.4712], [-71.3615, 41.4648], [-71.3627, 41.4604], [-71.3511, 41.4508], [-71.3377, 41.4489], [-71.3214, 41.4556], [-71.3114, 41.4508], [-71.3044, 41.4545], [-71.2951, 41.4844], [-71.2856, 41.4878], [-71.2527, 41.4859], [-71.246, 41.4813], [-71.2467, 41.472], [-71.2407, 41.4749], [-71.2368, 41.4834], [-71.2406, 41.5006], [-71.228, 41.5283], [-71.2366, 41.5359], [-71.2361, 41.5748], [-71.2436, 41.5875], [-71.2407, 41.6192], [-71.2162, 41.6255], [-71.212, 41.623], [-71.2127, 41.6101], [-71.2078, 41.6007], [-71.2136, 41.5458], [-71.2008, 41.5144], [-71.2064, 41.4992], [-71.1902, 41.4843], [-71.1969, 41.4611], [-71.193, 41.4579], [-71.1701, 41.464], [-71.1673, 41.4714], [-71.1402, 41.4859], [-71.1369, 41.494], [-71.1206, 41.4975], [-71.1313, 41.5923], [-71.1409, 41.6074], [-71.1329, 41.6601], [-71.1956, 41.6751]]], [[[-71.3662, 41.661], [-71.3513, 41.6358], [-71.3259, 41.624], [-71.337, 41.5947], [-71.3359, 41.5859], [-71.3261, 41.5786], [-71.3175, 41.5832], [-71.3034, 41.6066], [-71.3056, 41.6225], [-71.3264, 41.6361], [-71.3448, 41.667], [-71.3662, 41.661]]], [[[-71.4006, 41.4609], [-71.3996, 41.4486], [-71.3903, 41.4551], [-71.3809, 41.4746], [-71.3604, 41.4831], [-71.3633, 41.502], [-71.3599, 41.5563], [-71.3636, 41.5709], [-71.3702, 41.574], [-71.3845, 41.5567], [-71.3921, 41.5245], [-71.391, 41.5146], [-71.3789, 41.505], [-71.3865, 41.4931], [-71.3959, 41.4922], [-71.4006, 41.4609]]]]}}]}