{"type": "FeatureCollection", "parent": {"osm_id": 4016543, "name": "Yamaguchi Prefecture", "admin_level": "4", "kind": "subdivision_1", "child_kind": "subdivision_2", "iso": "JP-35"}, "features": [{"type": "Feature", "properties": {"osm_type": "relation", "osm_id": 334158606, "name": "Shimonoseki", "admin_level": "6", "kind": "subdivision_2", "parent_osm_id": 4016543, "parent_name": "Yamaguchi Prefecture", "parent_iso": "JP-35"}, "geometry": {"type": "MultiPolygon", "coordinates": [[[[130.9164, 33.9512], [130.9029, 33.9512], [130.8955, 33.9436], [130.8837, 33.9526], [130.8769, 33.9442], [130.896, 33.936], [130.8934, 33.9324], [130.8994, 33.9283], [130.8982, 33.9225], [130.9095, 33.9247], [130.9008, 33.9177], [130.9134, 33.9115], [130.9235, 33.9144], [130.9284, 33.9262], [130.9224, 33.9373], [130.9147, 33.9384], [130.9164, 33.9512]]], [[[131.02, 34.0187], [131.0125, 34.0265], [131.0051, 34.0168], [131.0094, 34.0107], [131.02, 34.0187]]], [[[130.7788, 34.1152], [130.7753, 34.1133], [130.7774, 34.1027], [130.7827, 34.0975], [130.7926, 34.0995], [130.7981, 34.0921], [130.8001, 34.1], [130.7898, 34.1086], [130.7837, 34.1062], [130.7788, 34.1152]]], [[[130.9804, 34.3636], [130.9698, 34.364], [130.9593, 34.3556], [130.934, 34.3505], [130.9272, 34.3415], [130.9213, 34.3538], [130.9117, 34.3542], [130.9012, 34.3628], [130.8986, 34.3502], [130.8897, 34.3443], [130.8959, 34.3227], [130.892, 34.3202], [130.8976, 34.3173], [130.8911, 34.3174], [130.8923, 34.3097], [130.8862, 34.312], [130.8839, 34.2972], [130.8672, 34.2893], [130.8964, 34.2659], [130.9001, 34.2547], [130.9216, 34.2394], [130.9226, 34.2259], [130.9163, 34.2149], [130.927, 34.2136], [130.931, 34.2077], [130.9334, 34.1893], [130.9265, 34.1811], [130.9264, 34.1706], [130.9058, 34.1537], [130.8976, 34.1544], [130.9046, 34.1474], [130.8968, 34.1362], [130.889, 34.1347], [130.8815, 34.142], [130.8776, 34.1362], [130.8667, 34.1368], [130.8652, 34.1141], [130.8606, 34.1099], [130.8619, 34.1041], [130.8725, 34.099], [130.874, 34.0898], [130.8811, 34.0849], [130.8776, 34.0808], [130.8883, 34.0719], [130.8892, 34.0649], [130.8955, 34.0706], [130.9016, 34.0627], [130.9119, 34.0595], [130.9142, 34.0433], [130.9037, 34.0253], [130.9148, 34.0233], [130.9166, 34.0185], [130.9087, 33.9925], [130.9163, 33.9751], [130.9058, 33.9541], [130.9196, 33.9527], [130.9151, 33.9389], [130.9284, 33.9384], [130.9247, 33.9474], [130.938, 33.9492], [130.9959, 33.9894], [130.9927, 33.9953], [130.997, 33.9952], [130.9962, 34.001], [131.0035, 33.9991], [131.0064, 34.003], [131.0003, 34.0089], [131.003, 34.0174], [131.0305, 34.0391], [131.0283, 34.0457], [131.0368, 34.057], [131.0478, 34.0504], [131.0474, 34.0422], [131.0678, 34.0389], [131.0694, 34.053], [131.0839, 34.0637], [131.0739, 34.0703], [131.1118, 34.0752], [131.1057, 34.0903], [131.1113, 34.0923], [131.1135, 34.1077], [131.0833, 34.1351], [131.0901, 34.1659], [131.0967, 34.1666], [131.1032, 34.1584], [131.1164, 34.1593], [131.1126, 34.1712], [131.0987, 34.1876], [131.1091, 34.198], [131.1071, 34.2054], [131.1288, 34.2206], [131.1447, 34.2253], [131.1491, 34.2322], [131.16, 34.231], [131.1607, 34.2418], [131.1722, 34.2561], [131.1725, 34.2641], [131.1615, 34.263], [131.1548, 34.2711], [131.1131, 34.2638], [131.1059, 34.2677], [131.1023, 34.2619], [131.0871, 34.2674], [131.0836, 34.2842], [131.0744, 34.2933], [131.0674, 34.2919], [131.0585, 34.3036], [131.0355, 34.3116], [131.0326, 34.3218], [131.0203, 34.3254], [131.001, 34.3526], [130.9804, 34.3636]]], [[[130.8706, 34.3741], [130.8656, 34.3594], [130.8566, 34.3549], [130.8397, 34.3555], [130.8399, 34.3452], [130.8477, 34.3408], [130.8592, 34.353], [130.8777, 34.3531], [130.8809, 34.3638], [130.8716, 34.3685], [130.8706, 34.3741]]]]}}, {"type": "Feature", "properties": {"osm_type": "relation", "osm_id": 285314934, "name": "Nagato", "admin_level": "6", "kind": "subdivision_2", "parent_osm_id": 4016543, "parent_name": "Yamaguchi Prefecture", "parent_iso": "JP-35"}, "geometry": {"type": "MultiPolygon", "coordinates": [[[[131.2465, 34.4382], [131.2169, 34.4256], [131.1948, 34.4281], [131.186, 34.4236], [131.1707, 34.4303], [131.1727, 34.4089], [131.1884, 34.3986], [131.1964, 34.4026], [131.1974, 34.3984], [131.2061, 34.3984], [131.2151, 34.4031], [131.208, 34.4125], [131.2132, 34.4128], [131.2121, 34.4166], [131.2244, 34.4272], [131.2249, 34.4168], [131.2333, 34.4233], [131.2539, 34.4245], [131.2521, 34.4181], [131.2604, 34.4169], [131.2567, 34.4216], [131.2602, 34.4307], [131.2465, 34.4382]]], [[[131.1725, 34.2641], [131.1855, 34.2828], [131.2014, 34.2857], [131.2182, 34.2813], [131.2266, 34.2853], [131.2436, 34.3006], [131.2513, 34.3163], [131.2567, 34.3155], [131.2621, 34.3258], [131.2805, 34.3363], [131.293, 34.3289], [131.3068, 34.3106], [131.3166, 34.3234], [131.3271, 34.3246], [131.342, 34.3185], [131.3451, 34.3511], [131.3493, 34.3531], [131.3438, 34.3589], [131.3284, 34.36], [131.3198, 34.3701], [131.3037, 34.3623], [131.2969, 34.3651], [131.2911, 34.3844], [131.282, 34.3835], [131.2752, 34.39], [131.2618, 34.3841], [131.2558, 34.3897], [131.2561, 34.384], [131.2483, 34.3815], [131.226, 34.393], [131.2243, 34.3789], [131.2146, 34.3709], [131.2051, 34.3749], [131.209, 34.3791], [131.1985, 34.3976], [131.1881, 34.3805], [131.156, 34.3723], [131.1433, 34.3805], [131.1385, 34.3894], [131.1396, 34.399], [131.1309, 34.4113], [131.1319, 34.4176], [131.1289, 34.4127], [131.1121, 34.4091], [131.1007, 34.4184], [131.0752, 34.4243], [131.0488, 34.4115], [131.02, 34.4112], [131.0046, 34.4168], [131.001, 34.4294], [130.9765, 34.4387], [130.9701, 34.4284], [130.961, 34.4276], [130.958, 34.4111], [130.9462, 34.4033], [130.9365, 34.4029], [130.9348, 34.3922], [130.9438, 34.3879], [130.9552, 34.3888], [130.9565, 34.3973], [130.9499, 34.4029], [130.9585, 34.4078], [130.9721, 34.4077], [130.9798, 34.3995], [131.0022, 34.3985], [131.0162, 34.4049], [131.0212, 34.391], [131.0342, 34.3851], [131.0356, 34.371], [131.0178, 34.3748], [131.0056, 34.3705], [131.0005, 34.374], [130.9804, 34.3636], [131.001, 34.3526], [131.0203, 34.3254], [131.0326, 34.3218], [131.0355, 34.3116], [131.0585, 34.3036], [131.0674, 34.2919], [131.0744, 34.2933], [131.0836, 34.2842], [131.0871, 34.2674], [131.0977, 34.263], [131.1023, 34.2619], [131.1059, 34.2677], [131.1131, 34.2638], [131.1424, 34.2718], [131.1548, 34.2711], [131.1615, 34.263], [131.1725, 34.2641]]]]}}, {"type": "Feature", "properties": {"osm_type": "relation", "osm_id": 713897237, "name": "Mine", "admin_level": "6", "kind": "subdivision_2", "parent_osm_id": 4016543, "parent_name": "Yamaguchi Prefecture", "parent_iso": "JP-35"}, "geometry": {"type": "Polygon", "coordinates": [[[131.1129, 34.0962], [131.1272, 34.082], [131.1463, 34.0874], [131.1476, 34.0914], [131.1644, 34.0925], [131.181, 34.1182], [131.2103, 34.1133], [131.2148, 34.12], [131.2377, 34.1272], [131.2414, 34.1412], [131.256, 34.1448], [131.2629, 34.14], [131.2737, 34.1413], [131.2839, 34.1618], [131.2937, 34.1667], [131.3108, 34.1611], [131.3182, 34.1662], [131.3252, 34.1607], [131.3186, 34.1502], [131.3291, 34.1504], [131.3475, 34.1372], [131.3715, 34.1384], [131.3774, 34.1447], [131.37, 34.1528], [131.3788, 34.1573], [131.3787, 34.1665], [131.3906, 34.1791], [131.4002, 34.1804], [131.3983, 34.1889], [131.4055, 34.1971], [131.4012, 34.2004], [131.4096, 34.211], [131.3972, 34.2176], [131.4036, 34.2409], [131.4, 34.2519], [131.4053, 34.2584], [131.4016, 34.2686], [131.3942, 34.2658], [131.3867, 34.2714], [131.3813, 34.2805], [131.3812, 34.2953], [131.3722, 34.3094], [131.3481, 34.302], [131.3361, 34.3094], [131.342, 34.3185], [131.3271, 34.3246], [131.3166, 34.3234], [131.3068, 34.3106], [131.2834, 34.3367], [131.2621, 34.3258], [131.2567, 34.3155], [131.2513, 34.3163], [131.2436, 34.3006], [131.2266, 34.2853], [131.2182, 34.2813], [131.2014, 34.2857], [131.1855, 34.2828], [131.1607, 34.2418], [131.16, 34.231], [131.1491, 34.2322], [131.1447, 34.2253], [131.1288, 34.2206], [131.1071, 34.2054], [131.1091, 34.198], [131.0987, 34.1876], [131.1126, 34.1712], [131.1164, 34.1593], [131.1032, 34.1584], [131.0967, 34.1666], [131.0901, 34.1659], [131.0903, 34.1535], [131.0831, 34.143], [131.0843, 34.131], [131.0978, 34.1247], [131.1119, 34.1101], [131.1129, 34.0962]]]}}, {"type": "Feature", "properties": {"osm_type": "relation", "osm_id": 232310057, "name": "Sanyo Onoda", "admin_level": "6", "kind": "subdivision_2", "parent_osm_id": 4016543, "parent_name": "Yamaguchi Prefecture", "parent_iso": "JP-35"}, "geometry": {"type": "Polygon", "coordinates": [[[131.0678, 34.0389], [131.1, 34.033], [131.1182, 34.007], [131.136, 33.9917], [131.1395, 33.9914], [131.1344, 34.0033], [131.1508, 34.0038], [131.1466, 33.9948], [131.167, 33.9783], [131.161, 33.9738], [131.1692, 33.9783], [131.1746, 33.9753], [131.161, 33.9686], [131.1661, 33.9629], [131.1586, 33.9612], [131.1577, 33.9552], [131.1783, 33.9315], [131.1855, 33.9316], [131.1848, 33.9389], [131.1994, 33.9427], [131.193, 33.9579], [131.1877, 33.9581], [131.1861, 33.9889], [131.1939, 33.9983], [131.2012, 33.9998], [131.2075, 34.0109], [131.2172, 34.0132], [131.2269, 34.0278], [131.2068, 34.039], [131.1991, 34.0374], [131.1978, 34.0433], [131.1835, 34.0523], [131.1964, 34.0653], [131.2152, 34.0739], [131.2109, 34.0826], [131.2177, 34.1106], [131.2083, 34.1158], [131.181, 34.1182], [131.1644, 34.0925], [131.1476, 34.0914], [131.1463, 34.0874], [131.1272, 34.082], [131.1129, 34.0962], [131.1057, 34.0903], [131.1118, 34.0752], [131.0739, 34.0703], [131.0839, 34.0637], [131.0694, 34.053], [131.0678, 34.0389]]]}}, {"type": "Feature", "properties": {"osm_type": "relation", "osm_id": 775284880, "name": "Hagi", "admin_level": "6", "kind": "subdivision_2", "parent_osm_id": 4016543, "parent_name": "Yamaguchi Prefecture", "parent_iso": "JP-35"}, "geometry": {"type": "MultiPolygon", "coordinates": [[[[131.4124, 34.5128], [131.4039, 34.5077], [131.4008, 34.4975], [131.4065, 34.4898], [131.419, 34.4953], [131.4124, 34.5128]]], [[[131.2774, 34.5182], [131.2711, 34.5077], [131.2787, 34.4971], [131.294, 34.5114], [131.2828, 34.5121], [131.2774, 34.5182]]], [[[131.342, 34.3185], [131.3361, 34.3094], [131.3481, 34.302], [131.3722, 34.3094], [131.3812, 34.2953], [131.3813, 34.2805], [131.3867, 34.2714], [131.3942, 34.2658], [131.4016, 34.2686], [131.4053, 34.2584], [131.4, 34.2519], [131.4036, 34.2409], [131.3972, 34.2176], [131.4096, 34.211], [131.4156, 34.2105], [131.4329, 34.2223], [131.4464, 34.2223], [131.456, 34.2315], [131.4627, 34.232], [131.4638, 34.2379], [131.4815, 34.2448], [131.4884, 34.2402], [131.5024, 34.2433], [131.5005, 34.2479], [131.507, 34.251], [131.504, 34.2585], [131.5163, 34.2736], [131.5139, 34.2778], [131.5264, 34.2818], [131.5219, 34.2892], [131.5408, 34.3046], [131.5494, 34.299], [131.5665, 34.326], [131.5582, 34.334], [131.5604, 34.3463], [131.5535, 34.3618], [131.534, 34.369], [131.5333, 34.3777], [131.5483, 34.3889], [131.5383, 34.4004], [131.5374, 34.4096], [131.5422, 34.4136], [131.5428, 34.409], [131.5514, 34.4085], [131.5693, 34.4134], [131.5764, 34.4078], [131.6067, 34.4098], [131.6068, 34.4182], [131.6173, 34.4321], [131.6336, 34.4444], [131.6391, 34.4652], [131.65, 34.4699], [131.6529, 34.4795], [131.6459, 34.4869], [131.6506, 34.4906], [131.6463, 34.499], [131.6575, 34.5045], [131.6655, 34.5024], [131.6693, 34.5107], [131.7067, 34.5331], [131.701, 34.5368], [131.7056, 34.5449], [131.7009, 34.551], [131.7054, 34.5596], [131.7028, 34.5651], [131.7132, 34.5628], [131.7273, 34.5761], [131.7208, 34.582], [131.7184, 34.6134], [131.7067, 34.6129], [131.6948, 34.6207], [131.7001, 34.6476], [131.6951, 34.6486], [131.6952, 34.656], [131.6888, 34.6568], [131.6899, 34.6631], [131.6839, 34.6688], [131.6915, 34.6749], [131.6906, 34.681], [131.6847, 34.6748], [131.6691, 34.6767], [131.6679, 34.672], [131.6748, 34.6647], [131.6613, 34.6547], [131.6455, 34.6518], [131.6468, 34.6405], [131.638, 34.6466], [131.6433, 34.6562], [131.6399, 34.6616], [131.6132, 34.6664], [131.602, 34.6603], [131.5909, 34.6426], [131.5942, 34.638], [131.5891, 34.6334], [131.5922, 34.6285], [131.6046, 34.6314], [131.6004, 34.6256], [131.603, 34.623], [131.5892, 34.6192], [131.5795, 34.6256], [131.58, 34.6203], [131.5722, 34.6223], [131.557, 34.6155], [131.5548, 34.6075], [131.5578, 34.6032], [131.5641, 34.6066], [131.5816, 34.6027], [131.5848, 34.5923], [131.5975, 34.5875], [131.6005, 34.5802], [131.5908, 34.5571], [131.6095, 34.5454], [131.6143, 34.547], [131.6193, 34.531], [131.6338, 34.5318], [131.6478, 34.5137], [131.6165, 34.4965], [131.6026, 34.498], [131.5949, 34.4861], [131.5666, 34.4811], [131.555, 34.4965], [131.5501, 34.4967], [131.5468, 34.5141], [131.5386, 34.5161], [131.5297, 34.505], [131.523, 34.5054], [131.5109, 34.4966], [131.5144, 34.4912], [131.5061, 34.4893], [131.5025, 34.4831], [131.4785, 34.4924], [131.4533, 34.4804], [131.4469, 34.4854], [131.4406, 34.4831], [131.4475, 34.4766], [131.4417, 34.4712], [131.4318, 34.4718], [131.4347, 34.4659], [131.4166, 34.449], [131.401, 34.46], [131.3945, 34.456], [131.3986, 34.4466], [131.4115, 34.4474], [131.421, 34.4418], [131.4204, 34.4373], [131.4146, 34.4409], [131.4179, 34.436], [131.4094, 34.4334], [131.4162, 34.4278], [131.401, 34.4282], [131.3928, 34.4179], [131.3789, 34.4221], [131.3733, 34.4138], [131.3787, 34.41], [131.3713, 34.4148], [131.3551, 34.4107], [131.3388, 34.4177], [131.3315, 34.4148], [131.3251, 34.3926], [131.2932, 34.3803], [131.2969, 34.3651], [131.3037, 34.3623], [131.3198, 34.3701], [131.3284, 34.36], [131.3438, 34.3589], [131.3493, 34.3531], [131.3451, 34.3511], [131.342, 34.3185]]], [[[131.1307, 34.7987], [131.1281, 34.7863], [131.1359, 34.7599], [131.1485, 34.7583], [131.1608, 34.7634], [131.161, 34.7761], [131.1479, 34.7784], [131.149, 34.7898], [131.1419, 34.7884], [131.1307, 34.7987]]]]}}, {"type": "Feature", "properties": {"osm_type": "relation", "osm_id": 785204282, "name": "Yamaguchi", "admin_level": "6", "kind": "subdivision_2", "parent_osm_id": 4016543, "parent_name": "Yamaguchi Prefecture", "parent_iso": "JP-35"}, "geometry": {"type": "Polygon", "coordinates": [[[131.3696, 34.1377], [131.3793, 34.1212], [131.3759, 34.1149], [131.3605, 34.1051], [131.3523, 34.1095], [131.3451, 34.1073], [131.3519, 34.0987], [131.3534, 34.0875], [131.3459, 34.0829], [131.3497, 34.0749], [131.3392, 34.0675], [131.333, 34.0513], [131.3186, 34.0468], [131.3169, 34.0398], [131.3067, 34.0319], [131.3015, 34.0188], [131.3049, 34.015], [131.2947, 34.0101], [131.292, 34.0011], [131.2966, 33.9961], [131.307, 33.9986], [131.3058, 33.9957], [131.3135, 33.9944], [131.3488, 34.0027], [131.3572, 33.9972], [131.3706, 34.0002], [131.3835, 34.0215], [131.3707, 34.0271], [131.3859, 34.0313], [131.3827, 34.0359], [131.3856, 34.0482], [131.3939, 34.0512], [131.3987, 34.0493], [131.3944, 34.0261], [131.4149, 34.0214], [131.4049, 34.0135], [131.4015, 33.9984], [131.394, 33.997], [131.3959, 33.9847], [131.4001, 33.9937], [131.4086, 33.9958], [131.4076, 34.0008], [131.4187, 34.0154], [131.428, 34.0139], [131.4318, 34.0063], [131.424, 33.9893], [131.4334, 33.99], [131.4372, 33.9826], [131.4419, 33.9829], [131.4434, 33.9928], [131.4507, 33.9956], [131.4551, 33.9883], [131.4611, 33.9879], [131.4636, 33.9932], [131.4546, 34.0029], [131.48, 34.013], [131.4785, 34.0175], [131.4698, 34.0189], [131.4655, 34.0274], [131.4746, 34.0398], [131.4593, 34.0449], [131.4552, 34.062], [131.4807, 34.075], [131.4908, 34.0938], [131.5001, 34.099], [131.5082, 34.0989], [131.5189, 34.0862], [131.5513, 34.097], [131.56, 34.1184], [131.5763, 34.1232], [131.5732, 34.1351], [131.5842, 34.1428], [131.5823, 34.1519], [131.6075, 34.1474], [131.619, 34.1431], [131.6192, 34.1386], [131.6333, 34.1497], [131.631, 34.1551], [131.6358, 34.1597], [131.6559, 34.1577], [131.6604, 34.1519], [131.6536, 34.1368], [131.6861, 34.1326], [131.6925, 34.1421], [131.7078, 34.1331], [131.7199, 34.1365], [131.7254, 34.1412], [131.7238, 34.1617], [131.7322, 34.1631], [131.7395, 34.1723], [131.7331, 34.1761], [131.7343, 34.1895], [131.7536, 34.1887], [131.764, 34.1947], [131.7512, 34.2133], [131.7449, 34.2442], [131.7392, 34.2478], [131.7426, 34.2581], [131.7534, 34.263], [131.7542, 34.2713], [131.7591, 34.2735], [131.742, 34.2929], [131.7501, 34.3011], [131.7438, 34.314], [131.7447, 34.3294], [131.7567, 34.3314], [131.756, 34.3462], [131.771, 34.3562], [131.7635, 34.3809], [131.7788, 34.3986], [131.7848, 34.3999], [131.7938, 34.4362], [131.7614, 34.4337], [131.7554, 34.4404], [131.7412, 34.4291], [131.7296, 34.4327], [131.7129, 34.4285], [131.6974, 34.4353], [131.6939, 34.4436], [131.6991, 34.4515], [131.6939, 34.4657], [131.6989, 34.4701], [131.6961, 34.4809], [131.6835, 34.4785], [131.6821, 34.4928], [131.668, 34.5041], [131.6463, 34.499], [131.6506, 34.4906], [131.6459, 34.4869], [131.6529, 34.4795], [131.65, 34.4699], [131.6391, 34.4652], [131.6336, 34.4444], [131.6173, 34.4321], [131.6068, 34.4182], [131.6067, 34.4098], [131.5764, 34.4078], [131.5693, 34.4134], [131.5514, 34.4085], [131.5428, 34.409], [131.5422, 34.4136], [131.5374, 34.4096], [131.5383, 34.4004], [131.5483, 34.3889], [131.5333, 34.3777], [131.534, 34.369], [131.5535, 34.3618], [131.5604, 34.3463], [131.5582, 34.334], [131.566, 34.3291], [131.5579, 34.3081], [131.5494, 34.299], [131.5408, 34.3046], [131.5219, 34.2892], [131.5264, 34.2818], [131.5139, 34.2778], [131.5163, 34.2736], [131.504, 34.2585], [131.507, 34.251], [131.5005, 34.2479], [131.5024, 34.2433], [131.4884, 34.2402], [131.4815, 34.2448], [131.4638, 34.2379], [131.4627, 34.232], [131.456, 34.2315], [131.4464, 34.2223], [131.424, 34.2194], [131.4156, 34.2105], [131.4051, 34.2089], [131.4012, 34.2004], [131.4055, 34.1971], [131.3983, 34.1889], [131.4002, 34.1804], [131.3906, 34.1791], [131.3787, 34.1665], [131.3788, 34.1573], [131.3696, 34.1495], [131.3774, 34.1447], [131.3696, 34.1377]]]}}, {"type": "Feature", "properties": {"osm_type": "relation", "osm_id": 477598674, "name": "Ube", "admin_level": "6", "kind": "subdivision_2", "parent_osm_id": 4016543, "parent_name": "Yamaguchi Prefecture", "parent_iso": "JP-35"}, "geometry": {"type": "Polygon", "coordinates": [[[131.2103, 34.1133], [131.2177, 34.1106], [131.2109, 34.0826], [131.2162, 34.0756], [131.1964, 34.0653], [131.1835, 34.0523], [131.1978, 34.0433], [131.1991, 34.0374], [131.2068, 34.039], [131.2269, 34.0278], [131.2172, 34.0132], [131.2075, 34.0109], [131.2012, 33.9998], [131.1939, 33.9983], [131.1861, 33.9889], [131.1877, 33.9581], [131.193, 33.9579], [131.1994, 33.9427], [131.21, 33.9444], [131.2103, 33.9506], [131.224, 33.949], [131.2278, 33.9641], [131.225, 33.9485], [131.2302, 33.9563], [131.2332, 33.954], [131.2153, 33.9367], [131.2225, 33.9337], [131.2312, 33.9378], [131.239, 33.9514], [131.2469, 33.9405], [131.234, 33.9364], [131.2325, 33.9271], [131.2525, 33.9369], [131.256, 33.9319], [131.2466, 33.9314], [131.2495, 33.9274], [131.2684, 33.9229], [131.2926, 33.9343], [131.2917, 33.9389], [131.3149, 33.9537], [131.3301, 33.952], [131.3483, 33.9658], [131.3562, 33.9662], [131.348, 33.9819], [131.352, 33.9864], [131.3607, 33.9856], [131.3633, 33.997], [131.3488, 34.0027], [131.3135, 33.9944], [131.3058, 33.9957], [131.307, 33.9986], [131.2966, 33.9961], [131.292, 34.0011], [131.2947, 34.0101], [131.3049, 34.015], [131.3015, 34.0188], [131.3067, 34.0319], [131.3169, 34.0398], [131.3186, 34.0468], [131.333, 34.0513], [131.3392, 34.0675], [131.3497, 34.0749], [131.3459, 34.0829], [131.3534, 34.0875], [131.3519, 34.0987], [131.3451, 34.1073], [131.37, 34.1077], [131.3665, 34.1111], [131.3793, 34.1212], [131.3763, 34.1319], [131.3627, 34.1405], [131.3475, 34.1372], [131.3291, 34.1504], [131.3186, 34.1502], [131.3252, 34.1607], [131.3182, 34.1662], [131.3108, 34.1611], [131.2937, 34.1667], [131.2839, 34.1618], [131.2737, 34.1413], [131.2629, 34.14], [131.256, 34.1448], [131.2414, 34.1412], [131.2377, 34.1272], [131.2148, 34.12], [131.2103, 34.1133]]]}}, {"type": "Feature", "properties": {"osm_type": "relation", "osm_id": 296814606, "name": "Abu", "admin_level": "6", "kind": "subdivision_2", "parent_osm_id": 4016543, "parent_name": "Yamaguchi Prefecture", "parent_iso": "JP-35"}, "geometry": {"type": "Polygon", "coordinates": [[[131.5578, 34.6032], [131.5518, 34.5942], [131.556, 34.5883], [131.5513, 34.5752], [131.5334, 34.5594], [131.5155, 34.5526], [131.504, 34.5339], [131.481, 34.5315], [131.4664, 34.5363], [131.4553, 34.5248], [131.4549, 34.5113], [131.4503, 34.508], [131.4661, 34.5006], [131.4617, 34.4859], [131.4785, 34.4924], [131.5025, 34.4831], [131.5061, 34.4893], [131.5129, 34.4891], [131.5109, 34.4966], [131.5169, 34.5018], [131.5297, 34.505], [131.543, 34.5168], [131.5501, 34.4967], [131.555, 34.4965], [131.5666, 34.4811], [131.5817, 34.4814], [131.5949, 34.4861], [131.6026, 34.498], [131.6165, 34.4965], [131.6478, 34.5137], [131.6338, 34.5318], [131.6193, 34.531], [131.6143, 34.547], [131.6095, 34.5454], [131.5908, 34.5571], [131.6005, 34.5802], [131.5975, 34.5875], [131.5848, 34.5923], [131.5816, 34.6027], [131.5641, 34.6066], [131.5578, 34.6032]]]}}, {"type": "Feature", "properties": {"osm_type": "relation", "osm_id": 827653661, "name": "Kudamatsu", "admin_level": "6", "kind": "subdivision_2", "parent_osm_id": 4016543, "parent_name": "Yamaguchi Prefecture", "parent_iso": "JP-35"}, "geometry": {"type": "MultiPolygon", "coordinates": [[[[131.8582, 33.9901], [131.854, 33.9744], [131.8438, 33.9673], [131.8486, 33.9679], [131.8486, 33.9521], [131.8335, 33.9565], [131.8318, 33.9474], [131.8207, 33.9446], [131.8172, 33.9571], [131.8077, 33.952], [131.8064, 33.9392], [131.8267, 33.931], [131.8619, 33.953], [131.8599, 33.9654], [131.8767, 33.9691], [131.8702, 33.9786], [131.8596, 33.9828], [131.8582, 33.9901]]], [[[131.8412, 34.0173], [131.8381, 34.0093], [131.8513, 34.0091], [131.8527, 34.0037], [131.8594, 34.0067], [131.8567, 34.0017], [131.8624, 34.0045], [131.8686, 33.9983], [131.8662, 33.9901], [131.8752, 33.9904], [131.8826, 33.981], [131.8916, 33.9784], [131.8994, 33.9851], [131.8991, 33.9911], [131.9332, 34.0056], [131.9347, 34.0197], [131.9276, 34.0299], [131.9328, 34.0468], [131.9283, 34.0542], [131.9346, 34.0571], [131.9357, 34.0635], [131.9265, 34.0645], [131.9257, 34.0726], [131.9128, 34.0806], [131.9204, 34.0885], [131.8901, 34.0902], [131.8865, 34.0963], [131.8929, 34.0993], [131.8978, 34.1124], [131.8796, 34.1121], [131.8513, 34.0915], [131.864, 34.0843], [131.8736, 34.0557], [131.8635, 34.0467], [131.8632, 34.0401], [131.8401, 34.028], [131.8412, 34.0173]]]]}}, {"type": "Feature", "properties": {"osm_type": "relation", "osm_id": 184877440, "name": "Iwakuni", "admin_level": "6", "kind": "subdivision_2", "parent_osm_id": 4016543, "parent_name": "Yamaguchi Prefecture", "parent_iso": "JP-35"}, "geometry": {"type": "MultiPolygon", "coordinates": [[[[132.415, 34.0303], [132.4029, 34.0273], [132.4045, 34.0164], [132.4267, 34.0126], [132.4261, 34.0194], [132.415, 34.0303]]], [[[132.0552, 34.4678], [132.0389, 34.4689], [132.0348, 34.4634], [132.0233, 34.4612], [132.0154, 34.452], [132.0162, 34.4375], [131.9975, 34.4278], [131.9899, 34.414], [132.0135, 34.382], [132.0121, 34.3674], [131.9978, 34.3649], [131.9896, 34.3524], [131.974, 34.3411], [131.9742, 34.329], [131.9608, 34.3208], [131.961, 34.308], [131.9556, 34.308], [131.9455, 34.3233], [131.9189, 34.338], [131.8998, 34.3191], [131.8887, 34.3267], [131.884, 34.3213], [131.8864, 34.3136], [131.8791, 34.3012], [131.8828, 34.2974], [131.8812, 34.2696], [131.8942, 34.2514], [131.8887, 34.2395], [131.9142, 34.229], [131.9189, 34.2229], [131.9374, 34.2299], [131.9421, 34.2249], [131.9386, 34.2192], [131.9448, 34.2006], [131.9591, 34.1991], [131.9583, 34.1813], [131.9658, 34.1763], [131.9552, 34.1634], [131.9599, 34.1576], [131.958, 34.1495], [131.9525, 34.1476], [131.9585, 34.1334], [131.9526, 34.1281], [131.9647, 34.1137], [131.9649, 34.0954], [131.9691, 34.0949], [131.9695, 34.0871], [131.9821, 34.0881], [131.9912, 34.083], [131.9957, 34.0784], [131.991, 34.0713], [131.9974, 34.0644], [132.006, 34.0676], [132.011, 34.0623], [132.02, 34.0694], [132.0257, 34.0681], [132.0306, 34.0473], [132.0222, 34.0239], [132.0271, 34.0144], [132.0376, 34.0109], [132.059, 34.0142], [132.0602, 34.0187], [132.0821, 34.03], [132.0949, 34.0484], [132.1207, 34.0518], [132.128, 34.0435], [132.1391, 34.0424], [132.1428, 34.0319], [132.1525, 34.0288], [132.1617, 34.0183], [132.1917, 34.0164], [132.1967, 34.0108], [132.1945, 33.9827], [132.1989, 33.9809], [132.2128, 34.002], [132.2186, 34.0211], [132.2169, 34.0436], [132.2207, 34.0464], [132.2129, 34.0514], [132.2087, 34.0621], [132.2115, 34.0831], [132.2004, 34.1083], [132.2002, 34.1158], [132.2044, 34.1162], [132.2004, 34.1203], [132.2033, 34.1253], [132.2198, 34.127], [132.2224, 34.1311], [132.2317, 34.127], [132.236, 34.1318], [132.25, 34.1299], [132.2524, 34.1581], [132.2409, 34.1614], [132.2508, 34.1655], [132.2387, 34.1842], [132.2353, 34.1814], [132.2375, 34.19], [132.2308, 34.1889], [132.2327, 34.1957], [132.2377, 34.1962], [132.2369, 34.2021], [132.2248, 34.202], [132.226, 34.1908], [132.2186, 34.1816], [132.1933, 34.1793], [132.1835, 34.1973], [132.1926, 34.2027], [132.2054, 34.228], [132.2001, 34.2252], [132.1985, 34.2304], [132.1935, 34.2265], [132.1803, 34.2299], [132.1711, 34.2253], [132.1677, 34.2272], [132.1701, 34.2338], [132.1565, 34.2294], [132.15, 34.2372], [132.144, 34.2375], [132.1464, 34.2568], [132.1336, 34.2724], [132.1401, 34.2849], [132.129, 34.2939], [132.1254, 34.2915], [132.1284, 34.2957], [132.124, 34.2968], [132.1293, 34.3032], [132.1227, 34.3116], [132.1288, 34.322], [132.1274, 34.3327], [132.1082, 34.3278], [132.1012, 34.3362], [132.1013, 34.3453], [132.0881, 34.3517], [132.0853, 34.3579], [132.0698, 34.3563], [132.0778, 34.3879], [132.07, 34.392], [132.0746, 34.402], [132.0689, 34.4163], [132.081, 34.4435], [132.0686, 34.4677], [132.0552, 34.4678]]]]}}, {"type": "Feature", "properties": {"osm_type": "relation", "osm_id": 947590592, "name": "Hikari", "admin_level": "6", "kind": "subdivision_2", "parent_osm_id": 4016543, "parent_name": "Yamaguchi Prefecture", "parent_iso": "JP-35"}, "geometry": {"type": "MultiPolygon", "coordinates": [[[[132.0171, 33.8712], [132.0138, 33.8691], [132.0162, 33.8599], [131.9979, 33.861], [131.9977, 33.8575], [132.0229, 33.852], [132.0171, 33.8712]]], [[[131.8916, 33.9784], [131.9151, 33.9697], [131.9232, 33.9559], [131.9297, 33.9622], [131.9289, 33.9514], [131.9363, 33.9473], [131.9591, 33.9485], [131.9694, 33.9303], [131.9626, 33.9272], [131.9653, 33.9183], [131.9758, 33.9175], [131.9695, 33.9221], [131.9799, 33.9299], [132.0251, 33.9019], [132.027, 33.913], [132.016, 33.9146], [132.003, 33.9292], [131.9946, 33.932], [131.984, 33.9408], [131.98, 33.9513], [131.9838, 33.9581], [131.9941, 33.9596], [132.0003, 33.9709], [132.0113, 33.9729], [132.0084, 33.9779], [132.0192, 33.9875], [132.0505, 33.9852], [132.0631, 33.9899], [132.0642, 33.9968], [132.0552, 34.0005], [132.0577, 34.0114], [132.0271, 34.0144], [132.0223, 34.0255], [131.9915, 34.0291], [131.9827, 34.0245], [131.9667, 34.033], [131.9607, 34.0267], [131.9651, 34.0223], [131.9609, 34.0156], [131.9082, 33.9963], [131.8991, 33.9911], [131.8994, 33.9851], [131.8916, 33.9784]]]]}}, {"type": "Feature", "properties": {"osm_type": "relation", "osm_id": 681743599, "name": "Shunan", "admin_level": "6", "kind": "subdivision_2", "parent_osm_id": 4016543, "parent_name": "Yamaguchi Prefecture", "parent_iso": "JP-35"}, "geometry": {"type": "MultiPolygon", "coordinates": [[[[131.7095, 34.0346], [131.7045, 34.0278], [131.705, 34.008], [131.6915, 34.0079], [131.7197, 33.9893], [131.7188, 33.9795], [131.7328, 33.9826], [131.7109, 34.0004], [131.715, 34.0133], [131.7092, 34.0253], [131.7152, 34.0308], [131.7095, 34.0346]]], [[[131.7727, 34.0504], [131.7628, 34.0481], [131.7528, 34.0327], [131.7491, 34.0366], [131.7309, 34.0364], [131.7264, 34.0284], [131.7287, 34.0226], [131.7456, 34.0231], [131.7802, 34.0487], [131.7727, 34.0504]]], [[[131.6536, 34.1368], [131.6455, 34.1343], [131.6425, 34.1216], [131.6459, 34.1107], [131.6388, 34.1054], [131.6424, 34.0897], [131.6347, 34.0871], [131.6345, 34.0794], [131.6627, 34.0724], [131.6654, 34.065], [131.6602, 34.0532], [131.6687, 34.0521], [131.6736, 34.0439], [131.6783, 34.0456], [131.6755, 34.0491], [131.6787, 34.0545], [131.6914, 34.0539], [131.6887, 34.0475], [131.6976, 34.0464], [131.6994, 34.0545], [131.708, 34.0546], [131.7093, 34.0604], [131.7201, 34.0573], [131.7387, 34.0615], [131.7435, 34.0655], [131.7414, 34.0722], [131.7453, 34.0658], [131.7523, 34.0707], [131.7515, 34.0655], [131.7584, 34.0655], [131.7394, 34.0553], [131.747, 34.0459], [131.7584, 34.0486], [131.7635, 34.0588], [131.7653, 34.0536], [131.78, 34.0536], [131.7806, 34.0601], [131.7866, 34.054], [131.7969, 34.0591], [131.7928, 34.0505], [131.8008, 34.0485], [131.7894, 34.0424], [131.7811, 34.0275], [131.7886, 34.0247], [131.8023, 34.0432], [131.8182, 34.0355], [131.8214, 34.0277], [131.8276, 34.0295], [131.8267, 34.0235], [131.8044, 34.0161], [131.7827, 33.995], [131.7856, 33.9858], [131.7707, 33.981], [131.7888, 33.9735], [131.7983, 33.9772], [131.81, 33.9678], [131.8219, 33.9761], [131.8161, 33.9758], [131.8143, 33.9825], [131.7989, 33.9819], [131.7946, 33.9877], [131.8185, 33.993], [131.8412, 34.0173], [131.8401, 34.028], [131.8632, 34.0401], [131.8635, 34.0467], [131.8736, 34.0557], [131.8714, 34.0682], [131.864, 34.0843], [131.8506, 34.089], [131.8621, 34.1027], [131.8677, 34.1001], [131.8822, 34.1132], [131.8978, 34.1124], [131.8929, 34.0993], [131.8865, 34.0963], [131.8901, 34.0902], [131.9204, 34.0885], [131.9128, 34.0806], [131.9257, 34.0726], [131.9265, 34.0645], [131.9357, 34.0635], [131.9346, 34.0571], [131.9283, 34.0542], [131.9333, 34.0384], [131.9276, 34.0299], [131.9347, 34.0197], [131.9344, 34.0087], [131.9609, 34.0156], [131.9651, 34.0223], [131.9607, 34.0267], [131.9667, 34.033], [131.9827, 34.0245], [131.9915, 34.0291], [132.0223, 34.0255], [132.0301, 34.0411], [132.0283, 34.0632], [132.0237, 34.0697], [132.011, 34.0623], [132.006, 34.0676], [131.9974, 34.0644], [131.991, 34.0713], [131.9957, 34.0784], [131.9912, 34.083], [131.967, 34.0893], [131.9647, 34.1137], [131.9526, 34.1281], [131.9585, 34.1334], [131.9525, 34.1476], [131.958, 34.1495], [131.9599, 34.1576], [131.9552, 34.1634], [131.9658, 34.1763], [131.9583, 34.1813], [131.9591, 34.1991], [131.9448, 34.2006], [131.9386, 34.2192], [131.9421, 34.2249], [131.9374, 34.2299], [131.9189, 34.2229], [131.9142, 34.229], [131.8916, 34.235], [131.8889, 34.2467], [131.8942, 34.2514], [131.8812, 34.2696], [131.8813, 34.3086], [131.8603, 34.3046], [131.8341, 34.3112], [131.8314, 34.3026], [131.8195, 34.303], [131.8165, 34.3102], [131.7965, 34.3189], [131.7929, 34.329], [131.7776, 34.3329], [131.7746, 34.3375], [131.7795, 34.3446], [131.778, 34.3534], [131.771, 34.3562], [131.756, 34.3462], [131.7567, 34.3314], [131.7447, 34.3294], [131.7438, 34.314], [131.7501, 34.3011], [131.742, 34.2929], [131.7591, 34.2735], [131.7542, 34.2713], [131.7534, 34.263], [131.7426, 34.2581], [131.7392, 34.2478], [131.7449, 34.2442], [131.7512, 34.2133], [131.764, 34.1947], [131.7536, 34.1887], [131.7343, 34.1895], [131.7331, 34.1761], [131.7395, 34.1723], [131.7322, 34.1631], [131.7238, 34.1617], [131.7254, 34.1412], [131.7134, 34.1329], [131.6985, 34.1419], [131.6925, 34.1421], [131.6861, 34.1326], [131.6536, 34.1368]]]]}}, {"type": "Feature", "properties": {"osm_type": "relation", "osm_id": 520151333, "name": "Kaminoseki", "admin_level": "6", "kind": "subdivision_2", "parent_osm_id": 4016543, "parent_name": "Yamaguchi Prefecture", "parent_iso": "JP-35"}, "geometry": {"type": "MultiPolygon", "coordinates": [[[[132.1509, 33.7639], [132.14, 33.7471], [132.1447, 33.7303], [132.1267, 33.7195], [132.134, 33.7129], [132.153, 33.7275], [132.1461, 33.7404], [132.1523, 33.7491], [132.1463, 33.7544], [132.1509, 33.7639]]], [[[131.9695, 33.7981], [131.9625, 33.7947], [131.9616, 33.7824], [131.9471, 33.7808], [131.9504, 33.7726], [131.9641, 33.7686], [131.9935, 33.7797], [131.9905, 33.7872], [131.9695, 33.7981]]], [[[132.0714, 33.8584], [132.0676, 33.8485], [132.0811, 33.8361], [132.0784, 33.8274], [132.0601, 33.8188], [132.0547, 33.7985], [132.0279, 33.7947], [132.0367, 33.7868], [132.0432, 33.7899], [132.0493, 33.7845], [132.0577, 33.789], [132.0591, 33.8019], [132.0726, 33.8031], [132.0755, 33.8138], [132.0857, 33.8173], [132.0891, 33.826], [132.1067, 33.8251], [132.118, 33.8306], [132.1115, 33.8314], [132.1085, 33.8374], [132.1043, 33.835], [132.1024, 33.8437], [132.0915, 33.8488], [132.0836, 33.8448], [132.0714, 33.8584]]], [[[132.1334, 33.8619], [132.1156, 33.8592], [132.1165, 33.8323], [132.1246, 33.8351], [132.1385, 33.8316], [132.1526, 33.8432], [132.1334, 33.8619]]]]}}, {"type": "Feature", "properties": {"osm_type": "relation", "osm_id": 814230577, "name": "Tabuse", "admin_level": "6", "kind": "subdivision_2", "parent_osm_id": 4016543, "parent_name": "Yamaguchi Prefecture", "parent_iso": "JP-35"}, "geometry": {"type": "MultiPolygon", "coordinates": [[[[132.0251, 33.9019], [132.053, 33.9157], [132.0528, 33.922], [132.063, 33.9299], [132.0574, 33.9613], [132.0641, 33.9652], [132.0624, 33.9912], [132.0357, 33.9835], [132.0192, 33.9875], [132.0084, 33.9779], [132.0113, 33.9729], [132.0003, 33.9709], [131.9941, 33.9596], [131.9838, 33.9581], [131.98, 33.9513], [131.984, 33.9408], [131.9946, 33.932], [132.003, 33.9292], [132.016, 33.9146], [132.027, 33.913], [132.0251, 33.9019]]], [[[132.0537, 34.012], [132.0577, 34.0114], [132.0552, 34.0005], [132.0642, 33.9968], [132.0735, 34.0163], [132.0672, 34.0213], [132.0537, 34.012]]]]}}, {"type": "Feature", "properties": {"osm_type": "relation", "osm_id": 432743732, "name": "Hirao", "admin_level": "6", "kind": "subdivision_2", "parent_osm_id": 4016543, "parent_name": "Yamaguchi Prefecture", "parent_iso": "JP-35"}, "geometry": {"type": "MultiPolygon", "coordinates": [[[[132.0662, 33.8837], [132.0574, 33.8794], [132.0617, 33.867], [132.0696, 33.8691], [132.0662, 33.8837]]], [[[132.1334, 33.8619], [132.1334, 33.8745], [132.1098, 33.8916], [132.0947, 33.9128], [132.1076, 33.9226], [132.1057, 33.9381], [132.1101, 33.9425], [132.1057, 33.9436], [132.1064, 33.9513], [132.094, 33.9588], [132.06, 33.9548], [132.063, 33.9299], [132.0559, 33.9131], [132.0463, 33.9102], [132.0745, 33.905], [132.0822, 33.8897], [132.1158, 33.8785], [132.1208, 33.8712], [132.1132, 33.86], [132.1334, 33.8619]]]]}}, {"type": "Feature", "properties": {"osm_type": "relation", "osm_id": 174062434, "name": "Houfu", "admin_level": "6", "kind": "subdivision_2", "parent_osm_id": 4016543, "parent_name": "Yamaguchi Prefecture", "parent_iso": "JP-35"}, "geometry": {"type": "MultiPolygon", "coordinates": [[[[131.5836, 34.0241], [131.5688, 34.0133], [131.5682, 34.0035], [131.5579, 33.9978], [131.5562, 33.9895], [131.5644, 33.9936], [131.5664, 33.9868], [131.5917, 33.9993], [131.5947, 34.0103], [131.6009, 34.0139], [131.5836, 34.0241]]], [[[131.4757, 34.0374], [131.4841, 34.0282], [131.4888, 34.0316], [131.4934, 34.0262], [131.5088, 34.0232], [131.5159, 34.014], [131.51, 34.0098], [131.5103, 34.0034], [131.5246, 34.0072], [131.5265, 33.9992], [131.5391, 33.9974], [131.5617, 34.007], [131.5624, 34.0121], [131.5813, 34.0217], [131.5877, 34.0319], [131.5995, 34.0385], [131.6037, 34.0377], [131.6021, 34.028], [131.6097, 34.0209], [131.6231, 34.0395], [131.6355, 34.0465], [131.6436, 34.0458], [131.6487, 34.0388], [131.6736, 34.0439], [131.6687, 34.0521], [131.6602, 34.0532], [131.6654, 34.065], [131.6627, 34.0724], [131.6345, 34.0794], [131.6347, 34.0871], [131.6424, 34.0897], [131.6388, 34.1054], [131.6459, 34.1107], [131.6425, 34.1216], [131.6455, 34.1343], [131.6536, 34.1368], [131.6604, 34.1519], [131.6559, 34.1577], [131.6358, 34.1597], [131.631, 34.1551], [131.6333, 34.1497], [131.6192, 34.1386], [131.619, 34.1431], [131.6075, 34.1474], [131.5823, 34.1519], [131.5842, 34.1428], [131.5732, 34.1351], [131.5763, 34.1232], [131.56, 34.1184], [131.5513, 34.097], [131.5189, 34.0862], [131.5082, 34.0989], [131.5001, 34.099], [131.4908, 34.0938], [131.4807, 34.075], [131.4552, 34.062], [131.4593, 34.0449], [131.47, 34.0441], [131.4757, 34.0374]]]]}}, {"type": "Feature", "properties": {"osm_type": "relation", "osm_id": 136037580, "name": "Waki", "admin_level": "6", "kind": "subdivision_2", "parent_osm_id": 4016543, "parent_name": "Yamaguchi Prefecture", "parent_iso": "JP-35"}, "geometry": {"type": "Polygon", "coordinates": [[[132.2377, 34.1962], [132.2467, 34.2048], [132.2456, 34.2107], [132.2207, 34.2082], [132.2102, 34.2026], [132.1933, 34.207], [132.1835, 34.1973], [132.1933, 34.1793], [132.2186, 34.1816], [132.226, 34.1908], [132.2248, 34.202], [132.2369, 34.2021], [132.2377, 34.1962]]]}}]}