{"type": "FeatureCollection", "parent": {"osm_id": 4103405, "name": "Kafr El Sheikh", "admin_level": "4", "kind": "subdivision_1", "child_kind": "subdivision_2", "iso": "EG-KFS"}, "features": [{"type": "Feature", "properties": {"osm_type": "relation", "osm_id": 626697478, "name": "Al Hamul", "admin_level": "6", "kind": "subdivision_2", "parent_osm_id": 4103405, "parent_name": "Kafr El Sheikh", "parent_iso": "EG-KFS"}, "geometry": {"type": "MultiPolygon", "coordinates": [[[[30.8064, 31.5207], [30.8256, 31.5318], [30.8405, 31.5287], [30.862, 31.5364], [30.8704, 31.5314], [30.8889, 31.5428], [30.913, 31.5422], [30.9663, 31.5603], [30.9834, 31.5667], [30.9969, 31.582], [31.0214, 31.5822], [31.0274, 31.5996], [31.0258, 31.6033], [30.8106, 31.5459], [30.7919, 31.5389], [30.8064, 31.5207]]], [[[31.188, 31.4996], [31.1572, 31.5366], [31.1132, 31.5424], [31.1208, 31.5251], [31.1071, 31.5137], [31.112, 31.5071], [31.1082, 31.5093], [31.1102, 31.505], [31.1048, 31.5022], [31.104, 31.4939], [31.0918, 31.4958], [31.0794, 31.5157], [31.0663, 31.5217], [31.0494, 31.5229], [31.0303, 31.5172], [31.0145, 31.5197], [31.022, 31.515], [31.0209, 31.5067], [31.0072, 31.4849], [30.9957, 31.4788], [31.0058, 31.4684], [31.0008, 31.4659], [30.9903, 31.4414], [30.9831, 31.4368], [30.9677, 31.4417], [30.9695, 31.4359], [30.963, 31.4374], [30.9659, 31.4445], [30.9583, 31.4494], [30.9573, 31.4222], [30.944, 31.4083], [30.9467, 31.3923], [30.9609, 31.3583], [31.0065, 31.3723], [31.0401, 31.2948], [31.036, 31.2479], [31.0306, 31.2427], [31.0358, 31.2258], [31.0539, 31.2299], [31.0717, 31.2413], [31.1194, 31.2273], [31.146, 31.2322], [31.1584, 31.2557], [31.1694, 31.2552], [31.1741, 31.2653], [31.1901, 31.2694], [31.18, 31.2812], [31.1795, 31.3045], [31.2119, 31.3106], [31.2295, 31.3309], [31.2137, 31.3422], [31.221, 31.3543], [31.2153, 31.3547], [31.2044, 31.3662], [31.1854, 31.493], [31.188, 31.4996]]]]}}, {"type": "Feature", "properties": {"osm_type": "relation", "osm_id": 936647367, "name": "Biyalu", "admin_level": "6", "kind": "subdivision_2", "parent_osm_id": 4103405, "parent_name": "Kafr El Sheikh", "parent_iso": "EG-KFS"}, "geometry": {"type": "Polygon", "coordinates": [[[31.0743, 31.2401], [31.0609, 31.2267], [31.0658, 31.2175], [31.0722, 31.2195], [31.0692, 31.2051], [31.0791, 31.206], [31.0851, 31.201], [31.0624, 31.1632], [31.0784, 31.1477], [31.0869, 31.1519], [31.1476, 31.1393], [31.1729, 31.1598], [31.1936, 31.1579], [31.194, 31.1537], [31.2011, 31.1523], [31.2152, 31.1554], [31.2215, 31.1456], [31.2412, 31.1454], [31.2699, 31.1539], [31.2702, 31.1716], [31.2805, 31.164], [31.2874, 31.1681], [31.2886, 31.1751], [31.2593, 31.2127], [31.2822, 31.2555], [31.282, 31.2722], [31.2784, 31.3169], [31.2676, 31.3419], [31.2635, 31.4099], [31.2519, 31.4752], [31.2473, 31.48], [31.1866, 31.4991], [31.2044, 31.3662], [31.2153, 31.3547], [31.221, 31.3543], [31.2137, 31.3422], [31.2295, 31.3309], [31.2119, 31.3106], [31.1795, 31.3045], [31.18, 31.2812], [31.1901, 31.2694], [31.1741, 31.2653], [31.1694, 31.2552], [31.1584, 31.2557], [31.1521, 31.2382], [31.1332, 31.2286], [31.1194, 31.2273], [31.0743, 31.2401]]]}}, {"type": "Feature", "properties": {"osm_type": "relation", "osm_id": 322999700, "name": "Burullus", "admin_level": "6", "kind": "subdivision_2", "parent_osm_id": 4103405, "parent_name": "Kafr El Sheikh", "parent_iso": "EG-KFS"}, "geometry": {"type": "Polygon", "coordinates": [[[31.188, 31.4996], [31.2258, 31.4838], [31.2473, 31.48], [31.3201, 31.4378], [31.3177, 31.4637], [31.3243, 31.4808], [31.3393, 31.4948], [31.3704, 31.5103], [31.4047, 31.5066], [31.358, 31.534], [31.2105, 31.5836], [31.0679, 31.607], [31.0306, 31.6045], [31.0448, 31.588], [31.0245, 31.5757], [31.0534, 31.5694], [31.1021, 31.55], [31.0946, 31.5396], [31.1224, 31.5441], [31.1572, 31.5366], [31.188, 31.4996]]]}}, {"type": "Feature", "properties": {"osm_type": "relation", "osm_id": 664807651, "name": "Disuq", "admin_level": "6", "kind": "subdivision_2", "parent_osm_id": 4103405, "parent_name": "Kafr El Sheikh", "parent_iso": "EG-KFS"}, "geometry": {"type": "Polygon", "coordinates": [[[30.6418, 31.1292], [30.669, 31.137], [30.6642, 31.1536], [30.6553, 31.1595], [30.644, 31.1611], [30.6301, 31.1458], [30.6418, 31.1292]]]}}, {"type": "Feature", "properties": {"osm_type": "relation", "osm_id": 112470268, "name": "Disuq", "admin_level": "6", "kind": "subdivision_2", "parent_osm_id": 4103405, "parent_name": "Kafr El Sheikh", "parent_iso": "EG-KFS"}, "geometry": {"type": "Polygon", "coordinates": [[[30.7863, 31.0439], [30.7716, 31.0762], [30.7728, 31.0962], [30.7661, 31.1024], [30.7697, 31.106], [30.7662, 31.1156], [30.7755, 31.1143], [30.7653, 31.1279], [30.764, 31.1435], [30.8043, 31.1611], [30.7941, 31.1846], [30.8077, 31.207], [30.7835, 31.2401], [30.7824, 31.2693], [30.7563, 31.2873], [30.7419, 31.2659], [30.7359, 31.2684], [30.7266, 31.2636], [30.7244, 31.2535], [30.7043, 31.2675], [30.6847, 31.2523], [30.6653, 31.25], [30.6679, 31.2405], [30.664, 31.2359], [30.6328, 31.2414], [30.6187, 31.2507], [30.6134, 31.2446], [30.6267, 31.2245], [30.6185, 31.2206], [30.627, 31.2095], [30.6223, 31.1976], [30.6278, 31.1822], [30.6102, 31.1749], [30.6194, 31.1542], [30.6301, 31.1458], [30.644, 31.1611], [30.6642, 31.1536], [30.669, 31.137], [30.6418, 31.1292], [30.6618, 31.1094], [30.6867, 31.1], [30.7229, 31.0711], [30.73, 31.053], [30.7215, 31.024], [30.7411, 31.0114], [30.7634, 31.0326], [30.764, 31.0434], [30.772, 31.0398], [30.7863, 31.0439]]]}}, {"type": "Feature", "properties": {"osm_type": "relation", "osm_id": 545183593, "name": "Fuwwa", "admin_level": "6", "kind": "subdivision_2", "parent_osm_id": 4103405, "parent_name": "Kafr El Sheikh", "parent_iso": "EG-KFS"}, "geometry": {"type": "Polygon", "coordinates": [[[30.6653, 31.25], [30.6109, 31.2709], [30.5844, 31.2614], [30.5703, 31.2824], [30.5611, 31.2883], [30.5482, 31.2565], [30.54, 31.2562], [30.5196, 31.2676], [30.5004, 31.245], [30.5073, 31.2304], [30.528, 31.2283], [30.5245, 31.1997], [30.5443, 31.1936], [30.5594, 31.2088], [30.5926, 31.1822], [30.6102, 31.1749], [30.6278, 31.1822], [30.6223, 31.1976], [30.627, 31.2095], [30.6185, 31.2206], [30.6267, 31.2245], [30.6134, 31.2446], [30.6187, 31.2507], [30.6328, 31.2414], [30.664, 31.2359], [30.6679, 31.2405], [30.6653, 31.25]]]}}, {"type": "Feature", "properties": {"osm_type": "relation", "osm_id": 584050220, "name": "Kafr Al-Shaykh", "admin_level": "6", "kind": "subdivision_2", "parent_osm_id": 4103405, "parent_name": "Kafr El Sheikh", "parent_iso": "EG-KFS"}, "geometry": {"type": "Polygon", "coordinates": [[[30.9659, 31.1529], [30.9649, 31.1603], [30.9536, 31.1595], [30.9486, 31.1524], [30.923, 31.1484], [30.9162, 31.1371], [30.921, 31.1183], [30.9294, 31.1075], [30.9312, 31.1109], [30.9368, 31.1071], [30.9435, 31.1121], [30.9457, 31.1095], [30.951, 31.0787], [30.9691, 31.0807], [30.9599, 31.1155], [30.9642, 31.1222], [30.9483, 31.126], [30.9597, 31.1342], [30.9659, 31.1529]]]}}, {"type": "Feature", "properties": {"osm_type": "relation", "osm_id": 215264298, "name": "Kafr Al-Shaykh", "admin_level": "6", "kind": "subdivision_2", "parent_osm_id": 4103405, "parent_name": "Kafr El Sheikh", "parent_iso": "EG-KFS"}, "geometry": {"type": "Polygon", "coordinates": [[[31.0066, 31.3709], [30.9905, 31.3381], [31.0043, 31.2989], [30.9896, 31.2871], [30.9786, 31.2866], [30.9814, 31.2792], [30.9778, 31.2774], [30.9863, 31.2382], [31.0016, 31.2346], [31.0052, 31.2107], [30.9861, 31.2136], [30.9491, 31.2034], [30.9455, 31.1964], [30.9078, 31.1848], [30.9122, 31.1986], [30.9073, 31.206], [30.9102, 31.2155], [30.8936, 31.2163], [30.8778, 31.2085], [30.8842, 31.2004], [30.8803, 31.1983], [30.8552, 31.2016], [30.846, 31.2091], [30.83, 31.1979], [30.8027, 31.1943], [30.7952, 31.1887], [30.8043, 31.1611], [30.8179, 31.1565], [30.8256, 31.1457], [30.8695, 31.1397], [30.8796, 31.12], [30.8784, 31.1093], [30.8829, 31.1012], [30.8674, 31.102], [30.8616, 31.0922], [30.8633, 31.0839], [30.8717, 31.0679], [30.911, 31.0739], [30.9126, 31.0558], [30.9064, 31.043], [30.911, 31.0296], [30.9223, 31.0367], [30.9313, 31.0357], [30.9407, 31.0485], [30.9487, 31.0512], [30.9722, 31.0378], [30.9807, 31.045], [30.9922, 31.0404], [31.0008, 31.0445], [31.0253, 31.035], [31.0345, 31.0554], [31.0488, 31.0726], [31.0537, 31.0724], [31.0487, 31.0781], [31.0583, 31.0994], [31.0536, 31.1307], [31.0566, 31.1601], [31.0851, 31.201], [31.0791, 31.206], [31.0692, 31.2051], [31.0722, 31.2195], [31.0658, 31.2175], [31.0609, 31.2267], [31.0743, 31.2401], [31.0514, 31.229], [31.0347, 31.2276], [31.0306, 31.2427], [31.036, 31.2479], [31.0401, 31.2948], [31.0066, 31.3709]], [[30.9659, 31.1529], [30.9597, 31.1342], [30.9483, 31.126], [30.9642, 31.1222], [30.9599, 31.1155], [30.9691, 31.0807], [30.951, 31.0787], [30.9457, 31.1095], [30.9435, 31.1121], [30.9368, 31.1071], [30.9312, 31.1109], [30.9294, 31.1075], [30.921, 31.1183], [30.9162, 31.1371], [30.923, 31.1484], [30.9486, 31.1524], [30.9536, 31.1595], [30.9649, 31.1603], [30.9659, 31.1529]]]}}, {"type": "Feature", "properties": {"osm_type": "relation", "osm_id": 834002681, "name": "Mitubas", "admin_level": "6", "kind": "subdivision_2", "parent_osm_id": 4103405, "parent_name": "Kafr El Sheikh", "parent_iso": "EG-KFS"}, "geometry": {"type": "Polygon", "coordinates": [[[30.6109, 31.2709], [30.6068, 31.2742], [30.6079, 31.2858], [30.6304, 31.2994], [30.6255, 31.3164], [30.65, 31.3699], [30.6434, 31.3829], [30.6383, 31.3864], [30.6295, 31.3775], [30.6149, 31.3745], [30.6124, 31.3804], [30.6028, 31.3721], [30.6045, 31.3654], [30.5868, 31.3667], [30.5711, 31.3598], [30.5634, 31.3761], [30.5489, 31.3793], [30.5539, 31.3894], [30.5325, 31.3739], [30.5144, 31.3823], [30.5174, 31.4032], [30.5248, 31.4071], [30.5319, 31.4025], [30.5315, 31.3951], [30.5426, 31.4073], [30.5416, 31.4116], [30.5352, 31.4104], [30.5373, 31.4166], [30.5299, 31.4237], [30.526, 31.4191], [30.5288, 31.4105], [30.5174, 31.4158], [30.5185, 31.4247], [30.5296, 31.4271], [30.537, 31.4224], [30.5342, 31.431], [30.5765, 31.4304], [30.5616, 31.4702], [30.478, 31.4539], [30.4287, 31.4684], [30.3728, 31.5074], [30.3482, 31.5082], [30.3475, 31.5011], [30.3643, 31.4873], [30.37, 31.4673], [30.3881, 31.4452], [30.4186, 31.4413], [30.4321, 31.4304], [30.4344, 31.4133], [30.4247, 31.3815], [30.4302, 31.3775], [30.449, 31.3798], [30.4549, 31.3722], [30.4625, 31.3375], [30.4776, 31.3488], [30.4883, 31.3491], [30.5054, 31.3431], [30.5231, 31.3277], [30.5235, 31.2809], [30.5196, 31.2676], [30.54, 31.2562], [30.5482, 31.2565], [30.5611, 31.2883], [30.5703, 31.2824], [30.5844, 31.2614], [30.6109, 31.2709]], [[30.4068, 31.4684], [30.3928, 31.4657], [30.3874, 31.4775], [30.3755, 31.4833], [30.3758, 31.4881], [30.3826, 31.4882], [30.4068, 31.4684]], [[30.363, 31.4986], [30.3574, 31.5082], [30.3704, 31.5027], [30.363, 31.4986]]]}}, {"type": "Feature", "properties": {"osm_type": "relation", "osm_id": 512824436, "name": "Qillin", "admin_level": "6", "kind": "subdivision_2", "parent_osm_id": 4103405, "parent_name": "Kafr El Sheikh", "parent_iso": "EG-KFS"}, "geometry": {"type": "Polygon", "coordinates": [[[30.8546, 31.0109], [30.8539, 31.0272], [30.8693, 31.0303], [30.8703, 31.0216], [30.8823, 31.0164], [30.899, 31.0209], [30.9061, 31.0115], [30.9113, 31.0167], [30.9064, 31.043], [30.9126, 31.0558], [30.911, 31.0739], [30.8717, 31.0679], [30.8633, 31.0839], [30.8616, 31.0922], [30.8674, 31.102], [30.8829, 31.1012], [30.8784, 31.1093], [30.8796, 31.12], [30.8695, 31.1397], [30.8256, 31.1457], [30.8179, 31.1565], [30.8043, 31.1611], [30.7967, 31.1546], [30.7676, 31.1481], [30.764, 31.1435], [30.7653, 31.1279], [30.7755, 31.1143], [30.7662, 31.1156], [30.7697, 31.106], [30.7661, 31.1024], [30.7728, 31.0962], [30.7716, 31.0762], [30.8, 31.0141], [30.822, 31.0195], [30.8323, 31.0145], [30.8467, 31.0164], [30.8546, 31.0109]]]}}, {"type": "Feature", "properties": {"osm_type": "relation", "osm_id": 654896660, "name": "Riyad", "admin_level": "6", "kind": "subdivision_2", "parent_osm_id": 4103405, "parent_name": "Kafr El Sheikh", "parent_iso": "EG-KFS"}, "geometry": {"type": "Polygon", "coordinates": [[[30.9578, 31.4336], [30.9441, 31.4552], [30.9331, 31.452], [30.9322, 31.4397], [30.9011, 31.4192], [30.8979, 31.4127], [30.8908, 31.4165], [30.8901, 31.4113], [30.878, 31.4114], [30.8767, 31.4298], [30.8661, 31.4318], [30.8549, 31.4162], [30.8487, 31.4263], [30.848, 31.3933], [30.8385, 31.3611], [30.8484, 31.3131], [30.8564, 31.2999], [30.8742, 31.3064], [30.882, 31.3027], [30.8992, 31.2865], [30.9079, 31.2662], [30.9022, 31.2318], [30.8916, 31.2313], [30.8855, 31.2228], [30.8681, 31.226], [30.8681, 31.2224], [30.8768, 31.2078], [30.8936, 31.2163], [30.9092, 31.217], [30.9073, 31.206], [30.9122, 31.1986], [30.9078, 31.1848], [30.9455, 31.1964], [30.9491, 31.2034], [30.9861, 31.2136], [31.0052, 31.2107], [31.0016, 31.2346], [30.9863, 31.2382], [30.9778, 31.2774], [30.9814, 31.2792], [30.9786, 31.2866], [30.9896, 31.2871], [31.0043, 31.2989], [30.9905, 31.3381], [31.0065, 31.3723], [30.9595, 31.3599], [30.944, 31.4083], [30.9573, 31.4222], [30.9578, 31.4336]]]}}, {"type": "Feature", "properties": {"osm_type": "relation", "osm_id": 663339915, "name": "Sidi Salim", "admin_level": "6", "kind": "subdivision_2", "parent_osm_id": 4103405, "parent_name": "Kafr El Sheikh", "parent_iso": "EG-KFS"}, "geometry": {"type": "MultiPolygon", "coordinates": [[[[30.7919, 31.5389], [30.7128, 31.5119], [30.5616, 31.4702], [30.5765, 31.4304], [30.5953, 31.4293], [30.6146, 31.4372], [30.6171, 31.4424], [30.6484, 31.4409], [30.6851, 31.4593], [30.7001, 31.473], [30.6988, 31.4831], [30.7127, 31.4898], [30.7326, 31.4911], [30.7483, 31.5023], [30.7736, 31.5027], [30.7801, 31.5128], [30.8064, 31.5207], [30.7919, 31.5389]]], [[[30.8027, 31.1943], [30.83, 31.1979], [30.846, 31.2091], [30.8552, 31.2016], [30.8803, 31.1983], [30.8842, 31.2004], [30.8681, 31.226], [30.8855, 31.2228], [30.8916, 31.2313], [30.9022, 31.2318], [30.9051, 31.2367], [30.9035, 31.2518], [30.9079, 31.2662], [30.8992, 31.2865], [30.8742, 31.3064], [30.8564, 31.2999], [30.8484, 31.3131], [30.8385, 31.3611], [30.848, 31.3933], [30.8487, 31.4263], [30.8423, 31.4308], [30.8327, 31.4272], [30.8311, 31.4162], [30.8208, 31.4083], [30.822, 31.4227], [30.7772, 31.4216], [30.7896, 31.4147], [30.7934, 31.4067], [30.8005, 31.4073], [30.7956, 31.4159], [30.8024, 31.4158], [30.8023, 31.4091], [30.8111, 31.4026], [30.8072, 31.3946], [30.7915, 31.3945], [30.7929, 31.3877], [30.7886, 31.3843], [30.7816, 31.3979], [30.7858, 31.3838], [30.7748, 31.3882], [30.7674, 31.4005], [30.7462, 31.4081], [30.7336, 31.3944], [30.7367, 31.3808], [30.725, 31.3779], [30.7147, 31.3823], [30.7106, 31.4047], [30.6986, 31.4091], [30.6846, 31.3905], [30.685, 31.3979], [30.674, 31.3961], [30.6694, 31.3989], [30.6698, 31.4054], [30.663, 31.4017], [30.6597, 31.3907], [30.6398, 31.3893], [30.65, 31.3699], [30.6255, 31.3164], [30.6304, 31.2994], [30.6079, 31.2858], [30.6068, 31.2742], [30.6653, 31.25], [30.6847, 31.2523], [30.7043, 31.2675], [30.7244, 31.2535], [30.7266, 31.2636], [30.7359, 31.2684], [30.7419, 31.2659], [30.7563, 31.2873], [30.7824, 31.2693], [30.7835, 31.2401], [30.7986, 31.2157], [30.807, 31.2104], [30.8027, 31.1943]]]]}}]}