{"type": "FeatureCollection", "parent": {"osm_id": 41256, "name": "Molise", "admin_level": "4", "kind": "subdivision_1", "child_kind": "subdivision_2", "iso": "IT-67"}, "features": [{"type": "Feature", "properties": {"osm_type": "relation", "osm_id": 969416537, "name": "Campobasso", "admin_level": "6", "kind": "subdivision_2", "parent_osm_id": 41256, "parent_name": "Molise", "parent_iso": "IT-67"}, "geometry": {"type": "Polygon", "coordinates": [[[14.5049, 41.3826], [14.5235, 41.3853], [14.5518, 41.3794], [14.5669, 41.3921], [14.5862, 41.3804], [14.5889, 41.3751], [14.5855, 41.3711], [14.603, 41.364], [14.6146, 41.3682], [14.6434, 41.394], [14.6525, 41.3978], [14.6629, 41.3941], [14.6636, 41.407], [14.6985, 41.4112], [14.7166, 41.4008], [14.7539, 41.41], [14.7654, 41.4182], [14.7637, 41.4237], [14.7723, 41.4335], [14.7737, 41.4452], [14.7849, 41.4521], [14.8059, 41.4475], [14.8129, 41.4398], [14.8566, 41.4248], [14.8677, 41.4278], [14.8844, 41.4448], [14.9469, 41.4561], [14.9605, 41.4654], [14.9823, 41.4691], [14.9834, 41.4794], [14.9963, 41.4799], [15.0076, 41.4864], [14.9664, 41.519], [14.9526, 41.524], [14.9451, 41.5218], [14.9372, 41.5275], [14.9374, 41.5498], [14.9501, 41.573], [14.9448, 41.5779], [14.9503, 41.5927], [14.9453, 41.6017], [14.9478, 41.6086], [14.9533, 41.6086], [14.9403, 41.6123], [14.9341, 41.6202], [14.9595, 41.646], [14.9887, 41.6378], [14.9905, 41.6297], [14.9986, 41.6261], [15.0025, 41.6297], [15.0083, 41.6223], [15.0255, 41.6223], [15.0239, 41.63], [15.031, 41.6386], [15.0452, 41.6369], [15.0431, 41.6453], [15.0502, 41.6573], [15.0689, 41.6582], [15.0704, 41.665], [15.0903, 41.6721], [15.0858, 41.6751], [15.0899, 41.6818], [15.0947, 41.6742], [15.1025, 41.6721], [15.1061, 41.6856], [15.1171, 41.6938], [15.1615, 41.7094], [15.1444, 41.7106], [15.1209, 41.7204], [15.1019, 41.7428], [15.1033, 41.749], [15.1165, 41.749], [15.097, 41.7674], [15.101, 41.782], [15.115, 41.7893], [15.1179, 41.8012], [15.115, 41.8174], [15.0999, 41.834], [15.1037, 41.8467], [15.1201, 41.8538], [15.125, 41.871], [15.1418, 41.8795], [15.1313, 41.9], [15.1384, 41.9288], [15.1058, 41.9333], [15.0775, 41.9436], [15.0336, 41.9778], [15.0034, 41.9917], [14.9999, 42.0002], [15.0032, 42.0034], [14.9992, 42.0053], [15.0094, 42.0026], [15.0047, 42.0066], [14.9636, 42.0086], [14.8967, 42.0222], [14.8481, 42.0387], [14.7795, 42.0698], [14.7608, 42.0422], [14.7822, 42.0351], [14.7802, 42.0297], [14.7643, 42.0172], [14.7306, 42.0051], [14.7168, 41.9942], [14.701, 41.9728], [14.6686, 41.9466], [14.6632, 41.9156], [14.6508, 41.9039], [14.6427, 41.9046], [14.6413, 41.8993], [14.6142, 41.8892], [14.599, 41.863], [14.5977, 41.851], [14.5847, 41.8421], [14.568, 41.8181], [14.5508, 41.8166], [14.5394, 41.8025], [14.531, 41.8007], [14.5336, 41.792], [14.5289, 41.787], [14.5063, 41.7774], [14.4853, 41.7597], [14.4762, 41.7458], [14.5188, 41.7268], [14.5212, 41.6995], [14.5012, 41.6857], [14.5024, 41.6783], [14.4935, 41.6714], [14.4843, 41.6806], [14.4697, 41.6783], [14.4544, 41.6647], [14.4337, 41.6716], [14.4292, 41.6682], [14.4335, 41.6564], [14.4242, 41.6408], [14.4287, 41.6371], [14.4487, 41.6467], [14.4601, 41.6367], [14.48, 41.6315], [14.4815, 41.6162], [14.4982, 41.6164], [14.5097, 41.6089], [14.5122, 41.5966], [14.4915, 41.591], [14.4946, 41.5739], [14.4701, 41.5564], [14.4695, 41.5395], [14.4575, 41.5461], [14.4508, 41.5185], [14.4281, 41.5247], [14.404, 41.5089], [14.3918, 41.5077], [14.3778, 41.4514], [14.3825, 41.4433], [14.4009, 41.4372], [14.4144, 41.4411], [14.4276, 41.4291], [14.4553, 41.4278], [14.4659, 41.4198], [14.4773, 41.419], [14.4824, 41.414], [14.4782, 41.4086], [14.4886, 41.3907], [14.5049, 41.3826]]]}}, {"type": "Feature", "properties": {"osm_type": "relation", "osm_id": 316918879, "name": "Isernia", "admin_level": "6", "kind": "subdivision_2", "parent_osm_id": 41256, "parent_name": "Molise", "parent_iso": "IT-67"}, "geometry": {"type": "Polygon", "coordinates": [[[13.9779, 41.4625], [14.007, 41.4519], [14.0086, 41.4419], [14.0007, 41.4309], [14.0057, 41.4246], [14.0166, 41.4241], [14.0266, 41.4167], [14.0278, 41.4061], [14.0352, 41.4034], [14.0424, 41.3928], [14.0848, 41.4], [14.0961, 41.3902], [14.1037, 41.392], [14.1114, 41.3864], [14.1134, 41.3906], [14.1032, 41.4034], [14.1057, 41.4224], [14.0929, 41.4298], [14.0784, 41.4472], [14.0801, 41.4566], [14.0868, 41.4591], [14.0815, 41.465], [14.0967, 41.4733], [14.1042, 41.4845], [14.1132, 41.4868], [14.1105, 41.4919], [14.1184, 41.4966], [14.1208, 41.507], [14.1253, 41.5074], [14.1516, 41.4827], [14.165, 41.4788], [14.1673, 41.4944], [14.1738, 41.5007], [14.1903, 41.4957], [14.2049, 41.4999], [14.2407, 41.4972], [14.2494, 41.4846], [14.2794, 41.4863], [14.2921, 41.4763], [14.2843, 41.4721], [14.3272, 41.4534], [14.3422, 41.4541], [14.3825, 41.4433], [14.3778, 41.4514], [14.3822, 41.4588], [14.3789, 41.4651], [14.3863, 41.4761], [14.3918, 41.5077], [14.404, 41.5089], [14.4281, 41.5247], [14.4508, 41.5185], [14.4575, 41.5461], [14.4695, 41.5395], [14.4701, 41.5564], [14.4946, 41.5739], [14.4915, 41.591], [14.5122, 41.5966], [14.5097, 41.6089], [14.4982, 41.6164], [14.4815, 41.6162], [14.48, 41.6315], [14.4601, 41.6367], [14.4487, 41.6467], [14.4287, 41.6371], [14.4242, 41.6408], [14.4335, 41.6564], [14.4292, 41.6682], [14.4337, 41.6716], [14.4544, 41.6647], [14.4697, 41.6783], [14.4843, 41.6806], [14.4935, 41.6714], [14.5024, 41.6783], [14.5012, 41.6857], [14.5212, 41.6995], [14.5188, 41.7268], [14.4762, 41.7458], [14.4853, 41.7597], [14.4546, 41.7637], [14.467, 41.7771], [14.4547, 41.7958], [14.4442, 41.8398], [14.4303, 41.8409], [14.4254, 41.8531], [14.3974, 41.8697], [14.3789, 41.8659], [14.3767, 41.8799], [14.3614, 41.8746], [14.3645, 41.8688], [14.3581, 41.8599], [14.343, 41.8625], [14.3432, 41.8696], [14.3277, 41.8851], [14.3239, 41.8963], [14.304, 41.8934], [14.2842, 41.9108], [14.2775, 41.9082], [14.2686, 41.8965], [14.2252, 41.8744], [14.2278, 41.8692], [14.2166, 41.8534], [14.201, 41.8515], [14.1949, 41.8476], [14.1986, 41.8437], [14.195, 41.8415], [14.1878, 41.8423], [14.1858, 41.8484], [14.1624, 41.839], [14.1551, 41.8409], [14.1559, 41.8335], [14.1472, 41.8273], [14.1547, 41.8125], [14.159, 41.8157], [14.1645, 41.8099], [14.1715, 41.7784], [14.1768, 41.7737], [14.1943, 41.7734], [14.2019, 41.767], [14.1945, 41.7578], [14.1942, 41.7481], [14.1787, 41.7492], [14.1718, 41.7658], [14.1636, 41.7595], [14.1587, 41.747], [14.1403, 41.7463], [14.1351, 41.742], [14.1219, 41.7465], [14.1153, 41.7369], [14.1233, 41.7261], [14.1072, 41.7074], [14.106, 41.7156], [14.0944, 41.7293], [14.0946, 41.7378], [14.0696, 41.7372], [14.0531, 41.719], [14.0532, 41.7017], [14.0269, 41.7027], [14.0187, 41.6821], [13.9813, 41.6952], [13.9551, 41.6955], [13.941, 41.688], [13.9674, 41.674], [13.9876, 41.656], [13.9967, 41.6241], [14.0118, 41.6083], [14.0086, 41.5995], [14.0119, 41.5895], [14.0044, 41.5877], [13.9989, 41.5745], [14.0041, 41.5666], [14.0237, 41.561], [14.026, 41.5557], [14.0207, 41.5424], [14.0053, 41.5388], [14.0275, 41.5232], [14.0127, 41.5153], [13.9947, 41.5129], [13.9729, 41.494], [13.9928, 41.4821], [13.9805, 41.4718], [13.9779, 41.4625]]]}}]}