{"type": "FeatureCollection", "parent": {"osm_id": 4444908, "name": "Kedah", "admin_level": "4", "kind": "subdivision_1", "child_kind": "subdivision_2", "iso": "MY-02"}, "features": [{"type": "Feature", "properties": {"osm_type": "relation", "osm_id": 167433773, "name": "Bandar Baharu", "admin_level": "6", "kind": "subdivision_2", "parent_osm_id": 4444908, "parent_name": "Kedah", "parent_iso": "MY-02"}, "geometry": {"type": "Polygon", "coordinates": [[[100.7364, 5.3091], [100.724, 5.3115], [100.7219, 5.3302], [100.7121, 5.3373], [100.6888, 5.3283], [100.685, 5.3091], [100.6926, 5.3034], [100.6866, 5.2887], [100.6762, 5.2935], [100.6733, 5.283], [100.6621, 5.2833], [100.6664, 5.2745], [100.649, 5.2653], [100.6509, 5.2745], [100.6416, 5.2785], [100.6364, 5.2577], [100.6324, 5.2582], [100.6328, 5.2392], [100.5671, 5.2617], [100.5524, 5.2596], [100.5474, 5.2515], [100.5386, 5.2484], [100.5507, 5.1432], [100.5399, 5.1382], [100.5087, 5.1453], [100.4953, 5.1405], [100.4912, 5.1327], [100.4988, 5.1185], [100.5071, 5.1267], [100.5182, 5.1183], [100.5108, 5.1096], [100.5127, 5.0952], [100.523, 5.0958], [100.5299, 5.0878], [100.5403, 5.0961], [100.5441, 5.0883], [100.552, 5.0916], [100.5535, 5.0882], [100.5449, 5.0827], [100.5537, 5.0863], [100.5509, 5.0763], [100.5633, 5.0822], [100.5718, 5.0955], [100.5849, 5.0974], [100.5886, 5.1222], [100.6252, 5.14], [100.6316, 5.166], [100.6641, 5.1898], [100.6885, 5.2401], [100.7292, 5.2702], [100.7364, 5.3091]]]}}, {"type": "Feature", "properties": {"osm_type": "relation", "osm_id": 172544751, "name": "Kulim", "admin_level": "6", "kind": "subdivision_2", "parent_osm_id": 4444908, "parent_name": "Kedah", "parent_iso": "MY-02"}, "geometry": {"type": "Polygon", "coordinates": [[[100.8657, 5.4266], [100.8142, 5.3949], [100.8023, 5.4018], [100.7992, 5.4141], [100.7576, 5.4051], [100.7457, 5.4084], [100.7373, 5.4169], [100.7269, 5.4172], [100.7254, 5.4425], [100.7097, 5.4451], [100.709, 5.452], [100.7002, 5.4563], [100.6981, 5.4724], [100.7071, 5.4814], [100.7097, 5.4942], [100.7, 5.501], [100.6979, 5.5098], [100.6855, 5.523], [100.6797, 5.5451], [100.6503, 5.5525], [100.6373, 5.5677], [100.6261, 5.5602], [100.6165, 5.5602], [100.6113, 5.5514], [100.5975, 5.5551], [100.5938, 5.5469], [100.5724, 5.5409], [100.5738, 5.5337], [100.5671, 5.5304], [100.5664, 5.5368], [100.556, 5.5368], [100.5586, 5.5472], [100.5426, 5.5513], [100.5443, 5.5605], [100.5386, 5.5648], [100.5294, 5.5573], [100.5236, 5.3679], [100.5386, 5.2484], [100.5474, 5.2515], [100.5524, 5.2596], [100.5671, 5.2617], [100.6328, 5.2392], [100.6324, 5.2582], [100.6364, 5.2577], [100.6416, 5.2785], [100.6509, 5.2745], [100.649, 5.2653], [100.6664, 5.2745], [100.6621, 5.2833], [100.6733, 5.283], [100.6762, 5.2935], [100.6866, 5.2887], [100.6926, 5.3034], [100.685, 5.3091], [100.6888, 5.3283], [100.7121, 5.3373], [100.7219, 5.3302], [100.724, 5.3115], [100.7364, 5.3091], [100.7408, 5.3177], [100.7844, 5.3165], [100.7891, 5.3229], [100.8129, 5.3246], [100.8193, 5.3339], [100.8491, 5.3548], [100.8537, 5.3882], [100.8609, 5.3972], [100.8518, 5.409], [100.8657, 5.4266]]]}}, {"type": "Feature", "properties": {"osm_type": "relation", "osm_id": 552116974, "name": "Baling", "admin_level": "6", "kind": "subdivision_2", "parent_osm_id": 4444908, "parent_name": "Kedah", "parent_iso": "MY-02"}, "geometry": {"type": "Polygon", "coordinates": [[[101.0092, 5.7602], [101.0214, 5.7533], [101.0171, 5.7659], [100.988, 5.7912], [100.9853, 5.8048], [101.0062, 5.8373], [101.0171, 5.8888], [101.0289, 5.9159], [101.0525, 5.9159], [101.067, 5.9213], [101.0852, 5.9132], [101.0943, 5.9439], [101.1188, 5.971], [101.1224, 5.98], [101.1043, 5.9981], [101.1133, 6.0306], [101.1097, 6.0405], [101.0947, 6.0509], [100.9977, 6.0468], [100.9884, 6.0445], [100.9814, 6.033], [100.9582, 6.0387], [100.8844, 6.0012], [100.8669, 5.9821], [100.8896, 5.9457], [100.8972, 5.9064], [100.8896, 5.8821], [100.8919, 5.8694], [100.8761, 5.83], [100.8809, 5.8204], [100.8805, 5.7916], [100.8627, 5.7716], [100.8593, 5.7612], [100.8794, 5.7383], [100.8876, 5.736], [100.8842, 5.7187], [100.8705, 5.7168], [100.872, 5.7053], [100.8671, 5.6961], [100.8593, 5.7227], [100.8537, 5.7227], [100.8459, 5.7127], [100.8348, 5.7194], [100.8214, 5.7164], [100.8006, 5.7212], [100.7816, 5.7127], [100.7716, 5.719], [100.7411, 5.7187], [100.7265, 5.7061], [100.7165, 5.7039], [100.7176, 5.6935], [100.7068, 5.6976], [100.6968, 5.6861], [100.6771, 5.6979], [100.6704, 5.7094], [100.6704, 5.7457], [100.6633, 5.7597], [100.654, 5.7316], [100.6537, 5.7072], [100.647, 5.6987], [100.657, 5.6946], [100.6633, 5.6776], [100.6708, 5.6728], [100.6607, 5.6495], [100.6644, 5.6339], [100.6537, 5.6139], [100.6444, 5.6202], [100.6406, 5.6117], [100.622, 5.6117], [100.6287, 5.5995], [100.6187, 5.5991], [100.6133, 5.5776], [100.6178, 5.5698], [100.61, 5.565], [100.6055, 5.5515], [100.6373, 5.5677], [100.6503, 5.5525], [100.6797, 5.5451], [100.6855, 5.523], [100.6979, 5.5098], [100.7, 5.501], [100.7097, 5.4942], [100.7071, 5.4814], [100.6981, 5.4724], [100.7002, 5.4563], [100.709, 5.452], [100.7097, 5.4451], [100.7254, 5.4425], [100.7269, 5.4172], [100.7373, 5.4169], [100.7457, 5.4084], [100.7576, 5.4051], [100.7992, 5.4141], [100.8023, 5.4018], [100.8142, 5.3949], [100.8669, 5.4282], [100.8675, 5.4634], [100.8751, 5.4785], [100.8832, 5.482], [100.8821, 5.4929], [100.8879, 5.4982], [100.907, 5.4918], [100.9198, 5.4987], [100.9309, 5.5126], [100.9326, 5.5317], [100.9425, 5.5491], [100.9349, 5.5595], [100.9355, 5.571], [100.9442, 5.5814], [100.9437, 5.5884], [100.9309, 5.5913], [100.9233, 5.6028], [100.9251, 5.6104], [100.9454, 5.6294], [100.9402, 5.6439], [100.9425, 5.6491], [100.9541, 5.6439], [100.9666, 5.6515], [100.9808, 5.7024], [100.9752, 5.7179], [100.9525, 5.7405], [100.9454, 5.7574], [100.9468, 5.7701], [100.961, 5.7772], [100.9766, 5.7758], [101.0092, 5.7602]]]}}, {"type": "Feature", "properties": {"osm_type": "relation", "osm_id": 443384563, "name": "Kuala Muda", "admin_level": "6", "kind": "subdivision_2", "parent_osm_id": 4444908, "parent_name": "Kedah", "parent_iso": "MY-02"}, "geometry": {"type": "Polygon", "coordinates": [[[100.5294, 5.5573], [100.5407, 5.5655], [100.5426, 5.5513], [100.5586, 5.5472], [100.556, 5.5368], [100.5726, 5.5318], [100.5724, 5.5409], [100.5938, 5.5469], [100.5975, 5.5551], [100.6055, 5.5515], [100.61, 5.565], [100.6178, 5.5698], [100.6133, 5.5776], [100.6187, 5.5991], [100.6287, 5.5995], [100.622, 5.6117], [100.6406, 5.6117], [100.6444, 5.6202], [100.6537, 5.6139], [100.6644, 5.6339], [100.6607, 5.6495], [100.6708, 5.6728], [100.6633, 5.6776], [100.657, 5.6946], [100.647, 5.6987], [100.6537, 5.7072], [100.654, 5.7316], [100.6633, 5.7597], [100.647, 5.7782], [100.6507, 5.7871], [100.6458, 5.7904], [100.6325, 5.7879], [100.6358, 5.7978], [100.625, 5.806], [100.6328, 5.8134], [100.6284, 5.8245], [100.6209, 5.8286], [100.6042, 5.8271], [100.602, 5.8415], [100.5796, 5.8415], [100.5591, 5.8488], [100.5198, 5.8641], [100.5195, 5.872], [100.4915, 5.8679], [100.491, 5.8604], [100.4648, 5.8672], [100.47, 5.8502], [100.4612, 5.8492], [100.4662, 5.8431], [100.4622, 5.8376], [100.4405, 5.8252], [100.4439, 5.8175], [100.4365, 5.8071], [100.4383, 5.7953], [100.4026, 5.7538], [100.3903, 5.7205], [100.3539, 5.7183], [100.3515, 5.7023], [100.3591, 5.6826], [100.38, 5.6774], [100.3835, 5.6659], [100.4015, 5.6532], [100.3846, 5.6537], [100.373, 5.6699], [100.355, 5.6641], [100.3445, 5.6745], [100.3317, 5.6578], [100.3422, 5.6485], [100.3398, 5.5776], [100.3627, 5.574], [100.371, 5.5847], [100.3798, 5.5807], [100.3839, 5.584], [100.4234, 5.5636], [100.4458, 5.5669], [100.4477, 5.5622], [100.4531, 5.5688], [100.4857, 5.5622], [100.4881, 5.5707], [100.5059, 5.5668], [100.5093, 5.5596], [100.5237, 5.5593], [100.5234, 5.5501], [100.5294, 5.5573]]]}}, {"type": "Feature", "properties": {"osm_type": "relation", "osm_id": 648560214, "name": "Yan", "admin_level": "6", "kind": "subdivision_2", "parent_osm_id": 4444908, "parent_name": "Kedah", "parent_iso": "MY-02"}, "geometry": {"type": "MultiPolygon", "coordinates": [[[[100.2875, 5.7431], [100.2844, 5.7537], [100.2875, 5.7431]]], [[[100.2947, 5.8145], [100.292, 5.8101], [100.296, 5.8098], [100.2947, 5.8145]]], [[[100.3311, 5.8795], [100.3263, 5.8813], [100.3175, 5.8747], [100.3279, 5.8745], [100.3353, 5.8781], [100.3311, 5.8795]]], [[[100.464, 5.8662], [100.4491, 5.8987], [100.4538, 5.9053], [100.4531, 5.924], [100.4239, 5.9671], [100.4165, 5.9719], [100.3896, 5.97], [100.387, 5.979], [100.3594, 5.969], [100.3503, 5.9735], [100.3567, 5.8862], [100.3538, 5.8775], [100.3678, 5.8145], [100.3631, 5.7601], [100.3585, 5.7503], [100.362, 5.7416], [100.3539, 5.7183], [100.3903, 5.7205], [100.4026, 5.7538], [100.4383, 5.7953], [100.4365, 5.8071], [100.4439, 5.8175], [100.4405, 5.8252], [100.4622, 5.8376], [100.4662, 5.8431], [100.4612, 5.8492], [100.47, 5.8502], [100.464, 5.8662]]]]}}, {"type": "Feature", "properties": {"osm_type": "relation", "osm_id": 301075428, "name": "Pendang", "admin_level": "6", "kind": "subdivision_2", "parent_osm_id": 4444908, "parent_name": "Kedah", "parent_iso": "MY-02"}, "geometry": {"type": "Polygon", "coordinates": [[[100.6019, 5.8408], [100.6161, 5.8733], [100.6131, 5.8963], [100.6284, 5.9092], [100.6295, 5.9199], [100.6388, 5.924], [100.6595, 5.959], [100.6949, 5.9861], [100.6973, 5.9931], [100.6851, 6.0133], [100.6583, 6.0312], [100.6512, 6.0554], [100.6424, 6.0604], [100.6371, 6.0772], [100.6455, 6.1061], [100.6419, 6.1132], [100.6278, 6.1122], [100.6231, 6.1184], [100.609, 6.1189], [100.6034, 6.1171], [100.6012, 6.1097], [100.5748, 6.1071], [100.5644, 6.1108], [100.5573, 6.1049], [100.5425, 6.1049], [100.5172, 6.0764], [100.5056, 6.083], [100.474, 6.0797], [100.4722, 6.0745], [100.4644, 6.0731], [100.4591, 6.0509], [100.4432, 6.042], [100.3859, 6.0431], [100.4095, 5.9717], [100.4239, 5.9671], [100.4531, 5.924], [100.4538, 5.9053], [100.4491, 5.8987], [100.464, 5.8662], [100.4729, 5.8679], [100.491, 5.8604], [100.4915, 5.8679], [100.5195, 5.872], [100.5198, 5.8641], [100.5591, 5.8488], [100.5796, 5.8415], [100.6019, 5.8408]]]}}, {"type": "Feature", "properties": {"osm_type": "relation", "osm_id": 871439770, "name": "Sik", "admin_level": "6", "kind": "subdivision_2", "parent_osm_id": 4444908, "parent_name": "Kedah", "parent_iso": "MY-02"}, "geometry": {"type": "Polygon", "coordinates": [[[101.0947, 6.0509], [101.1157, 6.0775], [101.1151, 6.0902], [101.1261, 6.0965], [101.1244, 6.1075], [101.1215, 6.1133], [101.1075, 6.1139], [101.0947, 6.1277], [101.0575, 6.1404], [101.061, 6.1514], [101.0744, 6.1607], [101.0744, 6.1687], [101.1133, 6.1832], [101.1244, 6.1942], [101.1157, 6.2069], [101.1157, 6.2202], [101.104, 6.2369], [101.1104, 6.2502], [101.088, 6.2598], [101.0616, 6.2583], [101.0386, 6.2469], [101.0111, 6.2498], [101.004, 6.2598], [100.9966, 6.2609], [100.9809, 6.2775], [100.9672, 6.2846], [100.9668, 6.2731], [100.9501, 6.2642], [100.9434, 6.2439], [100.93, 6.2424], [100.9188, 6.2491], [100.9018, 6.2352], [100.8733, 6.2623], [100.8704, 6.2415], [100.8547, 6.2306], [100.8547, 6.1959], [100.86, 6.1722], [100.853, 6.1578], [100.8483, 6.1531], [100.8129, 6.1549], [100.8053, 6.1612], [100.8059, 6.1202], [100.7879, 6.0936], [100.7882, 6.0709], [100.7812, 6.0694], [100.7849, 6.0615], [100.7759, 6.0586], [100.7743, 6.0513], [100.7686, 6.0598], [100.7655, 6.0535], [100.7544, 6.0498], [100.7513, 6.0447], [100.7547, 6.0357], [100.7484, 6.0301], [100.741, 6.0301], [100.7363, 6.038], [100.7297, 6.0216], [100.734, 6.0177], [100.7297, 6.0124], [100.7323, 6.0082], [100.7267, 6.0023], [100.7318, 6.0026], [100.7294, 5.9951], [100.737, 5.996], [100.7349, 5.9854], [100.7166, 5.9756], [100.7178, 5.9592], [100.7017, 5.9598], [100.6995, 5.9677], [100.6883, 5.9701], [100.683, 5.9778], [100.6595, 5.959], [100.6388, 5.924], [100.6295, 5.9199], [100.6284, 5.9092], [100.6113, 5.8922], [100.6161, 5.8733], [100.612, 5.8593], [100.6049, 5.8526], [100.6023, 5.8297], [100.6284, 5.8245], [100.6328, 5.8134], [100.625, 5.806], [100.6358, 5.7978], [100.6325, 5.7879], [100.6458, 5.7904], [100.6507, 5.7871], [100.647, 5.7782], [100.6499, 5.7719], [100.657, 5.7708], [100.6704, 5.7457], [100.6704, 5.7094], [100.6771, 5.6979], [100.6968, 5.6861], [100.7068, 5.6976], [100.7176, 5.6935], [100.7165, 5.7039], [100.7265, 5.7061], [100.7411, 5.7187], [100.7716, 5.719], [100.7816, 5.7127], [100.8006, 5.7212], [100.8214, 5.7164], [100.8348, 5.7194], [100.8459, 5.7127], [100.8537, 5.7227], [100.8623, 5.7187], [100.8671, 5.6961], [100.8701, 5.6983], [100.8705, 5.7168], [100.8842, 5.7187], [100.8883, 5.7331], [100.8593, 5.7612], [100.8627, 5.7716], [100.8805, 5.7916], [100.8809, 5.8204], [100.8761, 5.83], [100.8919, 5.8694], [100.8896, 5.8821], [100.8972, 5.9064], [100.8896, 5.9457], [100.8669, 5.9821], [100.8699, 5.9879], [100.8844, 6.0012], [100.9582, 6.0387], [100.9814, 6.033], [100.9884, 6.0445], [100.9977, 6.0468], [101.0947, 6.0509]]]}}, {"type": "Feature", "properties": {"osm_type": "relation", "osm_id": 699279576, "name": "Kota Setar", "admin_level": "6", "kind": "subdivision_2", "parent_osm_id": 4444908, "parent_name": "Kedah", "parent_iso": "MY-02"}, "geometry": {"type": "Polygon", "coordinates": [[[100.4095, 5.9717], [100.3859, 6.0431], [100.4432, 6.042], [100.4617, 6.0542], [100.4644, 6.0731], [100.4722, 6.0745], [100.4736, 6.085], [100.4593, 6.0829], [100.4427, 6.1092], [100.4396, 6.1312], [100.4408, 6.1347], [100.4486, 6.1309], [100.4524, 6.1371], [100.4523, 6.1566], [100.4651, 6.1633], [100.4657, 6.1822], [100.4723, 6.1839], [100.4707, 6.1942], [100.4566, 6.2173], [100.45, 6.2125], [100.4378, 6.2179], [100.4366, 6.2125], [100.432, 6.2152], [100.4322, 6.2055], [100.4167, 6.2007], [100.403, 6.204], [100.3982, 6.2106], [100.3747, 6.2114], [100.3461, 6.231], [100.2803, 6.223], [100.2865, 6.2213], [100.2801, 6.2078], [100.2822, 6.2029], [100.2568, 6.1815], [100.2725, 6.152], [100.2847, 6.0948], [100.3114, 6.0682], [100.3277, 6.0387], [100.3503, 5.9735], [100.3594, 5.969], [100.387, 5.979], [100.3896, 5.97], [100.4095, 5.9717]]]}}, {"type": "Feature", "properties": {"osm_type": "relation", "osm_id": 406281902, "name": "Pokok Sena", "admin_level": "6", "kind": "subdivision_2", "parent_osm_id": 4444908, "parent_name": "Kedah", "parent_iso": "MY-02"}, "geometry": {"type": "Polygon", "coordinates": [[[100.6409, 6.113], [100.6369, 6.1393], [100.6183, 6.1559], [100.596, 6.1633], [100.6027, 6.1762], [100.5893, 6.1977], [100.583, 6.2276], [100.5652, 6.2152], [100.5439, 6.1907], [100.5178, 6.234], [100.51, 6.2557], [100.5027, 6.2547], [100.5017, 6.2491], [100.4905, 6.2544], [100.4767, 6.2422], [100.4784, 6.2351], [100.4707, 6.2376], [100.4669, 6.2331], [100.473, 6.2173], [100.4596, 6.2103], [100.4707, 6.1942], [100.4723, 6.1839], [100.4657, 6.1822], [100.4651, 6.1633], [100.4523, 6.1566], [100.4486, 6.1309], [100.4408, 6.1347], [100.4396, 6.1312], [100.4427, 6.1092], [100.4593, 6.0829], [100.4715, 6.0857], [100.4803, 6.079], [100.5056, 6.083], [100.5172, 6.0764], [100.5425, 6.1049], [100.5573, 6.1049], [100.5644, 6.1108], [100.5748, 6.1071], [100.6012, 6.1097], [100.6034, 6.1171], [100.609, 6.1189], [100.6231, 6.1184], [100.6278, 6.1122], [100.6409, 6.113]]]}}, {"type": "Feature", "properties": {"osm_type": "relation", "osm_id": 113954201, "name": "Padang Terap", "admin_level": "6", "kind": "subdivision_2", "parent_osm_id": 4444908, "parent_name": "Kedah", "parent_iso": "MY-02"}, "geometry": {"type": "Polygon", "coordinates": [[[100.683, 5.9778], [100.6883, 5.9701], [100.6995, 5.9677], [100.7017, 5.9598], [100.7178, 5.9592], [100.7166, 5.9756], [100.7349, 5.9854], [100.737, 5.996], [100.7294, 5.9951], [100.7318, 6.0026], [100.7267, 6.0023], [100.7323, 6.0082], [100.7297, 6.0124], [100.734, 6.0177], [100.7297, 6.0216], [100.7363, 6.038], [100.741, 6.0301], [100.7484, 6.0301], [100.7547, 6.0357], [100.7513, 6.0447], [100.7544, 6.0498], [100.7655, 6.0535], [100.7686, 6.0598], [100.7743, 6.0513], [100.7759, 6.0586], [100.7849, 6.0615], [100.7812, 6.0694], [100.7882, 6.0709], [100.7879, 6.0936], [100.8059, 6.1202], [100.8053, 6.1612], [100.8129, 6.1549], [100.8483, 6.1531], [100.86, 6.1722], [100.8547, 6.1959], [100.8547, 6.2306], [100.8344, 6.2877], [100.8344, 6.2958], [100.8495, 6.3103], [100.8385, 6.3207], [100.8373, 6.3357], [100.821, 6.353], [100.8234, 6.4021], [100.8123, 6.4414], [100.7902, 6.4483], [100.7763, 6.461], [100.7501, 6.4587], [100.7414, 6.4777], [100.7408, 6.5055], [100.7362, 6.5101], [100.7066, 6.4697], [100.6845, 6.4639], [100.6833, 6.4581], [100.6572, 6.4471], [100.6444, 6.4471], [100.6455, 6.4564], [100.6165, 6.4604], [100.6107, 6.4691], [100.5979, 6.4708], [100.5944, 6.4754], [100.5909, 6.4316], [100.581, 6.4356], [100.5683, 6.4287], [100.561, 6.394], [100.519, 6.3796], [100.5168, 6.3618], [100.5038, 6.3507], [100.5012, 6.3382], [100.5094, 6.3271], [100.5049, 6.3215], [100.5283, 6.2968], [100.5187, 6.2749], [100.5231, 6.2642], [100.5108, 6.2591], [100.5103, 6.2519], [100.5385, 6.1974], [100.5439, 6.1907], [100.5652, 6.2152], [100.583, 6.2276], [100.5893, 6.1977], [100.6027, 6.1762], [100.596, 6.1633], [100.6183, 6.1559], [100.6403, 6.1348], [100.638, 6.1234], [100.6455, 6.1061], [100.6374, 6.0725], [100.6424, 6.0604], [100.6512, 6.0554], [100.6583, 6.0312], [100.6851, 6.0133], [100.6961, 5.9983], [100.6949, 5.9861], [100.683, 5.9778]]]}}, {"type": "Feature", "properties": {"osm_type": "relation", "osm_id": 917361521, "name": "Kubang Pasu", "admin_level": "6", "kind": "subdivision_2", "parent_osm_id": 4444908, "parent_name": "Kedah", "parent_iso": "MY-02"}, "geometry": {"type": "Polygon", "coordinates": [[[100.4596, 6.2103], [100.473, 6.2173], [100.4669, 6.2331], [100.4707, 6.2376], [100.4784, 6.2351], [100.4767, 6.2422], [100.4838, 6.2494], [100.4905, 6.2544], [100.5017, 6.2491], [100.5027, 6.2547], [100.5102, 6.2539], [100.5108, 6.2591], [100.5231, 6.2642], [100.5187, 6.2749], [100.5283, 6.2968], [100.5049, 6.3215], [100.5094, 6.3271], [100.5012, 6.3382], [100.5038, 6.3507], [100.5168, 6.3618], [100.519, 6.3796], [100.561, 6.394], [100.5683, 6.4287], [100.581, 6.4356], [100.5909, 6.4316], [100.5944, 6.4754], [100.57, 6.486], [100.5633, 6.4952], [100.5473, 6.4864], [100.5413, 6.4919], [100.5287, 6.4882], [100.5138, 6.4919], [100.4952, 6.5078], [100.4922, 6.513], [100.4963, 6.5204], [100.4904, 6.5255], [100.4703, 6.5215], [100.4595, 6.5314], [100.4201, 6.5189], [100.4034, 6.5344], [100.3885, 6.5351], [100.3732, 6.5447], [100.3648, 6.5411], [100.3508, 6.5731], [100.3484, 6.5672], [100.3539, 6.553], [100.3703, 6.5298], [100.3632, 6.4543], [100.3075, 6.4104], [100.2791, 6.3694], [100.2551, 6.3477], [100.2512, 6.3367], [100.2048, 6.2908], [100.2033, 6.2664], [100.1932, 6.252], [100.2115, 6.2435], [100.2356, 6.2225], [100.2568, 6.1815], [100.2822, 6.2029], [100.2801, 6.2078], [100.2865, 6.2213], [100.2803, 6.223], [100.3461, 6.231], [100.3747, 6.2114], [100.3982, 6.2106], [100.403, 6.204], [100.4167, 6.2007], [100.4322, 6.2055], [100.432, 6.2152], [100.4366, 6.2125], [100.4378, 6.2179], [100.45, 6.2125], [100.4566, 6.2173], [100.4596, 6.2103]]]}}]}