{"type": "FeatureCollection", "parent": {"osm_id": 5143590, "name": "Setúbal", "admin_level": "6", "kind": "subdivision_1", "child_kind": "subdivision_2", "iso": "PT-15"}, "features": [{"type": "Feature", "properties": {"osm_type": "relation", "osm_id": 346612910, "name": "Santiago do Cacem", "admin_level": "6", "kind": "subdivision_2", "parent_osm_id": 5143590, "parent_name": "Setúbal", "parent_iso": "PT-15"}, "geometry": {"type": "Polygon", "coordinates": [[[-8.3551, 37.8782], [-8.3217, 37.9208], [-8.2877, 37.9345], [-8.3011, 37.9857], [-8.3114, 38.0182], [-8.3474, 38.0465], [-8.4117, 38.087], [-8.4547, 38.0483], [-8.5043, 38.0546], [-8.5403, 38.0728], [-8.6021, 38.0951], [-8.6664, 38.1457], [-8.7024, 38.1235], [-8.795, 38.1255], [-8.8259, 38.0708], [-8.8093, 38.0298], [-8.7204, 37.9715], [-8.6921, 37.9452], [-8.7204, 37.8091], [-8.6715, 37.7746], [-8.5918, 37.7705], [-8.5712, 37.8091], [-8.551, 37.8164], [-8.5558, 37.8619], [-8.4014, 37.8701], [-8.3551, 37.8782]]]}}, {"type": "Feature", "properties": {"osm_type": "relation", "osm_id": 439978874, "name": "Sines", "admin_level": "6", "kind": "subdivision_2", "parent_osm_id": 5143590, "parent_name": "Setúbal", "parent_iso": "PT-15"}, "geometry": {"type": "Polygon", "coordinates": [[[-8.7204, 37.8091], [-8.6921, 37.9452], [-8.7204, 37.9715], [-8.8093, 38.0298], [-8.849, 38.0222], [-8.8876, 37.9695], [-8.7976, 37.9553], [-8.7898, 37.8213], [-8.7204, 37.8091]]]}}, {"type": "Feature", "properties": {"osm_type": "relation", "osm_id": 864257480, "name": "Grandola", "admin_level": "6", "kind": "subdivision_2", "parent_osm_id": 5143590, "parent_name": "Setúbal", "parent_iso": "PT-15"}, "geometry": {"type": "Polygon", "coordinates": [[[-8.4117, 38.087], [-8.4061, 38.1146], [-8.3523, 38.1176], [-8.3535, 38.16], [-8.2843, 38.2156], [-8.253, 38.2298], [-8.438, 38.2434], [-8.4831, 38.2698], [-8.6187, 38.2934], [-8.6496, 38.3163], [-8.6752, 38.3003], [-8.7305, 38.3096], [-8.7597, 38.3325], [-8.7924, 38.408], [-8.789, 38.431], [-8.8678, 38.4999], [-8.9163, 38.5212], [-8.8888, 38.4727], [-8.8423, 38.4485], [-8.801, 38.3703], [-8.7907, 38.3393], [-8.7924, 38.3042], [-8.7752, 38.2704], [-8.7787, 38.1893], [-8.795, 38.1255], [-8.7024, 38.1235], [-8.6664, 38.1457], [-8.6021, 38.0951], [-8.5403, 38.0728], [-8.5043, 38.0546], [-8.4547, 38.0483], [-8.4117, 38.087]]]}}, {"type": "Feature", "properties": {"osm_type": "relation", "osm_id": 469105952, "name": "Alcacer do Sal", "admin_level": "6", "kind": "subdivision_2", "parent_osm_id": 5143590, "parent_name": "Setúbal", "parent_iso": "PT-15"}, "geometry": {"type": "Polygon", "coordinates": [[[-8.1345, 38.2311], [-8.1493, 38.2549], [-8.1247, 38.2642], [-8.1442, 38.3134], [-8.1699, 38.3498], [-8.3297, 38.404], [-8.3395, 38.5153], [-8.4036, 38.5777], [-8.4243, 38.5602], [-8.4551, 38.554], [-8.4845, 38.575], [-8.5241, 38.5723], [-8.541, 38.5495], [-8.586, 38.5737], [-8.6376, 38.575], [-8.6909, 38.5629], [-8.7185, 38.5387], [-8.7305, 38.5131], [-8.7185, 38.4795], [-8.6875, 38.4646], [-8.6909, 38.4498], [-8.7253, 38.4363], [-8.789, 38.431], [-8.7924, 38.408], [-8.7597, 38.3325], [-8.7305, 38.3096], [-8.6752, 38.3003], [-8.6496, 38.3163], [-8.6187, 38.2934], [-8.4831, 38.2698], [-8.438, 38.2434], [-8.253, 38.2298], [-8.1938, 38.235], [-8.1345, 38.2311]]]}}, {"type": "Feature", "properties": {"osm_type": "relation", "osm_id": 543661433, "name": "Palmela", "admin_level": "6", "kind": "subdivision_2", "parent_osm_id": 5143590, "parent_name": "Setúbal", "parent_iso": "PT-15"}, "geometry": {"type": "Polygon", "coordinates": [[[-8.6643, 38.569], [-8.6422, 38.6721], [-8.7699, 38.7268], [-8.715, 38.7455], [-8.7449, 38.7756], [-8.81, 38.7853], [-8.8275, 38.76], [-8.8275, 38.7326], [-8.8874, 38.6904], [-8.9302, 38.6936], [-8.9877, 38.6525], [-9.0153, 38.6212], [-9.0153, 38.586], [-8.9602, 38.5547], [-8.9251, 38.5664], [-8.8701, 38.5938], [-8.8175, 38.5801], [-8.7674, 38.6095], [-8.7574, 38.5606], [-8.7179, 38.5392], [-8.6909, 38.5629], [-8.6643, 38.569]]]}}, {"type": "Feature", "properties": {"osm_type": "relation", "osm_id": 486133343, "name": "Montijo", "admin_level": "6", "kind": "subdivision_2", "parent_osm_id": 5143590, "parent_name": "Setúbal", "parent_iso": "PT-15"}, "geometry": {"type": "Polygon", "coordinates": [[[-8.5517, 38.8137], [-8.6372, 38.8653], [-8.6711, 38.8543], [-8.7324, 38.8751], [-8.7524, 38.801], [-8.7449, 38.7756], [-8.715, 38.7455], [-8.7699, 38.7268], [-8.6422, 38.6721], [-8.5972, 38.7072], [-8.5393, 38.7222], [-8.5196, 38.7463], [-8.5237, 38.7995], [-8.5517, 38.8137]]]}}, {"type": "Feature", "properties": {"osm_type": "relation", "osm_id": 471216295, "name": "Setubul", "admin_level": "6", "kind": "subdivision_2", "parent_osm_id": 5143590, "parent_name": "Setúbal", "parent_iso": "PT-15"}, "geometry": {"type": "Polygon", "coordinates": [[[-9.0153, 38.586], [-9.0578, 38.5469], [-9.0337, 38.5182], [-9.0403, 38.494], [-9.0078, 38.4724], [-8.9727, 38.5057], [-8.8897, 38.533], [-8.7975, 38.494], [-8.7674, 38.5312], [-8.7574, 38.5606], [-8.7674, 38.6095], [-8.8175, 38.5801], [-8.8701, 38.5938], [-8.9251, 38.5664], [-8.9602, 38.5547], [-9.0153, 38.586]]]}}, {"type": "Feature", "properties": {"osm_type": "relation", "osm_id": 375181529, "name": "Sesimbra", "admin_level": "6", "kind": "subdivision_2", "parent_osm_id": 5143590, "parent_name": "Setúbal", "parent_iso": "PT-15"}, "geometry": {"type": "Polygon", "coordinates": [[[-9.0748, 38.5822], [-9.1842, 38.5752], [-9.181, 38.5176], [-9.1853, 38.4508], [-9.2275, 38.4172], [-9.2131, 38.4084], [-9.1634, 38.4247], [-9.1313, 38.4411], [-9.0512, 38.4498], [-9.0078, 38.4724], [-9.0403, 38.494], [-9.0337, 38.5182], [-9.0578, 38.5469], [-9.0153, 38.586], [-9.0748, 38.5822]]]}}, {"type": "Feature", "properties": {"osm_type": "relation", "osm_id": 417593041, "name": "Almada", "admin_level": "6", "kind": "subdivision_2", "parent_osm_id": 5143590, "parent_name": "Setúbal", "parent_iso": "PT-15"}, "geometry": {"type": "Polygon", "coordinates": [[[-9.131, 38.5786], [-9.1762, 38.6015], [-9.181, 38.6266], [-9.1762, 38.6466], [-9.1587, 38.6607], [-9.1709, 38.6893], [-9.2205, 38.6805], [-9.2511, 38.6673], [-9.259, 38.673], [-9.2766, 38.663], [-9.3087, 38.6592], [-9.291, 38.6417], [-9.2686, 38.6405], [-9.259, 38.6255], [-9.2318, 38.6079], [-9.2237, 38.5829], [-9.1997, 38.5691], [-9.1847, 38.5701], [-9.1842, 38.5752], [-9.131, 38.5786]]]}}, {"type": "Feature", "properties": {"osm_type": "relation", "osm_id": 510155332, "name": "Seixal", "admin_level": "6", "kind": "subdivision_2", "parent_osm_id": 5143590, "parent_name": "Setúbal", "parent_iso": "PT-15"}, "geometry": {"type": "Polygon", "coordinates": [[[-9.0748, 38.5822], [-9.056, 38.6003], [-9.0592, 38.6316], [-9.0769, 38.6566], [-9.0993, 38.6716], [-9.1587, 38.6607], [-9.1762, 38.6466], [-9.181, 38.6266], [-9.1762, 38.6015], [-9.131, 38.5786], [-9.0748, 38.5822]]]}}, {"type": "Feature", "properties": {"osm_type": "relation", "osm_id": 565219522, "name": "Barriero", "admin_level": "6", "kind": "subdivision_2", "parent_osm_id": 5143590, "parent_name": "Setúbal", "parent_iso": "PT-15"}, "geometry": {"type": "Polygon", "coordinates": [[[-9.0024, 38.6359], [-9.016, 38.6591], [-9.0458, 38.6636], [-9.0576, 38.6879], [-9.0993, 38.6716], [-9.0769, 38.6566], [-9.0592, 38.6316], [-9.056, 38.6003], [-9.0748, 38.5822], [-9.0153, 38.586], [-9.0153, 38.6212], [-9.0024, 38.6359]]]}}, {"type": "Feature", "properties": {"osm_type": "relation", "osm_id": 767582053, "name": "Moita", "admin_level": "6", "kind": "subdivision_2", "parent_osm_id": 5143590, "parent_name": "Setúbal", "parent_iso": "PT-15"}, "geometry": {"type": "Polygon", "coordinates": [[[-8.9552, 38.674], [-8.9663, 38.6941], [-8.9843, 38.6929], [-8.9983, 38.7266], [-9.0304, 38.7229], [-9.048, 38.7504], [-9.0576, 38.6879], [-9.0458, 38.6636], [-9.016, 38.6591], [-9.0024, 38.6359], [-8.9877, 38.6525], [-8.9552, 38.674]]]}}, {"type": "Feature", "properties": {"osm_type": "relation", "osm_id": 692872772, "name": "Montijo", "admin_level": "6", "kind": "subdivision_2", "parent_osm_id": 5143590, "parent_name": "Setúbal", "parent_iso": "PT-15"}, "geometry": {"type": "Polygon", "coordinates": [[[-8.9302, 38.6936], [-8.9262, 38.7216], [-8.9487, 38.7429], [-9.048, 38.7504], [-9.0304, 38.7229], [-8.9983, 38.7266], [-8.9843, 38.6929], [-8.9663, 38.6941], [-8.9552, 38.674], [-8.9302, 38.6936]]]}}]}