{"type": "FeatureCollection", "parent": {"osm_id": 516886091, "name": "Moravian-Silesian", "admin_level": "4", "kind": "subdivision_1", "child_kind": "subdivision_2", "iso": "CZ-MO"}, "features": [{"type": "Feature", "properties": {"osm_type": "relation", "osm_id": 694696465, "name": "Nový Jičín", "admin_level": "6", "kind": "subdivision_2", "parent_osm_id": 516886091, "parent_name": "Moravian-Silesian", "parent_iso": "CZ-MO"}, "geometry": {"type": "Polygon", "coordinates": [[[18.0497, 49.8087], [18.0487, 49.8007], [18.0296, 49.7967], [18.0275, 49.8009], [18.0117, 49.8007], [17.9982, 49.8066], [17.9954, 49.8145], [17.982, 49.8183], [17.9659, 49.8093], [17.9632, 49.794], [17.9486, 49.7856], [17.9103, 49.7768], [17.8867, 49.7611], [17.8707, 49.7611], [17.8619, 49.7534], [17.8343, 49.7575], [17.7989, 49.75], [17.7859, 49.7542], [17.7712, 49.7441], [17.7686, 49.7295], [17.7446, 49.7296], [17.7285, 49.7182], [17.6977, 49.7219], [17.6968, 49.7111], [17.6842, 49.7034], [17.684, 49.6969], [17.6894, 49.6968], [17.6889, 49.6723], [17.7171, 49.6627], [17.7333, 49.6631], [17.7396, 49.6703], [17.7582, 49.6655], [17.7597, 49.6587], [17.7719, 49.6512], [17.7725, 49.6413], [17.7778, 49.6373], [17.7763, 49.6291], [17.7943, 49.6271], [17.7969, 49.6192], [17.8205, 49.6134], [17.8207, 49.6057], [17.8323, 49.6049], [17.8395, 49.5998], [17.8394, 49.5938], [17.8508, 49.5878], [17.8524, 49.5756], [17.8632, 49.5743], [17.8638, 49.5675], [17.8504, 49.5652], [17.8567, 49.5459], [17.8746, 49.5496], [17.8836, 49.5613], [17.8946, 49.5608], [17.9077, 49.5556], [17.909, 49.545], [17.9205, 49.5354], [17.9703, 49.5342], [17.9782, 49.5299], [17.9965, 49.5155], [17.9965, 49.5006], [18.0198, 49.5], [18.0426, 49.5112], [18.079, 49.5115], [18.1183, 49.5182], [18.1429, 49.5048], [18.1692, 49.5087], [18.1902, 49.488], [18.2517, 49.4823], [18.2697, 49.4896], [18.2939, 49.4896], [18.2942, 49.5011], [18.2879, 49.504], [18.2888, 49.5179], [18.2396, 49.5376], [18.239, 49.5481], [18.2453, 49.5508], [18.2531, 49.5698], [18.2303, 49.5798], [18.2233, 49.5857], [18.2226, 49.5959], [18.2065, 49.6016], [18.2, 49.634], [18.1818, 49.6407], [18.1829, 49.6474], [18.1959, 49.6598], [18.1985, 49.6946], [18.1877, 49.6953], [18.1854, 49.7026], [18.1749, 49.7041], [18.1732, 49.715], [18.1668, 49.7201], [18.142, 49.7233], [18.1421, 49.7287], [18.1545, 49.7307], [18.1705, 49.7422], [18.1832, 49.743], [18.1823, 49.7496], [18.1747, 49.7547], [18.1594, 49.7554], [18.1563, 49.7641], [18.1203, 49.7608], [18.1061, 49.7663], [18.1049, 49.7725], [18.0759, 49.774], [18.0687, 49.8033], [18.062, 49.8086], [18.0497, 49.8087]]]}}, {"type": "Feature", "properties": {"osm_type": "relation", "osm_id": 327412718, "name": "Bruntál", "admin_level": "6", "kind": "subdivision_2", "parent_osm_id": 516886091, "parent_name": "Moravian-Silesian", "parent_iso": "CZ-MO"}, "geometry": {"type": "Polygon", "coordinates": [[[17.2268, 50.097], [17.2334, 50.0853], [17.2379, 50.0554], [17.2316, 50.0538], [17.2241, 50.0392], [17.2049, 50.0331], [17.2033, 50.0257], [17.1846, 50.0208], [17.1823, 50.0089], [17.1776, 50.0065], [17.1752, 49.9845], [17.162, 49.9755], [17.1939, 49.9608], [17.2006, 49.9522], [17.1997, 49.9329], [17.1805, 49.9271], [17.1779, 49.9156], [17.1662, 49.9138], [17.166, 49.9091], [17.1784, 49.9062], [17.1784, 49.9012], [17.1724, 49.8977], [17.1697, 49.886], [17.1518, 49.8854], [17.1511, 49.869], [17.163, 49.8689], [17.1646, 49.8606], [17.1762, 49.86], [17.1772, 49.8479], [17.184, 49.8429], [17.2036, 49.8467], [17.2197, 49.8416], [17.2216, 49.8319], [17.214, 49.8237], [17.2227, 49.8168], [17.2351, 49.8206], [17.2649, 49.8162], [17.2669, 49.8274], [17.2994, 49.8331], [17.2997, 49.8396], [17.3119, 49.8412], [17.3138, 49.8491], [17.3376, 49.8487], [17.3401, 49.8562], [17.3649, 49.8563], [17.3669, 49.8485], [17.3782, 49.8473], [17.3786, 49.8322], [17.3721, 49.8302], [17.3716, 49.8236], [17.3582, 49.8179], [17.3573, 49.8018], [17.3936, 49.7967], [17.3972, 49.8043], [17.4092, 49.8061], [17.41, 49.8202], [17.4549, 49.8216], [17.4593, 49.829], [17.4696, 49.8318], [17.47, 49.8362], [17.4582, 49.8418], [17.4513, 49.8648], [17.4774, 49.8664], [17.4783, 49.8507], [17.4897, 49.8433], [17.4892, 49.8219], [17.4943, 49.8194], [17.5008, 49.7995], [17.5125, 49.7863], [17.5372, 49.7855], [17.5781, 49.8185], [17.5807, 49.8471], [17.6013, 49.8525], [17.6027, 49.8725], [17.6093, 49.8766], [17.6027, 49.8839], [17.6041, 49.8968], [17.6219, 49.9026], [17.6382, 49.9145], [17.654, 49.915], [17.6713, 49.9267], [17.6833, 49.9273], [17.693, 49.9397], [17.7107, 49.9398], [17.7114, 49.9514], [17.6815, 49.9525], [17.6669, 49.9626], [17.6669, 49.9779], [17.6567, 49.9792], [17.6527, 49.9703], [17.6317, 49.9704], [17.6215, 49.9757], [17.6224, 49.9867], [17.6342, 49.988], [17.6618, 50.0046], [17.6836, 50.0293], [17.7207, 50.0328], [17.7234, 50.0289], [17.7385, 50.0284], [17.7645, 50.0402], [17.7764, 50.04], [17.7757, 50.0493], [17.7586, 50.06], [17.7556, 50.0754], [17.7501, 50.0798], [17.7327, 50.0805], [17.7321, 50.101], [17.7159, 50.1028], [17.7062, 50.115], [17.6883, 50.1141], [17.6808, 50.1074], [17.656, 50.1072], [17.6546, 50.1203], [17.6502, 50.1203], [17.6491, 50.1267], [17.6419, 50.1325], [17.619, 50.1376], [17.6116, 50.1428], [17.6105, 50.1509], [17.5972, 50.1583], [17.6085, 50.1677], [17.6306, 50.1675], [17.6731, 50.1795], [17.7109, 50.1843], [17.7125, 50.1997], [17.7216, 50.2044], [17.7365, 50.2051], [17.744, 50.1986], [17.7589, 50.205], [17.7586, 50.215], [17.7685, 50.238], [17.7291, 50.2574], [17.7288, 50.2703], [17.7434, 50.2752], [17.7426, 50.2796], [17.7567, 50.2911], [17.7567, 50.2967], [17.7487, 50.3036], [17.733, 50.3034], [17.7222, 50.3205], [17.7021, 50.3256], [17.6919, 50.324], [17.6907, 50.3004], [17.6778, 50.2951], [17.6767, 50.2874], [17.6221, 50.2671], [17.6091, 50.2678], [17.6027, 50.2787], [17.5881, 50.2799], [17.5567, 50.268], [17.5398, 50.2724], [17.4932, 50.2727], [17.4918, 50.2688], [17.4648, 50.2681], [17.4499, 50.2584], [17.4491, 50.2535], [17.4325, 50.2537], [17.4286, 50.2104], [17.4055, 50.206], [17.3916, 50.2144], [17.3802, 50.2143], [17.3707, 50.2098], [17.3693, 50.2029], [17.3556, 50.1951], [17.3449, 50.1808], [17.3177, 50.185], [17.309, 50.1737], [17.2842, 50.1641], [17.2759, 50.1531], [17.2422, 50.1387], [17.2474, 50.1306], [17.247, 50.1114], [17.2392, 50.1021], [17.2268, 50.097]]]}}, {"type": "Feature", "properties": {"osm_type": "relation", "osm_id": 787071411, "name": "Opava", "admin_level": "6", "kind": "subdivision_2", "parent_osm_id": 516886091, "parent_name": "Moravian-Silesian", "parent_iso": "CZ-MO"}, "geometry": {"type": "Polygon", "coordinates": [[[18.0497, 49.8087], [18.0507, 49.8195], [18.0637, 49.8267], [18.0595, 49.8539], [18.066, 49.8574], [18.0672, 49.8665], [18.0845, 49.8682], [18.0879, 49.8843], [18.125, 49.8794], [18.1343, 49.8713], [18.1638, 49.8655], [18.1644, 49.8585], [18.2027, 49.8578], [18.2136, 49.869], [18.2218, 49.869], [18.2248, 49.8612], [18.2352, 49.8616], [18.2635, 49.88], [18.2794, 49.8805], [18.2895, 49.8859], [18.2912, 49.8915], [18.3027, 49.8943], [18.3192, 49.9092], [18.3188, 49.9195], [18.3073, 49.9197], [18.2877, 49.933], [18.2897, 49.9557], [18.28, 49.9665], [18.2582, 49.9711], [18.2182, 49.9687], [18.2188, 49.9933], [18.2022, 49.9983], [18.1746, 49.9976], [18.1719, 49.9868], [18.1542, 49.9862], [18.1531, 49.9905], [18.1385, 49.9947], [18.1084, 49.997], [18.109, 50.0036], [18.1015, 50.0056], [18.1032, 50.0194], [18.0919, 50.0311], [18.091, 50.0428], [18.0726, 50.0444], [18.0706, 50.0522], [18.0521, 50.0603], [18.0279, 50.0608], [18.013, 50.052], [18.013, 50.041], [18.0047, 50.0364], [18.0088, 50.0316], [18.0505, 50.0357], [18.0494, 50.0144], [18.0414, 50.0098], [17.9978, 50.0141], [17.9815, 50.0025], [17.9594, 50.0033], [17.9285, 49.9786], [17.8648, 49.9752], [17.8576, 49.9829], [17.8323, 49.9887], [17.8325, 50.0059], [17.8025, 50.01], [17.7945, 50.0183], [17.7834, 50.0197], [17.7764, 50.04], [17.7645, 50.0402], [17.7385, 50.0284], [17.7234, 50.0289], [17.7207, 50.0328], [17.6836, 50.0293], [17.6618, 50.0046], [17.6342, 49.988], [17.6224, 49.9867], [17.6215, 49.9757], [17.6317, 49.9704], [17.6527, 49.9703], [17.6567, 49.9792], [17.6669, 49.9779], [17.6669, 49.9626], [17.6815, 49.9525], [17.7114, 49.9514], [17.7107, 49.9398], [17.693, 49.9397], [17.6833, 49.9273], [17.6713, 49.9267], [17.654, 49.915], [17.6382, 49.9145], [17.6219, 49.9026], [17.6041, 49.8968], [17.6027, 49.8839], [17.6093, 49.8766], [17.6027, 49.8725], [17.6013, 49.8525], [17.5807, 49.8471], [17.5781, 49.8185], [17.5721, 49.8107], [17.5524, 49.8003], [17.5522, 49.7948], [17.5372, 49.7855], [17.5257, 49.7854], [17.5259, 49.7753], [17.5307, 49.7718], [17.5325, 49.7596], [17.5458, 49.7508], [17.5687, 49.7452], [17.5883, 49.7295], [17.6136, 49.7298], [17.6149, 49.7368], [17.6768, 49.7358], [17.6791, 49.7277], [17.7285, 49.7182], [17.7446, 49.7296], [17.7686, 49.7295], [17.7712, 49.7441], [17.7859, 49.7542], [17.7989, 49.75], [17.8343, 49.7575], [17.8619, 49.7534], [17.8707, 49.7611], [17.8867, 49.7611], [17.9103, 49.7768], [17.9486, 49.7856], [17.9632, 49.794], [17.9659, 49.8093], [17.982, 49.8183], [17.9954, 49.8145], [17.9982, 49.8066], [18.0117, 49.8007], [18.0275, 49.8009], [18.0296, 49.7967], [18.0487, 49.8007], [18.0497, 49.8087]]]}}, {"type": "Feature", "properties": {"osm_type": "relation", "osm_id": 710325133, "name": "Karviná", "admin_level": "6", "kind": "subdivision_2", "parent_osm_id": 516886091, "parent_name": "Moravian-Silesian", "parent_iso": "CZ-MO"}, "geometry": {"type": "Polygon", "coordinates": [[[18.3192, 49.9102], [18.3302, 49.9098], [18.3296, 49.898], [18.3177, 49.8919], [18.3158, 49.8853], [18.3041, 49.8842], [18.3026, 49.8732], [18.3406, 49.8793], [18.3401, 49.8459], [18.3645, 49.8404], [18.3653, 49.8199], [18.37, 49.8187], [18.3708, 49.8115], [18.4013, 49.8136], [18.4028, 49.8021], [18.3955, 49.7997], [18.3951, 49.7935], [18.4136, 49.7803], [18.4131, 49.7721], [18.4059, 49.7679], [18.4046, 49.7338], [18.4212, 49.7329], [18.4312, 49.7408], [18.4736, 49.744], [18.4761, 49.7366], [18.4997, 49.7268], [18.5012, 49.7184], [18.5433, 49.7257], [18.5491, 49.7093], [18.5739, 49.7128], [18.5895, 49.7084], [18.612, 49.7198], [18.6312, 49.7207], [18.6337, 49.7499], [18.6218, 49.7508], [18.6199, 49.7585], [18.6141, 49.7588], [18.6155, 49.7754], [18.5984, 49.7902], [18.5986, 49.8], [18.5854, 49.8035], [18.5865, 49.8185], [18.5807, 49.8199], [18.5818, 49.8404], [18.6031, 49.8582], [18.6036, 49.8694], [18.5777, 49.8713], [18.5774, 49.8832], [18.5716, 49.8845], [18.5807, 49.9177], [18.5506, 49.9225], [18.5421, 49.9168], [18.5396, 49.9023], [18.5059, 49.9021], [18.4886, 49.9095], [18.4888, 49.9152], [18.4704, 49.917], [18.4676, 49.9241], [18.445, 49.9246], [18.437, 49.9362], [18.3796, 49.9349], [18.3523, 49.9486], [18.3401, 49.9443], [18.347, 49.9394], [18.3454, 49.9273], [18.3338, 49.9268], [18.3316, 49.9193], [18.3188, 49.9195], [18.3192, 49.9102]]]}}, {"type": "Feature", "properties": {"osm_type": "relation", "osm_id": 486532889, "name": "Frýdek-Místek", "admin_level": "6", "kind": "subdivision_2", "parent_osm_id": 516886091, "parent_name": "Moravian-Silesian", "parent_iso": "CZ-MO"}, "geometry": {"type": "Polygon", "coordinates": [[[18.2939, 49.4896], [18.3003, 49.4866], [18.2992, 49.4751], [18.3044, 49.4724], [18.3058, 49.4601], [18.3355, 49.4503], [18.3384, 49.4422], [18.3603, 49.4413], [18.3615, 49.4349], [18.3724, 49.4283], [18.3725, 49.418], [18.3655, 49.4147], [18.3654, 49.4042], [18.4163, 49.3944], [18.4488, 49.3937], [18.4555, 49.4041], [18.467, 49.4063], [18.472, 49.4174], [18.4825, 49.4185], [18.4913, 49.4338], [18.5037, 49.4364], [18.5051, 49.4416], [18.5435, 49.4628], [18.5454, 49.4707], [18.5327, 49.4816], [18.5352, 49.4924], [18.5664, 49.5096], [18.576, 49.5047], [18.5978, 49.5087], [18.608, 49.5001], [18.6207, 49.4983], [18.6751, 49.5065], [18.7015, 49.5019], [18.7164, 49.5055], [18.7368, 49.4935], [18.7545, 49.4927], [18.7785, 49.5085], [18.8022, 49.5124], [18.8131, 49.5216], [18.8226, 49.521], [18.8286, 49.5151], [18.8407, 49.5185], [18.8376, 49.537], [18.8575, 49.537], [18.8583, 49.5537], [18.8514, 49.5624], [18.8398, 49.5647], [18.8407, 49.5753], [18.8345, 49.5758], [18.8348, 49.5958], [18.8243, 49.6062], [18.8243, 49.6175], [18.8185, 49.6185], [18.8193, 49.6343], [18.8138, 49.6353], [18.8138, 49.6482], [18.8083, 49.6486], [18.8086, 49.682], [18.7876, 49.6862], [18.72, 49.6846], [18.714, 49.7057], [18.6442, 49.711], [18.6312, 49.7207], [18.612, 49.7198], [18.5895, 49.7084], [18.5739, 49.7128], [18.5491, 49.7093], [18.5433, 49.7257], [18.5012, 49.7184], [18.4997, 49.7268], [18.4761, 49.7366], [18.4736, 49.744], [18.4312, 49.7408], [18.4212, 49.7329], [18.4046, 49.7338], [18.4053, 49.7539], [18.3919, 49.7534], [18.3825, 49.7422], [18.3635, 49.7386], [18.352, 49.7387], [18.349, 49.7517], [18.3402, 49.7513], [18.3346, 49.743], [18.2742, 49.7481], [18.2638, 49.7238], [18.2549, 49.7242], [18.2461, 49.7354], [18.2213, 49.7361], [18.2212, 49.7293], [18.239, 49.7185], [18.2397, 49.7115], [18.2264, 49.711], [18.2099, 49.6993], [18.1989, 49.6979], [18.1959, 49.6598], [18.1829, 49.6474], [18.1818, 49.6407], [18.2, 49.634], [18.2065, 49.6016], [18.2226, 49.5959], [18.2233, 49.5857], [18.2303, 49.5798], [18.2531, 49.5698], [18.2453, 49.5508], [18.239, 49.5481], [18.2396, 49.5376], [18.2888, 49.5179], [18.2879, 49.504], [18.2942, 49.5011], [18.2939, 49.4896]]]}}, {"type": "Feature", "properties": {"osm_type": "relation", "osm_id": 335152030, "name": "Ostrava-City", "admin_level": "6", "kind": "subdivision_2", "parent_osm_id": 516886091, "parent_name": "Moravian-Silesian", "parent_iso": "CZ-MO"}, "geometry": {"type": "Polygon", "coordinates": [[[18.1985, 49.6946], [18.2264, 49.711], [18.2397, 49.7115], [18.239, 49.7185], [18.2212, 49.7293], [18.2213, 49.7361], [18.2461, 49.7354], [18.2549, 49.7242], [18.2638, 49.7238], [18.2742, 49.7481], [18.3346, 49.743], [18.3402, 49.7513], [18.349, 49.7517], [18.352, 49.7387], [18.3635, 49.7386], [18.3825, 49.7422], [18.3919, 49.7534], [18.4053, 49.7539], [18.4059, 49.7679], [18.4131, 49.7721], [18.4136, 49.7803], [18.3951, 49.7935], [18.3955, 49.7997], [18.4028, 49.8021], [18.4013, 49.8136], [18.3708, 49.8115], [18.37, 49.8187], [18.3653, 49.8199], [18.3645, 49.8404], [18.3401, 49.8459], [18.3406, 49.8793], [18.3026, 49.8732], [18.3041, 49.8842], [18.3158, 49.8853], [18.3177, 49.8919], [18.3296, 49.898], [18.3302, 49.9098], [18.3192, 49.9102], [18.3027, 49.8943], [18.2912, 49.8915], [18.2895, 49.8859], [18.2635, 49.88], [18.2352, 49.8616], [18.2248, 49.8612], [18.2218, 49.869], [18.2136, 49.869], [18.2027, 49.8578], [18.1644, 49.8585], [18.1638, 49.8655], [18.1343, 49.8713], [18.125, 49.8794], [18.0879, 49.8843], [18.0845, 49.8682], [18.0672, 49.8665], [18.066, 49.8574], [18.0595, 49.8539], [18.0637, 49.8267], [18.0507, 49.8195], [18.0497, 49.8087], [18.062, 49.8086], [18.0687, 49.8033], [18.0759, 49.774], [18.1049, 49.7725], [18.1061, 49.7663], [18.1203, 49.7608], [18.1563, 49.7641], [18.1594, 49.7554], [18.1747, 49.7547], [18.1823, 49.7496], [18.1832, 49.743], [18.1705, 49.7422], [18.1545, 49.7307], [18.1421, 49.7287], [18.142, 49.7233], [18.1668, 49.7201], [18.1732, 49.715], [18.1749, 49.7041], [18.1854, 49.7026], [18.1877, 49.6953], [18.1985, 49.6946]]]}}]}