{"type": "FeatureCollection", "parent": {"osm_id": 52834, "name": "Dalarna County", "admin_level": "4", "kind": "subdivision_1", "child_kind": "subdivision_2", "iso": "SE-W"}, "features": [{"type": "Feature", "properties": {"osm_type": "relation", "osm_id": 679333853, "name": "Malung-Sälen", "admin_level": "6", "kind": "subdivision_2", "parent_osm_id": 52834, "parent_name": "Dalarna County", "parent_iso": "SE-W"}, "geometry": {"type": "Polygon", "coordinates": [[[13.9926, 60.2551], [13.9707, 60.2678], [13.9602, 60.2874], [13.9813, 60.3122], [13.9813, 60.3553], [13.9654, 60.3775], [13.9523, 60.423], [13.9233, 60.4673], [13.9338, 60.4777], [13.9391, 60.4997], [13.918, 60.527], [13.9259, 60.5594], [13.9575, 60.5866], [14.0155, 60.6021], [14.0445, 60.6241], [14.0445, 60.6836], [14.034, 60.7042], [13.9971, 60.7184], [13.9734, 60.7416], [13.9839, 60.7609], [14.0261, 60.7867], [14.0419, 60.8188], [14.0261, 60.8381], [13.9944, 60.8574], [13.9338, 60.8702], [13.8521, 60.8715], [13.7519, 60.8664], [13.6543, 60.8689], [13.6201, 60.9446], [13.5752, 61.0047], [13.57, 61.0596], [13.5489, 61.0876], [13.4698, 61.1551], [13.3591, 61.3011], [13.2905, 61.3542], [13.1534, 61.4828], [13.1059, 61.5143], [12.9504, 61.411], [12.9267, 61.3795], [12.8691, 61.3565], [12.8652, 61.3317], [12.8282, 61.2427], [12.7994, 61.2051], [12.7623, 61.1747], [12.7075, 61.1482], [12.6992, 61.1091], [12.7006, 61.0912], [12.6841, 61.0509], [12.6963, 61.0383], [12.7045, 61.0024], [12.7334, 60.9944], [12.7749, 60.9677], [13.0398, 60.8381], [13.1377, 60.7986], [13.19, 60.7582], [13.2221, 60.7112], [13.2389, 60.6972], [13.2912, 60.6873], [13.3047, 60.655], [13.3368, 60.6286], [13.3537, 60.6244], [13.3621, 60.6079], [13.3891, 60.5921], [13.4549, 60.5266], [13.4768, 60.5125], [13.4887, 60.4768], [13.5595, 60.4427], [13.6912, 60.4113], [13.7334, 60.3944], [13.7466, 60.3723], [13.7888, 60.3383], [13.8231, 60.3031], [13.8363, 60.2809], [13.9426, 60.2126], [13.9988, 60.1873], [14.0171, 60.1868], [14.0312, 60.2024], [14.0269, 60.2227], [13.9926, 60.2551]]]}}, {"type": "Feature", "properties": {"osm_type": "relation", "osm_id": 276698027, "name": "Älvdalen", "admin_level": "6", "kind": "subdivision_2", "parent_osm_id": 52834, "parent_name": "Dalarna County", "parent_iso": "SE-W"}, "geometry": {"type": "Polygon", "coordinates": [[[12.2793, 62.2571], [12.2809, 62.2369], [12.2672, 62.1749], [12.2013, 61.9506], [12.1849, 61.8641], [12.141, 61.7559], [12.141, 61.726], [12.1862, 61.6824], [12.2864, 61.6297], [12.3673, 61.5997], [12.4098, 61.5683], [12.4263, 61.5625], [12.5881, 61.5579], [12.8501, 61.3744], [12.8691, 61.3565], [12.9267, 61.3795], [12.9504, 61.411], [13.1059, 61.5143], [13.1534, 61.4828], [13.2905, 61.3542], [13.3591, 61.3011], [13.4698, 61.1551], [13.5489, 61.0876], [13.57, 61.0596], [13.5748, 61.0328], [13.6068, 61.0373], [13.6278, 61.0474], [13.7178, 61.0532], [13.7388, 61.0663], [13.8258, 61.0692], [13.9487, 61.0605], [13.9847, 61.062], [14.0837, 61.1359], [14.1737, 61.1547], [14.1947, 61.1475], [14.2187, 61.1316], [14.2607, 61.1229], [14.3417, 61.1142], [14.3627, 61.1229], [14.3447, 61.1431], [14.2427, 61.2111], [14.2067, 61.2198], [14.1977, 61.2429], [14.2187, 61.2933], [14.2127, 61.3221], [14.1917, 61.3552], [14.1737, 61.4012], [14.1017, 61.4787], [14.0987, 61.5144], [14.0597, 61.5731], [14.0327, 61.5973], [14.012, 61.628], [13.9622, 61.6305], [13.9029, 61.6415], [13.7745, 61.6477], [13.7251, 61.6555], [13.5703, 61.6571], [13.5275, 61.668], [13.5078, 61.6837], [13.5045, 61.7008], [13.5275, 61.7196], [13.5209, 61.7336], [13.4748, 61.7788], [13.4353, 61.8006], [13.3497, 61.8736], [13.2904, 61.9062], [13.2476, 61.9171], [13.2443, 61.9295], [13.3826, 61.9837], [13.3925, 61.9976], [13.3069, 62.0192], [13.3135, 62.0393], [13.2904, 62.0547], [13.2674, 62.0532], [13.2015, 62.0285], [13.1521, 62.0269], [13.0369, 62.0578], [12.9842, 62.1087], [12.9051, 62.1441], [12.8195, 62.2025], [12.7734, 62.2133], [12.6713, 62.2133], [12.5923, 62.2056], [12.454, 62.2363], [12.3157, 62.2562], [12.2793, 62.2571]]]}}, {"type": "Feature", "properties": {"osm_type": "relation", "osm_id": 249811641, "name": "Orsa", "admin_level": "6", "kind": "subdivision_2", "parent_osm_id": 52834, "parent_name": "Dalarna County", "parent_iso": "SE-W"}, "geometry": {"type": "Polygon", "coordinates": [[[14.4116, 61.5778], [14.4077, 61.5673], [14.3687, 61.5516], [14.3357, 61.5245], [14.3297, 61.4772], [14.3897, 61.3969], [14.4047, 61.3639], [14.4137, 61.3265], [14.5307, 61.2125], [14.5577, 61.1735], [14.5517, 61.1489], [14.5937, 61.1301], [14.6267, 61.1069], [14.6447, 61.0649], [15.0076, 61.0663], [15.0526, 61.0808], [15.0736, 61.0997], [15.0916, 61.1475], [15.0946, 61.1764], [15.0736, 61.1967], [15.0346, 61.214], [15.0406, 61.2342], [15.0616, 61.2486], [15.0706, 61.3308], [15.0946, 61.3854], [15.0976, 61.4457], [15.1186, 61.4801], [15.1211, 61.5262], [15.1154, 61.5101], [15.1046, 61.4982], [15.07, 61.4952], [15.0117, 61.4977], [14.9383, 61.5111], [14.7795, 61.5091], [14.704, 61.4967], [14.6942, 61.5075], [14.691, 61.5245], [14.6975, 61.5585], [14.6975, 61.5847], [14.691, 61.5965], [14.5074, 61.6032], [14.4768, 61.6082], [14.4511, 61.5878], [14.4279, 61.5778], [14.4116, 61.5778]]]}}, {"type": "Feature", "properties": {"osm_type": "relation", "osm_id": 453035508, "name": "Mora", "admin_level": "6", "kind": "subdivision_2", "parent_osm_id": 52834, "parent_name": "Dalarna County", "parent_iso": "SE-W"}, "geometry": {"type": "Polygon", "coordinates": [[[14.012, 61.628], [14.0327, 61.5973], [14.0597, 61.5731], [14.0987, 61.5144], [14.1017, 61.4787], [14.1737, 61.4012], [14.1917, 61.3552], [14.2127, 61.3221], [14.2187, 61.2933], [14.1977, 61.2429], [14.2067, 61.2198], [14.2427, 61.2111], [14.3447, 61.1431], [14.3627, 61.1229], [14.3417, 61.1142], [14.2607, 61.1229], [14.2187, 61.1316], [14.1947, 61.1475], [14.1737, 61.1547], [14.0837, 61.1359], [13.9847, 61.062], [13.9487, 61.0605], [13.8258, 61.0692], [13.7388, 61.0663], [13.7178, 61.0532], [13.6278, 61.0474], [13.6068, 61.0373], [13.5748, 61.0328], [13.5752, 61.0047], [13.6201, 60.9446], [13.6543, 60.8689], [13.7519, 60.8664], [13.8521, 60.8715], [13.9338, 60.8702], [13.9944, 60.8574], [14.0261, 60.8381], [14.0419, 60.8188], [14.0261, 60.7867], [13.9839, 60.7609], [13.9734, 60.7416], [13.9971, 60.7184], [14.034, 60.7042], [14.0445, 60.68], [14.1137, 60.6823], [14.2007, 60.697], [14.4047, 60.7043], [14.5547, 60.7659], [14.6742, 60.8292], [14.8817, 60.899], [14.9057, 60.9136], [14.9387, 60.915], [14.9627, 60.9311], [14.9057, 60.9747], [14.8967, 60.9864], [14.9207, 61.0111], [14.9986, 61.0562], [15.0099, 61.067], [14.6447, 61.0649], [14.6267, 61.1069], [14.5937, 61.1301], [14.5517, 61.1489], [14.5577, 61.1735], [14.5307, 61.2125], [14.4137, 61.3265], [14.4047, 61.3639], [14.3897, 61.3969], [14.3297, 61.4772], [14.3357, 61.5245], [14.3687, 61.5516], [14.4077, 61.5673], [14.4116, 61.5778], [14.3479, 61.6128], [14.3226, 61.6209], [14.012, 61.628]]]}}, {"type": "Feature", "properties": {"osm_type": "relation", "osm_id": 807482491, "name": "Leksand", "admin_level": "6", "kind": "subdivision_2", "parent_osm_id": 52834, "parent_name": "Dalarna County", "parent_iso": "SE-W"}, "geometry": {"type": "Polygon", "coordinates": [[[14.4033, 60.7043], [14.4101, 60.67], [14.4472, 60.6379], [14.5258, 60.6026], [14.5608, 60.5811], [14.6045, 60.5715], [14.7836, 60.5736], [14.871, 60.5597], [14.9365, 60.5629], [15.0501, 60.6154], [15.0741, 60.6336], [15.1091, 60.6454], [15.1571, 60.6444], [15.1899, 60.6336], [15.2357, 60.6336], [15.2467, 60.6401], [15.3428, 60.6465], [15.4411, 60.6861], [15.4433, 60.7011], [15.428, 60.7182], [15.393, 60.7331], [15.3188, 60.7235], [15.3056, 60.7427], [15.3428, 60.7523], [15.4039, 60.8025], [15.5241, 60.8206], [15.5612, 60.8482], [15.6115, 60.8482], [15.6377, 60.8631], [15.6639, 60.8865], [15.6246, 60.9046], [15.5787, 60.911], [15.5459, 60.9056], [15.4804, 60.8823], [15.3887, 60.8727], [15.2598, 60.8376], [15.1593, 60.8376], [15.104, 60.8566], [15.0726, 60.8613], [14.9458, 60.9198], [14.9387, 60.915], [14.9057, 60.9136], [14.8817, 60.899], [14.6742, 60.8292], [14.5547, 60.7659], [14.4033, 60.7043]]]}}, {"type": "Feature", "properties": {"osm_type": "relation", "osm_id": 756628527, "name": "Vansbro", "admin_level": "6", "kind": "subdivision_2", "parent_osm_id": 52834, "parent_name": "Dalarna County", "parent_iso": "SE-W"}, "geometry": {"type": "Polygon", "coordinates": [[[13.9926, 60.2551], [14.002, 60.2613], [14.0236, 60.2635], [14.0906, 60.2372], [14.137, 60.2356], [14.1836, 60.2461], [14.1881, 60.2533], [14.2118, 60.2595], [14.2524, 60.2595], [14.3376, 60.2706], [14.4089, 60.2713], [14.5501, 60.2456], [14.5851, 60.2519], [14.6579, 60.2883], [14.6494, 60.3295], [14.6326, 60.3398], [14.6522, 60.3571], [14.6494, 60.3806], [14.6564, 60.4145], [14.6508, 60.4662], [14.6312, 60.4889], [14.62, 60.5192], [14.5851, 60.5371], [14.5922, 60.5742], [14.5608, 60.5811], [14.5258, 60.6026], [14.4472, 60.6379], [14.4101, 60.67], [14.4033, 60.7043], [14.2007, 60.697], [14.1137, 60.6823], [14.0445, 60.68], [14.0445, 60.6241], [14.0155, 60.6021], [13.9575, 60.5866], [13.9259, 60.5594], [13.918, 60.527], [13.9391, 60.4997], [13.9338, 60.4777], [13.9233, 60.4673], [13.9523, 60.423], [13.9654, 60.3775], [13.9813, 60.3553], [13.9813, 60.3122], [13.9602, 60.2874], [13.9707, 60.2678], [13.9926, 60.2551]]]}}, {"type": "Feature", "properties": {"osm_type": "relation", "osm_id": 749132127, "name": "Gagnef", "admin_level": "6", "kind": "subdivision_2", "parent_osm_id": 52834, "parent_name": "Dalarna County", "parent_iso": "SE-W"}, "geometry": {"type": "Polygon", "coordinates": [[[14.5922, 60.5742], [14.5851, 60.5371], [14.62, 60.5192], [14.6312, 60.4889], [14.6508, 60.4662], [14.6564, 60.4145], [14.6494, 60.3806], [14.6522, 60.3571], [14.6326, 60.3398], [14.6494, 60.3295], [14.6579, 60.2883], [14.785, 60.3225], [14.8032, 60.335], [14.8004, 60.3606], [14.8311, 60.3848], [14.901, 60.3903], [15.0017, 60.3889], [15.0254, 60.3841], [15.0632, 60.3951], [15.1135, 60.4283], [15.1177, 60.4462], [15.1345, 60.4662], [15.1974, 60.4972], [15.2701, 60.544], [15.2771, 60.555], [15.2617, 60.5907], [15.2883, 60.6051], [15.2952, 60.6264], [15.2944, 60.6433], [15.2467, 60.6401], [15.2357, 60.6336], [15.1899, 60.6336], [15.1571, 60.6444], [15.1091, 60.6454], [15.0741, 60.6336], [15.0501, 60.6154], [14.9365, 60.5629], [14.871, 60.5597], [14.7836, 60.5736], [14.5922, 60.5742]]]}}, {"type": "Feature", "properties": {"osm_type": "relation", "osm_id": 269393450, "name": "Ludvika", "admin_level": "6", "kind": "subdivision_2", "parent_osm_id": 52834, "parent_name": "Dalarna County", "parent_iso": "SE-W"}, "geometry": {"type": "Polygon", "coordinates": [[[14.1836, 60.2461], [14.1932, 60.2394], [14.1996, 60.2152], [14.2212, 60.2002], [14.2331, 60.1777], [14.232, 60.1497], [14.2634, 60.111], [14.3228, 60.0873], [14.4793, 60.0394], [14.5138, 60.0421], [14.6061, 60.0263], [14.7221, 60.0184], [14.7748, 60.0198], [14.7722, 60.0921], [14.7907, 60.1105], [14.8249, 60.125], [14.8645, 60.1224], [14.904, 60.0921], [14.9409, 60.075], [15.0728, 60.0737], [15.125, 60.0515], [15.1637, 60.0664], [15.1921, 60.0914], [15.2554, 60.1284], [15.2598, 60.148], [15.251, 60.1654], [15.2641, 60.198], [15.2576, 60.2652], [15.2598, 60.315], [15.2117, 60.3453], [15.1724, 60.3529], [15.1287, 60.4144], [15.1023, 60.4187], [15.0632, 60.3951], [15.0254, 60.3841], [15.0017, 60.3889], [14.901, 60.3903], [14.8311, 60.3848], [14.8004, 60.3606], [14.8032, 60.335], [14.785, 60.3225], [14.6648, 60.2914], [14.5851, 60.2519], [14.5501, 60.2456], [14.4089, 60.2713], [14.3376, 60.2706], [14.2524, 60.2595], [14.2118, 60.2595], [14.1881, 60.2533], [14.1836, 60.2461]]]}}, {"type": "Feature", "properties": {"osm_type": "relation", "osm_id": 280635358, "name": "Smedjebacken", "admin_level": "6", "kind": "subdivision_2", "parent_osm_id": 52834, "parent_name": "Dalarna County", "parent_iso": "SE-W"}, "geometry": {"type": "Polygon", "coordinates": [[[15.125, 60.0515], [15.1519, 60.0369], [15.231, 60.0145], [15.3206, 59.9499], [15.4129, 59.901], [15.434, 59.8838], [15.4551, 59.8864], [15.4972, 59.9129], [15.5157, 59.93], [15.5236, 59.9578], [15.5579, 59.9696], [15.6291, 59.9683], [15.6792, 59.9578], [15.7082, 59.9644], [15.724, 59.9815], [15.7556, 59.9947], [15.7477, 60.0105], [15.7292, 60.0237], [15.7266, 60.0408], [15.7134, 60.0671], [15.7741, 60.1171], [15.7741, 60.1394], [15.7556, 60.1539], [15.7635, 60.1617], [15.7952, 60.1722], [15.8083, 60.1814], [15.8141, 60.1997], [15.7993, 60.2099], [15.7622, 60.2219], [15.5547, 60.2674], [15.5001, 60.289], [15.3253, 60.3031], [15.26, 60.3132], [15.2576, 60.2652], [15.2641, 60.198], [15.251, 60.1654], [15.2598, 60.148], [15.2554, 60.1284], [15.1921, 60.0914], [15.1637, 60.0664], [15.125, 60.0515]]]}}, {"type": "Feature", "properties": {"osm_type": "relation", "osm_id": 491185187, "name": "Borlänge", "admin_level": "6", "kind": "subdivision_2", "parent_osm_id": 52834, "parent_name": "Dalarna County", "parent_iso": "SE-W"}, "geometry": {"type": "Polygon", "coordinates": [[[15.2944, 60.6433], [15.2952, 60.6264], [15.2883, 60.6051], [15.2617, 60.5907], [15.2771, 60.555], [15.2701, 60.544], [15.1974, 60.4972], [15.1345, 60.4662], [15.1177, 60.4462], [15.1135, 60.4283], [15.1023, 60.4187], [15.1287, 60.4144], [15.1724, 60.3529], [15.2117, 60.3453], [15.26, 60.3132], [15.3372, 60.326], [15.4001, 60.362], [15.4644, 60.3744], [15.4994, 60.3896], [15.5665, 60.4083], [15.5762, 60.4193], [15.5916, 60.4614], [15.6741, 60.4634], [15.6993, 60.4683], [15.7007, 60.4779], [15.6951, 60.4882], [15.6755, 60.5096], [15.6825, 60.544], [15.6685, 60.5502], [15.5958, 60.5605], [15.5385, 60.5412], [15.3903, 60.5975], [15.3805, 60.6291], [15.3721, 60.6387], [15.3467, 60.6482], [15.2944, 60.6433]]]}}, {"type": "Feature", "properties": {"osm_type": "relation", "osm_id": 470506151, "name": "Falun", "admin_level": "6", "kind": "subdivision_2", "parent_osm_id": 52834, "parent_name": "Dalarna County", "parent_iso": "SE-W"}, "geometry": {"type": "Polygon", "coordinates": [[[15.7927, 61.0741], [15.7709, 61.0688], [15.7207, 61.0677], [15.7097, 61.0096], [15.6748, 60.9704], [15.6573, 60.9608], [15.6486, 60.9322], [15.6464, 60.893], [15.6639, 60.8865], [15.6377, 60.8631], [15.6115, 60.8482], [15.5612, 60.8482], [15.5241, 60.8206], [15.4039, 60.8025], [15.3428, 60.7523], [15.3056, 60.7427], [15.3188, 60.7235], [15.393, 60.7331], [15.428, 60.7182], [15.4433, 60.7011], [15.4411, 60.6861], [15.3467, 60.6482], [15.3721, 60.6387], [15.3805, 60.6291], [15.3903, 60.5975], [15.5385, 60.5412], [15.5958, 60.5605], [15.6685, 60.5502], [15.6825, 60.544], [15.6755, 60.5096], [15.7005, 60.4782], [15.7617, 60.4773], [15.8263, 60.4908], [15.9183, 60.547], [15.9804, 60.5947], [16.045, 60.6154], [16.2542, 60.641], [16.2762, 60.6592], [16.3183, 60.7187], [16.3386, 60.7368], [16.3639, 60.75], [16.4042, 60.7892], [16.4042, 60.8034], [16.3066, 60.8612], [16.2328, 60.9138], [16.188, 60.9638], [16.1643, 60.9804], [16.1484, 61.0098], [16.0245, 61.0162], [15.9059, 61.0341], [15.8136, 61.0634], [15.7927, 61.0741]]]}}, {"type": "Feature", "properties": {"osm_type": "relation", "osm_id": 200378101, "name": "Säter", "admin_level": "6", "kind": "subdivision_2", "parent_osm_id": 52834, "parent_name": "Dalarna County", "parent_iso": "SE-W"}, "geometry": {"type": "Polygon", "coordinates": [[[15.68, 60.2399], [15.7145, 60.2549], [15.7592, 60.2647], [15.7866, 60.2906], [15.8015, 60.3251], [15.8661, 60.3718], [15.9083, 60.3792], [15.9556, 60.4013], [15.958, 60.4295], [15.9307, 60.4418], [15.9456, 60.4626], [15.963, 60.4724], [15.973, 60.5128], [16.0624, 60.5715], [16.1121, 60.6105], [16.1548, 60.6294], [16.045, 60.6154], [15.9804, 60.5947], [15.9183, 60.547], [15.8263, 60.4908], [15.7617, 60.4773], [15.7005, 60.4782], [15.6993, 60.4683], [15.6741, 60.4634], [15.5916, 60.4614], [15.5762, 60.4193], [15.5665, 60.4083], [15.4994, 60.3896], [15.4644, 60.3744], [15.4001, 60.362], [15.3372, 60.326], [15.2626, 60.3131], [15.3253, 60.3031], [15.5001, 60.289], [15.5547, 60.2674], [15.68, 60.2399]]]}}, {"type": "Feature", "properties": {"osm_type": "relation", "osm_id": 890149561, "name": "Hedemora", "admin_level": "6", "kind": "subdivision_2", "parent_osm_id": 52834, "parent_name": "Dalarna County", "parent_iso": "SE-W"}, "geometry": {"type": "Polygon", "coordinates": [[[16.1646, 60.6302], [16.1121, 60.6105], [16.0624, 60.5715], [15.973, 60.5128], [15.963, 60.4724], [15.9456, 60.4626], [15.9307, 60.4418], [15.958, 60.4295], [15.9556, 60.4013], [15.9083, 60.3792], [15.8661, 60.3718], [15.8015, 60.3251], [15.7866, 60.2906], [15.7592, 60.2647], [15.7145, 60.2549], [15.68, 60.2399], [15.7622, 60.2219], [15.7993, 60.2099], [15.8141, 60.1997], [15.8373, 60.1984], [15.8558, 60.1893], [15.9402, 60.1866], [15.9718, 60.205], [16.0249, 60.2018], [16.0649, 60.2179], [16.0798, 60.2302], [16.0947, 60.2561], [16.1146, 60.2684], [16.1444, 60.2697], [16.1718, 60.2598], [16.2165, 60.2573], [16.3333, 60.3103], [16.3159, 60.3472], [16.383, 60.3951], [16.4084, 60.4062], [16.3825, 60.421], [16.3572, 60.4468], [16.3183, 60.4743], [16.2846, 60.5108], [16.2289, 60.5391], [16.1631, 60.6178], [16.1646, 60.6302]]]}}, {"type": "Feature", "properties": {"osm_type": "relation", "osm_id": 169880011, "name": "Avesta", "admin_level": "6", "kind": "subdivision_2", "parent_osm_id": 52834, "parent_name": "Dalarna County", "parent_iso": "SE-W"}, "geometry": {"type": "Polygon", "coordinates": [[[16.4084, 60.4062], [16.383, 60.3951], [16.3159, 60.3472], [16.3333, 60.3103], [16.2165, 60.2573], [16.1718, 60.2598], [16.1444, 60.2697], [16.1146, 60.2684], [16.0947, 60.2561], [16.0798, 60.2302], [16.0649, 60.2179], [16.0249, 60.2018], [16.072, 60.1801], [16.0852, 60.1696], [16.1774, 60.1539], [16.1854, 60.1381], [16.1643, 60.121], [16.2012, 60.0987], [16.3616, 60.1002], [16.3897, 60.1072], [16.4502, 60.1486], [16.5409, 60.1615], [16.5463, 60.1841], [16.6316, 60.2142], [16.678, 60.2109], [16.7332, 60.2167], [16.71, 60.2259], [16.7021, 60.2403], [16.6494, 60.2744], [16.565, 60.3605], [16.536, 60.384], [16.4084, 60.4062]]]}}, {"type": "Feature", "properties": {"osm_type": "relation", "osm_id": 783463228, "name": "Rättvik", "admin_level": "6", "kind": "subdivision_2", "parent_osm_id": 52834, "parent_name": "Dalarna County", "parent_iso": "SE-W"}, "geometry": {"type": "Polygon", "coordinates": [[[15.2566, 61.504], [15.2494, 61.5143], [15.2178, 61.5294], [15.1964, 61.579], [15.1802, 61.5965], [15.1672, 61.5965], [15.1543, 61.577], [15.1392, 61.5369], [15.1211, 61.5262], [15.1186, 61.4801], [15.0976, 61.4457], [15.0946, 61.3854], [15.0706, 61.3308], [15.0616, 61.2486], [15.0406, 61.2342], [15.0346, 61.214], [15.0736, 61.1967], [15.0946, 61.1764], [15.0826, 61.1171], [15.0736, 61.0997], [15.0526, 61.0808], [15.0099, 61.067], [14.9986, 61.0562], [14.9207, 61.0111], [14.8967, 60.9864], [14.9057, 60.9747], [14.9627, 60.9311], [14.9458, 60.9198], [15.0726, 60.8613], [15.104, 60.8566], [15.1593, 60.8376], [15.2598, 60.8376], [15.3887, 60.8727], [15.4804, 60.8823], [15.5459, 60.9056], [15.5787, 60.911], [15.6246, 60.9046], [15.6464, 60.893], [15.6486, 60.9322], [15.6573, 60.9608], [15.6748, 60.9704], [15.7097, 61.0096], [15.7207, 61.0677], [15.7709, 61.0688], [15.7927, 61.0741], [15.7662, 61.0876], [15.724, 61.1233], [15.6818, 61.225], [15.6581, 61.2491], [15.4761, 61.3441], [15.2995, 61.4526], [15.2566, 61.504]]]}}]}