{"type": "FeatureCollection", "parent": {"osm_id": 553303, "name": "Fujian", "admin_level": "4", "kind": "subdivision_1", "child_kind": "subdivision_2", "iso": "CN-FJ"}, "features": [{"type": "Feature", "properties": {"osm_type": "relation", "osm_id": 362717145, "name": "Puchengxian", "admin_level": "6", "kind": "subdivision_2", "parent_osm_id": 553303, "parent_name": "Fujian", "parent_iso": "CN-FJ"}, "geometry": {"type": "Polygon", "coordinates": [[[118.3944, 28.2676], [118.3742, 28.2819], [118.3362, 28.2718], [118.313, 28.2411], [118.2898, 28.222], [118.3072, 28.1967], [118.3342, 28.1878], [118.3509, 28.1428], [118.3423, 28.1013], [118.2893, 28.0833], [118.2159, 28.0775], [118.2369, 28.0], [118.2239, 27.9662], [118.2453, 27.9193], [118.238, 27.8866], [118.2225, 27.8628], [118.1798, 27.8166], [118.2061, 27.7974], [118.1836, 27.7685], [118.2649, 27.7738], [118.2658, 27.744], [118.2898, 27.6836], [118.2884, 27.6507], [118.3072, 27.6159], [118.3328, 27.5882], [118.3774, 27.5887], [118.4108, 27.5751], [118.492, 27.512], [118.5574, 27.5845], [118.5438, 27.6141], [118.5459, 27.6478], [118.5903, 27.6536], [118.6245, 27.6442], [118.6455, 27.6644], [118.661, 27.6925], [118.684, 27.7582], [118.6988, 27.7847], [118.7284, 27.8125], [118.7652, 27.8325], [118.8014, 27.8387], [118.7695, 27.9039], [118.7297, 27.9515], [118.7095, 28.0129], [118.6991, 28.0692], [118.7168, 28.0939], [118.7536, 28.1147], [118.7493, 28.1696], [118.758, 28.1977], [118.757, 28.2201], [118.7607, 28.2279], [118.7173, 28.2596], [118.7043, 28.2874], [118.6727, 28.303], [118.6304, 28.2674], [118.5606, 28.2461], [118.5615, 28.2685], [118.5219, 28.2747], [118.4405, 28.239], [118.4018, 28.2433], [118.3994, 28.2641], [118.3944, 28.2676]]]}}, {"type": "Feature", "properties": {"osm_type": "relation", "osm_id": 854713234, "name": "Wuyishanshi", "admin_level": "6", "kind": "subdivision_2", "parent_osm_id": 553303, "parent_name": "Fujian", "parent_iso": "CN-FJ"}, "geometry": {"type": "Polygon", "coordinates": [[[117.953, 27.9895], [117.9146, 27.9845], [117.8305, 27.9324], [117.7406, 27.8456], [117.689, 27.8398], [117.6607, 27.8424], [117.6453, 27.779], [117.6308, 27.7464], [117.6976, 27.6742], [117.6977, 27.6013], [117.7181, 27.5745], [117.7493, 27.558], [117.7657, 27.5157], [117.8033, 27.5038], [117.8518, 27.512], [117.9079, 27.4786], [117.9415, 27.4691], [117.9867, 27.4737], [118.037, 27.4865], [118.0679, 27.4997], [118.0978, 27.5214], [118.1199, 27.5543], [118.1386, 27.6021], [118.1809, 27.5622], [118.2574, 27.5663], [118.2971, 27.5806], [118.3072, 27.6159], [118.2884, 27.6507], [118.2898, 27.6836], [118.2658, 27.744], [118.2649, 27.7738], [118.1836, 27.7685], [118.2061, 27.7974], [118.1798, 27.8166], [118.2225, 27.8628], [118.238, 27.8866], [118.2453, 27.9193], [118.2239, 27.9662], [118.2369, 28.0], [118.2159, 28.0775], [118.1666, 28.0653], [118.1121, 28.0392], [118.0816, 28.0053], [118.0796, 27.9822], [118.0679, 27.9766], [118.0484, 27.9895], [118.018, 27.9941], [117.953, 27.9895]]]}}, {"type": "Feature", "properties": {"osm_type": "relation", "osm_id": 616288657, "name": "Guangzexian", "admin_level": "6", "kind": "subdivision_2", "parent_osm_id": 553303, "parent_name": "Fujian", "parent_iso": "CN-FJ"}, "geometry": {"type": "Polygon", "coordinates": [[[117.2561, 27.8583], [117.2537, 27.8535], [117.2712, 27.7988], [117.2613, 27.7609], [117.1838, 27.7061], [117.0549, 27.6765], [117.0987, 27.6446], [117.0537, 27.63], [117.0108, 27.644], [116.9912, 27.6271], [117.0087, 27.5706], [117.0271, 27.5553], [117.0717, 27.5367], [117.1051, 27.4462], [117.0768, 27.3913], [117.0772, 27.3679], [117.113, 27.3561], [117.1374, 27.3269], [117.1339, 27.3037], [117.2081, 27.2995], [117.244, 27.3053], [117.2493, 27.3355], [117.2423, 27.3662], [117.2532, 27.3979], [117.2698, 27.421], [117.3156, 27.4473], [117.3571, 27.4514], [117.3828, 27.4829], [117.4193, 27.5443], [117.4499, 27.5737], [117.4769, 27.5909], [117.5146, 27.5968], [117.5433, 27.6217], [117.6308, 27.7464], [117.6453, 27.779], [117.6607, 27.8424], [117.6076, 27.8473], [117.5573, 27.9264], [117.5498, 27.977], [117.4965, 27.9909], [117.4603, 27.959], [117.445, 27.933], [117.3537, 27.9034], [117.334, 27.8732], [117.2681, 27.8823], [117.2561, 27.8583]]]}}, {"type": "Feature", "properties": {"osm_type": "relation", "osm_id": 984018599, "name": "Songxixian", "admin_level": "6", "kind": "subdivision_2", "parent_osm_id": 553303, "parent_name": "Fujian", "parent_iso": "CN-FJ"}, "geometry": {"type": "Polygon", "coordinates": [[[118.5574, 27.5845], [118.5943, 27.5647], [118.6033, 27.536], [118.5877, 27.5111], [118.6254, 27.4533], [118.6549, 27.424], [118.6934, 27.4059], [118.7309, 27.4152], [118.7543, 27.4409], [118.7864, 27.4484], [118.8214, 27.4472], [118.8703, 27.4927], [118.8612, 27.5028], [118.8605, 27.5396], [118.877, 27.5528], [118.8805, 27.6136], [118.8629, 27.6561], [118.8546, 27.7006], [118.8014, 27.8387], [118.7652, 27.8325], [118.7284, 27.8125], [118.6988, 27.7847], [118.684, 27.7582], [118.661, 27.6925], [118.6455, 27.6644], [118.6245, 27.6442], [118.5903, 27.6536], [118.5459, 27.6478], [118.5438, 27.6141], [118.5574, 27.5845]]]}}, {"type": "Feature", "properties": {"osm_type": "relation", "osm_id": 145378327, "name": "Shouningxian", "admin_level": "6", "kind": "subdivision_2", "parent_osm_id": 553303, "parent_name": "Fujian", "parent_iso": "CN-FJ"}, "geometry": {"type": "Polygon", "coordinates": [[[119.4922, 27.6488], [119.4751, 27.6182], [119.4714, 27.5799], [119.4545, 27.5327], [119.4146, 27.5115], [119.3929, 27.5194], [119.3516, 27.5145], [119.3021, 27.4562], [119.2515, 27.4295], [119.2402, 27.4178], [119.2217, 27.4113], [119.2392, 27.3722], [119.2279, 27.3467], [119.2502, 27.3195], [119.2965, 27.3158], [119.3296, 27.3198], [119.3923, 27.2766], [119.4095, 27.2516], [119.3995, 27.22], [119.3774, 27.1954], [119.4056, 27.1785], [119.4299, 27.2102], [119.4606, 27.2339], [119.4933, 27.2398], [119.592, 27.231], [119.5944, 27.2596], [119.5806, 27.3255], [119.5894, 27.3644], [119.6248, 27.3807], [119.6572, 27.3797], [119.7282, 27.3623], [119.7168, 27.3866], [119.6986, 27.4599], [119.6854, 27.4906], [119.6342, 27.5718], [119.631, 27.6116], [119.6173, 27.6386], [119.6178, 27.6637], [119.5583, 27.6836], [119.4922, 27.6488]]]}}, {"type": "Feature", "properties": {"osm_type": "relation", "osm_id": 768338762, "name": "Jianyangshi", "admin_level": "6", "kind": "subdivision_2", "parent_osm_id": 553303, "parent_name": "Fujian", "parent_iso": "CN-FJ"}, "geometry": {"type": "Polygon", "coordinates": [[[118.3072, 27.6159], [118.2971, 27.5806], [118.2574, 27.5663], [118.218, 27.5614], [118.1809, 27.5622], [118.1386, 27.6021], [118.1199, 27.5543], [118.0978, 27.5214], [118.0679, 27.4997], [118.037, 27.4865], [117.9867, 27.4737], [117.9415, 27.4691], [117.9079, 27.4786], [117.8518, 27.512], [117.8033, 27.5038], [117.7657, 27.5157], [117.7493, 27.558], [117.7181, 27.5745], [117.6977, 27.6013], [117.6976, 27.6742], [117.6308, 27.7464], [117.5672, 27.6512], [117.5433, 27.6217], [117.5146, 27.5968], [117.509, 27.563], [117.5379, 27.5234], [117.5659, 27.4946], [117.596, 27.4746], [117.6141, 27.4529], [117.619, 27.4134], [117.6361, 27.3828], [117.675, 27.3597], [117.6949, 27.3257], [117.6828, 27.26], [117.6881, 27.2307], [117.7471, 27.2299], [117.776, 27.2111], [117.8094, 27.2007], [117.8418, 27.1983], [117.8744, 27.2161], [117.8975, 27.1877], [117.911, 27.1444], [117.9414, 27.1269], [117.9761, 27.1293], [118.0508, 27.1688], [118.1226, 27.1872], [118.1308, 27.2486], [118.143, 27.2794], [118.2106, 27.2487], [118.2765, 27.2703], [118.3162, 27.2628], [118.3668, 27.2842], [118.439, 27.294], [118.5024, 27.3305], [118.5543, 27.3336], [118.5987, 27.3507], [118.5498, 27.4035], [118.5349, 27.4371], [118.5301, 27.4691], [118.5527, 27.5], [118.5877, 27.5111], [118.6033, 27.536], [118.5943, 27.5647], [118.5574, 27.5845], [118.492, 27.512], [118.4108, 27.5751], [118.3774, 27.5887], [118.3328, 27.5882], [118.3072, 27.6159]]]}}, {"type": "Feature", "properties": {"osm_type": "relation", "osm_id": 430363698, "name": "Fudingshi", "admin_level": "6", "kind": "subdivision_2", "parent_osm_id": 553303, "parent_name": "Fujian", "parent_iso": "CN-FJ"}, "geometry": {"type": "Polygon", "coordinates": [[[119.9249, 27.3474], [120.0013, 27.2704], [120.0104, 27.2408], [120.0327, 27.2156], [119.9927, 27.2094], [119.9561, 27.1891], [119.9488, 27.1568], [119.9323, 27.1325], [119.9361, 27.1016], [119.9722, 27.1057], [120.1, 27.0836], [120.1224, 27.1105], [120.1523, 27.1186], [120.1661, 27.0908], [120.1613, 27.0593], [120.2748, 27.049], [120.2399, 27.0938], [120.2417, 27.1101], [120.2608, 27.1048], [120.2804, 27.0856], [120.3067, 27.0714], [120.3695, 27.0686], [120.3635, 27.0984], [120.3869, 27.1128], [120.4149, 27.114], [120.4293, 27.1219], [120.4208, 27.1473], [120.3615, 27.1444], [120.3465, 27.1494], [120.3611, 27.16], [120.3793, 27.1831], [120.3694, 27.2059], [120.353, 27.2165], [120.3311, 27.2148], [120.2923, 27.2018], [120.2554, 27.2325], [120.2422, 27.2354], [120.2073, 27.2193], [120.1936, 27.1985], [120.1802, 27.1896], [120.174, 27.2185], [120.2027, 27.2618], [120.2342, 27.2471], [120.2447, 27.2764], [120.3021, 27.2796], [120.2931, 27.2456], [120.2984, 27.2186], [120.3165, 27.2326], [120.3417, 27.2358], [120.369, 27.2298], [120.3886, 27.2106], [120.3875, 27.1655], [120.4067, 27.1718], [120.396, 27.2105], [120.3999, 27.2749], [120.378, 27.2894], [120.3288, 27.3439], [120.3333, 27.3669], [120.3281, 27.3943], [120.3137, 27.4036], [120.2475, 27.3957], [120.1591, 27.4282], [120.1197, 27.4233], [120.0749, 27.3848], [120.0623, 27.3625], [120.0302, 27.348], [120.0075, 27.3454], [119.9684, 27.3719], [119.9356, 27.3602], [119.9249, 27.3474]]]}}, {"type": "Feature", "properties": {"osm_type": "relation", "osm_id": 771543056, "name": "Zhenghexian", "admin_level": "6", "kind": "subdivision_2", "parent_osm_id": 553303, "parent_name": "Fujian", "parent_iso": "CN-FJ"}, "geometry": {"type": "Polygon", "coordinates": [[[118.8703, 27.4927], [118.8214, 27.4472], [118.7864, 27.4484], [118.7543, 27.4409], [118.7309, 27.4152], [118.6934, 27.4059], [118.6549, 27.424], [118.6254, 27.4533], [118.5877, 27.5111], [118.5527, 27.5], [118.5301, 27.4691], [118.5349, 27.4371], [118.5498, 27.4035], [118.5987, 27.3507], [118.636, 27.3313], [118.6675, 27.328], [118.7037, 27.3335], [118.7241, 27.3035], [118.7578, 27.2881], [118.8189, 27.3006], [118.8883, 27.2245], [118.9204, 27.2039], [118.951, 27.1939], [118.9703, 27.1785], [118.9797, 27.1685], [118.9811, 27.1315], [119.0784, 27.0637], [119.1217, 27.1057], [119.1819, 27.1452], [119.1592, 27.1721], [119.1585, 27.2038], [119.2063, 27.265], [119.1816, 27.295], [119.2279, 27.3467], [119.2392, 27.3722], [119.2217, 27.4113], [119.2043, 27.4052], [119.1591, 27.4013], [119.1403, 27.4081], [119.1118, 27.4739], [119.0638, 27.4846], [119.0331, 27.4734], [118.994, 27.4807], [118.8982, 27.4714], [118.8985, 27.4634], [118.8703, 27.4927]]]}}, {"type": "Feature", "properties": {"osm_type": "relation", "osm_id": 528213941, "name": "Zhaowushi", "admin_level": "6", "kind": "subdivision_2", "parent_osm_id": 553303, "parent_name": "Fujian", "parent_iso": "CN-FJ"}, "geometry": {"type": "Polygon", "coordinates": [[[117.1339, 27.3037], [117.1298, 27.2762], [117.0985, 27.2511], [117.0113, 27.1332], [117.084, 27.1052], [117.1188, 27.1109], [117.1575, 27.0955], [117.2184, 27.0422], [117.2499, 27.0611], [117.2577, 27.0891], [117.2579, 27.1183], [117.2938, 27.1244], [117.3608, 27.1076], [117.3642, 27.0792], [117.382, 27.0542], [117.4252, 27.0137], [117.4943, 27.0242], [117.5305, 27.0104], [117.5692, 27.0199], [117.5837, 26.9838], [117.5728, 26.9479], [117.605, 26.928], [117.6736, 26.9312], [117.7066, 26.9477], [117.7298, 26.9763], [117.7204, 27.0445], [117.724, 27.0763], [117.7538, 27.1212], [117.7838, 27.1521], [117.8094, 27.2007], [117.776, 27.2111], [117.7471, 27.2299], [117.6881, 27.2307], [117.6828, 27.26], [117.6949, 27.3257], [117.675, 27.3597], [117.6361, 27.3828], [117.619, 27.4134], [117.6141, 27.4529], [117.596, 27.4746], [117.5659, 27.4946], [117.5379, 27.5234], [117.509, 27.563], [117.5146, 27.5968], [117.4769, 27.5909], [117.4499, 27.5737], [117.4193, 27.5443], [117.3828, 27.4829], [117.3571, 27.4514], [117.3156, 27.4473], [117.2698, 27.421], [117.2532, 27.3979], [117.2423, 27.3662], [117.2493, 27.3355], [117.244, 27.3053], [117.2081, 27.2995], [117.1339, 27.3037]]]}}, {"type": "Feature", "properties": {"osm_type": "relation", "osm_id": 294087634, "name": "Fuanshi", "admin_level": "6", "kind": "subdivision_2", "parent_osm_id": 553303, "parent_name": "Fujian", "parent_iso": "CN-FJ"}, "geometry": {"type": "Polygon", "coordinates": [[[119.7282, 27.3623], [119.6572, 27.3797], [119.6248, 27.3807], [119.5894, 27.3644], [119.5806, 27.3255], [119.5944, 27.2596], [119.592, 27.231], [119.4933, 27.2398], [119.4606, 27.2339], [119.4299, 27.2102], [119.4056, 27.1785], [119.3774, 27.1954], [119.3713, 27.1593], [119.3902, 27.1258], [119.4151, 27.1041], [119.3912, 27.0837], [119.419, 27.0599], [119.4503, 27.0497], [119.477, 26.9974], [119.5107, 26.979], [119.5181, 26.947], [119.5444, 26.9153], [119.5702, 26.8966], [119.5801, 26.8699], [119.5885, 26.7836], [119.6166, 26.787], [119.6184, 26.7548], [119.647, 26.7524], [119.6904, 26.7149], [119.7315, 26.7142], [119.6776, 26.7599], [119.6886, 26.7957], [119.6876, 26.8159], [119.6773, 26.8461], [119.6621, 26.8684], [119.6507, 26.8977], [119.6724, 26.8877], [119.6866, 26.8654], [119.7071, 26.8051], [119.7264, 26.7925], [119.737, 26.7761], [119.7377, 26.744], [119.7555, 26.7269], [119.7674, 26.8111], [119.7798, 26.8302], [119.7983, 26.8409], [119.8155, 26.916], [119.8046, 26.9514], [119.8115, 26.987], [119.8432, 27.0139], [119.7982, 27.0625], [119.7928, 27.1363], [119.7357, 27.1246], [119.7202, 27.1538], [119.7172, 27.1816], [119.7266, 27.213], [119.7494, 27.2367], [119.7751, 27.2983], [119.7516, 27.2967], [119.7282, 27.3623]]]}}, {"type": "Feature", "properties": {"osm_type": "relation", "osm_id": 944230605, "name": "Tuorongxian", "admin_level": "6", "kind": "subdivision_2", "parent_osm_id": 553303, "parent_name": "Fujian", "parent_iso": "CN-FJ"}, "geometry": {"type": "Polygon", "coordinates": [[[119.7751, 27.2983], [119.7494, 27.2367], [119.7266, 27.213], [119.7172, 27.1816], [119.7202, 27.1538], [119.7357, 27.1246], [119.7928, 27.1363], [119.8242, 27.1336], [119.8966, 27.1138], [119.9323, 27.1325], [119.9488, 27.1568], [119.9561, 27.1891], [119.9927, 27.2094], [120.0327, 27.2156], [120.0104, 27.2408], [120.0013, 27.2704], [119.9249, 27.3474], [119.8991, 27.3128], [119.8597, 27.307], [119.8352, 27.3161], [119.7751, 27.2983]]]}}, {"type": "Feature", "properties": {"osm_type": "relation", "osm_id": 319970824, "name": "Zhouningxian", "admin_level": "6", "kind": "subdivision_2", "parent_osm_id": 553303, "parent_name": "Fujian", "parent_iso": "CN-FJ"}, "geometry": {"type": "Polygon", "coordinates": [[[119.2279, 27.3467], [119.1816, 27.295], [119.2063, 27.265], [119.1585, 27.2038], [119.1592, 27.1721], [119.1819, 27.1452], [119.1217, 27.1057], [119.0784, 27.0637], [119.0995, 27.0158], [119.1595, 26.9924], [119.1628, 26.9737], [119.2241, 26.9645], [119.2457, 26.9425], [119.3608, 26.9104], [119.3939, 26.9178], [119.4287, 26.9822], [119.477, 26.9974], [119.4503, 27.0497], [119.419, 27.0599], [119.3912, 27.0837], [119.4151, 27.1041], [119.3902, 27.1258], [119.3713, 27.1593], [119.3774, 27.1954], [119.3995, 27.22], [119.4095, 27.2516], [119.3923, 27.2766], [119.3296, 27.3198], [119.2965, 27.3158], [119.2502, 27.3195], [119.2279, 27.3467]]]}}, {"type": "Feature", "properties": {"osm_type": "relation", "osm_id": 536162635, "name": "Jaioushi", "admin_level": "6", "kind": "subdivision_2", "parent_osm_id": 553303, "parent_name": "Fujian", "parent_iso": "CN-FJ"}, "geometry": {"type": "Polygon", "coordinates": [[[117.9414, 27.1269], [117.9777, 27.0661], [118.0052, 27.0518], [118.0377, 26.9842], [118.0731, 26.9833], [118.1004, 26.96], [118.1224, 26.9912], [118.1973, 26.974], [118.2209, 26.9414], [118.2103, 26.8844], [118.1955, 26.8536], [118.2622, 26.866], [118.2756, 26.7754], [118.2844, 26.7493], [118.304, 26.7258], [118.3328, 26.7109], [118.3788, 26.7035], [118.4459, 26.673], [118.4805, 26.6829], [118.5139, 26.6825], [118.5078, 26.7102], [118.5426, 26.7228], [118.5752, 26.7249], [118.6051, 26.7813], [118.6227, 26.8492], [118.6507, 26.8719], [118.7, 26.9013], [118.676, 26.9469], [118.6903, 26.9766], [118.754, 26.9588], [118.7874, 26.9852], [118.834, 27.032], [118.8658, 27.0705], [118.8818, 27.1086], [118.9113, 27.1289], [118.9273, 27.1535], [118.9204, 27.2039], [118.8883, 27.2245], [118.8189, 27.3006], [118.7578, 27.2881], [118.7241, 27.3035], [118.7037, 27.3335], [118.6675, 27.328], [118.636, 27.3313], [118.5987, 27.3507], [118.5543, 27.3336], [118.5024, 27.3305], [118.439, 27.294], [118.3668, 27.2842], [118.3162, 27.2628], [118.2765, 27.2703], [118.2106, 27.2487], [118.143, 27.2794], [118.1308, 27.2486], [118.1226, 27.1872], [118.0508, 27.1688], [117.9761, 27.1293], [117.9414, 27.1269]]]}}, {"type": "Feature", "properties": {"osm_type": "relation", "osm_id": 836631988, "name": "Xiapuxian", "admin_level": "6", "kind": "subdivision_2", "parent_osm_id": 553303, "parent_name": "Fujian", "parent_iso": "CN-FJ"}, "geometry": {"type": "Polygon", "coordinates": [[[119.9323, 27.1325], [119.8966, 27.1138], [119.8242, 27.1336], [119.7928, 27.1363], [119.7982, 27.0625], [119.8432, 27.0139], [119.8115, 26.987], [119.8046, 26.9514], [119.8155, 26.916], [119.7983, 26.8409], [119.8431, 26.8441], [119.7907, 26.8164], [119.7915, 26.8045], [119.8201, 26.792], [119.8445, 26.7991], [119.8429, 26.7745], [119.8264, 26.7741], [119.8122, 26.7661], [119.7978, 26.7572], [119.7914, 26.7449], [119.7933, 26.6852], [119.8368, 26.7072], [119.8598, 26.6714], [119.8641, 26.6444], [119.9005, 26.6578], [119.905, 26.6904], [119.9149, 26.7153], [119.9336, 26.7265], [119.9201, 26.7643], [119.9209, 26.7807], [119.9493, 26.7865], [119.9696, 26.7839], [119.9797, 26.772], [120.0146, 26.7708], [120.0486, 26.7807], [120.0678, 26.7772], [120.069, 26.7597], [120.0145, 26.7131], [119.9786, 26.6951], [119.9828, 26.6481], [119.9399, 26.6123], [119.9142, 26.6219], [119.8384, 26.5861], [119.8383, 26.566], [119.8174, 26.5531], [119.8193, 26.5117], [119.8716, 26.5118], [119.9353, 26.5504], [119.9441, 26.5845], [119.9605, 26.5932], [120.0012, 26.5897], [120.0679, 26.6361], [120.0796, 26.6104], [120.0898, 26.6104], [120.1479, 26.6429], [120.1202, 26.6527], [120.1121, 26.6735], [120.1151, 26.7008], [120.1523, 26.7204], [120.1046, 26.7457], [120.1315, 26.7946], [120.1092, 26.7975], [120.0946, 26.8052], [120.0923, 26.8218], [120.0438, 26.8315], [120.023, 26.8489], [120.0309, 26.8739], [120.0417, 26.8876], [120.0959, 26.8838], [120.122, 26.9338], [120.1919, 26.9304], [120.2275, 26.9163], [120.238, 26.9509], [120.1762, 26.9729], [120.2094, 26.9821], [120.2559, 26.986], [120.2578, 27.0021], [120.2381, 27.0308], [120.2412, 27.0406], [120.2731, 27.0387], [120.2748, 27.049], [120.1613, 27.0593], [120.1661, 27.0908], [120.1523, 27.1186], [120.1224, 27.1105], [120.1, 27.0836], [119.9722, 27.1057], [119.9361, 27.1016], [119.9323, 27.1325]]]}}, {"type": "Feature", "properties": {"osm_type": "relation", "osm_id": 625095504, "name": "Pingnanxian", "admin_level": "6", "kind": "subdivision_2", "parent_osm_id": 553303, "parent_name": "Fujian", "parent_iso": "CN-FJ"}, "geometry": {"type": "Polygon", "coordinates": [[[118.9204, 27.2039], [118.9273, 27.1535], [118.9113, 27.1289], [118.8818, 27.1086], [118.8658, 27.0705], [118.7874, 26.9852], [118.754, 26.9588], [118.6903, 26.9766], [118.676, 26.9469], [118.7, 26.9013], [118.7124, 26.8543], [118.7352, 26.8337], [118.7734, 26.8172], [118.8065, 26.8122], [118.8409, 26.8247], [118.8834, 26.8309], [118.8811, 26.8009], [118.8987, 26.7666], [118.9663, 26.7893], [118.9976, 26.7681], [119.0329, 26.7728], [119.0635, 26.7571], [119.1253, 26.7695], [119.1683, 26.8005], [119.1534, 26.8297], [119.175, 26.8653], [119.1525, 26.894], [119.189, 26.8995], [119.1595, 26.9924], [119.0995, 27.0158], [119.0784, 27.0637], [118.9811, 27.1315], [118.9797, 27.1685], [118.9703, 27.1785], [118.951, 27.1939], [118.9204, 27.2039]]]}}, {"type": "Feature", "properties": {"osm_type": "relation", "osm_id": 142765391, "name": "Shuchangxian", "admin_level": "6", "kind": "subdivision_2", "parent_osm_id": 553303, "parent_name": "Fujian", "parent_iso": "CN-FJ"}, "geometry": {"type": "Polygon", "coordinates": [[[117.8094, 27.2007], [117.7838, 27.1521], [117.7538, 27.1212], [117.724, 27.0763], [117.7204, 27.0445], [117.7298, 26.9763], [117.7066, 26.9477], [117.6736, 26.9312], [117.605, 26.928], [117.5728, 26.9479], [117.5837, 26.9838], [117.5692, 27.0199], [117.5305, 27.0104], [117.4942, 26.9388], [117.5602, 26.9175], [117.5826, 26.8855], [117.6298, 26.8384], [117.6283, 26.7747], [117.5957, 26.755], [117.5689, 26.7315], [117.6083, 26.674], [117.6446, 26.6562], [117.7206, 26.6828], [117.8292, 26.689], [117.8509, 26.7127], [117.8895, 26.7688], [117.8878, 26.7972], [117.9293, 26.7881], [117.9731, 26.8008], [118.018, 26.8579], [118.0535, 26.8589], [118.1213, 26.8057], [118.1639, 26.7914], [118.2081, 26.8013], [118.2242, 26.8297], [118.1955, 26.8536], [118.2103, 26.8844], [118.2209, 26.9414], [118.1973, 26.974], [118.1224, 26.9912], [118.1004, 26.96], [118.0731, 26.9833], [118.0377, 26.9842], [118.0052, 27.0518], [117.9777, 27.0661], [117.9414, 27.1269], [117.911, 27.1444], [117.8975, 27.1877], [117.8744, 27.2161], [117.8418, 27.1983], [117.8094, 27.2007]]]}}, {"type": "Feature", "properties": {"osm_type": "relation", "osm_id": 123926147, "name": "Ningdeshi", "admin_level": "6", "kind": "subdivision_2", "parent_osm_id": 553303, "parent_name": "Fujian", "parent_iso": "CN-FJ"}, "geometry": {"type": "Polygon", "coordinates": [[[119.477, 26.9974], [119.4287, 26.9822], [119.3939, 26.9178], [119.3608, 26.9104], [119.2457, 26.9425], [119.2241, 26.9645], [119.1628, 26.9737], [119.189, 26.8995], [119.1525, 26.894], [119.175, 26.8653], [119.1534, 26.8297], [119.1683, 26.8005], [119.1253, 26.7695], [119.1662, 26.7434], [119.1979, 26.7596], [119.2284, 26.7551], [119.2294, 26.7167], [119.2676, 26.6888], [119.3053, 26.6924], [119.3624, 26.6475], [119.4049, 26.6544], [119.4488, 26.6463], [119.4836, 26.627], [119.5082, 26.6066], [119.526, 26.571], [119.6463, 26.5403], [119.713, 26.5344], [119.761, 26.5505], [119.8058, 26.5403], [119.774, 26.5897], [119.7259, 26.6011], [119.6637, 26.6063], [119.6375, 26.6012], [119.5997, 26.5841], [119.5827, 26.5983], [119.5723, 26.6166], [119.5509, 26.6294], [119.57, 26.6351], [119.5691, 26.6462], [119.5495, 26.6652], [119.5907, 26.6563], [119.6086, 26.6704], [119.5999, 26.6949], [119.5622, 26.7191], [119.5724, 26.7283], [119.6103, 26.7261], [119.6282, 26.7302], [119.6071, 26.7356], [119.5848, 26.7585], [119.5592, 26.7697], [119.5732, 26.786], [119.5885, 26.7836], [119.5801, 26.8699], [119.5702, 26.8966], [119.5444, 26.9153], [119.5181, 26.947], [119.5107, 26.979], [119.477, 26.9974]]]}}, {"type": "Feature", "properties": {"osm_type": "relation", "osm_id": 743720578, "name": "Tainingxian", "admin_level": "6", "kind": "subdivision_2", "parent_osm_id": 553303, "parent_name": "Fujian", "parent_iso": "CN-FJ"}, "geometry": {"type": "Polygon", "coordinates": [[[117.0113, 27.1332], [117.0043, 27.1245], [117.0416, 27.066], [117.0503, 27.0392], [117.0477, 27.011], [117.0324, 26.9833], [116.9358, 26.9323], [116.915, 26.9053], [116.9239, 26.8721], [116.949, 26.8411], [116.962, 26.8114], [116.9605, 26.7831], [116.9369, 26.7602], [116.9074, 26.747], [116.8793, 26.7225], [116.8963, 26.6922], [116.9063, 26.654], [116.9686, 26.6381], [116.9938, 26.6097], [117.0267, 26.5935], [117.0642, 26.5597], [117.0941, 26.5531], [117.1021, 26.5873], [117.088, 26.6234], [117.1157, 26.6488], [117.1513, 26.6442], [117.1517, 26.6775], [117.1766, 26.7066], [117.2139, 26.7127], [117.2435, 26.7869], [117.2121, 26.804], [117.2164, 26.8424], [117.2381, 26.8671], [117.2486, 26.9345], [117.2819, 26.9497], [117.3241, 26.9515], [117.3277, 26.9864], [117.3189, 27.0169], [117.382, 27.0542], [117.3642, 27.0792], [117.3608, 27.1076], [117.2938, 27.1244], [117.2579, 27.1183], [117.2577, 27.0891], [117.2499, 27.0611], [117.2184, 27.0422], [117.1575, 27.0955], [117.1188, 27.1109], [117.084, 27.1052], [117.0113, 27.1332]]]}}, {"type": "Feature", "properties": {"osm_type": "relation", "osm_id": 170053209, "name": "Jianningxian", "admin_level": "6", "kind": "subdivision_2", "parent_osm_id": 553303, "parent_name": "Fujian", "parent_iso": "CN-FJ"}, "geometry": {"type": "Polygon", "coordinates": [[[116.7094, 26.999], [116.697, 26.9893], [116.6365, 26.9942], [116.6156, 26.9522], [116.5832, 26.9368], [116.5186, 26.8441], [116.5167, 26.75], [116.4856, 26.7219], [116.4808, 26.7096], [116.5243, 26.6786], [116.5371, 26.65], [116.6242, 26.6669], [116.6668, 26.6613], [116.7153, 26.6033], [116.779, 26.5865], [116.8171, 26.59], [116.8598, 26.578], [116.8942, 26.5875], [116.9047, 26.615], [116.9063, 26.654], [116.8963, 26.6922], [116.8793, 26.7225], [116.9074, 26.747], [116.9369, 26.7602], [116.9605, 26.7831], [116.962, 26.8114], [116.949, 26.8411], [116.9239, 26.8721], [116.915, 26.9053], [116.9358, 26.9323], [117.0324, 26.9833], [117.0477, 27.011], [117.0503, 27.0392], [117.0416, 27.066], [117.0043, 27.1245], [116.9733, 27.0867], [116.9192, 27.0519], [116.7851, 27.034], [116.728, 27.0137], [116.7094, 26.999]]]}}, {"type": "Feature", "properties": {"osm_type": "relation", "osm_id": 610394683, "name": "Jianglexian", "admin_level": "6", "kind": "subdivision_2", "parent_osm_id": 553303, "parent_name": "Fujian", "parent_iso": "CN-FJ"}, "geometry": {"type": "Polygon", "coordinates": [[[117.382, 27.0542], [117.3189, 27.0169], [117.3277, 26.9864], [117.3241, 26.9515], [117.2819, 26.9497], [117.2486, 26.9345], [117.2381, 26.8671], [117.2164, 26.8424], [117.2121, 26.804], [117.2435, 26.7869], [117.2139, 26.7127], [117.1766, 26.7066], [117.1517, 26.6775], [117.1513, 26.6442], [117.1157, 26.6488], [117.088, 26.6234], [117.1021, 26.5873], [117.1958, 26.5579], [117.2133, 26.5207], [117.2131, 26.4906], [117.2266, 26.455], [117.2939, 26.4584], [117.3152, 26.4346], [117.3478, 26.4503], [117.3822, 26.4596], [117.438, 26.508], [117.4829, 26.5244], [117.4951, 26.5495], [117.5208, 26.571], [117.5302, 26.6114], [117.5651, 26.6206], [117.5982, 26.6407], [117.6083, 26.674], [117.5689, 26.7315], [117.5957, 26.755], [117.6283, 26.7747], [117.6298, 26.8384], [117.5826, 26.8855], [117.5602, 26.9175], [117.4942, 26.9388], [117.5305, 27.0104], [117.4943, 27.0242], [117.4252, 27.0137], [117.382, 27.0542]]]}}, {"type": "Feature", "properties": {"osm_type": "relation", "osm_id": 396514855, "name": "Gutianxian", "admin_level": "6", "kind": "subdivision_2", "parent_osm_id": 553303, "parent_name": "Fujian", "parent_iso": "CN-FJ"}, "geometry": {"type": "Polygon", "coordinates": [[[118.5752, 26.7249], [118.5694, 26.6321], [118.6033, 26.5709], [118.5951, 26.5412], [118.5609, 26.516], [118.5372, 26.4812], [118.5321, 26.4527], [118.5454, 26.4205], [118.6123, 26.3908], [118.6416, 26.3707], [118.6516, 26.3436], [118.7267, 26.3518], [118.7643, 26.3426], [118.7883, 26.3664], [118.7812, 26.3934], [118.753, 26.413], [118.7275, 26.4436], [118.7174, 26.5036], [118.7383, 26.5268], [118.7702, 26.5209], [118.8095, 26.467], [118.8722, 26.5017], [118.9098, 26.5108], [118.9091, 26.5473], [118.9395, 26.569], [118.983, 26.5827], [118.9985, 26.612], [119.0309, 26.6195], [119.0571, 26.6059], [119.0755, 26.5692], [119.1095, 26.5528], [119.1334, 26.5735], [119.1637, 26.5852], [119.201, 26.5776], [119.215, 26.5457], [119.2527, 26.5677], [119.2567, 26.5981], [119.273, 26.625], [119.3044, 26.6069], [119.3408, 26.6128], [119.3624, 26.6475], [119.3053, 26.6924], [119.2676, 26.6888], [119.2294, 26.7167], [119.2284, 26.7551], [119.1979, 26.7596], [119.1662, 26.7434], [119.1253, 26.7695], [119.0635, 26.7571], [119.0329, 26.7728], [118.9976, 26.7681], [118.9663, 26.7893], [118.8987, 26.7666], [118.8811, 26.8009], [118.8834, 26.8309], [118.8409, 26.8247], [118.8065, 26.8122], [118.7734, 26.8172], [118.7352, 26.8337], [118.7124, 26.8543], [118.7, 26.9013], [118.6507, 26.8719], [118.6227, 26.8492], [118.6051, 26.7813], [118.5752, 26.7249]]]}}, {"type": "Feature", "properties": {"osm_type": "relation", "osm_id": 390847398, "name": "Nanpingshi", "admin_level": "6", "kind": "subdivision_2", "parent_osm_id": 553303, "parent_name": "Fujian", "parent_iso": "CN-FJ"}, "geometry": {"type": "Polygon", "coordinates": [[[118.1955, 26.8536], [118.2242, 26.8297], [118.2081, 26.8013], [118.1639, 26.7914], [118.1213, 26.8057], [118.0535, 26.8589], [118.018, 26.8579], [117.9731, 26.8008], [117.9293, 26.7881], [117.8878, 26.7972], [117.8895, 26.7688], [117.8509, 26.7127], [117.8292, 26.689], [117.8323, 26.6137], [117.8454, 26.5888], [117.935, 26.5854], [117.9805, 26.5635], [118.0046, 26.5375], [118.046, 26.441], [118.0706, 26.4169], [118.1358, 26.3979], [118.174, 26.4027], [118.1858, 26.4278], [118.2118, 26.4467], [118.2505, 26.4452], [118.2772, 26.4659], [118.2978, 26.4365], [118.3479, 26.4321], [118.3857, 26.4391], [118.4282, 26.3779], [118.4644, 26.3692], [118.5345, 26.3628], [118.5693, 26.3488], [118.5954, 26.3145], [118.6445, 26.3109], [118.6516, 26.3436], [118.6416, 26.3707], [118.6123, 26.3908], [118.5454, 26.4205], [118.5321, 26.4527], [118.5372, 26.4812], [118.5609, 26.516], [118.5951, 26.5412], [118.6033, 26.5709], [118.5694, 26.6321], [118.5752, 26.7249], [118.5426, 26.7228], [118.5078, 26.7102], [118.5139, 26.6825], [118.4805, 26.6829], [118.4459, 26.673], [118.3788, 26.7035], [118.3328, 26.7109], [118.304, 26.7258], [118.2844, 26.7493], [118.267, 26.819], [118.2622, 26.866], [118.1955, 26.8536]]]}}, {"type": "Feature", "properties": {"osm_type": "relation", "osm_id": 442870378, "name": "Luoyuanxian", "admin_level": "6", "kind": "subdivision_2", "parent_osm_id": 553303, "parent_name": "Fujian", "parent_iso": "CN-FJ"}, "geometry": {"type": "Polygon", "coordinates": [[[119.3624, 26.6475], [119.3408, 26.6128], [119.3044, 26.6069], [119.273, 26.625], [119.2567, 26.5981], [119.2527, 26.5677], [119.215, 26.5457], [119.201, 26.5776], [119.1637, 26.5852], [119.1334, 26.5735], [119.1095, 26.5528], [119.113, 26.5202], [119.1404, 26.5087], [119.1777, 26.5015], [119.1729, 26.4735], [119.1986, 26.4422], [119.318, 26.4458], [119.3627, 26.4553], [119.394, 26.443], [119.4205, 26.4216], [119.496, 26.4493], [119.5698, 26.4154], [119.6538, 26.4316], [119.6455, 26.4401], [119.5805, 26.4272], [119.5579, 26.4666], [119.5771, 26.4742], [119.5977, 26.4743], [119.6203, 26.4651], [119.6427, 26.4926], [119.656, 26.4924], [119.6777, 26.464], [119.7207, 26.4338], [119.7601, 26.437], [119.7567, 26.4051], [119.8262, 26.4414], [119.7916, 26.493], [119.7832, 26.5303], [119.761, 26.5505], [119.713, 26.5344], [119.6463, 26.5403], [119.526, 26.571], [119.5082, 26.6066], [119.4836, 26.627], [119.4488, 26.6463], [119.4049, 26.6544], [119.3624, 26.6475]]]}}, {"type": "Feature", "properties": {"osm_type": "relation", "osm_id": 524483131, "name": "Minhouxian", "admin_level": "6", "kind": "subdivision_2", "parent_osm_id": 553303, "parent_name": "Fujian", "parent_iso": "CN-FJ"}, "geometry": {"type": "Polygon", "coordinates": [[[118.983, 26.5827], [118.9843, 26.5403], [118.9952, 26.4924], [118.99, 26.4653], [118.9602, 26.4386], [118.9266, 26.4221], [118.8963, 26.3878], [118.8825, 26.3526], [118.8425, 26.2904], [118.885, 26.2871], [118.9232, 26.2984], [118.9253, 26.2605], [118.9062, 26.2152], [118.8666, 26.1512], [118.8625, 26.1244], [118.8685, 26.0979], [118.9372, 26.0963], [118.9681, 26.0859], [118.9913, 26.0616], [118.9959, 26.0302], [119.0528, 26.0251], [119.0798, 26.0041], [119.1134, 25.9341], [119.1485, 25.9275], [119.1806, 25.9143], [119.2046, 25.8822], [119.2535, 25.8729], [119.2858, 25.8511], [119.3319, 25.8329], [119.3677, 25.8348], [119.3923, 25.8599], [119.4024, 25.8913], [119.4072, 25.9189], [119.4031, 25.9554], [119.3281, 25.9648], [119.2918, 25.9741], [119.2478, 25.9963], [119.2247, 25.9824], [119.1949, 26.0528], [119.1924, 26.1318], [119.2239, 26.1483], [119.234, 26.1802], [119.1997, 26.23], [119.1727, 26.3077], [119.1762, 26.3508], [119.1896, 26.3856], [119.2088, 26.4114], [119.1986, 26.4422], [119.1729, 26.4735], [119.1777, 26.5015], [119.1404, 26.5087], [119.113, 26.5202], [119.1095, 26.5528], [119.0755, 26.5692], [119.0571, 26.6059], [119.0309, 26.6195], [118.9985, 26.612], [118.983, 26.5827]]]}}, {"type": "Feature", "properties": {"osm_type": "relation", "osm_id": 172441667, "name": "Shaxian", "admin_level": "6", "kind": "subdivision_2", "parent_osm_id": 553303, "parent_name": "Fujian", "parent_iso": "CN-FJ"}, "geometry": {"type": "Polygon", "coordinates": [[[117.6083, 26.674], [117.5982, 26.6407], [117.5651, 26.6206], [117.5302, 26.6114], [117.5208, 26.571], [117.5435, 26.5168], [117.573, 26.5042], [117.5843, 26.4664], [117.5797, 26.4338], [117.5905, 26.4045], [117.6239, 26.3994], [117.6375, 26.3659], [117.6595, 26.3402], [117.6936, 26.2747], [117.7173, 26.2515], [117.743, 26.2355], [117.7458, 26.1926], [117.7231, 26.1178], [117.7985, 26.1451], [117.7911, 26.1779], [117.8051, 26.2092], [117.8351, 26.2289], [117.9143, 26.2629], [117.9468, 26.3217], [117.9821, 26.3375], [118.0508, 26.3548], [118.0664, 26.3851], [118.0706, 26.4169], [118.046, 26.441], [118.0046, 26.5375], [117.9805, 26.5635], [117.935, 26.5854], [117.8454, 26.5888], [117.8323, 26.6137], [117.8292, 26.689], [117.7206, 26.6828], [117.6446, 26.6562], [117.6083, 26.674]]]}}, {"type": "Feature", "properties": {"osm_type": "relation", "osm_id": 921994705, "name": "Minqingxian", "admin_level": "6", "kind": "subdivision_2", "parent_osm_id": 553303, "parent_name": "Fujian", "parent_iso": "CN-FJ"}, "geometry": {"type": "Polygon", "coordinates": [[[118.6516, 26.3436], [118.6445, 26.3109], [118.648, 26.2832], [118.6269, 26.2362], [118.5637, 26.2104], [118.5545, 26.1816], [118.571, 26.1528], [118.5911, 26.131], [118.5826, 26.0972], [118.5086, 26.0606], [118.4967, 26.0161], [118.5662, 26.0174], [118.597, 26.0126], [118.6048, 25.9829], [118.6456, 25.9847], [118.6738, 25.9719], [118.7021, 25.9951], [118.7233, 25.9628], [118.7547, 25.9746], [118.8071, 26.0235], [118.8212, 26.0502], [118.8293, 26.0839], [118.8685, 26.0979], [118.8625, 26.1244], [118.8666, 26.1512], [118.9062, 26.2152], [118.9253, 26.2605], [118.9232, 26.2984], [118.885, 26.2871], [118.8425, 26.2904], [118.8825, 26.3526], [118.8963, 26.3878], [118.9266, 26.4221], [118.9602, 26.4386], [118.99, 26.4653], [118.9952, 26.4924], [118.9843, 26.5403], [118.983, 26.5827], [118.9395, 26.569], [118.9091, 26.5473], [118.9098, 26.5108], [118.8722, 26.5017], [118.8095, 26.467], [118.7702, 26.5209], [118.7383, 26.5268], [118.7174, 26.5036], [118.7275, 26.4436], [118.753, 26.413], [118.7812, 26.3934], [118.7883, 26.3664], [118.7643, 26.3426], [118.7267, 26.3518], [118.6516, 26.3436]]]}}, {"type": "Feature", "properties": {"osm_type": "relation", "osm_id": 235437111, "name": "Mingxixian", "admin_level": "6", "kind": "subdivision_2", "parent_osm_id": 553303, "parent_name": "Fujian", "parent_iso": "CN-FJ"}, "geometry": {"type": "Polygon", "coordinates": [[[116.9063, 26.654], [116.9047, 26.615], [116.8942, 26.5875], [116.8598, 26.578], [116.8171, 26.59], [116.779, 26.5865], [116.7715, 26.549], [116.8507, 26.4741], [116.8807, 26.4522], [116.9725, 26.4806], [117.0151, 26.4843], [117.0253, 26.3687], [117.0698, 26.3827], [117.0944, 26.3529], [117.0938, 26.325], [117.134, 26.3058], [117.1312, 26.2754], [117.1559, 26.2492], [117.172, 26.2237], [117.1906, 26.178], [117.2786, 26.1639], [117.2992, 26.1887], [117.2832, 26.2164], [117.2831, 26.2492], [117.3028, 26.2754], [117.3721, 26.3246], [117.4079, 26.3343], [117.4568, 26.3268], [117.4949, 26.3318], [117.497, 26.3664], [117.5082, 26.3933], [117.5797, 26.4338], [117.5843, 26.4664], [117.573, 26.5042], [117.5435, 26.5168], [117.5208, 26.571], [117.4951, 26.5495], [117.4829, 26.5244], [117.438, 26.508], [117.3822, 26.4596], [117.3478, 26.4503], [117.3152, 26.4346], [117.2939, 26.4584], [117.2266, 26.455], [117.2131, 26.4906], [117.2133, 26.5207], [117.1958, 26.5579], [117.1021, 26.5873], [117.0941, 26.5531], [117.0642, 26.5597], [117.0267, 26.5935], [116.9938, 26.6097], [116.9686, 26.6381], [116.9063, 26.654]]]}}, {"type": "Feature", "properties": {"osm_type": "relation", "osm_id": 249256613, "name": "Ninghuaxian", "admin_level": "6", "kind": "subdivision_2", "parent_osm_id": 553303, "parent_name": "Fujian", "parent_iso": "CN-FJ"}, "geometry": {"type": "Polygon", "coordinates": [[[116.5371, 26.65], [116.5402, 26.6428], [116.5309, 26.6074], [116.5369, 26.5738], [116.5702, 26.5111], [116.5996, 26.497], [116.6152, 26.4737], [116.5745, 26.4039], [116.5206, 26.395], [116.5046, 26.4129], [116.3824, 26.2744], [116.3678, 26.2337], [116.3796, 26.1801], [116.4506, 26.1909], [116.4807, 26.175], [116.4797, 26.1427], [116.4646, 26.1246], [116.3839, 26.0693], [116.3567, 26.0411], [116.3706, 26.0429], [116.416, 26.0063], [116.4536, 25.9861], [116.4907, 25.9758], [116.5008, 26.0065], [116.5413, 26.0159], [116.5691, 26.0], [116.6007, 25.9998], [116.6294, 26.0118], [116.6397, 26.0465], [116.6757, 26.0641], [116.7063, 26.0648], [116.7365, 26.0848], [116.7712, 26.0866], [116.8109, 26.1153], [116.8161, 26.147], [116.7514, 26.1981], [116.7516, 26.23], [116.7606, 26.258], [116.775, 26.2831], [116.8205, 26.3241], [116.8662, 26.3233], [116.9261, 26.3596], [116.9672, 26.3571], [116.998, 26.3496], [117.0253, 26.3687], [117.0151, 26.4843], [116.9725, 26.4806], [116.8807, 26.4522], [116.8507, 26.4741], [116.7715, 26.549], [116.779, 26.5865], [116.7153, 26.6033], [116.6668, 26.6613], [116.6242, 26.6669], [116.5371, 26.65]]]}}, {"type": "Feature", "properties": {"osm_type": "relation", "osm_id": 546738046, "name": "Lianjiangxian", "admin_level": "6", "kind": "subdivision_2", "parent_osm_id": 553303, "parent_name": "Fujian", "parent_iso": "CN-FJ"}, "geometry": {"type": "Polygon", "coordinates": [[[119.2601, 26.4466], [119.2731, 26.3837], [119.3116, 26.3737], [119.3276, 26.2917], [119.393, 26.2043], [119.4855, 26.1733], [119.5546, 26.1114], [119.5867, 26.1176], [119.6026, 26.1328], [119.5991, 26.1588], [119.6056, 26.172], [119.6461, 26.2081], [119.6717, 26.2179], [119.6595, 26.2391], [119.6379, 26.2473], [119.6697, 26.2584], [119.7267, 26.2646], [119.747, 26.273], [119.7651, 26.2889], [119.7935, 26.2672], [119.8025, 26.2839], [119.7867, 26.2999], [119.8106, 26.3126], [119.8969, 26.3052], [119.9075, 26.3272], [119.9645, 26.3618], [119.9482, 26.3632], [119.8972, 26.3465], [119.8742, 26.3521], [119.869, 26.3801], [119.8353, 26.4205], [119.792, 26.3893], [119.7856, 26.3679], [119.7703, 26.3582], [119.7496, 26.3562], [119.7505, 26.336], [119.7387, 26.3205], [119.7151, 26.3105], [119.691, 26.3153], [119.6903, 26.3383], [119.6747, 26.3359], [119.6678, 26.3585], [119.6696, 26.4152], [119.6538, 26.4316], [119.5698, 26.4154], [119.496, 26.4493], [119.4205, 26.4216], [119.394, 26.443], [119.3627, 26.4553], [119.318, 26.4458], [119.2601, 26.4466]]]}}, {"type": "Feature", "properties": {"osm_type": "relation", "osm_id": 601037308, "name": "Fuzhoushi", "admin_level": "6", "kind": "subdivision_2", "parent_osm_id": 553303, "parent_name": "Fujian", "parent_iso": "CN-FJ"}, "geometry": {"type": "Polygon", "coordinates": [[[119.1986, 26.4422], [119.2088, 26.4114], [119.1896, 26.3856], [119.1762, 26.3508], [119.1727, 26.3077], [119.1997, 26.23], [119.234, 26.1802], [119.2239, 26.1483], [119.1924, 26.1318], [119.1949, 26.0528], [119.2247, 25.9824], [119.2478, 25.9963], [119.2918, 25.9741], [119.3281, 25.9648], [119.4031, 25.9554], [119.4468, 25.9794], [119.5105, 26.0513], [119.5061, 26.0582], [119.5245, 26.0888], [119.5471, 26.1099], [119.5546, 26.1114], [119.4855, 26.1733], [119.393, 26.2043], [119.3276, 26.2917], [119.3116, 26.3737], [119.2731, 26.3837], [119.2601, 26.4466], [119.1986, 26.4422]]]}}, {"type": "Feature", "properties": {"osm_type": "relation", "osm_id": 844046262, "name": "Youxixian", "admin_level": "6", "kind": "subdivision_2", "parent_osm_id": 553303, "parent_name": "Fujian", "parent_iso": "CN-FJ"}, "geometry": {"type": "Polygon", "coordinates": [[[118.0706, 26.4169], [118.0664, 26.3851], [118.0508, 26.3548], [117.9821, 26.3375], [117.9468, 26.3217], [117.9143, 26.2629], [117.8351, 26.2289], [117.8051, 26.2092], [117.7911, 26.1779], [117.7985, 26.1451], [117.8432, 26.1443], [117.8909, 26.1209], [117.9028, 26.073], [117.8777, 26.0567], [117.8762, 26.018], [117.9092, 25.9939], [117.9414, 25.9959], [117.959, 26.0257], [117.9919, 26.0453], [118.0099, 26.0151], [118.0213, 25.9825], [118.0208, 25.9528], [117.9793, 25.9544], [117.9688, 25.9247], [118.0065, 25.8838], [118.0627, 25.8737], [118.0665, 25.901], [118.0912, 25.9182], [118.132, 25.9275], [118.1646, 25.9281], [118.1981, 25.9196], [118.2339, 25.9227], [118.2505, 25.9525], [118.2803, 25.9559], [118.3413, 25.9311], [118.3903, 25.9223], [118.4543, 25.9193], [118.4818, 25.9399], [118.5086, 26.0606], [118.5826, 26.0972], [118.5911, 26.131], [118.571, 26.1528], [118.5545, 26.1816], [118.5637, 26.2104], [118.6269, 26.2362], [118.648, 26.2832], [118.6445, 26.3109], [118.5954, 26.3145], [118.5693, 26.3488], [118.5345, 26.3628], [118.4644, 26.3692], [118.4282, 26.3779], [118.3857, 26.4391], [118.3479, 26.4321], [118.2978, 26.4365], [118.2772, 26.4659], [118.2505, 26.4452], [118.2118, 26.4467], [118.1858, 26.4278], [118.174, 26.4027], [118.1358, 26.3979], [118.0706, 26.4169]]]}}, {"type": "Feature", "properties": {"osm_type": "relation", "osm_id": 831015637, "name": "Sanmingshi", "admin_level": "6", "kind": "subdivision_2", "parent_osm_id": 553303, "parent_name": "Fujian", "parent_iso": "CN-FJ"}, "geometry": {"type": "Polygon", "coordinates": [[[117.5797, 26.4338], [117.5082, 26.3933], [117.497, 26.3664], [117.4949, 26.3318], [117.4568, 26.3268], [117.4079, 26.3343], [117.3721, 26.3246], [117.3028, 26.2754], [117.2831, 26.2492], [117.2832, 26.2164], [117.2992, 26.1887], [117.3321, 26.1927], [117.3455, 26.1651], [117.4517, 26.1343], [117.4876, 26.1296], [117.5422, 26.0776], [117.5371, 26.0445], [117.5776, 26.0418], [117.6275, 26.094], [117.6665, 26.1229], [117.7231, 26.1178], [117.7458, 26.1926], [117.743, 26.2355], [117.7173, 26.2515], [117.6936, 26.2747], [117.6595, 26.3402], [117.6375, 26.3659], [117.6239, 26.3994], [117.5905, 26.4045], [117.5797, 26.4338]]]}}, {"type": "Feature", "properties": {"osm_type": "relation", "osm_id": 855308189, "name": "Qingliuxian", "admin_level": "6", "kind": "subdivision_2", "parent_osm_id": 553303, "parent_name": "Fujian", "parent_iso": "CN-FJ"}, "geometry": {"type": "Polygon", "coordinates": [[[117.0253, 26.3687], [116.998, 26.3496], [116.9672, 26.3571], [116.9261, 26.3596], [116.8662, 26.3233], [116.8205, 26.3241], [116.7969, 26.3061], [116.775, 26.2831], [116.7606, 26.258], [116.7516, 26.23], [116.7514, 26.1981], [116.8161, 26.147], [116.8109, 26.1153], [116.7712, 26.0866], [116.7365, 26.0848], [116.7063, 26.0648], [116.6757, 26.0641], [116.6397, 26.0465], [116.6294, 26.0118], [116.6516, 25.9466], [116.6827, 25.9279], [116.7235, 25.9133], [116.7217, 25.8778], [116.7627, 25.8568], [116.7923, 25.8026], [116.8241, 25.7883], [116.8466, 25.8068], [116.8579, 25.8415], [116.8941, 25.8621], [116.9293, 25.8752], [116.9492, 25.9825], [116.9753, 26.0107], [117.0083, 26.008], [117.0371, 26.0312], [117.0167, 26.0608], [117.0723, 26.1387], [117.1906, 26.178], [117.172, 26.2237], [117.1559, 26.2492], [117.1312, 26.2754], [117.134, 26.3058], [117.0938, 26.325], [117.0944, 26.3529], [117.0698, 26.3827], [117.0253, 26.3687]]]}}, {"type": "Feature", "properties": {"osm_type": "relation", "osm_id": 413887173, "name": "Changleshi", "admin_level": "6", "kind": "subdivision_2", "parent_osm_id": 553303, "parent_name": "Fujian", "parent_iso": "CN-FJ"}, "geometry": {"type": "Polygon", "coordinates": [[[119.3923, 25.8599], [119.4326, 25.8195], [119.4804, 25.816], [119.5121, 25.8231], [119.5289, 25.7963], [119.6305, 25.7533], [119.6297, 25.779], [119.6212, 25.7963], [119.5903, 25.8126], [119.5815, 25.8262], [119.5869, 25.8395], [119.5774, 25.8761], [119.6138, 25.8428], [119.6419, 25.8983], [119.6873, 25.8936], [119.7162, 25.9857], [119.7092, 26.0074], [119.6609, 26.0041], [119.639, 26.0096], [119.5887, 26.0367], [119.5167, 26.0418], [119.5105, 26.0513], [119.4468, 25.9794], [119.4031, 25.9554], [119.4072, 25.9189], [119.3923, 25.8599]]]}}, {"type": "Feature", "properties": {"osm_type": "relation", "osm_id": 423692573, "name": "Yongtaixian", "admin_level": "6", "kind": "subdivision_2", "parent_osm_id": 553303, "parent_name": "Fujian", "parent_iso": "CN-FJ"}, "geometry": {"type": "Polygon", "coordinates": [[[118.8685, 26.0979], [118.8293, 26.0839], [118.8212, 26.0502], [118.8071, 26.0235], [118.7547, 25.9746], [118.7233, 25.9628], [118.7021, 25.9951], [118.6738, 25.9719], [118.6456, 25.9847], [118.6048, 25.9829], [118.597, 26.0126], [118.5662, 26.0174], [118.4967, 26.0161], [118.4818, 25.9399], [118.4543, 25.9193], [118.3903, 25.9223], [118.3584, 25.8613], [118.3624, 25.8259], [118.4038, 25.7732], [118.4135, 25.747], [118.477, 25.7188], [118.5008, 25.6954], [118.5776, 25.7197], [118.6238, 25.7217], [118.7394, 25.7085], [118.7771, 25.7375], [118.8335, 25.755], [118.8856, 25.7561], [118.9197, 25.7632], [118.9549, 25.7589], [118.9887, 25.7614], [119.0246, 25.7733], [119.09, 25.8146], [119.1291, 25.8222], [119.1581, 25.834], [119.2046, 25.8822], [119.1806, 25.9143], [119.1485, 25.9275], [119.1134, 25.9341], [119.0798, 26.0041], [119.0528, 26.0251], [118.9959, 26.0302], [118.9913, 26.0616], [118.9681, 26.0859], [118.9372, 26.0963], [118.8685, 26.0979]]]}}, {"type": "Feature", "properties": {"osm_type": "relation", "osm_id": 103360906, "name": "Yonganshi", "admin_level": "6", "kind": "subdivision_2", "parent_osm_id": 553303, "parent_name": "Fujian", "parent_iso": "CN-FJ"}, "geometry": {"type": "Polygon", "coordinates": [[[117.1906, 26.178], [117.0723, 26.1387], [117.0167, 26.0608], [117.0371, 26.0312], [117.0083, 26.008], [116.9753, 26.0107], [116.9492, 25.9825], [116.9293, 25.8752], [116.9818, 25.8825], [117.0165, 25.8586], [117.0431, 25.8057], [117.053, 25.7756], [117.0576, 25.7322], [117.053, 25.7044], [117.0741, 25.6792], [117.1058, 25.6734], [117.1277, 25.6463], [117.1341, 25.6096], [117.1621, 25.5831], [117.2071, 25.6101], [117.2103, 25.6677], [117.2196, 25.7074], [117.2737, 25.7524], [117.3586, 25.8092], [117.3794, 25.7808], [117.391, 25.7474], [117.3802, 25.7091], [117.4198, 25.6943], [117.4484, 25.7295], [117.502, 25.765], [117.4988, 25.8016], [117.5033, 25.8429], [117.5362, 25.8648], [117.5336, 25.897], [117.5425, 25.9276], [117.5857, 25.9207], [117.6102, 25.88], [117.6412, 25.8862], [117.702, 25.9298], [117.7119, 25.9595], [117.7427, 25.9865], [117.7603, 26.0104], [117.7156, 26.0657], [117.7231, 26.1178], [117.6665, 26.1229], [117.6275, 26.094], [117.5776, 26.0418], [117.5371, 26.0445], [117.5422, 26.0776], [117.4876, 26.1296], [117.4517, 26.1343], [117.3455, 26.1651], [117.3321, 26.1927], [117.2992, 26.1887], [117.2786, 26.1639], [117.1906, 26.178]]]}}, {"type": "Feature", "properties": {"osm_type": "relation", "osm_id": 113027476, "name": "Datianxian", "admin_level": "6", "kind": "subdivision_2", "parent_osm_id": 553303, "parent_name": "Fujian", "parent_iso": "CN-FJ"}, "geometry": {"type": "Polygon", "coordinates": [[[117.7231, 26.1178], [117.7156, 26.0657], [117.7603, 26.0104], [117.7427, 25.9865], [117.7119, 25.9595], [117.702, 25.9298], [117.6412, 25.8862], [117.6102, 25.88], [117.5857, 25.9207], [117.5425, 25.9276], [117.5336, 25.897], [117.5362, 25.8648], [117.5033, 25.8429], [117.4988, 25.8016], [117.502, 25.765], [117.5461, 25.7251], [117.5704, 25.6961], [117.6019, 25.6883], [117.6385, 25.6988], [117.666, 25.666], [117.6782, 25.6303], [117.7011, 25.6121], [117.7029, 25.5782], [117.6625, 25.5706], [117.6573, 25.5356], [117.7265, 25.5396], [117.7491, 25.5115], [117.7805, 25.5032], [117.7919, 25.5325], [117.8841, 25.5226], [117.954, 25.5544], [118.0101, 25.5875], [118.0344, 25.6217], [118.0362, 25.65], [118.0034, 25.6602], [117.976, 25.6454], [117.946, 25.6608], [117.9187, 25.6865], [117.9362, 25.71], [117.9732, 25.7176], [117.966, 25.782], [117.9835, 25.8136], [117.9865, 25.8423], [118.0065, 25.8838], [117.9688, 25.9247], [117.9793, 25.9544], [118.0208, 25.9528], [118.0213, 25.9825], [118.0099, 26.0151], [117.9919, 26.0453], [117.959, 26.0257], [117.9414, 25.9959], [117.9092, 25.9939], [117.8762, 26.018], [117.8777, 26.0567], [117.9028, 26.073], [117.8909, 26.1209], [117.8432, 26.1443], [117.7985, 26.1451], [117.7231, 26.1178]]]}}, {"type": "Feature", "properties": {"osm_type": "relation", "osm_id": 714180336, "name": "Dehuaxian", "admin_level": "6", "kind": "subdivision_2", "parent_osm_id": 553303, "parent_name": "Fujian", "parent_iso": "CN-FJ"}, "geometry": {"type": "Polygon", "coordinates": [[[118.0065, 25.8838], [117.9865, 25.8423], [117.9835, 25.8136], [117.966, 25.782], [117.9732, 25.7176], [117.9362, 25.71], [117.9187, 25.6865], [117.946, 25.6608], [117.976, 25.6454], [118.0034, 25.6602], [118.0362, 25.65], [118.0344, 25.6217], [118.0101, 25.5875], [118.0623, 25.5531], [118.0905, 25.5422], [118.1, 25.5057], [118.1294, 25.4825], [118.1593, 25.4823], [118.1893, 25.4754], [118.2248, 25.4551], [118.2465, 25.4305], [118.2786, 25.4396], [118.2917, 25.4701], [118.337, 25.47], [118.3701, 25.4502], [118.4348, 25.4621], [118.4501, 25.4888], [118.4572, 25.5606], [118.4694, 25.5916], [118.4875, 25.6145], [118.5181, 25.6368], [118.521, 25.6704], [118.477, 25.7188], [118.4135, 25.747], [118.4038, 25.7732], [118.3624, 25.8259], [118.3584, 25.8613], [118.3903, 25.9223], [118.3413, 25.9311], [118.2803, 25.9559], [118.2505, 25.9525], [118.2339, 25.9227], [118.1981, 25.9196], [118.1646, 25.9281], [118.132, 25.9275], [118.0912, 25.9182], [118.0665, 25.901], [118.0627, 25.8737], [118.0065, 25.8838]]]}}, {"type": "Feature", "properties": {"osm_type": "relation", "osm_id": 115089725, "name": "Fuqingshi", "admin_level": "6", "kind": "subdivision_2", "parent_osm_id": 553303, "parent_name": "Fujian", "parent_iso": "CN-FJ"}, "geometry": {"type": "Polygon", "coordinates": [[[119.2046, 25.8822], [119.1581, 25.834], [119.1291, 25.8222], [119.09, 25.8146], [119.0591, 25.792], [119.1259, 25.7693], [119.1223, 25.7355], [119.1092, 25.7029], [119.116, 25.6547], [119.1458, 25.5888], [119.1766, 25.6059], [119.2104, 25.6097], [119.2194, 25.5789], [119.2133, 25.5518], [119.1946, 25.524], [119.2082, 25.4442], [119.2815, 25.5], [119.285, 25.5466], [119.3177, 25.5384], [119.2828, 25.4411], [119.2825, 25.4172], [119.334, 25.4149], [119.3215, 25.4536], [119.3476, 25.502], [119.327, 25.6019], [119.3474, 25.6021], [119.365, 25.5649], [119.3861, 25.5622], [119.3626, 25.5099], [119.4577, 25.4966], [119.4349, 25.4608], [119.4277, 25.409], [119.4443, 25.4132], [119.4609, 25.4265], [119.468, 25.4471], [119.4856, 25.4502], [119.5112, 25.4426], [119.4873, 25.4271], [119.5064, 25.3851], [119.4769, 25.3434], [119.5212, 25.3507], [119.5604, 25.3677], [119.5723, 25.3842], [119.5425, 25.3811], [119.5266, 25.3843], [119.5302, 25.3996], [119.5378, 25.4146], [119.5532, 25.4262], [119.579, 25.4305], [119.5926, 25.4247], [119.5876, 25.4059], [119.6048, 25.3355], [119.5939, 25.3272], [119.6157, 25.3226], [119.6415, 25.3278], [119.6316, 25.3498], [119.6505, 25.3757], [119.6491, 25.3924], [119.6416, 25.4078], [119.627, 25.4136], [119.6439, 25.4407], [119.6062, 25.4585], [119.6056, 25.4733], [119.5972, 25.4804], [119.5507, 25.4623], [119.5574, 25.4883], [119.6008, 25.4957], [119.576, 25.5217], [119.5939, 25.568], [119.5535, 25.5604], [119.5373, 25.5709], [119.5212, 25.5318], [119.4883, 25.5584], [119.4898, 25.6134], [119.4725, 25.6038], [119.4705, 25.6343], [119.4407, 25.6312], [119.4516, 25.6487], [119.4514, 25.6671], [119.4411, 25.6863], [119.4794, 25.6721], [119.5098, 25.6715], [119.5416, 25.6936], [119.5464, 25.6712], [119.5936, 25.6654], [119.6142, 25.6775], [119.6238, 25.6914], [119.5999, 25.697], [119.6211, 25.7256], [119.6305, 25.7533], [119.5289, 25.7963], [119.5121, 25.8231], [119.4804, 25.816], [119.4326, 25.8195], [119.3923, 25.8599], [119.3677, 25.8348], [119.3319, 25.8329], [119.2858, 25.8511], [119.2535, 25.8729], [119.2046, 25.8822]]]}}, {"type": "Feature", "properties": {"osm_type": "relation", "osm_id": 980027301, "name": "Changdingxian", "admin_level": "6", "kind": "subdivision_2", "parent_osm_id": 553303, "parent_name": "Fujian", "parent_iso": "CN-FJ"}, "geometry": {"type": "Polygon", "coordinates": [[[116.3567, 26.0411], [116.3443, 26.0281], [116.33, 25.9911], [116.302, 25.9583], [116.2885, 25.9328], [116.2661, 25.9267], [116.1816, 25.9209], [116.123, 25.8932], [116.0994, 25.8484], [116.1531, 25.8081], [116.16, 25.7897], [116.1526, 25.7667], [116.1113, 25.7597], [116.06, 25.7198], [116.0257, 25.6422], [116.0227, 25.6252], [116.0388, 25.5921], [116.0376, 25.5534], [115.9973, 25.4747], [116.0766, 25.4676], [116.1059, 25.4423], [116.1438, 25.4663], [116.1605, 25.4942], [116.196, 25.5065], [116.2244, 25.4849], [116.2572, 25.4842], [116.2771, 25.4601], [116.2655, 25.4253], [116.2294, 25.3571], [116.2286, 25.3274], [116.28, 25.3139], [116.3028, 25.3713], [116.3314, 25.3983], [116.3729, 25.3919], [116.4002, 25.3788], [116.4246, 25.3987], [116.4324, 25.4273], [116.5337, 25.4701], [116.5502, 25.5029], [116.5616, 25.5412], [116.5704, 25.5963], [116.5777, 25.702], [116.5992, 25.7535], [116.6296, 25.7798], [116.6357, 25.8206], [116.6136, 25.839], [116.5998, 25.8728], [116.6348, 25.8814], [116.6499, 25.9129], [116.6516, 25.9466], [116.6294, 26.0118], [116.6007, 25.9998], [116.5691, 26.0], [116.5413, 26.0159], [116.5008, 26.0065], [116.4907, 25.9758], [116.4536, 25.9861], [116.416, 26.0063], [116.3706, 26.0429], [116.3567, 26.0411]]]}}, {"type": "Feature", "properties": {"osm_type": "relation", "osm_id": 178123716, "name": "Putianxian", "admin_level": "6", "kind": "subdivision_2", "parent_osm_id": 553303, "parent_name": "Fujian", "parent_iso": "CN-FJ"}, "geometry": {"type": "Polygon", "coordinates": [[[118.8335, 25.755], [118.8493, 25.6932], [118.9144, 25.6015], [118.9156, 25.5725], [118.8843, 25.5748], [118.8492, 25.5863], [118.8163, 25.5597], [118.8039, 25.5009], [118.8095, 25.4699], [118.8267, 25.4459], [118.836, 25.3776], [118.8804, 25.3258], [118.8827, 25.2716], [118.8556, 25.2553], [118.8212, 25.2573], [118.8755, 25.223], [118.8906, 25.2378], [118.9553, 25.2484], [118.9953, 25.2646], [119.0441, 25.2561], [119.0705, 25.2568], [119.062, 25.2418], [119.0377, 25.2318], [118.99, 25.2411], [118.9702, 25.1912], [118.9996, 25.1925], [119.0151, 25.206], [119.0669, 25.2084], [119.0764, 25.2021], [119.0637, 25.1534], [119.0294, 25.1433], [119.0301, 25.1294], [119.0385, 25.1223], [119.0383, 25.0994], [119.0712, 25.0949], [119.062, 25.1251], [119.0718, 25.1326], [119.0802, 25.1255], [119.0898, 25.0989], [119.1008, 25.087], [119.1339, 25.1055], [119.1683, 25.1056], [119.1574, 25.1294], [119.1442, 25.1397], [119.1121, 25.1422], [119.0975, 25.1581], [119.1248, 25.19], [119.1203, 25.2271], [119.152, 25.231], [119.172, 25.2184], [119.1568, 25.1865], [119.1628, 25.1648], [119.2072, 25.1631], [119.2278, 25.178], [119.2444, 25.1822], [119.2358, 25.1562], [119.2836, 25.1385], [119.2948, 25.1597], [119.3078, 25.1688], [119.2846, 25.2001], [119.2902, 25.2162], [119.3525, 25.212], [119.3655, 25.2413], [119.2995, 25.3009], [119.2508, 25.3003], [119.2136, 25.2297], [119.1996, 25.2419], [119.1916, 25.2637], [119.2297, 25.291], [119.2131, 25.3392], [119.1962, 25.3221], [119.1482, 25.3499], [119.1324, 25.375], [119.1242, 25.405], [119.0937, 25.447], [119.053, 25.4503], [119.0205, 25.4355], [118.9847, 25.4317], [118.9442, 25.4627], [118.9929, 25.5053], [119.0313, 25.4918], [119.0588, 25.5059], [119.097, 25.515], [119.1303, 25.4945], [119.1971, 25.4366], [119.2082, 25.4442], [119.1946, 25.524], [119.2133, 25.5518], [119.2194, 25.5789], [119.2104, 25.6097], [119.1766, 25.6059], [119.1458, 25.5888], [119.116, 25.6547], [119.1092, 25.7029], [119.1223, 25.7355], [119.1259, 25.7693], [119.0591, 25.792], [119.0246, 25.7733], [118.9887, 25.7614], [118.9549, 25.7589], [118.9197, 25.7632], [118.8856, 25.7561], [118.8335, 25.755]]]}}, {"type": "Feature", "properties": {"osm_type": "relation", "osm_id": 116177470, "name": "Lianchengxian", "admin_level": "6", "kind": "subdivision_2", "parent_osm_id": 553303, "parent_name": "Fujian", "parent_iso": "CN-FJ"}, "geometry": {"type": "Polygon", "coordinates": [[[116.6516, 25.9466], [116.6499, 25.9129], [116.6348, 25.8814], [116.5998, 25.8728], [116.6136, 25.839], [116.6357, 25.8206], [116.6296, 25.7798], [116.5992, 25.7535], [116.5777, 25.702], [116.5704, 25.5963], [116.5616, 25.5412], [116.5502, 25.5029], [116.5337, 25.4701], [116.5332, 25.43], [116.5263, 25.4009], [116.5554, 25.3859], [116.587, 25.3807], [116.6047, 25.3263], [116.5729, 25.309], [116.6168, 25.2713], [116.6819, 25.2887], [116.707, 25.323], [116.7193, 25.3581], [116.7713, 25.3724], [116.8095, 25.3601], [116.8284, 25.3891], [116.8577, 25.4056], [116.9107, 25.3918], [116.9332, 25.4207], [116.9163, 25.4858], [116.9323, 25.5145], [116.9258, 25.5414], [116.9587, 25.5504], [117.0022, 25.5523], [117.0378, 25.5468], [117.0734, 25.5228], [117.1147, 25.522], [117.1399, 25.5444], [117.1621, 25.5831], [117.1341, 25.6096], [117.1277, 25.6463], [117.1058, 25.6734], [117.0741, 25.6792], [117.053, 25.7044], [117.0576, 25.7322], [117.053, 25.7756], [117.0431, 25.8057], [117.0165, 25.8586], [116.9818, 25.8825], [116.9293, 25.8752], [116.8941, 25.8621], [116.8579, 25.8415], [116.8466, 25.8068], [116.8241, 25.7883], [116.7923, 25.8026], [116.7627, 25.8568], [116.7217, 25.8778], [116.7235, 25.9133], [116.6827, 25.9279], [116.6516, 25.9466]]]}}, {"type": "Feature", "properties": {"osm_type": "relation", "osm_id": 536016088, "name": "Xianyouxian", "admin_level": "6", "kind": "subdivision_2", "parent_osm_id": 553303, "parent_name": "Fujian", "parent_iso": "CN-FJ"}, "geometry": {"type": "Polygon", "coordinates": [[[118.5008, 25.6954], [118.521, 25.6704], [118.5181, 25.6368], [118.4875, 25.6145], [118.4694, 25.5916], [118.4572, 25.5606], [118.4501, 25.4888], [118.4348, 25.4621], [118.4667, 25.4419], [118.4713, 25.4082], [118.5058, 25.3806], [118.5014, 25.3475], [118.5627, 25.3028], [118.6119, 25.3252], [118.6424, 25.314], [118.6558, 25.2785], [118.6635, 25.2211], [118.6859, 25.2009], [118.719, 25.2036], [118.7563, 25.2236], [118.7896, 25.2493], [118.8212, 25.2573], [118.8556, 25.2553], [118.8827, 25.2716], [118.8804, 25.3258], [118.836, 25.3776], [118.8267, 25.4459], [118.8095, 25.4699], [118.8039, 25.5009], [118.8163, 25.5597], [118.8492, 25.5863], [118.8843, 25.5748], [118.9156, 25.5725], [118.9144, 25.6015], [118.8493, 25.6932], [118.8335, 25.755], [118.7771, 25.7375], [118.7394, 25.7085], [118.6238, 25.7217], [118.5776, 25.7197], [118.5008, 25.6954]]]}}, {"type": "Feature", "properties": {"osm_type": "relation", "osm_id": 668208660, "name": "Pingtanxian", "admin_level": "6", "kind": "subdivision_2", "parent_osm_id": 553303, "parent_name": "Fujian", "parent_iso": "CN-FJ"}, "geometry": {"type": "Polygon", "coordinates": [[[119.6819, 25.4409], [119.7133, 25.4603], [119.7306, 25.4607], [119.7277, 25.4517], [119.7008, 25.4274], [119.7008, 25.4071], [119.7068, 25.3974], [119.7547, 25.3795], [119.7678, 25.3784], [119.7774, 25.3831], [119.7684, 25.4041], [119.8288, 25.4385], [119.8551, 25.438], [119.8641, 25.4556], [119.8241, 25.472], [119.814, 25.4912], [119.8181, 25.5019], [119.835, 25.5179], [119.8668, 25.5106], [119.8843, 25.5421], [119.8709, 25.5497], [119.8411, 25.5468], [119.8449, 25.574], [119.8383, 25.5976], [119.7871, 25.6047], [119.7884, 25.6267], [119.7833, 25.6363], [119.7725, 25.64], [119.7004, 25.5818], [119.703, 25.5577], [119.7116, 25.5524], [119.7409, 25.5609], [119.7359, 25.4823], [119.7122, 25.4889], [119.6929, 25.4795], [119.6819, 25.4409]]]}}, {"type": "Feature", "properties": {"osm_type": "relation", "osm_id": 940731332, "name": "Zhangpingxian", "admin_level": "6", "kind": "subdivision_2", "parent_osm_id": 553303, "parent_name": "Fujian", "parent_iso": "CN-FJ"}, "geometry": {"type": "Polygon", "coordinates": [[[117.2071, 25.6101], [117.2125, 25.5747], [117.2633, 25.5207], [117.2792, 25.4934], [117.2851, 25.4575], [117.3037, 25.4269], [117.3345, 25.399], [117.3332, 25.3679], [117.3264, 25.3204], [117.3135, 25.2943], [117.2473, 25.2593], [117.2417, 25.2135], [117.2455, 25.1763], [117.2237, 25.1334], [117.1756, 25.0831], [117.1699, 25.0522], [117.1821, 25.0218], [117.1696, 24.9313], [117.2133, 24.9677], [117.2337, 24.9948], [117.3159, 25.0016], [117.35, 25.0164], [117.3888, 25.0097], [117.4232, 24.996], [117.4629, 25.0051], [117.4705, 25.0666], [117.4917, 25.0973], [117.5032, 25.1315], [117.4652, 25.1351], [117.4502, 25.1764], [117.4656, 25.201], [117.503, 25.1943], [117.5393, 25.194], [117.5777, 25.2374], [117.6071, 25.2627], [117.6468, 25.269], [117.6355, 25.2952], [117.6116, 25.3117], [117.6258, 25.3399], [117.6679, 25.3524], [117.6599, 25.4164], [117.6894, 25.5048], [117.7265, 25.5396], [117.6573, 25.5356], [117.6625, 25.5706], [117.7029, 25.5782], [117.7011, 25.6121], [117.6782, 25.6303], [117.666, 25.666], [117.6385, 25.6988], [117.6019, 25.6883], [117.5704, 25.6961], [117.5461, 25.7251], [117.502, 25.765], [117.4484, 25.7295], [117.4198, 25.6943], [117.3802, 25.7091], [117.391, 25.7474], [117.3794, 25.7808], [117.3586, 25.8092], [117.2737, 25.7524], [117.2196, 25.7074], [117.2103, 25.6677], [117.2071, 25.6101]]]}}, {"type": "Feature", "properties": {"osm_type": "relation", "osm_id": 293912313, "name": "Putianshi", "admin_level": "6", "kind": "subdivision_2", "parent_osm_id": 553303, "parent_name": "Fujian", "parent_iso": "CN-FJ"}, "geometry": {"type": "Polygon", "coordinates": [[[119.1242, 25.405], [119.1395, 25.4066], [119.1516, 25.4167], [119.1564, 25.4347], [119.1971, 25.4366], [119.1303, 25.4945], [119.097, 25.515], [119.0588, 25.5059], [119.0313, 25.4918], [118.9929, 25.5053], [118.9442, 25.4627], [118.9847, 25.4317], [119.0205, 25.4355], [119.053, 25.4503], [119.0937, 25.447], [119.1242, 25.405]]]}}, {"type": "Feature", "properties": {"osm_type": "relation", "osm_id": 893117251, "name": "Yongchunxian", "admin_level": "6", "kind": "subdivision_2", "parent_osm_id": 553303, "parent_name": "Fujian", "parent_iso": "CN-FJ"}, "geometry": {"type": "Polygon", "coordinates": [[[117.7265, 25.5396], [117.6894, 25.5048], [117.6696, 25.4439], [117.7021, 25.4302], [117.738, 25.4371], [117.7794, 25.4302], [117.8026, 25.4115], [117.8379, 25.3936], [117.8777, 25.4002], [117.904, 25.422], [117.9426, 25.4178], [118.0085, 25.3744], [118.0389, 25.3147], [118.0835, 25.3178], [118.1427, 25.3023], [118.1745, 25.2803], [118.3442, 25.2936], [118.4189, 25.3144], [118.4528, 25.3149], [118.5014, 25.3475], [118.5058, 25.3806], [118.4713, 25.4082], [118.4667, 25.4419], [118.4348, 25.4621], [118.3701, 25.4502], [118.337, 25.47], [118.2917, 25.4701], [118.2786, 25.4396], [118.2465, 25.4305], [118.2248, 25.4551], [118.1893, 25.4754], [118.1593, 25.4823], [118.1294, 25.4825], [118.1, 25.5057], [118.0905, 25.5422], [118.0623, 25.5531], [118.0101, 25.5875], [117.954, 25.5544], [117.8841, 25.5226], [117.7919, 25.5325], [117.7805, 25.5032], [117.7491, 25.5115], [117.7265, 25.5396]]]}}, {"type": "Feature", "properties": {"osm_type": "relation", "osm_id": 992047146, "name": "Longyanshi", "admin_level": "6", "kind": "subdivision_2", "parent_osm_id": 553303, "parent_name": "Fujian", "parent_iso": "CN-FJ"}, "geometry": {"type": "Polygon", "coordinates": [[[117.1621, 25.5831], [117.1399, 25.5444], [117.1147, 25.522], [117.0734, 25.5228], [117.0378, 25.5468], [117.0022, 25.5523], [116.9587, 25.5504], [116.9258, 25.5414], [116.9323, 25.5145], [116.9163, 25.4858], [116.9332, 25.4207], [116.9107, 25.3918], [116.9358, 25.3497], [116.9116, 25.3056], [116.892, 25.2842], [116.9022, 25.2229], [116.8637, 25.2285], [116.8233, 25.2165], [116.7522, 25.1778], [116.7209, 25.1677], [116.6759, 25.1621], [116.6834, 25.1339], [116.7185, 25.1213], [116.744, 25.095], [116.7913, 25.09], [116.8298, 25.0944], [116.8593, 25.0711], [116.8652, 25.0411], [116.8955, 25.0322], [116.9168, 25.0129], [116.901, 24.9783], [116.9813, 24.9778], [117.0182, 24.9446], [117.0546, 24.8858], [117.0367, 24.8345], [117.091, 24.8016], [117.1202, 24.8284], [117.1354, 24.8517], [117.1359, 24.8869], [117.1696, 24.9313], [117.1821, 25.0218], [117.1699, 25.0522], [117.1756, 25.0831], [117.2237, 25.1334], [117.2455, 25.1763], [117.2417, 25.2135], [117.2473, 25.2593], [117.3135, 25.2943], [117.3264, 25.3204], [117.3332, 25.3679], [117.3345, 25.399], [117.3037, 25.4269], [117.2851, 25.4575], [117.2792, 25.4934], [117.2633, 25.5207], [117.2125, 25.5747], [117.2071, 25.6101], [117.1621, 25.5831]]]}}, {"type": "Feature", "properties": {"osm_type": "relation", "osm_id": 204268422, "name": "Anxixian", "admin_level": "6", "kind": "subdivision_2", "parent_osm_id": 553303, "parent_name": "Fujian", "parent_iso": "CN-FJ"}, "geometry": {"type": "Polygon", "coordinates": [[[117.5777, 25.2374], [117.592, 25.1948], [117.6289, 25.1727], [117.7103, 25.0994], [117.7238, 25.0608], [117.7136, 25.0315], [117.6903, 25.0082], [117.657, 24.9994], [117.6386, 24.974], [117.607, 24.9683], [117.6088, 24.8808], [117.6777, 24.8773], [117.7251, 24.9216], [117.7549, 24.9071], [117.7925, 24.8981], [117.8248, 24.9236], [117.8694, 24.9233], [117.9531, 24.8911], [117.9921, 24.9343], [118.0167, 24.9164], [118.0409, 24.8858], [118.0763, 24.8886], [118.1346, 24.9372], [118.1272, 25.0044], [118.1429, 25.0389], [118.1774, 25.0353], [118.2521, 25.017], [118.2511, 25.0464], [118.2635, 25.0751], [118.2629, 25.1167], [118.2244, 25.1219], [118.2268, 25.1493], [118.1662, 25.1867], [118.1361, 25.219], [118.142, 25.2548], [118.1427, 25.3023], [118.0835, 25.3178], [118.0389, 25.3147], [118.0085, 25.3744], [117.9426, 25.4178], [117.904, 25.422], [117.8777, 25.4002], [117.8379, 25.3936], [117.8026, 25.4115], [117.7794, 25.4302], [117.738, 25.4371], [117.7021, 25.4302], [117.6696, 25.4439], [117.6599, 25.4164], [117.6679, 25.3524], [117.6258, 25.3399], [117.6116, 25.3117], [117.6355, 25.2952], [117.6468, 25.269], [117.6071, 25.2627], [117.5777, 25.2374]]]}}, {"type": "Feature", "properties": {"osm_type": "relation", "osm_id": 731150963, "name": "Wupingxian", "admin_level": "6", "kind": "subdivision_2", "parent_osm_id": 553303, "parent_name": "Fujian", "parent_iso": "CN-FJ"}, "geometry": {"type": "Polygon", "coordinates": [[[115.9973, 25.4747], [115.9836, 25.4443], [115.9975, 25.3887], [115.9763, 25.3491], [115.9694, 25.3134], [115.9148, 25.261], [115.8244, 25.1885], [115.8308, 25.1594], [115.8574, 25.1005], [115.8925, 25.0898], [115.9148, 25.0626], [115.8611, 25.0408], [115.8623, 25.0092], [115.8841, 24.9531], [115.8528, 24.9239], [115.8702, 24.8854], [115.8935, 24.9256], [115.9677, 24.9077], [116.0212, 24.8547], [116.1067, 24.8443], [116.1772, 24.8499], [116.2445, 24.7987], [116.3118, 24.8504], [116.3244, 24.8472], [116.3604, 24.9185], [116.3593, 24.9469], [116.3474, 24.9794], [116.326, 24.9982], [116.2628, 25.004], [116.2626, 25.0315], [116.2769, 25.0618], [116.2683, 25.0909], [116.2739, 25.125], [116.3068, 25.1393], [116.3425, 25.148], [116.3556, 25.1728], [116.3099, 25.2272], [116.2746, 25.2365], [116.28, 25.3139], [116.2286, 25.3274], [116.2294, 25.3571], [116.2655, 25.4253], [116.2771, 25.4601], [116.2572, 25.4842], [116.2244, 25.4849], [116.196, 25.5065], [116.1605, 25.4942], [116.1438, 25.4663], [116.1059, 25.4423], [116.0766, 25.4676], [115.9973, 25.4747]]]}}, {"type": "Feature", "properties": {"osm_type": "relation", "osm_id": 482577619, "name": "Nananshi", "admin_level": "6", "kind": "subdivision_2", "parent_osm_id": 553303, "parent_name": "Fujian", "parent_iso": "CN-FJ"}, "geometry": {"type": "Polygon", "coordinates": [[[118.5014, 25.3475], [118.4528, 25.3149], [118.4189, 25.3144], [118.3442, 25.2936], [118.1745, 25.2803], [118.1427, 25.3023], [118.142, 25.2548], [118.1361, 25.219], [118.1662, 25.1867], [118.2268, 25.1493], [118.2244, 25.1219], [118.2629, 25.1167], [118.2635, 25.0751], [118.2511, 25.0464], [118.2521, 25.017], [118.1774, 25.0353], [118.1429, 25.0389], [118.1272, 25.0044], [118.1346, 24.9372], [118.187, 24.9132], [118.1956, 24.887], [118.2203, 24.8559], [118.2539, 24.855], [118.2874, 24.8456], [118.3159, 24.8129], [118.3197, 24.7752], [118.316, 24.6776], [118.4352, 24.6523], [118.4368, 24.7029], [118.4472, 24.7017], [118.4289, 24.7503], [118.4231, 24.78], [118.4223, 24.8194], [118.4327, 24.8541], [118.4711, 24.9063], [118.4963, 24.9271], [118.4948, 24.9543], [118.5115, 24.9805], [118.5572, 25.0228], [118.5783, 25.06], [118.5689, 25.0877], [118.544, 25.1148], [118.5392, 25.1516], [118.5666, 25.2432], [118.5627, 25.3028], [118.5014, 25.3475]]]}}, {"type": "Feature", "properties": {"osm_type": "relation", "osm_id": 361784178, "name": "Shanghangxian", "admin_level": "6", "kind": "subdivision_2", "parent_osm_id": 553303, "parent_name": "Fujian", "parent_iso": "CN-FJ"}, "geometry": {"type": "Polygon", "coordinates": [[[116.28, 25.3139], [116.2746, 25.2365], [116.3099, 25.2272], [116.3556, 25.1728], [116.3425, 25.148], [116.3068, 25.1393], [116.2739, 25.125], [116.2683, 25.0909], [116.2769, 25.0618], [116.2626, 25.0315], [116.2628, 25.004], [116.326, 24.9982], [116.3474, 24.9794], [116.3593, 24.9469], [116.3604, 24.9185], [116.3244, 24.8472], [116.382, 24.8324], [116.3398, 24.7894], [116.3617, 24.7805], [116.4485, 24.8033], [116.5435, 24.804], [116.5739, 24.8096], [116.6046, 24.8288], [116.6346, 24.806], [116.6746, 24.7846], [116.678, 24.822], [116.6302, 24.8947], [116.661, 24.9175], [116.7328, 24.9256], [116.7406, 24.952], [116.7669, 24.9831], [116.7353, 24.9937], [116.7211, 25.0268], [116.7485, 25.0483], [116.744, 25.095], [116.7185, 25.1213], [116.6834, 25.1339], [116.6759, 25.1621], [116.7209, 25.1677], [116.7522, 25.1778], [116.8233, 25.2165], [116.8637, 25.2285], [116.9022, 25.2229], [116.892, 25.2842], [116.9116, 25.3056], [116.9358, 25.3497], [116.9107, 25.3918], [116.8577, 25.4056], [116.8284, 25.3891], [116.8095, 25.3601], [116.7713, 25.3724], [116.7193, 25.3581], [116.707, 25.323], [116.6819, 25.2887], [116.6168, 25.2713], [116.5729, 25.309], [116.6047, 25.3263], [116.587, 25.3807], [116.5554, 25.3859], [116.5263, 25.4009], [116.5332, 25.43], [116.5337, 25.4701], [116.4324, 25.4273], [116.4246, 25.3987], [116.4002, 25.3788], [116.3729, 25.3919], [116.3314, 25.3983], [116.3028, 25.3713], [116.28, 25.3139]]]}}, {"type": "Feature", "properties": {"osm_type": "relation", "osm_id": 328205603, "name": "Quanzhoushi", "admin_level": "6", "kind": "subdivision_2", "parent_osm_id": 553303, "parent_name": "Fujian", "parent_iso": "CN-FJ"}, "geometry": {"type": "Polygon", "coordinates": [[[118.5627, 25.3028], [118.5666, 25.2432], [118.5392, 25.1516], [118.544, 25.1148], [118.5689, 25.0877], [118.5783, 25.06], [118.5572, 25.0228], [118.5115, 24.9805], [118.4948, 24.9543], [118.4963, 24.9271], [118.5171, 24.9114], [118.5368, 24.9052], [118.5779, 24.8555], [118.6709, 24.8454], [118.6833, 24.8601], [118.6799, 24.8779], [118.6574, 24.9081], [118.6712, 24.9162], [118.6583, 24.9579], [118.6615, 24.9948], [118.64, 25.0146], [118.6229, 25.0454], [118.6273, 25.0786], [118.638, 25.1087], [118.6551, 25.1321], [118.6837, 25.1563], [118.6859, 25.2009], [118.6635, 25.2211], [118.6558, 25.2785], [118.6424, 25.314], [118.6119, 25.3252], [118.5627, 25.3028]]]}}, {"type": "Feature", "properties": {"osm_type": "relation", "osm_id": 680126798, "name": "Huianxian", "admin_level": "6", "kind": "subdivision_2", "parent_osm_id": 553303, "parent_name": "Fujian", "parent_iso": "CN-FJ"}, "geometry": {"type": "Polygon", "coordinates": [[[118.8212, 25.2573], [118.7896, 25.2493], [118.7563, 25.2236], [118.719, 25.2036], [118.6859, 25.2009], [118.6837, 25.1563], [118.6551, 25.1321], [118.638, 25.1087], [118.6273, 25.0786], [118.6229, 25.0454], [118.64, 25.0146], [118.6615, 24.9948], [118.6583, 24.9579], [118.6664, 24.9405], [118.6861, 24.9354], [118.7021, 24.901], [118.7067, 24.874], [118.7233, 24.8571], [118.7115, 24.8377], [118.8262, 24.8473], [118.8555, 24.8819], [118.8741, 24.8859], [118.899, 24.8831], [118.9268, 24.857], [118.9507, 24.8643], [118.9958, 24.8626], [118.9771, 24.8779], [118.9448, 24.8767], [118.929, 24.8807], [118.9106, 24.8996], [118.9041, 24.9158], [118.8913, 24.9196], [118.9168, 24.9332], [118.9461, 24.9346], [118.9689, 24.9411], [118.9882, 24.9212], [119.0222, 24.9396], [118.9926, 24.9466], [118.9856, 24.9573], [118.9859, 24.9719], [119.0141, 24.9706], [119.0031, 25.0046], [119.013, 25.0232], [118.9813, 25.0192], [118.9656, 25.003], [118.9674, 24.9789], [118.9635, 24.9691], [118.9465, 24.9815], [118.9422, 25.0002], [118.9257, 24.9969], [118.8528, 25.0596], [118.8547, 25.0687], [118.8863, 25.0828], [118.9587, 25.0799], [118.9772, 25.083], [118.9434, 25.1215], [118.9501, 25.1284], [118.9904, 25.1372], [118.9887, 25.152], [118.9801, 25.1674], [118.9622, 25.1706], [118.9184, 25.1676], [118.9129, 25.1846], [118.9284, 25.199], [118.9114, 25.2114], [118.8997, 25.2049], [118.8886, 25.2058], [118.8755, 25.223], [118.8212, 25.2573]]]}}, {"type": "Feature", "properties": {"osm_type": "relation", "osm_id": 900898463, "name": "Huaanxian", "admin_level": "6", "kind": "subdivision_2", "parent_osm_id": 553303, "parent_name": "Fujian", "parent_iso": "CN-FJ"}, "geometry": {"type": "Polygon", "coordinates": [[[117.3159, 25.0016], [117.292, 24.9575], [117.2979, 24.9216], [117.3138, 24.8978], [117.3441, 24.8735], [117.4202, 24.7856], [117.4437, 24.766], [117.4821, 24.7534], [117.504, 24.7316], [117.4948, 24.7004], [117.5197, 24.6803], [117.5507, 24.6775], [117.5721, 24.7036], [117.5878, 24.7341], [117.6112, 24.7127], [117.6205, 24.6792], [117.6871, 24.6693], [117.7002, 24.6963], [117.6898, 24.7284], [117.6672, 24.7553], [117.6325, 24.7786], [117.6151, 24.8101], [117.607, 24.9683], [117.6386, 24.974], [117.657, 24.9994], [117.6903, 25.0082], [117.7136, 25.0315], [117.7238, 25.0608], [117.7103, 25.0994], [117.6289, 25.1727], [117.592, 25.1948], [117.5777, 25.2374], [117.5393, 25.194], [117.503, 25.1943], [117.4656, 25.201], [117.4502, 25.1764], [117.4652, 25.1351], [117.5032, 25.1315], [117.4917, 25.0973], [117.4705, 25.0666], [117.4629, 25.0051], [117.4232, 24.996], [117.3888, 25.0097], [117.35, 25.0164], [117.3159, 25.0016]]]}}, {"type": "Feature", "properties": {"osm_type": "relation", "osm_id": 924676324, "name": "Yongdingxian", "admin_level": "6", "kind": "subdivision_2", "parent_osm_id": 553303, "parent_name": "Fujian", "parent_iso": "CN-FJ"}, "geometry": {"type": "Polygon", "coordinates": [[[116.744, 25.095], [116.7485, 25.0483], [116.7211, 25.0268], [116.7353, 24.9937], [116.7669, 24.9831], [116.7406, 24.952], [116.7328, 24.9256], [116.661, 24.9175], [116.6302, 24.8947], [116.678, 24.822], [116.6746, 24.7846], [116.6346, 24.806], [116.6046, 24.8288], [116.5739, 24.8096], [116.5435, 24.804], [116.4485, 24.8033], [116.3617, 24.7805], [116.4026, 24.7637], [116.4581, 24.7175], [116.5158, 24.6106], [116.5773, 24.6471], [116.6463, 24.6624], [116.7227, 24.6674], [116.7991, 24.6578], [116.7565, 24.5309], [116.8236, 24.4857], [116.8543, 24.427], [116.8695, 24.3644], [116.9122, 24.3969], [116.9153, 24.4285], [116.8957, 24.4953], [116.8944, 24.527], [116.9083, 24.5568], [117.0019, 24.6], [117.0184, 24.6314], [117.0226, 24.6719], [117.0094, 24.7841], [117.0367, 24.8345], [117.0546, 24.8858], [117.0182, 24.9446], [116.9813, 24.9778], [116.901, 24.9783], [116.9168, 25.0129], [116.8955, 25.0322], [116.8652, 25.0411], [116.8593, 25.0711], [116.8298, 25.0944], [116.7913, 25.09], [116.744, 25.095]]]}}, {"type": "Feature", "properties": {"osm_type": "relation", "osm_id": 415203568, "name": "Jinjiangshi", "admin_level": "6", "kind": "subdivision_2", "parent_osm_id": 553303, "parent_name": "Fujian", "parent_iso": "CN-FJ"}, "geometry": {"type": "Polygon", "coordinates": [[[118.4472, 24.7017], [118.4617, 24.7001], [118.4665, 24.6289], [118.4998, 24.6181], [118.5643, 24.5755], [118.555, 24.6284], [118.5965, 24.6905], [118.6189, 24.7378], [118.6642, 24.7824], [118.6556, 24.7987], [118.6361, 24.8168], [118.6482, 24.8287], [118.64, 24.8496], [118.5779, 24.8555], [118.5368, 24.9052], [118.5171, 24.9114], [118.4963, 24.9271], [118.4711, 24.9063], [118.4499, 24.8808], [118.4327, 24.8541], [118.4223, 24.8194], [118.4231, 24.78], [118.4289, 24.7503], [118.4472, 24.7017]]]}}, {"type": "Feature", "properties": {"osm_type": "relation", "osm_id": 411676881, "name": "Nanjingxian", "admin_level": "6", "kind": "subdivision_2", "parent_osm_id": 553303, "parent_name": "Fujian", "parent_iso": "CN-FJ"}, "geometry": {"type": "Polygon", "coordinates": [[[117.1696, 24.9313], [117.1359, 24.8869], [117.1354, 24.8517], [117.1202, 24.8284], [117.091, 24.8016], [117.0367, 24.8345], [117.0094, 24.7841], [117.0226, 24.6719], [117.0184, 24.6314], [117.0019, 24.6], [117.0385, 24.5917], [117.0896, 24.5683], [117.147, 24.5003], [117.1727, 24.5201], [117.2119, 24.5243], [117.237, 24.5051], [117.3062, 24.5075], [117.3302, 24.4875], [117.3531, 24.4579], [117.3928, 24.4616], [117.4554, 24.5203], [117.4873, 24.5261], [117.5193, 24.5161], [117.5561, 24.5203], [117.5868, 24.5311], [117.5849, 24.5642], [117.5696, 24.5898], [117.5333, 24.5842], [117.5038, 24.5951], [117.5139, 24.6317], [117.4762, 24.6293], [117.4631, 24.658], [117.4948, 24.7004], [117.504, 24.7316], [117.4821, 24.7534], [117.4437, 24.766], [117.4202, 24.7856], [117.3441, 24.8735], [117.3138, 24.8978], [117.2979, 24.9216], [117.292, 24.9575], [117.3159, 25.0016], [117.2337, 24.9948], [117.2133, 24.9677], [117.1696, 24.9313]]]}}, {"type": "Feature", "properties": {"osm_type": "relation", "osm_id": 925776148, "name": "Tonganxian", "admin_level": "6", "kind": "subdivision_2", "parent_osm_id": 553303, "parent_name": "Fujian", "parent_iso": "CN-FJ"}, "geometry": {"type": "Polygon", "coordinates": [[[117.9029, 24.9121], [117.9313, 24.8601], [117.9402, 24.8307], [117.9377, 24.7988], [117.9676, 24.7792], [118.0008, 24.7653], [118.0404, 24.7046], [118.1312, 24.6026], [118.1592, 24.6761], [118.1944, 24.6763], [118.1941, 24.6497], [118.2164, 24.6518], [118.2196, 24.6423], [118.1864, 24.618], [118.227, 24.6114], [118.2079, 24.575], [118.2096, 24.5602], [118.2245, 24.5462], [118.234, 24.529], [118.2736, 24.5454], [118.2889, 24.5719], [118.3007, 24.5803], [118.3586, 24.577], [118.3943, 24.5955], [118.428, 24.5903], [118.4352, 24.6523], [118.316, 24.6776], [118.3197, 24.7752], [118.3159, 24.8129], [118.2874, 24.8456], [118.2539, 24.855], [118.2203, 24.8559], [118.1956, 24.887], [118.187, 24.9132], [118.1346, 24.9372], [118.0763, 24.8886], [118.0409, 24.8858], [118.0167, 24.9164], [117.9921, 24.9343], [117.9531, 24.8911], [117.9029, 24.9121]]]}}, {"type": "Feature", "properties": {"osm_type": "relation", "osm_id": 641866887, "name": "Changtaixian", "admin_level": "6", "kind": "subdivision_2", "parent_osm_id": 553303, "parent_name": "Fujian", "parent_iso": "CN-FJ"}, "geometry": {"type": "Polygon", "coordinates": [[[117.6088, 24.8808], [117.6151, 24.8101], [117.6325, 24.7786], [117.6672, 24.7553], [117.6898, 24.7284], [117.7002, 24.6963], [117.6871, 24.6693], [117.6822, 24.6207], [117.7134, 24.6305], [117.7478, 24.6113], [117.7793, 24.6025], [117.8679, 24.6204], [117.9425, 24.6895], [117.9337, 24.7596], [117.9402, 24.8307], [117.9313, 24.8601], [117.9029, 24.9121], [117.8694, 24.9233], [117.8248, 24.9236], [117.7925, 24.8981], [117.7549, 24.9071], [117.7251, 24.9216], [117.6777, 24.8773], [117.6088, 24.8808]]]}}, {"type": "Feature", "properties": {"osm_type": "relation", "osm_id": 181523386, "name": "Zhangzhoushi", "admin_level": "6", "kind": "subdivision_2", "parent_osm_id": 553303, "parent_name": "Fujian", "parent_iso": "CN-FJ"}, "geometry": {"type": "Polygon", "coordinates": [[[117.4948, 24.7004], [117.4631, 24.658], [117.4762, 24.6293], [117.5139, 24.6317], [117.5038, 24.5951], [117.5333, 24.5842], [117.5696, 24.5898], [117.5849, 24.5642], [117.5868, 24.5311], [117.6263, 24.531], [117.6747, 24.5401], [117.6694, 24.5743], [117.6822, 24.6207], [117.6871, 24.6693], [117.6205, 24.6792], [117.6112, 24.7127], [117.5878, 24.7341], [117.5721, 24.7036], [117.5507, 24.6775], [117.5197, 24.6803], [117.4948, 24.7004]]]}}, {"type": "Feature", "properties": {"osm_type": "relation", "osm_id": 569334224, "name": "Longhaishi", "admin_level": "6", "kind": "subdivision_2", "parent_osm_id": 553303, "parent_name": "Fujian", "parent_iso": "CN-FJ"}, "geometry": {"type": "Polygon", "coordinates": [[[117.5193, 24.5161], [117.5168, 24.4574], [117.51, 24.417], [117.4945, 24.3815], [117.4942, 24.3516], [117.5389, 24.3328], [117.5706, 24.335], [117.5691, 24.3024], [117.5973, 24.2803], [117.6287, 24.3114], [117.6361, 24.3446], [117.7035, 24.3418], [117.7378, 24.3561], [117.7716, 24.3603], [117.8009, 24.3566], [117.8265, 24.3246], [117.854, 24.3011], [117.8914, 24.2929], [117.916, 24.3157], [117.9524, 24.322], [118.0581, 24.2848], [118.1205, 24.2516], [118.1437, 24.2656], [118.1501, 24.2817], [118.1175, 24.3467], [118.0773, 24.333], [118.0245, 24.3238], [118.0786, 24.3725], [118.091, 24.39], [118.0608, 24.3995], [117.995, 24.3951], [117.9359, 24.3788], [117.918, 24.3681], [117.8564, 24.4111], [117.8854, 24.4229], [117.8876, 24.4374], [117.9198, 24.4278], [117.911, 24.4542], [117.8826, 24.4755], [117.9217, 24.4756], [117.947, 24.4496], [117.9434, 24.5189], [117.9198, 24.536], [117.8933, 24.5929], [117.8679, 24.6204], [117.7793, 24.6025], [117.7478, 24.6113], [117.7134, 24.6305], [117.6822, 24.6207], [117.6694, 24.5743], [117.6747, 24.5401], [117.6263, 24.531], [117.5868, 24.5311], [117.5561, 24.5203], [117.5193, 24.5161]]]}}, {"type": "Feature", "properties": {"osm_type": "relation", "osm_id": 542267172, "name": "Pinghexian", "admin_level": "6", "kind": "subdivision_2", "parent_osm_id": 553303, "parent_name": "Fujian", "parent_iso": "CN-FJ"}, "geometry": {"type": "Polygon", "coordinates": [[[116.8695, 24.3644], [116.8822, 24.3115], [116.9512, 24.238], [116.9554, 24.1865], [117.0356, 24.1483], [117.0825, 24.1079], [117.1208, 24.0836], [117.1692, 24.1029], [117.2028, 24.0815], [117.2327, 24.0806], [117.2495, 24.1085], [117.2305, 24.2153], [117.2503, 24.2357], [117.2838, 24.2537], [117.3118, 24.2353], [117.3248, 24.2052], [117.3244, 24.1632], [117.3337, 24.1283], [117.4244, 24.1252], [117.4223, 24.2072], [117.4124, 24.2407], [117.4413, 24.2553], [117.4359, 24.2886], [117.4548, 24.3095], [117.4867, 24.3243], [117.4942, 24.3516], [117.4945, 24.3815], [117.51, 24.417], [117.5168, 24.4574], [117.5193, 24.5161], [117.4873, 24.5261], [117.4554, 24.5203], [117.3928, 24.4616], [117.3531, 24.4579], [117.3302, 24.4875], [117.3062, 24.5075], [117.237, 24.5051], [117.2119, 24.5243], [117.1727, 24.5201], [117.147, 24.5003], [117.0896, 24.5683], [117.0385, 24.5917], [117.0019, 24.6], [116.9083, 24.5568], [116.8944, 24.527], [116.8957, 24.4953], [116.9153, 24.4285], [116.9122, 24.3969], [116.8695, 24.3644]]]}}, {"type": "Feature", "properties": {"osm_type": "relation", "osm_id": 536600870, "name": "Zhangpuxian", "admin_level": "6", "kind": "subdivision_2", "parent_osm_id": 553303, "parent_name": "Fujian", "parent_iso": "CN-FJ"}, "geometry": {"type": "Polygon", "coordinates": [[[117.4942, 24.3516], [117.4867, 24.3243], [117.4548, 24.3095], [117.4359, 24.2886], [117.4413, 24.2553], [117.4124, 24.2407], [117.4223, 24.2072], [117.4244, 24.1252], [117.4439, 24.0985], [117.4796, 23.9953], [117.4487, 23.9705], [117.4608, 23.9444], [117.5746, 23.916], [117.637, 23.886], [117.6458, 23.8586], [117.623, 23.7818], [117.5972, 23.7706], [117.582, 23.7282], [117.5884, 23.7204], [117.608, 23.7173], [117.6593, 23.7636], [117.6567, 23.7933], [117.6723, 23.8283], [117.6784, 23.8675], [117.6728, 23.9103], [117.6896, 23.9221], [117.6921, 23.9542], [117.6876, 23.9849], [117.7145, 24.0098], [117.711, 24.0294], [117.7463, 24.0215], [117.7567, 24.0392], [117.7743, 24.0104], [117.7886, 24.0269], [117.8064, 24.0377], [117.7913, 23.9981], [117.7764, 23.9733], [117.7284, 23.9342], [117.7365, 23.8977], [117.7642, 23.9078], [117.7655, 23.9363], [117.7893, 23.9476], [117.812, 23.97], [117.8339, 24.0072], [117.8499, 24.0199], [117.8729, 24.0211], [117.8848, 24.0074], [117.907, 24.0224], [117.899, 24.0478], [117.8994, 24.1013], [117.9083, 24.1136], [117.9203, 24.1008], [117.9359, 24.1209], [117.947, 24.1588], [117.9245, 24.153], [117.9226, 24.166], [117.9451, 24.1847], [117.9583, 24.2124], [117.9697, 24.2051], [117.9743, 24.1873], [117.9679, 24.1583], [117.9752, 24.1495], [117.9933, 24.1638], [117.9969, 24.2069], [118.0417, 24.2047], [118.0638, 24.2307], [118.0854, 24.2384], [118.1085, 24.2386], [118.1205, 24.2516], [118.0581, 24.2848], [117.9524, 24.322], [117.916, 24.3157], [117.8914, 24.2929], [117.854, 24.3011], [117.8265, 24.3246], [117.8009, 24.3566], [117.7716, 24.3603], [117.7378, 24.3561], [117.7035, 24.3418], [117.6361, 24.3446], [117.6287, 24.3114], [117.5973, 24.2803], [117.5691, 24.3024], [117.5706, 24.335], [117.5389, 24.3328], [117.4942, 24.3516]]]}}, {"type": "Feature", "properties": {"osm_type": "relation", "osm_id": 467547184, "name": "Yunxiaoxian", "admin_level": "6", "kind": "subdivision_2", "parent_osm_id": 553303, "parent_name": "Fujian", "parent_iso": "CN-FJ"}, "geometry": {"type": "Polygon", "coordinates": [[[117.1208, 24.0836], [117.1434, 24.0092], [117.1473, 23.9747], [117.1684, 23.9389], [117.1909, 23.9202], [117.2247, 23.902], [117.2624, 23.8936], [117.3355, 23.8958], [117.3549, 23.8741], [117.35, 23.8239], [117.3651, 23.7864], [117.3683, 23.7949], [117.3829, 23.8041], [117.3776, 23.7555], [117.3833, 23.7579], [117.3989, 23.7339], [117.4732, 23.7358], [117.4491, 23.675], [117.4536, 23.6561], [117.47, 23.6536], [117.4748, 23.7169], [117.5074, 23.7138], [117.5246, 23.7182], [117.5255, 23.7302], [117.5061, 23.7619], [117.4763, 23.7491], [117.443, 23.743], [117.4236, 23.7895], [117.4508, 23.7812], [117.4498, 23.8062], [117.4744, 23.8166], [117.5158, 23.8498], [117.5223, 23.8706], [117.5122, 23.8952], [117.4359, 23.9122], [117.4237, 23.949], [117.4608, 23.9444], [117.4487, 23.9705], [117.4796, 23.9953], [117.4439, 24.0985], [117.4244, 24.1252], [117.3337, 24.1283], [117.3244, 24.1632], [117.3248, 24.2052], [117.3118, 24.2353], [117.2838, 24.2537], [117.2503, 24.2357], [117.2305, 24.2153], [117.2495, 24.1085], [117.2327, 24.0806], [117.2028, 24.0815], [117.1692, 24.1029], [117.1208, 24.0836]]]}}, {"type": "Feature", "properties": {"osm_type": "relation", "osm_id": 315574925, "name": "Zhaoanxian", "admin_level": "6", "kind": "subdivision_2", "parent_osm_id": 553303, "parent_name": "Fujian", "parent_iso": "CN-FJ"}, "geometry": {"type": "Polygon", "coordinates": [[[116.9554, 24.1865], [116.9583, 24.1507], [116.9126, 24.0827], [116.9542, 24.0143], [116.947, 23.9477], [116.9951, 23.8752], [117.017, 23.8069], [117.0558, 23.7123], [117.1234, 23.6703], [117.1726, 23.625], [117.2332, 23.6339], [117.2239, 23.6834], [117.2356, 23.7075], [117.252, 23.6871], [117.2542, 23.6759], [117.2477, 23.6283], [117.2886, 23.6451], [117.2696, 23.6832], [117.2835, 23.6971], [117.2765, 23.7234], [117.2859, 23.743], [117.298, 23.745], [117.3042, 23.7622], [117.2987, 23.781], [117.2836, 23.7921], [117.3078, 23.797], [117.3194, 23.7658], [117.34, 23.7617], [117.3511, 23.7499], [117.3651, 23.7864], [117.35, 23.8239], [117.3549, 23.8741], [117.3355, 23.8958], [117.2624, 23.8936], [117.2247, 23.902], [117.1909, 23.9202], [117.1684, 23.9389], [117.1473, 23.9747], [117.1434, 24.0092], [117.1208, 24.0836], [117.0825, 24.1079], [117.0356, 24.1483], [116.9554, 24.1865]]]}}]}