{"type": "FeatureCollection", "parent": {"osm_id": 583196181, "name": "Vestfold", "admin_level": "4", "kind": "subdivision_1", "child_kind": "subdivision_2", "iso": "NO-07"}, "features": [{"type": "Feature", "properties": {"osm_type": "relation", "osm_id": 909711358, "name": "Larvik nor", "admin_level": "6", "kind": "subdivision_2", "parent_osm_id": 583196181, "parent_name": "Vestfold", "parent_iso": "NO-07"}, "geometry": {"type": "MultiPolygon", "coordinates": [[[[10.1047, 59.0207], [10.0826, 59.01], [10.1004, 59.0042], [10.1008, 59.0099], [10.1079, 59.0109], [10.1024, 59.0174], [10.1047, 59.0207]]], [[[10.0143, 59.3254], [9.9737, 59.3248], [9.963, 59.3193], [9.9108, 59.3225], [9.9028, 59.3274], [9.8922, 59.3184], [9.8965, 59.3102], [9.8875, 59.3063], [9.8988, 59.3046], [9.8935, 59.2985], [9.8968, 59.2932], [9.9149, 59.2884], [9.906, 59.28], [9.894, 59.2799], [9.8953, 59.2691], [9.8605, 59.2559], [9.8695, 59.2519], [9.8781, 59.2207], [9.8572, 59.2155], [9.885, 59.1931], [9.8964, 59.177], [9.8855, 59.1693], [9.8313, 59.1639], [9.8248, 59.1576], [9.8293, 59.1396], [9.8206, 59.1295], [9.8469, 59.1132], [9.8561, 59.0992], [9.8499, 59.0739], [9.8383, 59.0725], [9.842, 59.0628], [9.8357, 59.0364], [9.8414, 59.0171], [9.8481, 59.0128], [9.8529, 59.0158], [9.8511, 59.0116], [9.8558, 59.0102], [9.8506, 59.0107], [9.8481, 58.9998], [9.8587, 58.9943], [9.8532, 58.9889], [9.8386, 58.9895], [9.8433, 58.9851], [9.8385, 58.9845], [9.8425, 58.9815], [9.8373, 58.978], [9.8175, 58.9764], [9.8228, 58.9718], [9.8489, 58.9677], [9.8584, 58.9581], [9.8629, 58.9603], [9.8605, 58.9644], [9.8695, 58.9657], [9.8635, 58.9734], [9.8664, 58.9752], [9.9072, 58.966], [9.9037, 58.9702], [9.9086, 58.9718], [9.9227, 58.9684], [9.9199, 58.9792], [9.9244, 58.9799], [9.9313, 58.9653], [9.9331, 58.9711], [9.9391, 58.9639], [9.9487, 58.9677], [9.9629, 58.962], [9.9625, 58.9651], [9.9729, 58.9655], [9.9686, 58.9683], [9.9729, 58.9716], [9.9651, 58.9781], [9.9718, 58.9839], [9.9824, 58.9833], [9.9826, 58.9778], [9.9886, 58.977], [9.9856, 58.9702], [9.9891, 58.9741], [9.9936, 58.9696], [9.9931, 58.9754], [10.0064, 58.9703], [10.0082, 58.9784], [10.0127, 58.9796], [10.0173, 58.9754], [10.0174, 58.9801], [10.0406, 58.9783], [10.0327, 58.9869], [10.0384, 58.9926], [10.0442, 58.9895], [10.0448, 58.9933], [10.0371, 58.9955], [10.0413, 58.9968], [10.0393, 59.0001], [10.0501, 59.0015], [10.0473, 59.0069], [10.0381, 59.0015], [10.0342, 59.0067], [10.0389, 59.0076], [10.0365, 59.0176], [10.0298, 59.0173], [10.0188, 59.0291], [10.026, 59.0333], [10.0155, 59.0469], [10.0217, 59.0507], [10.0508, 59.0412], [10.0446, 59.0417], [10.0411, 59.0365], [10.0659, 59.0433], [10.0628, 59.0376], [10.0533, 59.0355], [10.0553, 59.0301], [10.0682, 59.0343], [10.0659, 59.0277], [10.07, 59.027], [10.0654, 59.0247], [10.0743, 59.015], [10.089, 59.0241], [10.0935, 59.0223], [10.0949, 59.0284], [10.1031, 59.0322], [10.1022, 59.0279], [10.114, 59.0274], [10.1187, 59.0324], [10.1162, 59.0345], [10.1426, 59.0414], [10.1638, 59.0534], [10.1673, 59.0511], [10.1634, 59.0486], [10.1723, 59.0438], [10.1706, 59.0394], [10.177, 59.0401], [10.1698, 59.0333], [10.13, 59.0263], [10.1264, 59.0234], [10.1321, 59.0085], [10.1266, 59.0089], [10.133, 59.0045], [10.1322, 59.0076], [10.1352, 59.0045], [10.1428, 59.0112], [10.1532, 59.0052], [10.1616, 59.0076], [10.1719, 59.0117], [10.1839, 59.0248], [10.1878, 59.0185], [10.1961, 59.0231], [10.1941, 59.0275], [10.2004, 59.0218], [10.2081, 59.0234], [10.2131, 59.028], [10.2089, 59.0318], [10.2163, 59.0325], [10.2162, 59.0367], [10.2208, 59.0313], [10.2319, 59.0424], [10.2264, 59.0418], [10.231, 59.0474], [10.2256, 59.0521], [10.2324, 59.0523], [10.225, 59.0608], [10.2342, 59.0607], [10.1904, 59.0822], [10.187, 59.0987], [10.169, 59.0977], [10.1656, 59.107], [10.1565, 59.1078], [10.1493, 59.118], [10.1344, 59.1156], [10.1457, 59.1249], [10.1193, 59.1381], [10.1221, 59.1421], [10.1185, 59.1502], [10.1283, 59.1522], [10.1336, 59.1602], [10.1268, 59.161], [10.1283, 59.1644], [10.1411, 59.1701], [10.1281, 59.1886], [10.1212, 59.1934], [10.0771, 59.1988], [10.0648, 59.2187], [10.0487, 59.2198], [10.0433, 59.2267], [10.0316, 59.2276], [10.0193, 59.2455], [10.0045, 59.2532], [10.0034, 59.2625], [9.9926, 59.2671], [10.0095, 59.2867], [10.0177, 59.2879], [10.0131, 59.2996], [10.0186, 59.3054], [10.0143, 59.3254]], [[10.1286, 59.1], [10.1177, 59.1002], [10.1201, 59.107], [10.1307, 59.1118], [10.1448, 59.1011], [10.1402, 59.0976], [10.1286, 59.1]]]]}}, {"type": "Feature", "properties": {"osm_type": "relation", "osm_id": 224131455, "name": "Svelvik nor", "admin_level": "6", "kind": "subdivision_2", "parent_osm_id": 583196181, "parent_name": "Vestfold", "parent_iso": "NO-07"}, "geometry": {"type": "Polygon", "coordinates": [[[10.3845, 59.5342], [10.3901, 59.5375], [10.3829, 59.5405], [10.392, 59.5434], [10.3969, 59.5606], [10.4087, 59.5631], [10.3898, 59.5805], [10.3958, 59.5886], [10.4144, 59.5921], [10.4036, 59.5948], [10.4134, 59.6038], [10.4088, 59.6107], [10.4112, 59.6223], [10.3911, 59.643], [10.3882, 59.6599], [10.3803, 59.6629], [10.3744, 59.6773], [10.3669, 59.6768], [10.3628, 59.6834], [10.346, 59.69], [10.3199, 59.6913], [10.3228, 59.6895], [10.3118, 59.6825], [10.302, 59.6644], [10.3197, 59.6589], [10.3365, 59.6309], [10.3309, 59.6059], [10.3432, 59.5651], [10.3543, 59.5582], [10.3511, 59.5562], [10.3547, 59.5517], [10.3654, 59.548], [10.3664, 59.5423], [10.3732, 59.5427], [10.3845, 59.5342]]]}}, {"type": "Feature", "properties": {"osm_type": "relation", "osm_id": 423648139, "name": "Lardal nor", "admin_level": "6", "kind": "subdivision_2", "parent_osm_id": 583196181, "parent_name": "Vestfold", "parent_iso": "NO-07"}, "geometry": {"type": "Polygon", "coordinates": [[[10.0143, 59.3254], [10.0176, 59.3264], [10.01, 59.3339], [10.0377, 59.3617], [10.0426, 59.3818], [10.0582, 59.4094], [10.0623, 59.4245], [10.06, 59.473], [10.0118, 59.4585], [10.0013, 59.4605], [9.9983, 59.467], [9.9448, 59.4683], [9.937, 59.4646], [9.9372, 59.4595], [9.9206, 59.4555], [9.8529, 59.4583], [9.8191, 59.4692], [9.7751, 59.457], [9.7585, 59.4583], [9.7714, 59.4374], [9.7781, 59.412], [9.7794, 59.3904], [9.7767, 59.3807], [9.7694, 59.3756], [9.7828, 59.3503], [9.7553, 59.3249], [9.7768, 59.3161], [9.8106, 59.289], [9.8106, 59.2822], [9.8605, 59.2559], [9.8953, 59.2691], [9.894, 59.2799], [9.906, 59.28], [9.9149, 59.2884], [9.8968, 59.2932], [9.8935, 59.2985], [9.8988, 59.3046], [9.8875, 59.3063], [9.8965, 59.3102], [9.8922, 59.3184], [9.9028, 59.3274], [9.9108, 59.3225], [9.963, 59.3193], [9.9737, 59.3248], [10.0143, 59.3254]]]}}, {"type": "Feature", "properties": {"osm_type": "relation", "osm_id": 928005215, "name": "Tønsberg nor", "admin_level": "6", "kind": "subdivision_2", "parent_osm_id": 583196181, "parent_name": "Vestfold", "parent_iso": "NO-07"}, "geometry": {"type": "MultiPolygon", "coordinates": [[[[10.4223, 59.2587], [10.4033, 59.2661], [10.3933, 59.2652], [10.409, 59.2564], [10.4223, 59.2587]]], [[[10.4748, 59.3462], [10.4576, 59.3415], [10.4581, 59.3463], [10.4283, 59.3513], [10.4225, 59.357], [10.4103, 59.3513], [10.3905, 59.3503], [10.3768, 59.3437], [10.3771, 59.3397], [10.3714, 59.3475], [10.3542, 59.3479], [10.3518, 59.3428], [10.3607, 59.3328], [10.3471, 59.3301], [10.3481, 59.3198], [10.31, 59.3191], [10.3095, 59.3133], [10.3028, 59.3114], [10.2996, 59.3172], [10.2889, 59.3167], [10.2877, 59.3098], [10.2792, 59.3107], [10.2778, 59.302], [10.287, 59.3007], [10.2857, 59.2938], [10.2787, 59.292], [10.2834, 59.2913], [10.2852, 59.2789], [10.3096, 59.2795], [10.3093, 59.27], [10.3048, 59.2707], [10.3043, 59.2663], [10.3261, 59.2689], [10.3316, 59.2509], [10.354, 59.2484], [10.3556, 59.243], [10.3601, 59.2477], [10.3718, 59.2473], [10.378, 59.2683], [10.3725, 59.2746], [10.379, 59.2781], [10.3876, 59.2739], [10.3965, 59.2782], [10.4066, 59.2644], [10.4204, 59.2598], [10.4297, 59.2596], [10.4303, 59.2708], [10.437, 59.2706], [10.4508, 59.2527], [10.4478, 59.2482], [10.4688, 59.2449], [10.4658, 59.2507], [10.478, 59.2509], [10.4758, 59.2599], [10.4876, 59.2655], [10.4919, 59.2585], [10.5043, 59.2549], [10.493, 59.2654], [10.4914, 59.275], [10.5046, 59.2815], [10.4979, 59.2873], [10.5013, 59.2921], [10.5212, 59.2942], [10.5206, 59.3041], [10.5282, 59.309], [10.5256, 59.3125], [10.5296, 59.3164], [10.5095, 59.3254], [10.4979, 59.3223], [10.4748, 59.3462]]]]}}, {"type": "Feature", "properties": {"osm_type": "relation", "osm_id": 170779817, "name": "Horten nor", "admin_level": "6", "kind": "subdivision_2", "parent_osm_id": 583196181, "parent_name": "Vestfold", "parent_iso": "NO-07"}, "geometry": {"type": "MultiPolygon", "coordinates": [[[[10.5188, 59.3923], [10.5135, 59.3779], [10.5338, 59.3664], [10.5389, 59.3716], [10.5375, 59.3864], [10.5211, 59.3863], [10.5188, 59.3923]]], [[[10.4748, 59.3462], [10.4621, 59.3718], [10.4788, 59.3837], [10.4772, 59.3904], [10.4826, 59.3918], [10.4772, 59.3941], [10.4871, 59.4012], [10.4835, 59.4016], [10.4868, 59.4015], [10.4837, 59.4022], [10.4875, 59.4133], [10.4986, 59.4165], [10.4868, 59.4238], [10.4588, 59.4297], [10.4557, 59.4382], [10.4361, 59.4472], [10.4553, 59.445], [10.4484, 59.4528], [10.4309, 59.4521], [10.436, 59.4482], [10.4301, 59.4477], [10.4276, 59.4406], [10.4012, 59.4502], [10.3928, 59.4466], [10.3879, 59.4379], [10.3728, 59.4479], [10.3656, 59.4443], [10.3548, 59.4478], [10.3463, 59.4315], [10.3335, 59.4291], [10.3358, 59.4208], [10.3422, 59.4188], [10.3333, 59.4109], [10.3388, 59.4112], [10.3378, 59.4055], [10.3469, 59.4025], [10.3488, 59.3967], [10.3577, 59.4041], [10.3828, 59.4023], [10.3752, 59.3956], [10.3739, 59.3844], [10.3778, 59.3753], [10.3855, 59.3786], [10.3962, 59.3758], [10.3948, 59.3651], [10.3879, 59.3659], [10.3891, 59.3711], [10.383, 59.3696], [10.3858, 59.362], [10.3912, 59.362], [10.3905, 59.3503], [10.4103, 59.3513], [10.4225, 59.357], [10.4283, 59.3513], [10.4581, 59.3463], [10.4576, 59.3415], [10.4748, 59.3462]]]]}}, {"type": "Feature", "properties": {"osm_type": "relation", "osm_id": 839737102, "name": "Re nor", "admin_level": "6", "kind": "subdivision_2", "parent_osm_id": 583196181, "parent_name": "Vestfold", "parent_iso": "NO-07"}, "geometry": {"type": "Polygon", "coordinates": [[[10.0426, 59.3818], [10.118, 59.3873], [10.1402, 59.3814], [10.1544, 59.3885], [10.1524, 59.373], [10.1731, 59.3632], [10.1755, 59.3497], [10.1957, 59.3533], [10.2064, 59.3336], [10.2278, 59.3281], [10.2328, 59.3226], [10.2307, 59.3102], [10.2534, 59.3123], [10.2605, 59.3188], [10.2688, 59.3064], [10.2775, 59.304], [10.2792, 59.3107], [10.2877, 59.3098], [10.2889, 59.3167], [10.2996, 59.3172], [10.3028, 59.3114], [10.3095, 59.3133], [10.31, 59.3191], [10.3481, 59.3198], [10.3471, 59.3301], [10.3607, 59.3328], [10.3518, 59.3428], [10.3542, 59.3479], [10.3714, 59.3475], [10.3771, 59.3397], [10.3815, 59.3467], [10.391, 59.3478], [10.3912, 59.362], [10.3858, 59.362], [10.383, 59.3696], [10.3891, 59.3711], [10.3879, 59.3659], [10.3948, 59.3651], [10.3962, 59.3758], [10.3855, 59.3786], [10.3778, 59.3753], [10.3752, 59.3956], [10.3828, 59.4023], [10.3577, 59.4041], [10.3488, 59.3967], [10.3469, 59.4025], [10.3378, 59.4055], [10.3388, 59.4112], [10.3333, 59.4109], [10.3422, 59.4188], [10.3358, 59.4208], [10.3335, 59.4291], [10.3463, 59.4315], [10.3523, 59.4471], [10.3656, 59.4443], [10.3728, 59.4479], [10.3561, 59.4615], [10.3577, 59.4703], [10.3497, 59.4811], [10.345, 59.4703], [10.323, 59.4661], [10.3215, 59.451], [10.3016, 59.4534], [10.3036, 59.4569], [10.3001, 59.4579], [10.2809, 59.4532], [10.2719, 59.463], [10.2733, 59.4555], [10.2581, 59.4599], [10.2596, 59.4548], [10.2486, 59.4556], [10.2434, 59.4486], [10.2291, 59.4485], [10.225, 59.4564], [10.2272, 59.4629], [10.216, 59.4723], [10.2147, 59.481], [10.2004, 59.4825], [10.1913, 59.4795], [10.1879, 59.4713], [10.1698, 59.4795], [10.17, 59.4738], [10.1552, 59.4718], [10.1604, 59.4643], [10.1423, 59.4629], [10.1463, 59.4572], [10.1355, 59.4581], [10.1483, 59.4469], [10.1026, 59.4476], [10.0971, 59.4528], [10.0625, 59.4545], [10.0582, 59.4094], [10.0426, 59.3818]], [[10.3883, 59.3777], [10.3869, 59.3778], [10.3883, 59.3777]]]}}, {"type": "Feature", "properties": {"osm_type": "relation", "osm_id": 492381996, "name": "Sande nor", "admin_level": "6", "kind": "subdivision_2", "parent_osm_id": 583196181, "parent_name": "Vestfold", "parent_iso": "NO-07"}, "geometry": {"type": "Polygon", "coordinates": [[[10.3029, 59.6682], [10.251, 59.674], [10.2386, 59.6664], [10.2245, 59.6713], [10.219, 59.6638], [10.1928, 59.6719], [10.1572, 59.6658], [10.1362, 59.6717], [10.1155, 59.6707], [10.1115, 59.6607], [10.0986, 59.6561], [10.0889, 59.6426], [10.0375, 59.6405], [10.0751, 59.6135], [10.1175, 59.5946], [10.1472, 59.5713], [10.1777, 59.5668], [10.1962, 59.5463], [10.238, 59.5346], [10.2581, 59.5365], [10.2394, 59.5518], [10.2384, 59.5564], [10.2438, 59.558], [10.2322, 59.5664], [10.2428, 59.5721], [10.2539, 59.5614], [10.267, 59.5632], [10.2799, 59.5523], [10.3327, 59.5322], [10.379, 59.5301], [10.3845, 59.5342], [10.3732, 59.5427], [10.3664, 59.5423], [10.3654, 59.548], [10.3547, 59.5517], [10.3511, 59.5562], [10.3543, 59.5582], [10.3432, 59.5651], [10.3309, 59.6059], [10.3365, 59.6309], [10.3197, 59.6589], [10.302, 59.6644], [10.3029, 59.6682]]]}}, {"type": "Feature", "properties": {"osm_type": "relation", "osm_id": 467152056, "name": "Hof nor", "admin_level": "6", "kind": "subdivision_2", "parent_osm_id": 583196181, "parent_name": "Vestfold", "parent_iso": "NO-07"}, "geometry": {"type": "Polygon", "coordinates": [[[10.0625, 59.4545], [10.0971, 59.4528], [10.1026, 59.4476], [10.1483, 59.4469], [10.136, 59.456], [10.1463, 59.4572], [10.1236, 59.4843], [10.1346, 59.4943], [10.1585, 59.4956], [10.157, 59.5264], [10.1348, 59.5536], [10.1249, 59.5581], [10.1346, 59.5628], [10.1416, 59.5751], [10.1175, 59.5946], [10.0477, 59.6305], [10.0248, 59.6539], [9.9982, 59.6638], [9.9998, 59.6565], [9.9829, 59.6436], [9.9866, 59.639], [9.9746, 59.6326], [9.9811, 59.618], [9.9329, 59.6039], [9.9418, 59.5869], [9.9154, 59.5825], [9.9428, 59.5678], [9.9889, 59.5306], [10.025, 59.5123], [10.06, 59.473], [10.0625, 59.4545]]]}}, {"type": "Feature", "properties": {"osm_type": "relation", "osm_id": 407467123, "name": "Holmestrand nor", "admin_level": "6", "kind": "subdivision_2", "parent_osm_id": 583196181, "parent_name": "Vestfold", "parent_iso": "NO-07"}, "geometry": {"type": "Polygon", "coordinates": [[[10.3342, 59.4707], [10.3282, 59.487], [10.3029, 59.4993], [10.2808, 59.531], [10.2673, 59.5304], [10.2581, 59.5365], [10.238, 59.5346], [10.1962, 59.5463], [10.1777, 59.5668], [10.1416, 59.5751], [10.1346, 59.5628], [10.1249, 59.5581], [10.1348, 59.5536], [10.157, 59.5264], [10.1585, 59.4956], [10.1346, 59.4943], [10.1236, 59.4843], [10.1423, 59.4629], [10.1604, 59.4643], [10.1552, 59.4718], [10.17, 59.4738], [10.1698, 59.4795], [10.1879, 59.4713], [10.1913, 59.4795], [10.2042, 59.4823], [10.2147, 59.481], [10.216, 59.4723], [10.2272, 59.4629], [10.225, 59.4564], [10.2291, 59.4485], [10.2434, 59.4486], [10.2486, 59.4556], [10.2596, 59.4548], [10.2581, 59.4599], [10.2733, 59.4555], [10.2719, 59.463], [10.2809, 59.4532], [10.3001, 59.4579], [10.3036, 59.4569], [10.3016, 59.4534], [10.3091, 59.4544], [10.3124, 59.4504], [10.3215, 59.451], [10.323, 59.4661], [10.3342, 59.4707]]]}}, {"type": "Feature", "properties": {"osm_type": "relation", "osm_id": 160553277, "name": "Horten nor", "admin_level": "6", "kind": "subdivision_2", "parent_osm_id": 583196181, "parent_name": "Vestfold", "parent_iso": "NO-07"}, "geometry": {"type": "Polygon", "coordinates": [[[10.3883, 59.3777], [10.3869, 59.3778], [10.3883, 59.3777]]]}}, {"type": "Feature", "properties": {"osm_type": "relation", "osm_id": 150200231, "name": "Sandefjord nor", "admin_level": "6", "kind": "subdivision_2", "parent_osm_id": 583196181, "parent_name": "Vestfold", "parent_iso": "NO-07"}, "geometry": {"type": "Polygon", "coordinates": [[[10.206, 59.0766], [10.2175, 59.0758], [10.2202, 59.0826], [10.2145, 59.0845], [10.227, 59.0955], [10.2224, 59.0995], [10.2301, 59.1009], [10.2206, 59.1244], [10.2402, 59.1273], [10.2273, 59.1161], [10.2408, 59.1039], [10.2364, 59.0993], [10.2386, 59.0959], [10.2466, 59.1018], [10.247, 59.0941], [10.254, 59.0983], [10.2622, 59.0803], [10.2525, 59.0679], [10.2622, 59.0647], [10.2595, 59.0594], [10.2643, 59.0597], [10.2696, 59.0463], [10.2667, 59.0442], [10.2723, 59.0412], [10.2742, 59.0494], [10.2787, 59.0468], [10.281, 59.0517], [10.2695, 59.0667], [10.2811, 59.0653], [10.2769, 59.0706], [10.2806, 59.0811], [10.2728, 59.0891], [10.2727, 59.0979], [10.2606, 59.1096], [10.2648, 59.1101], [10.2653, 59.1258], [10.2764, 59.1145], [10.2804, 59.1157], [10.2762, 59.1127], [10.2829, 59.1063], [10.283, 59.0945], [10.2912, 59.0957], [10.2922, 59.0755], [10.3027, 59.0671], [10.2983, 59.0567], [10.3036, 59.053], [10.3033, 59.0584], [10.309, 59.0566], [10.308, 59.0666], [10.3122, 59.065], [10.3145, 59.071], [10.3066, 59.0723], [10.3006, 59.0818], [10.3028, 59.0859], [10.3119, 59.0849], [10.3092, 59.097], [10.2921, 59.1161], [10.2959, 59.1168], [10.2911, 59.1259], [10.2817, 59.1256], [10.2865, 59.1296], [10.2804, 59.1383], [10.2991, 59.1395], [10.3038, 59.1342], [10.3076, 59.1406], [10.3096, 59.1353], [10.3147, 59.1363], [10.3121, 59.1263], [10.3183, 59.1321], [10.3296, 59.1299], [10.3281, 59.1403], [10.3221, 59.1461], [10.3079, 59.1472], [10.3118, 59.1521], [10.3188, 59.1515], [10.3324, 59.1745], [10.3293, 59.1809], [10.3335, 59.1902], [10.3276, 59.1916], [10.3437, 59.2138], [10.3383, 59.22], [10.3578, 59.212], [10.365, 59.2245], [10.3761, 59.2271], [10.3787, 59.2356], [10.3718, 59.2473], [10.3601, 59.2477], [10.3556, 59.243], [10.354, 59.2484], [10.3316, 59.2509], [10.3261, 59.2689], [10.3043, 59.2663], [10.3048, 59.2707], [10.3093, 59.27], [10.3096, 59.2795], [10.2852, 59.2789], [10.2834, 59.2913], [10.2787, 59.292], [10.2857, 59.2938], [10.287, 59.3007], [10.2688, 59.3064], [10.2605, 59.3188], [10.2534, 59.3123], [10.2307, 59.3102], [10.2328, 59.3226], [10.2278, 59.3281], [10.2064, 59.3336], [10.1957, 59.3533], [10.1755, 59.3497], [10.1731, 59.3632], [10.1524, 59.373], [10.1544, 59.3885], [10.1402, 59.3814], [10.118, 59.3873], [10.0426, 59.3818], [10.0377, 59.3617], [10.01, 59.3339], [10.0176, 59.3264], [10.0139, 59.3144], [10.0186, 59.3054], [10.0131, 59.2996], [10.0177, 59.2879], [10.0095, 59.2867], [9.9926, 59.2671], [10.0034, 59.2625], [10.0045, 59.2532], [10.0193, 59.2455], [10.0316, 59.2276], [10.0433, 59.2267], [10.0487, 59.2198], [10.0648, 59.2187], [10.0771, 59.1988], [10.1212, 59.1934], [10.1281, 59.1886], [10.1411, 59.1701], [10.1283, 59.1644], [10.1268, 59.161], [10.1336, 59.1602], [10.1283, 59.1522], [10.1185, 59.1502], [10.1221, 59.1421], [10.1193, 59.1381], [10.1457, 59.1249], [10.1344, 59.1156], [10.1493, 59.118], [10.1565, 59.1078], [10.1656, 59.107], [10.169, 59.0977], [10.187, 59.0987], [10.1904, 59.0822], [10.206, 59.0766]]]}}]}