{"type": "FeatureCollection", "parent": {"osm_id": 630714010, "name": "Kyzylorda", "admin_level": "4", "kind": "subdivision_1", "child_kind": "subdivision_2", "iso": "KZ-KZY"}, "features": [{"type": "Feature", "properties": {"osm_type": "relation", "osm_id": 430336975, "name": "Aral`skiy", "admin_level": "6", "kind": "subdivision_2", "parent_osm_id": 630714010, "parent_name": "Kyzylorda", "parent_iso": "KZ-KZY"}, "geometry": {"type": "Polygon", "coordinates": [[[61.8227, 47.8148], [61.214, 47.7201], [60.8696, 47.0941], [60.4501, 47.1177], [60.4214, 46.9007], [60.1143, 46.8833], [59.7109, 46.6257], [59.6261, 46.5349], [59.5109, 46.4476], [59.2908, 46.2186], [59.0178, 45.9849], [59.0555, 45.3179], [59.4576, 45.1136], [59.7927, 44.923], [60.1083, 44.7159], [60.6483, 44.3825], [61.4702, 45.1087], [61.4722, 45.168], [61.4539, 45.1806], [61.4712, 45.2739], [61.4466, 45.2949], [61.4195, 45.2651], [61.4013, 45.2777], [61.4226, 45.3075], [61.3917, 45.3369], [61.3635, 45.324], [61.3547, 45.3706], [61.3389, 45.345], [61.313, 45.3872], [61.3407, 45.4086], [61.3225, 45.4212], [61.2762, 45.4166], [61.2633, 45.4377], [61.2968, 45.4591], [61.2844, 45.4718], [61.2561, 45.4588], [61.2546, 45.4842], [61.2654, 45.4971], [61.2411, 45.5138], [61.2701, 45.5141], [61.2921, 45.5354], [61.328, 45.5188], [61.38, 45.5277], [61.377, 45.5785], [61.3483, 45.5698], [61.2793, 45.6499], [61.2874, 45.7136], [61.3631, 45.7227], [61.3512, 45.8372], [61.4759, 45.8255], [61.4922, 45.8553], [61.5114, 45.8258], [61.553, 45.8218], [61.5804, 45.873], [61.6233, 45.8436], [61.6316, 45.7884], [61.6725, 45.8057], [61.6858, 45.7718], [61.7195, 45.8188], [61.7386, 45.7892], [61.7782, 45.8404], [61.8211, 45.8109], [61.8975, 45.8454], [61.8786, 45.8708], [61.8369, 45.8663], [61.8365, 45.879], [61.9111, 45.973], [62.0026, 46.1391], [62.1085, 46.267], [62.0823, 46.3562], [62.2173, 46.6711], [62.339, 46.7859], [62.3996, 46.9007], [62.5662, 47.0366], [62.8421, 47.1839], [62.7664, 47.1674], [62.7226, 47.2102], [62.4346, 47.2409], [62.478, 47.3089], [62.2016, 47.5473], [62.0766, 47.5344], [61.9941, 47.6407], [61.8227, 47.8148]]]}}, {"type": "Feature", "properties": {"osm_type": "relation", "osm_id": 722258218, "name": "Karmakchinskiy", "admin_level": "6", "kind": "subdivision_2", "parent_osm_id": 630714010, "parent_name": "Kyzylorda", "parent_iso": "KZ-KZY"}, "geometry": {"type": "Polygon", "coordinates": [[[63.0994, 47.012], [63.1406, 46.7487], [63.1507, 46.5028], [63.23, 46.3157], [63.1675, 46.2611], [63.1983, 46.2397], [63.0866, 46.0878], [63.0317, 45.9353], [62.9529, 45.8761], [62.9366, 45.6555], [63.089, 45.5108], [62.8993, 45.3161], [62.8576, 45.3035], [62.8308, 44.9344], [62.8459, 44.8284], [62.6979, 44.5655], [62.6374, 44.4935], [62.4746, 44.1509], [62.4067, 43.8935], [62.3396, 43.7925], [62.2822, 43.797], [62.1449, 43.6419], [62.0443, 43.6087], [61.9973, 43.6214], [61.9891, 43.5794], [61.9244, 43.5584], [61.9756, 43.5123], [62.0108, 43.4877], [62.0287, 43.4865], [62.9389, 43.6167], [63.3779, 43.6728], [63.4021, 43.7993], [63.3857, 43.9183], [63.4213, 44.0412], [63.4277, 44.1983], [63.5039, 44.4145], [63.5137, 44.5163], [63.5117, 44.6394], [63.5565, 44.864], [63.6159, 44.9018], [63.7295, 44.8841], [63.7954, 44.837], [63.8974, 44.8659], [63.9153, 44.8403], [63.9454, 44.84], [64.0605, 44.8643], [64.1159, 44.9145], [64.2962, 45.0392], [64.2725, 45.0733], [64.2978, 45.0941], [64.3537, 45.106], [64.342, 45.1273], [64.4132, 45.2193], [64.3655, 45.2791], [64.3545, 45.3215], [64.4605, 45.3199], [64.4231, 45.4936], [64.3499, 45.7227], [64.3781, 45.9671], [64.1473, 46.2579], [63.973, 46.3704], [63.7979, 46.6985], [63.7819, 46.8172], [63.8211, 46.8462], [63.7771, 46.8765], [63.6803, 46.8356], [63.3836, 46.9495], [63.2503, 46.9426], [63.0994, 47.012]]]}}, {"type": "Feature", "properties": {"osm_type": "relation", "osm_id": 341684569, "name": "Kazalinskiy", "admin_level": "6", "kind": "subdivision_2", "parent_osm_id": 630714010, "parent_name": "Kyzylorda", "parent_iso": "KZ-KZY"}, "geometry": {"type": "Polygon", "coordinates": [[[62.5662, 47.0366], [62.3996, 46.9007], [62.339, 46.7859], [62.2173, 46.6711], [62.0823, 46.3562], [62.1085, 46.267], [62.0026, 46.1391], [61.9111, 45.973], [61.8365, 45.879], [61.8369, 45.8663], [61.8786, 45.8708], [61.8975, 45.8454], [61.8211, 45.8109], [61.7782, 45.8404], [61.7386, 45.7892], [61.7195, 45.8188], [61.6858, 45.7718], [61.6725, 45.8057], [61.6316, 45.7884], [61.6233, 45.8436], [61.5804, 45.873], [61.553, 45.8218], [61.5114, 45.8258], [61.4922, 45.8553], [61.4759, 45.8255], [61.3512, 45.8372], [61.3631, 45.7227], [61.2874, 45.7136], [61.2793, 45.6499], [61.3483, 45.5698], [61.377, 45.5785], [61.38, 45.5277], [61.328, 45.5188], [61.2921, 45.5354], [61.2701, 45.5141], [61.2411, 45.5138], [61.2654, 45.4971], [61.2546, 45.4842], [61.2561, 45.4588], [61.2844, 45.4718], [61.2968, 45.4591], [61.2633, 45.4377], [61.2762, 45.4166], [61.3225, 45.4212], [61.3407, 45.4086], [61.313, 45.3872], [61.3389, 45.345], [61.3547, 45.3706], [61.3635, 45.324], [61.3917, 45.3369], [61.4226, 45.3075], [61.4013, 45.2777], [61.4195, 45.2651], [61.4466, 45.2949], [61.4712, 45.2739], [61.4539, 45.1806], [61.4722, 45.168], [61.4702, 45.1087], [60.6483, 44.3825], [61.0361, 44.1371], [61.1608, 44.1271], [61.2448, 44.1342], [61.2623, 44.1199], [61.2528, 44.1348], [61.2754, 44.1368], [61.9244, 43.5584], [61.9891, 43.5794], [61.9973, 43.6214], [62.0443, 43.6087], [62.1449, 43.6419], [62.2822, 43.797], [62.3396, 43.7925], [62.4067, 43.8935], [62.4746, 44.1509], [62.6374, 44.4935], [62.6979, 44.5655], [62.8459, 44.8284], [62.8308, 44.9344], [62.8576, 45.3035], [62.8993, 45.3161], [63.089, 45.5108], [62.9366, 45.6555], [62.9529, 45.8761], [63.0317, 45.9353], [63.0866, 46.0878], [63.1983, 46.2397], [63.1675, 46.2611], [63.23, 46.3157], [63.1507, 46.5028], [63.1406, 46.7487], [63.0994, 47.012], [62.9802, 47.0894], [62.5662, 47.0366]]]}}, {"type": "Feature", "properties": {"osm_type": "relation", "osm_id": 402657663, "name": "Qyzylorda", "admin_level": "6", "kind": "subdivision_2", "parent_osm_id": 630714010, "parent_name": "Kyzylorda", "parent_iso": "KZ-KZY"}, "geometry": {"type": "Polygon", "coordinates": [[[65.7554, 44.6377], [65.7634, 44.6713], [65.8643, 44.636], [65.9302, 44.7233], [65.8645, 44.7412], [65.8848, 44.7746], [65.8615, 44.7918], [65.9056, 44.8163], [65.8896, 44.8544], [65.8098, 44.8431], [65.7726, 44.8311], [65.7524, 44.7977], [65.6872, 44.8283], [65.676, 44.8453], [65.7191, 44.853], [65.703, 44.8911], [65.7456, 44.8904], [65.7349, 44.9159], [65.7659, 44.9238], [65.7739, 44.9573], [65.6534, 44.9846], [65.6551, 45.014], [65.5874, 45.0067], [65.5763, 45.0279], [65.5514, 45.0199], [65.5471, 45.0537], [65.473, 45.0422], [65.4562, 45.072], [65.4008, 45.0687], [65.3625, 45.0398], [65.3624, 45.1578], [65.401, 45.1908], [65.3771, 45.2039], [65.3777, 45.2165], [65.4144, 45.2117], [65.4344, 45.2408], [65.4526, 45.2363], [65.524, 45.3024], [65.3592, 45.3348], [65.217, 45.333], [65.1187, 45.2208], [65.219, 45.1222], [65.1958, 45.0256], [65.3386, 44.9307], [65.3, 44.8933], [65.2632, 44.8939], [65.2802, 44.8641], [65.2232, 44.8271], [65.2412, 44.8184], [65.2788, 44.8347], [65.3087, 44.8215], [65.2955, 44.8007], [65.3436, 44.7831], [65.3297, 44.7496], [65.3677, 44.652], [65.4459, 44.634], [65.4143, 44.6092], [65.4377, 44.592], [65.5421, 44.6157], [65.5578, 44.6829], [65.6718, 44.6601], [65.7124, 44.6258], [65.7554, 44.6377]]]}}, {"type": "Feature", "properties": {"osm_type": "relation", "osm_id": 234315710, "name": "Shieliyskiy", "admin_level": "6", "kind": "subdivision_2", "parent_osm_id": 630714010, "parent_name": "Kyzylorda", "parent_iso": "KZ-KZY"}, "geometry": {"type": "Polygon", "coordinates": [[[65.7554, 44.6377], [65.8958, 44.5556], [65.9157, 44.4837], [65.8846, 44.4674], [65.9007, 44.4335], [65.8754, 44.4128], [65.892, 44.3873], [65.8776, 44.3454], [65.7901, 44.2835], [65.6883, 44.2891], [65.4708, 44.1486], [65.3478, 43.9982], [65.1017, 43.7855], [65.0792, 43.7766], [65.1144, 43.7756], [65.1322, 43.7705], [65.1702, 43.7435], [65.2941, 43.5453], [65.4156, 43.4563], [65.6511, 43.3035], [65.6835, 43.2076], [65.8272, 42.8681], [66.0992, 42.9622], [66.1037, 42.6251], [66.514, 42.8703], [66.425, 43.2677], [66.3925, 43.3103], [66.7739, 43.4148], [66.806, 43.8468], [66.8692, 43.8957], [66.8569, 43.9672], [66.9366, 44.07], [67.0419, 44.1885], [67.2063, 44.2922], [67.3446, 44.3002], [67.3998, 44.3818], [67.4715, 44.3792], [67.4925, 44.4118], [67.5379, 44.3851], [67.5924, 44.3914], [67.6123, 44.4115], [67.6063, 45.113], [67.4471, 45.161], [67.2567, 45.2725], [67.3204, 45.4374], [67.3298, 45.5416], [67.2368, 45.5952], [66.8758, 45.6034], [66.571, 45.0886], [66.3998, 45.0843], [66.2483, 45.1883], [66.1575, 45.1187], [66.1397, 45.1274], [65.9978, 45.0207], [66.0328, 44.9949], [65.8896, 44.8544], [65.9056, 44.8163], [65.8615, 44.7918], [65.8848, 44.7746], [65.8645, 44.7412], [65.9302, 44.7233], [65.8643, 44.636], [65.7634, 44.6713], [65.7554, 44.6377]]]}}, {"type": "Feature", "properties": {"osm_type": "relation", "osm_id": 255555772, "name": "Terenozekskiy", "admin_level": "6", "kind": "subdivision_2", "parent_osm_id": 630714010, "parent_name": "Kyzylorda", "parent_iso": "KZ-KZY"}, "geometry": {"type": "Polygon", "coordinates": [[[64.9302, 46.5225], [64.8541, 46.389], [64.8875, 46.1523], [64.8793, 45.9753], [64.86, 45.8281], [64.8394, 45.7905], [64.768, 45.3193], [64.7853, 45.2853], [64.752, 45.2437], [64.7611, 45.1676], [64.834, 45.1158], [64.8081, 45.0993], [64.8249, 45.0569], [64.7997, 45.053], [64.8474, 45.0017], [64.7714, 44.9817], [64.7637, 44.9481], [64.8809, 44.9167], [64.8479, 44.8793], [64.7415, 44.8682], [64.6099, 44.8279], [64.6091, 44.8068], [64.6705, 44.7975], [64.6794, 44.7086], [64.7277, 44.6826], [64.7376, 44.4543], [64.6711, 44.2689], [64.719, 43.6684], [65.0103, 43.7669], [65.0792, 43.7766], [65.1017, 43.7855], [65.3478, 43.9982], [65.4708, 44.1486], [65.6883, 44.2891], [65.7901, 44.2835], [65.8776, 44.3454], [65.892, 44.3873], [65.8754, 44.4128], [65.9007, 44.4335], [65.8846, 44.4674], [65.9157, 44.4837], [65.8958, 44.5556], [65.7554, 44.6377], [65.7124, 44.6258], [65.6718, 44.6601], [65.5578, 44.6829], [65.5421, 44.6157], [65.4377, 44.592], [65.4143, 44.6092], [65.4459, 44.634], [65.3677, 44.652], [65.3297, 44.7496], [65.3436, 44.7831], [65.2955, 44.8007], [65.3087, 44.8215], [65.2788, 44.8347], [65.2412, 44.8184], [65.2232, 44.8271], [65.2802, 44.8641], [65.2632, 44.8939], [65.3, 44.8933], [65.3386, 44.9307], [65.1958, 45.0256], [65.219, 45.1222], [65.1187, 45.2208], [65.217, 45.333], [65.3592, 45.3348], [65.524, 45.3024], [65.4526, 45.2363], [65.4344, 45.2408], [65.4144, 45.2117], [65.3777, 45.2165], [65.3771, 45.2039], [65.401, 45.1908], [65.3624, 45.1578], [65.3625, 45.0398], [65.4008, 45.0687], [65.4562, 45.072], [65.473, 45.0422], [65.5471, 45.0537], [65.5514, 45.0199], [65.5763, 45.0279], [65.5874, 45.0067], [65.6551, 45.014], [65.6534, 44.9846], [65.7739, 44.9573], [65.7659, 44.9238], [65.7349, 44.9159], [65.7456, 44.8904], [65.703, 44.8911], [65.7191, 44.853], [65.676, 44.8453], [65.6872, 44.8283], [65.7524, 44.7977], [65.7726, 44.8311], [65.8098, 44.8431], [65.8896, 44.8544], [66.0328, 44.9949], [65.9978, 45.0207], [66.1397, 45.1274], [66.1575, 45.1187], [66.2483, 45.1883], [66.3998, 45.0843], [66.571, 45.0886], [66.8758, 45.6034], [67.2368, 45.5952], [67.3298, 45.5416], [67.3611, 45.6156], [67.4218, 45.676], [67.4505, 45.7209], [67.42, 45.789], [67.262, 45.8745], [67.2757, 45.9577], [67.2599, 46.0546], [67.2114, 46.0648], [66.8144, 46.0493], [65.5064, 46.296], [65.3213, 46.3672], [65.1391, 46.5099], [64.9302, 46.5225]]]}}, {"type": "Feature", "properties": {"osm_type": "relation", "osm_id": 829084589, "name": "Zhalagashskiy", "admin_level": "6", "kind": "subdivision_2", "parent_osm_id": 630714010, "parent_name": "Kyzylorda", "parent_iso": "KZ-KZY"}, "geometry": {"type": "Polygon", "coordinates": [[[63.8211, 46.8462], [63.7819, 46.8172], [63.7979, 46.6985], [63.973, 46.3704], [64.1473, 46.2579], [64.3781, 45.9671], [64.3499, 45.7227], [64.4231, 45.4936], [64.4605, 45.3199], [64.3545, 45.3215], [64.3655, 45.2791], [64.4132, 45.2193], [64.342, 45.1273], [64.3537, 45.106], [64.2978, 45.0941], [64.2725, 45.0733], [64.2962, 45.0392], [64.1159, 44.9145], [64.0605, 44.8643], [63.9454, 44.84], [63.9153, 44.8403], [63.8974, 44.8659], [63.7954, 44.837], [63.7295, 44.8841], [63.6159, 44.9018], [63.5565, 44.864], [63.5117, 44.6394], [63.5137, 44.5163], [63.5039, 44.4145], [63.4277, 44.1983], [63.4213, 44.0412], [63.3857, 43.9183], [63.4021, 43.7993], [63.3779, 43.6728], [63.5219, 43.6571], [63.9119, 43.6281], [64.2188, 43.6109], [64.5138, 43.6003], [64.5365, 43.6033], [64.719, 43.6684], [64.6711, 44.2689], [64.7376, 44.4543], [64.7277, 44.6826], [64.6794, 44.7086], [64.6705, 44.7975], [64.6091, 44.8068], [64.6099, 44.8279], [64.7415, 44.8682], [64.8479, 44.8793], [64.8809, 44.9167], [64.7637, 44.9481], [64.7714, 44.9817], [64.8474, 45.0017], [64.7997, 45.053], [64.8249, 45.0569], [64.8081, 45.0993], [64.834, 45.1158], [64.7611, 45.1676], [64.752, 45.2437], [64.7853, 45.2853], [64.768, 45.3193], [64.8394, 45.7905], [64.86, 45.8281], [64.8793, 45.9753], [64.8875, 46.1523], [64.8541, 46.389], [64.9302, 46.5225], [64.4269, 46.7092], [64.3239, 46.7111], [63.8211, 46.8462]]]}}, {"type": "Feature", "properties": {"osm_type": "relation", "osm_id": 791277256, "name": "Zhanakorganskiy", "admin_level": "6", "kind": "subdivision_2", "parent_osm_id": 630714010, "parent_name": "Kyzylorda", "parent_iso": "KZ-KZY"}, "geometry": {"type": "Polygon", "coordinates": [[[66.1037, 42.6251], [66.1069, 42.3621], [66.1941, 42.3463], [66.5986, 42.6571], [66.7396, 42.5929], [67.0214, 42.8027], [67.2719, 42.9413], [67.5395, 43.0139], [67.8715, 43.1356], [67.9697, 43.1816], [67.9736, 43.2146], [67.9024, 43.2008], [67.864, 43.2687], [67.8817, 43.322], [67.8234, 43.3201], [67.8343, 43.3654], [67.7794, 43.3426], [67.7956, 43.2796], [67.7527, 43.2604], [67.7228, 43.3571], [67.8241, 43.3783], [67.8448, 43.4607], [67.8368, 43.4943], [67.9322, 43.5653], [67.9314, 43.7234], [68.0304, 43.661], [68.0731, 43.6758], [68.0848, 43.7834], [68.0554, 43.8388], [68.0342, 43.8605], [68.0855, 43.8999], [68.1464, 43.9179], [68.1853, 43.8954], [68.2557, 43.9462], [67.9807, 44.0878], [67.8658, 44.1885], [67.8631, 44.222], [67.7482, 44.2684], [67.6871, 44.2542], [67.5806, 44.3292], [67.5924, 44.3914], [67.5379, 44.3851], [67.4925, 44.4118], [67.4715, 44.3792], [67.3998, 44.3818], [67.3446, 44.3002], [67.2063, 44.2922], [67.0419, 44.1885], [66.9366, 44.07], [66.8569, 43.9672], [66.8692, 43.8957], [66.806, 43.8468], [66.7739, 43.4148], [66.3925, 43.3103], [66.425, 43.2677], [66.514, 42.8703], [66.1037, 42.6251]]]}}]}