{"type": "FeatureCollection", "parent": {"osm_id": 651527647, "name": "Zlín", "admin_level": "4", "kind": "subdivision_1", "child_kind": "subdivision_2", "iso": "CZ-ZL"}, "features": [{"type": "Feature", "properties": {"osm_type": "relation", "osm_id": 129048303, "name": "Vsetín", "admin_level": "6", "kind": "subdivision_2", "parent_osm_id": 651527647, "parent_name": "Zlín", "parent_iso": "CZ-ZL"}, "geometry": {"type": "Polygon", "coordinates": [[[17.9205, 49.5354], [17.9135, 49.5301], [17.9121, 49.5195], [17.8994, 49.5135], [17.8978, 49.5069], [17.8809, 49.5068], [17.8654, 49.5152], [17.8481, 49.5158], [17.8386, 49.4993], [17.8166, 49.4954], [17.8124, 49.4873], [17.7995, 49.4861], [17.7984, 49.4634], [17.7853, 49.4529], [17.7827, 49.434], [17.8076, 49.4275], [17.8088, 49.4154], [17.8465, 49.4182], [17.848, 49.4064], [17.8587, 49.3999], [17.8497, 49.3812], [17.8238, 49.3625], [17.8224, 49.3524], [17.809, 49.348], [17.8103, 49.3402], [17.8337, 49.331], [17.8433, 49.3222], [17.8649, 49.3211], [17.891, 49.3119], [17.8847, 49.2922], [17.9015, 49.2861], [17.9012, 49.2718], [17.9128, 49.2655], [17.9393, 49.2684], [17.9391, 49.2514], [17.9259, 49.2437], [17.9242, 49.236], [17.9314, 49.2256], [17.9471, 49.2232], [17.9511, 49.2149], [17.9666, 49.2144], [17.9738, 49.2094], [17.9798, 49.1901], [18.0037, 49.1744], [18.0118, 49.1632], [18.0479, 49.1704], [18.0499, 49.1632], [18.0743, 49.1455], [18.0845, 49.145], [18.092, 49.1364], [18.1101, 49.1368], [18.1128, 49.1522], [18.1252, 49.1534], [18.1297, 49.1902], [18.1404, 49.1987], [18.1437, 49.2142], [18.1495, 49.2164], [18.1499, 49.2269], [18.1446, 49.2285], [18.1464, 49.2483], [18.1577, 49.2536], [18.1661, 49.265], [18.178, 49.2662], [18.1866, 49.2746], [18.1892, 49.2895], [18.2444, 49.2931], [18.2469, 49.2974], [18.2657, 49.2976], [18.2737, 49.304], [18.2977, 49.304], [18.3001, 49.3078], [18.3258, 49.3116], [18.3261, 49.3157], [18.3512, 49.3188], [18.3537, 49.3238], [18.3768, 49.3233], [18.387, 49.3479], [18.4, 49.3499], [18.4008, 49.3562], [18.4069, 49.3569], [18.4069, 49.3643], [18.4133, 49.3666], [18.4069, 49.3862], [18.4022, 49.3876], [18.4032, 49.397], [18.3654, 49.4042], [18.3655, 49.4147], [18.3725, 49.418], [18.3724, 49.4283], [18.3615, 49.4349], [18.3603, 49.4413], [18.3384, 49.4422], [18.3355, 49.4503], [18.3058, 49.4601], [18.2987, 49.4895], [18.2697, 49.4896], [18.2517, 49.4823], [18.1902, 49.488], [18.1692, 49.5087], [18.1429, 49.5048], [18.1183, 49.5182], [18.079, 49.5115], [18.0426, 49.5112], [18.0198, 49.5], [17.9965, 49.5006], [17.9965, 49.5155], [17.9703, 49.5342], [17.9205, 49.5354]]]}}, {"type": "Feature", "properties": {"osm_type": "relation", "osm_id": 720369159, "name": "Uherské Hradiště", "admin_level": "6", "kind": "subdivision_2", "parent_osm_id": 651527647, "parent_name": "Zlín", "parent_iso": "CZ-ZL"}, "geometry": {"type": "Polygon", "coordinates": [[[17.9178, 49.0196], [17.8786, 49.0331], [17.8786, 49.0398], [17.8853, 49.0415], [17.8835, 49.0575], [17.8367, 49.0539], [17.8266, 49.0623], [17.8055, 49.0634], [17.8033, 49.0755], [17.7678, 49.0846], [17.7604, 49.0846], [17.7582, 49.0772], [17.7497, 49.0725], [17.7266, 49.0719], [17.7046, 49.0569], [17.6807, 49.0577], [17.6876, 49.0733], [17.6692, 49.0859], [17.644, 49.0876], [17.6447, 49.0992], [17.6322, 49.1042], [17.6329, 49.1157], [17.6525, 49.1292], [17.6468, 49.1494], [17.6104, 49.1498], [17.6013, 49.1427], [17.5641, 49.1395], [17.5388, 49.1434], [17.5245, 49.1345], [17.5225, 49.1276], [17.4942, 49.124], [17.4914, 49.1321], [17.4795, 49.1329], [17.4548, 49.1497], [17.4542, 49.1569], [17.4364, 49.1623], [17.4109, 49.1839], [17.3811, 49.1801], [17.3669, 49.1844], [17.3574, 49.1766], [17.3211, 49.1725], [17.3128, 49.1651], [17.2812, 49.1565], [17.2657, 49.1406], [17.2568, 49.1406], [17.2346, 49.1286], [17.2351, 49.1208], [17.2459, 49.1149], [17.2459, 49.1047], [17.2401, 49.1028], [17.2379, 49.0952], [17.2121, 49.0905], [17.2129, 49.083], [17.2184, 49.0812], [17.2185, 49.0748], [17.2249, 49.0723], [17.2247, 49.0637], [17.2303, 49.0596], [17.2301, 49.0492], [17.223, 49.045], [17.2243, 49.0366], [17.2647, 49.0317], [17.273, 49.026], [17.275, 49.015], [17.2968, 49.0187], [17.2998, 49.0149], [17.354, 49.0051], [17.3544, 48.9894], [17.3482, 48.9863], [17.3483, 48.981], [17.3554, 48.9754], [17.3924, 48.9786], [17.3926, 48.9673], [17.4037, 48.966], [17.4247, 48.9541], [17.4416, 48.9541], [17.4607, 48.9613], [17.4855, 48.957], [17.4974, 48.9603], [17.5011, 48.9526], [17.5173, 48.9564], [17.5426, 48.9514], [17.5435, 48.9361], [17.5375, 48.9339], [17.5378, 48.9238], [17.5584, 48.9223], [17.5709, 48.9137], [17.5997, 48.9082], [17.6121, 48.8993], [17.6187, 48.8836], [17.6293, 48.8782], [17.6358, 48.858], [17.6598, 48.8576], [17.6772, 48.8655], [17.7065, 48.8652], [17.707, 48.8732], [17.72, 48.8811], [17.733, 48.8824], [17.7473, 48.9053], [17.773, 48.9145], [17.7754, 48.9258], [17.8477, 48.9292], [17.8549, 48.9249], [17.8775, 48.9287], [17.8786, 48.945], [17.8861, 48.9448], [17.8921, 48.9511], [17.893, 48.9812], [17.9081, 48.9881], [17.9084, 49.0105], [17.9153, 49.0127], [17.9178, 49.0196]]]}}, {"type": "Feature", "properties": {"osm_type": "relation", "osm_id": 565729360, "name": "Kroměříž", "admin_level": "6", "kind": "subdivision_2", "parent_osm_id": 651527647, "parent_name": "Zlín", "parent_iso": "CZ-ZL"}, "geometry": {"type": "Polygon", "coordinates": [[[17.7827, 49.434], [17.7549, 49.4375], [17.7491, 49.4299], [17.7266, 49.4296], [17.7121, 49.4361], [17.7121, 49.4468], [17.7015, 49.4477], [17.6987, 49.4557], [17.6738, 49.4556], [17.6716, 49.4355], [17.6617, 49.4354], [17.6522, 49.4442], [17.6291, 49.4445], [17.621, 49.4332], [17.6333, 49.4309], [17.6462, 49.4159], [17.6448, 49.4066], [17.6379, 49.4021], [17.615, 49.3944], [17.5953, 49.3946], [17.5917, 49.4029], [17.5556, 49.403], [17.5281, 49.3947], [17.5148, 49.3903], [17.5134, 49.3757], [17.5078, 49.3744], [17.506, 49.3676], [17.4877, 49.3616], [17.485, 49.3548], [17.4675, 49.3556], [17.4663, 49.3677], [17.4566, 49.368], [17.4467, 49.3759], [17.4187, 49.3728], [17.4081, 49.3814], [17.3807, 49.3775], [17.3796, 49.4016], [17.3548, 49.4033], [17.3527, 49.3911], [17.3335, 49.3854], [17.3335, 49.3711], [17.3496, 49.3569], [17.3492, 49.3366], [17.3371, 49.3349], [17.3329, 49.3286], [17.3177, 49.3283], [17.3109, 49.3229], [17.309, 49.3123], [17.296, 49.3069], [17.2946, 49.2999], [17.2803, 49.2917], [17.2532, 49.2955], [17.2264, 49.2922], [17.2166, 49.2853], [17.1952, 49.2888], [17.1762, 49.2724], [17.1524, 49.2719], [17.1507, 49.2534], [17.1315, 49.2469], [17.1379, 49.2317], [17.1491, 49.2258], [17.1431, 49.2068], [17.16, 49.1922], [17.16, 49.182], [17.1539, 49.1798], [17.1538, 49.1723], [17.1974, 49.1752], [17.1979, 49.1636], [17.1819, 49.1386], [17.1448, 49.1333], [17.1416, 49.1094], [17.1339, 49.1016], [17.1235, 49.1], [17.1217, 49.0931], [17.1156, 49.0904], [17.1164, 49.0726], [17.1796, 49.0794], [17.1977, 49.0915], [17.2302, 49.091], [17.2459, 49.1047], [17.2459, 49.1149], [17.2351, 49.1208], [17.2346, 49.1286], [17.2568, 49.1406], [17.2657, 49.1406], [17.2812, 49.1565], [17.3128, 49.1651], [17.3211, 49.1725], [17.3574, 49.1766], [17.3669, 49.1844], [17.3899, 49.1802], [17.4051, 49.1841], [17.4083, 49.1922], [17.4766, 49.2036], [17.4771, 49.2116], [17.4598, 49.2121], [17.4595, 49.2195], [17.4811, 49.2247], [17.4954, 49.2202], [17.4981, 49.2316], [17.474, 49.2509], [17.4749, 49.2572], [17.4886, 49.266], [17.5044, 49.2624], [17.53, 49.265], [17.553, 49.2569], [17.5667, 49.2679], [17.578, 49.2671], [17.5783, 49.2607], [17.5895, 49.2605], [17.5975, 49.265], [17.5988, 49.2716], [17.6163, 49.2771], [17.6192, 49.2878], [17.6313, 49.298], [17.632, 49.3129], [17.6207, 49.3209], [17.627, 49.3292], [17.65, 49.3345], [17.7096, 49.33], [17.7548, 49.3529], [17.7806, 49.3445], [17.8154, 49.3481], [17.8224, 49.3524], [17.8238, 49.3625], [17.8497, 49.3812], [17.8587, 49.3999], [17.848, 49.4064], [17.8465, 49.4182], [17.8088, 49.4154], [17.8076, 49.4275], [17.7827, 49.434]]]}}, {"type": "Feature", "properties": {"osm_type": "relation", "osm_id": 483635059, "name": "Zlín", "admin_level": "6", "kind": "subdivision_2", "parent_osm_id": 651527647, "parent_name": "Zlín", "parent_iso": "CZ-ZL"}, "geometry": {"type": "Polygon", "coordinates": [[[17.809, 49.348], [17.7806, 49.3445], [17.7548, 49.3529], [17.7096, 49.33], [17.65, 49.3345], [17.627, 49.3292], [17.6207, 49.3209], [17.632, 49.3129], [17.6313, 49.298], [17.6192, 49.2878], [17.6163, 49.2771], [17.5988, 49.2716], [17.5975, 49.265], [17.5895, 49.2605], [17.5783, 49.2607], [17.578, 49.2671], [17.5667, 49.2679], [17.553, 49.2569], [17.53, 49.265], [17.5044, 49.2624], [17.4886, 49.266], [17.4749, 49.2572], [17.474, 49.2509], [17.4908, 49.2407], [17.4981, 49.2316], [17.4978, 49.2218], [17.4883, 49.2197], [17.4811, 49.2247], [17.4595, 49.2195], [17.4598, 49.2121], [17.4771, 49.2116], [17.4766, 49.2036], [17.4083, 49.1922], [17.4051, 49.1841], [17.4109, 49.1839], [17.4364, 49.1623], [17.4542, 49.1569], [17.4548, 49.1497], [17.4795, 49.1329], [17.4914, 49.1321], [17.4942, 49.124], [17.5225, 49.1276], [17.5245, 49.1345], [17.5388, 49.1434], [17.5641, 49.1395], [17.6013, 49.1427], [17.6104, 49.1498], [17.6468, 49.1494], [17.6525, 49.1292], [17.6329, 49.1157], [17.6322, 49.1042], [17.6447, 49.0992], [17.644, 49.0876], [17.6692, 49.0859], [17.6876, 49.0733], [17.6807, 49.0577], [17.7046, 49.0569], [17.7266, 49.0719], [17.7497, 49.0725], [17.7582, 49.0772], [17.7604, 49.0846], [17.7678, 49.0846], [17.8033, 49.0755], [17.8055, 49.0634], [17.8266, 49.0623], [17.8367, 49.0539], [17.8835, 49.0575], [17.8853, 49.0415], [17.8786, 49.0398], [17.8786, 49.0331], [17.9107, 49.0195], [17.9283, 49.0192], [17.9313, 49.0232], [17.9479, 49.0235], [17.9484, 49.0272], [17.9708, 49.0266], [17.979, 49.0306], [17.9937, 49.0228], [18.0185, 49.0226], [18.0212, 49.029], [18.0386, 49.0297], [18.0593, 49.04], [18.0714, 49.0407], [18.0803, 49.053], [18.0927, 49.0581], [18.0954, 49.0738], [18.1018, 49.0818], [18.1131, 49.087], [18.1142, 49.1025], [18.1084, 49.1034], [18.1103, 49.1145], [18.117, 49.1181], [18.1139, 49.1278], [18.104, 49.1302], [18.1057, 49.1357], [18.092, 49.1364], [18.0845, 49.145], [18.0743, 49.1455], [18.0499, 49.1632], [18.0479, 49.1704], [18.0118, 49.1632], [18.0037, 49.1744], [17.9798, 49.1901], [17.9738, 49.2094], [17.9666, 49.2144], [17.9511, 49.2149], [17.9471, 49.2232], [17.9336, 49.2239], [17.9259, 49.2326], [17.9259, 49.2437], [17.9391, 49.2514], [17.9393, 49.2684], [17.9085, 49.2669], [17.9012, 49.2718], [17.9015, 49.2861], [17.8847, 49.2922], [17.891, 49.3119], [17.8649, 49.3211], [17.8433, 49.3222], [17.8337, 49.331], [17.8103, 49.3402], [17.809, 49.348]]]}}]}