{"type": "FeatureCollection", "parent": {"osm_id": 654180201, "name": "Hậu Giang", "admin_level": "4", "kind": "subdivision_1", "child_kind": "subdivision_2", "iso": "VN-73"}, "features": [{"type": "Feature", "properties": {"osm_type": "relation", "osm_id": 504004456, "name": "Binh Thuy", "admin_level": "6", "kind": "subdivision_2", "parent_osm_id": 654180201, "parent_name": "Hậu Giang", "parent_iso": "VN-73"}, "geometry": {"type": "Polygon", "coordinates": [[[105.709, 10.1184], [105.7019, 10.1089], [105.7048, 10.0975], [105.6842, 10.0827], [105.6674, 10.0835], [105.6656, 10.0745], [105.6728, 10.0677], [105.674, 10.0527], [105.6821, 10.0572], [105.7086, 10.054], [105.7064, 10.0444], [105.7144, 10.0377], [105.7107, 10.036], [105.7133, 10.031], [105.7044, 10.025], [105.7033, 10.013], [105.7193, 10.0035], [105.7203, 10.011], [105.7336, 10.0103], [105.7525, 10.0462], [105.7699, 10.051], [105.7744, 10.0564], [105.7704, 10.0614], [105.7811, 10.0705], [105.709, 10.1184]]]}}, {"type": "Feature", "properties": {"osm_type": "relation", "osm_id": 378308892, "name": "Cai Rang", "admin_level": "6", "kind": "subdivision_2", "parent_osm_id": 654180201, "parent_name": "Hậu Giang", "parent_iso": "VN-73"}, "geometry": {"type": "Polygon", "coordinates": [[[105.8038, 10.043], [105.7916, 10.0367], [105.7873, 10.0264], [105.775, 10.0231], [105.7672, 10.0074], [105.7474, 10.006], [105.7335, 9.9894], [105.7314, 9.9803], [105.7236, 9.9754], [105.7595, 9.9576], [105.776, 9.9544], [105.8187, 9.965], [105.8455, 9.9826], [105.8038, 10.043]]]}}, {"type": "Feature", "properties": {"osm_type": "relation", "osm_id": 259059978, "name": "Chau Thanh", "admin_level": "6", "kind": "subdivision_2", "parent_osm_id": 654180201, "parent_name": "Hậu Giang", "parent_iso": "VN-73"}, "geometry": {"type": "Polygon", "coordinates": [[[105.7418, 9.967], [105.7419, 9.9577], [105.7272, 9.9365], [105.7422, 9.9421], [105.7444, 9.9283], [105.754, 9.9297], [105.7551, 9.9029], [105.7726, 9.8925], [105.7755, 9.8697], [105.7851, 9.8606], [105.7959, 9.8689], [105.8099, 9.8628], [105.8102, 9.8802], [105.8161, 9.8827], [105.8292, 9.8815], [105.8342, 9.879], [105.833, 9.8742], [105.8589, 9.8665], [105.8671, 9.8708], [105.8751, 9.9145], [105.8968, 9.9381], [105.8455, 9.9826], [105.8187, 9.965], [105.776, 9.9544], [105.7418, 9.967]]]}}, {"type": "Feature", "properties": {"osm_type": "relation", "osm_id": 898182102, "name": "Chau Thanh A", "admin_level": "6", "kind": "subdivision_2", "parent_osm_id": 654180201, "parent_name": "Hậu Giang", "parent_iso": "VN-73"}, "geometry": {"type": "Polygon", "coordinates": [[[105.7236, 9.9754], [105.7136, 9.9591], [105.704, 9.9587], [105.7036, 9.9539], [105.6942, 9.9549], [105.6705, 9.9394], [105.6588, 9.9502], [105.6738, 9.9641], [105.6584, 9.9664], [105.6588, 9.9715], [105.6474, 9.9757], [105.6421, 9.9608], [105.6333, 9.9598], [105.6288, 9.9498], [105.6192, 9.9456], [105.5832, 9.9836], [105.5859, 9.9892], [105.5743, 9.9941], [105.5696, 9.9839], [105.5629, 9.9869], [105.5511, 9.9609], [105.5561, 9.9589], [105.5323, 9.9196], [105.5915, 9.8653], [105.644, 9.9079], [105.6506, 9.8982], [105.6652, 9.8955], [105.7218, 9.9227], [105.7531, 9.9101], [105.754, 9.9297], [105.7444, 9.9283], [105.7422, 9.9421], [105.7272, 9.9365], [105.7419, 9.9577], [105.7418, 9.967], [105.7236, 9.9754]]]}}, {"type": "Feature", "properties": {"osm_type": "relation", "osm_id": 199620227, "name": "Long My", "admin_level": "6", "kind": "subdivision_2", "parent_osm_id": 654180201, "parent_name": "Hậu Giang", "parent_iso": "VN-73"}, "geometry": {"type": "Polygon", "coordinates": [[[105.3734, 9.5965], [105.3807, 9.5855], [105.3893, 9.5902], [105.3956, 9.5883], [105.3988, 9.5982], [105.4155, 9.6019], [105.4177, 9.5926], [105.4281, 9.5949], [105.4298, 9.6007], [105.4406, 9.5948], [105.4464, 9.5969], [105.4502, 9.5869], [105.4567, 9.5903], [105.4624, 9.5868], [105.4708, 9.597], [105.4779, 9.5901], [105.4755, 9.5845], [105.4891, 9.5822], [105.4934, 9.5909], [105.5042, 9.5913], [105.5044, 9.5862], [105.5125, 9.5841], [105.5144, 9.5896], [105.5211, 9.5889], [105.5214, 9.5947], [105.5347, 9.5972], [105.5439, 9.5854], [105.5492, 9.5917], [105.5472, 9.5967], [105.5571, 9.5963], [105.5625, 9.6063], [105.5692, 9.6033], [105.5761, 9.615], [105.5873, 9.6127], [105.5951, 9.603], [105.6068, 9.6201], [105.6156, 9.6221], [105.6174, 9.6156], [105.6353, 9.6189], [105.6469, 9.6254], [105.6495, 9.6344], [105.6675, 9.6419], [105.6694, 9.6332], [105.6949, 9.6575], [105.6879, 9.6536], [105.6716, 9.7021], [105.6188, 9.7269], [105.609, 9.752], [105.5913, 9.7531], [105.595, 9.7684], [105.5899, 9.7757], [105.5653, 9.7382], [105.5665, 9.7313], [105.5566, 9.7159], [105.5597, 9.7124], [105.5559, 9.7056], [105.5499, 9.7119], [105.5401, 9.7067], [105.5337, 9.7087], [105.5353, 9.7204], [105.5215, 9.7315], [105.511, 9.7175], [105.4772, 9.6992], [105.4667, 9.6882], [105.4615, 9.6956], [105.4512, 9.696], [105.4561, 9.7054], [105.4467, 9.7132], [105.4407, 9.7014], [105.4352, 9.7027], [105.4333, 9.7094], [105.4282, 9.7088], [105.4275, 9.696], [105.4107, 9.6997], [105.4053, 9.6892], [105.4001, 9.6904], [105.4013, 9.6989], [105.396, 9.7016], [105.381, 9.683], [105.3757, 9.693], [105.3575, 9.6848], [105.3473, 9.6903], [105.3458, 9.6811], [105.3387, 9.6806], [105.341, 9.6755], [105.3529, 9.6762], [105.3564, 9.669], [105.3735, 9.6724], [105.3702, 9.6594], [105.3935, 9.6604], [105.4067, 9.6517], [105.4015, 9.6471], [105.4067, 9.6435], [105.3991, 9.6225], [105.3902, 9.6258], [105.3763, 9.615], [105.3734, 9.5965]]]}}, {"type": "Feature", "properties": {"osm_type": "relation", "osm_id": 683661553, "name": "Nga Bay", "admin_level": "6", "kind": "subdivision_2", "parent_osm_id": 654180201, "parent_name": "Hậu Giang", "parent_iso": "VN-73"}, "geometry": {"type": "Polygon", "coordinates": [[[105.7894, 9.8602], [105.7808, 9.8551], [105.7741, 9.8388], [105.779, 9.8259], [105.7888, 9.8171], [105.7862, 9.7994], [105.7997, 9.8011], [105.7974, 9.7957], [105.806, 9.7922], [105.8081, 9.7983], [105.8297, 9.7894], [105.8282, 9.7834], [105.8449, 9.7642], [105.8553, 9.8053], [105.8489, 9.8082], [105.8671, 9.8708], [105.8589, 9.8665], [105.833, 9.8742], [105.8342, 9.879], [105.8292, 9.8815], [105.8161, 9.8827], [105.8102, 9.8802], [105.8099, 9.8628], [105.7959, 9.8689], [105.7894, 9.8602]]]}}, {"type": "Feature", "properties": {"osm_type": "relation", "osm_id": 261830411, "name": "Ninh Kieu", "admin_level": "6", "kind": "subdivision_2", "parent_osm_id": 654180201, "parent_name": "Hậu Giang", "parent_iso": "VN-73"}, "geometry": {"type": "Polygon", "coordinates": [[[105.7964, 10.0531], [105.7811, 10.0705], [105.7704, 10.0614], [105.7744, 10.0564], [105.7699, 10.051], [105.7525, 10.0462], [105.7336, 10.0103], [105.7203, 10.011], [105.7193, 10.0035], [105.7266, 10.0047], [105.732, 9.994], [105.7396, 9.9943], [105.7474, 10.006], [105.7672, 10.0074], [105.775, 10.0231], [105.7873, 10.0264], [105.7916, 10.0367], [105.8038, 10.043], [105.7964, 10.0531]]]}}, {"type": "Feature", "properties": {"osm_type": "relation", "osm_id": 787398248, "name": "Phong Dien", "admin_level": "6", "kind": "subdivision_2", "parent_osm_id": 654180201, "parent_name": "Hậu Giang", "parent_iso": "VN-73"}, "geometry": {"type": "Polygon", "coordinates": [[[105.674, 10.0527], [105.6734, 10.0491], [105.6626, 10.0481], [105.6466, 10.054], [105.6431, 10.0481], [105.634, 10.0479], [105.6265, 10.0416], [105.6269, 10.0061], [105.5936, 10.005], [105.593, 9.9947], [105.589, 9.9958], [105.5832, 9.9836], [105.6192, 9.9456], [105.6288, 9.9498], [105.6333, 9.9598], [105.6421, 9.9608], [105.6491, 9.9761], [105.6588, 9.9715], [105.6584, 9.9664], [105.6738, 9.9641], [105.6588, 9.9502], [105.6705, 9.9394], [105.6942, 9.9549], [105.7036, 9.9539], [105.704, 9.9587], [105.7136, 9.9591], [105.7396, 9.9943], [105.732, 9.994], [105.7266, 10.0047], [105.7148, 10.0049], [105.7033, 10.013], [105.7044, 10.025], [105.7133, 10.031], [105.7107, 10.036], [105.7144, 10.0377], [105.7064, 10.0444], [105.7086, 10.054], [105.6821, 10.0572], [105.674, 10.0527]]]}}, {"type": "Feature", "properties": {"osm_type": "relation", "osm_id": 124683883, "name": "Phung Hiep", "admin_level": "6", "kind": "subdivision_2", "parent_osm_id": 654180201, "parent_name": "Hậu Giang", "parent_iso": "VN-73"}, "geometry": {"type": "Polygon", "coordinates": [[[105.7531, 9.9101], [105.7218, 9.9227], [105.6652, 9.8955], [105.6506, 9.8982], [105.644, 9.9079], [105.5915, 9.8653], [105.6275, 9.8326], [105.609, 9.8025], [105.5863, 9.7809], [105.595, 9.7684], [105.5913, 9.7531], [105.609, 9.752], [105.6188, 9.7269], [105.6716, 9.7021], [105.6879, 9.6536], [105.8434, 9.749], [105.8449, 9.7642], [105.8282, 9.7834], [105.8297, 9.7894], [105.8081, 9.7983], [105.806, 9.7922], [105.7974, 9.7957], [105.7997, 9.8011], [105.7862, 9.7994], [105.7888, 9.8171], [105.779, 9.8259], [105.7741, 9.8388], [105.7808, 9.8551], [105.7904, 9.8589], [105.7755, 9.8697], [105.7726, 9.8925], [105.7595, 9.8979], [105.7531, 9.9101]]]}}, {"type": "Feature", "properties": {"osm_type": "relation", "osm_id": 350248835, "name": "Thoi Lai", "admin_level": "6", "kind": "subdivision_2", "parent_osm_id": 654180201, "parent_name": "Hậu Giang", "parent_iso": "VN-73"}, "geometry": {"type": "Polygon", "coordinates": [[[105.5859, 9.9892], [105.589, 9.9958], [105.593, 9.9947], [105.5936, 10.005], [105.6269, 10.0061], [105.6284, 10.0145], [105.6251, 10.0322], [105.631, 10.049], [105.6249, 10.0676], [105.631, 10.0817], [105.6241, 10.1005], [105.6126, 10.1075], [105.6143, 10.1119], [105.5968, 10.1281], [105.5877, 10.1222], [105.5816, 10.1286], [105.5252, 10.0876], [105.518, 10.0892], [105.523, 10.0853], [105.5244, 10.0646], [105.5181, 10.0647], [105.5221, 10.0565], [105.4943, 10.0596], [105.4851, 10.0535], [105.4912, 10.0643], [105.4523, 10.0609], [105.4493, 10.0659], [105.4298, 10.0317], [105.4181, 10.0253], [105.5323, 9.9196], [105.5561, 9.9589], [105.5511, 9.9609], [105.5629, 9.9869], [105.5696, 9.9839], [105.5743, 9.9941], [105.5859, 9.9892]]]}}, {"type": "Feature", "properties": {"osm_type": "relation", "osm_id": 984581622, "name": "Vi Thanh", "admin_level": "6", "kind": "subdivision_2", "parent_osm_id": 654180201, "parent_name": "Hậu Giang", "parent_iso": "VN-73"}, "geometry": {"type": "Polygon", "coordinates": [[[105.4325, 9.8076], [105.4369, 9.7924], [105.4262, 9.7876], [105.4264, 9.7832], [105.4227, 9.7854], [105.4214, 9.7786], [105.4176, 9.7828], [105.4192, 9.7776], [105.4139, 9.779], [105.4164, 9.7738], [105.4111, 9.7775], [105.4098, 9.7721], [105.414, 9.7704], [105.4052, 9.7696], [105.4073, 9.7601], [105.4149, 9.759], [105.4123, 9.7494], [105.4035, 9.7505], [105.3938, 9.7447], [105.3908, 9.7358], [105.3724, 9.7299], [105.357, 9.7126], [105.3286, 9.701], [105.3387, 9.6806], [105.3458, 9.6811], [105.3473, 9.6903], [105.3575, 9.6848], [105.3757, 9.693], [105.381, 9.683], [105.396, 9.7016], [105.4013, 9.6989], [105.4001, 9.6904], [105.4053, 9.6892], [105.4107, 9.6997], [105.4275, 9.696], [105.4282, 9.7088], [105.4333, 9.7094], [105.4352, 9.7027], [105.4407, 9.7014], [105.4437, 9.7118], [105.454, 9.7134], [105.4594, 9.7378], [105.4705, 9.7447], [105.4842, 9.7442], [105.49, 9.7804], [105.496, 9.7919], [105.5011, 9.7906], [105.5029, 9.7987], [105.4943, 9.8078], [105.4843, 9.8041], [105.4811, 9.8188], [105.4646, 9.8105], [105.4611, 9.8266], [105.4309, 9.8165], [105.4325, 9.8076]]]}}, {"type": "Feature", "properties": {"osm_type": "relation", "osm_id": 137352693, "name": "Vi Thuy", "admin_level": "6", "kind": "subdivision_2", "parent_osm_id": 654180201, "parent_name": "Hậu Giang", "parent_iso": "VN-73"}, "geometry": {"type": "Polygon", "coordinates": [[[105.5395, 9.913], [105.5168, 9.8631], [105.5208, 9.8592], [105.4611, 9.8266], [105.4646, 9.8105], [105.4811, 9.8188], [105.4843, 9.8041], [105.4943, 9.8078], [105.5029, 9.7987], [105.5011, 9.7906], [105.496, 9.7919], [105.49, 9.7804], [105.4842, 9.7442], [105.4705, 9.7447], [105.4578, 9.7355], [105.4605, 9.7308], [105.4511, 9.7118], [105.4561, 9.7054], [105.4512, 9.696], [105.4615, 9.6956], [105.4667, 9.6882], [105.4772, 9.6992], [105.511, 9.7175], [105.5215, 9.7315], [105.5353, 9.7204], [105.5337, 9.7087], [105.5401, 9.7067], [105.5499, 9.7119], [105.5559, 9.7056], [105.5597, 9.7124], [105.5566, 9.7159], [105.5665, 9.7313], [105.5653, 9.7382], [105.5899, 9.7757], [105.5863, 9.7809], [105.609, 9.8025], [105.6275, 9.8326], [105.5395, 9.913]]]}}]}