{"type": "FeatureCollection", "parent": {"osm_id": 67213, "name": "New Hampshire", "admin_level": "4", "kind": "subdivision_1", "child_kind": "subdivision_2", "iso": "US-NH"}, "features": [{"type": "Feature", "properties": {"osm_type": "relation", "osm_id": 957643444, "name": "Coos", "admin_level": "6", "kind": "subdivision_2", "parent_osm_id": 67213, "parent_name": "New Hampshire", "parent_iso": "US-NH"}, "geometry": {"type": "Polygon", "coordinates": [[[-71.5011, 45.0134], [-71.465, 45.0136], [-71.4796, 45.0029], [-71.525, 45.0019], [-71.537, 44.9942], [-71.5386, 44.9882], [-71.5316, 44.976], [-71.5162, 44.9646], [-71.5152, 44.9273], [-71.4944, 44.9118], [-71.4958, 44.905], [-71.5139, 44.8947], [-71.5123, 44.8903], [-71.5292, 44.8736], [-71.5495, 44.8626], [-71.5483, 44.8555], [-71.5568, 44.8488], [-71.5522, 44.8378], [-71.5755, 44.8161], [-71.5692, 44.8088], [-71.5732, 44.7919], [-71.593, 44.7828], [-71.6179, 44.7559], [-71.6319, 44.7525], [-71.6252, 44.744], [-71.6249, 44.729], [-71.6177, 44.7289], [-71.6184, 44.7226], [-71.5998, 44.7053], [-71.5963, 44.6791], [-71.582, 44.6735], [-71.5866, 44.6595], [-71.576, 44.6557], [-71.5751, 44.6506], [-71.5661, 44.6539], [-71.5618, 44.6502], [-71.558, 44.6418], [-71.5626, 44.6373], [-71.5517, 44.6276], [-71.5566, 44.617], [-71.5546, 44.5958], [-71.5363, 44.5885], [-71.5377, 44.5848], [-71.5474, 44.5786], [-71.5532, 44.5807], [-71.5598, 44.5641], [-71.5902, 44.5657], [-71.5961, 44.5609], [-71.5968, 44.5534], [-71.5731, 44.538], [-71.5825, 44.5244], [-71.5943, 44.5217], [-71.5776, 44.5027], [-71.5915, 44.4997], [-71.5995, 44.4865], [-71.6328, 44.4839], [-71.6459, 44.4752], [-71.6479, 44.47], [-71.6404, 44.4642], [-71.6533, 44.4605], [-71.6618, 44.4403], [-71.6793, 44.435], [-71.68, 44.4279], [-71.6994, 44.4161], [-71.7359, 44.4101], [-71.745, 44.4014], [-71.7657, 44.4063], [-71.6969, 44.3321], [-71.6869, 44.3366], [-71.587, 44.3048], [-71.5758, 44.2546], [-71.5074, 44.2629], [-71.5058, 44.2556], [-71.4697, 44.2599], [-71.4433, 44.2492], [-71.4159, 44.2122], [-71.3949, 44.2147], [-71.3842, 44.1789], [-71.3565, 44.1658], [-71.3432, 44.1234], [-71.3436, 44.0921], [-71.3359, 44.0858], [-71.3118, 44.0918], [-71.3025, 44.1374], [-71.252, 44.2443], [-71.0984, 44.2355], [-71.0423, 44.2375], [-71.0444, 44.2838], [-71.0103, 44.2849], [-71.0375, 44.7556], [-71.0839, 45.3055], [-71.0978, 45.3019], [-71.1052, 45.2946], [-71.1107, 45.2846], [-71.1057, 45.2825], [-71.1073, 45.2786], [-71.1163, 45.2723], [-71.132, 45.2454], [-71.1394, 45.243], [-71.1482, 45.2424], [-71.1628, 45.2503], [-71.1809, 45.2399], [-71.1983, 45.2543], [-71.2311, 45.2497], [-71.2445, 45.2681], [-71.2621, 45.2761], [-71.2649, 45.2935], [-71.2807, 45.2952], [-71.2844, 45.3024], [-71.3011, 45.2966], [-71.309, 45.2872], [-71.3317, 45.28], [-71.3364, 45.2731], [-71.3607, 45.2698], [-71.3632, 45.2664], [-71.3573, 45.2533], [-71.3767, 45.2449], [-71.3849, 45.2334], [-71.4026, 45.2426], [-71.4171, 45.2356], [-71.4423, 45.2386], [-71.4439, 45.2355], [-71.4156, 45.218], [-71.4033, 45.2154], [-71.3978, 45.2036], [-71.4149, 45.1849], [-71.4268, 45.1533], [-71.4372, 45.1423], [-71.4268, 45.1297], [-71.4288, 45.1239], [-71.4456, 45.1134], [-71.4674, 45.0869], [-71.4808, 45.0836], [-71.4891, 45.0723], [-71.4979, 45.0706], [-71.4977, 45.0548], [-71.5052, 45.0488], [-71.4911, 45.0418], [-71.4999, 45.0263], [-71.5011, 45.0134]]]}}, {"type": "Feature", "properties": {"osm_type": "relation", "osm_id": 691519821, "name": "Grafton", "admin_level": "6", "kind": "subdivision_2", "parent_osm_id": 67213, "parent_name": "New Hampshire", "parent_iso": "US-NH"}, "geometry": {"type": "Polygon", "coordinates": [[[-71.7657, 44.4063], [-71.7786, 44.3998], [-71.7939, 44.3993], [-71.8024, 44.3934], [-71.8003, 44.3843], [-71.8144, 44.3819], [-71.8129, 44.3556], [-71.8188, 44.3529], [-71.8725, 44.3366], [-71.9069, 44.3483], [-71.9354, 44.3358], [-71.9811, 44.3375], [-71.9883, 44.3298], [-72.01, 44.322], [-72.0331, 44.3204], [-72.0335, 44.3019], [-72.0589, 44.2862], [-72.0678, 44.271], [-72.0479, 44.2385], [-72.0662, 44.1898], [-72.053, 44.1679], [-72.0407, 44.1579], [-72.042, 44.1372], [-72.0337, 44.1315], [-72.0375, 44.1247], [-72.0523, 44.1199], [-72.0548, 44.1101], [-72.033, 44.1017], [-72.0319, 44.0934], [-72.0477, 44.0889], [-72.0398, 44.0813], [-72.0425, 44.0746], [-72.0627, 44.0516], [-72.079, 44.0429], [-72.0756, 44.0317], [-72.0941, 44.0232], [-72.1053, 44.0127], [-72.1038, 44.0028], [-72.117, 43.9945], [-72.1118, 43.985], [-72.1147, 43.9683], [-72.0987, 43.9577], [-72.1059, 43.9494], [-72.1187, 43.9454], [-72.121, 43.919], [-72.1513, 43.9017], [-72.1608, 43.8872], [-72.1706, 43.8864], [-72.1736, 43.8797], [-72.1675, 43.8692], [-72.1848, 43.8634], [-72.1879, 43.8561], [-72.1822, 43.834], [-72.1886, 43.8212], [-72.1833, 43.8082], [-72.2053, 43.7845], [-72.2052, 43.771], [-72.2181, 43.7657], [-72.2327, 43.7483], [-72.2712, 43.7341], [-72.3029, 43.7027], [-72.3034, 43.6741], [-72.314, 43.6562], [-72.3141, 43.6428], [-72.3291, 43.6356], [-72.3272, 43.6305], [-72.3344, 43.6193], [-72.3282, 43.6068], [-72.3297, 43.6002], [-72.2083, 43.5852], [-72.1064, 43.5535], [-72.1202, 43.5383], [-72.0909, 43.5289], [-72.0695, 43.5532], [-72.0672, 43.544], [-71.9353, 43.5289], [-71.8921, 43.5746], [-71.8492, 43.6112], [-71.8179, 43.5442], [-71.7975, 43.5594], [-71.7775, 43.5525], [-71.761, 43.5677], [-71.7356, 43.5693], [-71.7276, 43.5634], [-71.7161, 43.5788], [-71.7317, 43.5901], [-71.7077, 43.601], [-71.6881, 43.595], [-71.6627, 43.6065], [-71.6512, 43.6211], [-71.6569, 43.6316], [-71.6507, 43.6451], [-71.655, 43.6618], [-71.6483, 43.6845], [-71.5215, 43.698], [-71.5378, 43.7951], [-71.5438, 43.7961], [-71.5646, 43.8932], [-71.362, 43.9159], [-71.3836, 44.0226], [-71.3467, 44.0688], [-71.3664, 44.0685], [-71.3816, 44.0979], [-71.3765, 44.1189], [-71.3871, 44.1552], [-71.4132, 44.1675], [-71.4265, 44.2109], [-71.4159, 44.2122], [-71.4433, 44.2492], [-71.4697, 44.2599], [-71.5058, 44.2556], [-71.5074, 44.2629], [-71.5758, 44.2546], [-71.587, 44.3048], [-71.6869, 44.3366], [-71.6969, 44.3321], [-71.7657, 44.4063]]]}}, {"type": "Feature", "properties": {"osm_type": "relation", "osm_id": 534746355, "name": "Rockingham", "admin_level": "6", "kind": "subdivision_2", "parent_osm_id": 67213, "parent_name": "New Hampshire", "parent_iso": "US-NH"}, "geometry": {"type": "Polygon", "coordinates": [[[-70.82, 43.1226], [-70.8339, 43.118], [-70.8469, 43.1261], [-70.8625, 43.1244], [-70.8609, 43.0946], [-70.8754, 43.0804], [-70.9339, 43.0901], [-70.9808, 43.0824], [-71.0729, 43.0817], [-71.0267, 43.138], [-71.2473, 43.2752], [-71.3912, 43.041], [-71.403, 43.0411], [-71.3772, 42.9472], [-71.3841, 42.9384], [-71.4512, 42.9309], [-71.4271, 42.8248], [-71.3872, 42.8236], [-71.3607, 42.799], [-71.3644, 42.7852], [-71.3581, 42.7851], [-71.351, 42.7722], [-71.2601, 42.7557], [-71.2455, 42.7426], [-71.2239, 42.7467], [-71.1818, 42.7376], [-71.1861, 42.7907], [-71.1677, 42.8074], [-71.1325, 42.8214], [-71.0642, 42.8063], [-71.0475, 42.8441], [-71.0312, 42.8591], [-70.9665, 42.869], [-70.9308, 42.8846], [-70.9149, 42.8866], [-70.8861, 42.8826], [-70.8486, 42.8609], [-70.8173, 42.8723], [-70.8101, 42.9096], [-70.7982, 42.9209], [-70.794, 42.9399], [-70.7717, 42.9613], [-70.7615, 42.9867], [-70.75, 42.9917], [-70.7304, 43.0254], [-70.7189, 43.0324], [-70.7136, 43.0421], [-70.7136, 43.056], [-70.7038, 43.0598], [-70.7089, 43.075], [-70.7379, 43.0735], [-70.7564, 43.08], [-70.7664, 43.0927], [-70.7791, 43.0959], [-70.82, 43.1226]]]}}, {"type": "Feature", "properties": {"osm_type": "relation", "osm_id": 538107115, "name": "Merrimack", "admin_level": "6", "kind": "subdivision_2", "parent_osm_id": 67213, "parent_name": "New Hampshire", "parent_iso": "US-NH"}, "geometry": {"type": "Polygon", "coordinates": [[[-71.9353, 43.5289], [-72.0114, 43.4369], [-72.0538, 43.4411], [-72.0578, 43.4224], [-72.0468, 43.4109], [-72.0503, 43.3783], [-72.0901, 43.3226], [-72.0654, 43.2551], [-72.0453, 43.2548], [-72.0415, 43.2227], [-72.0091, 43.1879], [-71.9132, 43.2071], [-71.8561, 43.1151], [-71.6678, 43.1525], [-71.6413, 43.0542], [-71.5175, 43.0689], [-71.5128, 43.0496], [-71.4891, 43.0518], [-71.474, 43.0353], [-71.4548, 43.044], [-71.4406, 43.0184], [-71.3924, 43.0093], [-71.403, 43.0411], [-71.3912, 43.041], [-71.2473, 43.2752], [-71.236, 43.285], [-71.5494, 43.4524], [-71.5616, 43.4545], [-71.6012, 43.4351], [-71.62, 43.4439], [-71.638, 43.4918], [-71.6535, 43.4876], [-71.6773, 43.5005], [-71.691, 43.5179], [-71.6876, 43.5281], [-71.7063, 43.5376], [-71.7356, 43.5693], [-71.761, 43.5677], [-71.7775, 43.5525], [-71.7975, 43.5594], [-71.8179, 43.5442], [-71.8492, 43.6112], [-71.8921, 43.5746], [-71.9353, 43.5289]]]}}, {"type": "Feature", "properties": {"osm_type": "relation", "osm_id": 681677635, "name": "Belknap", "admin_level": "6", "kind": "subdivision_2", "parent_osm_id": 67213, "parent_name": "New Hampshire", "parent_iso": "US-NH"}, "geometry": {"type": "Polygon", "coordinates": [[[-71.7276, 43.5634], [-71.7063, 43.5376], [-71.6876, 43.5281], [-71.691, 43.5179], [-71.6773, 43.5005], [-71.6535, 43.4876], [-71.638, 43.4918], [-71.62, 43.4439], [-71.6012, 43.4351], [-71.5616, 43.4545], [-71.5494, 43.4524], [-71.236, 43.285], [-71.1594, 43.3551], [-71.1908, 43.515], [-71.1627, 43.539], [-71.1995, 43.5591], [-71.2089, 43.5505], [-71.2279, 43.5647], [-71.2583, 43.5714], [-71.5317, 43.761], [-71.5215, 43.698], [-71.6483, 43.6845], [-71.655, 43.6618], [-71.6507, 43.6451], [-71.6569, 43.6316], [-71.6512, 43.6211], [-71.6627, 43.6065], [-71.6881, 43.595], [-71.7077, 43.601], [-71.7317, 43.5901], [-71.7161, 43.5788], [-71.7276, 43.5634]]]}}, {"type": "Feature", "properties": {"osm_type": "relation", "osm_id": 679066529, "name": "Cheshire", "admin_level": "6", "kind": "subdivision_2", "parent_osm_id": 67213, "parent_name": "New Hampshire", "parent_iso": "US-NH"}, "geometry": {"type": "Polygon", "coordinates": [[[-72.283, 42.7216], [-71.929, 42.7122], [-71.9443, 42.7884], [-71.9747, 42.7894], [-72.0062, 42.9438], [-72.0622, 42.9448], [-72.0579, 43.0189], [-72.0349, 43.1251], [-72.0381, 43.1288], [-72.1785, 43.1319], [-72.1567, 43.182], [-72.3321, 43.1629], [-72.3303, 43.1552], [-72.3764, 43.1577], [-72.372, 43.1321], [-72.4316, 43.1356], [-72.4321, 43.1598], [-72.4521, 43.1614], [-72.4569, 43.1466], [-72.452, 43.1389], [-72.4409, 43.1358], [-72.4429, 43.1302], [-72.433, 43.1197], [-72.4331, 43.1126], [-72.4431, 43.1008], [-72.4353, 43.0835], [-72.4674, 43.0527], [-72.4603, 43.0407], [-72.4624, 43.0256], [-72.4438, 43.0063], [-72.4629, 42.997], [-72.4653, 42.9896], [-72.4616, 42.9829], [-72.4738, 42.9721], [-72.4817, 42.974], [-72.5322, 42.955], [-72.5346, 42.9499], [-72.5274, 42.9432], [-72.5244, 42.9156], [-72.5302, 42.9116], [-72.5328, 42.8961], [-72.5528, 42.885], [-72.5572, 42.853], [-72.5486, 42.842], [-72.5428, 42.8085], [-72.5089, 42.7799], [-72.5161, 42.766], [-72.508, 42.7644], [-72.498, 42.7729], [-72.4911, 42.7725], [-72.4776, 42.7613], [-72.4731, 42.7459], [-72.4585, 42.7269], [-72.283, 42.7216]]]}}, {"type": "Feature", "properties": {"osm_type": "relation", "osm_id": 203364185, "name": "Carroll", "admin_level": "6", "kind": "subdivision_2", "parent_osm_id": 67213, "parent_name": "New Hampshire", "parent_iso": "US-NH"}, "geometry": {"type": "Polygon", "coordinates": [[[-70.989, 43.7922], [-71.0103, 44.2849], [-71.0444, 44.2838], [-71.0423, 44.2375], [-71.0984, 44.2355], [-71.252, 44.2443], [-71.3025, 44.1374], [-71.3118, 44.0918], [-71.3359, 44.0858], [-71.3436, 44.0921], [-71.3432, 44.1234], [-71.3565, 44.1658], [-71.3842, 44.1789], [-71.3949, 44.2147], [-71.4265, 44.2109], [-71.4132, 44.1675], [-71.3871, 44.1552], [-71.3765, 44.1189], [-71.3816, 44.0979], [-71.3664, 44.0685], [-71.3467, 44.0688], [-71.3836, 44.0226], [-71.362, 43.9159], [-71.5646, 43.8932], [-71.5438, 43.7961], [-71.5378, 43.7951], [-71.5317, 43.761], [-71.2583, 43.5714], [-71.2279, 43.5647], [-71.2089, 43.5505], [-71.1995, 43.5591], [-71.1627, 43.539], [-71.1278, 43.5728], [-71.1115, 43.5067], [-71.0848, 43.5067], [-71.0676, 43.5272], [-71.0379, 43.5298], [-71.0242, 43.4829], [-70.9621, 43.541], [-70.9553, 43.5409], [-70.9508, 43.551], [-70.9572, 43.5614], [-70.9727, 43.5703], [-70.989, 43.7922]]]}}, {"type": "Feature", "properties": {"osm_type": "relation", "osm_id": 704562028, "name": "Hillsborough", "admin_level": "6", "kind": "subdivision_2", "parent_osm_id": 67213, "parent_name": "New Hampshire", "parent_iso": "US-NH"}, "geometry": {"type": "Polygon", "coordinates": [[[-71.2455, 42.7426], [-71.2601, 42.7557], [-71.351, 42.7722], [-71.3581, 42.7851], [-71.3644, 42.7852], [-71.3607, 42.799], [-71.3872, 42.8236], [-71.4271, 42.8248], [-71.4512, 42.9309], [-71.3841, 42.9384], [-71.3772, 42.9472], [-71.3924, 43.0093], [-71.4406, 43.0184], [-71.4548, 43.044], [-71.474, 43.0353], [-71.4891, 43.0518], [-71.5128, 43.0496], [-71.5175, 43.0689], [-71.6413, 43.0542], [-71.6678, 43.1525], [-71.8561, 43.1151], [-71.9132, 43.2071], [-72.0368, 43.1825], [-72.0235, 43.1601], [-72.0381, 43.1288], [-72.0349, 43.1251], [-72.042, 43.0822], [-72.0579, 43.0189], [-72.0622, 42.9448], [-72.0062, 42.9438], [-71.9747, 42.7894], [-71.9443, 42.7884], [-71.929, 42.7122], [-71.2942, 42.697], [-71.2679, 42.7259], [-71.2455, 42.7426]]]}}, {"type": "Feature", "properties": {"osm_type": "relation", "osm_id": 285717553, "name": "Sullivan", "admin_level": "6", "kind": "subdivision_2", "parent_osm_id": 67213, "parent_name": "New Hampshire", "parent_iso": "US-NH"}, "geometry": {"type": "Polygon", "coordinates": [[[-72.3297, 43.6002], [-72.3794, 43.5741], [-72.3828, 43.5625], [-72.3804, 43.5409], [-72.396, 43.5239], [-72.3984, 43.5108], [-72.3848, 43.5003], [-72.3804, 43.4885], [-72.383, 43.476], [-72.3925, 43.4674], [-72.3906, 43.4512], [-72.4038, 43.3919], [-72.416, 43.3765], [-72.4134, 43.3627], [-72.3901, 43.3569], [-72.4104, 43.3317], [-72.3955, 43.313], [-72.4155, 43.2714], [-72.4387, 43.2529], [-72.4338, 43.2331], [-72.4405, 43.2191], [-72.4377, 43.2028], [-72.4503, 43.1925], [-72.4434, 43.1797], [-72.4526, 43.1721], [-72.4521, 43.1614], [-72.4321, 43.1598], [-72.4316, 43.1356], [-72.372, 43.1321], [-72.3764, 43.1577], [-72.3303, 43.1552], [-72.3321, 43.1629], [-72.1567, 43.182], [-72.1785, 43.1319], [-72.0381, 43.1288], [-72.0235, 43.1601], [-72.0368, 43.1825], [-72.0091, 43.1879], [-72.0415, 43.2227], [-72.0453, 43.2548], [-72.0654, 43.2551], [-72.0901, 43.3226], [-72.0503, 43.3783], [-72.0468, 43.4109], [-72.0578, 43.4224], [-72.0538, 43.4411], [-72.0114, 43.4369], [-71.9353, 43.5289], [-72.0672, 43.544], [-72.0695, 43.5532], [-72.0909, 43.5289], [-72.1202, 43.5383], [-72.1064, 43.5535], [-72.2083, 43.5852], [-72.3297, 43.6002]]]}}, {"type": "Feature", "properties": {"osm_type": "relation", "osm_id": 755807782, "name": "Strafford", "admin_level": "6", "kind": "subdivision_2", "parent_osm_id": 67213, "parent_name": "New Hampshire", "parent_iso": "US-NH"}, "geometry": {"type": "Polygon", "coordinates": [[[-70.9621, 43.541], [-71.0242, 43.4829], [-71.0379, 43.5298], [-71.0676, 43.5272], [-71.0848, 43.5067], [-71.1115, 43.5067], [-71.1278, 43.5728], [-71.1908, 43.515], [-71.1594, 43.3551], [-71.2473, 43.2752], [-71.0267, 43.138], [-71.0729, 43.0817], [-70.9808, 43.0824], [-70.9339, 43.0901], [-70.8754, 43.0804], [-70.8609, 43.0946], [-70.8625, 43.1244], [-70.8469, 43.1261], [-70.8339, 43.118], [-70.82, 43.1226], [-70.8281, 43.1291], [-70.8338, 43.1469], [-70.8235, 43.1746], [-70.8279, 43.1887], [-70.8193, 43.193], [-70.8169, 43.2146], [-70.8096, 43.2254], [-70.8179, 43.2379], [-70.8387, 43.2429], [-70.8433, 43.2543], [-70.8582, 43.2563], [-70.8632, 43.2651], [-70.8828, 43.2732], [-70.8865, 43.2828], [-70.906, 43.2917], [-70.9023, 43.3049], [-70.9125, 43.3083], [-70.912, 43.3198], [-70.9308, 43.3296], [-70.9327, 43.3368], [-70.953, 43.3333], [-70.9672, 43.3438], [-70.986, 43.38], [-70.9874, 43.3935], [-70.9826, 43.3978], [-70.9868, 43.4143], [-70.9612, 43.4383], [-70.9669, 43.4505], [-70.9614, 43.4697], [-70.9742, 43.4774], [-70.968, 43.4808], [-70.9696, 43.4862], [-70.9548, 43.5098], [-70.9541, 43.5226], [-70.9633, 43.5353], [-70.9621, 43.541]]]}}]}