{"type": "FeatureCollection", "parent": {"osm_id": 679578791, "name": "South Jeolla", "admin_level": "4", "kind": "subdivision_1", "child_kind": "subdivision_2", "iso": "KR-46"}, "features": [{"type": "Feature", "properties": {"osm_type": "relation", "osm_id": 315055613, "name": "Damyang-gun", "admin_level": "6", "kind": "subdivision_2", "parent_osm_id": 679578791, "parent_name": "South Jeolla", "parent_iso": "KR-46"}, "geometry": {"type": "Polygon", "coordinates": [[[126.9346, 35.3916], [126.9109, 35.3696], [126.8867, 35.3585], [126.8806, 35.3425], [126.8859, 35.3252], [126.8678, 35.3166], [126.8663, 35.2795], [126.8791, 35.2499], [126.8882, 35.245], [126.9109, 35.2542], [126.9237, 35.2505], [126.9578, 35.2128], [126.9706, 35.1949], [126.9737, 35.1813], [127.019, 35.1788], [127.0274, 35.1683], [127.0206, 35.1597], [127.0168, 35.1374], [127.044, 35.1287], [127.0591, 35.117], [127.0856, 35.1145], [127.0909, 35.1238], [127.0886, 35.1331], [127.0697, 35.151], [127.0705, 35.1683], [127.0818, 35.1776], [127.1015, 35.1813], [127.1143, 35.1893], [127.1128, 35.1999], [127.0954, 35.2215], [127.0879, 35.2443], [127.1045, 35.2616], [127.0999, 35.2985], [127.0516, 35.3135], [127.0516, 35.3241], [127.0705, 35.3482], [127.0705, 35.3579], [127.0658, 35.3704], [127.0398, 35.3781], [127.0339, 35.3926], [127.0516, 35.4051], [127.054, 35.4176], [127.0528, 35.4282], [127.0386, 35.4359], [127.0386, 35.4561], [127.0043, 35.4552], [126.9961, 35.4282], [126.9701, 35.4157], [126.9748, 35.4041], [126.9724, 35.3945], [126.9523, 35.3897], [126.9346, 35.3916]]]}}, {"type": "Feature", "properties": {"osm_type": "relation", "osm_id": 996774226, "name": "Gokseong-gun", "admin_level": "6", "kind": "subdivision_2", "parent_osm_id": 679578791, "parent_name": "South Jeolla", "parent_iso": "KR-46"}, "geometry": {"type": "Polygon", "coordinates": [[[127.1922, 35.3359], [127.1721, 35.3328], [127.1249, 35.2952], [127.0999, 35.2985], [127.1045, 35.2616], [127.0879, 35.2443], [127.0954, 35.2215], [127.1128, 35.1999], [127.1142, 35.19], [127.1674, 35.1977], [127.1792, 35.2112], [127.1934, 35.2122], [127.2076, 35.1929], [127.1911, 35.1765], [127.2111, 35.1446], [127.2076, 35.1282], [127.2194, 35.1253], [127.2383, 35.1059], [127.2702, 35.0856], [127.301, 35.0779], [127.3187, 35.0673], [127.3352, 35.0702], [127.3435, 35.0924], [127.373, 35.0992], [127.3884, 35.1195], [127.4144, 35.133], [127.4156, 35.1707], [127.4109, 35.1803], [127.3778, 35.1881], [127.3707, 35.2006], [127.3778, 35.219], [127.4073, 35.2421], [127.3884, 35.2798], [127.3878, 35.3022], [127.3719, 35.3183], [127.3577, 35.3183], [127.3234, 35.2991], [127.295, 35.3097], [127.2667, 35.3077], [127.2549, 35.3126], [127.2348, 35.3328], [127.2289, 35.3155], [127.2182, 35.3087], [127.1981, 35.3087], [127.1899, 35.3183], [127.1922, 35.3359]]]}}, {"type": "Feature", "properties": {"osm_type": "relation", "osm_id": 862589818, "name": "Gurye-gun", "admin_level": "6", "kind": "subdivision_2", "parent_osm_id": 679578791, "parent_name": "South Jeolla", "parent_iso": "KR-46"}, "geometry": {"type": "Polygon", "coordinates": [[[127.3878, 35.3022], [127.3884, 35.2798], [127.4073, 35.2421], [127.3778, 35.219], [127.3707, 35.2006], [127.3778, 35.1881], [127.4109, 35.1803], [127.413, 35.176], [127.4333, 35.1832], [127.4439, 35.1784], [127.4605, 35.162], [127.4936, 35.1427], [127.5066, 35.1224], [127.5219, 35.1166], [127.5408, 35.0982], [127.5574, 35.0905], [127.581, 35.1117], [127.607, 35.1204], [127.607, 35.134], [127.6188, 35.1697], [127.6342, 35.1784], [127.6177, 35.2016], [127.6224, 35.2315], [127.5798, 35.2913], [127.5834, 35.3039], [127.5538, 35.3174], [127.4936, 35.3569], [127.4581, 35.3608], [127.4392, 35.3588], [127.4002, 35.3048], [127.3878, 35.3022]]]}}, {"type": "Feature", "properties": {"osm_type": "relation", "osm_id": 204518132, "name": "Hwasun-gun", "admin_level": "6", "kind": "subdivision_2", "parent_osm_id": 679578791, "parent_name": "South Jeolla", "parent_iso": "KR-46"}, "geometry": {"type": "Polygon", "coordinates": [[[127.0168, 35.1374], [127.0055, 35.1098], [126.9736, 35.076], [126.95, 35.0682], [126.9334, 35.0876], [126.9181, 35.0924], [126.8956, 35.0624], [126.9051, 35.0469], [126.8779, 35.0044], [126.8992, 34.9898], [126.8933, 34.9724], [126.8814, 34.9569], [126.8791, 34.8998], [126.8732, 34.892], [126.8519, 34.8823], [126.8448, 34.8687], [126.8554, 34.8619], [126.9074, 34.861], [126.9098, 34.8435], [126.9287, 34.8377], [126.9393, 34.8241], [126.95, 34.8251], [126.9677, 34.8435], [127.0162, 34.8338], [127.0492, 34.8367], [127.0717, 34.8687], [127.0847, 34.8716], [127.0882, 34.8949], [127.0823, 34.9056], [127.0953, 34.9327], [127.1083, 34.9395], [127.1249, 34.9608], [127.1391, 34.9666], [127.171, 34.9676], [127.1863, 35.0053], [127.1887, 35.045], [127.1958, 35.0556], [127.1899, 35.0982], [127.197, 35.1272], [127.2078, 35.1293], [127.2111, 35.1446], [127.1911, 35.1765], [127.2076, 35.1929], [127.1934, 35.2122], [127.1792, 35.2112], [127.1674, 35.1977], [127.1143, 35.1893], [127.1015, 35.1813], [127.0818, 35.1776], [127.0705, 35.1683], [127.0697, 35.151], [127.0886, 35.1331], [127.0909, 35.1238], [127.0856, 35.1145], [127.0591, 35.117], [127.044, 35.1287], [127.0168, 35.1374]]]}}, {"type": "Feature", "properties": {"osm_type": "relation", "osm_id": 136482492, "name": "Naju-si", "admin_level": "6", "kind": "subdivision_2", "parent_osm_id": 679578791, "parent_name": "South Jeolla", "parent_iso": "KR-46"}, "geometry": {"type": "Polygon", "coordinates": [[[126.9029, 35.0742], [126.8401, 35.0644], [126.8176, 35.0508], [126.7869, 35.0498], [126.7585, 35.0615], [126.7526, 35.0702], [126.7633, 35.075], [126.7609, 35.0866], [126.7361, 35.0982], [126.7006, 35.104], [126.6735, 35.1011], [126.6203, 35.0847], [126.6026, 35.0953], [126.5955, 35.0779], [126.6014, 34.9966], [126.5884, 34.9773], [126.5754, 34.9685], [126.56, 34.9879], [126.5482, 34.9821], [126.534, 34.9453], [126.534, 34.9356], [126.5446, 34.9288], [126.5435, 34.9201], [126.5364, 34.9133], [126.5186, 34.9162], [126.5387, 34.8852], [126.5706, 34.8649], [126.5801, 34.8707], [126.5848, 34.9162], [126.6096, 34.9259], [126.625, 34.924], [126.6356, 34.9162], [126.6356, 34.8949], [126.6427, 34.8842], [126.6782, 34.8823], [126.6829, 34.8881], [126.6841, 34.9172], [126.6699, 34.9308], [126.6711, 34.9395], [126.6983, 34.9424], [126.7042, 34.9211], [126.7207, 34.9075], [126.7231, 34.8949], [126.7325, 34.8833], [126.7491, 34.8939], [126.7798, 34.891], [126.8023, 34.8668], [126.8448, 34.8687], [126.8519, 34.8823], [126.8732, 34.892], [126.8791, 34.8998], [126.8814, 34.9569], [126.8933, 34.9724], [126.8992, 34.9898], [126.8779, 35.0044], [126.9051, 35.0469], [126.8956, 35.0624], [126.9029, 35.0742]]]}}, {"type": "Feature", "properties": {"osm_type": "relation", "osm_id": 630890847, "name": "Jangseong-gun", "admin_level": "6", "kind": "subdivision_2", "parent_osm_id": 679578791, "parent_name": "South Jeolla", "parent_iso": "KR-46"}, "geometry": {"type": "Polygon", "coordinates": [[[126.7781, 35.4688], [126.7538, 35.4455], [126.7408, 35.4417], [126.7432, 35.4292], [126.7514, 35.4253], [126.7538, 35.4186], [126.7455, 35.3993], [126.7231, 35.3887], [126.7302, 35.3839], [126.7302, 35.3627], [126.6947, 35.3453], [126.6675, 35.3434], [126.6616, 35.3299], [126.6203, 35.2884], [126.6179, 35.2682], [126.5931, 35.2547], [126.5907, 35.2363], [126.6144, 35.2257], [126.6697, 35.1822], [126.6805, 35.1929], [126.6841, 35.2132], [126.7255, 35.2103], [126.7314, 35.2392], [126.7408, 35.247], [126.7597, 35.246], [126.7609, 35.2344], [126.8023, 35.219], [126.8141, 35.218], [126.8259, 35.2238], [126.8449, 35.2213], [126.8602, 35.2383], [126.8791, 35.2499], [126.8663, 35.2795], [126.8663, 35.3067], [126.8678, 35.3166], [126.8859, 35.3252], [126.8806, 35.3425], [126.8867, 35.3585], [126.9109, 35.3696], [126.9346, 35.3916], [126.8909, 35.4494], [126.8637, 35.4619], [126.8543, 35.4619], [126.8495, 35.4763], [126.8413, 35.4811], [126.8224, 35.4792], [126.8188, 35.4629], [126.8058, 35.46], [126.7869, 35.4609], [126.7781, 35.4688]]]}}, {"type": "Feature", "properties": {"osm_type": "relation", "osm_id": 224283284, "name": "Hampyeong-gun", "admin_level": "6", "kind": "subdivision_2", "parent_osm_id": 679578791, "parent_name": "South Jeolla", "parent_iso": "KR-46"}, "geometry": {"type": "Polygon", "coordinates": [[[126.671, 35.1008], [126.6569, 35.1108], [126.6534, 35.1272], [126.6557, 35.1427], [126.6746, 35.162], [126.6758, 35.1736], [126.6144, 35.2257], [126.5931, 35.2352], [126.5955, 35.2093], [126.5884, 35.1958], [126.5647, 35.191], [126.5647, 35.1832], [126.5494, 35.1784], [126.5068, 35.1794], [126.4844, 35.19], [126.4678, 35.1861], [126.4537, 35.1726], [126.4383, 35.1736], [126.4312, 35.1823], [126.4194, 35.1823], [126.4123, 35.1726], [126.3733, 35.162], [126.4347, 35.103], [126.4726, 35.1001], [126.4714, 35.0924], [126.4596, 35.0895], [126.4537, 35.0798], [126.456, 35.0673], [126.482, 35.0644], [126.4844, 35.0566], [126.4749, 35.0479], [126.4761, 35.0189], [126.4997, 35.0179], [126.5045, 34.9831], [126.5281, 34.9811], [126.5418, 34.9687], [126.5482, 34.9821], [126.56, 34.9879], [126.5754, 34.9685], [126.5884, 34.9773], [126.6014, 34.9966], [126.5955, 35.0779], [126.6026, 35.0953], [126.6203, 35.0847], [126.671, 35.1008]]]}}, {"type": "Feature", "properties": {"osm_type": "relation", "osm_id": 851476699, "name": "Jangheung-gun", "admin_level": "6", "kind": "subdivision_2", "parent_osm_id": 679578791, "parent_name": "South Jeolla", "parent_iso": "KR-46"}, "geometry": {"type": "Polygon", "coordinates": [[[126.8651, 34.8623], [126.8527, 34.8406], [126.8126, 34.8226], [126.8042, 34.8003], [126.8035, 34.7791], [126.8065, 34.7704], [126.8186, 34.7686], [126.8277, 34.7412], [126.8519, 34.7245], [126.8572, 34.6809], [126.8723, 34.6641], [126.8776, 34.6212], [126.8579, 34.6168], [126.8564, 34.6088], [126.8572, 34.6013], [126.8738, 34.5838], [126.8829, 34.544], [126.8784, 34.5328], [126.8542, 34.5116], [126.8587, 34.458], [126.8837, 34.4287], [126.8844, 34.4343], [126.8716, 34.4536], [126.8791, 34.4592], [126.9313, 34.448], [126.9404, 34.4511], [126.9442, 34.4586], [126.9351, 34.4798], [126.9434, 34.4867], [126.9578, 34.4742], [126.9676, 34.4786], [126.9608, 34.4954], [126.9623, 34.5047], [126.9706, 34.5116], [126.9865, 34.5415], [126.9797, 34.5739], [126.9888, 34.5789], [126.9964, 34.6075], [126.9895, 34.615], [126.9706, 34.6181], [126.9631, 34.6249], [126.9767, 34.6293], [127.0183, 34.6274], [127.0546, 34.6448], [127.0085, 34.6784], [126.9865, 34.6809], [126.9767, 34.6934], [126.9759, 34.707], [126.9843, 34.7158], [127.0016, 34.7213], [127.0274, 34.7406], [127.016, 34.7903], [127.0329, 34.8353], [127.0162, 34.8338], [126.9677, 34.8435], [126.95, 34.8251], [126.9393, 34.8241], [126.9287, 34.8377], [126.9098, 34.8435], [126.9074, 34.861], [126.8651, 34.8623]]]}}, {"type": "Feature", "properties": {"osm_type": "relation", "osm_id": 283787711, "name": "Gangjin-gun", "admin_level": "6", "kind": "subdivision_2", "parent_osm_id": 679578791, "parent_name": "South Jeolla", "parent_iso": "KR-46"}, "geometry": {"type": "Polygon", "coordinates": [[[126.8038, 34.7812], [126.7755, 34.7835], [126.7528, 34.7549], [126.7316, 34.7537], [126.7188, 34.7611], [126.7097, 34.7605], [126.6908, 34.7468], [126.6643, 34.7381], [126.6696, 34.7232], [126.6795, 34.7213], [126.6855, 34.7133], [126.6779, 34.6865], [126.6825, 34.6803], [126.6931, 34.6778], [126.7044, 34.6822], [126.7105, 34.6741], [126.7021, 34.666], [126.7006, 34.6492], [126.6938, 34.6448], [126.6923, 34.6349], [126.7044, 34.6293], [126.7037, 34.6081], [126.684, 34.6007], [126.681, 34.5882], [126.6984, 34.5745], [126.6999, 34.567], [126.6961, 34.5465], [126.6795, 34.5371], [126.681, 34.529], [126.6893, 34.5253], [126.6908, 34.5135], [126.687, 34.4704], [126.7173, 34.4673], [126.7453, 34.4717], [126.74, 34.486], [126.7604, 34.4991], [126.7574, 34.5166], [126.7589, 34.5228], [126.7657, 34.5259], [126.7717, 34.6212], [126.7861, 34.6274], [126.7823, 34.6069], [126.799, 34.5764], [126.8005, 34.5558], [126.7906, 34.5197], [126.7967, 34.5078], [126.7967, 34.4842], [126.8058, 34.4642], [126.8148, 34.4536], [126.8398, 34.4542], [126.8564, 34.4424], [126.8714, 34.4414], [126.8587, 34.458], [126.8542, 34.5116], [126.8784, 34.5328], [126.8829, 34.544], [126.8738, 34.5838], [126.8572, 34.6013], [126.8564, 34.6088], [126.8579, 34.6168], [126.8776, 34.6212], [126.8723, 34.6641], [126.8572, 34.6809], [126.8519, 34.7245], [126.8277, 34.7412], [126.8186, 34.7686], [126.8065, 34.7704], [126.8038, 34.7812]]]}}, {"type": "Feature", "properties": {"osm_type": "relation", "osm_id": 359756723, "name": "Boseong-gun", "admin_level": "6", "kind": "subdivision_2", "parent_osm_id": 679578791, "parent_name": "South Jeolla", "parent_iso": "KR-46"}, "geometry": {"type": "Polygon", "coordinates": [[[127.0329, 34.8353], [127.016, 34.7903], [127.0274, 34.7406], [127.0016, 34.7213], [126.9843, 34.7158], [126.9759, 34.707], [126.9767, 34.6934], [126.9865, 34.6809], [127.0085, 34.6784], [127.0546, 34.6448], [127.0697, 34.6604], [127.106, 34.6766], [127.1225, 34.7028], [127.132, 34.7067], [127.145, 34.6979], [127.1769, 34.6921], [127.2088, 34.7222], [127.2147, 34.7416], [127.2449, 34.7795], [127.2615, 34.7886], [127.3682, 34.8362], [127.3847, 34.8362], [127.3968, 34.8255], [127.4205, 34.8339], [127.3866, 34.8402], [127.3769, 34.8541], [127.3503, 34.8581], [127.3368, 34.8779], [127.3116, 34.8859], [127.2951, 34.8899], [127.252, 34.8807], [127.2361, 34.8855], [127.2371, 34.9279], [127.2253, 34.9492], [127.1945, 34.9764], [127.1758, 34.9841], [127.171, 34.9676], [127.1391, 34.9666], [127.1249, 34.9608], [127.1083, 34.9395], [127.0953, 34.9327], [127.0823, 34.9056], [127.0882, 34.8949], [127.0847, 34.8716], [127.0717, 34.8687], [127.0492, 34.8367], [127.0329, 34.8353]]]}}, {"type": "Feature", "properties": {"osm_type": "relation", "osm_id": 697995515, "name": "Suncheon-si", "admin_level": "6", "kind": "subdivision_2", "parent_osm_id": 679578791, "parent_name": "South Jeolla", "parent_iso": "KR-46"}, "geometry": {"type": "Polygon", "coordinates": [[[127.2078, 35.1293], [127.197, 35.1272], [127.1899, 35.0982], [127.1958, 35.0556], [127.1887, 35.045], [127.1863, 35.0053], [127.1758, 34.9841], [127.1945, 34.9764], [127.2253, 34.9492], [127.2371, 34.9279], [127.2361, 34.8855], [127.252, 34.8807], [127.2951, 34.8899], [127.3116, 34.8859], [127.3368, 34.8779], [127.3503, 34.8581], [127.3769, 34.8541], [127.3866, 34.8402], [127.404, 34.8343], [127.4475, 34.8319], [127.4629, 34.8387], [127.4889, 34.8396], [127.4948, 34.8484], [127.4971, 34.8736], [127.5125, 34.8794], [127.5231, 34.8736], [127.529, 34.8416], [127.5408, 34.8367], [127.5515, 34.8455], [127.5562, 34.8571], [127.5562, 34.8658], [127.542, 34.8775], [127.5503, 34.8842], [127.5822, 34.8813], [127.6043, 34.888], [127.5855, 34.9077], [127.5907, 34.9122], [127.5869, 34.9172], [127.5964, 34.922], [127.5917, 34.9308], [127.568, 34.9405], [127.5491, 34.9618], [127.5574, 34.9927], [127.5668, 35.0092], [127.5645, 35.0208], [127.5326, 35.0673], [127.5334, 35.1066], [127.5066, 35.1224], [127.4936, 35.1427], [127.4605, 35.162], [127.4439, 35.1784], [127.4333, 35.1832], [127.413, 35.176], [127.4144, 35.133], [127.3884, 35.1195], [127.373, 35.0992], [127.3435, 35.0924], [127.3352, 35.0702], [127.3187, 35.0673], [127.301, 35.0779], [127.2702, 35.0856], [127.2383, 35.1059], [127.2194, 35.1253], [127.2078, 35.1293]]]}}, {"type": "Feature", "properties": {"osm_type": "relation", "osm_id": 990675127, "name": "Nam-gu [South District]", "admin_level": "6", "kind": "subdivision_2", "parent_osm_id": 679578791, "parent_name": "South Jeolla", "parent_iso": "KR-46"}, "geometry": {"type": "Polygon", "coordinates": [[[126.9029, 35.0742], [126.9167, 35.0908], [126.9185, 35.1127], [126.9283, 35.1269], [126.9283, 35.1343], [126.9122, 35.1545], [126.9042, 35.1545], [126.9026, 35.1417], [126.8905, 35.1368], [126.892, 35.1176], [126.8882, 35.1102], [126.8071, 35.086], [126.7916, 35.0721], [126.7797, 35.0521], [126.8176, 35.0508], [126.8401, 35.0644], [126.9029, 35.0742]]]}}, {"type": "Feature", "properties": {"osm_type": "relation", "osm_id": 383886341, "name": "Dong-gu [East District]", "admin_level": "6", "kind": "subdivision_2", "parent_osm_id": 679578791, "parent_name": "South Jeolla", "parent_iso": "KR-46"}, "geometry": {"type": "Polygon", "coordinates": [[[126.9972, 35.0982], [127.0048, 35.1088], [126.9441, 35.1581], [126.9122, 35.1545], [126.9283, 35.1343], [126.9283, 35.1269], [126.9185, 35.1127], [126.9167, 35.0908], [126.9334, 35.0876], [126.95, 35.0682], [126.9736, 35.076], [126.9972, 35.0982]]]}}, {"type": "Feature", "properties": {"osm_type": "relation", "osm_id": 259742826, "name": "Gwangsan-gu", "admin_level": "6", "kind": "subdivision_2", "parent_osm_id": 679578791, "parent_name": "South Jeolla", "parent_iso": "KR-46"}, "geometry": {"type": "Polygon", "coordinates": [[[126.7797, 35.0521], [126.7916, 35.0721], [126.8105, 35.0885], [126.8141, 35.1098], [126.8212, 35.1146], [126.833, 35.1436], [126.8377, 35.1688], [126.8543, 35.1794], [126.8566, 35.2064], [126.8484, 35.2209], [126.8259, 35.2238], [126.8141, 35.218], [126.8023, 35.219], [126.7609, 35.2344], [126.7597, 35.246], [126.7408, 35.247], [126.7314, 35.2392], [126.7255, 35.2103], [126.6841, 35.2132], [126.6805, 35.1929], [126.6675, 35.1794], [126.6758, 35.1736], [126.6746, 35.162], [126.6557, 35.1427], [126.6534, 35.1272], [126.6569, 35.1108], [126.671, 35.1008], [126.7006, 35.104], [126.7514, 35.0934], [126.7609, 35.0866], [126.7633, 35.075], [126.7526, 35.0702], [126.7585, 35.0615], [126.7797, 35.0521]]]}}, {"type": "Feature", "properties": {"osm_type": "relation", "osm_id": 804296153, "name": "Seo-gu [West District]", "admin_level": "6", "kind": "subdivision_2", "parent_osm_id": 679578791, "parent_name": "South Jeolla", "parent_iso": "KR-46"}, "geometry": {"type": "Polygon", "coordinates": [[[126.8071, 35.086], [126.8882, 35.1102], [126.892, 35.1176], [126.8905, 35.1368], [126.9026, 35.1417], [126.9042, 35.1545], [126.8826, 35.1697], [126.8755, 35.1688], [126.8543, 35.1794], [126.8436, 35.1745], [126.8377, 35.1688], [126.833, 35.1436], [126.8212, 35.1146], [126.8141, 35.1098], [126.8071, 35.086]]]}}, {"type": "Feature", "properties": {"osm_type": "relation", "osm_id": 129847363, "name": "Gwangyang-si", "admin_level": "6", "kind": "subdivision_2", "parent_osm_id": 679578791, "parent_name": "South Jeolla", "parent_iso": "KR-46"}, "geometry": {"type": "MultiPolygon", "coordinates": [[[[127.5855, 34.9077], [127.6042, 34.8882], [127.6127, 34.8938], [127.5921, 34.9198], [127.5869, 34.9172], [127.5907, 34.9122], [127.5855, 34.9077]]], [[[127.7361, 34.9371], [127.739, 34.9438], [127.7303, 34.9514], [127.7143, 34.9311], [127.7056, 34.9272], [127.7051, 34.9141], [127.7351, 34.9065], [127.7608, 34.9081], [127.7627, 34.895], [127.7738, 34.8871], [127.7835, 34.8867], [127.7859, 34.9149], [127.7651, 34.9327], [127.738, 34.9327], [127.7361, 34.9371]]], [[[127.769, 34.9526], [127.7598, 34.9597], [127.7482, 34.9546], [127.7404, 34.9482], [127.7453, 34.9351], [127.7685, 34.9347], [127.769, 34.9526]]], [[[127.5334, 35.1066], [127.5326, 35.0673], [127.5645, 35.0208], [127.5668, 35.0092], [127.5574, 34.9927], [127.5491, 34.9618], [127.5574, 34.9482], [127.5917, 34.9308], [127.5964, 34.922], [127.6006, 34.9474], [127.6039, 34.9478], [127.6054, 34.9276], [127.6407, 34.8855], [127.6964, 34.9208], [127.7017, 34.9319], [127.7235, 34.9514], [127.7554, 34.9629], [127.7695, 34.9855], [127.7833, 34.9882], [127.7912, 35.0161], [127.7678, 35.0557], [127.7542, 35.0601], [127.7201, 35.0836], [127.6982, 35.1065], [127.6937, 35.13], [127.6342, 35.1784], [127.6188, 35.1697], [127.607, 35.134], [127.607, 35.1204], [127.581, 35.1117], [127.5574, 35.0905], [127.5334, 35.1066]]]]}}, {"type": "Feature", "properties": {"osm_type": "relation", "osm_id": 540460904, "name": "Goheung-gun", "admin_level": "6", "kind": "subdivision_2", "parent_osm_id": 679578791, "parent_name": "South Jeolla", "parent_iso": "KR-46"}, "geometry": {"type": "MultiPolygon", "coordinates": [[[[127.2443, 34.4149], [127.2374, 34.4117], [127.254, 34.4023], [127.2525, 34.3941], [127.2467, 34.3928], [127.251, 34.3895], [127.2486, 34.3872], [127.2724, 34.38], [127.2701, 34.3904], [127.2601, 34.3953], [127.2609, 34.4027], [127.2443, 34.4149]]], [[[127.3021, 34.4418], [127.3001, 34.4358], [127.3117, 34.4315], [127.3143, 34.4397], [127.3021, 34.4418]]], [[[127.4737, 34.4647], [127.4565, 34.4752], [127.4551, 34.4595], [127.4606, 34.452], [127.4801, 34.4512], [127.4842, 34.4471], [127.4828, 34.443], [127.466, 34.4464], [127.4656, 34.443], [127.4746, 34.4348], [127.4928, 34.4329], [127.4905, 34.4131], [127.5187, 34.4258], [127.5264, 34.4232], [127.5368, 34.4288], [127.5341, 34.4415], [127.5382, 34.4468], [127.5232, 34.4524], [127.506, 34.4722], [127.5046, 34.4643], [127.501, 34.4628], [127.4987, 34.4688], [127.4928, 34.4587], [127.4883, 34.4643], [127.4737, 34.4647]]], [[[127.2315, 34.4814], [127.2215, 34.4919], [127.1854, 34.4913], [127.1641, 34.4802], [127.1372, 34.4755], [127.118, 34.4907], [127.0996, 34.4673], [127.1046, 34.4591], [127.1053, 34.4422], [127.1124, 34.448], [127.1428, 34.427], [127.1698, 34.4358], [127.2038, 34.4311], [127.2152, 34.4381], [127.235, 34.4749], [127.2315, 34.4814]]], [[[127.4746, 34.5313], [127.4783, 34.5425], [127.4597, 34.544], [127.4361, 34.5242], [127.4374, 34.5174], [127.4538, 34.5156], [127.452, 34.5081], [127.4588, 34.5044], [127.4429, 34.4916], [127.4524, 34.4868], [127.4538, 34.4793], [127.4737, 34.4872], [127.4969, 34.486], [127.5046, 34.4924], [127.4928, 34.5085], [127.4624, 34.5092], [127.4588, 34.5148], [127.4715, 34.516], [127.4692, 34.5227], [127.4592, 34.526], [127.4746, 34.5313]]], [[[127.2457, 34.7776], [127.2578, 34.7385], [127.2818, 34.7355], [127.3114, 34.7552], [127.3298, 34.7567], [127.3354, 34.7082], [127.3188, 34.6687], [127.3077, 34.6641], [127.2874, 34.6672], [127.28, 34.6824], [127.2837, 34.7158], [127.2707, 34.7112], [127.2449, 34.6915], [127.232, 34.6596], [127.2338, 34.6338], [127.2043, 34.6231], [127.1932, 34.6444], [127.1747, 34.6186], [127.1747, 34.6019], [127.1692, 34.5912], [127.1433, 34.5867], [127.1378, 34.573], [127.1204, 34.5602], [127.1181, 34.5502], [127.137, 34.5247], [127.1643, 34.5247], [127.1885, 34.5346], [127.2081, 34.5265], [127.2308, 34.5278], [127.2376, 34.5197], [127.2694, 34.5116], [127.2807, 34.5054], [127.2837, 34.4979], [127.2739, 34.4904], [127.2724, 34.4829], [127.3087, 34.4611], [127.3057, 34.4555], [127.3148, 34.4455], [127.3306, 34.4418], [127.3405, 34.4486], [127.3216, 34.4642], [127.3314, 34.4642], [127.3359, 34.4698], [127.3329, 34.4754], [127.339, 34.4817], [127.3616, 34.4923], [127.3707, 34.4823], [127.3798, 34.4823], [127.3904, 34.4898], [127.3836, 34.4991], [127.3866, 34.5047], [127.407, 34.5078], [127.4078, 34.5203], [127.4199, 34.5222], [127.429, 34.544], [127.401, 34.5596], [127.3927, 34.5826], [127.4093, 34.5907], [127.4335, 34.5826], [127.4585, 34.5857], [127.4819, 34.5764], [127.5031, 34.6007], [127.4948, 34.6336], [127.463, 34.6392], [127.4592, 34.6448], [127.4789, 34.643], [127.4895, 34.6467], [127.4607, 34.666], [127.4509, 34.6629], [127.4448, 34.6685], [127.4479, 34.6747], [127.4282, 34.6753], [127.4259, 34.6871], [127.3798, 34.7232], [127.3753, 34.7474], [127.3964, 34.7537], [127.4025, 34.7667], [127.3859, 34.7767], [127.3745, 34.7767], [127.3722, 34.7847], [127.3889, 34.7891], [127.4191, 34.8108], [127.3881, 34.817], [127.379, 34.8257], [127.3571, 34.8319], [127.2457, 34.7776]]]]}}, {"type": "Feature", "properties": {"osm_type": "relation", "osm_id": 400444348, "name": "Muan-gun", "admin_level": "6", "kind": "subdivision_2", "parent_osm_id": 679578791, "parent_name": "South Jeolla", "parent_iso": "KR-46"}, "geometry": {"type": "Polygon", "coordinates": [[[126.5418, 34.9687], [126.5281, 34.9811], [126.5045, 34.9831], [126.4997, 35.0179], [126.4761, 35.0189], [126.4749, 35.0479], [126.4844, 35.0566], [126.482, 35.0644], [126.456, 35.0673], [126.4246, 35.0458], [126.4253, 35.0278], [126.4175, 35.0255], [126.4069, 35.0284], [126.3955, 35.0464], [126.4069, 35.0574], [126.4061, 35.0655], [126.3969, 35.0754], [126.3898, 35.0638], [126.3856, 35.0696], [126.3898, 35.0852], [126.3749, 35.0644], [126.3679, 35.0673], [126.3672, 35.076], [126.348, 35.0765], [126.3438, 35.0852], [126.3501, 35.0928], [126.3402, 35.091], [126.3345, 35.0974], [126.3331, 35.1108], [126.3438, 35.1392], [126.3445, 35.1572], [126.3388, 35.1502], [126.3274, 35.1502], [126.3345, 35.1432], [126.3182, 35.1287], [126.3111, 35.1293], [126.3048, 35.1392], [126.2899, 35.1334], [126.2814, 35.1369], [126.2792, 35.145], [126.27, 35.145], [126.2459, 35.1171], [126.2601, 35.1026], [126.2537, 35.0893], [126.2551, 35.0777], [126.2622, 35.0731], [126.265, 35.0586], [126.2736, 35.0527], [126.2899, 35.062], [126.2941, 35.051], [126.3019, 35.0464], [126.314, 35.0545], [126.3026, 35.0591], [126.3175, 35.069], [126.3133, 35.0754], [126.3175, 35.0847], [126.3331, 35.0881], [126.3438, 35.0719], [126.3367, 35.0638], [126.348, 35.0574], [126.353, 35.0382], [126.3827, 35.0487], [126.3941, 35.026], [126.3416, 34.9987], [126.3579, 34.9924], [126.3537, 34.9819], [126.3282, 34.9674], [126.314, 34.986], [126.2962, 34.9691], [126.3097, 34.9488], [126.3211, 34.9459], [126.3204, 34.9401], [126.3076, 34.9337], [126.309, 34.929], [126.3253, 34.9308], [126.3296, 34.918], [126.3423, 34.9162], [126.3686, 34.922], [126.3664, 34.9296], [126.3714, 34.9354], [126.365, 34.9418], [126.3735, 34.9546], [126.3601, 34.9627], [126.3601, 34.9685], [126.3707, 34.9773], [126.3686, 34.986], [126.3729, 34.998], [126.3792, 34.9865], [126.3794, 34.9733], [126.3916, 34.9673], [126.3887, 34.9469], [126.3934, 34.9354], [126.3986, 34.934], [126.3916, 34.9266], [126.3931, 34.9209], [126.4053, 34.9102], [126.3927, 34.8965], [126.3884, 34.8802], [126.3998, 34.8778], [126.3955, 34.872], [126.4061, 34.8621], [126.4091, 34.8425], [126.4435, 34.8332], [126.4503, 34.8214], [126.4684, 34.8145], [126.468, 34.7828], [126.4808, 34.7756], [126.4903, 34.761], [126.5139, 34.7659], [126.5517, 34.8232], [126.5517, 34.8426], [126.5624, 34.8668], [126.5565, 34.8775], [126.5387, 34.8852], [126.5186, 34.9162], [126.5364, 34.9133], [126.5435, 34.9201], [126.5446, 34.9288], [126.534, 34.9356], [126.5418, 34.9687]]]}}]}