{"type": "FeatureCollection", "parent": {"osm_id": 68942, "name": "New Brunswick", "admin_level": "4", "kind": "subdivision_1", "child_kind": "subdivision_2", "iso": "CA-NB"}, "features": [{"type": "Feature", "properties": {"osm_type": "relation", "osm_id": 189477338, "name": "Saint John", "admin_level": "6", "kind": "subdivision_2", "parent_osm_id": 68942, "parent_name": "New Brunswick", "parent_iso": "CA-NB"}, "geometry": {"type": "MultiPolygon", "coordinates": [[[[-65.5304, 45.3235], [-65.5306, 45.3237], [-65.5305, 45.3235], [-65.5304, 45.3235]]], [[[-66.3473, 45.133], [-66.3472, 45.1331], [-66.3475, 45.1332], [-66.3473, 45.133]]], [[[-65.4525, 45.3901], [-65.4527, 45.3903], [-65.4527, 45.3901], [-65.4525, 45.3901]]], [[[-66.268, 45.1407], [-66.2678, 45.1409], [-66.2681, 45.1409], [-66.268, 45.1407]]], [[[-66.3468, 45.1326], [-66.3467, 45.1328], [-66.3471, 45.1329], [-66.3468, 45.1326]]], [[[-65.5283, 45.322], [-65.5283, 45.3222], [-65.5286, 45.3222], [-65.5283, 45.322]]], [[[-66.3773, 45.1044], [-66.3776, 45.1047], [-66.3776, 45.1045], [-66.3773, 45.1044]]], [[[-66.3473, 45.1324], [-66.3472, 45.1326], [-66.3477, 45.1326], [-66.3473, 45.1324]]], [[[-65.5292, 45.3217], [-65.5293, 45.322], [-65.5294, 45.3218], [-65.5292, 45.3217]]], [[[-66.4447, 45.1288], [-66.4448, 45.129], [-66.445, 45.1289], [-66.4447, 45.1288]]], [[[-66.2665, 45.1404], [-66.2664, 45.1407], [-66.2668, 45.1406], [-66.2665, 45.1404]]], [[[-66.4564, 45.0583], [-66.4562, 45.0586], [-66.4566, 45.0585], [-66.4564, 45.0583]]], [[[-66.4522, 45.0613], [-66.4521, 45.0615], [-66.4524, 45.0616], [-66.4522, 45.0613]]], [[[-65.6736, 45.2782], [-65.6742, 45.2785], [-65.6739, 45.2782], [-65.6736, 45.2782]]], [[[-66.3641, 45.1199], [-66.3639, 45.12], [-66.3645, 45.1201], [-66.3641, 45.1199]]], [[[-65.6778, 45.2786], [-65.6776, 45.2788], [-65.678, 45.2789], [-65.6778, 45.2786]]], [[[-65.6734, 45.2775], [-65.6744, 45.2777], [-65.6734, 45.2775]]], [[[-65.6585, 45.2956], [-65.6586, 45.2959], [-65.6589, 45.2959], [-65.6585, 45.2956]]], [[[-66.105, 45.2107], [-66.1051, 45.211], [-66.1055, 45.2107], [-66.105, 45.2107]]], [[[-66.4468, 45.0719], [-66.4466, 45.0723], [-66.4471, 45.0721], [-66.4468, 45.0719]]], [[[-66.3493, 45.123], [-66.3496, 45.1235], [-66.3496, 45.1231], [-66.3493, 45.123]]], [[[-66.2742, 45.1372], [-66.2741, 45.1375], [-66.2745, 45.1372], [-66.2742, 45.1372]]], [[[-66.2876, 45.1342], [-66.2879, 45.1346], [-66.2882, 45.1345], [-66.2876, 45.1342]]], [[[-66.2633, 45.1918], [-66.2631, 45.192], [-66.2638, 45.1921], [-66.2633, 45.1918]]], [[[-66.2758, 45.1949], [-66.276, 45.1952], [-66.2765, 45.195], [-66.2758, 45.1949]]], [[[-66.276, 45.1357], [-66.2757, 45.1361], [-66.2761, 45.1361], [-66.276, 45.1357]]], [[[-66.3969, 45.099], [-66.3966, 45.0998], [-66.3969, 45.099]]], [[[-65.673, 45.2784], [-65.6723, 45.2785], [-65.6734, 45.2786], [-65.673, 45.2784]]], [[[-66.1558, 45.2016], [-66.1561, 45.2022], [-66.1562, 45.2016], [-66.1558, 45.2016]]], [[[-66.2733, 45.1948], [-66.2727, 45.1952], [-66.2736, 45.1951], [-66.2733, 45.1948]]], [[[-66.3419, 45.135], [-66.3417, 45.1354], [-66.3425, 45.135], [-66.3419, 45.135]]], [[[-65.6838, 45.2741], [-65.6848, 45.2744], [-65.6838, 45.2741]]], [[[-66.1044, 45.2135], [-66.1037, 45.2141], [-66.1044, 45.2135]]], [[[-66.2851, 45.1834], [-66.2842, 45.1837], [-66.2851, 45.1834]]], [[[-66.3134, 45.1278], [-66.313, 45.1285], [-66.3134, 45.1278]]], [[[-66.3537, 45.113], [-66.353, 45.1134], [-66.3537, 45.113]]], [[[-65.6583, 45.2945], [-65.659, 45.2953], [-65.6583, 45.2945]]], [[[-66.1548, 45.1989], [-66.1542, 45.1999], [-66.1548, 45.1989]]], [[[-66.264, 45.1389], [-66.2648, 45.1403], [-66.264, 45.1389]]], [[[-66.4577, 45.1269], [-66.4575, 45.1283], [-66.4585, 45.1276], [-66.4577, 45.1269]]], [[[-66.2389, 45.1648], [-66.2387, 45.1659], [-66.2399, 45.1658], [-66.2389, 45.1648]]], [[[-65.5306, 45.323], [-65.5318, 45.3227], [-65.531, 45.3221], [-65.5306, 45.323]]], [[[-66.2599, 45.1381], [-66.2618, 45.14], [-66.2611, 45.138], [-66.2599, 45.1381]]], [[[-66.1053, 45.209], [-66.1109, 45.2049], [-66.1053, 45.209]]], [[[-65.0855, 45.5342], [-65.1194, 45.6151], [-66.4595, 45.2219], [-66.4593, 45.1287], [-66.4296, 45.1261], [-66.4592, 45.1257], [-66.4585, 45.058], [-66.4115, 45.0866], [-66.4375, 45.0979], [-66.3693, 45.1048], [-66.3427, 45.1368], [-66.3285, 45.1219], [-66.2502, 45.1437], [-66.2731, 45.1644], [-66.25, 45.173], [-66.2601, 45.189], [-66.3011, 45.1672], [-66.3419, 45.1766], [-66.3252, 45.1977], [-66.3096, 45.1744], [-66.2795, 45.1995], [-66.2201, 45.1766], [-66.2386, 45.1441], [-66.2183, 45.1416], [-66.1453, 45.1823], [-66.1649, 45.1954], [-66.1511, 45.2204], [-66.1326, 45.2246], [-66.138, 45.2041], [-66.0921, 45.2432], [-66.0537, 45.2362], [-66.0751, 45.2708], [-66.0405, 45.2791], [-66.0453, 45.2564], [-66.0197, 45.2788], [-66.0, 45.2438], [-66.0081, 45.2165], [-65.9837, 45.2071], [-65.9527, 45.2308], [-65.9087, 45.194], [-65.8541, 45.2153], [-65.8165, 45.2642], [-65.7406, 45.2516], [-65.7173, 45.2808], [-65.6531, 45.2916], [-65.6599, 45.3062], [-65.651, 45.2902], [-65.5698, 45.3073], [-65.535, 45.3238], [-65.5496, 45.3372], [-65.5325, 45.3622], [-65.4715, 45.3742], [-65.4082, 45.4238], [-65.0855, 45.5342]]]]}}, {"type": "Feature", "properties": {"osm_type": "relation", "osm_id": 351581355, "name": "Charlotte", "admin_level": "6", "kind": "subdivision_2", "parent_osm_id": 68942, "parent_name": "New Brunswick", "parent_iso": "CA-NB"}, "geometry": {"type": "MultiPolygon", "coordinates": [[[[-67.3201, 45.133], [-67.3203, 45.1331], [-67.3205, 45.133], [-67.3201, 45.133]]], [[[-66.7944, 45.1831], [-66.7946, 45.1831], [-66.7944, 45.183], [-66.7944, 45.1831]]], [[[-66.7939, 45.1841], [-66.794, 45.1842], [-66.7941, 45.184], [-66.7939, 45.1841]]], [[[-66.9118, 45.0389], [-66.9121, 45.039], [-66.9121, 45.0388], [-66.9118, 45.0389]]], [[[-66.841, 45.2341], [-66.841, 45.2343], [-66.8411, 45.2342], [-66.841, 45.2341]]], [[[-66.7795, 45.0516], [-66.7793, 45.0517], [-66.7795, 45.0518], [-66.7795, 45.0516]]], [[[-66.7933, 45.1836], [-66.7934, 45.1837], [-66.7936, 45.1836], [-66.7933, 45.1836]]], [[[-66.9526, 45.0265], [-66.9524, 45.0266], [-66.9527, 45.0266], [-66.9526, 45.0265]]], [[[-66.5404, 45.1337], [-66.5403, 45.134], [-66.5405, 45.1338], [-66.5404, 45.1337]]], [[[-66.7892, 45.0853], [-66.7892, 45.0855], [-66.7894, 45.0853], [-66.7892, 45.0853]]], [[[-66.7172, 45.0696], [-66.7172, 45.0698], [-66.7174, 45.0698], [-66.7172, 45.0696]]], [[[-66.7857, 45.039], [-66.7861, 45.0389], [-66.786, 45.0388], [-66.7857, 45.039]]], [[[-66.8095, 45.0398], [-66.8096, 45.04], [-66.8098, 45.04], [-66.8095, 45.0398]]], [[[-67.4348, 45.2206], [-67.4346, 45.2207], [-67.4349, 45.2208], [-67.4348, 45.2206]]], [[[-67.3204, 45.1327], [-67.3205, 45.1329], [-67.3207, 45.1327], [-67.3204, 45.1327]]], [[[-67.3106, 45.1448], [-67.3106, 45.1449], [-67.311, 45.1449], [-67.3106, 45.1448]]], [[[-66.6147, 45.1025], [-66.6146, 45.1026], [-66.6147, 45.1028], [-66.6147, 45.1025]]], [[[-66.8444, 45.2299], [-66.8443, 45.2302], [-66.8445, 45.2301], [-66.8444, 45.2299]]], [[[-67.3918, 45.1548], [-67.3918, 45.1549], [-67.3921, 45.155], [-67.3918, 45.1548]]], [[[-67.0488, 45.125], [-67.0487, 45.1254], [-67.0489, 45.1252], [-67.0488, 45.125]]], [[[-66.4699, 45.1288], [-66.4698, 45.1289], [-66.4702, 45.1289], [-66.4699, 45.1288]]], [[[-66.927, 44.8573], [-66.9269, 44.8576], [-66.9272, 44.8574], [-66.927, 44.8573]]], [[[-66.8951, 45.0143], [-66.8951, 45.0146], [-66.8953, 45.0146], [-66.8951, 45.0143]]], [[[-66.899, 45.002], [-66.899, 45.0023], [-66.8993, 45.002], [-66.899, 45.002]]], [[[-66.9437, 44.9279], [-66.9436, 44.9281], [-66.9439, 44.928], [-66.9437, 44.9279]]], [[[-67.4514, 45.3181], [-67.4515, 45.3185], [-67.4516, 45.3182], [-67.4514, 45.3181]]], [[[-66.7747, 45.043], [-66.7746, 45.0432], [-66.775, 45.043], [-66.7747, 45.043]]], [[[-66.8104, 45.0422], [-66.8105, 45.0424], [-66.8108, 45.0423], [-66.8104, 45.0422]]], [[[-67.3075, 45.1445], [-67.3079, 45.1446], [-67.3079, 45.1445], [-67.3075, 45.1445]]], [[[-66.7921, 45.1411], [-66.7919, 45.1413], [-66.7921, 45.1413], [-66.7921, 45.1411]]], [[[-66.9056, 45.0009], [-66.9056, 45.0012], [-66.9058, 45.001], [-66.9056, 45.0009]]], [[[-67.0027, 44.9834], [-67.0026, 44.9836], [-67.0028, 44.9837], [-67.0027, 44.9834]]], [[[-66.9383, 44.9244], [-66.9387, 44.9242], [-66.9385, 44.9241], [-66.9383, 44.9244]]], [[[-66.6968, 44.9859], [-66.6967, 44.9861], [-66.6971, 44.9859], [-66.6968, 44.9859]]], [[[-67.4513, 45.3177], [-67.4515, 45.318], [-67.4515, 45.3175], [-67.4513, 45.3177]]], [[[-67.3111, 45.1449], [-67.3112, 45.1452], [-67.3114, 45.1451], [-67.3111, 45.1449]]], [[[-67.3747, 45.3741], [-67.3743, 45.3744], [-67.3745, 45.3744], [-67.3747, 45.3741]]], [[[-66.7342, 44.6464], [-66.734, 44.6467], [-66.7342, 44.6467], [-66.7342, 44.6464]]], [[[-66.9024, 44.9823], [-66.9027, 44.9822], [-66.9022, 44.9822], [-66.9024, 44.9823]]], [[[-66.899, 45.0183], [-66.8988, 45.0184], [-66.8993, 45.0184], [-66.899, 45.0183]]], [[[-66.9597, 45.1743], [-66.9599, 45.1745], [-66.9597, 45.174], [-66.9597, 45.1743]]], [[[-67.3969, 45.1574], [-67.3975, 45.1575], [-67.3966, 45.1572], [-67.3969, 45.1574]]], [[[-66.4902, 45.1782], [-66.4902, 45.1785], [-66.4906, 45.1784], [-66.4902, 45.1782]]], [[[-66.4881, 45.1236], [-66.4879, 45.1239], [-66.4883, 45.1237], [-66.4881, 45.1236]]], [[[-66.9361, 45.0025], [-66.936, 45.0026], [-66.9364, 45.0026], [-66.9361, 45.0025]]], [[[-67.4772, 45.4306], [-67.4771, 45.4308], [-67.4773, 45.431], [-67.4772, 45.4306]]], [[[-66.7455, 44.6478], [-66.7455, 44.6482], [-66.7458, 44.6479], [-66.7455, 44.6478]]], [[[-67.4737, 45.425], [-67.4739, 45.4253], [-67.4735, 45.4247], [-67.4737, 45.425]]], [[[-66.9063, 44.9725], [-66.9057, 44.9731], [-66.9063, 44.9725]]], [[[-66.77, 45.0548], [-66.7702, 45.055], [-66.7701, 45.0546], [-66.77, 45.0548]]], [[[-66.9541, 44.9424], [-66.9541, 44.9426], [-66.9545, 44.9425], [-66.9541, 44.9424]]], [[[-67.004, 44.9844], [-67.004, 44.9847], [-67.0044, 44.9846], [-67.004, 44.9844]]], [[[-66.793, 45.0885], [-66.793, 45.0888], [-66.7934, 45.0887], [-66.793, 45.0885]]], [[[-66.897, 44.9463], [-66.8973, 44.9464], [-66.8972, 44.9461], [-66.897, 44.9463]]], [[[-66.9416, 45.0068], [-66.9413, 45.007], [-66.9417, 45.007], [-66.9416, 45.0068]]], [[[-66.7371, 44.946], [-66.7369, 44.9461], [-66.7375, 44.9461], [-66.7371, 44.946]]], [[[-66.9471, 45.0028], [-66.9471, 45.0029], [-66.9475, 45.003], [-66.9471, 45.0028]]], [[[-66.8966, 44.9494], [-66.8965, 44.9498], [-66.8967, 44.9499], [-66.8966, 44.9494]]], [[[-66.9546, 45.1955], [-66.9544, 45.1958], [-66.9548, 45.1955], [-66.9546, 45.1955]]], [[[-66.7548, 45.0499], [-66.7551, 45.0502], [-66.7551, 45.05], [-66.7548, 45.0499]]], [[[-66.9119, 45.0492], [-66.9117, 45.0493], [-66.9121, 45.0495], [-66.9119, 45.0492]]], [[[-66.9529, 44.834], [-66.9527, 44.8343], [-66.9532, 44.8341], [-66.9529, 44.834]]], [[[-67.3225, 45.1317], [-67.3222, 45.1318], [-67.3223, 45.132], [-67.3225, 45.1317]]], [[[-66.7256, 44.6286], [-66.7255, 44.6288], [-66.7258, 44.6286], [-66.7256, 44.6286]]], [[[-67.3298, 45.1319], [-67.3294, 45.1321], [-67.3301, 45.1319], [-67.3298, 45.1319]]], [[[-66.4598, 45.0578], [-66.4597, 45.058], [-66.4602, 45.058], [-66.4598, 45.0578]]], [[[-67.4446, 45.5065], [-67.4445, 45.5068], [-67.4447, 45.5069], [-67.4446, 45.5065]]], [[[-66.9609, 45.1528], [-66.9607, 45.153], [-66.9611, 45.1531], [-66.9609, 45.1528]]], [[[-67.4297, 45.3511], [-67.4293, 45.3513], [-67.43, 45.351], [-67.4297, 45.3511]]], [[[-66.4608, 45.0585], [-66.4609, 45.0588], [-66.4612, 45.0587], [-66.4608, 45.0585]]], [[[-66.7318, 44.9593], [-66.7316, 44.9595], [-66.732, 44.9595], [-66.7318, 44.9593]]], [[[-66.7638, 44.5763], [-66.7638, 44.5767], [-66.764, 44.5762], [-66.7638, 44.5763]]], [[[-66.9857, 44.9894], [-66.9857, 44.9896], [-66.9861, 44.9896], [-66.9857, 44.9894]]], [[[-66.9376, 44.8945], [-66.9376, 44.8949], [-66.9379, 44.8949], [-66.9376, 44.8945]]], [[[-67.4715, 45.4231], [-67.4723, 45.4233], [-67.4715, 45.4231]]], [[[-67.3838, 45.3758], [-67.3835, 45.3761], [-67.3844, 45.3758], [-67.3838, 45.3758]]], [[[-66.7265, 44.9657], [-66.7263, 44.9659], [-66.7268, 44.9658], [-66.7265, 44.9657]]], [[[-66.9639, 44.8442], [-66.9637, 44.8445], [-66.9641, 44.8444], [-66.9639, 44.8442]]], [[[-67.1669, 45.1687], [-67.1674, 45.1689], [-67.167, 45.1686], [-67.1669, 45.1687]]], [[[-67.4184, 45.3756], [-67.4186, 45.3758], [-67.419, 45.3756], [-67.4184, 45.3756]]], [[[-67.4295, 45.3716], [-67.4293, 45.3719], [-67.4298, 45.3717], [-67.4295, 45.3716]]], [[[-67.4718, 45.4246], [-67.472, 45.4249], [-67.4724, 45.4249], [-67.4718, 45.4246]]], [[[-67.3969, 45.1571], [-67.397, 45.1573], [-67.3973, 45.1571], [-67.3969, 45.1571]]], [[[-67.2956, 45.1705], [-67.295, 45.1707], [-67.2958, 45.1706], [-67.2956, 45.1705]]], [[[-67.3109, 45.1454], [-67.3105, 45.1455], [-67.3113, 45.1455], [-67.3109, 45.1454]]], [[[-67.4737, 45.2886], [-67.4731, 45.2892], [-67.4737, 45.2886]]], [[[-66.9355, 44.9908], [-66.9354, 44.9911], [-66.9358, 44.9912], [-66.9355, 44.9908]]], [[[-66.7623, 44.5774], [-66.7625, 44.5774], [-66.7625, 44.5769], [-66.7623, 44.5774]]], [[[-67.4242, 45.3828], [-67.4245, 45.3834], [-67.4243, 45.3827], [-67.4242, 45.3828]]], [[[-66.8031, 45.195], [-66.8032, 45.1954], [-66.8034, 45.1952], [-66.8031, 45.195]]], [[[-66.6298, 45.0925], [-66.6296, 45.0928], [-66.6301, 45.0929], [-66.6298, 45.0925]]], [[[-66.8729, 44.9907], [-66.8725, 44.9911], [-66.8732, 44.9908], [-66.8729, 44.9907]]], [[[-67.43, 45.3712], [-67.4298, 45.3716], [-67.4302, 45.3715], [-67.43, 45.3712]]], [[[-67.4674, 45.2989], [-67.4671, 45.2992], [-67.4678, 45.2988], [-67.4674, 45.2989]]], [[[-66.9164, 44.9702], [-66.9161, 44.9707], [-66.9167, 44.9702], [-66.9164, 44.9702]]], [[[-66.4931, 45.1828], [-66.4933, 45.1833], [-66.4936, 45.1833], [-66.4931, 45.1828]]], [[[-66.9411, 45.031], [-66.9408, 45.0313], [-66.9416, 45.0313], [-66.9411, 45.031]]], [[[-66.9122, 45.0054], [-66.912, 45.0056], [-66.9123, 45.0058], [-66.9122, 45.0054]]], [[[-66.4948, 45.0796], [-66.4945, 45.0799], [-66.4949, 45.0798], [-66.4948, 45.0796]]], [[[-66.9976, 45.1419], [-66.9979, 45.1423], [-66.9982, 45.1423], [-66.9976, 45.1419]]], [[[-66.7138, 44.9749], [-66.7136, 44.975], [-66.7142, 44.9753], [-66.7138, 44.9749]]], [[[-66.9024, 44.9569], [-66.9022, 44.9574], [-66.9026, 44.9572], [-66.9024, 44.9569]]], [[[-66.9478, 44.9778], [-66.9476, 44.9782], [-66.9481, 44.978], [-66.9478, 44.9778]]], [[[-66.4591, 45.0572], [-66.4588, 45.0576], [-66.4592, 45.0573], [-66.4591, 45.0572]]], [[[-66.8833, 45.1094], [-66.8834, 45.1098], [-66.8836, 45.1096], [-66.8833, 45.1094]]], [[[-66.9077, 44.9315], [-66.9074, 44.9319], [-66.9079, 44.9318], [-66.9077, 44.9315]]], [[[-66.821, 45.0288], [-66.8209, 45.0294], [-66.8214, 45.029], [-66.821, 45.0288]]], [[[-67.3221, 45.1328], [-67.3214, 45.1334], [-67.3221, 45.1328]]], [[[-67.3193, 45.1451], [-67.319, 45.1456], [-67.3194, 45.1454], [-67.3193, 45.1451]]], [[[-67.4733, 45.4249], [-67.473, 45.4252], [-67.4735, 45.4254], [-67.4733, 45.4249]]], [[[-66.8699, 44.9922], [-66.8695, 44.9925], [-66.8703, 44.9923], [-66.8699, 44.9922]]], [[[-66.7378, 44.9462], [-66.7374, 44.9463], [-66.7383, 44.9465], [-66.7378, 44.9462]]], [[[-67.4674, 45.4986], [-67.4685, 45.4991], [-67.4674, 45.4986]]], [[[-67.1841, 45.2259], [-67.1847, 45.2258], [-67.1839, 45.2256], [-67.1841, 45.2259]]], [[[-66.9336, 44.9569], [-66.934, 44.9576], [-66.9336, 44.9569]]], [[[-66.8316, 45.0755], [-66.8324, 45.0759], [-66.8316, 45.0755]]], [[[-66.9056, 45.0039], [-66.9051, 45.0048], [-66.9056, 45.0039]]], [[[-67.4643, 45.496], [-67.4637, 45.4966], [-67.4643, 45.496]]], [[[-67.031, 45.1544], [-67.0314, 45.1551], [-67.031, 45.1544]]], [[[-66.7145, 44.9753], [-66.7142, 44.9756], [-66.7147, 44.9758], [-66.7145, 44.9753]]], [[[-66.7371, 44.7018], [-66.7372, 44.7025], [-66.7374, 44.7015], [-66.7371, 44.7018]]], [[[-67.3964, 45.1575], [-67.3975, 45.1576], [-67.3964, 45.1575]]], [[[-66.934, 45.0173], [-66.9335, 45.0177], [-66.9343, 45.0175], [-66.934, 45.0173]]], [[[-66.7994, 45.0887], [-66.7992, 45.0891], [-66.7999, 45.0889], [-66.7994, 45.0887]]], [[[-66.4939, 45.0805], [-66.4936, 45.0809], [-66.4944, 45.0809], [-66.4939, 45.0805]]], [[[-66.6864, 44.6271], [-66.6871, 44.6275], [-66.6864, 44.6271]]], [[[-66.6923, 44.9859], [-66.6929, 44.9856], [-66.692, 44.9855], [-66.6923, 44.9859]]], [[[-66.9024, 44.9816], [-66.9017, 44.9821], [-66.9024, 44.9816]]], [[[-66.4862, 45.0977], [-66.4858, 45.0983], [-66.4864, 45.098], [-66.4862, 45.0977]]], [[[-67.4589, 45.4198], [-67.4598, 45.42], [-67.4589, 45.4198]]], [[[-66.8607, 45.0414], [-66.8603, 45.0419], [-66.8612, 45.0417], [-66.8607, 45.0414]]], [[[-66.7351, 44.7039], [-66.7353, 44.7046], [-66.7356, 44.7043], [-66.7351, 44.7039]]], [[[-66.9435, 44.9492], [-66.9444, 44.9485], [-66.9435, 44.9492]]], [[[-66.905, 44.976], [-66.906, 44.9759], [-66.905, 44.976]]], [[[-67.4841, 45.4946], [-67.4847, 45.4951], [-67.4841, 45.4946]]], [[[-67.0018, 44.9947], [-67.0023, 44.9949], [-67.0015, 44.9943], [-67.0018, 44.9947]]], [[[-66.8037, 45.2045], [-66.8034, 45.2049], [-66.804, 45.205], [-66.8037, 45.2045]]], [[[-66.7925, 45.087], [-66.7923, 45.0876], [-66.793, 45.0874], [-66.7925, 45.087]]], [[[-66.9615, 44.8406], [-66.9618, 44.8414], [-66.9615, 44.8406]]], [[[-66.9204, 45.0585], [-66.9195, 45.0579], [-66.9204, 45.0585]]], [[[-66.7421, 44.6428], [-66.7415, 44.6432], [-66.7428, 44.6428], [-66.7421, 44.6428]]], [[[-66.9634, 45.1681], [-66.9637, 45.169], [-66.9634, 45.1681]]], [[[-66.6837, 44.6294], [-66.6835, 44.6301], [-66.684, 44.63], [-66.6837, 44.6294]]], [[[-66.6134, 45.1052], [-66.6139, 45.1059], [-66.6134, 45.1052]]], [[[-66.4844, 45.0927], [-66.4836, 45.0935], [-66.4844, 45.0927]]], [[[-66.9148, 44.9917], [-66.9152, 44.991], [-66.9148, 44.9917]]], [[[-66.4702, 45.1276], [-66.4698, 45.1281], [-66.4707, 45.1279], [-66.4702, 45.1276]]], [[[-66.7293, 44.6186], [-66.7298, 44.6196], [-66.7293, 44.6186]]], [[[-67.0003, 44.9856], [-66.9998, 44.9861], [-67.0008, 44.9859], [-67.0003, 44.9856]]], [[[-66.8446, 45.2296], [-66.8446, 45.2303], [-66.8449, 45.229], [-66.8446, 45.2296]]], [[[-66.8303, 45.0754], [-66.8311, 45.0755], [-66.8303, 45.0754]]], [[[-66.7951, 45.1488], [-66.795, 45.1493], [-66.7958, 45.149], [-66.7951, 45.1488]], [[-66.7792, 45.0778], [-66.7781, 45.0784], [-66.7792, 45.0778]]], [[[-66.8222, 45.0387], [-66.823, 45.0383], [-66.8222, 45.0387]]], [[[-66.783, 45.0763], [-66.7828, 45.077], [-66.7836, 45.0766], [-66.783, 45.0763]]], [[[-66.9265, 44.9383], [-66.926, 44.9391], [-66.9265, 44.9383]]], [[[-66.9117, 45.0421], [-66.912, 45.0428], [-66.9117, 45.0421]]], [[[-66.9143, 44.9893], [-66.9153, 44.989], [-66.9143, 44.9893]]], [[[-66.9237, 44.9743], [-66.923, 44.975], [-66.9237, 44.9743]]], [[[-66.8416, 45.2336], [-66.8413, 45.2347], [-66.8416, 45.2336]]], [[[-66.8764, 45.1108], [-66.8751, 45.1114], [-66.8764, 45.1108]]], [[[-66.9324, 45.0234], [-66.9336, 45.0239], [-66.9324, 45.0234]]], [[[-66.4937, 45.088], [-66.4929, 45.0892], [-66.4937, 45.088]]], [[[-66.6823, 44.6311], [-66.6833, 44.6309], [-66.6823, 44.6311]]], [[[-66.9081, 45.0018], [-66.9077, 45.0028], [-66.9081, 45.0018]]], [[[-66.7981, 45.0811], [-66.7991, 45.0815], [-66.7981, 45.0811]]], [[[-67.4759, 45.4301], [-67.4768, 45.4308], [-67.4759, 45.4301]]], [[[-66.9694, 44.9206], [-66.9701, 44.9198], [-66.9694, 44.9206]]], [[[-66.9453, 44.894], [-66.946, 44.8949], [-66.9453, 44.894]]], [[[-66.9012, 44.9577], [-66.902, 44.957], [-66.9007, 44.9571], [-66.9012, 44.9577]]], [[[-66.909, 45.0524], [-66.91, 45.0529], [-66.909, 45.0524]]], [[[-66.8597, 45.031], [-66.8585, 45.032], [-66.8597, 45.031]]], [[[-66.8989, 44.9578], [-66.9005, 44.9578], [-66.8989, 44.9578]]], [[[-66.8063, 44.6026], [-66.8072, 44.6028], [-66.8066, 44.6018], [-66.8063, 44.6026]]], [[[-66.8415, 44.61], [-66.8413, 44.6108], [-66.8424, 44.6104], [-66.8415, 44.61]]], [[[-67.4696, 45.4228], [-67.4711, 45.4234], [-67.4696, 45.4228]]], [[[-66.7372, 44.6803], [-66.7368, 44.681], [-66.7378, 44.6808], [-66.7372, 44.6803]]], [[[-66.788, 45.1648], [-66.7871, 45.1648], [-66.788, 45.1648]]], [[[-67.3098, 45.1453], [-67.3089, 45.1448], [-67.3098, 45.1453]]], [[[-67.0098, 45.1522], [-67.011, 45.1523], [-67.0095, 45.1514], [-67.0098, 45.1522]]], [[[-66.8453, 45.2267], [-66.8456, 45.2289], [-66.8453, 45.2267]]], [[[-66.962, 44.842], [-66.9624, 44.8435], [-66.962, 44.842]]], [[[-66.9253, 45.0244], [-66.925, 45.0254], [-66.9262, 45.0244], [-66.9253, 45.0244]]], [[[-66.7234, 44.6869], [-66.7233, 44.6886], [-66.7234, 44.6869]]], [[[-66.9668, 44.9186], [-66.9672, 44.9199], [-66.9668, 44.9186]]], [[[-66.7842, 45.0832], [-66.7842, 45.084], [-66.7853, 45.0834], [-66.7842, 45.0832]]], [[[-66.9425, 44.9837], [-66.944, 44.9837], [-66.943, 44.9829], [-66.9425, 44.9837]]], [[[-66.9645, 45.1542], [-66.9659, 45.1555], [-66.9645, 45.1542]]], [[[-66.7983, 45.0842], [-66.7973, 45.0848], [-66.7992, 45.0847], [-66.7983, 45.0842]]], [[[-66.9658, 44.9231], [-66.9652, 44.9246], [-66.9658, 44.9231]]], [[[-66.7599, 45.048], [-66.7604, 45.0468], [-66.7599, 45.048]]], [[[-66.8339, 45.0688], [-66.8344, 45.0699], [-66.8353, 45.0695], [-66.8339, 45.0688]]], [[[-66.4948, 45.184], [-66.4939, 45.183], [-66.4948, 45.184]]], [[[-67.4592, 45.4188], [-67.4606, 45.4197], [-67.4592, 45.4188]]], [[[-66.8671, 45.0262], [-66.8653, 45.0273], [-66.8671, 45.0262]]], [[[-66.7329, 44.6834], [-66.7347, 44.6834], [-66.7329, 44.6834]]], [[[-67.1747, 45.2077], [-67.174, 45.209], [-67.1755, 45.2083], [-67.1747, 45.2077]]], [[[-67.4778, 45.4348], [-67.478, 45.4364], [-67.4787, 45.4353], [-67.4778, 45.4348]]], [[[-67.3186, 45.1436], [-67.3159, 45.1448], [-67.3186, 45.1436]]], [[[-66.9637, 45.1434], [-66.9643, 45.1453], [-66.9637, 45.1434]]], [[[-66.9168, 44.9854], [-66.9163, 44.9867], [-66.9191, 44.986], [-66.9168, 44.9854]]], [[[-67.4716, 45.4237], [-67.4732, 45.4246], [-67.4716, 45.4237]]], [[[-66.4875, 45.1403], [-66.4869, 45.1414], [-66.4885, 45.1411], [-66.4875, 45.1403]]], [[[-67.4305, 45.3487], [-67.4291, 45.3509], [-67.4309, 45.3501], [-67.4305, 45.3487]]], [[[-66.9254, 45.0098], [-66.9257, 45.011], [-66.9271, 45.0103], [-66.9254, 45.0098]]], [[[-67.2941, 45.1707], [-67.2918, 45.1716], [-67.2941, 45.1707]]], [[[-66.7326, 44.6861], [-66.7345, 44.6849], [-66.7334, 44.6846], [-66.7326, 44.6861]]], [[[-67.0109, 45.1203], [-67.0104, 45.1216], [-67.0127, 45.1214], [-67.0109, 45.1203]]], [[[-66.483, 45.1764], [-66.4854, 45.1776], [-66.483, 45.1764]]], [[[-66.9034, 45.0387], [-66.9051, 45.038], [-66.9032, 45.0377], [-66.9034, 45.0387]]], [[[-66.8326, 45.0432], [-66.8348, 45.0416], [-66.8326, 45.0432]]], [[[-66.7964, 45.1987], [-66.7966, 45.1956], [-66.7964, 45.1987]]], [[[-67.3199, 45.1459], [-67.3218, 45.1456], [-67.3199, 45.1459]]], [[[-67.3558, 45.1321], [-67.3543, 45.1303], [-67.3558, 45.1321]]], [[[-66.9531, 44.9457], [-66.9542, 44.9434], [-66.9527, 44.9437], [-66.9531, 44.9457]]], [[[-66.9288, 45.0252], [-66.9296, 45.0248], [-66.927, 45.024], [-66.9288, 45.0252]]], [[[-67.3207, 45.1444], [-67.3222, 45.1443], [-67.3207, 45.1444]]], [[[-66.8615, 45.0343], [-66.8598, 45.0363], [-66.8615, 45.0343]]], [[[-66.9973, 45.141], [-66.9976, 45.1399], [-66.9961, 45.1394], [-66.9973, 45.141]]], [[[-66.8621, 45.0289], [-66.8601, 45.0307], [-66.8624, 45.03], [-66.8621, 45.0289]]], [[[-66.9067, 44.9916], [-66.9054, 44.9921], [-66.9056, 44.9933], [-66.9067, 44.9916]]], [[[-66.8706, 44.9929], [-66.8733, 44.9909], [-66.8706, 44.9929]]], [[[-66.8411, 44.603], [-66.8426, 44.6049], [-66.8427, 44.6036], [-66.8411, 44.603]]], [[[-67.4756, 45.2706], [-67.4751, 45.2671], [-67.4756, 45.2706]]], [[[-66.7256, 44.9647], [-66.7274, 44.9646], [-66.726, 44.9638], [-66.7256, 44.9647]]], [[[-66.8325, 45.0393], [-66.8319, 45.0407], [-66.8341, 45.0396], [-66.8325, 45.0393]]], [[[-66.9193, 45.1345], [-66.9221, 45.1345], [-66.9207, 45.1335], [-66.9193, 45.1345]]], [[[-66.506, 45.1025], [-66.5041, 45.1054], [-66.506, 45.1025]]], [[[-66.8598, 45.046], [-66.862, 45.0447], [-66.8588, 45.0454], [-66.8598, 45.046]]], [[[-66.8068, 45.0403], [-66.8092, 45.0386], [-66.8067, 45.039], [-66.8068, 45.0403]]], [[[-66.8423, 44.7449], [-66.8379, 44.7522], [-66.8423, 44.7449]]], [[[-67.4261, 45.1951], [-67.4262, 45.1967], [-67.4281, 45.1962], [-67.4261, 45.1951]]], [[[-66.9127, 44.9741], [-66.9152, 44.9722], [-66.9127, 44.9741]]], [[[-66.8477, 45.0336], [-66.8497, 45.0318], [-66.8473, 45.0319], [-66.8477, 45.0336]]], [[[-67.4342, 45.2201], [-67.4356, 45.2201], [-67.4353, 45.2178], [-67.4342, 45.2201]]], [[[-66.8316, 45.0472], [-66.8329, 45.0438], [-66.8316, 45.0472]]], [[[-66.9366, 45.0357], [-66.9395, 45.0351], [-66.937, 45.0345], [-66.9366, 45.0357]]], [[[-66.9608, 45.1552], [-66.9615, 45.1581], [-66.9622, 45.156], [-66.9608, 45.1552]]], [[[-66.7523, 44.614], [-66.7522, 44.61], [-66.7523, 44.614]], [[-66.5708, 45.1055], [-66.5684, 45.1041], [-66.5708, 45.1055]]], [[[-66.7602, 44.6183], [-66.7616, 44.6208], [-66.7628, 44.6182], [-66.7602, 44.6183]]], [[[-66.7985, 45.0832], [-66.8026, 45.0835], [-66.7985, 45.0832]]], [[[-66.962, 45.1386], [-66.9618, 45.1419], [-66.962, 45.1386]]], [[[-67.3504, 45.1296], [-67.3542, 45.1313], [-67.3504, 45.1296]]], [[[-66.7185, 44.7148], [-66.7209, 44.7139], [-66.7186, 44.7123], [-66.7185, 44.7148]]], [[[-66.9105, 45.0549], [-66.9131, 45.0552], [-66.9113, 45.0537], [-66.9105, 45.0549]]], [[[-66.907, 45.0004], [-66.9095, 44.9978], [-66.907, 45.0004]]], [[[-67.1432, 45.2004], [-67.1449, 45.203], [-67.1432, 45.2004]]], [[[-66.9296, 45.0327], [-66.9321, 45.0327], [-66.932, 45.0311], [-66.9296, 45.0327]]], [[[-66.7999, 45.0858], [-66.8028, 45.0869], [-66.7999, 45.0858]]], [[[-66.4592, 45.058], [-66.4589, 45.0627], [-66.4592, 45.058]]], [[[-66.8985, 45.0541], [-66.9038, 45.0537], [-66.8985, 45.0541]]], [[[-66.7093, 44.7091], [-66.7129, 44.7098], [-66.7093, 44.7091]]], [[[-66.5043, 45.1086], [-66.5082, 45.1049], [-66.5043, 45.1086]]], [[[-66.787, 45.17], [-66.7862, 45.1729], [-66.787, 45.17]]], [[[-66.7269, 44.96], [-66.7323, 44.9584], [-66.7269, 44.96]]], [[[-66.7852, 45.0756], [-66.7906, 45.073], [-66.7852, 45.0756]]], [[[-66.94, 44.9936], [-66.9431, 44.9894], [-66.94, 44.9936]]], [[[-66.9008, 44.9846], [-66.9064, 44.9841], [-66.9008, 44.9846]]], [[[-66.7927, 45.082], [-66.7987, 45.0804], [-66.7927, 45.082]]], [[[-66.9076, 45.0578], [-66.9116, 45.0574], [-66.9076, 45.0578]]], [[[-66.831, 45.1585], [-66.8336, 45.16], [-66.831, 45.1585]]], [[[-66.9465, 44.9766], [-66.9527, 44.9691], [-66.9465, 44.9766]]], [[[-66.6126, 45.1015], [-66.6142, 45.0967], [-66.6126, 45.1015]]], [[[-66.9645, 45.1419], [-66.9677, 45.1401], [-66.9635, 45.1385], [-66.9645, 45.1419]]], [[[-66.9045, 44.9755], [-66.9116, 44.969], [-66.9045, 44.9755]]], [[[-66.7695, 44.5846], [-66.7669, 44.5786], [-66.7695, 44.5846]]], [[[-66.9256, 45.0345], [-66.9292, 45.0314], [-66.9256, 45.0345]]], [[[-66.8228, 45.0469], [-66.8289, 45.0425], [-66.8228, 45.0469]]], [[[-66.8604, 45.0275], [-66.867, 45.0233], [-66.8604, 45.0275]]], [[[-66.5408, 45.1212], [-66.5448, 45.1173], [-66.5408, 45.1212]]], [[[-66.9241, 45.0148], [-66.9328, 45.0159], [-66.9241, 45.0148]]], [[[-66.9939, 45.1243], [-67.0014, 45.1227], [-66.9939, 45.1243]]], [[[-66.8964, 45.006], [-66.905, 45.0044], [-66.8964, 45.006]]], [[[-66.9288, 44.9582], [-66.9368, 44.9543], [-66.9288, 44.9582]]], [[[-66.4593, 45.1312], [-66.4696, 45.1291], [-66.4593, 45.1312]]], [[[-66.8976, 45.0155], [-66.9091, 45.0118], [-66.8976, 45.0155]]], [[[-66.7622, 44.5976], [-66.7683, 44.5922], [-66.7615, 44.5928], [-66.7622, 44.5976]]], [[[-66.9085, 45.0049], [-66.916, 44.9978], [-66.9085, 45.0049]]], [[[-66.7329, 44.9547], [-66.7373, 44.9505], [-66.7301, 44.9498], [-66.7329, 44.9547]]], [[[-66.6954, 44.6913], [-66.693, 44.6832], [-66.6954, 44.6913]]], [[[-66.8983, 44.9539], [-66.9065, 44.9493], [-66.8967, 44.9467], [-66.8983, 44.9539]]], [[[-66.9157, 45.0335], [-66.9213, 45.0259], [-66.9129, 45.0292], [-66.9157, 45.0335]]], [[[-66.9593, 45.1548], [-66.9612, 45.1492], [-66.9517, 45.1429], [-66.9593, 45.1548]]], [[[-66.7208, 44.7009], [-66.7289, 44.697], [-66.7212, 44.6925], [-66.7208, 44.7009]]], [[[-67.182, 45.2209], [-67.1828, 45.2122], [-67.1755, 45.2127], [-67.182, 45.2209]]], [[[-66.7302, 44.9454], [-66.7381, 44.9446], [-66.7346, 44.9367], [-66.7302, 44.9454]]], [[[-66.8238, 45.036], [-66.8337, 45.027], [-66.8217, 45.0315], [-66.8238, 45.036]]], [[[-66.7252, 44.7365], [-66.716, 44.7224], [-66.7252, 44.7365]]], [[[-66.9667, 44.9358], [-66.975, 44.9231], [-66.9667, 44.9358]]], [[[-66.8112, 44.6108], [-66.826, 44.6056], [-66.8112, 44.6108]]], [[[-67.0511, 45.0624], [-67.065, 45.0652], [-67.0432, 45.0545], [-67.0511, 45.0624]]], [[[-66.9284, 45.0035], [-66.9364, 45.0021], [-66.9373, 44.9937], [-66.9284, 45.0035]]], [[[-66.8285, 45.0263], [-66.8506, 45.0184], [-66.8285, 45.0263]]], [[[-66.7552, 44.5931], [-66.7576, 44.5677], [-66.7552, 44.5931]]], [[[-66.7118, 44.6606], [-66.7338, 44.6468], [-66.7118, 44.6606]]], [[[-66.9412, 45.0359], [-66.9632, 45.0237], [-66.9412, 45.0359]]], [[[-66.9267, 45.0541], [-66.9372, 45.0378], [-66.9117, 45.0406], [-66.9267, 45.0541]]], [[[-67.0435, 45.1183], [-67.032, 45.0969], [-67.0435, 45.1183]]], [[[-66.6931, 44.9856], [-66.7183, 44.9694], [-66.6931, 44.9856]]], [[[-66.8151, 44.632], [-66.8406, 44.612], [-66.8151, 44.632]]], [[[-66.8365, 45.0665], [-66.8573, 45.0299], [-66.8365, 45.0665]]], [[[-66.7304, 44.6812], [-66.7429, 44.6533], [-66.7304, 44.6812]]], [[[-66.693, 44.6452], [-66.7269, 44.6219], [-66.6917, 44.6179], [-66.693, 44.6452]]], [[[-66.4592, 45.1251], [-66.4794, 45.1174], [-66.4661, 45.0658], [-66.4592, 45.1251]]], [[[-66.9391, 45.0247], [-67.0213, 44.9763], [-66.9848, 44.9253], [-66.9391, 45.0247]]], [[[-66.9031, 44.9572], [-66.9433, 44.9283], [-66.9175, 44.9124], [-66.9457, 44.8866], [-66.932, 44.9103], [-66.9506, 44.9129], [-66.9801, 44.8666], [-66.9527, 44.8364], [-66.9228, 44.8359], [-66.9308, 44.8712], [-66.8899, 44.9109], [-66.9024, 44.943], [-66.9281, 44.9374], [-66.9031, 44.9572]]], [[[-66.7756, 44.7996], [-66.8611, 44.7226], [-66.9045, 44.598], [-66.8389, 44.6514], [-66.7611, 44.6552], [-66.773, 44.684], [-66.7375, 44.6817], [-66.7638, 44.7539], [-66.7312, 44.7634], [-66.7756, 44.7996]]], [[[-66.4613, 45.3788], [-66.4602, 45.4972], [-67.4503, 45.5101], [-67.5032, 45.4895], [-67.418, 45.3754], [-67.3515, 45.3792], [-67.427, 45.3733], [-67.4289, 45.3431], [-67.4865, 45.2852], [-67.3941, 45.178], [-67.4027, 45.1596], [-67.3456, 45.127], [-67.3183, 45.1377], [-67.3371, 45.1594], [-67.2963, 45.1486], [-67.2649, 45.2038], [-67.2255, 45.1649], [-67.1608, 45.1687], [-67.2018, 45.1874], [-67.1812, 45.1899], [-67.19, 45.237], [-67.1478, 45.1784], [-67.1393, 45.2247], [-67.1314, 45.1399], [-67.083, 45.0765], [-67.0381, 45.0691], [-67.0687, 45.1312], [-67.0321, 45.1255], [-67.0489, 45.1562], [-67.034, 45.1683], [-66.9842, 45.1463], [-66.991, 45.1894], [-66.969, 45.15], [-66.971, 45.1826], [-66.9443, 45.2035], [-67.0, 45.2521], [-66.944, 45.2136], [-66.9559, 45.1617], [-66.8935, 45.1127], [-66.825, 45.1272], [-66.842, 45.1905], [-66.8634, 45.1982], [-66.8204, 45.25], [-66.8515, 45.2224], [-66.8482, 45.1701], [-66.803, 45.1625], [-66.7957, 45.1908], [-66.8173, 45.1992], [-66.7849, 45.208], [-66.7779, 45.1487], [-66.843, 45.1577], [-66.8203, 45.1238], [-66.8913, 45.1], [-66.9149, 45.1126], [-66.9204, 45.0717], [-66.8919, 45.0382], [-66.8504, 45.0796], [-66.8142, 45.0636], [-66.815, 45.0954], [-66.7662, 45.1257], [-66.7954, 45.0929], [-66.7721, 45.0803], [-66.7811, 45.0624], [-66.8188, 45.0508], [-66.7881, 45.0603], [-66.8062, 45.0406], [-66.7365, 45.0556], [-66.7343, 45.094], [-66.7114, 45.085], [-66.7176, 45.0566], [-66.6471, 45.0771], [-66.6098, 45.1148], [-66.5819, 45.0989], [-66.5924, 45.1235], [-66.5336, 45.1357], [-66.5205, 45.118], [-66.4624, 45.1677], [-66.5, 45.1938], [-66.4614, 45.1678], [-66.5005, 45.1278], [-66.4593, 45.1334], [-66.4613, 45.3788]]]]}}, {"type": "Feature", "properties": {"osm_type": "relation", "osm_id": 270097365, "name": "Sunbury", "admin_level": "6", "kind": "subdivision_2", "parent_osm_id": 68942, "parent_name": "New Brunswick", "parent_iso": "CA-NB"}, "geometry": {"type": "Polygon", "coordinates": [[[-65.8568, 46.3325], [-66.1645, 46.3965], [-66.5833, 45.9118], [-66.5511, 45.8954], [-66.6018, 45.8895], [-66.9363, 45.5026], [-66.5635, 45.4988], [-66.0867, 46.0566], [-66.1043, 46.0893], [-66.0902, 46.1153], [-66.0374, 46.117], [-65.8568, 46.3325]]]}}, {"type": "Feature", "properties": {"osm_type": "relation", "osm_id": 453723145, "name": "Queens", "admin_level": "6", "kind": "subdivision_2", "parent_osm_id": 68942, "parent_name": "New Brunswick", "parent_iso": "CA-NB"}, "geometry": {"type": "Polygon", "coordinates": [[[-65.4128, 46.2501], [-65.8538, 46.3366], [-66.0374, 46.117], [-66.0902, 46.1153], [-66.1043, 46.0893], [-66.0867, 46.0566], [-66.5635, 45.4988], [-66.4602, 45.4972], [-66.4597, 45.3126], [-65.3426, 46.0988], [-65.4128, 46.2501]]]}}, {"type": "Feature", "properties": {"osm_type": "relation", "osm_id": 142571195, "name": "Kings", "admin_level": "6", "kind": "subdivision_2", "parent_osm_id": 68942, "parent_name": "New Brunswick", "parent_iso": "CA-NB"}, "geometry": {"type": "Polygon", "coordinates": [[[-65.1626, 45.7148], [-65.3426, 46.0988], [-66.4597, 45.3126], [-66.4595, 45.2219], [-65.1194, 45.6151], [-65.1626, 45.7148]]]}}, {"type": "Feature", "properties": {"osm_type": "relation", "osm_id": 548080622, "name": "Albert", "admin_level": "6", "kind": "subdivision_2", "parent_osm_id": 68942, "parent_name": "New Brunswick", "parent_iso": "CA-NB"}, "geometry": {"type": "MultiPolygon", "coordinates": [[[[-64.5756, 45.8162], [-64.5757, 45.8165], [-64.5759, 45.8165], [-64.5756, 45.8162]]], [[[-64.574, 45.818], [-64.5741, 45.8182], [-64.5746, 45.818], [-64.574, 45.818]]], [[[-64.6116, 45.7247], [-64.6219, 45.7213], [-64.6116, 45.7247]]], [[[-64.7444, 46.0692], [-64.758, 46.0852], [-64.8777, 46.0528], [-64.8998, 46.006], [-64.8814, 46.052], [-64.9972, 46.0496], [-65.0343, 46.0221], [-65.0346, 45.8924], [-65.2238, 45.8437], [-65.0825, 45.5269], [-64.9671, 45.5663], [-64.957, 45.6089], [-64.909, 45.6051], [-64.8653, 45.6323], [-64.7932, 45.6191], [-64.7786, 45.6351], [-64.7792, 45.5935], [-64.6906, 45.6879], [-64.6935, 45.7124], [-64.6435, 45.7173], [-64.7201, 45.7497], [-64.7509, 45.7148], [-64.7467, 45.7452], [-64.6658, 45.7449], [-64.5717, 45.8202], [-64.5763, 45.8574], [-64.7059, 45.989], [-64.7045, 46.0357], [-64.7444, 46.0692]]]]}}, {"type": "Feature", "properties": {"osm_type": "relation", "osm_id": 285599658, "name": "Westmorland", "admin_level": "6", "kind": "subdivision_2", "parent_osm_id": 68942, "parent_name": "New Brunswick", "parent_iso": "CA-NB"}, "geometry": {"type": "MultiPolygon", "coordinates": [[[[-63.9887, 46.1754], [-63.9888, 46.1755], [-63.9888, 46.1753], [-63.9887, 46.1754]]], [[[-64.6283, 46.2663], [-64.6287, 46.2669], [-64.6287, 46.2666], [-64.6283, 46.2663]]], [[[-64.0861, 46.0492], [-64.0862, 46.0498], [-64.0863, 46.0493], [-64.0861, 46.0492]]], [[[-64.4727, 46.2322], [-64.4733, 46.2324], [-64.4734, 46.232], [-64.4727, 46.2322]]], [[[-64.0518, 46.1702], [-64.051, 46.1704], [-64.0518, 46.1702]]], [[[-64.0752, 46.0139], [-64.075, 46.0143], [-64.0754, 46.0145], [-64.0752, 46.0139]]], [[[-64.0526, 46.1718], [-64.0522, 46.1723], [-64.0531, 46.1716], [-64.0526, 46.1718]]], [[[-64.4457, 46.233], [-64.4452, 46.2324], [-64.4457, 46.233]]], [[[-64.47, 46.2338], [-64.4696, 46.2347], [-64.47, 46.2338]]], [[[-64.052, 46.1708], [-64.0521, 46.1718], [-64.052, 46.1708]]], [[[-63.7714, 46.1326], [-63.7706, 46.1339], [-63.7714, 46.1326]]], [[[-63.7737, 46.1309], [-63.773, 46.1323], [-63.7737, 46.1309]]], [[[-64.4377, 46.2339], [-64.4386, 46.2336], [-64.4377, 46.2339]]], [[[-64.0986, 46.0239], [-64.098, 46.025], [-64.0986, 46.0239]]], [[[-64.5499, 46.256], [-64.5483, 46.257], [-64.5499, 46.256]]], [[[-64.7711, 46.0951], [-64.7711, 46.0959], [-64.772, 46.0953], [-64.7711, 46.0951]]], [[[-64.6295, 46.2685], [-64.631, 46.2689], [-64.6284, 46.267], [-64.6295, 46.2685]]], [[[-63.8222, 46.1439], [-63.8196, 46.1424], [-63.8222, 46.1439]]], [[[-64.3424, 45.8938], [-64.3395, 45.8943], [-64.3424, 45.8938]]], [[[-64.4429, 46.2334], [-64.448, 46.2345], [-64.4429, 46.2334]]], [[[-64.0849, 46.0211], [-64.0815, 46.0251], [-64.0849, 46.0211]]], [[[-64.3564, 45.8825], [-64.3663, 45.8805], [-64.3554, 45.8727], [-64.3564, 45.8825]]], [[[-64.5304, 46.2661], [-64.549, 46.2702], [-64.5358, 46.2459], [-64.5304, 46.2661]]], [[[-63.8134, 46.163], [-63.883, 46.1439], [-63.9766, 46.1824], [-64.0395, 46.1821], [-64.0683, 46.1699], [-64.0424, 46.1637], [-64.0674, 46.1652], [-64.059, 46.1368], [-64.1187, 46.1842], [-64.1322, 46.1381], [-64.1474, 46.1712], [-64.1784, 46.1585], [-64.1719, 46.1821], [-64.1419, 46.1826], [-64.1658, 46.1994], [-64.2748, 46.2366], [-64.3622, 46.2252], [-64.3572, 46.1983], [-64.4152, 46.2375], [-64.5301, 46.2421], [-64.5131, 46.2325], [-64.5556, 46.2194], [-64.5654, 46.2734], [-64.6215, 46.2233], [-64.5976, 46.2623], [-64.6324, 46.2688], [-64.6555, 46.241], [-64.717, 46.2341], [-64.5743, 46.2788], [-64.8619, 46.252], [-64.7897, 46.2723], [-65.4164, 46.2568], [-65.2238, 45.8437], [-65.0346, 45.8924], [-65.0344, 46.0214], [-64.9988, 46.0496], [-64.8537, 46.0521], [-64.7684, 46.1009], [-64.7031, 46.0568], [-64.6959, 46.0021], [-64.5605, 45.8687], [-64.5295, 45.9241], [-64.5609, 45.9629], [-64.571, 46.0811], [-64.5258, 46.0924], [-64.5706, 46.0811], [-64.5712, 46.0164], [-64.5244, 45.9295], [-64.5423, 45.8567], [-64.489, 45.8068], [-64.5526, 45.728], [-64.5166, 45.7206], [-64.4241, 45.791], [-64.412, 45.8242], [-64.3315, 45.8694], [-64.3846, 45.8764], [-64.3337, 45.8819], [-64.35, 45.8872], [-64.3388, 45.9102], [-64.3145, 45.9033], [-64.3275, 45.9567], [-64.3131, 45.9038], [-64.3457, 45.8913], [-64.2975, 45.8824], [-64.3189, 45.8634], [-64.2749, 45.8385], [-64.1591, 45.9753], [-64.0468, 45.9768], [-64.0709, 46.0193], [-64.1115, 46.0175], [-64.0704, 46.0429], [-64.0863, 46.0511], [-63.9234, 46.0513], [-63.7726, 46.102], [-63.772, 46.1352], [-63.8312, 46.1445], [-63.8134, 46.163]]]]}}, {"type": "Feature", "properties": {"osm_type": "relation", "osm_id": 223166804, "name": "Kent", "admin_level": "6", "kind": "subdivision_2", "parent_osm_id": 68942, "parent_name": "New Brunswick", "parent_iso": "CA-NB"}, "geometry": {"type": "MultiPolygon", "coordinates": [[[[-64.7445, 46.3093], [-64.7447, 46.3095], [-64.745, 46.3093], [-64.7445, 46.3093]]], [[[-65.0214, 46.7905], [-65.0212, 46.7906], [-65.0218, 46.7906], [-65.0214, 46.7905]]], [[[-65.0624, 46.7925], [-65.0622, 46.7926], [-65.063, 46.7925], [-65.0624, 46.7925]]], [[[-64.8311, 47.0535], [-64.8309, 47.0538], [-64.8313, 47.0536], [-64.8311, 47.0535]]], [[[-64.7433, 46.3098], [-64.7431, 46.3099], [-64.7437, 46.3098], [-64.7433, 46.3098]]], [[[-64.8973, 46.9028], [-64.8978, 46.9029], [-64.8973, 46.9026], [-64.8973, 46.9028]]], [[[-64.8604, 46.3959], [-64.8605, 46.3961], [-64.8608, 46.3957], [-64.8604, 46.3959]]], [[[-64.7413, 46.6941], [-64.7413, 46.6943], [-64.7417, 46.6942], [-64.7413, 46.6941]]], [[[-64.6716, 46.5144], [-64.6711, 46.514], [-64.671, 46.5141], [-64.6716, 46.5144]]], [[[-64.875, 46.7804], [-64.875, 46.7805], [-64.8754, 46.7806], [-64.875, 46.7804]]], [[[-64.6424, 46.4417], [-64.6423, 46.4419], [-64.6426, 46.4419], [-64.6424, 46.4417]]], [[[-64.7516, 46.6997], [-64.7514, 46.6999], [-64.7518, 46.7], [-64.7516, 46.6997]]], [[[-64.9788, 46.8548], [-64.9794, 46.8549], [-64.9791, 46.8546], [-64.9788, 46.8548]]], [[[-64.7218, 46.3127], [-64.7211, 46.3129], [-64.7219, 46.3128], [-64.7218, 46.3127]]], [[[-64.7511, 46.3063], [-64.7512, 46.3067], [-64.7513, 46.3063], [-64.7511, 46.3063]]], [[[-64.8981, 46.902], [-64.8981, 46.9021], [-64.8987, 46.9022], [-64.8981, 46.902]]], [[[-64.7516, 46.3054], [-64.7515, 46.3059], [-64.7517, 46.3056], [-64.7516, 46.3054]]], [[[-64.7145, 46.3177], [-64.7143, 46.3179], [-64.7148, 46.3177], [-64.7145, 46.3177]]], [[[-64.7333, 46.6911], [-64.7332, 46.6914], [-64.7335, 46.6914], [-64.7333, 46.6911]]], [[[-64.6059, 46.4178], [-64.606, 46.4183], [-64.6062, 46.4179], [-64.6059, 46.4178]]], [[[-64.5301, 46.2989], [-64.5297, 46.2991], [-64.5303, 46.299], [-64.5301, 46.2989]]], [[[-64.8639, 46.6479], [-64.8635, 46.6483], [-64.8641, 46.6479], [-64.8639, 46.6479]]], [[[-64.8989, 46.9008], [-64.8989, 46.9012], [-64.8993, 46.9012], [-64.8989, 46.9008]]], [[[-65.1091, 46.5154], [-65.1098, 46.5158], [-65.1091, 46.5154]]], [[[-65.0889, 46.546], [-65.088, 46.5464], [-65.0889, 46.546]]], [[[-64.5691, 46.3329], [-64.5685, 46.3334], [-64.5691, 46.3329]]], [[[-64.7519, 46.699], [-64.7517, 46.6995], [-64.7521, 46.6995], [-64.7519, 46.699]]], [[[-65.0825, 46.5432], [-65.0836, 46.5439], [-65.0825, 46.5432]]], [[[-64.7134, 46.3173], [-64.7131, 46.3176], [-64.714, 46.3175], [-64.7134, 46.3173]]], [[[-65.0364, 46.7918], [-65.0376, 46.7922], [-65.0364, 46.7918]]], [[[-64.7229, 46.5932], [-64.7226, 46.5933], [-64.7236, 46.5933], [-64.7229, 46.5932]]], [[[-64.9084, 46.8228], [-64.909, 46.8233], [-64.9084, 46.8228]]], [[[-64.87, 46.3748], [-64.87, 46.3757], [-64.87, 46.3748]]], [[[-64.9478, 46.5811], [-64.9484, 46.5816], [-64.9478, 46.5811]]], [[[-64.8983, 46.9023], [-64.8972, 46.9022], [-64.8983, 46.9023]]], [[[-65.0844, 46.5447], [-65.0839, 46.5439], [-65.0844, 46.5447]]], [[[-65.0817, 46.5431], [-65.0809, 46.5427], [-65.0817, 46.5431]]], [[[-65.1043, 46.5136], [-65.1035, 46.5138], [-65.1043, 46.5136]]], [[[-64.8385, 47.0494], [-64.8385, 47.0502], [-64.8394, 47.0497], [-64.8385, 47.0494]]], [[[-64.8328, 47.0531], [-64.8305, 47.0543], [-64.8328, 47.0531]]], [[[-64.7348, 46.692], [-64.7362, 46.6922], [-64.7348, 46.692]]], [[[-64.8294, 46.9606], [-64.8286, 46.9617], [-64.8294, 46.9606]]], [[[-64.8935, 46.9145], [-64.8944, 46.915], [-64.8935, 46.9145]]], [[[-64.9008, 46.8995], [-64.8997, 46.9], [-64.9008, 46.8995]]], [[[-65.1029, 46.5143], [-65.1015, 46.5148], [-65.1029, 46.5143]]], [[[-64.718, 46.3137], [-64.7163, 46.315], [-64.718, 46.3137]]], [[[-65.0284, 46.7899], [-65.027, 46.7903], [-65.0284, 46.7899]]], [[[-64.5712, 46.3316], [-64.5692, 46.3327], [-64.5712, 46.3316]]], [[[-64.7132, 46.3164], [-64.7119, 46.3169], [-64.7132, 46.3164]]], [[[-65.0497, 46.791], [-65.0523, 46.7919], [-65.0497, 46.791]]], [[[-65.1164, 46.512], [-65.1154, 46.5141], [-65.1164, 46.512]]], [[[-64.9167, 46.8383], [-64.9162, 46.8399], [-64.9167, 46.8383]]], [[[-64.9051, 46.7293], [-64.9073, 46.729], [-64.9051, 46.7293]]], [[[-64.8743, 46.7762], [-64.8756, 46.7782], [-64.8743, 46.7762]]], [[[-65.1145, 46.5146], [-65.1108, 46.5159], [-65.1145, 46.5146]]], [[[-65.1197, 46.5071], [-65.1216, 46.508], [-65.1197, 46.5071]]], [[[-64.9116, 46.8373], [-64.9098, 46.8368], [-64.9116, 46.8373]]], [[[-64.8767, 46.7807], [-64.8773, 46.7823], [-64.8788, 46.7819], [-64.8767, 46.7807]]], [[[-64.8672, 46.6551], [-64.8695, 46.6551], [-64.8675, 46.6541], [-64.8672, 46.6551]]], [[[-64.9084, 46.8262], [-64.9084, 46.8278], [-64.9097, 46.8279], [-64.9084, 46.8262]]], [[[-64.9151, 46.837], [-64.9142, 46.8383], [-64.9155, 46.8387], [-64.9151, 46.837]]], [[[-65.0866, 46.5171], [-65.0856, 46.5179], [-65.0877, 46.5181], [-65.0866, 46.5171]]], [[[-64.9151, 46.835], [-64.9132, 46.8353], [-64.9144, 46.8367], [-64.9151, 46.835]]], [[[-64.7182, 46.4621], [-64.7183, 46.4642], [-64.7204, 46.4631], [-64.7182, 46.4621]]], [[[-64.9144, 46.8404], [-64.9193, 46.841], [-64.9144, 46.8404]]], [[[-64.6128, 46.386], [-64.6116, 46.3895], [-64.6128, 46.386]]], [[[-64.8735, 46.7782], [-64.8652, 46.7739], [-64.8735, 46.7782]]], [[[-64.8554, 46.7649], [-64.7897, 46.7154], [-64.8554, 46.7649]]], [[[-64.9095, 46.8353], [-64.8706, 46.7784], [-64.9095, 46.8353]]], [[[-64.5973, 46.3988], [-64.5841, 46.3686], [-64.5973, 46.3988]]], [[[-64.7581, 46.7002], [-64.7986, 46.697], [-64.7581, 46.7002]]], [[[-64.5601, 46.3672], [-64.5659, 46.3239], [-64.7321, 46.3148], [-64.7891, 46.2723], [-64.5325, 46.2898], [-64.5122, 46.3226], [-64.5601, 46.3672]]], [[[-64.8278, 47.0543], [-65.5854, 46.6312], [-65.8517, 46.3365], [-65.4164, 46.2568], [-64.7897, 46.2723], [-64.7452, 46.3095], [-64.7641, 46.3123], [-64.6172, 46.3374], [-64.629, 46.4383], [-64.6681, 46.4664], [-64.7277, 46.4193], [-64.6898, 46.4567], [-64.7148, 46.4716], [-64.8687, 46.3893], [-64.8991, 46.3573], [-64.8677, 46.3385], [-64.902, 46.2994], [-64.8667, 46.3425], [-64.9005, 46.3669], [-64.9429, 46.3709], [-64.9858, 46.3392], [-64.9434, 46.371], [-64.8711, 46.3735], [-64.7907, 46.4331], [-64.8003, 46.448], [-64.7708, 46.4398], [-64.6949, 46.4789], [-64.7228, 46.4818], [-64.7185, 46.4976], [-64.6741, 46.4868], [-64.692, 46.5304], [-64.6089, 46.4609], [-64.7226, 46.5838], [-64.759, 46.5656], [-64.72, 46.5833], [-64.7369, 46.5879], [-64.7077, 46.6601], [-64.7586, 46.7061], [-64.8045, 46.7069], [-64.7293, 46.6919], [-64.7554, 46.6829], [-64.7297, 46.659], [-64.7449, 46.6474], [-64.7782, 46.6705], [-64.7655, 46.6879], [-64.7949, 46.6843], [-64.8086, 46.6544], [-64.7818, 46.6892], [-64.8347, 46.6909], [-64.8619, 46.6511], [-64.8417, 46.6439], [-64.9168, 46.6162], [-64.8815, 46.5631], [-64.9098, 46.5778], [-64.9062, 46.5269], [-64.9102, 46.5474], [-64.9498, 46.5436], [-64.908, 46.5699], [-64.9196, 46.5981], [-65.0867, 46.5254], [-65.095, 46.5], [-65.0851, 46.516], [-65.2285, 46.5019], [-65.0904, 46.5155], [-65.053, 46.5419], [-65.0956, 46.5472], [-65.0445, 46.5387], [-65.0143, 46.5654], [-65.0742, 46.5788], [-64.9942, 46.5653], [-65.0031, 46.5908], [-64.9242, 46.5967], [-64.9139, 46.6253], [-64.946, 46.6436], [-64.9129, 46.6298], [-64.8687, 46.6466], [-64.8534, 46.6919], [-64.8759, 46.6823], [-64.849, 46.6955], [-64.89, 46.7152], [-64.9121, 46.6924], [-64.9023, 46.7201], [-64.9826, 46.6628], [-64.9113, 46.7432], [-64.8946, 46.7196], [-64.8235, 46.71], [-64.8183, 46.728], [-64.9006, 46.7454], [-64.8874, 46.7788], [-65.0, 46.7219], [-64.9161, 46.7628], [-64.9177, 46.8331], [-65.018, 46.7899], [-65.1124, 46.7888], [-65.157, 46.75], [-65.1122, 46.7892], [-65.0186, 46.7912], [-64.9343, 46.8315], [-64.9513, 46.8454], [-65.0016, 46.8234], [-64.9762, 46.8366], [-65.0078, 46.8393], [-64.964, 46.8422], [-64.9795, 46.8549], [-64.9565, 46.8464], [-64.9198, 46.8802], [-64.9031, 46.8848], [-64.91, 46.842], [-64.897, 46.8987], [-64.9158, 46.8928], [-64.8883, 46.916], [-64.916, 46.9306], [-64.8891, 46.9169], [-64.8123, 46.9754], [-64.8172, 47.0111], [-64.8502, 47.0096], [-64.8175, 47.0113], [-64.8278, 47.0543]]]]}}, {"type": "Feature", "properties": {"osm_type": "relation", "osm_id": 631782894, "name": "Northumberland", "admin_level": "6", "kind": "subdivision_2", "parent_osm_id": 68942, "parent_name": "New Brunswick", "parent_iso": "CA-NB"}, "geometry": {"type": "MultiPolygon", "coordinates": [[[[-64.8352, 47.052], [-64.8354, 47.052], [-64.8355, 47.0519], [-64.8352, 47.052]]], [[[-64.8378, 47.0506], [-64.8377, 47.0507], [-64.838, 47.0505], [-64.8378, 47.0506]]], [[[-65.1776, 46.8926], [-65.1776, 46.8929], [-65.1779, 46.8923], [-65.1776, 46.8926]]], [[[-65.4391, 47.2017], [-65.4393, 47.2017], [-65.4391, 47.2013], [-65.4391, 47.2017]]], [[[-65.44, 47.2089], [-65.44, 47.2092], [-65.4402, 47.2086], [-65.44, 47.2089]]], [[[-65.1317, 46.9425], [-65.132, 46.9429], [-65.132, 46.9425], [-65.1317, 46.9425]]], [[[-65.3784, 47.1229], [-65.3782, 47.1232], [-65.3787, 47.1229], [-65.3784, 47.1229]]], [[[-65.3748, 47.1139], [-65.375, 47.1142], [-65.3751, 47.1139], [-65.3748, 47.1139]]], [[[-65.3952, 47.0221], [-65.3951, 47.0224], [-65.3955, 47.0221], [-65.3952, 47.0221]]], [[[-65.3763, 47.1276], [-65.3766, 47.1281], [-65.3766, 47.1278], [-65.3763, 47.1276]]], [[[-65.1305, 46.9367], [-65.1306, 46.9372], [-65.1308, 46.9361], [-65.1305, 46.9367]]], [[[-65.3732, 47.1145], [-65.3728, 47.1148], [-65.3736, 47.1144], [-65.3732, 47.1145]]], [[[-64.9846, 47.2596], [-64.9841, 47.26], [-64.9849, 47.2596], [-64.9846, 47.2596]]], [[[-65.1368, 46.9237], [-65.1374, 46.9242], [-65.1368, 46.9237]]], [[[-65.0746, 47.2414], [-65.0742, 47.2418], [-65.0745, 47.242], [-65.0746, 47.2414]]], [[[-65.369, 47.0376], [-65.3679, 47.038], [-65.369, 47.0376]]], [[[-65.3769, 47.1525], [-65.3766, 47.1533], [-65.3769, 47.1525]]], [[[-64.9608, 47.2815], [-64.9607, 47.2821], [-64.9611, 47.2816], [-64.9608, 47.2815]]], [[[-64.9143, 47.3577], [-64.9143, 47.3581], [-64.9148, 47.3579], [-64.9143, 47.3577]]], [[[-64.9975, 47.2526], [-64.9989, 47.2528], [-64.9975, 47.2526]]], [[[-65.4956, 47.024], [-65.4951, 47.0243], [-65.496, 47.0242], [-65.4956, 47.024]]], [[[-65.373, 47.1586], [-65.3739, 47.1594], [-65.373, 47.1586]]], [[[-64.9355, 47.3088], [-64.9347, 47.3097], [-64.9355, 47.3088]]], [[[-65.4677, 47.0472], [-65.4685, 47.0472], [-65.4677, 47.0472]]], [[[-64.9209, 47.3378], [-64.9199, 47.3382], [-64.9209, 47.3378]]], [[[-65.1199, 46.9548], [-65.1198, 46.9557], [-65.1199, 46.9548]]], [[[-64.9723, 47.2749], [-64.9711, 47.2759], [-64.9723, 47.2749]]], [[[-64.9695, 47.2725], [-64.9674, 47.2741], [-64.9695, 47.2725]]], [[[-65.3774, 47.1185], [-65.3785, 47.1197], [-65.3774, 47.1185]]], [[[-65.2661, 47.0091], [-65.265, 47.0103], [-65.2661, 47.0091]]], [[[-64.9165, 47.3553], [-64.9154, 47.3563], [-64.9165, 47.3553]]], [[[-65.0319, 47.2096], [-65.031, 47.2104], [-65.0325, 47.2103], [-65.0319, 47.2096]]], [[[-64.9781, 47.0814], [-64.9777, 47.0822], [-64.9788, 47.0823], [-64.9781, 47.0814]]], [[[-65.1302, 46.9368], [-65.1285, 46.9383], [-65.1302, 46.9368]]], [[[-65.1353, 46.9124], [-65.1365, 46.9127], [-65.1353, 46.9124]]], [[[-64.8277, 47.0569], [-64.8294, 47.057], [-64.8285, 47.0555], [-64.8277, 47.0569]]], [[[-64.924, 47.3356], [-64.9219, 47.3367], [-64.924, 47.3356]]], [[[-64.9407, 47.3089], [-64.9406, 47.3099], [-64.9419, 47.3102], [-64.9407, 47.3089]]], [[[-65.3742, 47.1144], [-65.3737, 47.1153], [-65.3749, 47.1158], [-65.3742, 47.1144]]], [[[-64.8401, 47.0493], [-64.8454, 47.0462], [-64.8401, 47.0493]]], [[[-64.9645, 47.2815], [-64.9616, 47.2866], [-64.9645, 47.2815]]], [[[-65.2839, 47.0652], [-65.282, 47.0691], [-65.2839, 47.0652]]], [[[-64.9155, 47.3465], [-64.9157, 47.3511], [-64.9155, 47.3465]]], [[[-65.035, 47.1213], [-65.0405, 47.1211], [-65.035, 47.1213]]], [[[-64.9708, 47.276], [-64.9651, 47.2809], [-64.9708, 47.276]]], [[[-64.9806, 47.2629], [-64.9865, 47.2608], [-64.9806, 47.2629]]], [[[-64.9581, 47.0726], [-64.9592, 47.0774], [-64.9581, 47.0726]]], [[[-65.3588, 47.0876], [-65.3631, 47.0892], [-65.3588, 47.0876]]], [[[-64.9314, 47.3239], [-64.9326, 47.3303], [-64.9314, 47.3239]]], [[[-64.9178, 47.3442], [-64.9183, 47.3412], [-64.9178, 47.3442]]], [[[-65.4544, 47.0498], [-65.4508, 47.0528], [-65.4544, 47.0498]]], [[[-64.9563, 47.2837], [-64.9611, 47.2787], [-64.9563, 47.2837]]], [[[-64.9676, 47.2718], [-64.9612, 47.281], [-64.9737, 47.27], [-64.9676, 47.2718]]], [[[-64.9768, 47.2719], [-64.9845, 47.265], [-64.9768, 47.2719]]], [[[-64.9519, 47.3569], [-64.9594, 47.3595], [-64.9519, 47.3569]]], [[[-64.9973, 47.2529], [-64.9879, 47.2617], [-64.9973, 47.2529]]], [[[-64.9554, 47.286], [-64.9481, 47.3017], [-64.9554, 47.286]]], [[[-65.3229, 47.0869], [-65.3178, 47.0886], [-65.3229, 47.0869]]], [[[-64.9048, 47.3792], [-64.9095, 47.3803], [-64.9101, 47.3707], [-64.9048, 47.3792]]], [[[-65.0488, 47.1038], [-65.0397, 47.1064], [-65.0591, 47.1059], [-65.0488, 47.1038]]], [[[-65.0687, 47.2318], [-65.0954, 47.2261], [-65.0687, 47.2318]]], [[[-64.91, 47.3686], [-64.9409, 47.3], [-64.91, 47.3686]]], [[[-64.9978, 47.25], [-65.0326, 47.2076], [-64.9978, 47.25]]], [[[-65.1144, 47.0827], [-65.0767, 47.1018], [-65.1144, 47.0827]]], [[[-65.0332, 47.1672], [-65.0442, 47.1965], [-65.0516, 47.1675], [-65.0332, 47.1672]]], [[[-65.0242, 47.1272], [-64.9585, 47.0781], [-65.0242, 47.1272]]], [[[-65.0281, 47.3849], [-65.0413, 47.4125], [-65.8159, 47.2325], [-66.2174, 47.5509], [-67.0483, 47.3629], [-66.6841, 46.8364], [-66.4983, 46.5209], [-66.5978, 46.5962], [-66.822, 46.5746], [-66.9065, 46.5289], [-66.8556, 46.4165], [-66.7452, 46.458], [-66.6328, 46.412], [-66.5645, 46.4269], [-66.5178, 46.3887], [-66.5476, 46.3703], [-66.5789, 46.3831], [-66.5982, 46.3488], [-66.5693, 46.3404], [-66.5842, 46.3154], [-66.5098, 46.294], [-66.201, 46.3547], [-66.1645, 46.3965], [-65.8519, 46.3362], [-65.5854, 46.6312], [-64.7968, 47.0719], [-64.9448, 47.076], [-64.9872, 47.0317], [-65.016, 47.036], [-65.0081, 47.0096], [-65.0291, 47.0293], [-64.9954, 47.0486], [-65.0102, 47.0792], [-65.0287, 47.0616], [-65.0106, 47.0838], [-65.0719, 47.0614], [-65.1015, 47.0743], [-65.145, 47.0386], [-65.1031, 46.9935], [-65.1351, 46.9039], [-65.2368, 46.8756], [-65.1353, 46.9038], [-65.1414, 46.9281], [-65.1028, 46.9718], [-65.1446, 47.0439], [-65.1653, 47.0336], [-65.1543, 47.0124], [-65.1651, 47.0386], [-65.2126, 47.0405], [-65.1953, 47.0106], [-65.2253, 47.0253], [-65.306, 46.9824], [-65.2117, 47.0352], [-65.2388, 47.0389], [-65.2105, 47.0486], [-65.2055, 47.0822], [-65.275, 47.08], [-65.28, 47.0567], [-65.4012, 47.0188], [-65.3038, 47.063], [-65.3848, 47.0741], [-65.562, 47.0], [-65.3543, 47.094], [-65.3945, 47.116], [-65.3643, 47.1392], [-65.3761, 47.1748], [-65.4416, 47.2037], [-65.4109, 47.2391], [-65.4611, 47.229], [-65.4715, 47.2628], [-65.4617, 47.2294], [-65.4106, 47.2391], [-65.4413, 47.2036], [-65.3878, 47.1898], [-65.3637, 47.1398], [-65.3803, 47.1205], [-65.3485, 47.0897], [-65.1343, 47.1907], [-65.0997, 47.2179], [-65.1213, 47.2173], [-65.108, 47.2341], [-65.0149, 47.2861], [-64.9699, 47.2801], [-64.9706, 47.3464], [-64.9498, 47.3543], [-64.9883, 47.3497], [-65.0281, 47.3849]]]]}}, {"type": "Feature", "properties": {"osm_type": "relation", "osm_id": 737362749, "name": "York", "admin_level": "6", "kind": "subdivision_2", "parent_osm_id": 68942, "parent_name": "New Brunswick", "parent_iso": "CA-NB"}, "geometry": {"type": "MultiPolygon", "coordinates": [[[[-67.7177, 45.6999], [-67.7181, 45.7002], [-67.718, 45.7], [-67.7177, 45.6999]]], [[[-67.4152, 45.6164], [-67.415, 45.6166], [-67.4154, 45.6166], [-67.4152, 45.6164]]], [[[-67.3687, 45.6057], [-67.3686, 45.6059], [-67.3688, 45.6059], [-67.3687, 45.6057]]], [[[-67.4614, 45.6081], [-67.461, 45.6084], [-67.4615, 45.6082], [-67.4614, 45.6081]]], [[[-67.7161, 45.7059], [-67.7166, 45.7059], [-67.7162, 45.7057], [-67.7161, 45.7059]]], [[[-67.4213, 45.5739], [-67.4214, 45.5741], [-67.4217, 45.5741], [-67.4213, 45.5739]]], [[[-67.7897, 45.8011], [-67.7896, 45.8014], [-67.79, 45.8013], [-67.7897, 45.8011]]], [[[-67.6477, 45.6184], [-67.6478, 45.6185], [-67.6483, 45.6185], [-67.6477, 45.6184]]], [[[-67.7, 45.6788], [-67.6999, 45.679], [-67.7003, 45.6791], [-67.7, 45.6788]]], [[[-67.4927, 45.6834], [-67.4928, 45.6837], [-67.4931, 45.6836], [-67.4927, 45.6834]]], [[[-67.6504, 45.6234], [-67.6503, 45.6236], [-67.6506, 45.6238], [-67.6504, 45.6234]]], [[[-67.4703, 45.6115], [-67.4704, 45.6118], [-67.4706, 45.6117], [-67.4703, 45.6115]]], [[[-67.4566, 45.6219], [-67.4566, 45.6222], [-67.4569, 45.6222], [-67.4566, 45.6219]]], [[[-67.4223, 45.6152], [-67.4223, 45.6155], [-67.4227, 45.6154], [-67.4223, 45.6152]]], [[[-67.4638, 45.6098], [-67.4638, 45.6101], [-67.464, 45.6097], [-67.4638, 45.6098]]], [[[-67.5111, 45.6086], [-67.5113, 45.6089], [-67.5114, 45.6087], [-67.5111, 45.6086]]], [[[-67.4749, 45.6234], [-67.4751, 45.6236], [-67.4754, 45.6234], [-67.4749, 45.6234]]], [[[-67.4643, 45.6106], [-67.4645, 45.6111], [-67.4645, 45.6107], [-67.4643, 45.6106]]], [[[-67.502, 45.6029], [-67.5019, 45.6032], [-67.5023, 45.603], [-67.502, 45.6029]]], [[[-67.4727, 45.6194], [-67.4726, 45.6197], [-67.4729, 45.6198], [-67.4727, 45.6194]]], [[[-67.7902, 45.8013], [-67.7901, 45.8016], [-67.7905, 45.8016], [-67.7902, 45.8013]]], [[[-67.4226, 45.6157], [-67.4233, 45.616], [-67.4226, 45.6157]]], [[[-67.5866, 45.6065], [-67.5866, 45.6068], [-67.587, 45.6068], [-67.5866, 45.6065]]], [[[-67.5007, 45.6019], [-67.5008, 45.6022], [-67.5012, 45.6022], [-67.5007, 45.6019]]], [[[-67.4571, 45.6077], [-67.4568, 45.6079], [-67.4574, 45.6079], [-67.4571, 45.6077]]], [[[-67.4916, 45.6303], [-67.4915, 45.6306], [-67.4919, 45.6305], [-67.4916, 45.6303]]], [[[-67.4966, 45.6122], [-67.4967, 45.6126], [-67.497, 45.6125], [-67.4966, 45.6122]]], [[[-67.5876, 45.6206], [-67.5875, 45.6209], [-67.5881, 45.6208], [-67.5876, 45.6206]]], [[[-67.5155, 45.6016], [-67.5159, 45.602], [-67.5159, 45.6017], [-67.5155, 45.6016]]], [[[-67.4976, 45.6368], [-67.4977, 45.6373], [-67.4979, 45.6369], [-67.4976, 45.6368]]], [[[-67.5006, 45.6133], [-67.5008, 45.6138], [-67.501, 45.6134], [-67.5006, 45.6133]]], [[[-67.4899, 45.6027], [-67.4901, 45.603], [-67.4904, 45.6027], [-67.4899, 45.6027]]], [[[-67.4894, 45.6043], [-67.4894, 45.6046], [-67.4899, 45.6046], [-67.4894, 45.6043]]], [[[-67.5332, 45.607], [-67.5331, 45.6073], [-67.5334, 45.6074], [-67.5332, 45.607]]], [[[-67.4947, 45.6108], [-67.4954, 45.6111], [-67.4947, 45.6108]]], [[[-67.6479, 45.6216], [-67.6478, 45.6218], [-67.6484, 45.6219], [-67.6479, 45.6216]]], [[[-67.5103, 45.6186], [-67.5102, 45.6189], [-67.5108, 45.619], [-67.5103, 45.6186]]], [[[-67.7317, 45.8318], [-67.7319, 45.832], [-67.7324, 45.832], [-67.7317, 45.8318]]], [[[-67.6551, 45.6272], [-67.6552, 45.6275], [-67.6556, 45.6274], [-67.6551, 45.6272]]], [[[-67.7305, 45.7423], [-67.7302, 45.7422], [-67.7304, 45.7427], [-67.7305, 45.7423]]], [[[-67.5038, 45.6146], [-67.5047, 45.6148], [-67.5038, 45.6146]]], [[[-67.663, 45.6272], [-67.6628, 45.6276], [-67.6631, 45.6277], [-67.663, 45.6272]]], [[[-67.5002, 45.6031], [-67.4999, 45.6034], [-67.5005, 45.6035], [-67.5002, 45.6031]]], [[[-67.4804, 45.6405], [-67.4812, 45.6409], [-67.4804, 45.6405]]], [[[-67.5026, 45.6155], [-67.5032, 45.616], [-67.5026, 45.6155]]], [[[-67.492, 45.6073], [-67.4917, 45.6076], [-67.4923, 45.6078], [-67.492, 45.6073]]], [[[-67.7073, 45.6789], [-67.7082, 45.6792], [-67.7073, 45.6789]]], [[[-67.4888, 45.6092], [-67.4893, 45.6096], [-67.4892, 45.6092], [-67.4888, 45.6092]]], [[[-67.471, 45.6236], [-67.4705, 45.6241], [-67.4712, 45.6239], [-67.471, 45.6236]]], [[[-67.6045, 45.6105], [-67.6053, 45.6106], [-67.6045, 45.6105]]], [[[-67.5617, 45.6139], [-67.5617, 45.6141], [-67.5624, 45.6141], [-67.5617, 45.6139]]], [[[-67.5079, 45.6116], [-67.5079, 45.6121], [-67.5083, 45.612], [-67.5079, 45.6116]]], [[[-67.3662, 45.6073], [-67.3657, 45.6079], [-67.3662, 45.6073]]], [[[-67.7535, 45.8138], [-67.7542, 45.8143], [-67.7535, 45.8138]]], [[[-67.4714, 45.6156], [-67.4711, 45.616], [-67.4716, 45.6163], [-67.4714, 45.6156]]], [[[-67.4634, 45.621], [-67.4632, 45.6214], [-67.4637, 45.6216], [-67.4634, 45.621]]], [[[-67.3706, 45.6105], [-67.3702, 45.6109], [-67.3711, 45.6107], [-67.3706, 45.6105]]], [[[-67.3775, 45.6092], [-67.3773, 45.6097], [-67.3777, 45.6098], [-67.3775, 45.6092]]], [[[-67.4444, 45.6016], [-67.4454, 45.602], [-67.4444, 45.6016]]], [[[-67.4423, 45.5958], [-67.4426, 45.5966], [-67.4423, 45.5958]]], [[[-67.697, 45.6721], [-67.6977, 45.6726], [-67.697, 45.6721]]], [[[-67.7265, 45.7035], [-67.7263, 45.7043], [-67.7265, 45.7035]]], [[[-67.4905, 45.6088], [-67.4909, 45.6095], [-67.4905, 45.6088]]], [[[-67.7921, 45.6915], [-67.7928, 45.6914], [-67.7922, 45.6909], [-67.7921, 45.6915]]], [[[-67.4726, 45.633], [-67.4722, 45.6335], [-67.4729, 45.6334], [-67.4726, 45.633]]], [[[-67.7123, 45.6984], [-67.713, 45.6992], [-67.7123, 45.6984]]], [[[-67.5027, 45.6113], [-67.5024, 45.6118], [-67.5031, 45.6116], [-67.5027, 45.6113]]], [[[-67.5052, 45.6156], [-67.506, 45.6161], [-67.5052, 45.6156]]], [[[-67.5058, 45.6098], [-67.5066, 45.6104], [-67.5058, 45.6098]]], [[[-67.5017, 45.6042], [-67.5022, 45.6051], [-67.5017, 45.6042]]], [[[-67.472, 45.6344], [-67.4722, 45.6353], [-67.472, 45.6344]]], [[[-67.4985, 45.6173], [-67.4994, 45.6177], [-67.4985, 45.6173]]], [[[-67.7148, 45.6811], [-67.7159, 45.6814], [-67.7148, 45.6811]]], [[[-67.7938, 45.6912], [-67.7947, 45.6918], [-67.7938, 45.6912]]], [[[-67.4922, 45.608], [-67.4929, 45.6087], [-67.4922, 45.608]]], [[[-67.4716, 45.613], [-67.4711, 45.6139], [-67.4716, 45.613]]], [[[-67.5176, 45.6089], [-67.5168, 45.6084], [-67.5176, 45.6089]]], [[[-67.7222, 45.7065], [-67.7222, 45.7074], [-67.7222, 45.7065]]], [[[-67.5069, 45.6105], [-67.5079, 45.6112], [-67.5069, 45.6105]]], [[[-67.4905, 45.6754], [-67.4913, 45.6762], [-67.4905, 45.6754]]], [[[-67.5011, 45.6143], [-67.5022, 45.6152], [-67.5011, 45.6143]]], [[[-67.4818, 45.6065], [-67.4825, 45.6074], [-67.4818, 45.6065]]], [[[-67.4963, 45.6032], [-67.4959, 45.6038], [-67.4965, 45.6038], [-67.4963, 45.6032]]], [[[-67.423, 45.5732], [-67.4235, 45.5743], [-67.423, 45.5732]]], [[[-67.4939, 45.6307], [-67.4947, 45.6312], [-67.4939, 45.6307]]], [[[-67.3741, 45.6107], [-67.3737, 45.6114], [-67.3748, 45.6115], [-67.3741, 45.6107]]], [[[-67.8034, 45.7666], [-67.8043, 45.7674], [-67.8034, 45.7666]]], [[[-67.7023, 45.6798], [-67.7037, 45.6798], [-67.7023, 45.6798]]], [[[-67.5053, 45.6136], [-67.5065, 45.6142], [-67.5053, 45.6136]]], [[[-67.5688, 45.6252], [-67.5686, 45.626], [-67.5696, 45.6258], [-67.5688, 45.6252]]], [[[-67.7178, 45.6826], [-67.7187, 45.6827], [-67.7177, 45.6809], [-67.7178, 45.6826]]], [[[-67.4745, 45.632], [-67.4757, 45.6331], [-67.4745, 45.632]]], [[[-67.3741, 45.6048], [-67.3734, 45.6058], [-67.3745, 45.6057], [-67.3741, 45.6048]]], [[[-67.7144, 45.6982], [-67.7151, 45.7], [-67.7144, 45.6982]]], [[[-67.7051, 45.6797], [-67.7067, 45.6799], [-67.7051, 45.6797]]], [[[-67.3583, 45.6031], [-67.3585, 45.6052], [-67.3583, 45.6031]]], [[[-67.3691, 45.6098], [-67.3678, 45.6108], [-67.3696, 45.6108], [-67.3691, 45.6098]]], [[[-67.7191, 45.6652], [-67.7205, 45.6649], [-67.7189, 45.6644], [-67.7191, 45.6652]]], [[[-67.6313, 45.6253], [-67.6335, 45.627], [-67.6313, 45.6253]]], [[[-67.66, 45.6283], [-67.6589, 45.6289], [-67.6608, 45.6289], [-67.66, 45.6283]]], [[[-67.7064, 45.6771], [-67.7077, 45.6784], [-67.7064, 45.6771]]], [[[-67.5252, 45.6037], [-67.5268, 45.6045], [-67.5252, 45.6037]]], [[[-67.3683, 45.6073], [-67.3671, 45.6094], [-67.3683, 45.6073]]], [[[-67.3724, 45.607], [-67.3718, 45.6079], [-67.3737, 45.608], [-67.3724, 45.607]]], [[[-67.5094, 45.6142], [-67.5088, 45.6147], [-67.5105, 45.6162], [-67.5094, 45.6142]]], [[[-67.6599, 45.6278], [-67.6611, 45.628], [-67.6607, 45.6263], [-67.6599, 45.6278]]], [[[-67.5605, 45.6127], [-67.5584, 45.6128], [-67.56, 45.614], [-67.5605, 45.6127]]], [[[-67.5681, 45.6177], [-67.5679, 45.6166], [-67.5663, 45.617], [-67.5681, 45.6177]]], [[[-67.4956, 45.5991], [-67.4971, 45.5996], [-67.4943, 45.5976], [-67.4956, 45.5991]]], [[[-67.4781, 45.6144], [-67.4788, 45.616], [-67.4802, 45.6158], [-67.4781, 45.6144]]], [[[-67.5362, 45.6062], [-67.5361, 45.6086], [-67.5371, 45.6072], [-67.5362, 45.6062]]], [[[-67.4923, 45.611], [-67.493, 45.6102], [-67.491, 45.6085], [-67.4923, 45.611]]], [[[-67.6521, 45.6251], [-67.6547, 45.627], [-67.6521, 45.6251]]], [[[-67.7191, 45.7017], [-67.7211, 45.704], [-67.7191, 45.7017]]], [[[-67.4214, 45.514], [-67.425, 45.5165], [-67.4214, 45.514]]], [[[-67.4678, 45.6107], [-67.4644, 45.6083], [-67.4678, 45.6107]]], [[[-67.5021, 45.6075], [-67.4987, 45.6046], [-67.5021, 45.6075]], [[-67.496, 45.6068], [-67.4991, 45.609], [-67.496, 45.6068]]], [[[-67.721, 45.7143], [-67.7225, 45.7171], [-67.721, 45.7143]]], [[[-67.5138, 45.6159], [-67.5087, 45.6123], [-67.5138, 45.6159]]], [[[-67.4445, 45.6001], [-67.4429, 45.5968], [-67.4445, 45.6001]]], [[[-67.6597, 45.6382], [-67.6633, 45.6383], [-67.6597, 45.6382]]], [[[-67.4977, 45.611], [-67.5, 45.6149], [-67.4977, 45.611]]], [[[-67.7197, 45.7057], [-67.7152, 45.7036], [-67.7197, 45.7057]]], [[[-67.805, 45.7657], [-67.798, 45.7602], [-67.805, 45.7657]]], [[[-67.4707, 45.6194], [-67.4661, 45.613], [-67.4707, 45.6194]]], [[[-67.4878, 45.6283], [-67.4901, 45.6248], [-67.4789, 45.6187], [-67.4878, 45.6283]]], [[[-67.4908, 45.6156], [-67.4796, 45.6076], [-67.4908, 45.6156]], [[-67.5066, 45.6006], [-67.492, 45.5929], [-67.5066, 45.6006]]], [[[-67.5492, 45.6084], [-67.557, 45.606], [-67.5423, 45.6015], [-67.5492, 45.6084]]], [[[-66.5354, 46.5843], [-66.7446, 46.9274], [-67.494, 46.0095], [-67.5248, 45.9355], [-67.6044, 45.9882], [-67.6759, 45.9851], [-67.7157, 45.9427], [-67.7812, 45.9435], [-67.7506, 45.9175], [-67.8043, 45.8694], [-67.7607, 45.8295], [-67.7349, 45.8569], [-67.7183, 45.8281], [-67.8051, 45.7948], [-67.7665, 45.7495], [-67.7862, 45.7533], [-67.764, 45.7067], [-67.8033, 45.7237], [-67.7203, 45.6624], [-67.7298, 45.7443], [-67.6753, 45.635], [-67.6783, 45.6564], [-67.5656, 45.5989], [-67.5969, 45.6216], [-67.5145, 45.6031], [-67.5553, 45.6375], [-67.5036, 45.6161], [-67.5069, 45.667], [-67.4778, 45.6341], [-67.4974, 45.6979], [-67.4488, 45.6234], [-67.4693, 45.6259], [-67.34, 45.6019], [-67.452, 45.6138], [-67.4166, 45.5728], [-67.4347, 45.5321], [-67.4174, 45.5067], [-66.9363, 45.5027], [-66.6018, 45.8895], [-66.5511, 45.8954], [-66.5833, 45.9118], [-66.201, 46.3547], [-66.5098, 46.294], [-66.5842, 46.3154], [-66.5693, 46.3404], [-66.5982, 46.3488], [-66.5789, 46.3831], [-66.5476, 46.3703], [-66.5178, 46.3887], [-66.581, 46.4318], [-66.6328, 46.412], [-66.7452, 46.458], [-66.8544, 46.4157], [-66.9065, 46.5289], [-66.822, 46.5746], [-66.69, 46.6005], [-66.5863, 46.5927], [-66.515, 46.5156], [-66.4983, 46.5209], [-66.5354, 46.5843]]]]}}, {"type": "Feature", "properties": {"osm_type": "relation", "osm_id": 815654795, "name": "Carleton", "admin_level": "6", "kind": "subdivision_2", "parent_osm_id": 68942, "parent_name": "New Brunswick", "parent_iso": "CA-NB"}, "geometry": {"type": "Polygon", "coordinates": [[[-67.0224, 46.5843], [-66.8673, 46.7741], [-67.7228, 46.595], [-67.7883, 46.6011], [-67.7812, 45.9435], [-67.7157, 45.9427], [-67.6759, 45.9851], [-67.6044, 45.9882], [-67.5248, 45.9355], [-67.494, 46.0095], [-67.0224, 46.5843]]]}}, {"type": "Feature", "properties": {"osm_type": "relation", "osm_id": 978461141, "name": "Victoria", "admin_level": "6", "kind": "subdivision_2", "parent_osm_id": 68942, "parent_name": "New Brunswick", "parent_iso": "CA-NB"}, "geometry": {"type": "MultiPolygon", "coordinates": [[[[-67.6909, 46.9747], [-67.6909, 46.9748], [-67.6911, 46.9748], [-67.6909, 46.9747]]], [[[-67.6781, 46.9623], [-67.6785, 46.9632], [-67.6781, 46.9623]]], [[[-67.7179, 47.001], [-67.7188, 47.0013], [-67.7179, 47.001]]], [[[-67.7328, 47.0437], [-67.7318, 47.0443], [-67.7328, 47.0437]]], [[[-67.7075, 46.9858], [-67.7075, 46.9866], [-67.7075, 46.9858]]], [[[-67.6115, 47.0192], [-67.6117, 47.0201], [-67.6115, 47.0192]]], [[[-67.6921, 46.8636], [-67.6924, 46.8624], [-67.6921, 46.8636]]], [[[-67.7097, 47.0696], [-67.7705, 47.0592], [-67.7097, 47.0696]]], [[[-67.5399, 47.5193], [-67.6885, 47.5685], [-67.6889, 47.1736], [-67.6696, 47.1679], [-67.7089, 47.0933], [-67.6784, 47.1146], [-67.7418, 47.0549], [-67.7288, 47.0087], [-67.6754, 46.9563], [-67.5527, 47.0635], [-67.5397, 47.1182], [-67.5065, 47.1131], [-67.5392, 47.1182], [-67.5528, 47.0629], [-67.7065, 46.9199], [-67.6894, 46.8532], [-67.7148, 46.8098], [-67.6916, 46.8547], [-67.7092, 46.9171], [-67.6788, 46.961], [-67.7307, 47.0076], [-67.733, 47.0502], [-67.7902, 47.0662], [-67.7879, 46.6012], [-67.7228, 46.595], [-66.8673, 46.7741], [-66.7447, 46.9275], [-67.0482, 47.3627], [-67.5399, 47.5193]]]]}}, {"type": "Feature", "properties": {"osm_type": "relation", "osm_id": 698961828, "name": "Madawaska", "admin_level": "6", "kind": "subdivision_2", "parent_osm_id": 68942, "parent_name": "New Brunswick", "parent_iso": "CA-NB"}, "geometry": {"type": "MultiPolygon", "coordinates": [[[[-68.1332, 47.3403], [-68.1333, 47.3403], [-68.1332, 47.3403]]], [[[-68.1334, 47.3404], [-68.1335, 47.3405], [-68.1335, 47.3404], [-68.1334, 47.3404]]], [[[-68.1338, 47.3405], [-68.134, 47.3406], [-68.1339, 47.3405], [-68.1338, 47.3405]]], [[[-68.1297, 47.3248], [-68.1299, 47.3249], [-68.1297, 47.3248]]], [[[-68.1338, 47.3401], [-68.1339, 47.3402], [-68.134, 47.3401], [-68.1338, 47.3401]]], [[[-67.9478, 47.1847], [-67.9477, 47.1848], [-67.9479, 47.1848], [-67.9478, 47.1847]]], [[[-68.1683, 47.3928], [-68.1685, 47.3929], [-68.1685, 47.3928], [-68.1683, 47.3928]]], [[[-68.2188, 47.4688], [-68.2188, 47.4689], [-68.219, 47.4689], [-68.2188, 47.4688]]], [[[-68.1355, 47.3493], [-68.1357, 47.3495], [-68.1357, 47.3494], [-68.1355, 47.3493]]], [[[-68.2322, 47.457], [-68.2325, 47.4572], [-68.2324, 47.457], [-68.2322, 47.457]]], [[[-68.384, 47.3054], [-68.3839, 47.3056], [-68.3842, 47.3056], [-68.384, 47.3054]]], [[[-68.2323, 47.4567], [-68.2329, 47.4569], [-68.2329, 47.4568], [-68.2323, 47.4567]]], [[[-68.4382, 47.2837], [-68.4382, 47.2838], [-68.4385, 47.2839], [-68.4382, 47.2837]]], [[[-68.3845, 47.305], [-68.3843, 47.3053], [-68.3846, 47.3051], [-68.3845, 47.305]]], [[[-68.4773, 47.2978], [-68.4772, 47.298], [-68.4777, 47.298], [-68.4773, 47.2978]]], [[[-68.2186, 47.5451], [-68.219, 47.5455], [-68.2189, 47.5452], [-68.2186, 47.5451]]], [[[-68.5066, 47.2977], [-68.5067, 47.2978], [-68.5071, 47.2976], [-68.5066, 47.2977]]], [[[-68.8614, 47.1907], [-68.861, 47.1909], [-68.8616, 47.1908], [-68.8614, 47.1907]]], [[[-67.7928, 47.2887], [-67.7929, 47.2893], [-67.7929, 47.2886], [-67.7928, 47.2887]]], [[[-67.794, 47.2926], [-67.795, 47.2929], [-67.794, 47.2926]]], [[[-68.2248, 47.5611], [-68.2246, 47.5613], [-68.2251, 47.5615], [-68.2248, 47.5611]]], [[[-68.1781, 47.406], [-68.1784, 47.4063], [-68.1786, 47.4062], [-68.1781, 47.406]]], [[[-68.4395, 47.2841], [-68.4399, 47.2844], [-68.4402, 47.2843], [-68.4395, 47.2841]]], [[[-68.2131, 47.5325], [-68.2132, 47.5328], [-68.2136, 47.5328], [-68.2131, 47.5325]]], [[[-68.2417, 47.5942], [-68.2419, 47.5945], [-68.2422, 47.5944], [-68.2417, 47.5942]]], [[[-68.1938, 47.4098], [-68.1942, 47.4102], [-68.1944, 47.4101], [-68.1938, 47.4098]]], [[[-67.7867, 47.2814], [-67.7876, 47.2817], [-67.7867, 47.2814]]], [[[-68.1642, 47.3869], [-68.1646, 47.3875], [-68.1644, 47.387], [-68.1642, 47.3869]]], [[[-67.9233, 47.1982], [-67.9235, 47.1984], [-67.9238, 47.1979], [-67.9233, 47.1982]]], [[[-68.5976, 47.2707], [-68.5971, 47.2712], [-68.5979, 47.2706], [-68.5976, 47.2707]]], [[[-68.7308, 47.2398], [-68.7303, 47.24], [-68.7311, 47.2399], [-68.7308, 47.2398]]], [[[-68.1243, 47.3158], [-68.1242, 47.3168], [-68.1243, 47.3158]]], [[[-68.7316, 47.2401], [-68.7313, 47.2404], [-68.732, 47.2405], [-68.7316, 47.2401]]], [[[-68.1784, 47.4054], [-68.179, 47.406], [-68.1784, 47.4054]]], [[[-68.2353, 47.5758], [-68.2351, 47.5769], [-68.2353, 47.5758]]], [[[-67.7847, 47.2797], [-67.7858, 47.2801], [-67.7847, 47.2797]]], [[[-68.2469, 47.353], [-68.2462, 47.3535], [-68.2469, 47.353]]], [[[-68.2197, 47.468], [-68.2186, 47.4685], [-68.2197, 47.468]]], [[[-68.3041, 47.3588], [-68.3054, 47.3592], [-68.3041, 47.3588]]], [[[-68.4942, 47.3008], [-68.4923, 47.3011], [-68.4942, 47.3008]]], [[[-68.1522, 47.3724], [-68.1532, 47.3745], [-68.1522, 47.3724]]], [[[-67.7687, 47.2844], [-67.7677, 47.285], [-67.7687, 47.2844]]], [[[-68.7019, 47.2394], [-68.7002, 47.2405], [-68.7019, 47.2394]]], [[[-68.2183, 47.4484], [-68.219, 47.4505], [-68.2183, 47.4484]]], [[[-68.4987, 47.2958], [-68.5004, 47.296], [-68.4987, 47.2958]]], [[[-68.1339, 47.3475], [-68.1352, 47.3492], [-68.1339, 47.3475]]], [[[-68.2368, 47.3559], [-68.2383, 47.3558], [-68.2368, 47.3559]]], [[[-68.2408, 47.3543], [-68.2394, 47.3553], [-68.2408, 47.3543]]], [[[-68.5049, 47.297], [-68.5063, 47.2975], [-68.5049, 47.297]]], [[[-68.4147, 47.2879], [-68.4111, 47.2885], [-68.4147, 47.2879]]], [[[-68.7279, 47.2372], [-68.726, 47.2383], [-68.7279, 47.2372]]], [[[-68.1343, 47.3379], [-68.1333, 47.3401], [-68.1343, 47.3379]]], [[[-68.8572, 47.1914], [-68.8601, 47.1913], [-68.8572, 47.1914]]], [[[-68.4481, 47.2842], [-68.4463, 47.2843], [-68.4481, 47.2842]]], [[[-68.1679, 47.3919], [-68.1722, 47.3937], [-68.1679, 47.3919]]], [[[-68.3085, 47.3564], [-68.3128, 47.358], [-68.3085, 47.3564]]], [[[-68.2781, 47.3645], [-68.2764, 47.3637], [-68.2781, 47.3645]]], [[[-68.2388, 47.4622], [-68.2365, 47.4605], [-68.2388, 47.4622]]], [[[-68.7821, 47.2229], [-68.7786, 47.2243], [-68.7821, 47.2229]]], [[[-68.8803, 47.1855], [-68.8839, 47.184], [-68.8803, 47.1855]]], [[[-68.7325, 47.2369], [-68.7288, 47.2393], [-68.7325, 47.2369]]], [[[-68.4868, 47.3007], [-68.4931, 47.302], [-68.4868, 47.3007]]], [[[-68.4809, 47.2975], [-68.4784, 47.2987], [-68.4807, 47.2993], [-68.4809, 47.2975]]], [[[-68.7735, 47.2222], [-68.7814, 47.2227], [-68.7735, 47.2222]]], [[[-68.7451, 47.2331], [-68.7486, 47.2299], [-68.7451, 47.2331]]], [[[-68.5146, 47.2969], [-68.5075, 47.298], [-68.5146, 47.2969]]], [[[-68.5016, 47.2973], [-68.5048, 47.2998], [-68.5016, 47.2973]]], [[[-68.9004, 47.1784], [-68.8963, 47.1828], [-68.9004, 47.1784]]], [[[-68.2984, 47.3574], [-68.3093, 47.3581], [-68.2984, 47.3574]]], [[[-68.6616, 47.2397], [-68.6679, 47.2396], [-68.6616, 47.2397]]], [[[-68.0501, 47.2547], [-68.0591, 47.2559], [-68.0419, 47.2495], [-68.0501, 47.2547]], [[-68.4493, 47.2837], [-68.4604, 47.2879], [-68.4493, 47.2837]]], [[[-68.735, 47.2365], [-68.7448, 47.2334], [-68.735, 47.2365]]], [[[-68.7164, 47.2419], [-68.7319, 47.2417], [-68.7164, 47.2419]]], [[[-67.7085, 47.0832], [-67.709, 47.0931], [-67.7161, 47.0877], [-67.708, 47.076], [-67.7085, 47.0832]]], [[[-68.4862, 47.2986], [-68.5014, 47.3], [-68.4862, 47.2986]]], [[[-68.1938, 47.7068], [-68.1837, 47.7275], [-68.3825, 47.7908], [-68.3835, 47.5531], [-68.5681, 47.4272], [-68.7996, 47.349], [-69.0504, 47.3002], [-69.0494, 47.2571], [-68.9029, 47.1804], [-68.7216, 47.2458], [-68.6175, 47.2442], [-68.5794, 47.2882], [-68.3793, 47.2879], [-68.374, 47.3496], [-68.2762, 47.361], [-68.2879, 47.3795], [-68.1313, 47.3089], [-68.155, 47.3781], [-68.2434, 47.4666], [-68.1948, 47.4804], [-68.2515, 47.6122], [-68.2304, 47.6618], [-68.1805, 47.6762], [-68.1938, 47.7068]]], [[[-67.7641, 47.5937], [-68.1834, 47.7274], [-68.18, 47.676], [-68.2298, 47.6619], [-68.2509, 47.6118], [-68.1943, 47.4804], [-68.2427, 47.4659], [-68.1333, 47.3479], [-68.1242, 47.3149], [-68.1454, 47.3049], [-67.9481, 47.185], [-67.922, 47.2011], [-67.9248, 47.2456], [-67.8326, 47.3095], [-67.7766, 47.2782], [-67.7163, 47.3139], [-67.7763, 47.278], [-67.8325, 47.3093], [-67.9247, 47.2454], [-67.9216, 47.2011], [-67.9477, 47.1841], [-67.8804, 47.1043], [-67.7705, 47.0592], [-67.7082, 47.0759], [-67.6696, 47.1679], [-67.6889, 47.1736], [-67.6885, 47.5689], [-67.7641, 47.5937]]]]}}, {"type": "Feature", "properties": {"osm_type": "relation", "osm_id": 647143037, "name": "Restigouche", "admin_level": "6", "kind": "subdivision_2", "parent_osm_id": 68942, "parent_name": "New Brunswick", "parent_iso": "CA-NB"}, "geometry": {"type": "MultiPolygon", "coordinates": [[[[-65.9287, 47.9192], [-65.9286, 47.9194], [-65.9288, 47.9194], [-65.9287, 47.9192]]], [[[-66.3467, 48.0554], [-66.3467, 48.0556], [-66.347, 48.0556], [-66.3467, 48.0554]]], [[[-66.0306, 47.9252], [-66.0306, 47.9253], [-66.0308, 47.9255], [-66.0306, 47.9252]]], [[[-66.3806, 48.0706], [-66.3807, 48.0708], [-66.3811, 48.0708], [-66.3806, 48.0706]]], [[[-66.6573, 48.0014], [-66.6575, 48.0016], [-66.6578, 48.0015], [-66.6573, 48.0014]]], [[[-66.0312, 47.9253], [-66.0316, 47.9261], [-66.0312, 47.9253]]], [[[-66.384, 48.0705], [-66.3833, 48.0707], [-66.3839, 48.0707], [-66.384, 48.0705]]], [[[-66.1633, 47.9705], [-66.1636, 47.9704], [-66.1627, 47.9702], [-66.1633, 47.9705]]], [[[-66.2785, 47.9855], [-66.2777, 47.9861], [-66.2785, 47.9855]]], [[[-66.152, 47.969], [-66.1533, 47.9692], [-66.152, 47.969]]], [[[-66.1544, 47.9692], [-66.1556, 47.9691], [-66.1544, 47.9692]]], [[[-66.2781, 47.9887], [-66.2773, 47.9899], [-66.2781, 47.9887]]], [[[-66.3433, 48.0549], [-66.3463, 48.0554], [-66.3433, 48.0549]]], [[[-66.0303, 47.9254], [-66.0304, 47.9271], [-66.0303, 47.9254]]], [[[-66.1833, 47.9758], [-66.1817, 47.9765], [-66.1833, 47.9758]]], [[[-66.1782, 47.9725], [-66.178, 47.9735], [-66.1796, 47.9723], [-66.1782, 47.9725]]], [[[-66.1778, 47.9985], [-66.1815, 47.9988], [-66.1778, 47.9985]]], [[[-66.1459, 48.0005], [-66.201, 48.0115], [-66.1478, 47.9784], [-66.1162, 47.9822], [-66.1459, 48.0005]]], [[[-66.3612, 48.0719], [-66.7434, 47.9843], [-66.7584, 48.0031], [-66.9213, 47.9846], [-66.9638, 47.9431], [-66.9697, 47.9147], [-66.9439, 47.903], [-66.958, 47.8921], [-67.059, 47.9356], [-67.2108, 47.8755], [-67.3469, 47.896], [-67.3369, 47.8717], [-67.3743, 47.8438], [-67.5125, 47.9137], [-67.5929, 47.9244], [-67.6134, 47.9798], [-67.598, 47.9998], [-68.1226, 47.9999], [-68.1228, 47.9165], [-68.3823, 47.9161], [-68.3825, 47.7908], [-68.1837, 47.7275], [-68.1844, 47.7495], [-68.1164, 47.7802], [-68.184, 47.7495], [-68.1834, 47.7274], [-67.0482, 47.3627], [-66.1077, 47.5773], [-65.9153, 47.8275], [-65.8169, 47.8489], [-65.794, 47.8805], [-65.8386, 47.9132], [-66.0854, 47.9256], [-66.1098, 47.9559], [-66.2857, 47.9852], [-66.3716, 48.0322], [-66.4201, 48.0124], [-66.3739, 48.0254], [-66.3612, 48.0719]]]]}}, {"type": "Feature", "properties": {"osm_type": "relation", "osm_id": 141133156, "name": "Gloucester", "admin_level": "6", "kind": "subdivision_2", "parent_osm_id": 68942, "parent_name": "New Brunswick", "parent_iso": "CA-NB"}, "geometry": {"type": "MultiPolygon", "coordinates": [[[[-65.7063, 47.7446], [-65.7062, 47.7446], [-65.7067, 47.7448], [-65.7063, 47.7446]]], [[[-64.506, 48.0154], [-64.5065, 48.0156], [-64.5065, 48.0155], [-64.506, 48.0154]]], [[[-64.5506, 47.9725], [-64.5506, 47.9728], [-64.5508, 47.9725], [-64.5506, 47.9725]]], [[[-64.8731, 47.4881], [-64.873, 47.4885], [-64.8733, 47.4883], [-64.8731, 47.4881]]], [[[-65.7257, 47.8039], [-65.7259, 47.8043], [-65.726, 47.8039], [-65.7257, 47.8039]]], [[[-64.9096, 47.3916], [-64.9104, 47.3921], [-64.9096, 47.3916]]], [[[-65.6434, 47.6258], [-65.6449, 47.626], [-65.6434, 47.6258]]], [[[-64.8775, 47.4835], [-64.8769, 47.4843], [-64.8775, 47.4835]]], [[[-65.2553, 47.7888], [-65.2561, 47.7895], [-65.2553, 47.7888]]], [[[-64.7486, 47.6926], [-64.75, 47.6927], [-64.7486, 47.6926]]], [[[-64.4945, 47.9182], [-64.4941, 47.9194], [-64.4945, 47.9182]]], [[[-64.9075, 47.3921], [-64.9088, 47.3933], [-64.9075, 47.3921]]], [[[-64.674, 47.7186], [-64.6729, 47.7199], [-64.674, 47.7186]]], [[[-65.6351, 47.6485], [-65.6373, 47.6479], [-65.6351, 47.6485]]], [[[-64.9088, 47.3918], [-64.9095, 47.3927], [-64.9088, 47.3918]]], [[[-65.6143, 47.6459], [-65.6154, 47.6468], [-65.6143, 47.6459]]], [[[-65.6437, 47.6279], [-65.645, 47.6284], [-65.6438, 47.6264], [-65.6437, 47.6279]]], [[[-65.6688, 47.6027], [-65.6687, 47.6046], [-65.6701, 47.6034], [-65.6688, 47.6027]]], [[[-64.7558, 47.8041], [-64.7571, 47.803], [-64.7552, 47.8027], [-64.7558, 47.8041]]], [[[-65.6465, 47.6322], [-65.6459, 47.6336], [-65.6473, 47.6339], [-65.6465, 47.6322]]], [[[-65.632, 47.6279], [-65.6346, 47.6271], [-65.6326, 47.6262], [-65.632, 47.6279]]], [[[-65.6263, 47.6478], [-65.6233, 47.6506], [-65.6263, 47.6478]]], [[[-64.7666, 47.713], [-64.7635, 47.7159], [-64.7666, 47.713]]], [[[-64.8558, 47.557], [-64.8583, 47.5626], [-64.8628, 47.5545], [-64.8558, 47.557]]], [[[-64.8704, 47.5003], [-64.8738, 47.5118], [-64.8704, 47.5003]]], [[[-64.9758, 47.8246], [-64.9615, 47.8132], [-64.9758, 47.8246]]], [[[-64.7897, 47.7399], [-64.7838, 47.741], [-64.7858, 47.7478], [-64.7897, 47.7399]]], [[[-64.5024, 47.8858], [-64.4931, 47.9147], [-64.5024, 47.8858]]], [[[-64.8592, 47.5523], [-64.8741, 47.513], [-64.8592, 47.5523]]], [[[-64.7729, 47.7848], [-64.781, 47.7831], [-64.7778, 47.7755], [-64.7642, 47.7757], [-64.7729, 47.7848]]], [[[-64.8632, 47.8222], [-64.9055, 47.8209], [-64.8632, 47.8222]]], [[[-64.7598, 47.8242], [-64.7957, 47.8254], [-64.8006, 47.8034], [-64.7546, 47.7805], [-64.7598, 47.8242]]], [[[-64.5179, 48.0199], [-64.5429, 48.0155], [-64.5477, 47.9725], [-64.5968, 47.931], [-64.5777, 47.8892], [-64.5117, 47.9435], [-64.4937, 47.9156], [-64.4679, 47.9424], [-64.5, 47.9543], [-64.4724, 47.959], [-64.5114, 47.9808], [-64.5016, 47.9996], [-64.4758, 47.974], [-64.5179, 48.0199]]], [[[-64.5028, 47.8825], [-64.5875, 47.8537], [-64.5685, 47.8781], [-64.6301, 47.8868], [-64.6879, 47.8576], [-64.7064, 47.8102], [-64.6673, 47.8158], [-64.6943, 47.7836], [-64.6476, 47.8083], [-64.6539, 47.7906], [-64.6184, 47.7956], [-64.698, 47.7565], [-64.6491, 47.7462], [-64.6637, 47.7188], [-64.6147, 47.741], [-64.5374, 47.8098], [-64.5028, 47.8825]]], [[[-64.8026, 47.804], [-65.0667, 47.7648], [-65.0578, 47.7828], [-65.0866, 47.794], [-64.9782, 47.8319], [-65.1903, 47.8176], [-65.359, 47.7559], [-65.4498, 47.6894], [-65.622, 47.6525], [-65.6052, 47.6443], [-65.6604, 47.6236], [-65.6682, 47.5995], [-65.6726, 47.6466], [-65.6208, 47.6567], [-65.6988, 47.7117], [-65.7322, 47.8303], [-65.794, 47.8805], [-65.8169, 47.8489], [-65.9153, 47.8275], [-66.1077, 47.5773], [-66.2172, 47.5507], [-65.8159, 47.2325], [-65.0413, 47.4125], [-65.0112, 47.3593], [-64.96, 47.3499], [-64.9189, 47.4028], [-64.9047, 47.3801], [-64.8714, 47.4685], [-64.8764, 47.5087], [-64.9082, 47.5102], [-64.8901, 47.518], [-64.8968, 47.5706], [-64.8301, 47.5984], [-64.8533, 47.5647], [-64.7792, 47.6567], [-64.8004, 47.6326], [-64.8148, 47.6714], [-64.8574, 47.6885], [-64.7664, 47.6761], [-64.7753, 47.66], [-64.7344, 47.6886], [-64.7578, 47.6737], [-64.7563, 47.6919], [-64.6661, 47.7178], [-64.744, 47.7687], [-64.7761, 47.746], [-64.7479, 47.7155], [-64.7723, 47.6939], [-64.7952, 47.7402], [-64.8482, 47.7312], [-64.8895, 47.7543], [-64.7997, 47.7533], [-64.7826, 47.7664], [-64.8039, 47.7711], [-64.7865, 47.7805], [-64.8026, 47.804]]]]}}]}