{"type": "FeatureCollection", "parent": {"osm_id": 71973, "name": "Donetsk Oblast", "admin_level": "4", "kind": "subdivision_1", "child_kind": "subdivision_2", "iso": "UA-14"}, "features": [{"type": "Feature", "properties": {"osm_type": "relation", "osm_id": 923136089, "name": "Manhush", "admin_level": "6", "kind": "subdivision_2", "parent_osm_id": 71973, "parent_name": "Donetsk Oblast", "parent_iso": "UA-14"}, "geometry": {"type": "Polygon", "coordinates": [[[36.9332, 46.8724], [37.0789, 46.8582], [37.1962, 46.904], [37.28, 46.8964], [37.3582, 46.9384], [37.4812, 47.0489], [37.6264, 47.1022], [37.632, 47.1592], [37.5817, 47.2427], [37.4304, 47.2183], [37.3806, 47.1592], [37.3135, 47.1174], [36.9806, 47.131], [36.9868, 47.076], [37.0247, 47.0408], [37.1227, 47.0297], [37.0905, 46.9858], [37.0011, 46.9395], [36.9332, 46.8724]]]}}, {"type": "Feature", "properties": {"osm_type": "relation", "osm_id": 839887188, "name": "Novoazovsk", "admin_level": "6", "kind": "subdivision_2", "parent_osm_id": 71973, "parent_name": "Donetsk Oblast", "parent_iso": "UA-14"}, "geometry": {"type": "Polygon", "coordinates": [[[37.6264, 47.1022], [37.7941, 47.0756], [37.917, 47.106], [38.012, 47.0832], [38.1517, 47.0794], [38.2243, 47.144], [38.2355, 47.1972], [38.3137, 47.2162], [38.336, 47.3034], [38.2644, 47.2976], [38.2019, 47.3488], [38.0247, 47.3185], [38.012, 47.3791], [37.8071, 47.3142], [37.7829, 47.2503], [37.5817, 47.2427], [37.632, 47.1592], [37.6264, 47.1022]]]}}, {"type": "Feature", "properties": {"osm_type": "relation", "osm_id": 707463886, "name": "Nikolske", "admin_level": "6", "kind": "subdivision_2", "parent_osm_id": 71973, "parent_name": "Donetsk Oblast", "parent_iso": "UA-14"}, "geometry": {"type": "Polygon", "coordinates": [[[36.9806, 47.131], [37.3135, 47.1174], [37.3806, 47.1592], [37.4304, 47.2183], [37.5817, 47.2427], [37.73, 47.2483], [37.7091, 47.2923], [37.5561, 47.3319], [37.5446, 47.3699], [37.4838, 47.3408], [37.393, 47.3674], [37.3408, 47.336], [37.1942, 47.4256], [37.1691, 47.365], [37.137, 47.3335], [37.1298, 47.302], [37.019, 47.3141], [37.0261, 47.2802], [36.9975, 47.2535], [36.926, 47.2778], [36.9331, 47.2122], [36.8616, 47.1636], [36.9081, 47.134], [36.9796, 47.1393], [36.9806, 47.131]]]}}, {"type": "Feature", "properties": {"osm_type": "relation", "osm_id": 708825074, "name": "Boikivske", "admin_level": "6", "kind": "subdivision_2", "parent_osm_id": 71973, "parent_name": "Donetsk Oblast", "parent_iso": "UA-14"}, "geometry": {"type": "Polygon", "coordinates": [[[37.73, 47.2483], [37.7829, 47.2503], [37.8071, 47.3142], [38.012, 47.3791], [38.0247, 47.3185], [38.2019, 47.3488], [38.3584, 47.4094], [38.2746, 47.4472], [38.2802, 47.568], [38.2054, 47.5436], [38.0399, 47.5604], [37.9673, 47.5906], [37.7717, 47.5943], [37.5561, 47.3319], [37.7091, 47.2923], [37.73, 47.2483]]]}}, {"type": "Feature", "properties": {"osm_type": "relation", "osm_id": 919673673, "name": "Volnovakha", "admin_level": "6", "kind": "subdivision_2", "parent_osm_id": 71973, "parent_name": "Donetsk Oblast", "parent_iso": "UA-14"}, "geometry": {"type": "Polygon", "coordinates": [[[37.1942, 47.4256], [37.3408, 47.336], [37.393, 47.3674], [37.4838, 47.3408], [37.5446, 47.3699], [37.5561, 47.3319], [37.7717, 47.5943], [37.8488, 47.5929], [37.822, 47.6659], [37.7717, 47.7223], [37.7773, 47.8424], [37.5297, 47.7231], [37.3415, 47.7148], [37.2074, 47.7298], [37.1788, 47.6751], [37.0397, 47.7261], [37.0941, 47.5126], [37.1147, 47.4538], [37.1942, 47.4256]]]}}, {"type": "Feature", "properties": {"osm_type": "relation", "osm_id": 530816596, "name": "Velyka Novosilka", "admin_level": "6", "kind": "subdivision_2", "parent_osm_id": 71973, "parent_name": "Donetsk Oblast", "parent_iso": "UA-14"}, "geometry": {"type": "Polygon", "coordinates": [[[37.0941, 47.5126], [37.0397, 47.7261], [37.0235, 47.9496], [37.1097, 47.9573], [37.1334, 48.0353], [36.9228, 48.0583], [36.8748, 48.0353], [36.797, 48.0491], [36.7077, 48.0889], [36.639, 48.0873], [36.6345, 48.0506], [36.6436, 48.0124], [36.6551, 47.9879], [36.6367, 47.968], [36.6001, 47.9005], [36.5956, 47.8713], [36.6184, 47.828], [36.6458, 47.7342], [36.7221, 47.703], [36.6828, 47.6067], [36.74, 47.6115], [36.7758, 47.5681], [36.8473, 47.597], [36.8894, 47.5594], [37.0941, 47.5126]]]}}, {"type": "Feature", "properties": {"osm_type": "relation", "osm_id": 378445613, "name": "Starobesheve", "admin_level": "6", "kind": "subdivision_2", "parent_osm_id": 71973, "parent_name": "Donetsk Oblast", "parent_iso": "UA-14"}, "geometry": {"type": "Polygon", "coordinates": [[[38.2802, 47.568], [38.3349, 47.6251], [38.28, 47.676], [38.1093, 47.7326], [38.1175, 47.7622], [38.1358, 47.7822], [38.1267, 47.8145], [38.0832, 47.8422], [38.0511, 47.8729], [37.9344, 47.948], [37.8703, 47.9634], [37.8398, 48.0101], [37.8268, 48.0139], [37.6964, 48.0139], [37.6644, 47.9955], [37.6415, 47.9695], [37.6506, 47.9327], [37.5453, 47.9526], [37.495, 47.9373], [37.5179, 47.8897], [37.7773, 47.8424], [37.7717, 47.7223], [37.822, 47.6659], [37.8488, 47.5929], [37.9673, 47.5906], [38.0399, 47.5604], [38.2054, 47.5436], [38.2802, 47.568]]]}}, {"type": "Feature", "properties": {"osm_type": "relation", "osm_id": 248511109, "name": "Marinka", "admin_level": "6", "kind": "subdivision_2", "parent_osm_id": 71973, "parent_name": "Donetsk Oblast", "parent_iso": "UA-14"}, "geometry": {"type": "Polygon", "coordinates": [[[37.7773, 47.8424], [37.5179, 47.8897], [37.495, 47.9373], [37.5453, 47.9526], [37.6506, 47.9327], [37.6415, 47.9695], [37.6644, 47.9955], [37.6134, 47.9994], [37.5431, 48.1118], [37.5316, 48.1424], [37.4721, 48.095], [37.4023, 48.0827], [37.2478, 48.098], [37.2295, 48.0675], [37.2524, 48.0568], [37.2087, 48.0489], [37.2593, 48.0063], [37.2249, 47.968], [37.1494, 47.9817], [37.1334, 48.0353], [37.1097, 47.9573], [37.0235, 47.9496], [37.0397, 47.7261], [37.1788, 47.6751], [37.2074, 47.7298], [37.3415, 47.7148], [37.5297, 47.7231], [37.7773, 47.8424]]]}}, {"type": "Feature", "properties": {"osm_type": "relation", "osm_id": 881125513, "name": "Amvrosiivka", "admin_level": "6", "kind": "subdivision_2", "parent_osm_id": 71973, "parent_name": "Donetsk Oblast", "parent_iso": "UA-14"}, "geometry": {"type": "Polygon", "coordinates": [[[38.3349, 47.6251], [38.4208, 47.5995], [38.4708, 47.6332], [38.5674, 47.6453], [38.7891, 47.7391], [38.8213, 47.8304], [38.6946, 47.8533], [38.6735, 47.8352], [38.5422, 47.8625], [38.1382, 47.9791], [38.2169, 48.0413], [38.2241, 48.0699], [38.1669, 48.1058], [38.1021, 48.0867], [38.0131, 48.0341], [37.8987, 48.046], [37.8374, 48.0086], [37.8703, 47.9634], [37.9344, 47.948], [38.0511, 47.8729], [38.0832, 47.8422], [38.1267, 47.8145], [38.1358, 47.7822], [38.1175, 47.7622], [38.1093, 47.7326], [38.28, 47.676], [38.3349, 47.6251]]]}}, {"type": "Feature", "properties": {"osm_type": "relation", "osm_id": 465547254, "name": "Shakhtarsk", "admin_level": "6", "kind": "subdivision_2", "parent_osm_id": 71973, "parent_name": "Donetsk Oblast", "parent_iso": "UA-14"}, "geometry": {"type": "Polygon", "coordinates": [[[38.2169, 48.0413], [38.1382, 47.9791], [38.5422, 47.8625], [38.6735, 47.8352], [38.6946, 47.8533], [38.8213, 47.8304], [38.9429, 47.8424], [39.0108, 47.8688], [39.0251, 47.9743], [38.8641, 47.999], [38.7784, 48.0389], [38.7676, 48.0723], [38.6472, 48.079], [38.5638, 48.1678], [38.5602, 48.2036], [38.4994, 48.2584], [38.436, 48.2293], [38.3063, 48.2941], [38.2813, 48.3202], [38.2098, 48.3535], [38.1061, 48.3844], [38.0345, 48.4176], [38.0402, 48.4044], [37.9809, 48.363], [37.9237, 48.2679], [37.9666, 48.1845], [38.0417, 48.2107], [38.0882, 48.2155], [38.1669, 48.1058], [38.2241, 48.0699], [38.2169, 48.0413]]]}}, {"type": "Feature", "properties": {"osm_type": "relation", "osm_id": 530821468, "name": "Yasynuvata", "admin_level": "6", "kind": "subdivision_2", "parent_osm_id": 71973, "parent_name": "Donetsk Oblast", "parent_iso": "UA-14"}, "geometry": {"type": "Polygon", "coordinates": [[[37.8398, 48.0101], [37.8987, 48.046], [38.0131, 48.0341], [38.1021, 48.0867], [38.1669, 48.1058], [38.0882, 48.2155], [38.0417, 48.2107], [37.9666, 48.1845], [37.9237, 48.2679], [37.845, 48.2941], [37.8093, 48.3274], [37.7163, 48.3226], [37.6694, 48.2769], [37.6233, 48.2846], [37.5768, 48.2798], [37.5546, 48.2124], [37.4624, 48.2012], [37.5316, 48.1424], [37.5431, 48.1118], [37.6134, 47.9994], [37.6644, 47.9955], [37.6964, 48.0139], [37.8268, 48.0139], [37.8398, 48.0101]]]}}, {"type": "Feature", "properties": {"osm_type": "relation", "osm_id": 207899951, "name": "Pokrovsk", "admin_level": "6", "kind": "subdivision_2", "parent_osm_id": 71973, "parent_name": "Donetsk Oblast", "parent_iso": "UA-14"}, "geometry": {"type": "Polygon", "coordinates": [[[37.1334, 48.0353], [37.1494, 47.9817], [37.2249, 47.968], [37.2593, 48.0063], [37.2087, 48.0489], [37.2524, 48.0568], [37.2295, 48.0675], [37.2478, 48.098], [37.4023, 48.0827], [37.4721, 48.095], [37.5316, 48.1424], [37.4624, 48.2012], [37.5546, 48.2124], [37.5768, 48.2798], [37.5053, 48.2869], [37.4052, 48.3559], [37.305, 48.3773], [37.2559, 48.3364], [37.1656, 48.325], [37.044, 48.3488], [36.8616, 48.3678], [36.8187, 48.3321], [36.9367, 48.2703], [36.9228, 48.0583], [37.1334, 48.0353]]]}}, {"type": "Feature", "properties": {"osm_type": "relation", "osm_id": 230023104, "name": "Dobropillia", "admin_level": "6", "kind": "subdivision_2", "parent_osm_id": 71973, "parent_name": "Donetsk Oblast", "parent_iso": "UA-14"}, "geometry": {"type": "Polygon", "coordinates": [[[37.3658, 48.3643], [37.4803, 48.3607], [37.4481, 48.3915], [37.4588, 48.4769], [37.4266, 48.5267], [37.4302, 48.5953], [37.3587, 48.6284], [37.2696, 48.5818], [37.1942, 48.6072], [37.1187, 48.553], [37.0118, 48.5504], [36.8795, 48.5125], [36.8709, 48.4429], [36.8223, 48.4153], [36.8616, 48.3678], [37.044, 48.3488], [37.1656, 48.325], [37.2559, 48.3364], [37.305, 48.3773], [37.3658, 48.3643]]]}}, {"type": "Feature", "properties": {"osm_type": "relation", "osm_id": 235776463, "name": "Kostiantynivka", "admin_level": "6", "kind": "subdivision_2", "parent_osm_id": 71973, "parent_name": "Donetsk Oblast", "parent_iso": "UA-14"}, "geometry": {"type": "Polygon", "coordinates": [[[38.0345, 48.4176], [37.9566, 48.4406], [37.9666, 48.4841], [37.8879, 48.5456], [37.8879, 48.619], [37.8522, 48.6828], [37.8164, 48.7323], [37.7342, 48.7394], [37.6693, 48.7087], [37.6519, 48.6379], [37.5662, 48.6214], [37.4767, 48.6473], [37.4302, 48.5953], [37.4266, 48.5267], [37.4588, 48.4769], [37.4481, 48.3915], [37.4803, 48.3607], [37.3658, 48.3643], [37.4052, 48.3559], [37.5053, 48.2869], [37.5768, 48.2798], [37.6233, 48.2846], [37.6694, 48.2769], [37.7163, 48.3226], [37.8093, 48.3274], [37.845, 48.2941], [37.9237, 48.2679], [37.9809, 48.363], [38.0402, 48.4044], [38.0345, 48.4176]]]}}, {"type": "Feature", "properties": {"osm_type": "relation", "osm_id": 101413393, "name": "Bakhmut", "admin_level": "6", "kind": "subdivision_2", "parent_osm_id": 71973, "parent_name": "Donetsk Oblast", "parent_iso": "UA-14"}, "geometry": {"type": "Polygon", "coordinates": [[[38.4994, 48.2584], [38.4494, 48.3749], [38.3655, 48.3822], [38.2706, 48.4698], [38.2818, 48.5493], [38.2455, 48.5977], [38.2998, 48.6538], [38.2348, 48.7818], [38.2598, 48.8619], [38.1939, 48.9051], [38.1776, 48.9395], [38.0989, 48.9395], [38.0274, 48.9183], [38.0095, 48.8642], [37.9952, 48.796], [37.9201, 48.7936], [37.8844, 48.7488], [37.8311, 48.7119], [37.8879, 48.619], [37.8879, 48.5456], [37.9666, 48.4841], [37.9566, 48.4406], [38.0345, 48.4176], [38.1061, 48.3844], [38.2098, 48.3535], [38.2813, 48.3202], [38.3063, 48.2941], [38.436, 48.2293], [38.4994, 48.2584]]]}}, {"type": "Feature", "properties": {"osm_type": "relation", "osm_id": 440473849, "name": "Oleksandrivka", "admin_level": "6", "kind": "subdivision_2", "parent_osm_id": 71973, "parent_name": "Donetsk Oblast", "parent_iso": "UA-14"}, "geometry": {"type": "Polygon", "coordinates": [[[37.3587, 48.6284], [37.3658, 48.6804], [37.4016, 48.7748], [37.3658, 48.8148], [37.305, 48.8242], [37.28, 48.8784], [37.1906, 48.8901], [37.1459, 48.836], [37.1656, 48.7913], [37.0833, 48.8007], [37.0261, 48.8266], [37.0404, 48.7536], [36.9582, 48.7512], [36.8974, 48.7559], [36.8402, 48.7229], [36.7829, 48.7536], [36.7436, 48.7276], [36.715, 48.7017], [36.7641, 48.6453], [36.7221, 48.6048], [36.8795, 48.5125], [37.0118, 48.5504], [37.1187, 48.553], [37.1942, 48.6072], [37.2696, 48.5818], [37.3587, 48.6284]]]}}, {"type": "Feature", "properties": {"osm_type": "relation", "osm_id": 916359540, "name": "Sloviansk", "admin_level": "6", "kind": "subdivision_2", "parent_osm_id": 71973, "parent_name": "Donetsk Oblast", "parent_iso": "UA-14"}, "geometry": {"type": "Polygon", "coordinates": [[[37.4302, 48.5953], [37.4767, 48.6473], [37.5662, 48.6214], [37.6519, 48.6379], [37.6693, 48.7087], [37.7342, 48.7394], [37.8164, 48.7323], [37.8311, 48.7119], [37.8844, 48.7488], [37.9201, 48.7936], [37.9255, 48.7938], [37.9058, 48.8289], [37.913, 48.8689], [37.87, 48.8995], [37.8414, 48.9418], [37.7306, 48.9841], [37.7663, 49.038], [37.6991, 49.016], [37.6305, 49.0451], [37.6269, 49.0849], [37.5554, 49.12], [37.4727, 49.0476], [37.4087, 49.0591], [37.3853, 49.0263], [37.2907, 49.0099], [37.28, 48.8784], [37.305, 48.8242], [37.3658, 48.8148], [37.4016, 48.7748], [37.3658, 48.6804], [37.3587, 48.6284], [37.4302, 48.5953]]]}}, {"type": "Feature", "properties": {"osm_type": "relation", "osm_id": 514232434, "name": "Lyman\t", "admin_level": "6", "kind": "subdivision_2", "parent_osm_id": 71973, "parent_name": "Donetsk Oblast", "parent_iso": "UA-14"}, "geometry": {"type": "Polygon", "coordinates": [[[38.0989, 48.9395], [38.0091, 48.9693], [38.0882, 49.024], [38.0739, 49.0755], [38.0953, 49.134], [38.0703, 49.1644], [37.9809, 49.1083], [37.9344, 49.1387], [37.8915, 49.1761], [37.8307, 49.1948], [37.7449, 49.2089], [37.5947, 49.2205], [37.5303, 49.2182], [37.4981, 49.1761], [37.5554, 49.12], [37.6269, 49.0849], [37.6305, 49.0451], [37.6991, 49.016], [37.7663, 49.038], [37.7306, 48.9841], [37.8414, 48.9418], [37.87, 48.8995], [37.913, 48.8689], [37.9058, 48.8289], [37.9255, 48.7938], [37.9952, 48.796], [38.0095, 48.8642], [38.0274, 48.9183], [38.0989, 48.9395]]]}}]}