{"type": "FeatureCollection", "parent": {"osm_id": 72380, "name": "Lviv Oblast", "admin_level": "4", "kind": "subdivision_1", "child_kind": "subdivision_2", "iso": "UA-46"}, "features": [{"type": "Feature", "properties": {"osm_type": "relation", "osm_id": 451553849, "name": "Brody", "admin_level": "6", "kind": "subdivision_2", "parent_osm_id": 72380, "parent_name": "Lviv Oblast", "parent_iso": "UA-46"}, "geometry": {"type": "Polygon", "coordinates": [[[25.1609, 50.3061], [24.9606, 50.3404], [24.8998, 50.3016], [25.0143, 50.217], [24.9404, 50.1442], [24.957, 50.0795], [25.0464, 50.0382], [24.9749, 49.9945], [25.1215, 49.8748], [25.2428, 49.8205], [25.3289, 49.8195], [25.4181, 49.862], [25.5221, 49.8564], [25.5498, 49.9248], [25.4756, 49.9393], [25.4505, 50.0175], [25.3611, 50.0428], [25.2395, 50.0542], [25.2455, 50.1086], [25.2145, 50.2055], [25.2308, 50.2508], [25.1931, 50.2696], [25.1609, 50.3061]]]}}, {"type": "Feature", "properties": {"osm_type": "relation", "osm_id": 187194925, "name": "Busk", "admin_level": "6", "kind": "subdivision_2", "parent_osm_id": 72380, "parent_name": "Lviv Oblast", "parent_iso": "UA-46"}, "geometry": {"type": "Polygon", "coordinates": [[[24.9404, 50.1442], [24.6817, 50.1437], [24.6443, 50.1056], [24.5673, 50.0955], [24.5601, 50.0175], [24.5279, 49.9669], [24.5494, 49.9094], [24.6388, 49.9094], [24.6996, 49.8702], [24.839, 49.9439], [24.9427, 49.9255], [25.022, 49.9536], [24.9749, 49.9945], [25.0464, 50.0382], [24.957, 50.0795], [24.9404, 50.1442]]]}}, {"type": "Feature", "properties": {"osm_type": "relation", "osm_id": 947761221, "name": "Zolochiv", "admin_level": "6", "kind": "subdivision_2", "parent_osm_id": 72380, "parent_name": "Lviv Oblast", "parent_iso": "UA-46"}, "geometry": {"type": "Polygon", "coordinates": [[[25.2428, 49.8205], [25.1215, 49.8748], [25.022, 49.9536], [24.9427, 49.9255], [24.839, 49.9439], [24.6996, 49.8702], [24.6388, 49.9094], [24.5494, 49.9094], [24.4957, 49.8541], [24.5494, 49.8079], [24.6173, 49.7987], [24.6924, 49.7964], [24.7757, 49.7816], [25.0486, 49.6271], [25.1144, 49.6484], [25.0822, 49.6878], [25.2179, 49.7567], [25.1323, 49.7895], [25.1323, 49.8218], [25.2428, 49.8205]]]}}, {"type": "Feature", "properties": {"osm_type": "relation", "osm_id": 359696269, "name": "Peremyshliany", "admin_level": "6", "kind": "subdivision_2", "parent_osm_id": 72380, "parent_name": "Lviv Oblast", "parent_iso": "UA-46"}, "geometry": {"type": "Polygon", "coordinates": [[[25.0486, 49.6271], [24.7757, 49.7816], [24.6924, 49.7964], [24.6173, 49.7987], [24.5494, 49.8079], [24.5331, 49.822], [24.4814, 49.7548], [24.3205, 49.7479], [24.1775, 49.7571], [24.181, 49.7202], [24.249, 49.7063], [24.2633, 49.6646], [24.3491, 49.6461], [24.4779, 49.6067], [24.5231, 49.5068], [24.5923, 49.4861], [24.7532, 49.4745], [24.7997, 49.5465], [25.0486, 49.6271]]]}}, {"type": "Feature", "properties": {"osm_type": "relation", "osm_id": 338560960, "name": "Zhydachiv", "admin_level": "6", "kind": "subdivision_2", "parent_osm_id": 72380, "parent_name": "Lviv Oblast", "parent_iso": "UA-46"}, "geometry": {"type": "Polygon", "coordinates": [[[24.4839, 49.173], [24.3992, 49.2275], [24.4028, 49.2742], [24.4564, 49.3069], [24.5342, 49.3377], [24.5243, 49.3931], [24.4743, 49.4163], [24.4993, 49.514], [24.5231, 49.5068], [24.4779, 49.6067], [24.3491, 49.6461], [24.2633, 49.6646], [24.3062, 49.4861], [24.2454, 49.4373], [24.1733, 49.419], [24.1596, 49.3814], [24.2362, 49.344], [24.2311, 49.2836], [24.179, 49.228], [24.1667, 49.1644], [24.2315, 49.1028], [24.3205, 49.0989], [24.4428, 49.1625], [24.4839, 49.173]]]}}, {"type": "Feature", "properties": {"osm_type": "relation", "osm_id": 857249187, "name": "Stryi", "admin_level": "6", "kind": "subdivision_2", "parent_osm_id": 72380, "parent_name": "Lviv Oblast", "parent_iso": "UA-46"}, "geometry": {"type": "Polygon", "coordinates": [[[24.2132, 49.1036], [24.2315, 49.1028], [24.1667, 49.1644], [24.179, 49.228], [24.2311, 49.2836], [24.2362, 49.344], [24.1596, 49.3814], [24.1733, 49.419], [23.9665, 49.4466], [23.9173, 49.3918], [23.8199, 49.3814], [23.817, 49.253], [23.6625, 49.1808], [23.5624, 49.1785], [23.5695, 49.1387], [23.6625, 49.1153], [23.7448, 49.1083], [23.8514, 49.0457], [23.9002, 49.0427], [24.0344, 49.0708], [24.1059, 49.1177], [24.2132, 49.1036]]]}}, {"type": "Feature", "properties": {"osm_type": "relation", "osm_id": 476452785, "name": "Skole", "admin_level": "6", "kind": "subdivision_2", "parent_osm_id": 72380, "parent_name": "Lviv Oblast", "parent_iso": "UA-46"}, "geometry": {"type": "Polygon", "coordinates": [[[23.6232, 48.6804], [23.6768, 48.7724], [23.6768, 48.8289], [23.7054, 48.8831], [23.7054, 48.9113], [23.7662, 48.9653], [23.7412, 48.9958], [23.8234, 49.0474], [23.8514, 49.0457], [23.7448, 49.1083], [23.6625, 49.1153], [23.5695, 49.1387], [23.5624, 49.1785], [23.4862, 49.1868], [23.4889, 49.1385], [23.2441, 49.0052], [23.2513, 48.9559], [23.2978, 48.9042], [23.2541, 48.7947], [23.4122, 48.7205], [23.4873, 48.7253], [23.4873, 48.6804], [23.5541, 48.6592], [23.6232, 48.6804]]]}}, {"type": "Feature", "properties": {"osm_type": "relation", "osm_id": 594893097, "name": "Turka", "admin_level": "6", "kind": "subdivision_2", "parent_osm_id": 72380, "parent_name": "Lviv Oblast", "parent_iso": "UA-46"}, "geometry": {"type": "Polygon", "coordinates": [[[23.2541, 48.7947], [23.2978, 48.9042], [23.2513, 48.9559], [23.2441, 49.0052], [23.3979, 49.089], [23.3626, 49.1434], [23.3603, 49.1778], [23.3443, 49.2167], [23.3145, 49.2511], [23.2436, 49.3033], [23.1286, 49.2215], [23.0216, 49.2854], [22.9781, 49.2645], [22.9094, 49.3123], [22.8156, 49.3421], [22.7332, 49.3347], [22.7825, 49.1851], [22.7652, 49.1284], [22.8499, 49.07], [22.8385, 49.0146], [22.9259, 49.0146], [22.9723, 48.9442], [22.9723, 48.8713], [23.0499, 48.8447], [23.0725, 48.7842], [23.2541, 48.7947]]]}}, {"type": "Feature", "properties": {"osm_type": "relation", "osm_id": 824407461, "name": "Mykolaiv", "admin_level": "6", "kind": "subdivision_2", "parent_osm_id": 72380, "parent_name": "Lviv Oblast", "parent_iso": "UA-46"}, "geometry": {"type": "Polygon", "coordinates": [[[24.181, 49.7202], [24.0125, 49.6987], [24.0103, 49.6572], [23.9942, 49.592], [23.8958, 49.6142], [23.9436, 49.5654], [23.8821, 49.5252], [23.9073, 49.488], [23.9665, 49.4466], [24.1733, 49.419], [24.2454, 49.4373], [24.3062, 49.4861], [24.2633, 49.6646], [24.249, 49.7063], [24.181, 49.7202]]]}}, {"type": "Feature", "properties": {"osm_type": "relation", "osm_id": 161372662, "name": "Drohobych", "admin_level": "6", "kind": "subdivision_2", "parent_osm_id": 72380, "parent_name": "Lviv Oblast", "parent_iso": "UA-46"}, "geometry": {"type": "Polygon", "coordinates": [[[23.9665, 49.4466], [23.9073, 49.488], [23.8821, 49.5252], [23.9436, 49.5654], [23.8958, 49.6142], [23.802, 49.6528], [23.6898, 49.6454], [23.5983, 49.6083], [23.5205, 49.5623], [23.4816, 49.5237], [23.4472, 49.4806], [23.4703, 49.4313], [23.374, 49.3898], [23.2436, 49.3794], [23.1932, 49.3347], [23.2167, 49.2842], [23.2436, 49.3033], [23.3145, 49.2511], [23.3443, 49.2167], [23.3603, 49.1778], [23.3626, 49.1434], [23.3979, 49.089], [23.4889, 49.1385], [23.4862, 49.1868], [23.5624, 49.1785], [23.6625, 49.1808], [23.817, 49.253], [23.8199, 49.3814], [23.9173, 49.3918], [23.9665, 49.4466]]]}}, {"type": "Feature", "properties": {"osm_type": "relation", "osm_id": 800937652, "name": "Staryi Sambir", "admin_level": "6", "kind": "subdivision_2", "parent_osm_id": 72380, "parent_name": "Lviv Oblast", "parent_iso": "UA-46"}, "geometry": {"type": "Polygon", "coordinates": [[[23.2167, 49.2842], [23.1932, 49.3347], [23.2436, 49.3794], [23.1978, 49.4434], [23.2413, 49.4568], [23.2985, 49.491], [23.287, 49.5326], [23.2046, 49.5905], [23.239, 49.6246], [23.1886, 49.6439], [23.1772, 49.6839], [23.1474, 49.7475], [23.0994, 49.7756], [23.0444, 49.7815], [22.9392, 49.7667], [22.8408, 49.6957], [22.7996, 49.6543], [22.7309, 49.6083], [22.7057, 49.5712], [22.6874, 49.494], [22.708, 49.3958], [22.7263, 49.36], [22.7861, 49.3395], [22.8156, 49.3421], [22.9094, 49.3123], [22.9781, 49.2645], [23.0216, 49.2854], [23.1286, 49.2215], [23.2167, 49.2842]]]}}, {"type": "Feature", "properties": {"osm_type": "relation", "osm_id": 541286850, "name": "Sambir", "admin_level": "6", "kind": "subdivision_2", "parent_osm_id": 72380, "parent_name": "Lviv Oblast", "parent_iso": "UA-46"}, "geometry": {"type": "Polygon", "coordinates": [[[23.802, 49.6528], [23.7493, 49.6943], [23.7265, 49.7342], [23.6349, 49.752], [23.5663, 49.7756], [23.5045, 49.8081], [23.427, 49.7824], [23.3946, 49.752], [23.1709, 49.6973], [23.1886, 49.6439], [23.239, 49.6246], [23.2046, 49.5905], [23.287, 49.5326], [23.2985, 49.491], [23.2413, 49.4568], [23.1978, 49.4434], [23.2436, 49.3794], [23.374, 49.3898], [23.4703, 49.4313], [23.4472, 49.4806], [23.4816, 49.5237], [23.5205, 49.5623], [23.5983, 49.6083], [23.6898, 49.6454], [23.802, 49.6528]]]}}, {"type": "Feature", "properties": {"osm_type": "relation", "osm_id": 465986507, "name": "Mostyska", "admin_level": "6", "kind": "subdivision_2", "parent_osm_id": 72380, "parent_name": "Lviv Oblast", "parent_iso": "UA-46"}, "geometry": {"type": "Polygon", "coordinates": [[[23.1709, 49.6973], [23.3946, 49.752], [23.427, 49.7824], [23.5045, 49.8081], [23.5663, 49.848], [23.5869, 49.8996], [23.564, 49.9335], [23.4221, 50.0086], [23.3511, 50.035], [23.2925, 49.9936], [23.2664, 49.9394], [23.2192, 49.9109], [23.1443, 49.8825], [23.0828, 49.8683], [23.0333, 49.8215], [22.9978, 49.8173], [22.9849, 49.7756], [23.0444, 49.7815], [23.0994, 49.7756], [23.1474, 49.7475], [23.1709, 49.6973]]]}}, {"type": "Feature", "properties": {"osm_type": "relation", "osm_id": 402145639, "name": "Horodok", "admin_level": "6", "kind": "subdivision_2", "parent_osm_id": 72380, "parent_name": "Lviv Oblast", "parent_iso": "UA-46"}, "geometry": {"type": "Polygon", "coordinates": [[[24.0865, 49.7081], [24.0523, 49.7895], [24.0416, 49.8541], [24.1274, 49.8794], [24.181, 49.9025], [24.2168, 49.983], [24.1024, 49.9485], [24.0476, 49.947], [23.9379, 49.9025], [23.8107, 49.913], [23.7483, 49.9623], [23.564, 49.9335], [23.5869, 49.8996], [23.5663, 49.848], [23.5045, 49.8081], [23.5663, 49.7756], [23.6349, 49.752], [23.7265, 49.7342], [23.7493, 49.6943], [23.802, 49.6528], [23.8958, 49.6142], [23.9942, 49.592], [24.0103, 49.6572], [24.0125, 49.6987], [24.0865, 49.7081]]]}}, {"type": "Feature", "properties": {"osm_type": "relation", "osm_id": 651610762, "name": "Pustomyty", "admin_level": "6", "kind": "subdivision_2", "parent_osm_id": 72380, "parent_name": "Lviv Oblast", "parent_iso": "UA-46"}, "geometry": {"type": "Polygon", "coordinates": [[[24.5279, 49.9669], [24.4314, 50.0175], [24.3134, 50.0451], [24.2311, 50.0542], [24.1703, 50.0221], [24.2168, 49.983], [24.181, 49.9025], [24.1274, 49.8794], [24.0416, 49.8541], [24.0523, 49.7895], [24.0865, 49.7081], [24.181, 49.7202], [24.1775, 49.7571], [24.3205, 49.7479], [24.4814, 49.7548], [24.5331, 49.822], [24.4957, 49.8541], [24.5494, 49.9094], [24.5279, 49.9669]]]}}, {"type": "Feature", "properties": {"osm_type": "relation", "osm_id": 301680304, "name": "Yavoriv", "admin_level": "6", "kind": "subdivision_2", "parent_osm_id": 72380, "parent_name": "Lviv Oblast", "parent_iso": "UA-46"}, "geometry": {"type": "Polygon", "coordinates": [[[23.564, 49.9335], [23.7483, 49.9623], [23.8107, 49.913], [23.9379, 49.9025], [24.0476, 49.947], [24.1024, 49.9485], [24.2168, 49.983], [24.1703, 50.0221], [24.1238, 50.0772], [24.0487, 50.1322], [23.9307, 50.146], [23.734, 50.1529], [23.6411, 50.2307], [23.5409, 50.217], [23.3872, 50.1414], [23.3511, 50.035], [23.4221, 50.0086], [23.564, 49.9335]]]}}, {"type": "Feature", "properties": {"osm_type": "relation", "osm_id": 349965884, "name": "Radekhiv", "admin_level": "6", "kind": "subdivision_2", "parent_osm_id": 72380, "parent_name": "Lviv Oblast", "parent_iso": "UA-46"}, "geometry": {"type": "Polygon", "coordinates": [[[24.5565, 50.4703], [24.5023, 50.3851], [24.4077, 50.3776], [24.3849, 50.3084], [24.5494, 50.2238], [24.6817, 50.1437], [24.9404, 50.1442], [25.0143, 50.217], [24.8998, 50.3016], [24.7854, 50.3107], [24.7318, 50.3792], [24.628, 50.3906], [24.5565, 50.4703]]]}}, {"type": "Feature", "properties": {"osm_type": "relation", "osm_id": 107613390, "name": "Kamianka-Buzka", "admin_level": "6", "kind": "subdivision_2", "parent_osm_id": 72380, "parent_name": "Lviv Oblast", "parent_iso": "UA-46"}, "geometry": {"type": "Polygon", "coordinates": [[[24.6817, 50.1437], [24.5494, 50.2238], [24.3849, 50.3084], [24.3124, 50.1584], [24.3269, 50.1053], [24.3099, 50.0454], [24.4314, 50.0175], [24.5279, 49.9669], [24.5601, 50.0175], [24.5673, 50.0955], [24.6443, 50.1056], [24.6817, 50.1437]]]}}, {"type": "Feature", "properties": {"osm_type": "relation", "osm_id": 507107771, "name": "Zhovkva", "admin_level": "6", "kind": "subdivision_2", "parent_osm_id": 72380, "parent_name": "Lviv Oblast", "parent_iso": "UA-46"}, "geometry": {"type": "Polygon", "coordinates": [[[24.3099, 50.0454], [24.3269, 50.1053], [24.3124, 50.1584], [24.3372, 50.2098], [24.2683, 50.2119], [24.1521, 50.2316], [24.0835, 50.2624], [24.0492, 50.2989], [23.9942, 50.3194], [23.9073, 50.3413], [23.818, 50.3559], [23.7379, 50.3515], [23.6411, 50.2307], [23.734, 50.1529], [23.9307, 50.146], [24.0487, 50.1322], [24.1238, 50.0772], [24.1703, 50.0221], [24.2311, 50.0542], [24.3099, 50.0454]]]}}, {"type": "Feature", "properties": {"osm_type": "relation", "osm_id": 335319276, "name": "Sokal", "admin_level": "6", "kind": "subdivision_2", "parent_osm_id": 72380, "parent_name": "Lviv Oblast", "parent_iso": "UA-46"}, "geometry": {"type": "Polygon", "coordinates": [[[24.5719, 50.537], [24.3992, 50.5453], [24.3241, 50.5658], [24.181, 50.618], [24.1041, 50.4434], [23.8798, 50.4201], [23.8108, 50.4169], [23.7791, 50.3997], [23.7567, 50.3525], [23.818, 50.3559], [23.9073, 50.3413], [23.9942, 50.3194], [24.0492, 50.2989], [24.0835, 50.2624], [24.1521, 50.2316], [24.2683, 50.2119], [24.3372, 50.2098], [24.3849, 50.3084], [24.4077, 50.3776], [24.5023, 50.3851], [24.5565, 50.4703], [24.6602, 50.4635], [24.5719, 50.537]]]}}]}