{"type": "FeatureCollection", "parent": {"osm_id": 72526, "name": "Chernivtsi Oblast", "admin_level": "4", "kind": "subdivision_1", "child_kind": "subdivision_2", "iso": "UA-77"}, "features": [{"type": "Feature", "properties": {"osm_type": "relation", "osm_id": 794216795, "name": "Sokyriany", "admin_level": "6", "kind": "subdivision_2", "parent_osm_id": 72526, "parent_name": "Chernivtsi Oblast", "parent_iso": "UA-77"}, "geometry": {"type": "Polygon", "coordinates": [[[27.4173, 48.5599], [27.0716, 48.4501], [27.1666, 48.3202], [27.3621, 48.3091], [27.5354, 48.3797], [27.5734, 48.4448], [27.5532, 48.4509], [27.4603, 48.5054], [27.4173, 48.5599]]]}}, {"type": "Feature", "properties": {"osm_type": "relation", "osm_id": 543416101, "name": "Kelmentsi", "admin_level": "6", "kind": "subdivision_2", "parent_osm_id": 72526, "parent_name": "Chernivtsi Oblast", "parent_iso": "UA-77"}, "geometry": {"type": "Polygon", "coordinates": [[[27.125, 48.4671], [27.1107, 48.5168], [26.986, 48.5009], [26.8146, 48.5427], [26.6997, 48.4852], [26.6525, 48.4872], [26.673, 48.4303], [26.5519, 48.4205], [26.7699, 48.2831], [26.8481, 48.2161], [26.9095, 48.2608], [26.8816, 48.3351], [26.9934, 48.2868], [27.1524, 48.34], [27.0716, 48.4501], [27.125, 48.4671]]]}}, {"type": "Feature", "properties": {"osm_type": "relation", "osm_id": 508387508, "name": "Khotyn", "admin_level": "6", "kind": "subdivision_2", "parent_osm_id": 72526, "parent_name": "Chernivtsi Oblast", "parent_iso": "UA-77"}, "geometry": {"type": "Polygon", "coordinates": [[[26.5519, 48.4205], [26.5376, 48.4556], [26.4599, 48.4407], [26.2837, 48.4793], [26.2337, 48.4461], [26.1729, 48.3892], [26.298, 48.2798], [26.3874, 48.2631], [26.4447, 48.2798], [26.5305, 48.275], [26.6235, 48.2917], [26.6702, 48.3482], [26.5519, 48.4205]]]}}, {"type": "Feature", "properties": {"osm_type": "relation", "osm_id": 375650327, "name": "Novoselytsia", "admin_level": "6", "kind": "subdivision_2", "parent_osm_id": 72526, "parent_name": "Chernivtsi Oblast", "parent_iso": "UA-77"}, "geometry": {"type": "Polygon", "coordinates": [[[26.6702, 48.3482], [26.6235, 48.2917], [26.5305, 48.275], [26.4447, 48.2798], [26.3874, 48.2631], [26.298, 48.2798], [26.1729, 48.3892], [26.0263, 48.3559], [26.0728, 48.3107], [26.0959, 48.2763], [26.0513, 48.2107], [26.1371, 48.1917], [26.2659, 48.1487], [26.3696, 48.1297], [26.5734, 48.1416], [26.627, 48.1583], [26.67, 48.1964], [26.6914, 48.2346], [26.7896, 48.2661], [26.6702, 48.3482]]]}}, {"type": "Feature", "properties": {"osm_type": "relation", "osm_id": 610818941, "name": "Hertsa", "admin_level": "6", "kind": "subdivision_2", "parent_osm_id": 72526, "parent_name": "Chernivtsi Oblast", "parent_iso": "UA-77"}, "geometry": {"type": "Polygon", "coordinates": [[[26.0513, 48.2107], [26.0155, 48.1774], [26.0958, 48.1173], [26.1228, 48.0604], [26.1895, 48.0428], [26.2301, 47.9934], [26.2802, 48.0508], [26.3445, 48.0867], [26.3696, 48.1297], [26.2659, 48.1487], [26.1371, 48.1917], [26.0513, 48.2107]]]}}, {"type": "Feature", "properties": {"osm_type": "relation", "osm_id": 569836679, "name": "Hlyboka", "admin_level": "6", "kind": "subdivision_2", "parent_osm_id": 72526, "parent_name": "Chernivtsi Oblast", "parent_iso": "UA-77"}, "geometry": {"type": "Polygon", "coordinates": [[[26.0155, 48.1774], [25.7867, 48.0604], [25.7509, 47.9862], [25.7903, 47.8928], [25.9762, 47.876], [26.0442, 47.9], [26.1979, 47.9384], [26.2301, 47.9934], [26.1895, 48.0428], [26.1228, 48.0604], [26.0958, 48.1173], [26.0155, 48.1774]]]}}, {"type": "Feature", "properties": {"osm_type": "relation", "osm_id": 635040209, "name": "Zastavna", "admin_level": "6", "kind": "subdivision_2", "parent_osm_id": 72526, "parent_name": "Chernivtsi Oblast", "parent_iso": "UA-77"}, "geometry": {"type": "Polygon", "coordinates": [[[26.2837, 48.4793], [26.2158, 48.5669], [26.1514, 48.5669], [26.1451, 48.5124], [26.1049, 48.522], [26.0835, 48.6143], [26.0442, 48.548], [25.919, 48.5409], [25.8689, 48.6213], [25.7223, 48.6072], [25.6937, 48.5385], [25.7616, 48.5196], [25.7938, 48.4603], [25.8904, 48.3892], [25.9011, 48.3559], [26.0263, 48.3559], [26.1729, 48.3892], [26.2337, 48.4461], [26.2837, 48.4793]]]}}, {"type": "Feature", "properties": {"osm_type": "relation", "osm_id": 297480146, "name": "Kitsman", "admin_level": "6", "kind": "subdivision_2", "parent_osm_id": 72526, "parent_name": "Chernivtsi Oblast", "parent_iso": "UA-77"}, "geometry": {"type": "Polygon", "coordinates": [[[26.0263, 48.3559], [25.9011, 48.3559], [25.8904, 48.3892], [25.7938, 48.4603], [25.7616, 48.5196], [25.6937, 48.5385], [25.7365, 48.4748], [25.6615, 48.382], [25.615, 48.3583], [25.6222, 48.2965], [25.6115, 48.2107], [25.6915, 48.1959], [25.8296, 48.225], [25.8653, 48.1607], [25.9561, 48.147], [26.0155, 48.1774], [26.0513, 48.2107], [26.0959, 48.2763], [26.0728, 48.3107], [26.0263, 48.3559]]]}}, {"type": "Feature", "properties": {"osm_type": "relation", "osm_id": 785869526, "name": "Storozhynets", "admin_level": "6", "kind": "subdivision_2", "parent_osm_id": 72526, "parent_name": "Chernivtsi Oblast", "parent_iso": "UA-77"}, "geometry": {"type": "Polygon", "coordinates": [[[25.9561, 48.147], [25.8653, 48.1607], [25.8296, 48.225], [25.6915, 48.1959], [25.6115, 48.2107], [25.4791, 48.1464], [25.5372, 48.0933], [25.5149, 48.058], [25.404, 48.0197], [25.4255, 47.9527], [25.4756, 47.924], [25.5578, 47.888], [25.6401, 47.8904], [25.7295, 47.8856], [25.7783, 47.9182], [25.7509, 47.9862], [25.7867, 48.0604], [25.9561, 48.147]]]}}, {"type": "Feature", "properties": {"osm_type": "relation", "osm_id": 350982022, "name": "Vyzhnytsia", "admin_level": "6", "kind": "subdivision_2", "parent_osm_id": 72526, "parent_name": "Chernivtsi Oblast", "parent_iso": "UA-77"}, "geometry": {"type": "Polygon", "coordinates": [[[25.615, 48.3583], [25.5435, 48.3844], [25.4541, 48.344], [25.4207, 48.2997], [25.3468, 48.2774], [25.3325, 48.2346], [25.2074, 48.2417], [25.2431, 48.1631], [25.1466, 48.1678], [25.168, 48.0962], [25.2217, 48.0269], [25.2395, 47.9479], [25.3039, 47.9], [25.3683, 47.876], [25.4183, 47.8472], [25.5341, 47.8984], [25.4756, 47.924], [25.4255, 47.9527], [25.404, 48.0197], [25.5149, 48.058], [25.5372, 48.0933], [25.4791, 48.1464], [25.6115, 48.2107], [25.6222, 48.2965], [25.615, 48.3583]]]}}, {"type": "Feature", "properties": {"osm_type": "relation", "osm_id": 784168921, "name": "Putyla", "admin_level": "6", "kind": "subdivision_2", "parent_osm_id": 72526, "parent_name": "Chernivtsi Oblast", "parent_iso": "UA-77"}, "geometry": {"type": "Polygon", "coordinates": [[[25.168, 48.0962], [25.0643, 48.0986], [25.0, 48.0341], [25.0, 47.9575], [25.0214, 47.8856], [25.075, 47.84], [24.9434, 47.7894], [24.8927, 47.7199], [24.9427, 47.6934], [25.1287, 47.6982], [25.3003, 47.8136], [25.4101, 47.852], [25.3683, 47.876], [25.3039, 47.9], [25.2395, 47.9479], [25.2217, 48.0269], [25.168, 48.0962]]]}}]}