{"type": "FeatureCollection", "parent": {"osm_id": 822680944, "name": "Tiền Giang", "admin_level": "4", "kind": "subdivision_1", "child_kind": "subdivision_2", "iso": "VN-46"}, "features": [{"type": "Feature", "properties": {"osm_type": "relation", "osm_id": 352943957, "name": "Cai Be", "admin_level": "6", "kind": "subdivision_2", "parent_osm_id": 822680944, "parent_name": "Tiền Giang", "parent_iso": "VN-46"}, "geometry": {"type": "Polygon", "coordinates": [[[106.0119, 10.3163], [106.0305, 10.3255], [106.0533, 10.322], [106.0543, 10.3339], [106.0461, 10.3359], [106.0468, 10.3446], [106.0361, 10.3507], [106.0338, 10.3592], [106.0407, 10.3688], [106.047, 10.3958], [106.0319, 10.4109], [106.0374, 10.4182], [106.0008, 10.4709], [106.0016, 10.5323], [105.942, 10.5364], [105.9418, 10.4945], [105.8595, 10.4077], [105.8443, 10.3657], [105.8157, 10.3702], [105.8168, 10.3224], [105.8296, 10.318], [105.8214, 10.3093], [105.836, 10.305], [105.8384, 10.2979], [105.8744, 10.2916], [105.8982, 10.2738], [105.9273, 10.2842], [105.9793, 10.3284], [105.9926, 10.3302], [106.0119, 10.3163]]]}}, {"type": "Feature", "properties": {"osm_type": "relation", "osm_id": 904589443, "name": "Chau Thanh", "admin_level": "6", "kind": "subdivision_2", "parent_osm_id": 822680944, "parent_name": "Tiền Giang", "parent_iso": "VN-46"}, "geometry": {"type": "Polygon", "coordinates": [[[106.39, 10.4774], [106.3706, 10.4882], [106.3739, 10.4945], [106.3686, 10.498], [106.3692, 10.5175], [106.3479, 10.5288], [106.3437, 10.5098], [106.3293, 10.5132], [106.3258, 10.5078], [106.331, 10.5056], [106.3291, 10.501], [106.3202, 10.5028], [106.3141, 10.4969], [106.3233, 10.4794], [106.3263, 10.4596], [106.319, 10.4596], [106.3218, 10.4508], [106.2987, 10.4489], [106.3, 10.4417], [106.2725, 10.437], [106.2719, 10.4409], [106.2393, 10.4311], [106.2361, 10.4417], [106.2141, 10.4547], [106.2076, 10.4455], [106.2032, 10.4547], [106.1907, 10.454], [106.1987, 10.433], [106.193, 10.4312], [106.1942, 10.4215], [106.1792, 10.418], [106.1867, 10.4039], [106.194, 10.4002], [106.1953, 10.386], [106.19, 10.3839], [106.1898, 10.3753], [106.1963, 10.3609], [106.1906, 10.3544], [106.1913, 10.3478], [106.1827, 10.3405], [106.1883, 10.3359], [106.1886, 10.3248], [106.2013, 10.325], [106.2058, 10.3142], [106.2862, 10.3282], [106.2862, 10.3317], [106.3139, 10.3382], [106.3067, 10.3538], [106.3052, 10.3918], [106.3105, 10.3906], [106.3189, 10.4033], [106.3381, 10.3928], [106.3444, 10.3979], [106.3527, 10.422], [106.3454, 10.4358], [106.3466, 10.4529], [106.3647, 10.4564], [106.3717, 10.4742], [106.3875, 10.4733], [106.39, 10.4774]]]}}, {"type": "Feature", "properties": {"osm_type": "relation", "osm_id": 492041782, "name": "Cho Gao", "admin_level": "6", "kind": "subdivision_2", "parent_osm_id": 822680944, "parent_name": "Tiền Giang", "parent_iso": "VN-46"}, "geometry": {"type": "Polygon", "coordinates": [[[106.4744, 10.3064], [106.5204, 10.3053], [106.5463, 10.2993], [106.5544, 10.3185], [106.5463, 10.3217], [106.5518, 10.3348], [106.5437, 10.332], [106.5415, 10.3364], [106.5251, 10.3276], [106.5211, 10.3382], [106.5267, 10.3496], [106.5216, 10.3499], [106.5212, 10.3563], [106.5153, 10.3554], [106.5147, 10.362], [106.5278, 10.3675], [106.5324, 10.3763], [106.5385, 10.3755], [106.5432, 10.3942], [106.5498, 10.3992], [106.5469, 10.4108], [106.5241, 10.4092], [106.5277, 10.4155], [106.5128, 10.4288], [106.488, 10.4105], [106.4862, 10.4038], [106.4816, 10.4047], [106.4799, 10.3971], [106.465, 10.3995], [106.456, 10.3954], [106.454, 10.4001], [106.4483, 10.399], [106.4489, 10.404], [106.4545, 10.4013], [106.4602, 10.4051], [106.4522, 10.4133], [106.4253, 10.4114], [106.4212, 10.4274], [106.415, 10.433], [106.4271, 10.4341], [106.447, 10.4507], [106.4538, 10.4511], [106.4416, 10.4586], [106.4413, 10.4667], [106.4168, 10.4822], [106.4173, 10.4882], [106.4034, 10.4922], [106.3893, 10.474], [106.3717, 10.4742], [106.3647, 10.4564], [106.3466, 10.4529], [106.3454, 10.4358], [106.3527, 10.422], [106.345, 10.4026], [106.3563, 10.3958], [106.3805, 10.4053], [106.3972, 10.3961], [106.4017, 10.4028], [106.4024, 10.3921], [106.41, 10.3876], [106.4048, 10.3788], [106.4139, 10.3505], [106.3991, 10.3355], [106.4483, 10.3065], [106.4744, 10.3064]]]}}, {"type": "Feature", "properties": {"osm_type": "relation", "osm_id": 179469643, "name": "Go Cong", "admin_level": "6", "kind": "subdivision_2", "parent_osm_id": 822680944, "parent_name": "Tiền Giang", "parent_iso": "VN-46"}, "geometry": {"type": "Polygon", "coordinates": [[[106.5869, 10.4376], [106.5869, 10.4262], [106.6007, 10.4262], [106.6235, 10.4031], [106.6264, 10.3928], [106.6342, 10.392], [106.6332, 10.3805], [106.6464, 10.3583], [106.6508, 10.3588], [106.6515, 10.3348], [106.6737, 10.3409], [106.6784, 10.3354], [106.7152, 10.3602], [106.6861, 10.3943], [106.6938, 10.3969], [106.6888, 10.4064], [106.6981, 10.4233], [106.6853, 10.4283], [106.6901, 10.4289], [106.6916, 10.4401], [106.6885, 10.445], [106.6771, 10.4387], [106.6633, 10.4421], [106.6588, 10.4754], [106.6536, 10.4825], [106.6392, 10.4799], [106.6275, 10.4522], [106.5973, 10.4366], [106.5869, 10.4376]]]}}, {"type": "Feature", "properties": {"osm_type": "relation", "osm_id": 106065096, "name": "Go Cong Dong", "admin_level": "6", "kind": "subdivision_2", "parent_osm_id": 822680944, "parent_name": "Tiền Giang", "parent_iso": "VN-46"}, "geometry": {"type": "Polygon", "coordinates": [[[106.6885, 10.445], [106.6922, 10.4356], [106.6901, 10.4289], [106.6853, 10.4283], [106.6981, 10.4233], [106.6888, 10.4064], [106.6938, 10.3969], [106.6861, 10.3943], [106.7152, 10.3602], [106.6784, 10.3354], [106.6871, 10.3211], [106.6629, 10.3127], [106.6618, 10.3047], [106.6699, 10.2901], [106.6836, 10.2942], [106.6995, 10.2824], [106.7442, 10.2664], [106.7536, 10.2578], [106.757, 10.2669], [106.7817, 10.2925], [106.7832, 10.3819], [106.8167, 10.3926], [106.7612, 10.4538], [106.735, 10.4973], [106.706, 10.4724], [106.6885, 10.445]]]}}, {"type": "Feature", "properties": {"osm_type": "relation", "osm_id": 452308847, "name": "Go Cong Tay", "admin_level": "6", "kind": "subdivision_2", "parent_osm_id": 822680944, "parent_name": "Tiền Giang", "parent_iso": "VN-46"}, "geometry": {"type": "Polygon", "coordinates": [[[106.5191, 10.4247], [106.5277, 10.4155], [106.5241, 10.4092], [106.543, 10.4132], [106.5493, 10.4034], [106.5385, 10.3755], [106.5324, 10.3763], [106.5278, 10.3675], [106.5147, 10.362], [106.5153, 10.3554], [106.5212, 10.3563], [106.5216, 10.3499], [106.5267, 10.3496], [106.5211, 10.3382], [106.5251, 10.3276], [106.5415, 10.3364], [106.5437, 10.332], [106.5518, 10.3348], [106.5463, 10.3217], [106.5544, 10.3185], [106.5437, 10.2977], [106.5745, 10.2883], [106.6215, 10.2864], [106.6488, 10.276], [106.6567, 10.2775], [106.6699, 10.2901], [106.6606, 10.3108], [106.6871, 10.3211], [106.6737, 10.3409], [106.6515, 10.3348], [106.6508, 10.3588], [106.6464, 10.3583], [106.6332, 10.3805], [106.6342, 10.392], [106.6264, 10.3928], [106.6149, 10.4137], [106.6007, 10.4262], [106.5869, 10.4262], [106.589, 10.4185], [106.5715, 10.4119], [106.5585, 10.4131], [106.5584, 10.424], [106.5484, 10.4247], [106.5461, 10.4295], [106.5375, 10.4208], [106.5292, 10.4335], [106.5191, 10.4247]]]}}, {"type": "Feature", "properties": {"osm_type": "relation", "osm_id": 473425195, "name": "Huyen Cai Lay", "admin_level": "6", "kind": "subdivision_2", "parent_osm_id": 822680944, "parent_name": "Tiền Giang", "parent_iso": "VN-46"}, "geometry": {"type": "Polygon", "coordinates": [[[106.0119, 10.3163], [106.0346, 10.2985], [106.0823, 10.2774], [106.1049, 10.2843], [106.143, 10.284], [106.2058, 10.3142], [106.2013, 10.325], [106.1886, 10.3248], [106.1883, 10.3359], [106.1827, 10.3405], [106.1913, 10.3478], [106.1906, 10.3544], [106.1963, 10.3609], [106.1897, 10.3798], [106.1798, 10.3733], [106.1717, 10.3748], [106.1631, 10.3659], [106.1587, 10.3727], [106.1425, 10.3735], [106.1395, 10.3603], [106.1268, 10.3539], [106.1181, 10.3605], [106.1093, 10.3517], [106.0998, 10.3543], [106.0989, 10.3732], [106.0887, 10.3772], [106.0924, 10.3796], [106.0843, 10.3926], [106.0963, 10.401], [106.0918, 10.4105], [106.1025, 10.4143], [106.0986, 10.4244], [106.105, 10.4273], [106.103, 10.4343], [106.0919, 10.4397], [106.0941, 10.483], [106.0906, 10.4919], [106.0983, 10.4991], [106.0899, 10.5236], [106.0016, 10.5323], [106.0008, 10.4709], [106.0374, 10.4182], [106.0319, 10.4109], [106.047, 10.3958], [106.0407, 10.3688], [106.0338, 10.3592], [106.0361, 10.3507], [106.0468, 10.3446], [106.0461, 10.3359], [106.0548, 10.3318], [106.0517, 10.3206], [106.0305, 10.3255], [106.0119, 10.3163]]]}}, {"type": "Feature", "properties": {"osm_type": "relation", "osm_id": 601542464, "name": "My Tho", "admin_level": "6", "kind": "subdivision_2", "parent_osm_id": 822680944, "parent_name": "Tiền Giang", "parent_iso": "VN-46"}, "geometry": {"type": "Polygon", "coordinates": [[[106.2862, 10.3282], [106.3034, 10.3188], [106.3691, 10.3399], [106.3991, 10.3355], [106.4139, 10.3505], [106.4048, 10.3788], [106.41, 10.3876], [106.4024, 10.3921], [106.4017, 10.4028], [106.3972, 10.3961], [106.3805, 10.4053], [106.3563, 10.3958], [106.345, 10.4026], [106.3381, 10.3928], [106.3189, 10.4033], [106.3105, 10.3906], [106.3052, 10.3918], [106.3067, 10.3538], [106.3139, 10.3382], [106.2862, 10.3317], [106.2862, 10.3282]]]}}, {"type": "Feature", "properties": {"osm_type": "relation", "osm_id": 490882720, "name": "Tan Phu Dong", "admin_level": "6", "kind": "subdivision_2", "parent_osm_id": 822680944, "parent_name": "Tiền Giang", "parent_iso": "VN-46"}, "geometry": {"type": "Polygon", "coordinates": [[[106.7885, 10.1917], [106.7902, 10.2003], [106.8005, 10.2077], [106.7922, 10.223], [106.7442, 10.2664], [106.6995, 10.2824], [106.6836, 10.2942], [106.6762, 10.2945], [106.6567, 10.2775], [106.6488, 10.276], [106.6215, 10.2864], [106.5578, 10.2914], [106.5204, 10.3053], [106.4744, 10.3064], [106.5415, 10.266], [106.6479, 10.2379], [106.7464, 10.1935], [106.7885, 10.1917]]]}}, {"type": "Feature", "properties": {"osm_type": "relation", "osm_id": 560981935, "name": "Tan Phuoc", "admin_level": "6", "kind": "subdivision_2", "parent_osm_id": 822680944, "parent_name": "Tiền Giang", "parent_iso": "VN-46"}, "geometry": {"type": "Polygon", "coordinates": [[[106.3479, 10.5288], [106.3482, 10.5446], [106.34, 10.5462], [106.3198, 10.5704], [106.3103, 10.5657], [106.2864, 10.5871], [106.2049, 10.579], [106.1018, 10.5758], [106.1026, 10.5229], [106.0899, 10.5236], [106.0983, 10.4991], [106.1409, 10.4892], [106.1443, 10.4828], [106.179, 10.4739], [106.187, 10.4661], [106.1848, 10.4573], [106.2032, 10.4547], [106.2076, 10.4455], [106.2141, 10.4547], [106.2361, 10.4417], [106.2393, 10.4311], [106.2719, 10.4409], [106.2725, 10.437], [106.3, 10.4417], [106.2987, 10.4489], [106.3218, 10.4508], [106.319, 10.4596], [106.3263, 10.4596], [106.3233, 10.4794], [106.3141, 10.4969], [106.3202, 10.5028], [106.3291, 10.501], [106.331, 10.5056], [106.3258, 10.5078], [106.3293, 10.5132], [106.3437, 10.5098], [106.3479, 10.5288]]]}}, {"type": "Feature", "properties": {"osm_type": "relation", "osm_id": 184604825, "name": "Thi xa Cai Lay", "admin_level": "6", "kind": "subdivision_2", "parent_osm_id": 822680944, "parent_name": "Tiền Giang", "parent_iso": "VN-46"}, "geometry": {"type": "Polygon", "coordinates": [[[106.1907, 10.454], [106.1848, 10.4573], [106.187, 10.4661], [106.179, 10.4739], [106.1443, 10.4828], [106.1409, 10.4892], [106.0962, 10.4996], [106.0916, 10.4965], [106.0919, 10.4397], [106.103, 10.4343], [106.105, 10.4273], [106.0986, 10.4244], [106.1025, 10.4143], [106.0918, 10.4105], [106.0963, 10.401], [106.0843, 10.3926], [106.0924, 10.3796], [106.0887, 10.3772], [106.0989, 10.3732], [106.0998, 10.3543], [106.1093, 10.3517], [106.1181, 10.3605], [106.1268, 10.3539], [106.1395, 10.3603], [106.1425, 10.3735], [106.1587, 10.3727], [106.1631, 10.3659], [106.1717, 10.3748], [106.1798, 10.3733], [106.1897, 10.3798], [106.1953, 10.386], [106.194, 10.4002], [106.1867, 10.4039], [106.1792, 10.418], [106.1942, 10.4215], [106.193, 10.4312], [106.1987, 10.433], [106.1907, 10.454]]]}}]}