{"type": "FeatureCollection", "parent": {"osm_id": 848208898, "name": "Thái Bình", "admin_level": "4", "kind": "subdivision_1", "child_kind": "subdivision_2", "iso": "VN-20"}, "features": [{"type": "Feature", "properties": {"osm_type": "relation", "osm_id": 445680038, "name": "Dong Hung", "admin_level": "6", "kind": "subdivision_2", "parent_osm_id": 848208898, "parent_name": "Thái Bình", "parent_iso": "VN-20"}, "geometry": {"type": "Polygon", "coordinates": [[[106.438, 20.5668], [106.4321, 20.579], [106.4236, 20.5778], [106.4177, 20.5827], [106.4193, 20.5922], [106.4073, 20.5916], [106.3964, 20.6034], [106.3837, 20.5992], [106.3874, 20.5946], [106.3822, 20.5905], [106.377, 20.5951], [106.3634, 20.5893], [106.3545, 20.6017], [106.3381, 20.591], [106.3357, 20.6095], [106.3238, 20.6083], [106.3283, 20.6137], [106.3186, 20.6131], [106.3145, 20.6095], [106.3181, 20.6039], [106.312, 20.6004], [106.3166, 20.5994], [106.3013, 20.5928], [106.2979, 20.5847], [106.2859, 20.5861], [106.2725, 20.5667], [106.2612, 20.5677], [106.2658, 20.5547], [106.2458, 20.558], [106.2492, 20.5536], [106.2427, 20.5439], [106.2508, 20.5378], [106.2501, 20.5335], [106.2387, 20.531], [106.2349, 20.5205], [106.2508, 20.5135], [106.2504, 20.5066], [106.2628, 20.5008], [106.2724, 20.5025], [106.2843, 20.4923], [106.2908, 20.4974], [106.2878, 20.5102], [106.2981, 20.5122], [106.3148, 20.5062], [106.3355, 20.5068], [106.3392, 20.5046], [106.3367, 20.5], [106.341, 20.5017], [106.344, 20.4953], [106.3585, 20.4978], [106.3643, 20.5058], [106.3753, 20.5008], [106.3776, 20.4888], [106.4038, 20.4825], [106.4233, 20.4859], [106.4358, 20.494], [106.4368, 20.5137], [106.4306, 20.5244], [106.4441, 20.5301], [106.4409, 20.5349], [106.4443, 20.538], [106.4334, 20.551], [106.4411, 20.563], [106.438, 20.5668]]]}}, {"type": "Feature", "properties": {"osm_type": "relation", "osm_id": 835423846, "name": "Hung Ha", "admin_level": "6", "kind": "subdivision_2", "parent_osm_id": 848208898, "parent_name": "Thái Bình", "parent_iso": "VN-20"}, "geometry": {"type": "Polygon", "coordinates": [[[106.3145, 20.6095], [106.302, 20.6093], [106.2893, 20.6277], [106.2911, 20.6363], [106.2785, 20.6383], [106.2808, 20.6528], [106.274, 20.6497], [106.2523, 20.6586], [106.2495, 20.6741], [106.2325, 20.6593], [106.2166, 20.6546], [106.2241, 20.6416], [106.203, 20.6437], [106.1736, 20.658], [106.1695, 20.6466], [106.1636, 20.645], [106.1428, 20.6597], [106.1097, 20.64], [106.1285, 20.6284], [106.1209, 20.6172], [106.1307, 20.6068], [106.1322, 20.5748], [106.1597, 20.564], [106.1719, 20.5465], [106.1796, 20.5191], [106.1918, 20.5217], [106.2181, 20.5119], [106.2364, 20.5167], [106.2387, 20.531], [106.2501, 20.5335], [106.2508, 20.5378], [106.2427, 20.5439], [106.2492, 20.5536], [106.2458, 20.558], [106.2658, 20.5547], [106.2612, 20.5677], [106.2725, 20.5667], [106.2859, 20.5861], [106.2979, 20.5847], [106.3013, 20.5928], [106.3166, 20.5994], [106.312, 20.6004], [106.3181, 20.6039], [106.3145, 20.6095]]]}}, {"type": "Feature", "properties": {"osm_type": "relation", "osm_id": 216780407, "name": "Kien Xuong", "admin_level": "6", "kind": "subdivision_2", "parent_osm_id": 848208898, "parent_name": "Thái Bình", "parent_iso": "VN-20"}, "geometry": {"type": "Polygon", "coordinates": [[[106.3883, 20.4867], [106.3828, 20.4713], [106.386, 20.4544], [106.3782, 20.4518], [106.39, 20.4513], [106.3965, 20.4314], [106.3719, 20.4258], [106.3631, 20.4279], [106.3672, 20.4109], [106.3573, 20.406], [106.3702, 20.3926], [106.3614, 20.3925], [106.3583, 20.3773], [106.3703, 20.3669], [106.3703, 20.3594], [106.3828, 20.3447], [106.4076, 20.3316], [106.4332, 20.2993], [106.4514, 20.2904], [106.4825, 20.2938], [106.4918, 20.3029], [106.4756, 20.3092], [106.4782, 20.3263], [106.4705, 20.3299], [106.4652, 20.3441], [106.4697, 20.3676], [106.4625, 20.3781], [106.4759, 20.3798], [106.4717, 20.3845], [106.4777, 20.3882], [106.4702, 20.4098], [106.4636, 20.4131], [106.4905, 20.4475], [106.4687, 20.4529], [106.4792, 20.479], [106.4728, 20.5014], [106.4641, 20.5026], [106.4491, 20.4857], [106.4358, 20.494], [106.4096, 20.4829], [106.3883, 20.4867]]]}}, {"type": "Feature", "properties": {"osm_type": "relation", "osm_id": 367164052, "name": "Quynh Phu", "admin_level": "6", "kind": "subdivision_2", "parent_osm_id": 848208898, "parent_name": "Thái Bình", "parent_iso": "VN-20"}, "geometry": {"type": "Polygon", "coordinates": [[[106.438, 20.5668], [106.4581, 20.5871], [106.4501, 20.5927], [106.4535, 20.5951], [106.4444, 20.6089], [106.4517, 20.605], [106.4643, 20.6151], [106.4502, 20.6202], [106.455, 20.6389], [106.4383, 20.6623], [106.4006, 20.6884], [106.4171, 20.7168], [106.4078, 20.7284], [106.4017, 20.7288], [106.3823, 20.7118], [106.358, 20.7011], [106.3331, 20.7107], [106.3027, 20.6896], [106.2939, 20.6969], [106.2948, 20.7063], [106.2878, 20.7112], [106.2828, 20.7087], [106.2888, 20.6981], [106.2861, 20.6933], [106.2753, 20.6928], [106.2653, 20.7043], [106.2503, 20.6981], [106.2562, 20.6895], [106.2695, 20.6847], [106.2495, 20.6741], [106.2523, 20.6586], [106.274, 20.6497], [106.2808, 20.6528], [106.2785, 20.6383], [106.2911, 20.6363], [106.2893, 20.6277], [106.302, 20.6093], [106.3283, 20.6137], [106.3238, 20.6083], [106.3357, 20.6095], [106.3381, 20.591], [106.3545, 20.6017], [106.3634, 20.5893], [106.377, 20.5951], [106.3822, 20.5905], [106.3874, 20.5946], [106.3837, 20.5992], [106.3964, 20.6034], [106.4073, 20.5916], [106.4193, 20.5922], [106.4177, 20.5827], [106.4236, 20.5778], [106.4321, 20.579], [106.438, 20.5668]]]}}, {"type": "Feature", "properties": {"osm_type": "relation", "osm_id": 715520038, "name": "Thai Binh", "admin_level": "6", "kind": "subdivision_2", "parent_osm_id": 848208898, "parent_name": "Thái Bình", "parent_iso": "VN-20"}, "geometry": {"type": "Polygon", "coordinates": [[[106.3367, 20.5], [106.3333, 20.4823], [106.3217, 20.48], [106.296, 20.4444], [106.3004, 20.436], [106.3135, 20.4353], [106.3201, 20.4104], [106.3148, 20.407], [106.3201, 20.3999], [106.3334, 20.4009], [106.338, 20.4061], [106.3349, 20.4095], [106.3648, 20.4299], [106.3719, 20.4258], [106.3965, 20.4314], [106.39, 20.4513], [106.3782, 20.4518], [106.386, 20.4544], [106.3828, 20.4713], [106.3883, 20.4867], [106.3776, 20.4888], [106.3753, 20.5008], [106.3643, 20.5058], [106.3505, 20.4954], [106.344, 20.4953], [106.341, 20.5017], [106.3367, 20.5]]]}}, {"type": "Feature", "properties": {"osm_type": "relation", "osm_id": 375378853, "name": "Thai Thuy", "admin_level": "6", "kind": "subdivision_2", "parent_osm_id": 848208898, "parent_name": "Thái Bình", "parent_iso": "VN-20"}, "geometry": {"type": "Polygon", "coordinates": [[[106.4358, 20.494], [106.4491, 20.4857], [106.4641, 20.5026], [106.4728, 20.5014], [106.4792, 20.479], [106.4687, 20.4529], [106.4729, 20.45], [106.4958, 20.4529], [106.5069, 20.4446], [106.5176, 20.4433], [106.5724, 20.4763], [106.5981, 20.4711], [106.6041, 20.4612], [106.6015, 20.4994], [106.5898, 20.5124], [106.5876, 20.5222], [106.5931, 20.5566], [106.6124, 20.5852], [106.6564, 20.6127], [106.6362, 20.627], [106.6118, 20.6269], [106.6014, 20.6398], [106.5685, 20.6197], [106.5589, 20.6267], [106.5467, 20.627], [106.5416, 20.6225], [106.54, 20.6084], [106.5276, 20.6026], [106.5195, 20.6025], [106.5117, 20.6135], [106.4931, 20.6166], [106.4819, 20.5995], [106.4717, 20.5982], [106.4643, 20.6151], [106.4517, 20.605], [106.4444, 20.6089], [106.4535, 20.5951], [106.4501, 20.5927], [106.4581, 20.5871], [106.438, 20.5668], [106.4411, 20.563], [106.4347, 20.5573], [106.4334, 20.551], [106.4443, 20.538], [106.4409, 20.5349], [106.4441, 20.5301], [106.4306, 20.5244], [106.4368, 20.5137], [106.4358, 20.494]]]}}, {"type": "Feature", "properties": {"osm_type": "relation", "osm_id": 602654464, "name": "Tien Hai", "admin_level": "6", "kind": "subdivision_2", "parent_osm_id": 848208898, "parent_name": "Thái Bình", "parent_iso": "VN-20"}, "geometry": {"type": "Polygon", "coordinates": [[[106.5919, 20.2441], [106.6028, 20.2649], [106.6239, 20.3441], [106.6209, 20.3719], [106.605, 20.3918], [106.6026, 20.4067], [106.6289, 20.4463], [106.6024, 20.462], [106.5981, 20.4711], [106.5724, 20.4763], [106.5176, 20.4433], [106.5069, 20.4446], [106.4958, 20.4529], [106.4815, 20.4515], [106.4905, 20.4475], [106.4636, 20.4131], [106.4702, 20.4098], [106.4777, 20.3882], [106.4717, 20.3845], [106.4759, 20.3798], [106.4625, 20.3781], [106.4697, 20.3676], [106.4652, 20.3441], [106.4705, 20.3299], [106.4782, 20.3263], [106.4756, 20.3092], [106.4918, 20.3029], [106.5277, 20.3162], [106.576, 20.268], [106.5919, 20.2441]]]}}, {"type": "Feature", "properties": {"osm_type": "relation", "osm_id": 624247527, "name": "Vu Thu", "admin_level": "6", "kind": "subdivision_2", "parent_osm_id": 848208898, "parent_name": "Thái Bình", "parent_iso": "VN-20"}, "geometry": {"type": "Polygon", "coordinates": [[[106.2364, 20.5167], [106.2181, 20.5119], [106.1918, 20.5217], [106.1796, 20.5191], [106.1784, 20.4965], [106.1898, 20.48], [106.2112, 20.4782], [106.2248, 20.4678], [106.2221, 20.4495], [106.2098, 20.4296], [106.2211, 20.4101], [106.2741, 20.4033], [106.2845, 20.3955], [106.2835, 20.3802], [106.2533, 20.3532], [106.2581, 20.3306], [106.2647, 20.3269], [106.2782, 20.3296], [106.3383, 20.3776], [106.3569, 20.3527], [106.3828, 20.3447], [106.3703, 20.3594], [106.3703, 20.3669], [106.3583, 20.3773], [106.3614, 20.3925], [106.3702, 20.3926], [106.3573, 20.406], [106.3672, 20.4109], [106.3631, 20.4279], [106.3459, 20.4195], [106.3349, 20.4095], [106.338, 20.4061], [106.3334, 20.4009], [106.3201, 20.3999], [106.3148, 20.407], [106.3201, 20.4104], [106.3135, 20.4353], [106.3004, 20.436], [106.296, 20.4444], [106.3217, 20.48], [106.3333, 20.4823], [106.3392, 20.5046], [106.29, 20.512], [106.2908, 20.4974], [106.2843, 20.4923], [106.2724, 20.5025], [106.2628, 20.5008], [106.2504, 20.5066], [106.2492, 20.5146], [106.2364, 20.5167]]]}}]}