{"type": "FeatureCollection", "parent": {"osm_id": 91685, "name": "Sălaj", "admin_level": "4", "kind": "subdivision_1", "child_kind": "subdivision_2", "iso": "RO-SJ"}, "features": [{"type": "Feature", "properties": {"osm_type": "relation", "osm_id": 741044593, "name": "HUEDIN", "admin_level": "6", "kind": "subdivision_2", "parent_osm_id": 91685, "parent_name": "Sălaj", "parent_iso": "RO-SJ"}, "geometry": {"type": "Polygon", "coordinates": [[[23.0476, 46.8363], [23.0551, 46.8362], [23.0646, 46.8469], [23.0704, 46.8461], [23.0683, 46.8587], [23.0902, 46.8626], [23.0834, 46.8672], [23.0833, 46.8779], [23.0923, 46.8902], [23.0649, 46.9006], [23.0651, 46.9045], [23.0571, 46.8946], [23.0405, 46.8883], [23.0452, 46.8842], [23.042, 46.8816], [23.0361, 46.8818], [23.0376, 46.8879], [23.0322, 46.8897], [23.0414, 46.8972], [23.035, 46.8962], [23.0335, 46.9015], [23.0269, 46.8927], [23.0229, 46.8958], [23.0119, 46.8878], [23.0091, 46.8927], [23.0139, 46.9008], [23.0052, 46.903], [23.0069, 46.9076], [22.9875, 46.9026], [22.9771, 46.9051], [22.9713, 46.9126], [22.9445, 46.919], [22.9333, 46.9099], [22.9388, 46.8869], [22.947, 46.8775], [22.972, 46.8723], [22.9621, 46.8681], [22.9771, 46.8624], [22.9851, 46.8493], [23.0129, 46.8407], [23.0218, 46.8454], [23.0223, 46.8379], [23.0445, 46.8403], [23.0476, 46.8363]]]}}, {"type": "Feature", "properties": {"osm_type": "relation", "osm_id": 364626824, "name": "FILDU DE JOS", "admin_level": "6", "kind": "subdivision_2", "parent_osm_id": 91685, "parent_name": "Sălaj", "parent_iso": "RO-SJ"}, "geometry": {"type": "Polygon", "coordinates": [[[23.0651, 46.9045], [23.0643, 46.9112], [23.0777, 46.9128], [23.0854, 46.9271], [23.0792, 46.9397], [23.0499, 46.9347], [23.0226, 46.9451], [23.0151, 46.9403], [23.0095, 46.944], [22.981, 46.9401], [22.9671, 46.9439], [22.9664, 46.9504], [22.9436, 46.968], [22.9167, 46.976], [22.9199, 46.9831], [22.9081, 46.9757], [22.8986, 46.9758], [22.8969, 46.9449], [22.9021, 46.9349], [22.9161, 46.9346], [22.9208, 46.926], [22.9323, 46.9222], [22.9313, 46.9187], [22.9713, 46.9126], [22.9771, 46.9051], [22.9875, 46.9026], [23.0069, 46.9076], [23.0052, 46.903], [23.0139, 46.9008], [23.0091, 46.8927], [23.0119, 46.8878], [23.0229, 46.8958], [23.0269, 46.8927], [23.0335, 46.9015], [23.035, 46.8962], [23.0414, 46.8972], [23.0322, 46.8897], [23.0376, 46.8879], [23.0361, 46.8818], [23.042, 46.8816], [23.0452, 46.8842], [23.0405, 46.8883], [23.0571, 46.8946], [23.0651, 46.9045]]]}}, {"type": "Feature", "properties": {"osm_type": "relation", "osm_id": 717791665, "name": "ALMASU", "admin_level": "6", "kind": "subdivision_2", "parent_osm_id": 91685, "parent_name": "Sălaj", "parent_iso": "RO-SJ"}, "geometry": {"type": "Polygon", "coordinates": [[[23.1624, 46.8792], [23.1577, 46.8877], [23.1612, 46.8926], [23.1574, 46.894], [23.1747, 46.9087], [23.1592, 46.9146], [23.1647, 46.9182], [23.1629, 46.924], [23.1705, 46.9256], [23.1712, 46.9369], [23.1564, 46.9463], [23.1601, 46.9544], [23.1733, 46.9576], [23.1652, 46.9588], [23.1332, 46.9945], [23.115, 47.0023], [23.08, 47.0045], [23.066, 47.0009], [23.0505, 47.0046], [23.034, 46.9964], [23.027, 47.0027], [23.0258, 47.0127], [23.013, 47.0034], [23.012, 46.9907], [23.0023, 46.9891], [22.9987, 46.9956], [22.9899, 46.9969], [22.9913, 47.0026], [22.9818, 46.9973], [22.9714, 47.006], [22.9509, 46.9994], [22.9398, 46.9833], [22.9249, 46.9866], [22.9167, 46.976], [22.9436, 46.968], [22.9664, 46.9504], [22.9671, 46.9439], [22.981, 46.9401], [23.0095, 46.944], [23.0151, 46.9403], [23.0226, 46.9451], [23.0499, 46.9347], [23.0792, 46.9397], [23.0854, 46.9271], [23.0777, 46.9128], [23.0643, 46.9112], [23.0649, 46.9006], [23.0923, 46.8902], [23.0833, 46.8779], [23.0834, 46.8672], [23.0903, 46.8598], [23.1043, 46.8604], [23.1048, 46.8534], [23.1512, 46.866], [23.1494, 46.8697], [23.1604, 46.8762], [23.1756, 46.8753], [23.1624, 46.8792]]]}}, {"type": "Feature", "properties": {"osm_type": "relation", "osm_id": 670445270, "name": "CUZAPLAC", "admin_level": "6", "kind": "subdivision_2", "parent_osm_id": 91685, "parent_name": "Sălaj", "parent_iso": "RO-SJ"}, "geometry": {"type": "Polygon", "coordinates": [[[23.195, 46.8695], [23.1987, 46.8695], [23.2003, 46.8821], [23.2226, 46.8926], [23.211, 46.9023], [23.2066, 46.9216], [23.2026, 46.9226], [23.2296, 46.9348], [23.2162, 46.9397], [23.2212, 46.9495], [23.2172, 46.953], [23.2288, 46.9524], [23.2341, 46.9569], [23.2283, 46.9637], [23.2426, 46.9562], [23.2376, 46.9473], [23.2587, 46.935], [23.2545, 46.9264], [23.2589, 46.9142], [23.278, 46.9107], [23.2764, 46.9016], [23.2832, 46.8975], [23.3241, 46.9142], [23.3388, 46.9085], [23.355, 46.92], [23.3452, 46.9206], [23.3446, 46.9249], [23.3599, 46.9271], [23.36, 46.9307], [23.3064, 46.9488], [23.2833, 46.948], [23.2636, 46.9628], [23.2485, 46.9615], [23.2338, 46.9761], [23.2368, 46.9818], [23.2316, 46.9859], [23.2174, 46.982], [23.2216, 46.9841], [23.217, 46.9954], [23.2031, 47.002], [23.2026, 47.0062], [23.1779, 47.0107], [23.1543, 47.0055], [23.1202, 47.0175], [23.0974, 47.0133], [23.0995, 47.0037], [23.1332, 46.9945], [23.1652, 46.9588], [23.1733, 46.9576], [23.1601, 46.9544], [23.1564, 46.9463], [23.1712, 46.9369], [23.1705, 46.9256], [23.1629, 46.924], [23.1647, 46.9182], [23.1592, 46.9146], [23.1747, 46.9087], [23.1574, 46.894], [23.1612, 46.8926], [23.1577, 46.8877], [23.1624, 46.8792], [23.1762, 46.8795], [23.195, 46.8695]]]}}, {"type": "Feature", "properties": {"osm_type": "relation", "osm_id": 195163391, "name": "ZIMBOR", "admin_level": "6", "kind": "subdivision_2", "parent_osm_id": 91685, "parent_name": "Sălaj", "parent_iso": "RO-SJ"}, "geometry": {"type": "Polygon", "coordinates": [[[23.3887, 46.9505], [23.3727, 46.962], [23.3491, 46.9679], [23.3561, 46.9722], [23.3564, 46.982], [23.3673, 46.9841], [23.361, 46.9915], [23.3274, 46.9986], [23.3058, 47.0187], [23.2823, 47.0204], [23.2723, 47.0115], [23.2632, 47.018], [23.2123, 47.0203], [23.2026, 47.0062], [23.2031, 47.002], [23.217, 46.9954], [23.2216, 46.9841], [23.2174, 46.982], [23.2316, 46.9859], [23.2368, 46.9818], [23.2338, 46.9761], [23.2485, 46.9615], [23.2636, 46.9628], [23.2833, 46.948], [23.3064, 46.9488], [23.36, 46.9307], [23.3634, 46.931], [23.3638, 46.9399], [23.3719, 46.9373], [23.3703, 46.9399], [23.3887, 46.9505]]]}}, {"type": "Feature", "properties": {"osm_type": "relation", "osm_id": 417930000, "name": "SANMIHAIU ALMASULUI", "admin_level": "6", "kind": "subdivision_2", "parent_osm_id": 91685, "parent_name": "Sălaj", "parent_iso": "RO-SJ"}, "geometry": {"type": "Polygon", "coordinates": [[[23.2026, 47.0062], [23.2123, 47.0203], [23.2632, 47.018], [23.2723, 47.0115], [23.2823, 47.0204], [23.2992, 47.0187], [23.3064, 47.0206], [23.3015, 47.0223], [23.314, 47.0154], [23.3077, 47.022], [23.2912, 47.0249], [23.2951, 47.0326], [23.2997, 47.0303], [23.3056, 47.0361], [23.2856, 47.0408], [23.2972, 47.0525], [23.2852, 47.0472], [23.2507, 47.0653], [23.255, 47.0705], [23.22, 47.0775], [23.197, 47.0654], [23.1754, 47.0691], [23.157, 47.06], [23.1547, 47.0483], [23.1676, 47.0425], [23.1579, 47.0336], [23.1293, 47.0306], [23.1202, 47.0175], [23.1543, 47.0055], [23.1779, 47.0107], [23.2026, 47.0062]]]}}, {"type": "Feature", "properties": {"osm_type": "relation", "osm_id": 762765063, "name": "DRAGU", "admin_level": "6", "kind": "subdivision_2", "parent_osm_id": 91685, "parent_name": "Sălaj", "parent_iso": "RO-SJ"}, "geometry": {"type": "Polygon", "coordinates": [[[23.3727, 46.962], [23.388, 46.9669], [23.385, 46.9773], [23.3995, 46.9764], [23.4117, 46.9818], [23.3984, 46.9935], [23.4277, 46.9883], [23.4316, 46.9941], [23.4412, 46.9915], [23.4457, 46.9978], [23.4587, 46.9982], [23.4635, 47.0042], [23.4579, 47.0056], [23.4741, 47.0135], [23.4675, 47.0215], [23.4737, 47.029], [23.4864, 47.0304], [23.488, 47.0352], [23.4718, 47.0437], [23.4768, 47.0461], [23.4718, 47.0496], [23.4754, 47.0532], [23.4504, 47.061], [23.4477, 47.0756], [23.4368, 47.0836], [23.4315, 47.0851], [23.4162, 47.0762], [23.4069, 47.0793], [23.4092, 47.0755], [23.3988, 47.0681], [23.4008, 47.0612], [23.3924, 47.0621], [23.384, 47.0542], [23.34, 47.067], [23.3195, 47.0672], [23.3258, 47.0553], [23.3479, 47.0479], [23.3387, 47.0403], [23.3513, 47.0362], [23.3558, 47.0296], [23.3658, 47.0288], [23.3629, 47.0203], [23.353, 47.0237], [23.3513, 47.015], [23.3376, 47.0068], [23.3372, 46.9994], [23.361, 46.9915], [23.3673, 46.9841], [23.3564, 46.982], [23.3561, 46.9722], [23.3491, 46.9679], [23.3727, 46.962]]]}}, {"type": "Feature", "properties": {"osm_type": "relation", "osm_id": 611839688, "name": "AGRIJ", "admin_level": "6", "kind": "subdivision_2", "parent_osm_id": 91685, "parent_name": "Sălaj", "parent_iso": "RO-SJ"}, "geometry": {"type": "Polygon", "coordinates": [[[23.1202, 47.0175], [23.1293, 47.0306], [23.1579, 47.0336], [23.1676, 47.0425], [23.1547, 47.0483], [23.1555, 47.0577], [23.1518, 47.0597], [23.157, 47.0664], [23.1488, 47.0623], [23.1319, 47.0661], [23.1383, 47.07], [23.1322, 47.0729], [23.1026, 47.0728], [23.0856, 47.081], [23.071, 47.0818], [23.0636, 47.0879], [23.0668, 47.0907], [23.0321, 47.0961], [23.0169, 47.1035], [23.0086, 47.0943], [23.0227, 47.0927], [23.0418, 47.0768], [23.0576, 47.0763], [23.0771, 47.0652], [23.0827, 47.058], [23.0815, 47.0503], [23.0939, 47.0502], [23.0988, 47.0447], [23.1162, 47.0465], [23.1036, 47.029], [23.109, 47.0221], [23.1054, 47.0154], [23.1202, 47.0175]]]}}, {"type": "Feature", "properties": {"osm_type": "relation", "osm_id": 309214232, "name": "SAG", "admin_level": "6", "kind": "subdivision_2", "parent_osm_id": 91685, "parent_name": "Sălaj", "parent_iso": "RO-SJ"}, "geometry": {"type": "Polygon", "coordinates": [[[22.795, 46.9771], [22.83, 46.988], [22.8317, 46.9976], [22.8238, 47.0007], [22.8297, 47.009], [22.8285, 47.0173], [22.8177, 47.0204], [22.8219, 47.0235], [22.8153, 47.026], [22.8228, 47.0333], [22.8181, 47.0493], [22.8325, 47.0655], [22.8352, 47.082], [22.8143, 47.0835], [22.7993, 47.0771], [22.7854, 47.0912], [22.7811, 47.1125], [22.7638, 47.117], [22.7642, 47.1087], [22.7548, 47.0947], [22.7378, 47.0885], [22.7382, 47.0749], [22.7493, 47.0749], [22.7481, 47.0665], [22.7244, 47.0647], [22.7429, 47.0513], [22.6917, 47.033], [22.6976, 47.0309], [22.7005, 47.0188], [22.7091, 47.011], [22.7532, 47.0027], [22.7858, 46.9879], [22.7852, 46.9815], [22.795, 46.9771]]]}}, {"type": "Feature", "properties": {"osm_type": "relation", "osm_id": 137572885, "name": "HIDA", "admin_level": "6", "kind": "subdivision_2", "parent_osm_id": 91685, "parent_name": "Sălaj", "parent_iso": "RO-SJ"}, "geometry": {"type": "Polygon", "coordinates": [[[23.3372, 46.9994], [23.3376, 47.0068], [23.3513, 47.015], [23.353, 47.0237], [23.3629, 47.0203], [23.3658, 47.0288], [23.3558, 47.0296], [23.3513, 47.0362], [23.3387, 47.0403], [23.3479, 47.0479], [23.3258, 47.0553], [23.3195, 47.0672], [23.34, 47.067], [23.384, 47.0542], [23.3924, 47.0621], [23.4008, 47.0612], [23.3988, 47.0681], [23.4092, 47.0755], [23.4069, 47.0793], [23.4162, 47.0762], [23.4302, 47.0822], [23.4275, 47.0896], [23.4356, 47.0952], [23.4311, 47.0994], [23.4088, 47.1013], [23.4017, 47.1114], [23.3868, 47.1125], [23.3537, 47.1285], [23.3231, 47.1191], [23.3186, 47.1087], [23.3053, 47.114], [23.2765, 47.1118], [23.2602, 47.1205], [23.2535, 47.1182], [23.2558, 47.1152], [23.2506, 47.1095], [23.2403, 47.1085], [23.2364, 47.1011], [23.2199, 47.1013], [23.224, 47.0943], [23.2359, 47.0943], [23.2361, 47.0904], [23.2195, 47.0856], [23.22, 47.0775], [23.255, 47.0705], [23.2507, 47.0653], [23.2852, 47.0472], [23.2972, 47.0525], [23.2856, 47.0408], [23.3056, 47.0361], [23.2997, 47.0303], [23.2951, 47.0326], [23.2912, 47.0249], [23.3077, 47.022], [23.3133, 47.0146], [23.3074, 47.0214], [23.2992, 47.0187], [23.3145, 47.0131], [23.3152, 47.0075], [23.3274, 46.9986], [23.3372, 46.9994]]]}}, {"type": "Feature", "properties": {"osm_type": "relation", "osm_id": 715584970, "name": "TREZNEA", "admin_level": "6", "kind": "subdivision_2", "parent_osm_id": 91685, "parent_name": "Sălaj", "parent_iso": "RO-SJ"}, "geometry": {"type": "Polygon", "coordinates": [[[23.1246, 47.0722], [23.1306, 47.0753], [23.1196, 47.0834], [23.1229, 47.0868], [23.1466, 47.0899], [23.1564, 47.0963], [23.1393, 47.0967], [23.1421, 47.106], [23.1325, 47.1136], [23.1158, 47.1148], [23.0965, 47.1313], [23.0773, 47.1368], [23.0713, 47.127], [23.0416, 47.1194], [23.0169, 47.1035], [23.0321, 47.0961], [23.0668, 47.0907], [23.0636, 47.0879], [23.071, 47.0818], [23.0856, 47.081], [23.1026, 47.0728], [23.1246, 47.0722]]]}}, {"type": "Feature", "properties": {"osm_type": "relation", "osm_id": 489246343, "name": "BANISOR", "admin_level": "6", "kind": "subdivision_2", "parent_osm_id": 91685, "parent_name": "Sălaj", "parent_iso": "RO-SJ"}, "geometry": {"type": "Polygon", "coordinates": [[[22.8352, 47.082], [22.8765, 47.0965], [22.8734, 47.1133], [22.8783, 47.1176], [22.8769, 47.131], [22.8671, 47.1368], [22.8483, 47.1367], [22.8227, 47.1258], [22.8238, 47.1192], [22.8161, 47.1161], [22.8018, 47.1185], [22.7811, 47.1125], [22.7814, 47.0991], [22.7944, 47.0796], [22.8352, 47.082]]]}}, {"type": "Feature", "properties": {"osm_type": "relation", "osm_id": 685481657, "name": "ROMANASI", "admin_level": "6", "kind": "subdivision_2", "parent_osm_id": 91685, "parent_name": "Sălaj", "parent_iso": "RO-SJ"}, "geometry": {"type": "Polygon", "coordinates": [[[23.22, 47.0775], [23.2195, 47.0856], [23.2361, 47.0904], [23.2359, 47.0943], [23.224, 47.0943], [23.2199, 47.1013], [23.2062, 47.1058], [23.2126, 47.1124], [23.2031, 47.1196], [23.2106, 47.1179], [23.2166, 47.1279], [23.2217, 47.1404], [23.2187, 47.1514], [23.2026, 47.1513], [23.2057, 47.1555], [23.1985, 47.1524], [23.1649, 47.1622], [23.1545, 47.1609], [23.1606, 47.1575], [23.1604, 47.1485], [23.174, 47.1465], [23.1631, 47.1432], [23.166, 47.1384], [23.1623, 47.1356], [23.132, 47.1343], [23.1197, 47.1377], [23.1177, 47.1436], [23.0954, 47.1479], [23.0777, 47.139], [23.111, 47.1223], [23.1158, 47.1148], [23.1325, 47.1136], [23.1421, 47.106], [23.1393, 47.0967], [23.1564, 47.0963], [23.1196, 47.0834], [23.1306, 47.0753], [23.1255, 47.0703], [23.1383, 47.07], [23.1319, 47.0661], [23.1488, 47.0623], [23.157, 47.0664], [23.1518, 47.0597], [23.1555, 47.0577], [23.1754, 47.0691], [23.197, 47.0654], [23.22, 47.0775]]]}}, {"type": "Feature", "properties": {"osm_type": "relation", "osm_id": 438104033, "name": "PLOPIS", "admin_level": "6", "kind": "subdivision_2", "parent_osm_id": 91685, "parent_name": "Sălaj", "parent_iso": "RO-SJ"}, "geometry": {"type": "Polygon", "coordinates": [[[22.6503, 47.0564], [22.6475, 47.0716], [22.6675, 47.0873], [22.6636, 47.0891], [22.6731, 47.1039], [22.6815, 47.1028], [22.7159, 47.1224], [22.7161, 47.1299], [22.7278, 47.1397], [22.6875, 47.1364], [22.6945, 47.1433], [22.6893, 47.1442], [22.6899, 47.1559], [22.684, 47.1534], [22.6835, 47.1596], [22.6613, 47.1506], [22.6461, 47.1376], [22.6443, 47.141], [22.6246, 47.1311], [22.5143, 47.1091], [22.5372, 47.0997], [22.545, 47.088], [22.5686, 47.0824], [22.5916, 47.0681], [22.5923, 47.0632], [22.6311, 47.0554], [22.6503, 47.0564]]]}}, {"type": "Feature", "properties": {"osm_type": "relation", "osm_id": 292562701, "name": "MESESENII DE JOS", "admin_level": "6", "kind": "subdivision_2", "parent_osm_id": 91685, "parent_name": "Sălaj", "parent_iso": "RO-SJ"}, "geometry": {"type": "Polygon", "coordinates": [[[23.0169, 47.1035], [23.0416, 47.1194], [23.0382, 47.1377], [23.0248, 47.1499], [23.0238, 47.1561], [23.0282, 47.1579], [23.0232, 47.1611], [23.0318, 47.166], [23.0222, 47.1782], [22.9849, 47.187], [22.9709, 47.172], [22.9288, 47.1767], [22.9301, 47.1719], [22.9214, 47.165], [22.9152, 47.1507], [22.9208, 47.1455], [22.9142, 47.136], [22.9326, 47.1314], [22.933, 47.1254], [22.9755, 47.1156], [22.9779, 47.1118], [22.9706, 47.1113], [23.0052, 47.0895], [23.0169, 47.1035]]]}}, {"type": "Feature", "properties": {"osm_type": "relation", "osm_id": 555724993, "name": "GARBOU", "admin_level": "6", "kind": "subdivision_2", "parent_osm_id": 91685, "parent_name": "Sălaj", "parent_iso": "RO-SJ"}, "geometry": {"type": "Polygon", "coordinates": [[[23.4848, 47.0906], [23.4888, 47.0967], [23.4801, 47.1083], [23.4896, 47.1098], [23.484, 47.1106], [23.4875, 47.1195], [23.4958, 47.1133], [23.5041, 47.1173], [23.5001, 47.1281], [23.4914, 47.1295], [23.5009, 47.1464], [23.4979, 47.1549], [23.4853, 47.1619], [23.4865, 47.1688], [23.4934, 47.1728], [23.4801, 47.1815], [23.4667, 47.1787], [23.4549, 47.186], [23.4245, 47.1883], [23.3958, 47.2028], [23.3624, 47.1958], [23.3697, 47.1924], [23.3643, 47.1852], [23.3668, 47.1809], [23.3579, 47.1745], [23.3669, 47.1666], [23.354, 47.1557], [23.3625, 47.1437], [23.3559, 47.1377], [23.3641, 47.135], [23.353, 47.1368], [23.3561, 47.1255], [23.3647, 47.1251], [23.3868, 47.1125], [23.4017, 47.1114], [23.4088, 47.1013], [23.4311, 47.0994], [23.4412, 47.0878], [23.4499, 47.0885], [23.4525, 47.0959], [23.4663, 47.0901], [23.4848, 47.0906]]]}}, {"type": "Feature", "properties": {"osm_type": "relation", "osm_id": 281099005, "name": "HALMASD", "admin_level": "6", "kind": "subdivision_2", "parent_osm_id": 91685, "parent_name": "Sălaj", "parent_iso": "RO-SJ"}, "geometry": {"type": "Polygon", "coordinates": [[[22.6835, 47.1596], [22.6879, 47.1618], [22.6756, 47.1634], [22.6745, 47.1702], [22.6586, 47.1719], [22.6567, 47.1763], [22.6454, 47.1717], [22.6256, 47.174], [22.6247, 47.1782], [22.6409, 47.1864], [22.6395, 47.1931], [22.6201, 47.1904], [22.6078, 47.181], [22.6032, 47.1841], [22.5903, 47.1775], [22.5748, 47.1969], [22.5555, 47.1867], [22.5463, 47.1906], [22.5293, 47.1801], [22.5007, 47.1781], [22.5082, 47.1656], [22.5224, 47.1644], [22.5314, 47.1691], [22.5396, 47.1615], [22.5338, 47.1498], [22.5407, 47.1467], [22.5486, 47.1496], [22.5543, 47.1432], [22.5439, 47.14], [22.5441, 47.1353], [22.5533, 47.1345], [22.5545, 47.1262], [22.5667, 47.1263], [22.572, 47.1199], [22.5932, 47.1272], [22.5999, 47.1255], [22.6014, 47.1294], [22.6246, 47.1311], [22.6443, 47.141], [22.6461, 47.1376], [22.6613, 47.1506], [22.6835, 47.1596]]]}}, {"type": "Feature", "properties": {"osm_type": "relation", "osm_id": 854459854, "name": "BALAN", "admin_level": "6", "kind": "subdivision_2", "parent_osm_id": 91685, "parent_name": "Sălaj", "parent_iso": "RO-SJ"}, "geometry": {"type": "Polygon", "coordinates": [[[23.3537, 47.1285], [23.353, 47.1368], [23.3641, 47.135], [23.3559, 47.1377], [23.3625, 47.1437], [23.354, 47.1557], [23.3669, 47.1666], [23.3579, 47.1745], [23.3668, 47.1809], [23.3643, 47.1852], [23.3697, 47.1924], [23.3631, 47.1945], [23.3645, 47.2012], [23.3261, 47.2148], [23.3128, 47.2122], [23.2922, 47.2161], [23.2876, 47.2123], [23.2905, 47.1975], [23.2799, 47.198], [23.2784, 47.1943], [23.2872, 47.1928], [23.2738, 47.1903], [23.2675, 47.1807], [23.2421, 47.1711], [23.2465, 47.1652], [23.2345, 47.1539], [23.2462, 47.1477], [23.2438, 47.1415], [23.2261, 47.1419], [23.2157, 47.1319], [23.2118, 47.1187], [23.2031, 47.1196], [23.2126, 47.1124], [23.2062, 47.1058], [23.2141, 47.1011], [23.2364, 47.1011], [23.2403, 47.1085], [23.2506, 47.1095], [23.2558, 47.1152], [23.2535, 47.1182], [23.2602, 47.1205], [23.2765, 47.1118], [23.3053, 47.114], [23.3186, 47.1087], [23.3231, 47.1191], [23.3537, 47.1285]]]}}, {"type": "Feature", "properties": {"osm_type": "relation", "osm_id": 980327238, "name": "ZALHA", "admin_level": "6", "kind": "subdivision_2", "parent_osm_id": 91685, "parent_name": "Sălaj", "parent_iso": "RO-SJ"}, "geometry": {"type": "Polygon", "coordinates": [[[23.5635, 47.1789], [23.5643, 47.1833], [23.5831, 47.1901], [23.5707, 47.2091], [23.5734, 47.2165], [23.5656, 47.2153], [23.5792, 47.222], [23.5745, 47.2325], [23.5657, 47.2287], [23.5487, 47.2363], [23.5433, 47.233], [23.5393, 47.2368], [23.5383, 47.2321], [23.5216, 47.238], [23.5171, 47.2343], [23.4974, 47.2362], [23.4918, 47.2293], [23.5035, 47.2242], [23.4788, 47.1997], [23.4858, 47.194], [23.4749, 47.1887], [23.4849, 47.1758], [23.4934, 47.1728], [23.4865, 47.1688], [23.4853, 47.1619], [23.495, 47.1549], [23.5214, 47.1555], [23.5341, 47.1611], [23.5445, 47.1586], [23.5429, 47.1647], [23.5536, 47.177], [23.5635, 47.1789]]]}}, {"type": "Feature", "properties": {"osm_type": "relation", "osm_id": 152324200, "name": "ZALAU", "admin_level": "6", "kind": "subdivision_2", "parent_osm_id": 91685, "parent_name": "Sălaj", "parent_iso": "RO-SJ"}, "geometry": {"type": "Polygon", "coordinates": [[[23.0773, 47.1368], [23.0954, 47.1479], [23.1177, 47.1436], [23.1197, 47.1377], [23.1474, 47.1331], [23.1623, 47.1356], [23.166, 47.1384], [23.1631, 47.1432], [23.1738, 47.1448], [23.1604, 47.1485], [23.1591, 47.1596], [23.1189, 47.1759], [23.1196, 47.1807], [23.1305, 47.1843], [23.126, 47.1931], [23.1297, 47.1959], [23.1237, 47.2011], [23.1326, 47.2087], [23.1236, 47.216], [23.1254, 47.2192], [23.1038, 47.2188], [23.0789, 47.2333], [23.0643, 47.216], [23.0512, 47.2208], [23.0438, 47.2167], [23.03, 47.2286], [23.0064, 47.2299], [23.0109, 47.2225], [23.0097, 47.1882], [23.0007, 47.1832], [23.0222, 47.1782], [23.0318, 47.166], [23.0232, 47.1611], [23.0282, 47.1579], [23.0238, 47.1561], [23.0248, 47.1499], [23.0382, 47.1377], [23.0416, 47.1194], [23.068, 47.1252], [23.0773, 47.1368]]]}}, {"type": "Feature", "properties": {"osm_type": "relation", "osm_id": 135888925, "name": "VARSOLT", "admin_level": "6", "kind": "subdivision_2", "parent_osm_id": 91685, "parent_name": "Sălaj", "parent_iso": "RO-SJ"}, "geometry": {"type": "Polygon", "coordinates": [[[22.9891, 47.1865], [22.9848, 47.1917], [22.9873, 47.1956], [22.9761, 47.2011], [22.9712, 47.2162], [22.9631, 47.2227], [22.9672, 47.2263], [22.9438, 47.2383], [22.9118, 47.2265], [22.9044, 47.2205], [22.9139, 47.2166], [22.9061, 47.2114], [22.9002, 47.214], [22.9055, 47.2097], [22.8862, 47.1962], [22.8917, 47.1899], [22.9014, 47.1947], [22.9138, 47.187], [22.9223, 47.1891], [22.9225, 47.1835], [22.9291, 47.1851], [22.9288, 47.1767], [22.9352, 47.1744], [22.9709, 47.172], [22.9849, 47.187], [22.9891, 47.1865]]]}}, {"type": "Feature", "properties": {"osm_type": "relation", "osm_id": 216175546, "name": "CREACA", "admin_level": "6", "kind": "subdivision_2", "parent_osm_id": 91685, "parent_name": "Sălaj", "parent_iso": "RO-SJ"}, "geometry": {"type": "Polygon", "coordinates": [[[23.2212, 47.1379], [23.2261, 47.1419], [23.2438, 47.1415], [23.2462, 47.1477], [23.2345, 47.1539], [23.2465, 47.1652], [23.2421, 47.1711], [23.2675, 47.1807], [23.2738, 47.1903], [23.2872, 47.1928], [23.2784, 47.1943], [23.2799, 47.198], [23.2905, 47.1975], [23.2876, 47.2123], [23.2922, 47.2161], [23.283, 47.2269], [23.2494, 47.2453], [23.2355, 47.2361], [23.2332, 47.2287], [23.1945, 47.2318], [23.1775, 47.2265], [23.1595, 47.2106], [23.1801, 47.1905], [23.1489, 47.1748], [23.1393, 47.1755], [23.1428, 47.1708], [23.138, 47.1671], [23.1481, 47.1611], [23.1649, 47.1622], [23.1985, 47.1524], [23.2057, 47.1555], [23.2026, 47.1513], [23.2187, 47.1514], [23.2212, 47.1379]]]}}, {"type": "Feature", "properties": {"osm_type": "relation", "osm_id": 906590363, "name": "CRISTOLT", "admin_level": "6", "kind": "subdivision_2", "parent_osm_id": 91685, "parent_name": "Sălaj", "parent_iso": "RO-SJ"}, "geometry": {"type": "Polygon", "coordinates": [[[23.4801, 47.1815], [23.4749, 47.1887], [23.4858, 47.194], [23.4788, 47.1997], [23.5035, 47.2242], [23.4918, 47.2293], [23.4974, 47.2362], [23.4798, 47.2374], [23.4791, 47.2559], [23.4736, 47.258], [23.4637, 47.2517], [23.4638, 47.247], [23.4507, 47.2413], [23.4402, 47.243], [23.4223, 47.2316], [23.4052, 47.2382], [23.3846, 47.2381], [23.3838, 47.2325], [23.3716, 47.2355], [23.3833, 47.2289], [23.3876, 47.2176], [23.3848, 47.2116], [23.3974, 47.1991], [23.4292, 47.1872], [23.4549, 47.186], [23.4667, 47.1787], [23.4801, 47.1815]]]}}, {"type": "Feature", "properties": {"osm_type": "relation", "osm_id": 127960063, "name": "SIMISNA", "admin_level": "6", "kind": "subdivision_2", "parent_osm_id": 91685, "parent_name": "Sălaj", "parent_iso": "RO-SJ"}, "geometry": {"type": "Polygon", "coordinates": [[[23.6176, 47.1731], [23.6339, 47.1826], [23.634, 47.1896], [23.6267, 47.1942], [23.636, 47.2017], [23.6402, 47.2132], [23.6454, 47.2138], [23.6442, 47.2232], [23.6558, 47.2351], [23.6517, 47.2513], [23.6438, 47.2476], [23.6358, 47.2603], [23.6236, 47.2626], [23.5944, 47.257], [23.5871, 47.2474], [23.5887, 47.2418], [23.5819, 47.2444], [23.5764, 47.2395], [23.5792, 47.222], [23.5656, 47.2153], [23.5734, 47.2165], [23.5707, 47.2091], [23.5831, 47.1901], [23.5643, 47.1833], [23.5635, 47.1789], [23.5825, 47.1775], [23.5971, 47.1646], [23.6176, 47.1731]]]}}, {"type": "Feature", "properties": {"osm_type": "relation", "osm_id": 292739231, "name": "MIRSID", "admin_level": "6", "kind": "subdivision_2", "parent_osm_id": 91685, "parent_name": "Sălaj", "parent_iso": "RO-SJ"}, "geometry": {"type": "Polygon", "coordinates": [[[23.139, 47.1693], [23.1428, 47.1708], [23.1393, 47.1755], [23.1489, 47.1748], [23.1801, 47.1905], [23.1595, 47.2106], [23.1775, 47.2265], [23.1945, 47.2318], [23.218, 47.2309], [23.2118, 47.2334], [23.2096, 47.2471], [23.203, 47.2498], [23.2031, 47.2547], [23.1643, 47.2598], [23.1541, 47.2655], [23.1549, 47.2689], [23.1167, 47.2667], [23.1083, 47.2476], [23.1005, 47.2475], [23.0976, 47.243], [23.0879, 47.2427], [23.0909, 47.2459], [23.0875, 47.2479], [23.0716, 47.2429], [23.0721, 47.2339], [23.0976, 47.2354], [23.0885, 47.2311], [23.1038, 47.2188], [23.1254, 47.2192], [23.1236, 47.216], [23.1326, 47.2087], [23.1237, 47.2011], [23.1297, 47.1959], [23.126, 47.1931], [23.1305, 47.1843], [23.1196, 47.1807], [23.1189, 47.1759], [23.139, 47.1693]]]}}, {"type": "Feature", "properties": {"osm_type": "relation", "osm_id": 105777362, "name": "CATCAU", "admin_level": "6", "kind": "subdivision_2", "parent_osm_id": 91685, "parent_name": "Sălaj", "parent_iso": "RO-SJ"}, "geometry": {"type": "Polygon", "coordinates": [[[23.8024, 47.2021], [23.8314, 47.2098], [23.8496, 47.2301], [23.819, 47.2542], [23.808, 47.2514], [23.7954, 47.2593], [23.7963, 47.2634], [23.7695, 47.2727], [23.7621, 47.2836], [23.7565, 47.2713], [23.7588, 47.264], [23.753, 47.261], [23.7546, 47.2501], [23.763, 47.2449], [23.7631, 47.2382], [23.754, 47.23], [23.7591, 47.2236], [23.7576, 47.2167], [23.7701, 47.2111], [23.7666, 47.2026], [23.7744, 47.1988], [23.7961, 47.2044], [23.8024, 47.2021]]]}}, {"type": "Feature", "properties": {"osm_type": "relation", "osm_id": 240590321, "name": "IP", "admin_level": "6", "kind": "subdivision_2", "parent_osm_id": 91685, "parent_name": "Sălaj", "parent_iso": "RO-SJ"}, "geometry": {"type": "Polygon", "coordinates": [[[22.6395, 47.1931], [22.6628, 47.2003], [22.6641, 47.2086], [22.6696, 47.2088], [22.6782, 47.2193], [22.6787, 47.227], [22.6882, 47.2252], [22.6941, 47.2317], [22.6941, 47.2391], [22.6861, 47.2419], [22.6905, 47.2448], [22.6851, 47.2475], [22.6881, 47.2505], [22.6713, 47.2523], [22.6752, 47.2583], [22.657, 47.257], [22.6353, 47.2644], [22.6237, 47.2607], [22.6157, 47.2671], [22.6062, 47.267], [22.6024, 47.2574], [22.6059, 47.2564], [22.5724, 47.2447], [22.5688, 47.2281], [22.5802, 47.2235], [22.5689, 47.2245], [22.5688, 47.2203], [22.5774, 47.2208], [22.5769, 47.2157], [22.5832, 47.2141], [22.5748, 47.1969], [22.5872, 47.178], [22.6395, 47.1931]]]}}, {"type": "Feature", "properties": {"osm_type": "relation", "osm_id": 693091495, "name": "SIMLEU SILVANIEI", "admin_level": "6", "kind": "subdivision_2", "parent_osm_id": 91685, "parent_name": "Sălaj", "parent_iso": "RO-SJ"}, "geometry": {"type": "Polygon", "coordinates": [[[22.8098, 47.2759], [22.8058, 47.2745], [22.807, 47.2676], [22.797, 47.2635], [22.7866, 47.2733], [22.7838, 47.2686], [22.7685, 47.2711], [22.7698, 47.2753], [22.7655, 47.2764], [22.742, 47.268], [22.7409, 47.2625], [22.7491, 47.2637], [22.747, 47.2593], [22.6988, 47.2428], [22.7072, 47.2386], [22.7402, 47.2457], [22.7395, 47.2411], [22.7479, 47.2343], [22.7353, 47.2298], [22.7402, 47.2207], [22.7463, 47.2192], [22.7321, 47.2173], [22.7477, 47.2074], [22.741, 47.2035], [22.7442, 47.1954], [22.7464, 47.1992], [22.7515, 47.1958], [22.7653, 47.1994], [22.7634, 47.1917], [22.7883, 47.1934], [22.8385, 47.1823], [22.8449, 47.1884], [22.8295, 47.1902], [22.8275, 47.1969], [22.8402, 47.2089], [22.8408, 47.2143], [22.8366, 47.2134], [22.837, 47.2331], [22.8397, 47.2391], [22.855, 47.2371], [22.8576, 47.2405], [22.8427, 47.2477], [22.8329, 47.2458], [22.8222, 47.258], [22.81, 47.2569], [22.8091, 47.2646], [22.8158, 47.2672], [22.8098, 47.2759]]]}}, {"type": "Feature", "properties": {"osm_type": "relation", "osm_id": 281709838, "name": "CRISENI", "admin_level": "6", "kind": "subdivision_2", "parent_osm_id": 91685, "parent_name": "Sălaj", "parent_iso": "RO-SJ"}, "geometry": {"type": "Polygon", "coordinates": [[[23.0885, 47.2311], [23.0976, 47.2354], [23.0721, 47.2339], [23.0716, 47.2429], [23.0875, 47.2479], [23.0909, 47.2459], [23.0879, 47.2427], [23.0976, 47.243], [23.1005, 47.2475], [23.1083, 47.2476], [23.1183, 47.271], [23.0949, 47.2765], [23.0864, 47.269], [23.0769, 47.2776], [23.0628, 47.2816], [23.0524, 47.2778], [23.0462, 47.2868], [23.0316, 47.2771], [23.039, 47.2494], [23.023, 47.2453], [23.0203, 47.2403], [23.0264, 47.2363], [23.0155, 47.2389], [23.0064, 47.2299], [23.03, 47.2286], [23.0438, 47.2167], [23.0512, 47.2208], [23.0643, 47.216], [23.0789, 47.2333], [23.0885, 47.2311]]]}}, {"type": "Feature", "properties": {"osm_type": "relation", "osm_id": 774795366, "name": "PERICEI", "admin_level": "6", "kind": "subdivision_2", "parent_osm_id": 91685, "parent_name": "Sălaj", "parent_iso": "RO-SJ"}, "geometry": {"type": "Polygon", "coordinates": [[[22.9276, 47.2331], [22.9374, 47.2425], [22.9346, 47.2456], [22.9222, 47.2395], [22.9253, 47.246], [22.9055, 47.2616], [22.9129, 47.2699], [22.9004, 47.2753], [22.89, 47.2737], [22.8889, 47.2802], [22.8798, 47.285], [22.8686, 47.2813], [22.8693, 47.2859], [22.8751, 47.2854], [22.8723, 47.293], [22.8611, 47.2931], [22.8655, 47.2853], [22.8561, 47.2832], [22.8587, 47.2726], [22.841, 47.2714], [22.8297, 47.2796], [22.8197, 47.2757], [22.8096, 47.2782], [22.8158, 47.2672], [22.8091, 47.2646], [22.81, 47.2569], [22.8222, 47.258], [22.8329, 47.2458], [22.8427, 47.2477], [22.8576, 47.2405], [22.855, 47.2371], [22.8397, 47.2391], [22.8366, 47.2134], [22.8408, 47.2143], [22.8402, 47.2089], [22.8291, 47.1991], [22.8289, 47.1932], [22.8565, 47.1873], [22.8862, 47.1962], [22.9055, 47.2097], [22.9002, 47.214], [22.9061, 47.2114], [22.9139, 47.2166], [22.9064, 47.2223], [22.9276, 47.2331]]]}}, {"type": "Feature", "properties": {"osm_type": "relation", "osm_id": 407548208, "name": "MARCA", "admin_level": "6", "kind": "subdivision_2", "parent_osm_id": 91685, "parent_name": "Sălaj", "parent_iso": "RO-SJ"}, "geometry": {"type": "Polygon", "coordinates": [[[22.5748, 47.1969], [22.5832, 47.2141], [22.5769, 47.2157], [22.5774, 47.2208], [22.5688, 47.2203], [22.5689, 47.2245], [22.5802, 47.2235], [22.5688, 47.2281], [22.5722, 47.2359], [22.5688, 47.2392], [22.5777, 47.2478], [22.6059, 47.2564], [22.6024, 47.2574], [22.6067, 47.2689], [22.5965, 47.2735], [22.591, 47.2853], [22.5777, 47.2906], [22.5856, 47.2949], [22.5806, 47.3012], [22.5609, 47.3071], [22.5477, 47.2982], [22.5531, 47.2928], [22.5497, 47.2916], [22.5535, 47.2815], [22.5471, 47.2809], [22.5468, 47.2693], [22.5525, 47.2724], [22.5606, 47.2647], [22.5514, 47.2606], [22.5583, 47.2612], [22.5574, 47.2541], [22.5612, 47.2518], [22.5521, 47.2483], [22.5399, 47.2339], [22.5168, 47.2327], [22.5172, 47.226], [22.511, 47.2196], [22.522, 47.2082], [22.5158, 47.207], [22.508, 47.2147], [22.506, 47.209], [22.5116, 47.1962], [22.4936, 47.1853], [22.5007, 47.1781], [22.5293, 47.1801], [22.5463, 47.1906], [22.5555, 47.1867], [22.5748, 47.1969]]]}}, {"type": "Feature", "properties": {"osm_type": "relation", "osm_id": 165085467, "name": "RUS", "admin_level": "6", "kind": "subdivision_2", "parent_osm_id": 91685, "parent_name": "Sălaj", "parent_iso": "RO-SJ"}, "geometry": {"type": "Polygon", "coordinates": [[[23.5768, 47.2277], [23.5764, 47.2395], [23.5819, 47.2444], [23.5887, 47.2418], [23.5871, 47.2474], [23.5944, 47.257], [23.6273, 47.2616], [23.6237, 47.2692], [23.6276, 47.2713], [23.602, 47.276], [23.605, 47.2822], [23.5937, 47.2849], [23.5887, 47.2961], [23.5847, 47.2963], [23.5923, 47.3003], [23.5883, 47.3042], [23.5932, 47.3036], [23.5968, 47.3112], [23.5738, 47.3186], [23.5654, 47.3153], [23.566, 47.321], [23.5758, 47.3246], [23.568, 47.3286], [23.5608, 47.3247], [23.5631, 47.3218], [23.5565, 47.3117], [23.551, 47.3073], [23.5466, 47.3107], [23.5334, 47.3008], [23.5305, 47.2885], [23.5207, 47.2843], [23.5232, 47.2763], [23.5196, 47.2714], [23.5255, 47.2644], [23.5105, 47.2569], [23.5131, 47.2464], [23.527, 47.2355], [23.5383, 47.2321], [23.5393, 47.2368], [23.5433, 47.233], [23.5487, 47.2363], [23.5657, 47.2287], [23.5745, 47.2325], [23.5768, 47.2277]]]}}, {"type": "Feature", "properties": {"osm_type": "relation", "osm_id": 878094940, "name": "BABENI", "admin_level": "6", "kind": "subdivision_2", "parent_osm_id": 91685, "parent_name": "Sălaj", "parent_iso": "RO-SJ"}, "geometry": {"type": "Polygon", "coordinates": [[[23.4303, 47.3196], [23.4267, 47.3227], [23.4105, 47.3191], [23.3962, 47.3311], [23.3802, 47.3265], [23.3644, 47.3262], [23.3628, 47.3301], [23.3332, 47.3162], [23.3281, 47.3067], [23.3226, 47.307], [23.3269, 47.3017], [23.3168, 47.2931], [23.3233, 47.2835], [23.3133, 47.2658], [23.3304, 47.2609], [23.3388, 47.2664], [23.3491, 47.2661], [23.352, 47.2699], [23.3422, 47.2737], [23.347, 47.2796], [23.355, 47.2741], [23.3658, 47.284], [23.3652, 47.2901], [23.3719, 47.2921], [23.3694, 47.2848], [23.3728, 47.28], [23.3986, 47.285], [23.4005, 47.2778], [23.4113, 47.2778], [23.4314, 47.2673], [23.4353, 47.2722], [23.4514, 47.2716], [23.4566, 47.2631], [23.4725, 47.2583], [23.4638, 47.2857], [23.4553, 47.2975], [23.4204, 47.3138], [23.4242, 47.3188], [23.4324, 47.315], [23.4303, 47.3196]]]}}, {"type": "Feature", "properties": {"osm_type": "relation", "osm_id": 874113985, "name": "HERECLEAN", "admin_level": "6", "kind": "subdivision_2", "parent_osm_id": 91685, "parent_name": "Sălaj", "parent_iso": "RO-SJ"}, "geometry": {"type": "Polygon", "coordinates": [[[23.0007, 47.1832], [23.0097, 47.1882], [23.0109, 47.2225], [23.0064, 47.2299], [23.0155, 47.2389], [23.0264, 47.2363], [23.0203, 47.2403], [23.023, 47.2453], [23.039, 47.2494], [23.0316, 47.2771], [23.0462, 47.2868], [23.0542, 47.2784], [23.0512, 47.2865], [23.0624, 47.294], [23.0598, 47.31], [23.0682, 47.3153], [23.0712, 47.3242], [23.0493, 47.3301], [23.0502, 47.3238], [23.0325, 47.3093], [23.0249, 47.3096], [23.0246, 47.3139], [23.0109, 47.3056], [23.0044, 47.3076], [22.9932, 47.2955], [22.9776, 47.294], [22.9864, 47.2997], [22.987, 47.3092], [22.9724, 47.3055], [22.9684, 47.3116], [22.9597, 47.3126], [22.9508, 47.2966], [22.9629, 47.2871], [22.9628, 47.276], [22.9549, 47.2679], [22.9674, 47.2602], [22.9592, 47.2512], [22.9531, 47.2539], [22.9311, 47.24], [22.9276, 47.2331], [22.9438, 47.2383], [22.9663, 47.2272], [22.9631, 47.2227], [22.9712, 47.2162], [22.9761, 47.2011], [22.9873, 47.1956], [22.9848, 47.1917], [22.9891, 47.1865], [23.0007, 47.1832]]]}}, {"type": "Feature", "properties": {"osm_type": "relation", "osm_id": 254515427, "name": "GALGAU", "admin_level": "6", "kind": "subdivision_2", "parent_osm_id": 91685, "parent_name": "Sălaj", "parent_iso": "RO-SJ"}, "geometry": {"type": "Polygon", "coordinates": [[[23.7546, 47.2501], [23.753, 47.261], [23.7588, 47.264], [23.7602, 47.286], [23.7426, 47.2866], [23.739, 47.2978], [23.7297, 47.2934], [23.7127, 47.3098], [23.6934, 47.2988], [23.6873, 47.3023], [23.6931, 47.3111], [23.6917, 47.3176], [23.7003, 47.3225], [23.7088, 47.3326], [23.706, 47.3342], [23.6899, 47.333], [23.6734, 47.3391], [23.6708, 47.3279], [23.6556, 47.3162], [23.6109, 47.2976], [23.6151, 47.2862], [23.602, 47.2798], [23.602, 47.276], [23.6079, 47.2779], [23.6188, 47.2701], [23.6276, 47.2713], [23.6237, 47.2692], [23.6273, 47.2616], [23.6358, 47.2603], [23.6438, 47.2476], [23.6517, 47.2513], [23.6558, 47.2351], [23.6648, 47.2334], [23.6672, 47.2393], [23.6788, 47.234], [23.6974, 47.2442], [23.7116, 47.2435], [23.7206, 47.2549], [23.7262, 47.246], [23.7526, 47.242], [23.7546, 47.2501]]]}}, {"type": "Feature", "properties": {"osm_type": "relation", "osm_id": 372849114, "name": "POIANA BLENCHII", "admin_level": "6", "kind": "subdivision_2", "parent_osm_id": 91685, "parent_name": "Sălaj", "parent_iso": "RO-SJ"}, "geometry": {"type": "Polygon", "coordinates": [[[23.8139, 47.2526], [23.8097, 47.2574], [23.8142, 47.2574], [23.8129, 47.2679], [23.7989, 47.2815], [23.8135, 47.2912], [23.807, 47.2962], [23.816, 47.2988], [23.8138, 47.3071], [23.8255, 47.3086], [23.8281, 47.32], [23.8416, 47.3274], [23.8414, 47.34], [23.8299, 47.3384], [23.8244, 47.3448], [23.7908, 47.3366], [23.7645, 47.3372], [23.7599, 47.3353], [23.7612, 47.3266], [23.7505, 47.3262], [23.745, 47.3206], [23.7275, 47.321], [23.7176, 47.3323], [23.7092, 47.3327], [23.6917, 47.3176], [23.6891, 47.3002], [23.6992, 47.301], [23.7127, 47.3098], [23.7297, 47.2934], [23.739, 47.2978], [23.7426, 47.2866], [23.7602, 47.286], [23.7695, 47.2727], [23.7963, 47.2634], [23.7954, 47.2593], [23.808, 47.2514], [23.8139, 47.2526]]]}}, {"type": "Feature", "properties": {"osm_type": "relation", "osm_id": 968905951, "name": "DOBRIN", "admin_level": "6", "kind": "subdivision_2", "parent_osm_id": 91685, "parent_name": "Sălaj", "parent_iso": "RO-SJ"}, "geometry": {"type": "Polygon", "coordinates": [[[23.1328, 47.2664], [23.136, 47.2729], [23.1456, 47.276], [23.1398, 47.2821], [23.1481, 47.2883], [23.1476, 47.2919], [23.1426, 47.2906], [23.1538, 47.2987], [23.1492, 47.2982], [23.1554, 47.3108], [23.1318, 47.3185], [23.1372, 47.3266], [23.1303, 47.3328], [23.1181, 47.3372], [23.0816, 47.325], [23.077, 47.3283], [23.0598, 47.31], [23.0624, 47.294], [23.0512, 47.2865], [23.0542, 47.2784], [23.0628, 47.2816], [23.0769, 47.2776], [23.0864, 47.269], [23.0949, 47.2765], [23.102, 47.2758], [23.1183, 47.271], [23.1167, 47.2667], [23.1328, 47.2664]]]}}, {"type": "Feature", "properties": {"osm_type": "relation", "osm_id": 760316400, "name": "BOCSA", "admin_level": "6", "kind": "subdivision_2", "parent_osm_id": 91685, "parent_name": "Sălaj", "parent_iso": "RO-SJ"}, "geometry": {"type": "Polygon", "coordinates": [[[22.9374, 47.2425], [22.9531, 47.2539], [22.9592, 47.2512], [22.9674, 47.2602], [22.9549, 47.2679], [22.9628, 47.276], [22.9615, 47.2911], [22.9221, 47.3158], [22.922, 47.3262], [22.9135, 47.3338], [22.9127, 47.3412], [22.9086, 47.3344], [22.9056, 47.3385], [22.8871, 47.3336], [22.866, 47.338], [22.8614, 47.3339], [22.867, 47.3303], [22.8614, 47.3278], [22.8769, 47.3227], [22.8723, 47.3098], [22.8568, 47.2989], [22.8747, 47.2909], [22.8751, 47.2854], [22.8693, 47.2859], [22.8686, 47.2813], [22.8798, 47.285], [22.8889, 47.2802], [22.89, 47.2737], [22.9004, 47.2753], [22.9129, 47.2699], [22.9055, 47.2616], [22.9253, 47.246], [22.9222, 47.2395], [22.9346, 47.2456], [22.9374, 47.2425]]]}}, {"type": "Feature", "properties": {"osm_type": "relation", "osm_id": 369756415, "name": "LOZNA", "admin_level": "6", "kind": "subdivision_2", "parent_osm_id": 91685, "parent_name": "Sălaj", "parent_iso": "RO-SJ"}, "geometry": {"type": "Polygon", "coordinates": [[[23.5216, 47.238], [23.5131, 47.2464], [23.5105, 47.2569], [23.5255, 47.2644], [23.5196, 47.2714], [23.5232, 47.2763], [23.5207, 47.2843], [23.5305, 47.2885], [23.5334, 47.3008], [23.5329, 47.3084], [23.5249, 47.316], [23.5296, 47.325], [23.5252, 47.3325], [23.5443, 47.3489], [23.5379, 47.356], [23.5336, 47.3592], [23.5162, 47.3569], [23.492, 47.3489], [23.4843, 47.3362], [23.4708, 47.3346], [23.472, 47.3279], [23.4521, 47.3266], [23.4445, 47.3222], [23.447, 47.3177], [23.4379, 47.3155], [23.4303, 47.3196], [23.4324, 47.315], [23.4242, 47.3188], [23.4204, 47.3138], [23.4252, 47.3089], [23.4553, 47.2975], [23.4638, 47.2857], [23.4725, 47.2583], [23.4791, 47.2559], [23.4798, 47.2374], [23.5171, 47.2343], [23.5216, 47.238]]]}}, {"type": "Feature", "properties": {"osm_type": "relation", "osm_id": 619726140, "name": "MAERISTE", "admin_level": "6", "kind": "subdivision_2", "parent_osm_id": 91685, "parent_name": "Sălaj", "parent_iso": "RO-SJ"}, "geometry": {"type": "Polygon", "coordinates": [[[22.6881, 47.2505], [22.7056, 47.2456], [22.736, 47.2544], [22.7491, 47.2637], [22.7409, 47.2625], [22.742, 47.268], [22.7655, 47.2764], [22.7698, 47.2753], [22.7685, 47.2711], [22.7838, 47.2686], [22.7866, 47.2733], [22.797, 47.2635], [22.807, 47.2676], [22.8007, 47.2782], [22.8102, 47.2846], [22.8067, 47.292], [22.8131, 47.3061], [22.8086, 47.3097], [22.8164, 47.3109], [22.8188, 47.3171], [22.8133, 47.321], [22.8239, 47.3265], [22.815, 47.3314], [22.8183, 47.3345], [22.8148, 47.3362], [22.7486, 47.3402], [22.735, 47.346], [22.7108, 47.3483], [22.7093, 47.3402], [22.6953, 47.34], [22.697, 47.3321], [22.6909, 47.3307], [22.6963, 47.3283], [22.6759, 47.3225], [22.7007, 47.3126], [22.7186, 47.3197], [22.7207, 47.3164], [22.7255, 47.3179], [22.7222, 47.32], [22.745, 47.3215], [22.7474, 47.3145], [22.7297, 47.3012], [22.7294, 47.3057], [22.728, 47.2998], [22.6817, 47.2788], [22.678, 47.2627], [22.6657, 47.2628], [22.6652, 47.2579], [22.6752, 47.2583], [22.6713, 47.2523], [22.6881, 47.2505]]]}}, {"type": "Feature", "properties": {"osm_type": "relation", "osm_id": 368002309, "name": "CAMAR", "admin_level": "6", "kind": "subdivision_2", "parent_osm_id": 91685, "parent_name": "Sălaj", "parent_iso": "RO-SJ"}, "geometry": {"type": "Polygon", "coordinates": [[[22.6426, 47.2621], [22.6482, 47.2674], [22.6466, 47.2763], [22.6538, 47.2845], [22.6509, 47.2944], [22.654, 47.2948], [22.6531, 47.3039], [22.6425, 47.3112], [22.6565, 47.321], [22.6505, 47.3281], [22.6554, 47.3403], [22.6297, 47.3497], [22.635, 47.3355], [22.6275, 47.3413], [22.6271, 47.3349], [22.6127, 47.3348], [22.6079, 47.328], [22.5872, 47.3272], [22.5892, 47.3229], [22.576, 47.3082], [22.5856, 47.2949], [22.5777, 47.2906], [22.591, 47.2853], [22.5965, 47.2735], [22.6062, 47.267], [22.6157, 47.2671], [22.6237, 47.2607], [22.6426, 47.2621]]]}}, {"type": "Feature", "properties": {"osm_type": "relation", "osm_id": 269060334, "name": "CARASTELEC", "admin_level": "6", "kind": "subdivision_2", "parent_osm_id": 91685, "parent_name": "Sălaj", "parent_iso": "RO-SJ"}, "geometry": {"type": "Polygon", "coordinates": [[[22.6652, 47.2579], [22.6657, 47.2628], [22.678, 47.2627], [22.6817, 47.2788], [22.728, 47.2998], [22.7294, 47.3057], [22.7297, 47.3012], [22.7474, 47.3145], [22.7467, 47.3202], [22.7222, 47.32], [22.7255, 47.3179], [22.7207, 47.3164], [22.7186, 47.3197], [22.7007, 47.3126], [22.6759, 47.3236], [22.6963, 47.3283], [22.6909, 47.3307], [22.697, 47.3321], [22.6953, 47.34], [22.7093, 47.3402], [22.712, 47.3446], [22.6873, 47.3475], [22.686, 47.3524], [22.6743, 47.3483], [22.6663, 47.3527], [22.6461, 47.3492], [22.6554, 47.3403], [22.6505, 47.3281], [22.6565, 47.321], [22.6425, 47.3112], [22.6531, 47.3039], [22.654, 47.2948], [22.6509, 47.2944], [22.6538, 47.2845], [22.6466, 47.2763], [22.6482, 47.2674], [22.6426, 47.2621], [22.6652, 47.2579]]]}}, {"type": "Feature", "properties": {"osm_type": "relation", "osm_id": 372190282, "name": "COSEIU", "admin_level": "6", "kind": "subdivision_2", "parent_osm_id": 91685, "parent_name": "Sălaj", "parent_iso": "RO-SJ"}, "geometry": {"type": "Polygon", "coordinates": [[[23.0576, 47.3287], [23.0668, 47.3444], [23.0552, 47.3464], [23.0464, 47.3572], [23.0204, 47.3569], [23.0178, 47.3637], [23.0028, 47.3689], [22.9974, 47.3615], [22.9898, 47.3615], [22.9767, 47.3521], [22.9831, 47.3422], [22.9664, 47.3297], [22.9736, 47.3225], [22.9643, 47.3184], [22.976, 47.3185], [22.9706, 47.313], [22.9597, 47.3126], [22.9684, 47.3116], [22.9724, 47.3055], [22.987, 47.3092], [22.9864, 47.2997], [22.9776, 47.294], [22.9932, 47.2955], [23.0044, 47.3076], [23.0109, 47.3056], [23.0246, 47.3139], [23.0249, 47.3096], [23.0325, 47.3093], [23.0502, 47.3238], [23.0493, 47.3301], [23.0576, 47.3287]]]}}, {"type": "Feature", "properties": {"osm_type": "relation", "osm_id": 897932134, "name": "SAMSUD", "admin_level": "6", "kind": "subdivision_2", "parent_osm_id": 91685, "parent_name": "Sălaj", "parent_iso": "RO-SJ"}, "geometry": {"type": "Polygon", "coordinates": [[[22.9597, 47.3126], [22.9706, 47.313], [22.976, 47.3185], [22.9643, 47.3184], [22.9736, 47.3225], [22.9664, 47.3297], [22.983, 47.3457], [22.936, 47.3749], [22.9374, 47.3812], [22.9169, 47.3823], [22.9115, 47.3755], [22.9149, 47.3681], [22.925, 47.3641], [22.9127, 47.3412], [22.9135, 47.3338], [22.922, 47.3262], [22.9221, 47.3158], [22.9508, 47.2966], [22.9597, 47.3126]]]}}, {"type": "Feature", "properties": {"osm_type": "relation", "osm_id": 547426356, "name": "LETCA", "admin_level": "6", "kind": "subdivision_2", "parent_osm_id": 91685, "parent_name": "Sălaj", "parent_iso": "RO-SJ"}, "geometry": {"type": "Polygon", "coordinates": [[[23.4303, 47.3196], [23.4379, 47.3155], [23.447, 47.3177], [23.4445, 47.3222], [23.4521, 47.3266], [23.472, 47.3279], [23.4708, 47.3346], [23.4843, 47.3362], [23.4884, 47.3472], [23.4997, 47.3483], [23.5099, 47.3586], [23.4928, 47.366], [23.4816, 47.3777], [23.4677, 47.3753], [23.3971, 47.3919], [23.3777, 47.3881], [23.3812, 47.3808], [23.3718, 47.3771], [23.382, 47.3739], [23.3607, 47.3541], [23.3582, 47.3284], [23.3802, 47.3265], [23.3962, 47.3311], [23.4105, 47.3191], [23.4267, 47.3227], [23.4303, 47.3196]]]}}, {"type": "Feature", "properties": {"osm_type": "relation", "osm_id": 887197118, "name": "SARMASAG", "admin_level": "6", "kind": "subdivision_2", "parent_osm_id": 91685, "parent_name": "Sălaj", "parent_iso": "RO-SJ"}, "geometry": {"type": "Polygon", "coordinates": [[[22.8098, 47.2759], [22.8297, 47.2796], [22.841, 47.2714], [22.8587, 47.2726], [22.8561, 47.2832], [22.8655, 47.2853], [22.8611, 47.2931], [22.8642, 47.2965], [22.8568, 47.2989], [22.8723, 47.3098], [22.8769, 47.3227], [22.8614, 47.3278], [22.867, 47.3303], [22.8614, 47.3339], [22.8671, 47.3356], [22.8526, 47.3501], [22.8682, 47.3687], [22.8593, 47.3711], [22.8594, 47.3752], [22.8531, 47.3735], [22.8487, 47.3836], [22.8263, 47.3802], [22.811, 47.3725], [22.8081, 47.3755], [22.8095, 47.3716], [22.796, 47.3662], [22.7838, 47.3697], [22.7731, 47.3625], [22.7603, 47.3662], [22.7583, 47.3567], [22.7402, 47.355], [22.7438, 47.3613], [22.7316, 47.3612], [22.7112, 47.3523], [22.7142, 47.3479], [22.7486, 47.3402], [22.8183, 47.3345], [22.815, 47.3314], [22.8239, 47.3265], [22.8133, 47.321], [22.8188, 47.3171], [22.8164, 47.3109], [22.8086, 47.3097], [22.8131, 47.3061], [22.8067, 47.292], [22.8102, 47.2846], [22.8007, 47.2782], [22.8014, 47.2737], [22.8098, 47.2759]]]}}, {"type": "Feature", "properties": {"osm_type": "relation", "osm_id": 499161543, "name": "ILEANDA", "admin_level": "6", "kind": "subdivision_2", "parent_osm_id": 91685, "parent_name": "Sălaj", "parent_iso": "RO-SJ"}, "geometry": {"type": "Polygon", "coordinates": [[[23.605, 47.2822], [23.6151, 47.2862], [23.6109, 47.2976], [23.6556, 47.3162], [23.6708, 47.3279], [23.6734, 47.3391], [23.6899, 47.333], [23.7092, 47.3327], [23.7011, 47.3412], [23.7068, 47.3454], [23.6997, 47.3473], [23.7124, 47.3521], [23.6805, 47.3551], [23.6667, 47.3665], [23.6658, 47.3817], [23.6611, 47.3795], [23.6501, 47.3906], [23.6315, 47.396], [23.6104, 47.3861], [23.6142, 47.3813], [23.6083, 47.3749], [23.5851, 47.3725], [23.579, 47.3622], [23.5415, 47.3695], [23.5152, 47.3685], [23.5132, 47.3621], [23.5042, 47.363], [23.5099, 47.3586], [23.5043, 47.3527], [23.5336, 47.3592], [23.5443, 47.3489], [23.5252, 47.3325], [23.5296, 47.325], [23.5249, 47.316], [23.5329, 47.3084], [23.5334, 47.3008], [23.5466, 47.3107], [23.551, 47.3073], [23.5565, 47.3117], [23.5631, 47.3218], [23.5608, 47.3247], [23.568, 47.3286], [23.5758, 47.3246], [23.566, 47.321], [23.5654, 47.3153], [23.5738, 47.3186], [23.5968, 47.3112], [23.5932, 47.3036], [23.5883, 47.3042], [23.5923, 47.3003], [23.5847, 47.2963], [23.5887, 47.2961], [23.5937, 47.2849], [23.605, 47.2822]]]}}, {"type": "Feature", "properties": {"osm_type": "relation", "osm_id": 935659759, "name": "SALATIG", "admin_level": "6", "kind": "subdivision_2", "parent_osm_id": 91685, "parent_name": "Sălaj", "parent_iso": "RO-SJ"}, "geometry": {"type": "Polygon", "coordinates": [[[23.0712, 47.3242], [23.1181, 47.3372], [23.1378, 47.3282], [23.1627, 47.345], [23.156, 47.3482], [23.1588, 47.3552], [23.1746, 47.3447], [23.2214, 47.3419], [23.2339, 47.3459], [23.2381, 47.3547], [23.2334, 47.3559], [23.2416, 47.3576], [23.2385, 47.3649], [23.2461, 47.3705], [23.2394, 47.3731], [23.2367, 47.3846], [23.2029, 47.393], [23.1906, 47.3815], [23.2008, 47.3717], [23.197, 47.3662], [23.1629, 47.3637], [23.1589, 47.374], [23.1439, 47.3784], [23.1492, 47.3906], [23.1387, 47.3922], [23.1313, 47.382], [23.1139, 47.3808], [23.0871, 47.3634], [23.079, 47.3661], [23.0738, 47.3603], [23.0626, 47.3603], [23.0599, 47.3519], [23.0548, 47.3531], [23.0552, 47.3464], [23.0668, 47.3444], [23.0576, 47.3287], [23.0712, 47.3242]]]}}, {"type": "Feature", "properties": {"osm_type": "relation", "osm_id": 684678336, "name": "NAPRADEA", "admin_level": "6", "kind": "subdivision_2", "parent_osm_id": 91685, "parent_name": "Sălaj", "parent_iso": "RO-SJ"}, "geometry": {"type": "Polygon", "coordinates": [[[23.3602, 47.3281], [23.3573, 47.3366], [23.3607, 47.3541], [23.382, 47.3739], [23.3718, 47.3771], [23.3812, 47.3808], [23.3777, 47.3881], [23.3621, 47.4001], [23.3599, 47.4179], [23.3362, 47.4119], [23.3165, 47.4195], [23.3093, 47.4112], [23.3111, 47.4056], [23.3047, 47.4059], [23.2881, 47.3914], [23.2969, 47.3889], [23.2946, 47.3843], [23.2987, 47.3822], [23.292, 47.3807], [23.2902, 47.3746], [23.3013, 47.3637], [23.2859, 47.3607], [23.2894, 47.3512], [23.2984, 47.3498], [23.2978, 47.3459], [23.2883, 47.3471], [23.2793, 47.3418], [23.2793, 47.3376], [23.2948, 47.3358], [23.277, 47.3317], [23.2843, 47.3212], [23.2762, 47.3056], [23.2925, 47.2946], [23.2939, 47.2975], [23.3181, 47.2877], [23.3168, 47.2931], [23.3269, 47.3017], [23.3226, 47.307], [23.3602, 47.3281]]]}}, {"type": "Feature", "properties": {"osm_type": "relation", "osm_id": 444156950, "name": "BOBOTA", "admin_level": "6", "kind": "subdivision_2", "parent_osm_id": 91685, "parent_name": "Sălaj", "parent_iso": "RO-SJ"}, "geometry": {"type": "Polygon", "coordinates": [[[22.7142, 47.3479], [22.7112, 47.3523], [22.7316, 47.3612], [22.7438, 47.3613], [22.7402, 47.355], [22.7583, 47.3567], [22.7603, 47.3662], [22.7731, 47.3625], [22.7838, 47.3697], [22.796, 47.3662], [22.8095, 47.3716], [22.8081, 47.3755], [22.811, 47.3725], [22.8263, 47.3802], [22.8487, 47.3836], [22.8414, 47.4059], [22.8268, 47.4076], [22.8264, 47.4128], [22.8108, 47.3999], [22.8019, 47.4116], [22.7682, 47.4186], [22.749, 47.4053], [22.7334, 47.4049], [22.7365, 47.4012], [22.7228, 47.3927], [22.6737, 47.3766], [22.671, 47.3801], [22.6454, 47.3742], [22.6423, 47.3609], [22.6297, 47.3497], [22.6502, 47.345], [22.6461, 47.3492], [22.6663, 47.3527], [22.6743, 47.3483], [22.686, 47.3524], [22.6873, 47.3475], [22.712, 47.3446], [22.7108, 47.3483], [22.7142, 47.3479]]]}}, {"type": "Feature", "properties": {"osm_type": "relation", "osm_id": 514203800, "name": "BENESAT", "admin_level": "6", "kind": "subdivision_2", "parent_osm_id": 91685, "parent_name": "Sălaj", "parent_iso": "RO-SJ"}, "geometry": {"type": "Polygon", "coordinates": [[[23.2374, 47.382], [23.2588, 47.3825], [23.2559, 47.3773], [23.2503, 47.3796], [23.2492, 47.3716], [23.268, 47.3756], [23.2692, 47.3722], [23.2892, 47.3733], [23.292, 47.3807], [23.2987, 47.3822], [23.2946, 47.3843], [23.2969, 47.3889], [23.2881, 47.3914], [23.2905, 47.3964], [23.3111, 47.4056], [23.3093, 47.4112], [23.316, 47.4224], [23.2694, 47.4252], [23.2453, 47.4392], [23.2367, 47.4349], [23.2251, 47.4399], [23.2189, 47.4313], [23.2242, 47.4297], [23.2198, 47.4245], [23.2255, 47.4224], [23.2198, 47.4206], [23.2521, 47.4106], [23.2576, 47.399], [23.2343, 47.3926], [23.2301, 47.387], [23.2374, 47.382]]]}}, {"type": "Feature", "properties": {"osm_type": "relation", "osm_id": 620001966, "name": "BUCIUMI", "admin_level": "6", "kind": "subdivision_2", "parent_osm_id": 91685, "parent_name": "Sălaj", "parent_iso": "RO-SJ"}, "geometry": {"type": "Polygon", "coordinates": [[[23.0995, 47.0037], [23.0974, 47.0133], [23.1054, 47.0154], [23.109, 47.0221], [23.1036, 47.029], [23.1162, 47.0465], [23.0988, 47.0447], [23.0939, 47.0502], [23.0815, 47.0503], [23.0827, 47.058], [23.0771, 47.0652], [23.0576, 47.0763], [23.0418, 47.0768], [23.0227, 47.0927], [23.0086, 47.0943], [22.9835, 47.0792], [22.9922, 47.0665], [23.0003, 47.0634], [22.9989, 47.057], [22.9929, 47.0544], [22.9688, 47.0596], [22.9557, 47.0553], [22.9511, 47.0515], [22.9486, 47.0231], [22.9414, 47.0131], [22.9231, 47.0061], [22.9128, 47.0073], [22.9182, 47.0026], [22.9195, 46.9906], [22.9324, 46.9825], [22.9398, 46.9833], [22.9509, 46.9994], [22.9714, 47.006], [22.9818, 46.9973], [22.9913, 47.0026], [22.9899, 46.9969], [22.9987, 46.9956], [23.0023, 46.9891], [23.012, 46.9907], [23.013, 47.0034], [23.0258, 47.0127], [23.027, 47.0027], [23.034, 46.9964], [23.0505, 47.0046], [23.066, 47.0009], [23.0995, 47.0037]]]}}, {"type": "Feature", "properties": {"osm_type": "relation", "osm_id": 146065213, "name": "HOROATU CRASNEI", "admin_level": "6", "kind": "subdivision_2", "parent_osm_id": 91685, "parent_name": "Sălaj", "parent_iso": "RO-SJ"}, "geometry": {"type": "Polygon", "coordinates": [[[22.9199, 46.9831], [22.9249, 46.9866], [22.9128, 47.0073], [22.9231, 47.0061], [22.9414, 47.0131], [22.9486, 47.0231], [22.9511, 47.0515], [22.9557, 47.0553], [22.9688, 47.0596], [22.9929, 47.0544], [22.9989, 47.057], [23.0003, 47.0634], [22.9922, 47.0665], [22.9835, 47.0792], [23.0052, 47.0895], [22.9706, 47.1113], [22.9779, 47.1118], [22.9755, 47.1156], [22.933, 47.1254], [22.9326, 47.1314], [22.9142, 47.136], [22.9208, 47.1455], [22.9078, 47.1518], [22.8794, 47.1384], [22.8855, 47.1305], [22.8776, 47.1269], [22.8783, 47.1176], [22.8734, 47.1133], [22.8765, 47.0965], [22.9016, 47.0914], [22.9017, 47.0785], [22.8934, 47.0799], [22.8912, 47.0654], [22.905, 47.0446], [22.9038, 47.0305], [22.9157, 47.0209], [22.9098, 47.0077], [22.9182, 47.0024], [22.9109, 46.9889], [22.8848, 46.989], [22.8986, 46.9758], [22.9081, 46.9757], [22.9199, 46.9831]]]}}, {"type": "Feature", "properties": {"osm_type": "relation", "osm_id": 752036469, "name": "CIZER", "admin_level": "6", "kind": "subdivision_2", "parent_osm_id": 91685, "parent_name": "Sălaj", "parent_iso": "RO-SJ"}, "geometry": {"type": "Polygon", "coordinates": [[[22.8986, 46.9758], [22.8848, 46.989], [22.9109, 46.9889], [22.9182, 47.0024], [22.9098, 47.0077], [22.9157, 47.0209], [22.9038, 47.0305], [22.905, 47.0446], [22.8912, 47.0654], [22.8934, 47.0799], [22.9017, 47.0785], [22.9016, 47.0914], [22.8765, 47.0965], [22.8487, 47.0899], [22.8352, 47.082], [22.8325, 47.0655], [22.8181, 47.0493], [22.8228, 47.0333], [22.8153, 47.026], [22.8219, 47.0235], [22.8177, 47.0204], [22.8285, 47.0173], [22.8297, 47.009], [22.8238, 47.0007], [22.8378, 46.9906], [22.8545, 46.9897], [22.8663, 46.9806], [22.8789, 46.9889], [22.8713, 46.9795], [22.8978, 46.9707], [22.8986, 46.9758]]]}}, {"type": "Feature", "properties": {"osm_type": "relation", "osm_id": 590201563, "name": "SOMES-ODORHEI", "admin_level": "6", "kind": "subdivision_2", "parent_osm_id": 91685, "parent_name": "Sălaj", "parent_iso": "RO-SJ"}, "geometry": {"type": "Polygon", "coordinates": [[[23.1481, 47.2883], [23.1492, 47.2842], [23.1961, 47.2831], [23.2134, 47.2898], [23.2382, 47.2888], [23.2814, 47.2975], [23.2762, 47.3056], [23.2843, 47.3212], [23.277, 47.3317], [23.2948, 47.3358], [23.2793, 47.3376], [23.2793, 47.3418], [23.2883, 47.3471], [23.2978, 47.3459], [23.2984, 47.3498], [23.2894, 47.3512], [23.2859, 47.3607], [23.3013, 47.3637], [23.2902, 47.3746], [23.2492, 47.3716], [23.2503, 47.3796], [23.2559, 47.3773], [23.2588, 47.3825], [23.2503, 47.3799], [23.2432, 47.3844], [23.2374, 47.382], [23.2394, 47.3731], [23.2458, 47.3689], [23.2385, 47.3649], [23.2416, 47.3576], [23.2334, 47.3559], [23.2381, 47.3547], [23.2339, 47.3459], [23.2081, 47.3408], [23.1746, 47.3447], [23.1588, 47.3552], [23.156, 47.3482], [23.1627, 47.345], [23.1354, 47.3296], [23.1318, 47.3185], [23.1554, 47.3108], [23.1492, 47.2982], [23.1538, 47.2987], [23.1426, 47.2906], [23.1476, 47.2919], [23.1481, 47.2883]]]}}, {"type": "Feature", "properties": {"osm_type": "relation", "osm_id": 160966616, "name": "JIBOU", "admin_level": "6", "kind": "subdivision_2", "parent_osm_id": 91685, "parent_name": "Sălaj", "parent_iso": "RO-SJ"}, "geometry": {"type": "Polygon", "coordinates": [[[23.2955, 47.2163], [23.305, 47.2248], [23.3176, 47.2257], [23.3128, 47.227], [23.3171, 47.231], [23.3108, 47.2364], [23.3116, 47.2433], [23.2893, 47.2405], [23.2757, 47.2538], [23.2921, 47.2544], [23.3133, 47.2658], [23.3233, 47.2835], [23.2786, 47.3038], [23.2814, 47.2975], [23.2763, 47.299], [23.2718, 47.2941], [23.2134, 47.2898], [23.1961, 47.2831], [23.1492, 47.2842], [23.1481, 47.2883], [23.1398, 47.2821], [23.1456, 47.276], [23.131, 47.2675], [23.1549, 47.2689], [23.1541, 47.2655], [23.1643, 47.2598], [23.2031, 47.2547], [23.203, 47.2498], [23.2096, 47.2471], [23.2118, 47.2334], [23.2175, 47.2337], [23.2159, 47.2306], [23.2219, 47.2276], [23.2195, 47.2326], [23.2332, 47.2287], [23.2355, 47.2361], [23.2494, 47.2453], [23.2725, 47.2357], [23.2753, 47.2291], [23.2955, 47.2163]]]}}, {"type": "Feature", "properties": {"osm_type": "relation", "osm_id": 615166751, "name": "SURDUC", "admin_level": "6", "kind": "subdivision_2", "parent_osm_id": 91685, "parent_name": "Sălaj", "parent_iso": "RO-SJ"}, "geometry": {"type": "Polygon", "coordinates": [[[23.3918, 47.2023], [23.3848, 47.2116], [23.3876, 47.2176], [23.3833, 47.2289], [23.3716, 47.2355], [23.3838, 47.2325], [23.3846, 47.2381], [23.4052, 47.2382], [23.4193, 47.2313], [23.4402, 47.243], [23.4507, 47.2413], [23.4638, 47.247], [23.4637, 47.2517], [23.4736, 47.258], [23.4566, 47.2631], [23.4545, 47.2702], [23.4353, 47.2722], [23.4314, 47.2673], [23.4113, 47.2778], [23.4005, 47.2778], [23.3986, 47.285], [23.3728, 47.28], [23.3694, 47.2848], [23.3719, 47.2921], [23.3652, 47.2901], [23.3658, 47.284], [23.355, 47.2741], [23.347, 47.2796], [23.3422, 47.2737], [23.352, 47.2699], [23.3491, 47.2661], [23.3388, 47.2664], [23.3304, 47.2609], [23.3133, 47.2658], [23.2921, 47.2544], [23.2757, 47.2538], [23.2893, 47.2405], [23.3116, 47.2433], [23.3108, 47.2364], [23.3171, 47.231], [23.3128, 47.227], [23.3176, 47.2257], [23.305, 47.2248], [23.2955, 47.2163], [23.2984, 47.2142], [23.3261, 47.2148], [23.3427, 47.2065], [23.356, 47.2065], [23.3564, 47.2015], [23.3645, 47.2012], [23.3657, 47.1965], [23.3918, 47.2023]]]}}, {"type": "Feature", "properties": {"osm_type": "relation", "osm_id": 629130387, "name": "VALCAU DE JOS", "admin_level": "6", "kind": "subdivision_2", "parent_osm_id": 91685, "parent_name": "Sălaj", "parent_iso": "RO-SJ"}, "geometry": {"type": "Polygon", "coordinates": [[[22.6917, 47.033], [22.7429, 47.0513], [22.7244, 47.0647], [22.7481, 47.0665], [22.7493, 47.0749], [22.7382, 47.0749], [22.7378, 47.0885], [22.7548, 47.0947], [22.7642, 47.1087], [22.7626, 47.1154], [22.7679, 47.1175], [22.7652, 47.1204], [22.806, 47.1355], [22.7993, 47.1387], [22.804, 47.1405], [22.7832, 47.1332], [22.7804, 47.136], [22.7897, 47.1412], [22.8012, 47.1431], [22.789, 47.1484], [22.7794, 47.1459], [22.788, 47.1416], [22.7851, 47.1394], [22.7584, 47.1438], [22.7278, 47.1397], [22.7161, 47.1299], [22.7159, 47.1224], [22.6815, 47.1028], [22.6731, 47.1039], [22.6636, 47.0891], [22.6675, 47.0873], [22.6475, 47.0716], [22.6472, 47.063], [22.6594, 47.0512], [22.6868, 47.0513], [22.6917, 47.033]]]}}, {"type": "Feature", "properties": {"osm_type": "relation", "osm_id": 363056911, "name": "CRASNA", "admin_level": "6", "kind": "subdivision_2", "parent_osm_id": 91685, "parent_name": "Sălaj", "parent_iso": "RO-SJ"}, "geometry": {"type": "Polygon", "coordinates": [[[22.7811, 47.1125], [22.8018, 47.1185], [22.8161, 47.1161], [22.8238, 47.1192], [22.8227, 47.1258], [22.8483, 47.1367], [22.8671, 47.1368], [22.8776, 47.1269], [22.8839, 47.1283], [22.8794, 47.1384], [22.8826, 47.1414], [22.9078, 47.1518], [22.9152, 47.1507], [22.9208, 47.1574], [22.9214, 47.165], [22.9301, 47.1719], [22.9291, 47.1851], [22.9225, 47.1835], [22.9223, 47.1891], [22.9138, 47.187], [22.9014, 47.1947], [22.8917, 47.1899], [22.8862, 47.1962], [22.8565, 47.1873], [22.8324, 47.1944], [22.8295, 47.1902], [22.8449, 47.1884], [22.8385, 47.1823], [22.7883, 47.1934], [22.7634, 47.1917], [22.7606, 47.1848], [22.7674, 47.1775], [22.7818, 47.1737], [22.7819, 47.1688], [22.7942, 47.1698], [22.804, 47.1576], [22.8164, 47.1537], [22.8085, 47.148], [22.8055, 47.1492], [22.8096, 47.1516], [22.7997, 47.1539], [22.8003, 47.1578], [22.7892, 47.1568], [22.798, 47.1492], [22.7943, 47.1476], [22.7958, 47.1428], [22.8012, 47.1431], [22.7804, 47.136], [22.7832, 47.1332], [22.804, 47.1405], [22.7993, 47.1387], [22.806, 47.1355], [22.7652, 47.1204], [22.7811, 47.1125]]]}}, {"type": "Feature", "properties": {"osm_type": "relation", "osm_id": 707978437, "name": "CEHU SILVANIEI", "admin_level": "6", "kind": "subdivision_2", "parent_osm_id": 91685, "parent_name": "Sălaj", "parent_iso": "RO-SJ"}, "geometry": {"type": "Polygon", "coordinates": [[[23.2301, 47.387], [23.2424, 47.3968], [23.2576, 47.399], [23.2521, 47.4106], [23.2198, 47.4206], [23.2255, 47.4224], [23.2198, 47.4245], [23.2242, 47.4297], [23.2055, 47.442], [23.2057, 47.4479], [23.1873, 47.4522], [23.1836, 47.4591], [23.1615, 47.4444], [23.159, 47.4381], [23.1379, 47.4444], [23.1061, 47.4424], [23.117, 47.4271], [23.1183, 47.417], [23.1124, 47.4109], [23.1201, 47.4088], [23.1191, 47.3956], [23.1083, 47.396], [23.0899, 47.3846], [23.1029, 47.374], [23.1139, 47.3808], [23.1313, 47.382], [23.1387, 47.3922], [23.1492, 47.3906], [23.1439, 47.3784], [23.1589, 47.374], [23.1629, 47.3637], [23.197, 47.3662], [23.2008, 47.3717], [23.1906, 47.3815], [23.1993, 47.3927], [23.2301, 47.387]]]}}, {"type": "Feature", "properties": {"osm_type": "relation", "osm_id": 359601837, "name": "BOGHIS", "admin_level": "6", "kind": "subdivision_2", "parent_osm_id": 91685, "parent_name": "Sălaj", "parent_iso": "RO-SJ"}, "geometry": {"type": "Polygon", "coordinates": [[[22.7278, 47.1397], [22.7584, 47.1438], [22.7851, 47.1394], [22.788, 47.1416], [22.7794, 47.1459], [22.789, 47.1484], [22.7918, 47.144], [22.798, 47.1492], [22.7892, 47.1568], [22.8003, 47.1578], [22.7997, 47.1539], [22.8096, 47.1516], [22.8055, 47.1492], [22.8085, 47.148], [22.8164, 47.1537], [22.804, 47.1576], [22.7942, 47.1698], [22.7819, 47.1688], [22.7818, 47.1737], [22.7593, 47.1835], [22.7331, 47.1732], [22.715, 47.175], [22.6854, 47.1581], [22.684, 47.1534], [22.6899, 47.1559], [22.6893, 47.1442], [22.6945, 47.1433], [22.6875, 47.1364], [22.7278, 47.1397]]]}}, {"type": "Feature", "properties": {"osm_type": "relation", "osm_id": 617755658, "name": "NUSFALAU", "admin_level": "6", "kind": "subdivision_2", "parent_osm_id": 91685, "parent_name": "Sălaj", "parent_iso": "RO-SJ"}, "geometry": {"type": "Polygon", "coordinates": [[[22.6854, 47.1581], [22.715, 47.175], [22.7331, 47.1732], [22.7405, 47.1791], [22.7639, 47.1811], [22.7601, 47.1889], [22.7653, 47.1994], [22.7515, 47.1958], [22.7464, 47.1992], [22.7442, 47.1954], [22.741, 47.2035], [22.7477, 47.2074], [22.7321, 47.2173], [22.7463, 47.2192], [22.7402, 47.2207], [22.7353, 47.2298], [22.7479, 47.2343], [22.7395, 47.2411], [22.7402, 47.2457], [22.7072, 47.2386], [22.6948, 47.2459], [22.6972, 47.2486], [22.6926, 47.2519], [22.6881, 47.2505], [22.6851, 47.2475], [22.6905, 47.2448], [22.6861, 47.2419], [22.6941, 47.2391], [22.6941, 47.2317], [22.6882, 47.2252], [22.6787, 47.227], [22.6782, 47.2193], [22.6696, 47.2088], [22.6641, 47.2086], [22.6628, 47.2003], [22.6395, 47.1931], [22.6409, 47.1864], [22.6247, 47.1782], [22.6269, 47.1732], [22.6334, 47.1756], [22.6318, 47.1717], [22.6567, 47.1763], [22.6586, 47.1719], [22.6745, 47.1702], [22.6756, 47.1634], [22.6879, 47.1618], [22.6854, 47.1581]]]}}]}