{"type": "FeatureCollection", "parent": {"osm_id": 965030827, "name": "Southern Nations", "admin_level": "4", "kind": "subdivision_1", "child_kind": "subdivision_2", "iso": "ET-SN"}, "features": [{"type": "Feature", "properties": {"osm_type": "relation", "osm_id": 534112059, "name": "Alaba", "admin_level": "6", "kind": "subdivision_2", "parent_osm_id": 965030827, "parent_name": "Southern Nations", "parent_iso": "ET-SN"}, "geometry": {"type": "Polygon", "coordinates": [[[38.4265, 7.555], [38.4197, 7.5706], [38.4019, 7.5799], [38.4017, 7.5965], [38.3959, 7.6009], [38.3667, 7.6022], [38.3458, 7.6114], [38.2631, 7.5753], [38.2537, 7.5804], [38.2475, 7.5928], [38.2379, 7.5577], [38.2168, 7.5181], [38.2169, 7.4732], [38.1957, 7.4718], [38.1891, 7.4428], [38.1627, 7.4387], [38.1442, 7.4057], [38.1178, 7.4096], [38.1177, 7.4373], [38.1067, 7.4511], [38.0536, 7.4245], [38.0489, 7.4166], [38.0304, 7.419], [38.0584, 7.3899], [38.0589, 7.3834], [38.0405, 7.3791], [37.9859, 7.3027], [38.0005, 7.2934], [38.0526, 7.2968], [38.0745, 7.2795], [38.0843, 7.262], [38.101, 7.2083], [38.1819, 7.2591], [38.2066, 7.2667], [38.266, 7.3079], [38.2765, 7.3201], [38.2824, 7.3399], [38.278, 7.3624], [38.2803, 7.3818], [38.3097, 7.4027], [38.3197, 7.4154], [38.3281, 7.4629], [38.3421, 7.4798], [38.3926, 7.5031], [38.4147, 7.5053], [38.4276, 7.5159], [38.4304, 7.5351], [38.4265, 7.555]]]}}, {"type": "Feature", "properties": {"osm_type": "relation", "osm_id": 505443918, "name": "Basketo", "admin_level": "6", "kind": "subdivision_2", "parent_osm_id": 965030827, "parent_name": "Southern Nations", "parent_iso": "ET-SN"}, "geometry": {"type": "Polygon", "coordinates": [[[36.6861, 6.3329], [36.6582, 6.3423], [36.6705, 6.3819], [36.6496, 6.3869], [36.6269, 6.3633], [36.6125, 6.3714], [36.5746, 6.3432], [36.5367, 6.3647], [36.5169, 6.3146], [36.4769, 6.2825], [36.4713, 6.2846], [36.4459, 6.2339], [36.4231, 6.2168], [36.4238, 6.1901], [36.3997, 6.1606], [36.4038, 6.1428], [36.4197, 6.1456], [36.4817, 6.1828], [36.5305, 6.1752], [36.564, 6.2059], [36.612, 6.2189], [36.6713, 6.2288], [36.684, 6.2272], [36.6757, 6.2687], [36.6782, 6.2945], [36.6901, 6.3243], [36.6861, 6.3329]]]}}, {"type": "Feature", "properties": {"osm_type": "relation", "osm_id": 896545536, "name": "Bench Maji", "admin_level": "6", "kind": "subdivision_2", "parent_osm_id": 965030827, "parent_name": "Southern Nations", "parent_iso": "ET-SN"}, "geometry": {"type": "Polygon", "coordinates": [[[34.9857, 6.3001], [34.9519, 6.2691], [34.9497, 6.2533], [34.9668, 6.2022], [34.9697, 6.1557], [34.9587, 6.1212], [34.9661, 6.0915], [34.988, 6.0689], [34.9927, 6.0551], [34.9934, 6.0198], [35.0027, 6.0039], [34.9883, 5.9556], [34.9876, 5.9466], [34.998, 5.9259], [34.9916, 5.8967], [35.047, 5.8188], [35.1218, 5.6921], [35.1257, 5.675], [35.122, 5.6216], [35.301, 5.4977], [35.305, 5.459], [35.2999, 5.4388], [35.2913, 5.4266], [35.2858, 5.3841], [35.3009, 5.3338], [35.3166, 5.3303], [35.3354, 5.3341], [35.3601, 5.3487], [35.4073, 5.3611], [35.4554, 5.3926], [35.4695, 5.4072], [35.5058, 5.4191], [35.5166, 5.4151], [35.5341, 5.4188], [35.5794, 5.4158], [35.6565, 5.3823], [35.7412, 5.3711], [35.7366, 5.5446], [35.7471, 5.6058], [35.7948, 5.6606], [35.8448, 5.6718], [35.9146, 5.6635], [35.9377, 5.6557], [35.955, 5.6708], [35.9562, 5.7184], [35.9686, 5.7492], [35.953, 5.7827], [35.9528, 5.8275], [35.9623, 5.8779], [35.9775, 5.9185], [35.9675, 5.9478], [35.9967, 5.9732], [35.9938, 5.9998], [35.9739, 6.0486], [35.9794, 6.078], [35.9555, 6.0933], [35.9357, 6.1284], [35.9403, 6.1412], [35.9756, 6.1705], [35.9649, 6.215], [35.9711, 6.2388], [35.986, 6.38], [36.0199, 6.4397], [36.031, 6.4504], [36.0549, 6.4619], [36.0882, 6.4677], [36.1078, 6.4825], [36.1223, 6.5084], [36.1328, 6.5445], [36.1335, 6.5683], [36.0909, 6.6223], [36.081, 6.6456], [36.0821, 6.7051], [36.0642, 6.7281], [36.0745, 6.8169], [36.0593, 6.8481], [36.0397, 6.9113], [36.0161, 6.9463], [36.0065, 7.0016], [35.9635, 7.0853], [35.9478, 7.1028], [35.9222, 7.1204], [35.8696, 7.0965], [35.8675, 7.0685], [35.8798, 7.0347], [35.8565, 7.0228], [35.8429, 6.9982], [35.8229, 7.0354], [35.8392, 7.0672], [35.8156, 7.0764], [35.79, 7.0434], [35.7784, 7.0163], [35.7513, 7.0267], [35.6904, 6.9895], [35.6912, 7.0095], [35.7293, 7.06], [35.7086, 7.0743], [35.7195, 7.1028], [35.6713, 7.2077], [35.6649, 7.2099], [35.6339, 7.1943], [35.5473, 7.1782], [35.5175, 7.162], [35.4552, 7.1691], [35.4374, 7.1636], [35.4307, 7.16], [35.4339, 7.1285], [35.4175, 7.1191], [35.3811, 7.124], [35.3725, 7.1182], [35.3553, 7.1197], [35.3315, 7.1283], [35.3144, 7.1165], [35.3006, 7.117], [35.2654, 7.1374], [35.2352, 7.1391], [35.2192, 7.1093], [35.2053, 7.1008], [35.115, 7.1034], [35.0845, 7.1261], [35.0547, 7.1855], [35.0216, 7.187], [34.9786, 7.2145], [34.9709, 7.2352], [34.9664, 7.2163], [34.9432, 7.1941], [34.8988, 7.186], [34.8913, 7.1606], [34.8934, 7.0927], [34.8778, 7.071], [34.8851, 7.032], [34.9028, 7.0321], [34.9121, 6.9894], [34.9465, 6.9454], [34.9747, 6.9264], [34.9986, 6.8941], [34.9931, 6.8653], [34.9697, 6.8605], [34.9464, 6.8278], [34.9344, 6.7975], [34.9861, 6.7994], [35.0437, 6.8117], [35.0806, 6.812], [35.1475, 6.7623], [35.1803, 6.7286], [35.179, 6.7109], [35.1984, 6.6815], [35.1883, 6.6578], [35.187, 6.6282], [35.1961, 6.5987], [35.1875, 6.5587], [35.1863, 6.491], [35.1746, 6.4678], [35.2002, 6.4122], [35.1793, 6.3806], [35.1655, 6.3841], [35.1442, 6.399], [35.1323, 6.3968], [35.1197, 6.3477], [35.1069, 6.3202], [35.0842, 6.3193], [35.0742, 6.3087], [35.039, 6.3059], [35.012, 6.2816], [34.9857, 6.3001]]]}}, {"type": "Feature", "properties": {"osm_type": "relation", "osm_id": 876481641, "name": "Dawro", "admin_level": "6", "kind": "subdivision_2", "parent_osm_id": 965030827, "parent_name": "Southern Nations", "parent_iso": "ET-SN"}, "geometry": {"type": "Polygon", "coordinates": [[[37.5364, 7.1886], [37.5083, 7.2013], [37.4752, 7.1869], [37.4267, 7.2195], [37.3913, 7.2358], [37.3831, 7.2499], [37.3535, 7.2691], [37.348, 7.2792], [37.3494, 7.2999], [37.361, 7.3119], [37.332, 7.3446], [37.2884, 7.3356], [37.2386, 7.3133], [37.155, 7.2419], [37.1294, 7.2297], [37.1056, 7.2257], [37.0403, 7.2412], [36.9331, 7.2213], [36.8676, 7.2205], [36.856, 7.1829], [36.8531, 7.1406], [36.8407, 7.1072], [36.82, 7.076], [36.8175, 7.0215], [36.8009, 7.0016], [36.7869, 6.9693], [36.7636, 6.9377], [36.7589, 6.9087], [36.7108, 6.8346], [36.7054, 6.8055], [36.6886, 6.7719], [36.6803, 6.7206], [36.6852, 6.7022], [36.7548, 6.712], [36.7778, 6.7042], [36.8219, 6.6775], [36.8467, 6.6711], [36.8693, 6.675], [36.9153, 6.6984], [36.9358, 6.7023], [36.981, 6.6662], [36.9872, 6.6383], [36.9858, 6.6091], [36.9961, 6.5914], [37.0053, 6.5911], [37.1461, 6.6668], [37.164, 6.6638], [37.1973, 6.6454], [37.2348, 6.6711], [37.2249, 6.6941], [37.2259, 6.7029], [37.2363, 6.7245], [37.2388, 6.7459], [37.264, 6.7826], [37.2852, 6.8448], [37.3209, 6.8643], [37.3892, 6.8628], [37.4177, 6.8812], [37.4263, 6.8952], [37.4262, 6.9149], [37.4164, 6.9451], [37.415, 6.9868], [37.4195, 7.0082], [37.4346, 7.0293], [37.4509, 7.0721], [37.4517, 7.1138], [37.4598, 7.1314], [37.5066, 7.1562], [37.5364, 7.1886]]]}}, {"type": "Feature", "properties": {"osm_type": "relation", "osm_id": 819728360, "name": "Gamo Gofa", "admin_level": "6", "kind": "subdivision_2", "parent_osm_id": 965030827, "parent_name": "Southern Nations", "parent_iso": "ET-SN"}, "geometry": {"type": "Polygon", "coordinates": [[[36.684, 6.2272], [36.7094, 6.2122], [36.7326, 6.1789], [36.7356, 6.1664], [36.7361, 6.1531], [36.7278, 6.1326], [36.6839, 6.0904], [36.7117, 6.0715], [36.7154, 6.0626], [36.719, 5.9875], [36.7262, 5.9668], [36.7278, 5.9387], [36.7392, 5.9152], [36.7661, 5.9046], [36.8171, 5.9132], [36.8456, 5.9643], [36.8651, 5.9763], [36.8775, 5.9936], [36.9119, 6.0088], [36.9331, 6.0049], [36.9664, 5.9837], [37.0049, 5.914], [37.0099, 5.8914], [37.01, 5.7809], [37.0007, 5.6939], [37.0041, 5.6729], [37.0308, 5.6187], [37.0307, 5.6315], [37.038, 5.6322], [37.0434, 5.639], [37.053, 5.7012], [37.0619, 5.7084], [37.0969, 5.7029], [37.1047, 5.7076], [37.1101, 5.7188], [37.1268, 5.7269], [37.1374, 5.7193], [37.1504, 5.7178], [37.2398, 5.7258], [37.2533, 5.7322], [37.2822, 5.7582], [37.3421, 5.7456], [37.3767, 5.7675], [37.4155, 5.7415], [37.4282, 5.7219], [37.4427, 5.7115], [37.4716, 5.7005], [37.4799, 5.7037], [37.5045, 5.7472], [37.5566, 5.8072], [37.6009, 5.8334], [37.6521, 5.8461], [37.6899, 5.896], [37.8028, 5.9879], [37.8045, 5.9945], [37.7923, 5.9972], [37.784, 6.0119], [37.7906, 6.0507], [37.7765, 6.1149], [37.7789, 6.1509], [37.8411, 6.2495], [37.853, 6.3061], [37.8409, 6.38], [37.8204, 6.3947], [37.7983, 6.4305], [37.8007, 6.4795], [37.8154, 6.5118], [37.8164, 6.5555], [37.8044, 6.5612], [37.7636, 6.5664], [37.7088, 6.6221], [37.679, 6.6157], [37.6546, 6.6183], [37.6215, 6.6096], [37.6025, 6.6152], [37.5926, 6.6308], [37.5695, 6.6371], [37.5366, 6.6132], [37.5255, 6.6157], [37.5017, 6.6436], [37.4662, 6.6646], [37.4499, 6.6676], [37.435, 6.6642], [37.3483, 6.6915], [37.2964, 6.7016], [37.2815, 6.6998], [37.2571, 6.6879], [37.1973, 6.6454], [37.164, 6.6638], [37.1461, 6.6668], [37.0053, 6.5911], [36.9961, 6.5914], [36.9885, 6.5985], [36.9872, 6.6383], [36.981, 6.6662], [36.9358, 6.7023], [36.9153, 6.6984], [36.8693, 6.675], [36.8467, 6.6711], [36.8219, 6.6775], [36.7778, 6.7042], [36.7548, 6.712], [36.6852, 6.7022], [36.6658, 6.663], [36.6543, 6.6519], [36.5965, 6.6224], [36.5595, 6.5918], [36.527, 6.5551], [36.4882, 6.532], [36.4484, 6.5154], [36.372, 6.4529], [36.3789, 6.4428], [36.3849, 6.398], [36.4029, 6.3785], [36.4098, 6.3463], [36.4383, 6.3226], [36.4392, 6.2975], [36.4656, 6.292], [36.4769, 6.2825], [36.5169, 6.3146], [36.5367, 6.3647], [36.5746, 6.3432], [36.6125, 6.3714], [36.6269, 6.3633], [36.6496, 6.3869], [36.6705, 6.3819], [36.6582, 6.3423], [36.6861, 6.3329], [36.6901, 6.3243], [36.6761, 6.2857], [36.6764, 6.2604], [36.684, 6.2272]]]}}, {"type": "Feature", "properties": {"osm_type": "relation", "osm_id": 460371721, "name": "Gedio", "admin_level": "6", "kind": "subdivision_2", "parent_osm_id": 965030827, "parent_name": "Southern Nations", "parent_iso": "ET-SN"}, "geometry": {"type": "Polygon", "coordinates": [[[38.3112, 5.865], [38.3262, 5.8701], [38.359, 5.9035], [38.3817, 5.9053], [38.3969, 5.9214], [38.3893, 5.9343], [38.3756, 5.9444], [38.3284, 5.9567], [38.3198, 5.9764], [38.3054, 5.9813], [38.2831, 5.972], [38.2725, 5.9879], [38.2801, 6.0076], [38.3147, 6.0291], [38.3207, 6.0487], [38.3523, 6.0975], [38.3633, 6.1215], [38.3661, 6.1441], [38.3778, 6.1658], [38.395, 6.1831], [38.4355, 6.2001], [38.4398, 6.2182], [38.4262, 6.2914], [38.4246, 6.3668], [38.4042, 6.3468], [38.3919, 6.3573], [38.3988, 6.3884], [38.3926, 6.4031], [38.341, 6.4113], [38.3169, 6.4088], [38.3107, 6.4169], [38.2974, 6.417], [38.2941, 6.3733], [38.2891, 6.3611], [38.2494, 6.3376], [38.2147, 6.3315], [38.1984, 6.3203], [38.1892, 6.3055], [38.1727, 6.2566], [38.1799, 6.2396], [38.1941, 6.2275], [38.1987, 6.2077], [38.1882, 6.1835], [38.1719, 6.1682], [38.1422, 6.1558], [38.1259, 6.1564], [38.1031, 6.1817], [38.0875, 6.1623], [38.0807, 6.1183], [38.1173, 6.0515], [38.1224, 6.018], [38.1512, 6.0017], [38.1818, 5.943], [38.2046, 5.9363], [38.2126, 5.918], [38.2156, 5.8946], [38.2005, 5.8661], [38.1992, 5.8508], [38.2088, 5.8415], [38.2242, 5.8399], [38.2401, 5.8457], [38.2713, 5.8698], [38.3046, 5.8628], [38.3112, 5.865]]]}}, {"type": "Feature", "properties": {"osm_type": "relation", "osm_id": 536662125, "name": "Gurage", "admin_level": "6", "kind": "subdivision_2", "parent_osm_id": 965030827, "parent_name": "Southern Nations", "parent_iso": "ET-SN"}, "geometry": {"type": "Polygon", "coordinates": [[[38.6669, 8.3281], [38.6681, 8.3516], [38.6625, 8.3771], [38.6553, 8.3957], [38.6405, 8.4132], [38.6176, 8.4322], [38.5917, 8.4271], [38.5766, 8.446], [38.5277, 8.4587], [38.5023, 8.4451], [38.4787, 8.4485], [38.4691, 8.4361], [38.4624, 8.4009], [38.4525, 8.3861], [38.431, 8.2999], [38.4225, 8.2901], [38.3482, 8.2554], [38.334, 8.2597], [38.3079, 8.3008], [38.3123, 8.371], [38.2901, 8.3818], [38.2829, 8.4007], [38.2671, 8.4077], [38.2392, 8.4104], [38.2184, 8.4099], [38.1809, 8.394], [38.165, 8.4091], [38.1234, 8.4077], [38.1108, 8.3915], [38.0874, 8.3912], [38.0675, 8.3771], [38.0289, 8.3914], [37.989, 8.3606], [37.9492, 8.3685], [37.9288, 8.3793], [37.9108, 8.3716], [37.8884, 8.351], [37.8638, 8.3368], [37.8171, 8.3329], [37.7488, 8.3529], [37.7179, 8.3352], [37.7054, 8.3381], [37.6795, 8.3788], [37.6669, 8.3846], [37.6128, 8.3552], [37.5989, 8.3664], [37.5769, 8.4152], [37.5588, 8.4266], [37.5357, 8.4247], [37.513, 8.4181], [37.4994, 8.4047], [37.4722, 8.3518], [37.4634, 8.307], [37.4649, 8.2835], [37.4728, 8.2672], [37.489, 8.2535], [37.5181, 8.2375], [37.5743, 8.226], [37.6225, 8.2102], [37.6247, 8.2012], [37.6066, 8.1515], [37.5929, 8.0943], [37.6024, 8.0118], [37.6019, 7.9752], [37.6077, 7.9582], [37.6044, 7.9164], [37.6395, 7.9105], [37.7068, 7.8787], [37.7379, 7.8724], [37.7237, 7.8453], [37.7414, 7.8383], [37.7681, 7.8351], [37.7692, 7.8612], [37.8171, 7.8282], [37.8323, 7.7846], [37.8652, 7.7531], [37.8892, 7.7676], [37.8909, 7.7749], [37.8986, 7.7789], [37.9161, 7.777], [37.9369, 7.7969], [37.9205, 7.8438], [37.9426, 7.8438], [37.9706, 7.8652], [37.9839, 7.8356], [37.9991, 7.8184], [38.0324, 7.8448], [38.0672, 7.8955], [38.0722, 7.9188], [38.1241, 7.9542], [38.1345, 7.9937], [38.1682, 8.054], [38.204, 8.0669], [38.2341, 8.0955], [38.2554, 8.1007], [38.2602, 8.0947], [38.2652, 8.046], [38.2629, 8.021], [38.276, 8.0165], [38.3035, 8.0223], [38.3548, 8.0458], [38.3795, 8.0488], [38.3913, 8.041], [38.4014, 8.0189], [38.4032, 7.9958], [38.4252, 7.9898], [38.4396, 7.9802], [38.4316, 7.9476], [38.4893, 7.903], [38.529, 7.8596], [38.5503, 7.872], [38.5639, 7.8863], [38.5674, 7.9065], [38.5873, 7.9394], [38.5982, 7.9917], [38.6285, 8.0347], [38.6135, 8.0444], [38.6227, 8.0695], [38.5942, 8.092], [38.5848, 8.1092], [38.5893, 8.1284], [38.5881, 8.1574], [38.5689, 8.195], [38.5434, 8.227], [38.5429, 8.2472], [38.5501, 8.2638], [38.5616, 8.2672], [38.5944, 8.2613], [38.6016, 8.2507], [38.6044, 8.224], [38.636, 8.1335], [38.6737, 8.091], [38.6801, 8.0969], [38.6853, 8.1236], [38.6795, 8.1723], [38.683, 8.1915], [38.7169, 8.2206], [38.7168, 8.2323], [38.6629, 8.272], [38.6518, 8.2862], [38.6669, 8.3281]]]}}, {"type": "Feature", "properties": {"osm_type": "relation", "osm_id": 229757054, "name": "Hadiya", "admin_level": "6", "kind": "subdivision_2", "parent_osm_id": 965030827, "parent_name": "Southern Nations", "parent_iso": "ET-SN"}, "geometry": {"type": "MultiPolygon", "coordinates": [[[[38.0526, 7.2968], [38.0441, 7.2728], [38.0061, 7.2136], [37.9833, 7.1907], [37.9089, 7.1867], [37.8952, 7.2079], [37.8507, 7.1971], [37.777, 7.1577], [37.7075, 7.1443], [37.7554, 7.1108], [37.8089, 7.0952], [37.8188, 7.0938], [37.84, 7.1056], [37.8506, 7.1059], [37.8869, 7.0943], [37.9069, 7.1127], [37.9144, 7.114], [37.9314, 7.0993], [37.9451, 7.1096], [37.9602, 7.1095], [37.9776, 7.0973], [37.9919, 7.0651], [37.9982, 7.063], [38.0622, 7.0734], [38.0788, 7.1815], [38.101, 7.2083], [38.0811, 7.2696], [38.0526, 7.2968]]], [[[38.1067, 7.4511], [38.1142, 7.461], [38.1149, 7.4709], [38.0898, 7.5036], [38.1034, 7.5201], [38.1018, 7.5514], [38.1133, 7.5644], [38.1219, 7.6122], [38.0869, 7.6129], [38.0587, 7.623], [38.0445, 7.6431], [38.0458, 7.6722], [38.0336, 7.6997], [37.9783, 7.7038], [37.9643, 7.6974], [37.9411, 7.6715], [37.9293, 7.6719], [37.9059, 7.6832], [37.8811, 7.6838], [37.8652, 7.7531], [37.8323, 7.7846], [37.8171, 7.8282], [37.7692, 7.8612], [37.7681, 7.8351], [37.7237, 7.8453], [37.7379, 7.8724], [37.7068, 7.8787], [37.6395, 7.9105], [37.6044, 7.9164], [37.5953, 7.8686], [37.5832, 7.8435], [37.5623, 7.7619], [37.5488, 7.7272], [37.5485, 7.7023], [37.5355, 7.666], [37.4992, 7.6095], [37.4459, 7.5655], [37.408, 7.4934], [37.3911, 7.4036], [37.3805, 7.3812], [37.3574, 7.3621], [37.332, 7.3509], [37.332, 7.3446], [37.361, 7.3119], [37.4335, 7.3267], [37.4627, 7.3181], [37.5393, 7.3234], [37.592, 7.3113], [37.579, 7.272], [37.5821, 7.2612], [37.5911, 7.2587], [37.6052, 7.2687], [37.6315, 7.3041], [37.6405, 7.3027], [37.6682, 7.2785], [37.6928, 7.2674], [37.7032, 7.2749], [37.7148, 7.2933], [37.7467, 7.3581], [37.7875, 7.4171], [37.803, 7.4208], [37.8281, 7.4472], [37.8373, 7.475], [37.8644, 7.4735], [37.9014, 7.4484], [37.9258, 7.4155], [37.9339, 7.4117], [37.9574, 7.4271], [38.0107, 7.4106], [38.0304, 7.419], [38.0489, 7.4166], [38.0536, 7.4245], [38.1067, 7.4511]]]]}}, {"type": "Feature", "properties": {"osm_type": "relation", "osm_id": 341334940, "name": "Keffa", "admin_level": "6", "kind": "subdivision_2", "parent_osm_id": 965030827, "parent_name": "Southern Nations", "parent_iso": "ET-SN"}, "geometry": {"type": "Polygon", "coordinates": [[[35.9711, 6.2388], [35.9873, 6.2446], [36.0286, 6.2727], [36.0398, 6.2877], [36.0426, 6.3022], [36.0368, 6.3305], [36.0399, 6.3388], [36.0584, 6.3525], [36.0874, 6.3891], [36.1207, 6.4173], [36.1329, 6.4247], [36.1798, 6.4289], [36.2371, 6.3898], [36.2654, 6.4], [36.284, 6.4146], [36.3225, 6.4576], [36.3297, 6.5688], [36.3465, 6.6273], [36.3394, 6.6789], [36.3463, 6.7026], [36.364, 6.7292], [36.3944, 6.7538], [36.4133, 6.7847], [36.4507, 6.7819], [36.4776, 6.8063], [36.4719, 6.8683], [36.4505, 6.9174], [36.4762, 6.9732], [36.4816, 6.9798], [36.5139, 6.9824], [36.5872, 7.0584], [36.5875, 7.1135], [36.5967, 7.125], [36.6225, 7.1308], [36.6652, 7.1154], [36.6747, 7.1165], [36.7003, 7.1483], [36.7316, 7.1611], [36.7614, 7.201], [36.7723, 7.2355], [36.785, 7.2565], [36.6734, 7.3292], [36.6525, 7.3462], [36.6337, 7.3791], [36.6236, 7.3804], [36.6068, 7.3696], [36.5991, 7.3702], [36.4847, 7.4172], [36.4539, 7.4186], [36.4071, 7.4097], [36.3754, 7.4168], [36.3494, 7.4466], [36.3025, 7.4511], [36.2803, 7.4645], [36.2255, 7.4856], [36.1573, 7.5438], [36.1284, 7.5568], [36.063, 7.5587], [36.0361, 7.5738], [36.0333, 7.5926], [36.0527, 7.6551], [36.0427, 7.6755], [36.0213, 7.6932], [35.998, 7.7463], [35.9871, 7.7558], [35.9424, 7.7751], [35.8494, 7.8401], [35.8599, 7.8613], [35.8876, 7.8937], [35.9032, 7.9274], [35.9059, 7.9472], [35.8735, 8.0599], [35.8616, 8.0784], [35.8171, 8.0836], [35.7665, 8.0824], [35.7448, 8.0521], [35.7288, 8.0407], [35.7236, 8.0236], [35.7393, 7.99], [35.796, 7.9492], [35.8005, 7.9338], [35.7629, 7.8838], [35.7403, 7.8678], [35.7172, 7.8566], [35.6945, 7.8655], [35.607, 7.8107], [35.613, 7.784], [35.6128, 7.7281], [35.6089, 7.7162], [35.5897, 7.7082], [35.5903, 7.6954], [35.6127, 7.6718], [35.6041, 7.6599], [35.5803, 7.6446], [35.5735, 7.6239], [35.5882, 7.512], [35.5762, 7.5026], [35.5249, 7.4846], [35.5105, 7.4408], [35.4895, 7.4265], [35.5003, 7.3972], [35.4874, 7.3582], [35.4886, 7.3126], [35.4819, 7.2706], [35.4912, 7.2559], [35.5009, 7.2529], [35.5232, 7.2586], [35.5447, 7.2514], [35.5564, 7.2574], [35.5836, 7.2402], [35.5944, 7.2459], [35.6096, 7.235], [35.6238, 7.2383], [35.6319, 7.2321], [35.6586, 7.2292], [35.7195, 7.1028], [35.7086, 7.0743], [35.7293, 7.06], [35.6912, 7.0095], [35.6904, 6.9895], [35.7513, 7.0267], [35.7784, 7.0163], [35.79, 7.0434], [35.8156, 7.0764], [35.8392, 7.0672], [35.8229, 7.0354], [35.8429, 6.9982], [35.8565, 7.0228], [35.8798, 7.0347], [35.8675, 7.0685], [35.8696, 7.0965], [35.9222, 7.1204], [35.9478, 7.1028], [35.9814, 7.055], [36.0102, 6.9924], [36.0161, 6.9463], [36.0397, 6.9113], [36.0593, 6.8481], [36.0745, 6.8169], [36.0642, 6.7281], [36.0821, 6.7051], [36.0797, 6.6594], [36.0847, 6.6325], [36.1335, 6.5683], [36.1344, 6.5593], [36.1268, 6.5203], [36.1078, 6.4825], [36.0882, 6.4677], [36.0549, 6.4619], [36.031, 6.4504], [36.0199, 6.4397], [35.986, 6.38], [35.9711, 6.2388]]]}}, {"type": "Feature", "properties": {"osm_type": "relation", "osm_id": 200171785, "name": "Konta", "admin_level": "6", "kind": "subdivision_2", "parent_osm_id": 965030827, "parent_name": "Southern Nations", "parent_iso": "ET-SN"}, "geometry": {"type": "Polygon", "coordinates": [[[36.9654, 7.2259], [36.9666, 7.2431], [36.9563, 7.2617], [36.8799, 7.3309], [36.8417, 7.3272], [36.7919, 7.2535], [36.785, 7.2565], [36.7723, 7.2355], [36.7614, 7.201], [36.7316, 7.1611], [36.7003, 7.1483], [36.6747, 7.1165], [36.6652, 7.1154], [36.6225, 7.1308], [36.5967, 7.125], [36.5875, 7.1135], [36.5872, 7.0584], [36.5139, 6.9824], [36.4816, 6.9798], [36.4589, 6.9425], [36.4505, 6.9174], [36.4719, 6.8683], [36.4776, 6.8063], [36.4507, 6.7819], [36.4133, 6.7847], [36.3944, 6.7538], [36.364, 6.7292], [36.3412, 6.6907], [36.3465, 6.6273], [36.3297, 6.5688], [36.3225, 6.4576], [36.3357, 6.4598], [36.372, 6.4529], [36.4484, 6.5154], [36.4882, 6.532], [36.527, 6.5551], [36.5595, 6.5918], [36.5965, 6.6224], [36.6416, 6.6439], [36.6658, 6.663], [36.6852, 6.7022], [36.6803, 6.7206], [36.6845, 6.7563], [36.7054, 6.8055], [36.7108, 6.8346], [36.7511, 6.8917], [36.7589, 6.9087], [36.7636, 6.9377], [36.7869, 6.9693], [36.8009, 7.0016], [36.8175, 7.0215], [36.82, 7.076], [36.8407, 7.1072], [36.8531, 7.1406], [36.856, 7.1829], [36.8676, 7.2205], [36.9654, 7.2259]]]}}, {"type": "Feature", "properties": {"osm_type": "relation", "osm_id": 298963259, "name": "KT", "admin_level": "6", "kind": "subdivision_2", "parent_osm_id": 965030827, "parent_name": "Southern Nations", "parent_iso": "ET-SN"}, "geometry": {"type": "Polygon", "coordinates": [[[38.0304, 7.419], [38.0107, 7.4106], [37.9574, 7.4271], [37.9339, 7.4117], [37.9258, 7.4155], [37.9014, 7.4484], [37.8644, 7.4735], [37.8373, 7.475], [37.8281, 7.4472], [37.803, 7.4208], [37.7875, 7.4171], [37.7467, 7.3581], [37.7148, 7.2933], [37.7032, 7.2749], [37.6928, 7.2674], [37.6682, 7.2785], [37.6405, 7.3027], [37.6315, 7.3041], [37.6052, 7.2687], [37.5911, 7.2587], [37.5821, 7.2612], [37.5801, 7.2787], [37.592, 7.3113], [37.5393, 7.3234], [37.4627, 7.3181], [37.4335, 7.3267], [37.402, 7.3233], [37.361, 7.3119], [37.3494, 7.2999], [37.348, 7.2792], [37.3535, 7.2691], [37.3831, 7.2499], [37.3913, 7.2358], [37.4267, 7.2195], [37.4752, 7.1869], [37.5083, 7.2013], [37.5198, 7.1992], [37.554, 7.1739], [37.6453, 7.1649], [37.7075, 7.1443], [37.777, 7.1577], [37.8507, 7.1971], [37.8952, 7.2079], [37.9089, 7.1867], [37.9833, 7.1907], [38.0061, 7.2136], [38.0441, 7.2728], [38.0526, 7.2968], [38.0005, 7.2934], [37.9859, 7.3027], [38.0405, 7.3791], [38.0589, 7.3834], [38.0584, 7.3899], [38.0304, 7.419]]]}}, {"type": "Feature", "properties": {"osm_type": "relation", "osm_id": 631397746, "name": "Segen Peoples'", "admin_level": "6", "kind": "subdivision_2", "parent_osm_id": 965030827, "parent_name": "Southern Nations", "parent_iso": "ET-SN"}, "geometry": {"type": "Polygon", "coordinates": [[[37.8045, 5.9945], [37.7977, 5.981], [37.6899, 5.896], [37.6521, 5.8461], [37.6009, 5.8334], [37.5566, 5.8072], [37.5045, 5.7472], [37.4799, 5.7037], [37.4716, 5.7005], [37.4427, 5.7115], [37.4282, 5.7219], [37.4155, 5.7415], [37.3767, 5.7675], [37.3421, 5.7456], [37.2822, 5.7582], [37.2533, 5.7322], [37.2398, 5.7258], [37.1504, 5.7178], [37.1374, 5.7193], [37.1268, 5.7269], [37.1101, 5.7188], [37.1047, 5.7076], [37.0969, 5.7029], [37.0745, 5.7051], [37.0692, 5.7102], [37.0564, 5.7052], [37.0479, 5.6861], [37.0504, 5.6788], [37.0434, 5.639], [37.038, 5.6322], [37.0307, 5.6315], [37.0308, 5.6187], [37.0248, 5.6155], [37.0257, 5.6064], [37.0163, 5.5973], [37.0163, 5.5649], [37.011, 5.5627], [37.0129, 5.54], [37.0228, 5.52], [37.0131, 5.5195], [37.0491, 5.4941], [37.0624, 5.4539], [37.0637, 5.4269], [37.0513, 5.3801], [37.0393, 5.3728], [37.0321, 5.356], [37.0393, 5.3525], [37.0399, 5.347], [37.0193, 5.2949], [37.0041, 5.2005], [37.0829, 5.1878], [37.113, 5.1877], [37.1826, 5.1953], [37.198, 5.2117], [37.2177, 5.2141], [37.2389, 5.2008], [37.2932, 5.1957], [37.3415, 5.161], [37.368, 5.1565], [37.418, 5.1679], [37.5187, 5.2219], [37.6305, 5.2674], [37.6475, 5.3007], [37.675, 5.309], [37.7017, 5.3073], [37.7297, 5.2936], [37.7479, 5.278], [37.7736, 5.2847], [37.8109, 5.2697], [37.8279, 5.2511], [37.8535, 5.236], [37.8859, 5.2357], [37.9016, 5.2462], [37.9056, 5.3053], [37.8972, 5.3512], [37.902, 5.3746], [37.936, 5.4244], [37.9476, 5.4756], [37.9486, 5.539], [37.9419, 5.5865], [37.931, 5.618], [37.9443, 5.6408], [37.9783, 5.6507], [38.0088, 5.6515], [38.0416, 5.675], [38.076, 5.6903], [38.0879, 5.7226], [38.0897, 5.7469], [38.0729, 5.7639], [38.055, 5.7655], [38.0207, 5.7914], [38.0131, 5.8056], [38.008, 5.8506], [37.9833, 5.8891], [37.9784, 5.9291], [37.9694, 5.9573], [37.9535, 5.9647], [37.9048, 5.9618], [37.8958, 5.9758], [37.8813, 5.9864], [37.8663, 5.9879], [37.8438, 6.0123], [37.8279, 6.0113], [37.8045, 5.9945]]]}}, {"type": "Feature", "properties": {"osm_type": "relation", "osm_id": 123994677, "name": "Selti", "admin_level": "6", "kind": "subdivision_2", "parent_osm_id": 965030827, "parent_name": "Southern Nations", "parent_iso": "ET-SN"}, "geometry": {"type": "Polygon", "coordinates": [[[38.4017, 7.5965], [38.4211, 7.6255], [38.4117, 7.6634], [38.4133, 7.6827], [38.4395, 7.72], [38.4457, 7.7607], [38.4933, 7.7965], [38.5137, 7.8501], [38.529, 7.8596], [38.4893, 7.903], [38.4316, 7.9476], [38.4396, 7.9802], [38.4252, 7.9898], [38.4032, 7.9958], [38.4014, 8.0189], [38.3913, 8.041], [38.3795, 8.0488], [38.3548, 8.0458], [38.3035, 8.0223], [38.276, 8.0165], [38.2629, 8.021], [38.2652, 8.046], [38.2602, 8.0947], [38.2554, 8.1007], [38.2341, 8.0955], [38.204, 8.0669], [38.1682, 8.054], [38.1345, 7.9937], [38.1241, 7.9542], [38.0722, 7.9188], [38.0672, 7.8955], [38.0324, 7.8448], [37.9991, 7.8184], [37.9839, 7.8356], [37.9706, 7.8652], [37.9426, 7.8438], [37.9205, 7.8438], [37.9369, 7.7969], [37.9161, 7.777], [37.8986, 7.7789], [37.8909, 7.7749], [37.8892, 7.7676], [37.8652, 7.7531], [37.8811, 7.6838], [37.9059, 7.6832], [37.9293, 7.6719], [37.9411, 7.6715], [37.9643, 7.6974], [37.9783, 7.7038], [38.0336, 7.6997], [38.0458, 7.6722], [38.0445, 7.6431], [38.0587, 7.623], [38.0869, 7.6129], [38.1219, 7.6122], [38.1133, 7.5644], [38.1018, 7.5514], [38.1034, 7.5201], [38.0898, 7.5036], [38.1149, 7.4709], [38.1142, 7.461], [38.1067, 7.4511], [38.1177, 7.4373], [38.1178, 7.4096], [38.1442, 7.4057], [38.1627, 7.4387], [38.1891, 7.4428], [38.1957, 7.4718], [38.2169, 7.4732], [38.2168, 7.5181], [38.2379, 7.5577], [38.2475, 7.5928], [38.2537, 7.5804], [38.2631, 7.5753], [38.3458, 7.6114], [38.3667, 7.6022], [38.3959, 7.6009], [38.4017, 7.5965]]]}}, {"type": "Feature", "properties": {"osm_type": "relation", "osm_id": 406381756, "name": "Sheka", "admin_level": "6", "kind": "subdivision_2", "parent_osm_id": 965030827, "parent_name": "Southern Nations", "parent_iso": "ET-SN"}, "geometry": {"type": "Polygon", "coordinates": [[[35.6649, 7.2099], [35.6586, 7.2292], [35.6525, 7.2313], [35.6319, 7.2321], [35.6238, 7.2383], [35.6096, 7.235], [35.5944, 7.2459], [35.5836, 7.2402], [35.5564, 7.2574], [35.5447, 7.2514], [35.5232, 7.2586], [35.5009, 7.2529], [35.4912, 7.2559], [35.4819, 7.2706], [35.4886, 7.3126], [35.4874, 7.3582], [35.5003, 7.3972], [35.4895, 7.4265], [35.5105, 7.4408], [35.5249, 7.4846], [35.5762, 7.5026], [35.5882, 7.512], [35.5735, 7.6239], [35.5803, 7.6446], [35.6041, 7.6599], [35.6127, 7.6718], [35.5903, 7.6954], [35.5897, 7.7082], [35.6089, 7.7162], [35.6128, 7.7281], [35.613, 7.784], [35.607, 7.8107], [35.5709, 7.8141], [35.5452, 7.8321], [35.5313, 7.8811], [35.5215, 7.8968], [35.498, 7.8814], [35.491, 7.8837], [35.4751, 7.8747], [35.4605, 7.8737], [35.4343, 7.8839], [35.4295, 7.882], [35.4013, 7.8307], [35.3899, 7.8282], [35.3588, 7.8441], [35.3506, 7.836], [35.3428, 7.8225], [35.3416, 7.7778], [35.2906, 7.7484], [35.2763, 7.7472], [35.2235, 7.7043], [35.2211, 7.6638], [35.2131, 7.6527], [35.1737, 7.6554], [35.1168, 7.6463], [35.1164, 7.632], [35.1464, 7.6314], [35.1671, 7.616], [35.1655, 7.5816], [35.1727, 7.5339], [35.1388, 7.5133], [35.1215, 7.4847], [35.1232, 7.4798], [35.1622, 7.4725], [35.19, 7.4568], [35.2103, 7.4731], [35.2447, 7.4749], [35.2631, 7.4814], [35.2734, 7.4727], [35.3103, 7.4804], [35.3208, 7.4642], [35.3461, 7.4541], [35.3566, 7.4379], [35.3744, 7.4292], [35.3686, 7.4158], [35.3931, 7.3974], [35.3883, 7.3519], [35.3711, 7.2786], [35.3541, 7.2636], [35.3466, 7.2402], [35.3736, 7.2322], [35.3408, 7.1884], [35.3352, 7.1895], [35.3347, 7.1811], [35.3538, 7.1551], [35.3695, 7.1454], [35.3811, 7.124], [35.4175, 7.1191], [35.4339, 7.1285], [35.4307, 7.16], [35.4552, 7.1691], [35.5175, 7.162], [35.5473, 7.1782], [35.6339, 7.1943], [35.6649, 7.2099]]]}}, {"type": "Feature", "properties": {"osm_type": "relation", "osm_id": 795297521, "name": "Sidama", "admin_level": "6", "kind": "subdivision_2", "parent_osm_id": 965030827, "parent_name": "Southern Nations", "parent_iso": "ET-SN"}, "geometry": {"type": "Polygon", "coordinates": [[[38.2974, 6.417], [38.3107, 6.4169], [38.3169, 6.4088], [38.341, 6.4113], [38.3926, 6.4031], [38.3988, 6.3884], [38.3919, 6.3573], [38.4042, 6.3468], [38.4246, 6.3668], [38.4285, 6.3872], [38.4541, 6.418], [38.4761, 6.4316], [38.5046, 6.4376], [38.5674, 6.4417], [38.5841, 6.4383], [38.6071, 6.4241], [38.6276, 6.4183], [38.6458, 6.4245], [38.6623, 6.4204], [38.6728, 6.4103], [38.6915, 6.4075], [38.708, 6.3937], [38.7395, 6.4102], [38.7588, 6.4103], [38.8749, 6.3021], [38.9614, 6.1606], [38.989, 6.1484], [39.0353, 6.1387], [39.0806, 6.1543], [39.1327, 6.1601], [39.1313, 6.1673], [39.114, 6.1779], [39.0868, 6.2533], [39.0917, 6.2721], [39.1204, 6.3003], [39.1282, 6.3456], [39.1084, 6.439], [39.0962, 6.4734], [39.0975, 6.5229], [39.0871, 6.5464], [39.0534, 6.5582], [39.0493, 6.5711], [39.0654, 6.6001], [39.0601, 6.61], [39.033, 6.6131], [38.9605, 6.6021], [38.9425, 6.6116], [38.9503, 6.6451], [38.9353, 6.6569], [38.9026, 6.6669], [38.856, 6.67], [38.8386, 6.6762], [38.8344, 6.6929], [38.8188, 6.7049], [38.7551, 6.6983], [38.7431, 6.7022], [38.7282, 6.7132], [38.7218, 6.7313], [38.7064, 6.7433], [38.6793, 6.7502], [38.6728, 6.7635], [38.659, 6.7709], [38.6365, 6.773], [38.6407, 6.8139], [38.7149, 6.8618], [38.7006, 6.9046], [38.7055, 6.9319], [38.6956, 6.9587], [38.7014, 6.9699], [38.712, 6.975], [38.7152, 6.9926], [38.7113, 7.0142], [38.6985, 7.0151], [38.6902, 7.0021], [38.6782, 7.0066], [38.6752, 7.0177], [38.6853, 7.0352], [38.6817, 7.0496], [38.6688, 7.0611], [38.6378, 7.0673], [38.647, 7.0968], [38.6123, 7.1254], [38.5845, 7.1275], [38.5469, 7.0921], [38.4809, 7.0916], [38.4647, 7.101], [38.4609, 7.1194], [38.4434, 7.128], [38.4015, 7.1227], [38.3789, 7.131], [38.3577, 7.1471], [38.343, 7.1657], [38.3227, 7.163], [38.3061, 7.1228], [38.29, 7.1083], [38.2553, 7.0611], [38.2387, 7.0213], [38.1946, 7.0136], [38.1709, 7.0021], [38.1474, 6.9787], [38.1301, 6.9751], [38.129, 6.9304], [38.121, 6.883], [38.111, 6.8546], [38.0772, 6.791], [38.052, 6.7007], [38.0317, 6.6779], [38.0287, 6.6668], [37.9968, 6.6533], [37.9631, 6.61], [37.9486, 6.6004], [37.932, 6.6071], [37.9244, 6.6213], [37.9178, 6.6235], [37.9064, 6.6092], [37.9193, 6.5756], [37.9335, 6.5585], [37.9696, 6.5502], [37.9842, 6.5582], [37.9977, 6.5769], [38.0167, 6.5769], [38.0343, 6.5628], [38.0524, 6.536], [38.0916, 6.5273], [38.1153, 6.5008], [38.1401, 6.5073], [38.1505, 6.4979], [38.1443, 6.4595], [38.156, 6.4405], [38.1714, 6.4511], [38.2464, 6.4695], [38.2609, 6.4534], [38.2837, 6.4387], [38.2974, 6.417]]]}}, {"type": "Feature", "properties": {"osm_type": "relation", "osm_id": 358763817, "name": "South Omo", "admin_level": "6", "kind": "subdivision_2", "parent_osm_id": 965030827, "parent_name": "Southern Nations", "parent_iso": "ET-SN"}, "geometry": {"type": "Polygon", "coordinates": [[[36.4713, 6.2846], [36.4656, 6.292], [36.4392, 6.2975], [36.4383, 6.3226], [36.4098, 6.3463], [36.4029, 6.3785], [36.3849, 6.398], [36.3789, 6.4428], [36.372, 6.4529], [36.3357, 6.4598], [36.3225, 6.4576], [36.284, 6.4146], [36.2654, 6.4], [36.2371, 6.3898], [36.1798, 6.4289], [36.1651, 6.4305], [36.1329, 6.4247], [36.0979, 6.3993], [36.0584, 6.3525], [36.0399, 6.3388], [36.0368, 6.3305], [36.0426, 6.3022], [36.0398, 6.2877], [36.0286, 6.2727], [35.9873, 6.2446], [35.9711, 6.2388], [35.9649, 6.203], [35.9756, 6.1705], [35.9403, 6.1412], [35.9357, 6.1284], [35.9555, 6.0933], [35.9794, 6.078], [35.9739, 6.0486], [35.9938, 5.9998], [35.9967, 5.9732], [35.9675, 5.9478], [35.9775, 5.9185], [35.9623, 5.8779], [35.9528, 5.8275], [35.953, 5.7827], [35.9686, 5.7492], [35.9562, 5.7184], [35.955, 5.6708], [35.9377, 5.6557], [35.9146, 5.6635], [35.8448, 5.6718], [35.7948, 5.6606], [35.7471, 5.6058], [35.7366, 5.5446], [35.7412, 5.3711], [35.7633, 5.3533], [35.8087, 5.3412], [35.8198, 5.3327], [35.8295, 5.333], [35.8395, 5.322], [35.855, 5.316], [35.8601, 5.3036], [35.8536, 5.2853], [35.8279, 5.2624], [35.823, 5.2494], [35.8247, 5.2292], [35.8368, 5.204], [35.8535, 5.1904], [35.8586, 5.1659], [35.8554, 5.1503], [35.8334, 5.121], [35.8149, 5.1051], [35.8085, 5.0879], [35.8099, 4.9952], [35.7871, 4.7329], [35.8467, 4.6527], [35.9037, 4.591], [35.9661, 4.513], [36.0498, 4.4508], [36.2102, 4.4463], [36.2449, 4.4562], [36.2659, 4.4451], [36.398, 4.4406], [36.4547, 4.4445], [36.5436, 4.4411], [36.6411, 4.4513], [36.6572, 4.4415], [36.7134, 4.4407], [36.6583, 4.5818], [36.6816, 4.6057], [36.6472, 4.7122], [36.8293, 4.7106], [36.8555, 4.7375], [36.8643, 4.7945], [36.8616, 4.9365], [36.8656, 4.9456], [36.8615, 4.9802], [36.883, 5.0764], [36.8938, 5.1112], [36.922, 5.1465], [36.9498, 5.1961], [36.9839, 5.1938], [37.0041, 5.2005], [37.0193, 5.2949], [37.0399, 5.347], [37.0393, 5.3525], [37.0321, 5.356], [37.0393, 5.3728], [37.0513, 5.3801], [37.0501, 5.3871], [37.0619, 5.4126], [37.0624, 5.4539], [37.0491, 5.4941], [37.0131, 5.5195], [37.0228, 5.52], [37.0119, 5.5473], [37.0143, 5.5584], [37.011, 5.5627], [37.0163, 5.5649], [37.0183, 5.584], [37.0163, 5.5973], [37.0257, 5.6064], [37.0248, 5.6155], [37.0308, 5.6187], [37.0041, 5.6729], [37.0007, 5.6939], [37.01, 5.7809], [37.0118, 5.8758], [37.0049, 5.914], [36.9664, 5.9837], [36.9331, 6.0049], [36.9119, 6.0088], [36.8775, 5.9936], [36.8651, 5.9763], [36.8456, 5.9643], [36.8171, 5.9132], [36.7661, 5.9046], [36.7392, 5.9152], [36.7278, 5.9387], [36.7262, 5.9668], [36.719, 5.9875], [36.7154, 6.0626], [36.7117, 6.0715], [36.6839, 6.0904], [36.7209, 6.1238], [36.7361, 6.1531], [36.7326, 6.1789], [36.7094, 6.2122], [36.684, 6.2272], [36.6713, 6.2288], [36.612, 6.2189], [36.564, 6.2059], [36.5305, 6.1752], [36.4817, 6.1828], [36.4197, 6.1456], [36.4038, 6.1428], [36.3997, 6.1606], [36.4238, 6.1901], [36.4231, 6.2168], [36.4459, 6.2339], [36.4713, 6.2846]]]}}, {"type": "Feature", "properties": {"osm_type": "relation", "osm_id": 120985522, "name": "Wolayita", "admin_level": "6", "kind": "subdivision_2", "parent_osm_id": 965030827, "parent_name": "Southern Nations", "parent_iso": "ET-SN"}, "geometry": {"type": "Polygon", "coordinates": [[[37.9134, 6.5919], [37.9064, 6.6092], [37.9123, 6.621], [37.9244, 6.6213], [37.932, 6.6071], [37.9486, 6.6004], [37.9631, 6.61], [37.9968, 6.6533], [38.0287, 6.6668], [38.0317, 6.6779], [38.0476, 6.6924], [38.0772, 6.791], [38.111, 6.8546], [38.121, 6.883], [38.129, 6.9304], [38.1301, 6.9751], [38.1179, 6.9821], [38.1027, 7.012], [38.0742, 7.0308], [38.065, 7.0446], [38.0622, 7.0734], [37.9982, 7.063], [37.9919, 7.0651], [37.9776, 7.0973], [37.9602, 7.1095], [37.9451, 7.1096], [37.9314, 7.0993], [37.9144, 7.114], [37.9069, 7.1127], [37.8869, 7.0943], [37.8506, 7.1059], [37.84, 7.1056], [37.8188, 7.0938], [37.7936, 7.0985], [37.7554, 7.1108], [37.7075, 7.1443], [37.6861, 7.1539], [37.6453, 7.1649], [37.554, 7.1739], [37.5364, 7.1886], [37.5066, 7.1562], [37.4598, 7.1314], [37.4517, 7.1138], [37.4509, 7.0721], [37.4346, 7.0293], [37.4195, 7.0082], [37.415, 6.9868], [37.4164, 6.9451], [37.4262, 6.9149], [37.4263, 6.8952], [37.4177, 6.8812], [37.3892, 6.8628], [37.3209, 6.8643], [37.2852, 6.8448], [37.264, 6.7826], [37.2388, 6.7459], [37.2363, 6.7245], [37.2259, 6.7029], [37.2249, 6.6941], [37.2348, 6.6711], [37.2698, 6.6945], [37.2964, 6.7016], [37.3483, 6.6915], [37.435, 6.6642], [37.4499, 6.6676], [37.4662, 6.6646], [37.5017, 6.6436], [37.5255, 6.6157], [37.5366, 6.6132], [37.5695, 6.6371], [37.5926, 6.6308], [37.6025, 6.6152], [37.6215, 6.6096], [37.6546, 6.6183], [37.679, 6.6157], [37.7088, 6.6221], [37.7636, 6.5664], [37.8044, 6.5612], [37.8164, 6.5555], [37.8154, 6.5118], [37.8723, 6.5835], [37.8936, 6.5973], [37.9134, 6.5919]]]}}, {"type": "Feature", "properties": {"osm_type": "relation", "osm_id": 266458985, "name": "Yem", "admin_level": "6", "kind": "subdivision_2", "parent_osm_id": 965030827, "parent_name": "Southern Nations", "parent_iso": "ET-SN"}, "geometry": {"type": "Polygon", "coordinates": [[[37.6036, 7.966], [37.5583, 7.9495], [37.5401, 7.955], [37.5225, 7.9782], [37.5148, 8.0008], [37.4916, 8.0182], [37.3926, 7.994], [37.3906, 7.9631], [37.4174, 7.9447], [37.4375, 7.9197], [37.4352, 7.8992], [37.4126, 7.8551], [37.4057, 7.8284], [37.402, 7.6838], [37.4078, 7.6588], [37.4459, 7.5655], [37.4992, 7.6095], [37.53, 7.6552], [37.5441, 7.6854], [37.5488, 7.7272], [37.5623, 7.7619], [37.5832, 7.8435], [37.5953, 7.8686], [37.6074, 7.9405], [37.6036, 7.966]]]}}]}