{"type": "FeatureCollection", "parent": {"osm_id": 980204287, "name": "Kiên Giang", "admin_level": "4", "kind": "subdivision_1", "child_kind": "subdivision_2", "iso": "VN-47"}, "features": [{"type": "Feature", "properties": {"osm_type": "relation", "osm_id": 189910263, "name": "An Bien", "admin_level": "6", "kind": "subdivision_2", "parent_osm_id": 980204287, "parent_name": "Kiên Giang", "parent_iso": "VN-47"}, "geometry": {"type": "Polygon", "coordinates": [[[105.137, 9.8299], [105.1079, 9.8789], [105.0935, 9.9259], [105.0928, 9.9485], [105.0834, 9.9597], [105.0323, 9.931], [104.9584, 9.8532], [104.9421, 9.8466], [104.9159, 9.8475], [104.9175, 9.8333], [104.9318, 9.8063], [104.9466, 9.7906], [105.0929, 9.6936], [105.1087, 9.7135], [105.1112, 9.7386], [105.1291, 9.7387], [105.127, 9.7604], [105.1405, 9.761], [105.1474, 9.7693], [105.147, 9.8067], [105.137, 9.8299]]]}}, {"type": "Feature", "properties": {"osm_type": "relation", "osm_id": 335913646, "name": "An Minh", "admin_level": "6", "kind": "subdivision_2", "parent_osm_id": 980204287, "parent_name": "Kiên Giang", "parent_iso": "VN-47"}, "geometry": {"type": "Polygon", "coordinates": [[[104.9159, 9.8475], [104.9016, 9.8504], [104.8936, 9.8425], [104.8604, 9.732], [104.8325, 9.531], [104.8454, 9.5299], [104.8813, 9.4942], [104.9166, 9.562], [104.9459, 9.5327], [104.963, 9.556], [104.9779, 9.5443], [104.994, 9.5399], [105.0034, 9.5586], [105.034, 9.5402], [105.0312, 9.5477], [105.0373, 9.5866], [105.0322, 9.5864], [105.0369, 9.6325], [105.0512, 9.6948], [105.0678, 9.711], [104.9466, 9.7906], [104.9318, 9.8063], [104.9175, 9.8333], [104.9159, 9.8475]]]}}, {"type": "Feature", "properties": {"osm_type": "relation", "osm_id": 115190735, "name": "Chau Thanh", "admin_level": "6", "kind": "subdivision_2", "parent_osm_id": 980204287, "parent_name": "Kiên Giang", "parent_iso": "VN-47"}, "geometry": {"type": "Polygon", "coordinates": [[[105.137, 9.8299], [105.1697, 9.8297], [105.1688, 9.838], [105.1804, 9.8427], [105.1823, 9.8532], [105.1867, 9.8509], [105.1864, 9.8426], [105.194, 9.8437], [105.2014, 9.8387], [105.2088, 9.8545], [105.2246, 9.8621], [105.2371, 9.8621], [105.2527, 9.8756], [105.2398, 9.8787], [105.229, 9.8932], [105.2364, 9.9146], [105.2258, 9.9171], [105.2186, 9.9251], [105.2026, 9.9264], [105.2179, 9.9571], [105.2312, 9.9576], [105.2215, 9.9689], [105.2127, 9.9968], [105.2202, 10.0124], [105.2239, 10.0428], [105.1526, 10.0889], [105.1491, 10.0848], [105.1632, 10.0751], [105.1069, 10.0054], [105.1133, 9.9927], [105.1211, 9.9918], [105.1364, 9.9758], [105.1305, 9.9711], [105.1311, 9.9617], [105.1466, 9.9607], [105.1435, 9.9499], [105.1302, 9.947], [105.1314, 9.9427], [105.1183, 9.9382], [105.0931, 9.9375], [105.1079, 9.8789], [105.137, 9.8299]]]}}, {"type": "Feature", "properties": {"osm_type": "relation", "osm_id": 546161670, "name": "Giang Thanh", "admin_level": "6", "kind": "subdivision_2", "parent_osm_id": 980204287, "parent_name": "Kiên Giang", "parent_iso": "VN-47"}, "geometry": {"type": "Polygon", "coordinates": [[[104.7785, 10.5196], [104.7576, 10.5189], [104.6804, 10.54], [104.6455, 10.5408], [104.6455, 10.5309], [104.6169, 10.5293], [104.5956, 10.5349], [104.5866, 10.527], [104.5832, 10.5046], [104.5594, 10.4924], [104.5547, 10.463], [104.5681, 10.4631], [104.5732, 10.4544], [104.5264, 10.3769], [104.5709, 10.3461], [104.5869, 10.3591], [104.5814, 10.3641], [104.6189, 10.4033], [104.6332, 10.3938], [104.6513, 10.4201], [104.7003, 10.3966], [104.7085, 10.4118], [104.7818, 10.3742], [104.8102, 10.439], [104.7973, 10.4673], [104.7781, 10.4871], [104.7828, 10.5034], [104.7785, 10.5196]]]}}, {"type": "Feature", "properties": {"osm_type": "relation", "osm_id": 150245315, "name": "Giong Rieng", "admin_level": "6", "kind": "subdivision_2", "parent_osm_id": 980204287, "parent_name": "Kiên Giang", "parent_iso": "VN-47"}, "geometry": {"type": "Polygon", "coordinates": [[[105.2014, 9.8387], [105.2079, 9.8144], [105.2068, 9.7966], [105.2151, 9.7942], [105.2256, 9.7956], [105.2348, 9.8245], [105.2442, 9.8352], [105.2515, 9.8273], [105.2604, 9.8311], [105.2678, 9.8251], [105.273, 9.837], [105.2834, 9.8258], [105.2844, 9.7992], [105.3316, 9.8017], [105.3383, 9.8067], [105.3385, 9.8274], [105.3509, 9.8401], [105.4115, 9.8102], [105.4245, 9.8132], [105.4252, 9.8085], [105.4325, 9.8076], [105.4309, 9.8165], [105.4557, 9.8226], [105.5208, 9.8592], [105.5168, 9.8631], [105.5395, 9.913], [105.3643, 10.0732], [105.3413, 10.032], [105.3515, 10.0279], [105.3335, 9.9925], [105.3178, 9.9969], [105.3241, 9.991], [105.309, 9.9893], [105.309, 9.9793], [105.2971, 9.9822], [105.2769, 9.9564], [105.274, 9.9653], [105.2671, 9.9674], [105.2655, 9.9771], [105.2454, 9.9674], [105.2467, 9.973], [105.2371, 9.9752], [105.2229, 9.9717], [105.2312, 9.9576], [105.2179, 9.9571], [105.2026, 9.9264], [105.2186, 9.9251], [105.2258, 9.9171], [105.2364, 9.9146], [105.229, 9.8932], [105.2398, 9.8787], [105.2527, 9.8756], [105.2371, 9.8621], [105.2246, 9.8621], [105.2088, 9.8545], [105.2014, 9.8387]]]}}, {"type": "Feature", "properties": {"osm_type": "relation", "osm_id": 361144930, "name": "Go Quao", "admin_level": "6", "kind": "subdivision_2", "parent_osm_id": 980204287, "parent_name": "Kiên Giang", "parent_iso": "VN-47"}, "geometry": {"type": "Polygon", "coordinates": [[[105.1474, 9.7693], [105.21, 9.7218], [105.2355, 9.7221], [105.2467, 9.7054], [105.2419, 9.6893], [105.2571, 9.6806], [105.271, 9.6836], [105.2755, 9.6694], [105.2886, 9.6626], [105.2956, 9.6517], [105.3057, 9.6487], [105.3045, 9.6415], [105.2947, 9.6372], [105.297, 9.6299], [105.3036, 9.628], [105.3093, 9.6073], [105.329, 9.5993], [105.3415, 9.6125], [105.348, 9.5996], [105.3457, 9.5925], [105.3641, 9.5923], [105.3701, 9.5877], [105.3763, 9.615], [105.3902, 9.6258], [105.3991, 9.6225], [105.4067, 9.6435], [105.4015, 9.6471], [105.4067, 9.6517], [105.3935, 9.6604], [105.3702, 9.6594], [105.3735, 9.6724], [105.3564, 9.669], [105.3529, 9.6762], [105.341, 9.6755], [105.3286, 9.701], [105.357, 9.7126], [105.3724, 9.7299], [105.3908, 9.7358], [105.3938, 9.7447], [105.4035, 9.7505], [105.4123, 9.7494], [105.4149, 9.759], [105.4073, 9.7601], [105.4052, 9.7696], [105.414, 9.7704], [105.4098, 9.7721], [105.4111, 9.7775], [105.4164, 9.7738], [105.4139, 9.779], [105.4192, 9.7776], [105.4176, 9.7828], [105.4214, 9.7786], [105.4227, 9.7854], [105.4264, 9.7832], [105.4262, 9.7876], [105.4369, 9.7924], [105.4325, 9.8076], [105.4252, 9.8085], [105.4245, 9.8132], [105.4115, 9.8102], [105.3509, 9.8401], [105.3385, 9.8274], [105.3383, 9.8067], [105.3316, 9.8017], [105.2844, 9.7992], [105.2834, 9.8258], [105.2758, 9.8356], [105.273, 9.837], [105.2678, 9.8251], [105.2604, 9.8311], [105.2515, 9.8273], [105.2442, 9.8352], [105.2348, 9.8245], [105.2256, 9.7956], [105.2151, 9.7942], [105.2068, 9.7966], [105.2079, 9.8144], [105.2014, 9.8387], [105.194, 9.8437], [105.1864, 9.8426], [105.1867, 9.8509], [105.1823, 9.8532], [105.1804, 9.8427], [105.1688, 9.838], [105.1697, 9.8297], [105.137, 9.8299], [105.147, 9.8067], [105.1474, 9.7693]]]}}, {"type": "Feature", "properties": {"osm_type": "relation", "osm_id": 439518985, "name": "Hon Dat", "admin_level": "6", "kind": "subdivision_2", "parent_osm_id": 980204287, "parent_name": "Kiên Giang", "parent_iso": "VN-47"}, "geometry": {"type": "Polygon", "coordinates": [[[104.7818, 10.3742], [104.704, 10.2126], [104.736, 10.2279], [104.781, 10.2136], [104.8125, 10.1876], [104.8475, 10.1433], [104.8635, 10.1104], [104.89, 10.0873], [104.9911, 10.0987], [105.052, 10.0369], [105.0814, 10.0531], [105.0761, 10.0601], [105.0776, 10.0676], [105.0981, 10.1141], [105.1081, 10.1098], [105.1448, 10.1937], [105.1653, 10.2185], [105.1256, 10.2533], [105.0191, 10.3178], [104.8647, 10.3557], [104.826, 10.4059], [104.8283, 10.4083], [104.8102, 10.439], [104.7818, 10.3742]]]}}, {"type": "Feature", "properties": {"osm_type": "relation", "osm_id": 756869413, "name": "Rach Gia", "admin_level": "6", "kind": "subdivision_2", "parent_osm_id": 980204287, "parent_name": "Kiên Giang", "parent_iso": "VN-47"}, "geometry": {"type": "Polygon", "coordinates": [[[105.0931, 9.9375], [105.1183, 9.9382], [105.1314, 9.9427], [105.1302, 9.947], [105.1435, 9.9499], [105.1466, 9.9607], [105.1311, 9.9617], [105.1305, 9.9711], [105.1364, 9.9758], [105.1211, 9.9918], [105.1133, 9.9927], [105.1069, 10.0054], [105.1632, 10.0751], [105.1272, 10.1007], [105.0981, 10.1141], [105.0776, 10.0676], [105.0761, 10.0601], [105.0814, 10.0531], [105.052, 10.0369], [105.0805, 10.0041], [105.091, 9.9781], [105.0834, 9.9597], [105.0928, 9.9485], [105.0931, 9.9375]]]}}, {"type": "Feature", "properties": {"osm_type": "relation", "osm_id": 663899915, "name": "Tan Hiep", "admin_level": "6", "kind": "subdivision_2", "parent_osm_id": 980204287, "parent_name": "Kiên Giang", "parent_iso": "VN-47"}, "geometry": {"type": "Polygon", "coordinates": [[[105.2229, 9.9717], [105.2371, 9.9752], [105.2467, 9.973], [105.2454, 9.9674], [105.2655, 9.9771], [105.2671, 9.9674], [105.274, 9.9653], [105.2769, 9.9564], [105.2971, 9.9822], [105.309, 9.9793], [105.309, 9.9893], [105.3241, 9.991], [105.3178, 9.9969], [105.3335, 9.9925], [105.3515, 10.0279], [105.3413, 10.032], [105.3643, 10.0732], [105.3566, 10.083], [105.3531, 10.1007], [105.3171, 10.1413], [105.3106, 10.1347], [105.3033, 10.1436], [105.2982, 10.1386], [105.2258, 10.2012], [105.2312, 10.2088], [105.2276, 10.2131], [105.2059, 10.1835], [105.1653, 10.2185], [105.1448, 10.1937], [105.1081, 10.1098], [105.1491, 10.0848], [105.1526, 10.0889], [105.1628, 10.0833], [105.2239, 10.0428], [105.2202, 10.0124], [105.2127, 9.9968], [105.2229, 9.9717]]]}}, {"type": "Feature", "properties": {"osm_type": "relation", "osm_id": 894778541, "name": "U Minh Thuong", "admin_level": "6", "kind": "subdivision_2", "parent_osm_id": 980204287, "parent_name": "Kiên Giang", "parent_iso": "VN-47"}, "geometry": {"type": "Polygon", "coordinates": [[[105.0678, 9.711], [105.0512, 9.6948], [105.0512, 9.682], [105.0462, 9.677], [105.0369, 9.6325], [105.0322, 9.5864], [105.0373, 9.5866], [105.0312, 9.5477], [105.034, 9.5402], [105.1374, 9.4779], [105.1399, 9.4925], [105.2021, 9.5819], [105.1667, 9.6205], [105.1712, 9.6329], [105.1904, 9.6278], [105.2027, 9.6545], [105.2204, 9.6595], [105.2314, 9.6748], [105.2432, 9.6739], [105.2469, 9.6842], [105.2406, 9.6929], [105.2467, 9.7054], [105.2355, 9.7221], [105.21, 9.7218], [105.1474, 9.7693], [105.1405, 9.761], [105.127, 9.7604], [105.1291, 9.7387], [105.1112, 9.7386], [105.1087, 9.7135], [105.0929, 9.6936], [105.0678, 9.711]]]}}, {"type": "Feature", "properties": {"osm_type": "relation", "osm_id": 107471556, "name": "Vinh Thuan", "admin_level": "6", "kind": "subdivision_2", "parent_osm_id": 980204287, "parent_name": "Kiên Giang", "parent_iso": "VN-47"}, "geometry": {"type": "Polygon", "coordinates": [[[105.2469, 9.6842], [105.2432, 9.6739], [105.2314, 9.6748], [105.2204, 9.6595], [105.2027, 9.6545], [105.1904, 9.6278], [105.1712, 9.6329], [105.1667, 9.6205], [105.2021, 9.5819], [105.1399, 9.4925], [105.1374, 9.4779], [105.2623, 9.3993], [105.2782, 9.433], [105.2949, 9.4334], [105.2914, 9.4669], [105.2991, 9.5049], [105.3102, 9.507], [105.3157, 9.5023], [105.316, 9.5104], [105.3236, 9.5169], [105.32, 9.5248], [105.3299, 9.5275], [105.3226, 9.545], [105.3239, 9.5586], [105.3078, 9.5561], [105.3127, 9.5722], [105.2955, 9.584], [105.2863, 9.6], [105.2865, 9.6249], [105.2922, 9.6365], [105.3045, 9.6415], [105.3057, 9.6487], [105.2956, 9.6517], [105.2886, 9.6626], [105.2755, 9.6694], [105.271, 9.6836], [105.2571, 9.6806], [105.2469, 9.6842]]]}}]}