{"type": "FeatureCollection", "features": [{"type": "Feature", "properties": {"osm_type": "relation", "osm_id": 2528144, "name": "Federation of Bosnia and Herzegovina", "admin_level": "4", "iso": "BA-BIH", "parent_iso": "BA", "parent_osm_id": 2528142}, "geometry": {"type": "Polygon", "coordinates": [[[17.7867, 42.9014], [17.7016, 42.9195], [17.6795, 42.9157], [17.6533, 42.8909], [17.5565, 42.9348], [17.6179, 42.9218], [17.5807, 42.9421], [17.6345, 42.9504], [17.6627, 42.9657], [17.6593, 42.9934], [17.6284, 43.0466], [17.598, 43.0729], [17.6295, 43.1053], [17.6537, 43.1479], [17.6643, 43.1875], [17.6509, 43.2166], [17.6205, 43.2418], [17.5953, 43.2457], [17.5821, 43.2749], [17.5847, 43.2921], [17.5953, 43.3001], [17.7503, 43.2841], [17.7503, 43.3041], [17.7145, 43.3675], [17.7053, 43.4259], [17.6443, 43.4391], [17.6285, 43.4695], [17.6059, 43.4801], [17.5729, 43.5211], [17.5371, 43.5251], [17.5385, 43.5449], [17.602, 43.5541], [17.602, 43.5899], [17.5861, 43.6071], [17.5861, 43.6349], [17.5715, 43.6521], [17.5305, 43.6504], [17.4445, 43.7395], [17.3915, 43.7449], [17.3809, 43.8149], [17.3929, 43.8573], [17.418, 43.8586], [17.4657, 43.8427], [17.4593, 43.8605], [17.5251, 43.8369], [17.5967, 43.8477], [17.7163, 43.8139], [17.7551, 43.8175], [17.7804, 43.8332], [17.8119, 43.8392], [17.8905, 43.8368], [17.9158, 43.7981], [17.9437, 43.7763], [17.9788, 43.7703], [18.0069, 43.7747], [18.0417, 43.6929], [18.0587, 43.6809], [18.1493, 43.6771], [18.1819, 43.6543], [18.1965, 43.6263], [18.1977, 43.6046], [18.2086, 43.5985], [18.2896, 43.5743], [18.3029, 43.6021], [18.3827, 43.5883], [18.3747, 43.5825], [18.3705, 43.5567], [18.3947, 43.4523], [18.3904, 43.4381], [18.0299, 43.4451], [18.0227, 43.4237], [18.0471, 43.3951], [18.0513, 43.3621], [18.0571, 43.2077], [18.0299, 43.1819], [18.0071, 43.1733], [17.9913, 43.1561], [17.9885, 43.1405], [17.9913, 43.1291], [18.0399, 43.1204], [18.0556, 43.1089], [18.0428, 43.0424], [18.0156, 43.0123], [18.0141, 42.9666], [18.0399, 42.8851], [18.0585, 42.8607], [18.203, 42.7663], [18.2159, 42.7463], [18.2689, 42.7049], [18.3462, 42.6491], [18.3733, 42.6433], [18.3698, 42.5744], [18.3387, 42.6025], [18.3116, 42.6012], [18.2241, 42.6281], [17.9953, 42.7404], [17.9045, 42.8045], [17.8585, 42.817], [17.8272, 42.8531], [17.8233, 42.8984], [17.8118, 42.9099], [17.7867, 42.9014]]]}}, {"type": "Feature", "properties": {"osm_type": "relation", "osm_id": 405752124, "name": "Trebinje", "admin_level": "4", "iso": "", "parent_iso": "BA", "parent_osm_id": 2528142}, "geometry": {"type": "Polygon", "coordinates": [[[18.4374, 42.5592], [18.3705, 42.5736], [18.3733, 42.6433], [18.3462, 42.6491], [18.2689, 42.7049], [18.2159, 42.7463], [18.203, 42.7663], [18.0585, 42.8607], [18.0399, 42.8851], [18.0141, 42.9666], [18.0156, 43.0123], [18.0428, 43.0424], [18.0556, 43.1089], [18.0399, 43.1204], [17.9913, 43.1291], [17.9885, 43.1405], [17.9913, 43.1561], [18.0071, 43.1733], [18.0299, 43.1819], [18.0571, 43.2077], [18.0513, 43.3621], [18.0471, 43.3951], [18.0227, 43.4237], [18.0299, 43.4451], [18.3561, 43.4381], [18.3649, 43.3904], [18.3487, 43.3458], [18.3771, 43.3215], [18.4095, 43.3336], [18.4501, 43.3134], [18.5069, 43.3215], [18.588, 43.2687], [18.6884, 43.2245], [18.6453, 43.1802], [18.6206, 43.1226], [18.639, 43.0202], [18.539, 43.0239], [18.483, 43.0146], [18.4528, 42.9934], [18.4335, 42.9542], [18.434, 42.9369], [18.4733, 42.8626], [18.4437, 42.8345], [18.4539, 42.7932], [18.5022, 42.7274], [18.5397, 42.6955], [18.55, 42.6681], [18.5496, 42.6389], [18.5384, 42.6183], [18.4867, 42.5898], [18.4921, 42.5648], [18.459, 42.5697], [18.4374, 42.5592]]]}}, {"type": "Feature", "properties": {"osm_type": "relation", "osm_id": 187281398, "name": "Foča", "admin_level": "4", "iso": "", "parent_iso": "BA", "parent_osm_id": 2528142}, "geometry": {"type": "Polygon", "coordinates": [[[19.055, 43.5067], [19.0381, 43.511], [19.0002, 43.5479], [18.9775, 43.5462], [18.9051, 43.4991], [18.9056, 43.4906], [18.9379, 43.4789], [18.9512, 43.4638], [18.9463, 43.4439], [18.9683, 43.4481], [19.0099, 43.411], [19.0697, 43.3088], [19.0247, 43.2987], [18.9925, 43.2671], [18.9595, 43.3035], [18.9503, 43.3331], [18.8991, 43.3519], [18.8396, 43.3478], [18.8212, 43.3414], [18.8335, 43.3242], [18.8072, 43.318], [18.6795, 43.2495], [18.6643, 43.2332], [18.588, 43.2687], [18.5069, 43.3215], [18.4501, 43.3134], [18.4095, 43.3336], [18.3771, 43.3215], [18.3487, 43.3458], [18.3649, 43.3904], [18.3561, 43.4381], [18.3904, 43.4381], [18.3947, 43.4523], [18.3705, 43.5567], [18.3747, 43.5825], [18.3904, 43.5939], [18.4294, 43.5879], [18.4684, 43.6139], [18.5527, 43.6171], [18.583, 43.6367], [18.6493, 43.5989], [18.6937, 43.5832], [18.7609, 43.576], [18.8854, 43.5917], [18.9626, 43.6175], [19.0199, 43.6547], [19.0513, 43.659], [19.0571, 43.6733], [19.0456, 43.7019], [19.0284, 43.7176], [18.9726, 43.7248], [18.9497, 43.742], [19.0017, 43.7676], [19.0706, 43.7838], [19.1436, 43.7716], [19.1761, 43.7554], [19.2207, 43.7514], [19.2409, 43.7757], [19.2207, 43.8162], [19.2247, 43.8527], [19.2166, 43.9055], [19.241, 43.9524], [19.2754, 43.9333], [19.3595, 43.8422], [19.4617, 43.7621], [19.5057, 43.6736], [19.5074, 43.6472], [19.4817, 43.6289], [19.4775, 43.617], [19.4769, 43.5887], [19.4918, 43.5686], [19.4817, 43.5608], [19.4318, 43.5711], [19.4107, 43.5408], [19.3804, 43.5856], [19.3466, 43.6088], [19.3009, 43.5883], [19.2527, 43.5886], [19.2175, 43.5328], [19.1228, 43.5359], [19.096, 43.5129], [19.055, 43.5067]]]}}, {"type": "Feature", "properties": {"osm_type": "relation", "osm_id": 646071860, "name": "Banja Luka", "admin_level": "4", "iso": "", "parent_iso": "BA", "parent_osm_id": 2528142}, "geometry": {"type": "Polygon", "coordinates": [[[16.9244, 45.2845], [16.9326, 45.2788], [16.9473, 45.2357], [16.968, 45.2373], [16.9612, 45.2509], [16.9987, 45.2314], [17.0083, 45.2442], [17.0136, 45.2306], [17.0083, 45.2162], [17.0363, 45.2305], [17.0557, 45.2004], [17.0984, 45.1777], [17.1871, 45.1486], [17.2455, 45.1554], [17.269, 45.1895], [17.3824, 45.1396], [17.4341, 45.1486], [17.4433, 45.1621], [17.4581, 45.1461], [17.4478, 45.1343], [17.4723, 45.1328], [17.4962, 45.1417], [17.4819, 45.1144], [17.5724, 45.1204], [17.6516, 45.1654], [17.6847, 45.164], [17.7414, 45.1333], [17.7657, 45.111], [17.7399, 45.0723], [17.7425, 45.024], [17.7632, 44.9791], [17.7628, 44.9293], [17.7332, 44.9092], [17.7222, 44.8751], [17.7233, 44.816], [17.7799, 44.7194], [17.817, 44.7059], [17.8883, 44.7198], [17.8353, 44.639], [17.8353, 44.6161], [17.8568, 44.5874], [17.9154, 44.546], [17.9211, 44.5188], [17.9169, 44.4701], [17.8568, 44.4301], [17.7308, 44.3743], [17.6007, 44.3643], [17.502, 44.3657], [17.439, 44.4258], [17.4076, 44.4415], [17.2674, 44.4451], [17.2273, 44.4608], [17.1514, 44.458], [17.1443, 44.4294], [17.1529, 44.3249], [17.1858, 44.2577], [17.2631, 44.1819], [17.2731, 44.1432], [17.2488, 44.0674], [17.1286, 44.0831], [17.1143, 44.096], [17.1071, 44.1533], [17.0613, 44.169], [17.0456, 44.1905], [16.9168, 44.2391], [16.8539, 44.2763], [16.7995, 44.2863], [16.7566, 44.3421], [16.7166, 44.345], [16.512, 44.4637], [16.5034, 44.4808], [16.5077, 44.5009], [16.5664, 44.5023], [16.7537, 44.4551], [16.8525, 44.4594], [16.8811, 44.5138], [16.8825, 44.6211], [16.8782, 44.6625], [16.8697, 44.674], [16.8439, 44.6726], [16.8382, 44.684], [16.8382, 44.7412], [16.8282, 44.767], [16.7895, 44.8056], [16.7037, 44.8557], [16.5592, 44.8771], [16.3332, 44.89], [16.3017, 44.8972], [16.273, 44.9215], [16.2631, 44.9544], [16.2788, 44.973], [16.3489, 44.9916], [16.3552, 45.0095], [16.346, 45.02], [16.382, 45.0837], [16.3818, 45.1076], [16.3985, 45.1214], [16.4355, 45.1329], [16.4819, 45.1995], [16.5289, 45.2223], [16.587, 45.2209], [16.7863, 45.1788], [16.8117, 45.1812], [16.8242, 45.1891], [16.8307, 45.217], [16.8617, 45.2322], [16.9244, 45.2845]]]}}, {"type": "Feature", "properties": {"osm_type": "relation", "osm_id": 2528144, "name": "Federation of Bosnia and Herzegovina", "admin_level": "4", "iso": "BA-BIH", "parent_iso": "BA", "parent_osm_id": 2528142}, "geometry": {"type": "Polygon", "coordinates": [[[16.3162, 45.0012], [16.3406, 45.0059], [16.346, 45.02], [16.3552, 45.0095], [16.3489, 44.9916], [16.2788, 44.973], [16.2631, 44.9544], [16.273, 44.9215], [16.3017, 44.8972], [16.5592, 44.8771], [16.7037, 44.8557], [16.7895, 44.8056], [16.8282, 44.767], [16.8382, 44.7412], [16.8382, 44.684], [16.8439, 44.6726], [16.8697, 44.674], [16.8782, 44.6625], [16.8825, 44.6211], [16.8811, 44.5138], [16.8525, 44.4594], [16.7537, 44.4551], [16.5664, 44.5023], [16.5077, 44.5009], [16.5034, 44.4808], [16.5257, 44.4553], [16.4794, 44.4066], [16.3405, 44.3815], [16.2809, 44.3815], [16.2597, 44.3576], [16.2056, 44.3505], [16.2029, 44.3598], [16.1713, 44.3771], [16.1383, 44.3776], [16.1599, 44.4007], [16.1597, 44.4161], [16.1165, 44.5215], [16.1049, 44.5324], [16.0837, 44.5349], [16.0473, 44.5233], [16.0266, 44.5252], [16.0061, 44.541], [16.0349, 44.5854], [16.0447, 44.5894], [16.0283, 44.6247], [15.969, 44.6392], [15.9556, 44.6532], [15.9481, 44.6781], [15.9374, 44.689], [15.9131, 44.6845], [15.9054, 44.6901], [15.8888, 44.7242], [15.8763, 44.7248], [15.8564, 44.7036], [15.8057, 44.6967], [15.7828, 44.7226], [15.7537, 44.7393], [15.7173, 44.7865], [15.7161, 44.8032], [15.7306, 44.817], [15.7687, 44.8273], [15.7734, 44.845], [15.7343, 44.9021], [15.7309, 44.9272], [15.7636, 44.9755], [15.7674, 44.9932], [15.756, 45.0422], [15.7838, 45.1009], [15.781, 45.168], [15.7923, 45.1898], [15.8248, 45.211], [15.8789, 45.2172], [16.0204, 45.2139], [16.0292, 45.205], [16.0244, 45.1843], [16.0675, 45.1696], [16.1215, 45.0962], [16.213, 45.0315], [16.3162, 45.0012]]]}}, {"type": "Feature", "properties": {"osm_type": "relation", "osm_id": 944312116, "name": "Doboj", "admin_level": "4", "iso": "", "parent_iso": "BA", "parent_osm_id": 2528142}, "geometry": {"type": "Polygon", "coordinates": [[[17.7657, 45.111], [17.8156, 45.0702], [17.8457, 45.0653], [17.9112, 45.0811], [17.9885, 45.1438], [18.0191, 45.1494], [18.0903, 45.108], [18.1437, 45.0977], [18.1731, 45.0505], [18.21, 45.0382], [18.2561, 44.9905], [18.2776, 44.9875], [18.3313, 44.9875], [18.3513, 45.0228], [18.4373, 45.0489], [18.4518, 45.085], [18.4817, 45.0669], [18.4834, 45.0228], [18.528, 44.9859], [18.6078, 44.9537], [18.6508, 44.9537], [18.7199, 44.9183], [18.723, 44.8968], [18.7691, 44.8922], [18.748, 44.845], [18.7094, 44.865], [18.6493, 44.8764], [18.5935, 44.8793], [18.5334, 44.8636], [18.5063, 44.865], [18.4948, 44.875], [18.4948, 44.9093], [18.3975, 44.9186], [18.3474, 44.8986], [18.3117, 44.8285], [18.2874, 44.8013], [18.0857, 44.787], [18.0785, 44.7412], [18.0942, 44.7284], [18.2216, 44.6869], [18.3575, 44.654], [18.3846, 44.6311], [18.3904, 44.6053], [18.3847, 44.5824], [18.3332, 44.5739], [18.1372, 44.5796], [18.0499, 44.6969], [18.0156, 44.7198], [17.9226, 44.7269], [17.817, 44.7059], [17.7799, 44.7194], [17.756, 44.7533], [17.7233, 44.816], [17.7222, 44.8751], [17.7332, 44.9092], [17.7628, 44.9293], [17.7632, 44.9791], [17.7425, 45.024], [17.7399, 45.0723], [17.7657, 45.111]]]}}, {"type": "Feature", "properties": {"osm_type": "relation", "osm_id": 2528145, "name": "Republika Srpska", "admin_level": "4", "iso": "BA-SRP", "parent_iso": "BA", "parent_osm_id": 2528142}, "geometry": {"type": "MultiPolygon", "coordinates": [[[[18.4817, 45.0669], [18.5411, 45.0553], [18.5349, 45.0904], [18.5818, 45.0914], [18.6091, 45.1001], [18.6487, 45.0627], [18.6713, 45.0869], [18.6841, 45.0848], [18.7383, 45.0159], [18.789, 45.0057], [18.8046, 44.9738], [18.7726, 44.9425], [18.7834, 44.9137], [18.8421, 44.8762], [18.8352, 44.86], [18.806, 44.8415], [18.7814, 44.8415], [18.7799, 44.8861], [18.723, 44.8968], [18.7199, 44.9183], [18.6938, 44.9368], [18.6508, 44.9537], [18.6078, 44.9537], [18.5679, 44.9644], [18.528, 44.9859], [18.4834, 45.0228], [18.4817, 45.0669]]], [[[18.2379, 45.1575], [18.3223, 45.1229], [18.412, 45.1124], [18.4518, 45.085], [18.4373, 45.0489], [18.3513, 45.0228], [18.3313, 44.9875], [18.2561, 44.9905], [18.21, 45.0382], [18.1731, 45.0505], [18.1437, 45.0973], [18.1925, 45.1085], [18.2023, 45.1441], [18.2133, 45.1538], [18.2379, 45.1575]]]]}}, {"type": "Feature", "properties": {"osm_type": "relation", "osm_id": 2528143, "name": "Brčko District", "admin_level": "4", "iso": "BA-BRC", "parent_iso": "BA", "parent_osm_id": 2528142}, "geometry": {"type": "Polygon", "coordinates": [[[18.8421, 44.8762], [18.8896, 44.8612], [18.9749, 44.8628], [18.9754, 44.8435], [18.9375, 44.8283], [18.9094, 44.784], [18.8863, 44.7716], [18.8365, 44.7687], [18.8038, 44.7448], [18.7752, 44.7463], [18.748, 44.845], [18.7691, 44.8922], [18.7845, 44.8723], [18.7814, 44.8415], [18.806, 44.8415], [18.8352, 44.86], [18.8421, 44.8762]]]}}, {"type": "Feature", "properties": {"osm_type": "relation", "osm_id": 973734059, "name": "Bijeljina", "admin_level": "4", "iso": "", "parent_iso": "BA", "parent_osm_id": 2528142}, "geometry": {"type": "Polygon", "coordinates": [[[18.9749, 44.8628], [19.0846, 44.879], [19.1869, 44.9275], [19.2019, 44.9084], [19.2395, 44.9151], [19.2838, 44.9084], [19.3102, 44.9124], [19.3302, 44.8987], [19.3532, 44.899], [19.3728, 44.8814], [19.3766, 44.863], [19.3637, 44.8546], [19.318, 44.7155], [19.2776, 44.6849], [19.2557, 44.6456], [19.2087, 44.5884], [19.1883, 44.576], [19.1796, 44.5383], [19.1472, 44.575], [19.0993, 44.5942], [19.0311, 44.5675], [19.0299, 44.6175], [19.0227, 44.6332], [18.9869, 44.639], [18.9512, 44.6332], [18.8911, 44.5502], [18.8682, 44.5417], [18.8482, 44.5417], [18.8324, 44.5517], [18.7395, 44.6247], [18.7294, 44.6447], [18.7309, 44.6675], [18.7981, 44.7048], [18.8038, 44.7448], [18.8365, 44.7687], [18.8863, 44.7716], [18.9094, 44.784], [18.9375, 44.8283], [18.9754, 44.8435], [18.9749, 44.8628]]]}}, {"type": "Feature", "properties": {"osm_type": "relation", "osm_id": 2528144, "name": "Federation of Bosnia and Herzegovina", "admin_level": "4", "iso": "BA-BIH", "parent_iso": "BA", "parent_osm_id": 2528142}, "geometry": {"type": "Polygon", "coordinates": [[[16.3779, 44.0574], [16.3269, 44.0824], [16.2755, 44.1574], [16.2158, 44.2082], [16.1876, 44.2824], [16.1895, 44.3085], [16.2056, 44.3505], [16.2597, 44.3576], [16.2809, 44.3815], [16.3405, 44.3815], [16.4794, 44.4066], [16.5257, 44.4553], [16.7166, 44.345], [16.7566, 44.3421], [16.7995, 44.2863], [16.8539, 44.2763], [16.9168, 44.2391], [17.0456, 44.1905], [17.0613, 44.169], [17.1071, 44.1533], [17.1143, 44.096], [17.1286, 44.0831], [17.249, 44.0679], [17.2909, 44.0174], [17.328, 43.9447], [17.3729, 43.9102], [17.4259, 43.9076], [17.4537, 43.8758], [17.4657, 43.8427], [17.418, 43.8586], [17.3929, 43.8573], [17.3835, 43.8415], [17.3809, 43.7819], [17.3915, 43.7673], [17.3915, 43.7449], [17.4445, 43.7395], [17.5041, 43.6747], [17.5305, 43.6561], [17.5265, 43.619], [17.4987, 43.5872], [17.3915, 43.574], [17.2988, 43.5383], [17.2724, 43.5383], [17.2538, 43.5595], [17.23, 43.5647], [17.1691, 43.5462], [17.1175, 43.5462], [17.0623, 43.5277], [16.8238, 43.7073], [16.7126, 43.7715], [16.6982, 43.7881], [16.6786, 43.8407], [16.5558, 43.9375], [16.501, 43.9927], [16.4396, 44.014], [16.414, 44.0558], [16.3779, 44.0574]]]}}, {"type": "Feature", "properties": {"osm_type": "relation", "osm_id": 2528144, "name": "Federation of Bosnia and Herzegovina", "admin_level": "4", "iso": "BA-BIH", "parent_iso": "BA", "parent_osm_id": 2528142}, "geometry": {"type": "Polygon", "coordinates": [[[17.4509, 43.1482], [17.4268, 43.1657], [17.4002, 43.216], [17.3287, 43.2604], [17.2899, 43.3034], [17.2676, 43.3533], [17.2864, 43.4374], [17.2705, 43.4632], [17.2395, 43.4784], [17.1428, 43.4893], [17.0623, 43.5277], [17.1175, 43.5462], [17.1691, 43.5462], [17.23, 43.5647], [17.2538, 43.5595], [17.2724, 43.5383], [17.2988, 43.5383], [17.3915, 43.574], [17.4987, 43.5872], [17.5265, 43.619], [17.5305, 43.6504], [17.5715, 43.6521], [17.5861, 43.6349], [17.5861, 43.6071], [17.602, 43.5899], [17.602, 43.5541], [17.5385, 43.5449], [17.5371, 43.5251], [17.5729, 43.5211], [17.6059, 43.4801], [17.6285, 43.4695], [17.6443, 43.4391], [17.7053, 43.4259], [17.7145, 43.3675], [17.7503, 43.3041], [17.7503, 43.2841], [17.5953, 43.3001], [17.5847, 43.2921], [17.5821, 43.2749], [17.5953, 43.2457], [17.6205, 43.2418], [17.6509, 43.2166], [17.6643, 43.1875], [17.6537, 43.1479], [17.6295, 43.1053], [17.598, 43.0729], [17.4509, 43.1482]]]}}, {"type": "Feature", "properties": {"osm_type": "relation", "osm_id": 949338461, "name": "Vlasenica", "admin_level": "4", "iso": "", "parent_iso": "BA", "parent_osm_id": 2528142}, "geometry": {"type": "Polygon", "coordinates": [[[19.1796, 44.5383], [19.1653, 44.5267], [19.1299, 44.5183], [19.1273, 44.5026], [19.1434, 44.4582], [19.1414, 44.4308], [19.1158, 44.4036], [19.1072, 44.3827], [19.1167, 44.3437], [19.1389, 44.3093], [19.1772, 44.287], [19.2495, 44.2707], [19.3074, 44.2742], [19.3243, 44.264], [19.354, 44.2243], [19.3624, 44.1912], [19.3812, 44.1771], [19.4426, 44.1432], [19.4657, 44.1528], [19.4764, 44.127], [19.522, 44.085], [19.5802, 44.0515], [19.5989, 44.0626], [19.6114, 44.0545], [19.6189, 44.0357], [19.5934, 44.0056], [19.5286, 43.9772], [19.3646, 43.9733], [19.3006, 44.0095], [19.2728, 44.0124], [19.2521, 44.0075], [19.238, 43.9925], [19.2429, 43.9728], [19.2293, 43.9577], [19.241, 43.9524], [19.225, 43.9215], [19.1274, 43.9987], [18.9084, 44.092], [18.7366, 44.1203], [18.7867, 44.1804], [18.7924, 44.2148], [18.7523, 44.2992], [18.7451, 44.3407], [18.7538, 44.3578], [18.8067, 44.3736], [18.8382, 44.4165], [18.9226, 44.4265], [19.0199, 44.4759], [19.0284, 44.4902], [19.0311, 44.5675], [19.0749, 44.5878], [19.1153, 44.591], [19.1472, 44.575], [19.1796, 44.5383]]]}}, {"type": "Feature", "properties": {"osm_type": "relation", "osm_id": 2528144, "name": "Federation of Bosnia and Herzegovina", "admin_level": "4", "iso": "BA-BIH", "parent_iso": "BA", "parent_osm_id": 2528142}, "geometry": {"type": "Polygon", "coordinates": [[[17.249, 44.0679], [17.2731, 44.1432], [17.2631, 44.1819], [17.1858, 44.2577], [17.1529, 44.3249], [17.1443, 44.4294], [17.1514, 44.458], [17.2273, 44.4608], [17.2674, 44.4451], [17.4076, 44.4415], [17.439, 44.4258], [17.502, 44.3657], [17.6007, 44.3643], [17.7328, 44.3753], [17.7525, 44.3376], [17.7925, 44.3049], [17.7937, 44.1924], [17.8058, 44.1682], [17.8651, 44.1271], [17.911, 44.1283], [17.9256, 44.0751], [17.9727, 44.0666], [17.9848, 44.0569], [17.9969, 44.0049], [18.0417, 44.0062], [18.0501, 44.0001], [18.0501, 43.9759], [18.061, 43.9554], [18.0816, 43.9554], [18.1227, 43.9045], [18.1465, 43.9066], [18.1554, 43.8997], [18.165, 43.8513], [18.1469, 43.8319], [18.0937, 43.809], [18.0235, 43.7981], [18.0069, 43.7747], [17.9788, 43.7703], [17.9437, 43.7763], [17.9158, 43.7981], [17.8905, 43.8368], [17.8119, 43.8392], [17.7804, 43.8332], [17.7551, 43.8175], [17.7163, 43.8139], [17.5967, 43.8477], [17.5251, 43.8369], [17.4592, 43.8604], [17.4259, 43.9076], [17.3729, 43.9102], [17.328, 43.9447], [17.2909, 44.0174], [17.249, 44.0679]]]}}, {"type": "Feature", "properties": {"osm_type": "relation", "osm_id": 2528144, "name": "Federation of Bosnia and Herzegovina", "admin_level": "4", "iso": "BA-BIH", "parent_iso": "BA", "parent_osm_id": 2528142}, "geometry": {"type": "Polygon", "coordinates": [[[17.7328, 44.3753], [17.8568, 44.4301], [17.9169, 44.4701], [17.9211, 44.5188], [17.9154, 44.546], [17.8568, 44.5874], [17.8353, 44.6161], [17.8353, 44.639], [17.8883, 44.7198], [17.9226, 44.7269], [18.0156, 44.7198], [18.0499, 44.6969], [18.1372, 44.5796], [18.2872, 44.5753], [18.2957, 44.4464], [18.3054, 44.4259], [18.3211, 44.4174], [18.3707, 44.4186], [18.3852, 44.4113], [18.4045, 44.3533], [18.4299, 44.3327], [18.5073, 44.3049], [18.5352, 44.2009], [18.5847, 44.1973], [18.5945, 44.1767], [18.615, 44.1706], [18.7396, 44.1731], [18.7631, 44.1488], [18.7366, 44.1203], [18.6594, 44.066], [18.6236, 44.0503], [18.5868, 44.0491], [18.5811, 44.0569], [18.5569, 44.0606], [18.4989, 44.1089], [18.4408, 44.1114], [18.3961, 44.0702], [18.3513, 44.0702], [18.3392, 44.063], [18.3392, 44.0158], [18.3271, 44.0049], [18.2993, 43.9941], [18.2255, 43.9941], [18.1953, 43.9868], [18.188, 43.9408], [18.1795, 43.9311], [18.1421, 43.9178], [18.1465, 43.9066], [18.1227, 43.9045], [18.0816, 43.9554], [18.061, 43.9554], [18.0501, 43.9759], [18.0501, 44.0001], [18.0417, 44.0062], [17.9969, 44.0049], [17.9848, 44.0569], [17.9727, 44.0666], [17.9256, 44.0751], [17.911, 44.1283], [17.8651, 44.1271], [17.8058, 44.1682], [17.7937, 44.1924], [17.7925, 44.3049], [17.7525, 44.3376], [17.7328, 44.3753]]]}}, {"type": "Feature", "properties": {"osm_type": "relation", "osm_id": 2528144, "name": "Federation of Bosnia and Herzegovina", "admin_level": "4", "iso": "BA-BIH", "parent_iso": "BA", "parent_osm_id": 2528142}, "geometry": {"type": "Polygon", "coordinates": [[[18.2872, 44.5753], [18.3847, 44.5824], [18.3904, 44.6053], [18.3846, 44.6311], [18.3575, 44.654], [18.2216, 44.6869], [18.0942, 44.7284], [18.0785, 44.7412], [18.0857, 44.787], [18.2874, 44.8013], [18.3117, 44.8285], [18.3474, 44.8986], [18.3975, 44.9186], [18.4605, 44.9165], [18.4948, 44.9093], [18.4948, 44.875], [18.5063, 44.865], [18.5334, 44.8636], [18.5935, 44.8793], [18.6493, 44.8764], [18.7094, 44.865], [18.748, 44.845], [18.7752, 44.7463], [18.8038, 44.7448], [18.8053, 44.7276], [18.7981, 44.7048], [18.7309, 44.6675], [18.7294, 44.6447], [18.7395, 44.6247], [18.8324, 44.5517], [18.8482, 44.5417], [18.8682, 44.5417], [18.8911, 44.5502], [18.9512, 44.6332], [18.9869, 44.639], [19.0227, 44.6332], [19.0299, 44.6175], [19.0284, 44.4902], [19.0199, 44.4759], [18.9941, 44.4601], [18.9226, 44.4265], [18.8382, 44.4165], [18.8067, 44.3736], [18.7538, 44.3578], [18.7451, 44.3407], [18.7523, 44.2992], [18.7924, 44.2148], [18.7867, 44.1804], [18.7631, 44.1488], [18.7396, 44.1731], [18.615, 44.1706], [18.5945, 44.1767], [18.5847, 44.1973], [18.5352, 44.2009], [18.5073, 44.3049], [18.4299, 44.3327], [18.4045, 44.3533], [18.3852, 44.4113], [18.3707, 44.4186], [18.3211, 44.4174], [18.3054, 44.4259], [18.2957, 44.4464], [18.2872, 44.5753]]]}}, {"type": "Feature", "properties": {"osm_type": "relation", "osm_id": 291804782, "name": "Sarajevo-Romanija", "admin_level": "4", "iso": "", "parent_iso": "BA", "parent_osm_id": 2528142}, "geometry": {"type": "MultiPolygon", "coordinates": [[[[18.5868, 44.0491], [18.6236, 44.0503], [18.6594, 44.066], [18.7366, 44.1203], [18.9084, 44.092], [19.1274, 43.9987], [19.225, 43.9215], [19.2166, 43.9055], [19.2247, 43.8527], [19.2207, 43.8162], [19.2409, 43.7757], [19.2207, 43.7514], [19.1761, 43.7554], [19.1436, 43.7716], [19.0706, 43.7838], [19.0017, 43.7676], [18.9497, 43.742], [18.9254, 43.7634], [18.8782, 43.7691], [18.7395, 43.7663], [18.7194, 43.7477], [18.7094, 43.7148], [18.6922, 43.6904], [18.6736, 43.6776], [18.6121, 43.6819], [18.5592, 43.7105], [18.4863, 43.7348], [18.4161, 43.7377], [18.3761, 43.7891], [18.3703, 43.8321], [18.3832, 43.8378], [18.4519, 43.8306], [18.482, 43.8335], [18.4977, 43.8435], [18.5063, 43.8564], [18.4991, 43.978], [18.5091, 43.9923], [18.5692, 44.0281], [18.5764, 44.0488], [18.5868, 44.0491]]], [[[18.3904, 43.5939], [18.4018, 43.6661], [18.4133, 43.6904], [18.4634, 43.6904], [18.5163, 43.659], [18.583, 43.6367], [18.5527, 43.6171], [18.4684, 43.6139], [18.4294, 43.5879], [18.3904, 43.5939]]]]}}, {"type": "Feature", "properties": {"osm_type": "relation", "osm_id": 2528144, "name": "Federation of Bosnia and Herzegovina", "admin_level": "4", "iso": "BA-BIH", "parent_iso": "BA", "parent_osm_id": 2528142}, "geometry": {"type": "Polygon", "coordinates": [[[18.5868, 44.0491], [18.5764, 44.0488], [18.5692, 44.0281], [18.5091, 43.9923], [18.4991, 43.978], [18.5063, 43.8564], [18.4977, 43.8435], [18.482, 43.8335], [18.4519, 43.8306], [18.3832, 43.8378], [18.3703, 43.8321], [18.3761, 43.7891], [18.4161, 43.7377], [18.4863, 43.7348], [18.5592, 43.7105], [18.6088, 43.6837], [18.5858, 43.6572], [18.583, 43.6367], [18.5163, 43.659], [18.4634, 43.6904], [18.4133, 43.6904], [18.4018, 43.6661], [18.3904, 43.5939], [18.3453, 43.5901], [18.3029, 43.6021], [18.2896, 43.5743], [18.2751, 43.5755], [18.1977, 43.6046], [18.1965, 43.6263], [18.182, 43.6542], [18.1493, 43.6771], [18.0961, 43.6747], [18.0587, 43.6809], [18.0417, 43.6929], [18.0066, 43.7751], [18.0114, 43.7872], [18.0235, 43.7981], [18.0937, 43.809], [18.1602, 43.8416], [18.1638, 43.8683], [18.1421, 43.9178], [18.188, 43.9408], [18.1953, 43.9868], [18.2255, 43.9941], [18.2993, 43.9941], [18.3271, 44.0049], [18.3392, 44.0158], [18.3392, 44.063], [18.3513, 44.0702], [18.3961, 44.0702], [18.4408, 44.1114], [18.4989, 44.1089], [18.54, 44.069], [18.5868, 44.0491]]]}}, {"type": "Feature", "properties": {"osm_type": "relation", "osm_id": 2528144, "name": "Federation of Bosnia and Herzegovina", "admin_level": "4", "iso": "BA-BIH", "parent_iso": "BA", "parent_osm_id": 2528142}, "geometry": {"type": "Polygon", "coordinates": [[[18.6088, 43.6837], [18.6736, 43.6776], [18.6922, 43.6904], [18.7094, 43.7148], [18.7194, 43.7477], [18.7395, 43.7663], [18.8782, 43.7691], [18.9254, 43.7634], [18.9726, 43.7248], [19.0284, 43.7176], [19.0456, 43.7019], [19.0571, 43.6733], [19.0513, 43.659], [19.0199, 43.6547], [18.9626, 43.6175], [18.8854, 43.5917], [18.7609, 43.576], [18.6937, 43.5832], [18.6493, 43.5989], [18.583, 43.6367], [18.5858, 43.6572], [18.6088, 43.6837]]]}}]}