{"type": "FeatureCollection", "features": [{"type": "Feature", "properties": {"osm_type": "relation", "osm_id": 2104170, "name": "North-West District", "admin_level": "4", "iso": "BW-NW", "parent_iso": "BW", "parent_osm_id": 1889339}, "geometry": {"type": "Polygon", "coordinates": [[[25.2598, -17.7941], [25.2194, -17.8798], [25.2261, -17.9319], [25.255, -18.0011], [25.2964, -18.0686], [25.3234, -18.0966], [25.3875, -18.139], [25.4409, -18.2532], [25.4732, -18.3034], [25.4905, -18.3655], [25.5085, -18.3991], [25.5744, -18.4657], [25.6221, -18.5011], [25.6695, -18.566], [25.7619, -18.6303], [25.7734, -18.6656], [25.7795, -18.7388], [25.8153, -18.814], [25.9407, -18.9213], [25.9674, -18.9999], [24.9907, -18.9999], [24.9921, -19.9955], [25.1677, -20.0732], [25.1623, -20.3167], [25.156, -20.3384], [24.5045, -20.3921], [24.4575, -20.3897], [24.4021, -20.4028], [24.3783, -20.3943], [24.3347, -20.3375], [24.2812, -20.2939], [24.2543, -20.2423], [24.2285, -20.2497], [24.2088, -20.2425], [24.1571, -20.1988], [24.0865, -20.216], [24.0588, -20.2367], [24.0266, -20.2479], [23.9957, -20.2797], [23.9954, -20.3001], [23.9223, -20.3165], [23.8835, -20.2967], [23.8814, -21.0], [20.9815, -21.0], [20.9751, -18.3193], [21.4757, -18.2995], [22.9814, -18.02], [23.2928, -17.999], [23.3115, -18.0098], [23.3159, -18.0371], [23.3338, -18.0433], [23.3338, -18.074], [23.3958, -18.1634], [23.3958, -18.1914], [23.4189, -18.1984], [23.4294, -18.1885], [23.4641, -18.2255], [23.5015, -18.2375], [23.5273, -18.2777], [23.5188, -18.2937], [23.5515, -18.3275], [23.5608, -18.3485], [23.5466, -18.3695], [23.5713, -18.426], [23.5792, -18.4679], [23.5922, -18.4782], [23.6099, -18.4777], [23.6454, -18.466], [23.6801, -18.4315], [23.7158, -18.4191], [23.8098, -18.3217], [23.8256, -18.3171], [23.8552, -18.2801], [23.9129, -18.2357], [23.916, -18.2012], [23.9508, -18.1776], [23.9712, -18.1838], [24.057, -18.119], [24.1016, -18.1088], [24.1351, -18.0855], [24.1831, -18.0294], [24.2183, -18.0126], [24.2592, -18.0126], [24.2964, -18.0262], [24.3506, -17.9561], [24.3653, -17.9508], [24.4216, -17.9565], [24.4698, -18.0145], [24.4715, -18.03], [24.5056, -18.0603], [24.5644, -18.0528], [24.5746, -18.0504], [24.6492, -17.9628], [24.6985, -17.9289], [24.7307, -17.8919], [24.7645, -17.8797], [24.7707, -17.8655], [24.7974, -17.8581], [24.8208, -17.8393], [24.9311, -17.8105], [24.9533, -17.7884], [24.9643, -17.7867], [24.9581, -17.8009], [24.9833, -17.8205], [24.9985, -17.8139], [25.0071, -17.8257], [25.0197, -17.8238], [25.0475, -17.8071], [25.057, -17.8277], [25.0879, -17.8268], [25.1209, -17.8135], [25.1539, -17.7818], [25.2598, -17.7941]]]}}, {"type": "Feature", "properties": {"osm_type": "relation", "osm_id": 270335, "name": "Central District", "admin_level": "4", "iso": "BW-CE", "parent_iso": "BW", "parent_osm_id": 1889339}, "geometry": {"type": "Polygon", "coordinates": [[[25.9674, -18.9999], [25.9481, -19.0587], [25.9486, -19.1033], [26.0344, -19.2437], [26.1303, -19.5011], [26.1555, -19.5372], [26.1945, -19.5602], [26.3035, -19.5773], [26.3335, -19.613], [26.3122, -19.6514], [26.3852, -19.6791], [26.4319, -19.7365], [26.5089, -19.7593], [26.5493, -19.7841], [26.5663, -19.8008], [26.5819, -19.8421], [26.5956, -19.8556], [26.6738, -19.8834], [26.7139, -19.9274], [26.731, -19.9359], [26.8119, -19.9464], [26.9251, -20.0009], [27.0267, -20.0101], [27.0601, -20.0276], [27.0973, -20.0689], [27.1837, -20.0823], [27.2149, -20.1105], [27.266, -20.2342], [27.284, -20.3515], [27.2684, -20.4958], [27.2718, -20.5625], [27.2506, -20.6191], [27.2152, -20.7747], [27.2152, -20.8455], [27.2294, -20.9445], [27.3072, -21.0648], [27.385, -21.2558], [27.4063, -21.3478], [27.4416, -21.4114], [27.4912, -21.468], [27.569, -21.5034], [27.6397, -21.5034], [27.7246, -21.5246], [27.859, -21.5175], [27.9156, -21.5458], [27.9904, -21.5519], [28.0329, -21.5779], [28.1657, -21.5952], [28.3219, -21.6035], [28.4646, -21.6603], [28.554, -21.6366], [28.6157, -21.6471], [28.6684, -21.68], [28.8609, -21.7574], [28.9808, -21.7748], [29.0553, -21.81], [29.0576, -21.8292], [29.0179, -21.8981], [29.0138, -21.9404], [29.0216, -21.9828], [29.0405, -22.0209], [29.0708, -22.051], [29.108, -22.0692], [29.1449, -22.0753], [29.2393, -22.0726], [29.2736, -22.1251], [29.3501, -22.1867], [29.3315, -22.1928], [29.2482, -22.1793], [29.2221, -22.1822], [29.1688, -22.214], [29.0387, -22.2239], [29.0181, -22.255], [28.9602, -22.3102], [28.9679, -22.3804], [28.9304, -22.4409], [28.9125, -22.4537], [28.8466, -22.4499], [28.8312, -22.4823], [28.8168, -22.4929], [28.7314, -22.5139], [28.6239, -22.5628], [28.5598, -22.563], [28.5225, -22.5848], [28.4594, -22.5696], [28.3386, -22.5846], [28.2868, -22.6158], [28.2506, -22.6556], [28.1962, -22.6716], [28.1597, -22.7181], [28.1625, -22.759], [28.155, -22.772], [28.1174, -22.7895], [28.1037, -22.8167], [28.0472, -22.8369], [28.054, -22.8691], [28.0374, -22.9114], [28.0083, -22.9348], [27.9375, -22.9638], [27.9461, -23.029], [27.9301, -23.057], [27.8955, -23.0795], [27.8157, -23.1047], [27.8223, -23.123], [27.7742, -23.1252], [27.7746, -23.1408], [27.7893, -23.1638], [27.7742, -23.173], [27.7536, -23.2208], [27.7392, -23.2276], [27.7257, -23.2217], [27.6984, -23.1935], [27.6471, -23.2276], [27.608, -23.2167], [27.5992, -23.2446], [27.5804, -23.2639], [27.5731, -23.2905], [27.5633, -23.2992], [27.5694, -23.3204], [27.5637, -23.3428], [27.5489, -23.3608], [27.5072, -23.3791], [27.4527, -23.3853], [27.4252, -23.4127], [27.4111, -23.4058], [27.4185, -23.3913], [27.4105, -23.3893], [27.3837, -23.3996], [27.3612, -23.4225], [27.35, -23.3915], [27.2956, -23.4517], [27.2397, -23.4814], [27.2025, -23.4921], [27.1915, -23.5038], [27.2057, -23.5231], [27.1866, -23.5273], [27.1714, -23.5156], [27.1572, -23.5367], [27.1491, -23.5275], [27.1274, -23.525], [27.1274, -23.5453], [27.1412, -23.5583], [27.1367, -23.5702], [27.1134, -23.5643], [27.0752, -23.6112], [27.0615, -23.6044], [27.0701, -23.6561], [27.0548, -23.6664], [27.0376, -23.6657], [27.0243, -23.6425], [27.0138, -23.6385], [27.0042, -23.6458], [26.9672, -23.7187], [26.9645, -23.7471], [26.9398, -23.7505], [26.9037, -23.7898], [26.89, -23.7687], [26.8354, -23.8581], [26.8012, -23.8581], [26.7175, -23.9479], [26.0204, -23.5663], [25.8856, -23.3905], [25.8407, -23.3491], [25.7316, -23.3103], [23.8814, -21.0], [23.8835, -20.2967], [23.9223, -20.3165], [23.9954, -20.3001], [23.9957, -20.2797], [24.0266, -20.2479], [24.0588, -20.2367], [24.0865, -20.216], [24.1571, -20.1988], [24.2088, -20.2425], [24.2285, -20.2497], [24.2543, -20.2423], [24.2812, -20.2939], [24.3347, -20.3375], [24.3783, -20.3943], [24.4021, -20.4028], [24.4575, -20.3897], [24.5045, -20.3921], [25.156, -20.3384], [25.1623, -20.3167], [25.1677, -20.0732], [24.9921, -19.9955], [24.9907, -18.9999], [25.9674, -18.9999]], [[27.8435, -21.9961], [27.8739, -21.9836], [27.8829, -21.9607], [27.8715, -21.9515], [27.8739, -21.9349], [27.866, -21.9207], [27.8556, -21.9239], [27.8424, -21.9576], [27.8079, -21.9655], [27.8105, -21.997], [27.8294, -21.9887], [27.8435, -21.9961]], [[26.1948, -20.5585], [26.1263, -20.5446], [26.1204, -20.5678], [26.2003, -20.5944], [26.2522, -20.5986], [26.256, -20.5594], [26.2332, -20.5518], [26.1948, -20.5585]]]}}, {"type": "Feature", "properties": {"osm_type": "relation", "osm_id": 270334, "name": "North-East District", "admin_level": "4", "iso": "BW-NE", "parent_iso": "BW", "parent_osm_id": 1889339}, "geometry": {"type": "Polygon", "coordinates": [[[27.3407, -20.473], [27.4539, -20.4733], [27.5341, -20.483], [27.5909, -20.4733], [27.6258, -20.4886], [27.666, -20.4891], [27.6981, -20.5091], [27.7056, -20.5267], [27.7026, -20.5661], [27.6825, -20.6373], [27.7073, -20.7167], [27.7096, -20.7567], [27.6944, -20.8377], [27.676, -20.8667], [27.6727, -20.9235], [27.6804, -20.9796], [27.6666, -21.0712], [27.7092, -21.1345], [27.7938, -21.1974], [27.885, -21.3102], [27.8944, -21.3243], [27.8978, -21.3554], [27.9205, -21.3812], [27.9502, -21.4383], [27.953, -21.4487], [27.9399, -21.478], [27.9544, -21.4878], [27.9532, -21.5105], [27.9706, -21.5144], [27.9904, -21.5519], [27.9156, -21.5458], [27.859, -21.5175], [27.7246, -21.5246], [27.6397, -21.5034], [27.569, -21.5034], [27.4912, -21.468], [27.4416, -21.4114], [27.4063, -21.3478], [27.385, -21.2558], [27.3072, -21.0648], [27.2294, -20.9445], [27.2152, -20.8455], [27.2152, -20.7747], [27.2506, -20.6191], [27.2718, -20.5625], [27.2684, -20.4958], [27.306, -20.4774], [27.3407, -20.473]], [[27.5387, -21.2158], [27.5593, -21.2056], [27.5575, -21.175], [27.5384, -21.1605], [27.5343, -21.1457], [27.5522, -21.1151], [27.5376, -21.1069], [27.4953, -21.1247], [27.4818, -21.1441], [27.4588, -21.1559], [27.4425, -21.1987], [27.4466, -21.2061], [27.4859, -21.2112], [27.4915, -21.1987], [27.5387, -21.2158]]]}}, {"type": "Feature", "properties": {"osm_type": "relation", "osm_id": 270333, "name": "Kgatleng District", "admin_level": "4", "iso": "BW-KL", "parent_iso": "BW", "parent_osm_id": 1889339}, "geometry": {"type": "Polygon", "coordinates": [[[26.9645, -23.7471], [26.9666, -23.7552], [26.9381, -23.8029], [26.945, -23.8232], [26.9412, -23.8502], [26.8709, -24.1158], [26.8689, -24.1604], [26.8497, -24.2481], [26.8392, -24.2656], [26.8023, -24.2897], [26.6929, -24.3266], [26.6235, -24.3994], [26.5312, -24.4587], [26.5061, -24.4888], [26.4695, -24.5714], [26.4044, -24.6328], [26.3257, -24.6224], [26.2788, -24.6285], [26.1659, -24.6608], [26.1124, -24.6085], [25.8944, -24.4787], [25.8862, -24.4307], [25.9005, -24.3744], [25.9262, -24.3228], [25.9566, -24.1765], [26.0204, -23.5663], [26.7175, -23.9479], [26.8012, -23.8581], [26.8354, -23.8581], [26.89, -23.7687], [26.9037, -23.7898], [26.9398, -23.7505], [26.9645, -23.7471]]]}}, {"type": "Feature", "properties": {"osm_type": "relation", "osm_id": 270332, "name": "South-East District", "admin_level": "4", "iso": "BW-SE", "parent_iso": "BW", "parent_osm_id": 1889339}, "geometry": {"type": "Polygon", "coordinates": [[[26.1659, -24.6608], [26.0136, -24.7045], [25.966, -24.7336], [25.9147, -24.7318], [25.8684, -24.7482], [25.8767, -24.886], [25.8371, -24.9791], [25.8352, -25.0164], [25.8049, -25.0648], [25.7829, -25.1314], [25.6955, -25.31], [25.6528, -25.4633], [25.5482, -25.424], [25.5423, -25.402], [25.6597, -25.0247], [25.6598, -25.0114], [25.6501, -25.0074], [25.601, -25.0068], [25.5988, -25.001], [25.6309, -24.9133], [25.6348, -24.8739], [25.6683, -24.8403], [25.6872, -24.7691], [25.8349, -24.6227], [25.8448, -24.6866], [25.8575, -24.7084], [25.8916, -24.7162], [25.9574, -24.7073], [25.9827, -24.6751], [25.9827, -24.6499], [26.0321, -24.5821], [26.0334, -24.5589], [26.1124, -24.6085], [26.1659, -24.6608]], [[25.6874, -25.1831], [25.6809, -25.1718], [25.6593, -25.2386], [25.6874, -25.239], [25.7053, -25.2242], [25.7049, -25.2143], [25.6936, -25.2088], [25.7056, -25.1927], [25.6991, -25.1811], [25.6874, -25.1831]]]}}, {"type": "Feature", "properties": {"osm_type": "relation", "osm_id": 270338, "name": "Southern District", "admin_level": "4", "iso": "BW-SO", "parent_iso": "BW", "parent_osm_id": 1889339}, "geometry": {"type": "Polygon", "coordinates": [[[25.6528, -25.4633], [25.5873, -25.6195], [25.4584, -25.7112], [25.3865, -25.7435], [25.1778, -25.7633], [25.0517, -25.7379], [25.0133, -25.743], [24.9679, -25.7629], [24.9084, -25.8041], [24.7986, -25.8292], [24.738, -25.8159], [24.665, -25.8233], [24.6296, -25.8161], [24.5767, -25.7833], [24.5009, -25.7578], [24.4867, -25.6726], [24.4601, -25.6537], [24.3985, -25.6463], [24.2503, -25.5014], [24.2299, -25.004], [24.2065, -24.9719], [24.075, -24.851], [24.0441, -24.8453], [23.0565, -24.8458], [23.0493, -24.8232], [23.0534, -23.9991], [24.6397, -24.4612], [24.6376, -24.6603], [24.8206, -24.652], [24.8136, -24.5119], [25.4667, -24.7021], [25.5848, -24.7623], [25.6872, -24.7691], [25.6683, -24.8403], [25.6348, -24.8739], [25.6309, -24.9133], [25.5988, -25.001], [25.601, -25.0068], [25.6501, -25.0074], [25.6598, -25.0114], [25.6597, -25.0247], [25.5423, -25.402], [25.5482, -25.424], [25.6528, -25.4633]]]}}, {"type": "Feature", "properties": {"osm_type": "relation", "osm_id": 270339, "name": "Kgalagadi District", "admin_level": "4", "iso": "BW-KG", "parent_iso": "BW", "parent_osm_id": 1889339}, "geometry": {"type": "Polygon", "coordinates": [[[20.5969, -25.4329], [20.588, -25.404], [20.5422, -25.3822], [20.5358, -25.3712], [20.5292, -25.3401], [20.5105, -25.3123], [20.5164, -25.2836], [20.4855, -25.2632], [20.4817, -25.2305], [20.4438, -25.2133], [20.4344, -25.1998], [20.4448, -25.1684], [20.3649, -25.0332], [20.2357, -24.936], [20.1593, -24.8937], [20.1078, -24.8803], [20.0293, -24.8152], [19.9864, -24.7688], [19.9814, -24.7525], [19.9799, -23.3086], [23.0575, -23.3113], [23.043, -23.3974], [23.0227, -23.4143], [22.9673, -23.4169], [22.959, -23.4249], [22.9554, -23.4627], [22.959, -23.5661], [23.0323, -23.5696], [23.0501, -23.6427], [23.0493, -24.8232], [23.0565, -24.8458], [24.0441, -24.8453], [24.075, -24.851], [24.2065, -24.9719], [24.2299, -25.004], [24.2503, -25.5014], [24.3985, -25.6463], [24.4601, -25.6537], [24.4867, -25.6726], [24.5009, -25.7578], [24.4567, -25.743], [24.3892, -25.7595], [24.3389, -25.7518], [24.2967, -25.7235], [24.2277, -25.649], [24.1835, -25.6259], [24.131, -25.6262], [24.0057, -25.6547], [24.0087, -25.6332], [23.988, -25.6195], [23.9248, -25.6292], [23.8454, -25.5691], [23.8075, -25.5236], [23.769, -25.5074], [23.7427, -25.47], [23.6867, -25.4544], [23.5611, -25.3573], [23.4966, -25.3242], [23.4593, -25.2822], [23.4449, -25.2781], [23.3814, -25.2926], [23.2657, -25.264], [23.2161, -25.2672], [23.1685, -25.28], [23.0717, -25.326], [23.0545, -25.3025], [23.0307, -25.2994], [23.007, -25.3108], [22.968, -25.3469], [22.9561, -25.3721], [22.9205, -25.3905], [22.8876, -25.4502], [22.8446, -25.4811], [22.814, -25.5666], [22.8334, -25.6061], [22.8108, -25.6253], [22.8102, -25.6774], [22.7598, -25.7349], [22.7405, -25.777], [22.7412, -25.7909], [22.7579, -25.806], [22.7655, -25.8265], [22.7088, -25.891], [22.7268, -25.9216], [22.7272, -25.9439], [22.7105, -25.9969], [22.6616, -26.0209], [22.665, -26.0514], [22.6232, -26.1093], [22.5803, -26.1465], [22.5451, -26.2074], [22.528, -26.2137], [22.4826, -26.2048], [22.4509, -26.2101], [22.3429, -26.3174], [22.2483, -26.3469], [22.2377, -26.3668], [22.1974, -26.4041], [22.1462, -26.5192], [22.1081, -26.5719], [22.0577, -26.6176], [21.999, -26.6503], [21.9358, -26.6639], [21.8388, -26.6645], [21.7806, -26.6782], [21.7687, -26.6887], [21.7775, -26.7685], [21.7623, -26.8045], [21.6645, -26.8631], [21.5839, -26.8484], [21.4987, -26.8464], [21.4266, -26.8227], [21.3808, -26.824], [21.2969, -26.8445], [21.2406, -26.842], [21.1535, -26.8645], [21.1225, -26.8653], [20.9904, -26.8386], [20.9077, -26.8], [20.8519, -26.8065], [20.6908, -26.8918], [20.6755, -26.85], [20.6387, -26.817], [20.6147, -26.7532], [20.6089, -26.6861], [20.6324, -26.5953], [20.6053, -26.5477], [20.6053, -26.4933], [20.6225, -26.4275], [20.666, -26.3918], [20.6955, -26.342], [20.7533, -26.2762], [20.7947, -26.2019], [20.8379, -26.1468], [20.8414, -26.1313], [20.8039, -26.0713], [20.7941, -25.8939], [20.7558, -25.819], [20.7265, -25.8274], [20.7378, -25.7989], [20.7167, -25.7326], [20.7069, -25.7148], [20.6629, -25.6853], [20.6708, -25.6423], [20.641, -25.6312], [20.6379, -25.6203], [20.6714, -25.5912], [20.6634, -25.5647], [20.6185, -25.5285], [20.6204, -25.5006], [20.6269, -25.4847], [20.6565, -25.4678], [20.6435, -25.4574], [20.6166, -25.4661], [20.6066, -25.462], [20.612, -25.431], [20.5969, -25.4329]]]}}, {"type": "Feature", "properties": {"osm_type": "relation", "osm_id": 270336, "name": "Ghanzi District", "admin_level": "4", "iso": "BW-GH", "parent_iso": "BW", "parent_osm_id": 1889339}, "geometry": {"type": "Polygon", "coordinates": [[[19.9799, -23.3086], [19.9783, -22.0007], [20.972, -22.0007], [20.9848, -21.964], [20.9815, -21.0], [23.8814, -21.0], [25.4393, -22.9519], [25.2417, -23.3185], [19.9799, -23.3086]]]}}, {"type": "Feature", "properties": {"osm_type": "relation", "osm_id": 270337, "name": "Kweneng District", "admin_level": "4", "iso": "BW-KW", "parent_iso": "BW", "parent_osm_id": 1889339}, "geometry": {"type": "Polygon", "coordinates": [[[25.2417, -23.3185], [25.4393, -22.9519], [25.7316, -23.3103], [25.8407, -23.3491], [25.8856, -23.3905], [26.0204, -23.5663], [25.9566, -24.1765], [25.9262, -24.3228], [25.9005, -24.3744], [25.8862, -24.4307], [25.8944, -24.4787], [25.9512, -24.5074], [25.6872, -24.7691], [25.5848, -24.7623], [25.4667, -24.7021], [23.0534, -23.9991], [23.0501, -23.6427], [23.0323, -23.5696], [22.9659, -23.5687], [22.9567, -23.5586], [22.959, -23.4249], [22.9773, -23.4132], [23.0227, -23.4143], [23.043, -23.3974], [23.0575, -23.3113], [25.2417, -23.3185]]]}}, {"type": "Feature", "properties": {"osm_type": "relation", "osm_id": 17349208, "name": "Gaborone", "admin_level": "4", "iso": "BW-GA", "parent_iso": "BW", "parent_osm_id": 1889339}, "geometry": {"type": "Polygon", "coordinates": [[[25.8349, -24.6227], [25.9512, -24.5074], [26.0334, -24.5589], [26.0321, -24.5821], [25.9827, -24.6499], [25.9827, -24.6751], [25.9574, -24.7073], [25.8916, -24.7162], [25.8575, -24.7084], [25.8448, -24.6866], [25.8349, -24.6227]]]}}, {"type": "Feature", "properties": {"osm_type": "relation", "osm_id": 19430982, "name": "Jwaneng Town", "admin_level": "4", "iso": "BW-JW", "parent_iso": "BW", "parent_osm_id": 1889339}, "geometry": {"type": "Polygon", "coordinates": [[[24.6397, -24.4612], [24.8136, -24.5119], [24.8206, -24.652], [24.6376, -24.6603], [24.6397, -24.4612]]]}}, {"type": "Feature", "properties": {"osm_type": "relation", "osm_id": 17349212, "name": "Francistown", "admin_level": "4", "iso": "BW-FR", "parent_iso": "BW", "parent_osm_id": 1889339}, "geometry": {"type": "Polygon", "coordinates": [[[27.5376, -21.1069], [27.5522, -21.1151], [27.5343, -21.1457], [27.5384, -21.1605], [27.5575, -21.175], [27.5557, -21.2117], [27.5343, -21.2155], [27.4915, -21.1987], [27.4859, -21.2112], [27.4466, -21.2061], [27.4433, -21.1865], [27.4596, -21.1668], [27.4588, -21.1559], [27.4818, -21.1441], [27.4953, -21.1247], [27.5376, -21.1069]]]}}, {"type": "Feature", "properties": {"osm_type": "relation", "osm_id": 17349209, "name": "Lobatse", "admin_level": "4", "iso": "BW-LO", "parent_iso": "BW", "parent_osm_id": 1889339}, "geometry": {"type": "Polygon", "coordinates": [[[25.6809, -25.1718], [25.7056, -25.1927], [25.6936, -25.2088], [25.7049, -25.2143], [25.7053, -25.2242], [25.6874, -25.239], [25.6593, -25.2386], [25.6809, -25.1718]]]}}, {"type": "Feature", "properties": {"osm_type": "relation", "osm_id": 17349211, "name": "Selebi Phikwe", "admin_level": "4", "iso": "BW-SP", "parent_iso": "BW", "parent_osm_id": 1889339}, "geometry": {"type": "Polygon", "coordinates": [[[27.866, -21.9207], [27.8739, -21.9349], [27.8715, -21.9515], [27.8829, -21.9607], [27.8739, -21.9836], [27.8435, -21.9961], [27.8294, -21.9887], [27.8105, -21.997], [27.8079, -21.9655], [27.8424, -21.9576], [27.8556, -21.9239], [27.866, -21.9207]]]}}, {"type": "Feature", "properties": {"osm_type": "relation", "osm_id": 17349213, "name": "Sowa Town", "admin_level": "4", "iso": "BW-ST", "parent_iso": "BW", "parent_osm_id": 1889339}, "geometry": {"type": "Polygon", "coordinates": [[[26.1263, -20.5446], [26.1948, -20.5585], [26.2332, -20.5518], [26.256, -20.5594], [26.2522, -20.5986], [26.1466, -20.5801], [26.1204, -20.5678], [26.1263, -20.5446]]]}}]}