{"type": "FeatureCollection", "features": [{"type": "Feature", "properties": {"osm_type": "relation", "osm_id": 2087229, "name": "Larnaca District", "admin_level": "5", "iso": "CY-03", "parent_iso": "CY", "parent_osm_id": 307787}, "geometry": {"type": "MultiPolygon", "coordinates": [[[[33.7661, 34.9903], [33.7944, 34.9778], [33.7709, 34.9801], [33.7592, 34.9887], [33.7661, 34.9903]]], [[[33.7462, 35.0152], [33.7521, 35.0043], [33.7428, 35.0012], [33.7462, 35.0152]]], [[[33.5469, 35.0731], [33.579, 35.0355], [33.5915, 35.0339], [33.6141, 35.0464], [33.6375, 35.0308], [33.6794, 35.0339], [33.7022, 35.0223], [33.6997, 35.0027], [33.7154, 34.9973], [33.7115, 34.9856], [33.7029, 34.9879], [33.7015, 34.9729], [33.6803, 34.9663], [33.6541, 34.9447], [33.6348, 34.8976], [33.6326, 34.8525], [33.617, 34.8453], [33.6056, 34.8218], [33.5442, 34.815], [33.5132, 34.7855], [33.4387, 34.7628], [33.4152, 34.7585], [33.4002, 34.7734], [33.3992, 34.7453], [33.3709, 34.7309], [33.2726, 34.7073], [33.2663, 34.7326], [33.2722, 34.7731], [33.2531, 34.8018], [33.2105, 34.8379], [33.13, 34.8611], [33.1358, 34.8899], [33.169, 34.9083], [33.192, 34.9097], [33.2123, 34.8992], [33.2371, 34.905], [33.2568, 34.8899], [33.3197, 34.9324], [33.3473, 34.9251], [33.3962, 34.9277], [33.4162, 34.9658], [33.4449, 34.9558], [33.4716, 34.9661], [33.4924, 34.9625], [33.509, 34.9944], [33.5206, 35.0001], [33.5028, 35.0309], [33.5075, 35.0441], [33.4909, 35.0496], [33.4939, 35.0566], [33.5352, 35.0566], [33.5407, 35.0731], [33.5469, 35.0731]]], [[[33.8458, 34.9597], [33.8381, 34.9637], [33.859, 34.9747], [33.859, 34.9918], [33.8294, 35.0012], [33.866, 35.0003], [33.873, 34.9812], [33.8963, 34.962], [33.8458, 34.9597]]]]}}, {"type": "Feature", "properties": {"osm_type": "relation", "osm_id": 3264447, "name": "Famagusta District", "admin_level": "5", "iso": "CY-04", "parent_iso": "CY", "parent_osm_id": 307787}, "geometry": {"type": "Polygon", "coordinates": [[[33.9065, 35.0691], [33.9411, 35.0597], [33.9629, 35.0683], [34.0123, 35.0638], [34.051, 35.033], [34.0734, 34.9881], [34.0991, 34.9652], [34.0345, 34.9725], [34.0116, 34.9876], [33.9573, 34.9819], [33.8963, 34.962], [33.873, 34.9812], [33.866, 35.0003], [33.8294, 35.0012], [33.8302, 35.023], [33.799, 35.0385], [33.8044, 35.0495], [33.8271, 35.0613], [33.8412, 35.0511], [33.8801, 35.0731], [33.8981, 35.0613], [33.9065, 35.0691]]]}}, {"type": "Feature", "properties": {"osm_type": "relation", "osm_id": 3264382, "name": "Nicosia District", "admin_level": "5", "iso": "CY-01", "parent_iso": "CY", "parent_osm_id": 307787}, "geometry": {"type": "Polygon", "coordinates": [[[33.4135, 35.1994], [33.4768, 35.0948], [33.4666, 35.0051], [33.4768, 35.0027], [33.4909, 35.0496], [33.5075, 35.0441], [33.5028, 35.0309], [33.5206, 35.0001], [33.509, 34.9944], [33.4961, 34.9648], [33.4716, 34.9661], [33.4449, 34.9558], [33.4162, 34.9658], [33.3962, 34.9277], [33.3473, 34.9251], [33.3197, 34.9324], [33.2568, 34.8899], [33.2371, 34.905], [33.2123, 34.8992], [33.192, 34.9097], [33.169, 34.9083], [33.1383, 34.8927], [33.1307, 34.8797], [33.0933, 34.8931], [33.0564, 34.8904], [32.9699, 34.9608], [32.9061, 34.9326], [32.8778, 34.9328], [32.7994, 34.9553], [32.7735, 34.941], [32.7674, 34.9025], [32.7389, 34.9102], [32.7122, 34.8917], [32.7015, 34.891], [32.6956, 34.8993], [32.6884, 34.8898], [32.6666, 34.9058], [32.6577, 34.923], [32.6745, 34.9495], [32.6712, 34.986], [32.6081, 35.0621], [32.6279, 35.0706], [32.6298, 35.1059], [32.5654, 35.1689], [32.6019, 35.1786], [32.6152, 35.1634], [32.6262, 35.1651], [32.6407, 35.1871], [32.6504, 35.1881], [32.7114, 35.1816], [32.7127, 35.1634], [32.7315, 35.1432], [32.7948, 35.1268], [32.8299, 35.1002], [32.8392, 35.0799], [32.8549, 35.0792], [32.8767, 35.1002], [32.9469, 35.1026], [33.0311, 35.1494], [33.0958, 35.1697], [33.1091, 35.1588], [33.1201, 35.1603], [33.1575, 35.1853], [33.1903, 35.1899], [33.2402, 35.1713], [33.3153, 35.1619], [33.3745, 35.1743], [33.4003, 35.1977], [33.4135, 35.1994]]]}}, {"type": "Feature", "properties": {"osm_type": "relation", "osm_id": 2087230, "name": "Limassol District", "admin_level": "5", "iso": "CY-02", "parent_iso": "CY", "parent_osm_id": 307787}, "geometry": {"type": "Polygon", "coordinates": [[[32.8408, 34.6995], [32.806, 34.6858], [32.7986, 34.671], [32.7668, 34.6761], [32.7607, 34.6532], [32.7492, 34.6498], [32.7074, 34.6454], [32.6417, 34.6609], [32.6387, 34.6966], [32.7058, 34.7414], [32.7117, 34.7641], [32.7012, 34.7775], [32.7049, 34.7887], [32.7815, 34.8677], [32.7674, 34.9025], [32.7682, 34.9202], [32.7752, 34.9436], [32.7994, 34.9553], [32.8778, 34.9328], [32.9061, 34.9326], [32.976, 34.9594], [33.0564, 34.8904], [33.0933, 34.8931], [33.1307, 34.8797], [33.13, 34.8611], [33.1367, 34.8556], [33.2177, 34.8343], [33.2722, 34.7731], [33.2663, 34.7326], [33.2726, 34.7073], [33.2601, 34.7005], [33.1736, 34.7051], [33.0864, 34.6948], [33.0259, 34.6513], [33.0156, 34.6344], [32.9695, 34.632], [32.9625, 34.625], [32.954, 34.643], [32.9656, 34.6516], [32.9898, 34.6461], [32.9875, 34.6734], [32.9547, 34.6773], [32.9361, 34.6577], [32.9172, 34.6671], [32.9137, 34.6603], [32.8656, 34.6787], [32.8597, 34.7006], [32.8408, 34.6995]]]}}, {"type": "Feature", "properties": {"osm_type": "relation", "osm_id": 3263729, "name": "Paphos District", "admin_level": "5", "iso": "CY-05", "parent_iso": "CY", "parent_osm_id": 307787}, "geometry": {"type": "Polygon", "coordinates": [[[32.6417, 34.6609], [32.5567, 34.6994], [32.4758, 34.7132], [32.4133, 34.7535], [32.3792, 34.8491], [32.3377, 34.8764], [32.3234, 34.8984], [32.3314, 34.9242], [32.3122, 34.9503], [32.3059, 35.0014], [32.2761, 35.0478], [32.2752, 35.0911], [32.2866, 35.0972], [32.3534, 35.0479], [32.4138, 35.043], [32.45, 35.0588], [32.4797, 35.083], [32.5276, 35.157], [32.554, 35.178], [32.6278, 35.1096], [32.6293, 35.0739], [32.6081, 35.0621], [32.6267, 35.0332], [32.6475, 35.0213], [32.6729, 34.9816], [32.6745, 34.9495], [32.6677, 34.9296], [32.6574, 34.9261], [32.6635, 34.9094], [32.691, 34.8894], [32.6956, 34.8993], [32.7015, 34.891], [32.7122, 34.8917], [32.7432, 34.9107], [32.7674, 34.9025], [32.7834, 34.8718], [32.7049, 34.7887], [32.7012, 34.7775], [32.7117, 34.7641], [32.7058, 34.7414], [32.6387, 34.6966], [32.6417, 34.6609]]]}}]}