{"type": "FeatureCollection", "features": [{"type": "Feature", "properties": {"osm_type": "relation", "osm_id": 3060792, "name": "North Sinai", "admin_level": "4", "iso": "EG-SIN", "parent_iso": "EG", "parent_osm_id": 1473947}, "geometry": {"type": "MultiPolygon", "coordinates": [[[[34.2484, 31.2114], [34.3295, 30.9945], [34.4804, 30.6512], [34.5022, 30.5717], [34.5044, 30.5303], [34.5362, 30.4822], [34.5269, 30.4096], [34.5995, 30.3445], [34.7332, 30.0126], [34.7414, 29.9402], [34.8244, 29.7417], [34.8501, 29.6388], [34.8482, 29.5696], [34.8553, 29.5457], [34.8867, 29.4901], [34.4682, 29.5465], [34.3433, 29.5861], [34.2273, 29.6404], [34.0244, 29.7072], [33.7683, 29.827], [33.1303, 29.9252], [32.8548, 29.9138], [32.8299, 29.9576], [32.8176, 30.1611], [32.7987, 30.254], [32.7457, 30.3729], [32.654, 30.5], [32.6484, 30.5175], [32.643, 30.6269], [32.6021, 30.9737], [32.5997, 31.0615], [32.6875, 31.0644], [32.762, 31.0812], [32.9273, 31.1554], [32.9273, 31.1479], [32.8954, 31.1374], [32.8396, 31.1012], [32.7525, 31.0714], [32.6665, 31.0523], [32.715, 31.0523], [32.7007, 31.0387], [32.7313, 31.0388], [32.7492, 31.0523], [32.7695, 31.0456], [32.8311, 31.0797], [32.8931, 31.1008], [32.9177, 31.0922], [32.9067, 31.0797], [32.9172, 31.0828], [32.9409, 31.0933], [32.9409, 31.1008], [32.9136, 31.1008], [32.9271, 31.1118], [32.944, 31.1079], [32.9688, 31.0865], [32.9751, 31.066], [32.9613, 31.066], [33.0099, 31.0563], [33.0234, 31.0734], [33.0091, 31.0797], [33.0091, 31.0865], [33.0575, 31.1008], [33.0525, 31.1083], [33.0643, 31.1349], [33.0303, 31.1144], [33.0238, 31.1077], [33.0303, 31.1008], [32.9942, 31.0985], [32.9544, 31.1069], [32.9846, 31.1095], [33.0303, 31.1622], [33.0786, 31.1758], [33.1094, 31.1964], [33.1265, 31.1964], [33.1265, 31.1895], [33.0986, 31.1895], [33.0986, 31.1833], [33.1577, 31.1179], [33.1265, 31.1008], [33.119, 31.1069], [33.1447, 31.0779], [33.1333, 31.0456], [33.1877, 31.0617], [33.2214, 31.0598], [33.2078, 31.0734], [33.1948, 31.066], [33.1948, 31.0734], [33.2625, 31.1008], [33.2698, 31.1008], [33.2625, 31.0933], [33.2698, 31.0865], [33.2854, 31.0927], [33.304, 31.0797], [33.3032, 31.0998], [33.3176, 31.1008], [33.2772, 31.1069], [33.3865, 31.1144], [33.3777, 31.1326], [33.4064, 31.1373], [33.4064, 31.1554], [33.4207, 31.1479], [33.4409, 31.1512], [33.4995, 31.1281], [33.5921, 31.1144], [33.5921, 31.1213], [33.648, 31.1173], [33.8543, 31.1635], [34.047, 31.2292], [34.2003, 31.3143], [34.2246, 31.2757], [34.2484, 31.2114]]], [[[32.9785, 31.0817], [32.9697, 31.0866], [32.9831, 31.0899], [32.9893, 31.0734], [32.9785, 31.0817]]], [[[33.376, 31.1895], [33.433, 31.1721], [33.4759, 31.1417], [33.2987, 31.2128], [33.2698, 31.2168], [33.3011, 31.2159], [33.376, 31.1895]]], [[[33.0786, 31.2271], [33.1047, 31.2403], [33.2625, 31.2236], [33.2435, 31.2193], [33.1531, 31.2318], [33.1026, 31.2268], [32.9347, 31.1479], [32.9465, 31.1633], [33.0786, 31.2271]]]]}}, {"type": "Feature", "properties": {"osm_type": "relation", "osm_id": 3061757, "name": "Aswan", "admin_level": "4", "iso": "EG-ASN", "parent_iso": "EG", "parent_osm_id": 1473947}, "geometry": {"type": "Polygon", "coordinates": [[[31.4947, 21.9954], [31.4355, 21.9954], [31.4906, 22.1482], [31.4918, 22.1732], [31.4829, 22.1954], [31.4609, 22.2155], [31.4233, 22.227], [31.3853, 22.2145], [31.3595, 22.1881], [31.3144, 22.1023], [31.2955, 22.1265], [31.2412, 22.1657], [31.225, 22.1969], [31.2508, 22.2467], [31.2775, 22.2692], [31.3272, 22.2873], [31.4267, 22.297], [31.4918, 22.3237], [31.527, 22.3494], [31.5973, 22.4325], [31.6203, 22.5027], [31.5936, 22.6484], [31.6229, 22.7048], [31.6514, 22.7302], [31.7031, 22.7443], [31.834, 22.7226], [32.1522, 22.8629], [32.1933, 22.8721], [32.2175, 22.8671], [32.297, 22.8137], [32.3749, 22.8136], [32.4146, 22.7715], [32.436, 22.7727], [32.4916, 22.8599], [32.5232, 22.9714], [32.5552, 23.0253], [32.585, 23.1154], [32.6337, 23.2155], [32.7471, 23.3345], [32.7619, 23.3618], [32.7648, 23.3962], [32.758, 23.4143], [32.7477, 23.4195], [32.6009, 23.4026], [32.501, 23.4058], [32.4378, 23.4226], [32.4264, 23.4489], [32.479, 23.6511], [32.5277, 23.714], [32.5847, 23.751], [32.7329, 23.7725], [32.7566, 23.7832], [32.7629, 23.7942], [32.7634, 23.8072], [32.7451, 23.836], [32.6657, 23.8776], [32.6456, 23.8958], [32.6387, 23.9267], [32.6552, 23.9991], [32.6945, 24.0243], [32.7824, 24.0255], [32.8311, 24.0378], [32.874, 24.0803], [32.8864, 24.1263], [32.8707, 24.1991], [32.8826, 24.3161], [32.8739, 24.3975], [32.878, 24.49], [32.8835, 24.53], [32.9303, 24.649], [32.8992, 24.7586], [32.8497, 24.8571], [32.8348, 24.9739], [32.8084, 25.033], [32.7702, 25.0785], [32.6539, 25.1457], [32.6937, 25.1792], [32.7048, 25.2699], [32.9076, 25.129], [32.9796, 25.0312], [33.0004, 24.973], [33.0091, 24.9138], [33.0187, 24.7441], [33.1315, 24.5238], [33.1315, 24.4971], [33.1081, 24.4415], [33.0021, 24.3031], [32.9721, 24.1559], [33.0095, 23.9622], [33.0685, 23.8362], [33.1355, 23.7795], [33.1583, 23.7461], [33.1684, 23.6309], [33.1626, 23.6041], [33.1422, 23.5735], [33.14, 23.5314], [33.162, 23.4382], [33.2081, 23.3592], [33.2128, 23.3296], [33.1622, 23.1985], [33.1152, 23.1572], [33.0888, 23.1009], [33.0559, 23.057], [33.0753, 23.0254], [33.1441, 22.9866], [33.215, 22.9603], [33.2831, 22.8841], [33.3315, 22.7431], [33.3297, 22.7063], [33.3112, 22.7017], [33.2902, 22.7093], [33.2254, 22.7539], [33.1448, 22.8306], [33.1214, 22.844], [33.0728, 22.8535], [32.991, 22.8409], [32.9599, 22.8454], [32.9249, 22.8667], [32.8699, 22.9197], [32.8378, 22.9275], [32.8142, 22.881], [32.7799, 22.8402], [32.7844, 22.7545], [32.7615, 22.7023], [32.7357, 22.6711], [32.5373, 22.4993], [32.4548, 22.4657], [32.407, 22.4583], [32.3383, 22.4615], [32.2776, 22.4863], [32.1812, 22.5719], [32.1587, 22.5829], [32.137, 22.5807], [32.1091, 22.5421], [32.0442, 22.3724], [31.9961, 22.312], [31.9446, 22.2786], [31.8603, 22.2649], [31.7986, 22.1938], [31.5695, 22.0913], [31.5244, 22.0504], [31.4947, 21.9954]]]}}, {"type": "Feature", "properties": {"osm_type": "relation", "osm_id": 3061758, "name": "Red Sea", "admin_level": "4", "iso": "EG-BA", "parent_iso": "EG", "parent_osm_id": 1473947}, "geometry": {"type": "MultiPolygon", "coordinates": [[[[32.5245, 21.9954], [31.4947, 21.9954], [31.5244, 22.0504], [31.5695, 22.0913], [31.7986, 22.1938], [31.8603, 22.2649], [31.9446, 22.2786], [31.9961, 22.312], [32.0442, 22.3724], [32.1091, 22.5421], [32.137, 22.5807], [32.1587, 22.5829], [32.1812, 22.5719], [32.2776, 22.4863], [32.3383, 22.4615], [32.407, 22.4583], [32.4548, 22.4657], [32.5373, 22.4993], [32.7357, 22.6711], [32.7615, 22.7023], [32.7844, 22.7545], [32.7799, 22.8402], [32.8142, 22.881], [32.8378, 22.9275], [32.8699, 22.9197], [32.9249, 22.8667], [32.9599, 22.8454], [32.991, 22.8409], [33.0728, 22.8535], [33.1214, 22.844], [33.1448, 22.8306], [33.2254, 22.7539], [33.2902, 22.7093], [33.3211, 22.7012], [33.3337, 22.7176], [33.3315, 22.7431], [33.2831, 22.8841], [33.215, 22.9603], [33.1441, 22.9866], [33.0753, 23.0254], [33.0559, 23.057], [33.0888, 23.1009], [33.1152, 23.1572], [33.1622, 23.1985], [33.2128, 23.3296], [33.2081, 23.3592], [33.162, 23.4382], [33.14, 23.5314], [33.1422, 23.5735], [33.1626, 23.6041], [33.1684, 23.6309], [33.1583, 23.7461], [33.1355, 23.7795], [33.0685, 23.8362], [33.0095, 23.9622], [32.9721, 24.1559], [33.0021, 24.3031], [33.1081, 24.4415], [33.1315, 24.4971], [33.1315, 24.5238], [33.0187, 24.7441], [33.0091, 24.9138], [33.0004, 24.973], [32.9796, 25.0312], [32.9076, 25.129], [32.673, 25.2968], [32.6402, 25.3566], [32.623, 25.4315], [32.623, 25.499], [32.6455, 25.5521], [32.7264, 25.6382], [32.8452, 25.7395], [32.915, 25.8585], [32.9311, 25.9355], [32.9192, 26.0445], [32.8944, 26.114], [32.8409, 26.1847], [32.7625, 26.2383], [32.6844, 26.2589], [32.6208, 26.2625], [32.5398, 26.2517], [32.3384, 26.1644], [32.3075, 26.1582], [32.2017, 26.278], [32.1553, 26.3468], [32.1271, 26.3607], [32.0327, 26.3839], [31.9745, 26.421], [31.9194, 26.4994], [31.9064, 26.5709], [31.831, 26.69], [31.7869, 26.7284], [31.619, 26.8332], [31.489, 27.0678], [31.4122, 27.1408], [31.3407, 27.1905], [31.2884, 27.2834], [31.2367, 27.3172], [31.0719, 27.3732], [30.9842, 27.4184], [30.9585, 27.4478], [30.9425, 27.4888], [30.9377, 27.5318], [30.9412, 27.6201], [30.9592, 27.7157], [30.9547, 27.7857], [30.9209, 27.881], [30.9074, 28.0027], [30.8334, 28.1481], [30.8177, 28.2766], [30.8526, 28.3659], [30.9072, 28.451], [30.946, 28.7359], [30.9718, 28.8115], [31.1178, 29.0071], [31.2044, 29.1002], [31.2533, 29.2027], [31.2553, 29.2988], [31.3562, 29.1971], [31.3934, 29.1395], [31.433, 29.1031], [31.4821, 29.0739], [31.9115, 28.9513], [32.0489, 28.9692], [32.145, 28.9679], [32.4997, 29.1061], [32.5599, 29.1197], [32.6562, 29.1206], [32.6597, 29.0891], [32.6247, 29.0482], [32.6323, 29.0376], [32.6255, 28.9727], [32.6733, 28.9215], [32.6808, 28.8806], [32.7492, 28.8048], [32.7845, 28.7994], [32.8069, 28.7781], [32.8689, 28.5789], [32.9273, 28.5516], [32.9729, 28.4998], [33.0029, 28.4895], [33.0508, 28.4069], [33.0432, 28.4008], [33.1067, 28.3471], [33.1053, 28.3256], [33.1265, 28.2875], [33.2005, 28.2114], [33.2122, 28.1899], [33.242, 28.1749], [33.2494, 28.1429], [33.2832, 28.1324], [33.3164, 28.0964], [33.3381, 28.0854], [33.3361, 28.0568], [33.3436, 28.0506], [33.3661, 28.0507], [33.3747, 28.0359], [33.4417, 28.0165], [33.5125, 27.9591], [33.5544, 27.8965], [33.5762, 27.8505], [33.5921, 27.7912], [33.5715, 27.7912], [33.5601, 27.8134], [33.4889, 27.8459], [33.4822, 27.8459], [33.4735, 27.8232], [33.5227, 27.7519], [33.5579, 27.7599], [33.5525, 27.7319], [33.5368, 27.7081], [33.575, 27.6814], [33.5921, 27.6466], [33.5579, 27.6814], [33.5505, 27.6814], [33.5579, 27.6597], [33.5505, 27.6597], [33.5442, 27.6792], [33.5265, 27.6776], [33.4963, 27.6466], [33.5197, 27.6358], [33.5647, 27.5715], [33.5579, 27.5368], [33.633, 27.4958], [33.6404, 27.4548], [33.6712, 27.4204], [33.6917, 27.3419], [33.7248, 27.3137], [33.8254, 27.2597], [33.8384, 27.2426], [33.8384, 27.1942], [33.8247, 27.1805], [33.8368, 27.1208], [33.9014, 27.0587], [33.9087, 27.0421], [33.8937, 27.0439], [33.9009, 27.0142], [33.9517, 26.931], [33.991, 26.9074], [33.9961, 26.8966], [34.0036, 26.8489], [33.9961, 26.8379], [33.9797, 26.8371], [33.9596, 26.8498], [33.9483, 26.831], [33.9519, 26.7434], [33.9321, 26.6826], [33.9414, 26.6535], [34.0036, 26.6256], [34.014, 26.6116], [34.0239, 26.5807], [34.0706, 26.5149], [34.1048, 26.4267], [34.1775, 26.3148], [34.262, 26.1395], [34.301, 26.0878], [34.3387, 26.0018], [34.4175, 25.9031], [34.4347, 25.8619], [34.5018, 25.7716], [34.5466, 25.725], [34.6335, 25.5694], [34.6471, 25.522], [34.6714, 25.4797], [34.6819, 25.4287], [34.7433, 25.3513], [34.765, 25.2961], [34.7949, 25.2544], [34.8069, 25.2116], [34.9391, 25.0034], [34.9537, 24.9441], [34.9898, 24.905], [35.0022, 24.8156], [35.0635, 24.7641], [35.0807, 24.7354], [35.1095, 24.6438], [35.1603, 24.5746], [35.1607, 24.5585], [35.1444, 24.5277], [35.1446, 24.5002], [35.1857, 24.4857], [35.2355, 24.4001], [35.3706, 24.3061], [35.3919, 24.2828], [35.4286, 24.186], [35.4938, 24.1089], [35.5105, 24.1112], [35.4938, 24.139], [35.5039, 24.1405], [35.5242, 24.1213], [35.5521, 24.1105], [35.5884, 24.0758], [35.6027, 24.0481], [35.6053, 24.0188], [35.6356, 24.0019], [35.6668, 24.0073], [35.7386, 23.9833], [35.7925, 23.9023], [35.7858, 23.893], [35.7504, 23.9324], [35.736, 23.9332], [35.6845, 23.9109], [35.6457, 23.9256], [35.5985, 23.9294], [35.58, 23.9363], [35.5505, 23.9655], [35.5139, 23.9771], [35.4912, 23.9476], [35.4839, 23.9178], [35.4907, 23.87], [35.4748, 23.7979], [35.4832, 23.7725], [35.5017, 23.7687], [35.5101, 23.7564], [35.5037, 23.5556], [35.4894, 23.497], [35.5475, 23.394], [35.5503, 23.3302], [35.5747, 23.2126], [35.6546, 23.0738], [35.6678, 22.9826], [35.6953, 22.9321], [35.7371, 22.884], [35.7637, 22.8704], [35.7234, 22.9319], [35.7557, 22.9223], [35.7849, 22.8332], [35.8013, 22.8226], [35.8475, 22.763], [35.886, 22.7357], [35.9695, 22.698], [36.1206, 22.6757], [36.1978, 22.6517], [36.2261, 22.6354], [36.2747, 22.5924], [36.2905, 22.5682], [36.2964, 22.522], [36.3134, 22.4916], [36.3745, 22.4453], [36.4048, 22.4329], [36.4016, 22.4486], [36.4069, 22.4486], [36.4281, 22.426], [36.4228, 22.3976], [36.4398, 22.3564], [36.5628, 22.2967], [36.7137, 22.1691], [36.7476, 22.161], [36.7568, 22.1769], [36.7822, 22.1645], [36.8182, 22.1088], [36.8954, 22.0661], [36.8984, 22.0175], [36.8836, 21.9957], [32.5245, 21.9954]]], [[[33.9551, 26.79], [33.9756, 26.79], [34.0029, 26.7316], [34.0036, 26.7082], [33.9896, 26.7203], [33.9551, 26.79]]], [[[34.0066, 27.5095], [34.0285, 27.502], [34.0384, 27.4666], [34.0513, 27.4548], [34.0513, 27.4486], [34.0311, 27.4515], [34.0071, 27.4761], [33.9761, 27.4874], [33.9564, 27.5044], [33.9338, 27.4947], [33.9136, 27.5237], [33.9331, 27.5364], [33.9641, 27.5341], [34.0066, 27.5095]]]]}}, {"type": "Feature", "properties": {"osm_type": "relation", "osm_id": 3061826, "name": "Matruh", "admin_level": "4", "iso": "EG-MT", "parent_iso": "EG", "parent_osm_id": 1473947}, "geometry": {"type": "Polygon", "coordinates": [[[24.9812, 28.0967], [24.9812, 29.1814], [24.9743, 29.2389], [24.8638, 29.5029], [24.8707, 29.6383], [24.8562, 29.6795], [24.8049, 29.7548], [24.7982, 29.7964], [24.8149, 29.8486], [24.8116, 29.8909], [24.7255, 30.0784], [24.6973, 30.1226], [24.6883, 30.1442], [24.6887, 30.1828], [24.7724, 30.331], [24.8297, 30.3876], [24.9077, 30.4987], [24.9204, 30.5523], [24.9507, 30.6212], [24.9949, 30.7851], [24.9376, 30.9058], [24.9246, 30.9568], [24.8826, 31.0391], [24.8595, 31.146], [24.849, 31.3486], [24.8613, 31.3804], [25.0237, 31.4944], [25.0604, 31.5794], [25.0884, 31.6135], [25.1509, 31.6565], [25.1618, 31.5836], [25.1729, 31.5516], [25.1909, 31.5315], [25.2634, 31.5237], [25.3021, 31.5065], [25.3685, 31.5123], [25.4019, 31.5032], [25.8241, 31.6149], [25.8688, 31.6209], [25.9668, 31.6166], [26.3622, 31.5219], [26.6506, 31.4888], [26.6831, 31.4762], [26.7532, 31.4775], [26.8657, 31.4368], [26.9116, 31.4365], [26.9655, 31.4497], [26.9964, 31.4287], [27.0544, 31.4086], [27.1174, 31.3904], [27.1851, 31.3843], [27.2262, 31.3677], [27.2461, 31.3813], [27.3206, 31.381], [27.3423, 31.3682], [27.3423, 31.354], [27.3623, 31.3305], [27.3936, 31.2547], [27.4463, 31.2232], [27.5877, 31.1931], [27.6099, 31.2032], [27.6603, 31.1802], [27.7195, 31.1893], [27.8529, 31.2403], [27.8685, 31.2194], [27.8971, 31.1144], [27.9269, 31.099], [28.1546, 31.0933], [28.2039, 31.0705], [28.2336, 31.0734], [28.3184, 31.0598], [28.3821, 31.0828], [28.4243, 31.0834], [28.4785, 31.0518], [28.5276, 31.0501], [28.812, 30.9568], [28.8357, 30.9108], [29.0281, 30.8271], [29.2189, 30.838], [29.5033, 30.9567], [29.5981, 31.0095], [29.6249, 30.3371], [29.6718, 30.252], [30.3286, 29.8982], [29.5506, 29.4828], [28.901, 28.9089], [28.6992, 28.7751], [27.9062, 28.5929], [27.8319, 28.5665], [27.7571, 28.4836], [27.3248, 27.6679], [24.9812, 27.6665], [24.9812, 28.0967]]]}}, {"type": "Feature", "properties": {"osm_type": "relation", "osm_id": 3061827, "name": "New Valley", "admin_level": "4", "iso": "EG-WAD", "parent_iso": "EG", "parent_osm_id": 1473947}, "geometry": {"type": "Polygon", "coordinates": [[[24.9812, 27.0492], [24.9812, 27.6665], [30.6878, 27.6676], [30.6712, 27.634], [30.6703, 27.5681], [30.681, 27.5366], [30.7909, 27.3375], [30.9394, 27.209], [31.0804, 27.1495], [31.1621, 27.0798], [31.3, 26.8374], [31.4389, 26.6835], [31.534, 26.6106], [31.9523, 26.1399], [32.1108, 26.0054], [32.1629, 25.9787], [32.1958, 25.9713], [32.2726, 25.9773], [32.3611, 26.0001], [32.5916, 26.0973], [32.6646, 26.1089], [32.7069, 26.1016], [32.7423, 26.066], [32.7504, 26.0353], [32.7481, 26.0012], [32.6871, 25.8942], [32.6584, 25.7926], [32.632, 25.7632], [32.4647, 25.6374], [32.4456, 25.6076], [32.4419, 25.5763], [32.4776, 25.4398], [32.5043, 25.2964], [32.5193, 25.2603], [32.5589, 25.2117], [32.6539, 25.1457], [32.7702, 25.0785], [32.8084, 25.033], [32.8348, 24.9739], [32.8497, 24.8571], [32.9184, 24.7055], [32.9303, 24.649], [32.8835, 24.53], [32.878, 24.49], [32.8739, 24.3975], [32.8826, 24.3161], [32.8707, 24.1991], [32.8864, 24.1263], [32.874, 24.0803], [32.8311, 24.0378], [32.7824, 24.0255], [32.6945, 24.0243], [32.6552, 23.9991], [32.6387, 23.9267], [32.6456, 23.8958], [32.6657, 23.8776], [32.7451, 23.836], [32.7634, 23.8072], [32.7629, 23.7942], [32.7566, 23.7832], [32.7329, 23.7725], [32.5847, 23.751], [32.5277, 23.714], [32.479, 23.6511], [32.4264, 23.4489], [32.4378, 23.4226], [32.501, 23.4058], [32.6009, 23.4026], [32.7477, 23.4195], [32.758, 23.4143], [32.7648, 23.3962], [32.7558, 23.3484], [32.6337, 23.2155], [32.585, 23.1154], [32.5552, 23.0253], [32.5232, 22.9714], [32.4916, 22.8599], [32.436, 22.7727], [32.4146, 22.7715], [32.3749, 22.8136], [32.297, 22.8137], [32.2175, 22.8671], [32.1933, 22.8721], [32.1522, 22.8629], [31.834, 22.7226], [31.7031, 22.7443], [31.6648, 22.7361], [31.6369, 22.7192], [31.6054, 22.679], [31.5936, 22.6484], [31.6203, 22.5027], [31.5973, 22.4325], [31.527, 22.3494], [31.4918, 22.3237], [31.4267, 22.297], [31.3025, 22.2805], [31.264, 22.2593], [31.2357, 22.2256], [31.225, 22.1969], [31.2323, 22.1754], [31.2955, 22.1265], [31.3144, 22.1023], [31.2616, 22.0018], [31.2484, 21.9944], [24.9812, 21.9954], [24.9812, 27.0492]]]}}, {"type": "Feature", "properties": {"osm_type": "relation", "osm_id": 3062185, "name": "Suez", "admin_level": "4", "iso": "EG-SUZ", "parent_iso": "EG", "parent_osm_id": 1473947}, "geometry": {"type": "Polygon", "coordinates": [[[32.6518, 29.79], [32.6255, 29.8153], [32.6045, 29.8242], [32.6255, 29.8463], [32.6253, 29.8743], [32.5715, 29.9289], [32.5843, 29.9387], [32.5778, 29.9488], [32.5855, 29.9525], [32.5616, 29.9764], [32.5778, 29.9835], [32.5778, 30.0114], [32.5715, 30.0114], [32.5575, 29.9765], [32.5715, 29.9426], [32.5641, 29.9426], [32.554, 29.9621], [32.53, 29.9562], [32.5134, 29.9616], [32.4769, 29.9322], [32.4679, 29.9152], [32.4729, 29.882], [32.5095, 29.8668], [32.4915, 29.8541], [32.3928, 29.7344], [32.3639, 29.6882], [32.3574, 29.6306], [32.3377, 29.5925], [32.3877, 29.5256], [32.4513, 29.4873], [32.5812, 29.3691], [32.6055, 29.2919], [32.6323, 29.2431], [32.6287, 29.2189], [32.6562, 29.1206], [32.5599, 29.1197], [32.4997, 29.1061], [32.145, 28.9679], [32.0489, 28.9692], [31.9115, 28.9513], [31.8691, 28.9682], [31.9327, 29.7368], [31.9364, 29.8725], [31.9148, 30.0779], [31.8886, 30.1754], [31.8873, 30.2324], [32.2476, 30.243], [32.3341, 30.2371], [32.3772, 30.2153], [32.4591, 30.2038], [32.4979, 30.219], [32.5375, 30.2512], [32.5774, 30.2633], [32.7987, 30.254], [32.8176, 30.1611], [32.8299, 29.9576], [32.8548, 29.9138], [32.6518, 29.79]]]}}, {"type": "Feature", "properties": {"osm_type": "relation", "osm_id": 3060793, "name": "South Sinai", "admin_level": "4", "iso": "EG-JS", "parent_iso": "EG", "parent_osm_id": 1473947}, "geometry": {"type": "MultiPolygon", "coordinates": [[[[34.8855, 29.4895], [34.8597, 29.4722], [34.8381, 29.4329], [34.8254, 29.4286], [34.8328, 29.4211], [34.8176, 29.4122], [34.8191, 29.4007], [34.8052, 29.3964], [34.8123, 29.3876], [34.7776, 29.3461], [34.7366, 29.3113], [34.7453, 29.2913], [34.729, 29.2505], [34.729, 29.1989], [34.695, 29.1645], [34.6901, 29.1345], [34.6746, 29.1065], [34.6746, 29.0344], [34.6865, 29.0124], [34.6857, 28.9887], [34.6467, 28.9674], [34.6403, 28.9488], [34.6471, 28.8629], [34.6205, 28.8459], [34.6263, 28.817], [34.6205, 28.7906], [34.6335, 28.7707], [34.6228, 28.7598], [34.6245, 28.736], [34.5842, 28.6723], [34.5703, 28.6262], [34.5106, 28.538], [34.5236, 28.5073], [34.5116, 28.4878], [34.469, 28.4554], [34.4753, 28.4479], [34.4543, 28.4289], [34.4412, 28.3735], [34.4102, 28.32], [34.4079, 28.2912], [34.4206, 28.2562], [34.4129, 28.2331], [34.4553, 28.1749], [34.4268, 28.0815], [34.444, 28.0535], [34.4274, 27.9831], [34.4349, 27.9756], [34.4007, 27.9687], [34.3709, 27.9237], [34.3313, 27.9141], [34.3387, 27.9067], [34.321, 27.8613], [34.3113, 27.852], [34.2864, 27.8644], [34.2795, 27.8583], [34.2635, 27.8248], [34.2717, 27.8124], [34.2591, 27.8017], [34.2141, 27.7915], [34.2212, 27.7698], [34.2573, 27.7695], [34.2498, 27.7565], [34.2635, 27.736], [34.2498, 27.7428], [34.2573, 27.736], [34.2573, 27.7286], [34.2498, 27.7286], [34.2276, 27.7582], [34.1898, 27.7868], [34.0785, 27.8007], [34.0545, 27.8145], [33.9876, 27.8867], [33.9738, 27.8892], [33.904, 27.9418], [33.8794, 27.9346], [33.8656, 27.9613], [33.8589, 27.9551], [33.8042, 27.996], [33.7937, 28.0131], [33.7634, 28.024], [33.7639, 28.049], [33.716, 28.0753], [33.7155, 28.0929], [33.6725, 28.146], [33.6746, 28.1605], [33.6603, 28.1749], [33.6467, 28.1674], [33.6348, 28.1813], [33.6182, 28.2333], [33.6128, 28.2406], [33.6056, 28.2363], [33.5647, 28.2971], [33.4339, 28.3664], [33.3692, 28.4479], [33.3052, 28.4897], [33.2788, 28.5275], [33.2562, 28.5441], [33.2625, 28.5516], [33.2625, 28.5441], [33.2698, 28.5441], [33.2629, 28.5771], [33.2461, 28.5795], [33.2376, 28.5661], [33.2562, 28.5516], [33.2287, 28.5694], [33.219, 28.628], [33.1948, 28.6751], [33.2283, 28.7639], [33.2101, 28.7851], [33.2048, 28.8052], [33.181, 28.8185], [33.1746, 28.837], [33.1673, 28.9004], [33.1776, 28.9184], [33.1659, 28.9761], [33.1779, 28.9896], [33.145, 29.0317], [33.1265, 29.0314], [33.0786, 29.0649], [33.0612, 29.1014], [32.9579, 29.2021], [32.9198, 29.2175], [32.8856, 29.2431], [32.8683, 29.2974], [32.8394, 29.3162], [32.8174, 29.3598], [32.8172, 29.414], [32.7415, 29.456], [32.7492, 29.456], [32.7454, 29.4631], [32.7285, 29.4696], [32.7347, 29.4838], [32.7214, 29.4675], [32.7285, 29.456], [32.715, 29.456], [32.7241, 29.5395], [32.7124, 29.5805], [32.6808, 29.5999], [32.6869, 29.6181], [32.6808, 29.6614], [32.6931, 29.7228], [32.6518, 29.79], [32.8548, 29.9138], [33.1303, 29.9252], [33.7683, 29.827], [34.0244, 29.7072], [34.2273, 29.6404], [34.3433, 29.5861], [34.4682, 29.5465], [34.8855, 29.4895]]], [[[34.5851, 27.9551], [34.6205, 27.9278], [34.6205, 27.9204], [34.5472, 27.9197], [34.5181, 27.9304], [34.4963, 27.9551], [34.4895, 27.996], [34.5173, 28.0165], [34.5442, 27.996], [34.5068, 27.9862], [34.5032, 27.9756], [34.5119, 27.9675], [34.5706, 27.9741], [34.5851, 27.9551]]], [[[34.7319, 27.9571], [34.7322, 27.9189], [34.7047, 27.9084], [34.6618, 27.9302], [34.6818, 27.9587], [34.7319, 27.9571]]]]}}, {"type": "Feature", "properties": {"osm_type": "relation", "osm_id": 4103406, "name": "Port Said", "admin_level": "4", "iso": "EG-PTS", "parent_iso": "EG", "parent_osm_id": 1473947}, "geometry": {"type": "Polygon", "coordinates": [[[32.2566, 31.2888], [32.3314, 31.2714], [32.3442, 31.2419], [32.3899, 31.2265], [32.4812, 31.1489], [32.5095, 31.1069], [32.5657, 31.0705], [32.5997, 31.0615], [32.6021, 30.9737], [32.3112, 31.1188], [32.29, 31.1138], [32.2874, 31.1702], [32.2951, 31.2134], [32.2705, 31.2576], [32.283, 31.2653], [32.2565, 31.2762], [32.2566, 31.2888]]]}}, {"type": "Feature", "properties": {"osm_type": "relation", "osm_id": 4103403, "name": "Dakahlia Governorate", "admin_level": "4", "iso": "EG-DK", "parent_iso": "EG", "parent_osm_id": 1473947}, "geometry": {"type": "MultiPolygon", "coordinates": [[[[32.2565, 31.2762], [32.2141, 31.2783], [32.207, 31.2951], [32.2566, 31.2888], [32.2565, 31.2762]]], [[[31.7949, 31.2777], [31.7902, 31.2851], [31.8286, 31.2741], [31.8342, 31.2516], [31.8858, 31.2236], [31.9063, 31.2516], [31.9006, 31.2361], [31.9063, 31.2236], [31.8926, 31.2236], [31.8926, 31.2168], [31.9063, 31.2168], [31.8994, 31.2032], [31.9129, 31.2106], [31.9198, 31.2032], [31.9198, 31.2106], [31.9266, 31.2106], [31.9264, 31.187], [31.9347, 31.1876], [31.9403, 31.2032], [31.9866, 31.2303], [32.0093, 31.2236], [31.995, 31.2236], [31.995, 31.2168], [32.0093, 31.2106], [32.0228, 31.2236], [32.0371, 31.2168], [32.0296, 31.1895], [32.044, 31.1964], [32.0404, 31.1823], [32.0296, 31.1758], [32.0369, 31.1503], [32.0161, 31.1281], [32.0352, 31.1297], [32.044, 31.1417], [32.0501, 31.1417], [32.0523, 31.1288], [32.0119, 31.1076], [31.9832, 31.1064], [31.9482, 31.0841], [31.8617, 31.0682], [31.7835, 31.0659], [31.7416, 31.0008], [31.6892, 30.9471], [31.6682, 30.9086], [31.6203, 30.8844], [31.6223, 30.8482], [31.5757, 30.8054], [31.5472, 30.7958], [31.4209, 30.7957], [31.3854, 30.7869], [31.3673, 30.7717], [31.3575, 30.7262], [31.3807, 30.6167], [31.376, 30.5966], [31.3529, 30.5738], [31.331, 30.5793], [31.2958, 30.5703], [31.2537, 30.5884], [31.2704, 30.661], [31.2531, 30.7415], [31.2416, 30.7474], [31.2348, 30.7719], [31.2309, 30.814], [31.2139, 30.837], [31.2548, 30.8537], [31.2531, 30.8683], [31.2348, 30.8818], [31.2553, 30.8886], [31.2418, 30.8993], [31.2622, 30.9228], [31.2553, 30.9637], [31.2635, 30.9739], [31.2969, 30.9842], [31.3057, 31.017], [31.3015, 31.0322], [31.2475, 31.0178], [31.2184, 31.0311], [31.2375, 31.1147], [31.2485, 31.1099], [31.2995, 31.131], [31.2735, 31.1622], [31.2854, 31.2102], [31.2825, 31.349], [31.2704, 31.4191], [31.245, 31.4553], [31.2517, 31.4785], [31.3499, 31.5297], [31.4196, 31.4912], [31.5237, 31.4497], [31.5716, 31.4438], [31.5604, 31.4201], [31.5191, 31.3916], [31.5003, 31.365], [31.5596, 31.3513], [31.5643, 31.3258], [31.6122, 31.3109], [31.6339, 31.2906], [31.6502, 31.2996], [31.6511, 31.326], [31.682, 31.3334], [31.6905, 31.3106], [31.6898, 31.2866], [31.6662, 31.2927], [31.6594, 31.2784], [31.678, 31.2704], [31.6763, 31.259], [31.662, 31.2487], [31.6256, 31.2432], [31.6321, 31.217], [31.6136, 31.1956], [31.5968, 31.1909], [31.61, 31.1648], [31.6223, 31.1656], [31.6781, 31.2067], [31.7489, 31.2283], [31.7796, 31.246], [31.7949, 31.2777]]], [[[32.0938, 31.3657], [32.1996, 31.2951], [32.169, 31.3007], [32.0701, 31.354], [32.0906, 31.3472], [32.0829, 31.359], [32.0938, 31.3657]]]]}}, {"type": "Feature", "properties": {"osm_type": "relation", "osm_id": 4103407, "name": "Al Sharqia Governorate", "admin_level": "4", "iso": "EG-SHR", "parent_iso": "EG", "parent_osm_id": 1473947}, "geometry": {"type": "MultiPolygon", "coordinates": [[[[32.1418, 31.0874], [32.1384, 31.0933], [32.1594, 31.0933], [32.1528, 31.1066], [32.1663, 31.1144], [32.1668, 31.1083], [32.1799, 31.1069], [32.176, 31.1178], [32.1838, 31.1249], [32.1948, 31.1258], [32.2057, 31.1092], [32.2185, 31.1052], [32.2482, 31.1069], [32.2722, 31.1189], [32.2835, 31.1365], [32.2805, 31.155], [32.2625, 31.1696], [32.2881, 31.169], [32.29, 31.1138], [32.2285, 31.0959], [32.1418, 31.0874]]], [[[32.0523, 31.1288], [32.0701, 31.1069], [32.0526, 31.1008], [32.044, 31.0865], [32.057, 31.0797], [32.0838, 31.0844], [32.0906, 31.0797], [32.0838, 31.066], [32.1065, 31.0534], [32.1198, 31.0529], [32.1321, 31.066], [32.1074, 31.0728], [32.098, 31.0933], [32.1426, 31.0803], [32.16, 31.0549], [32.1922, 31.036], [32.2004, 30.9814], [32.1648, 30.9336], [32.1179, 30.8334], [32.1171, 30.7948], [32.13, 30.7421], [32.1196, 30.7161], [32.0986, 30.6773], [32.0321, 30.6018], [31.974, 30.5596], [31.8773, 30.548], [31.8338, 30.5477], [31.7686, 30.5621], [31.7638, 30.5572], [31.7682, 30.5362], [31.8004, 30.5044], [31.8097, 30.4792], [31.8431, 30.339], [31.5939, 30.1904], [31.3857, 30.2805], [31.3676, 30.2982], [31.3427, 30.3592], [31.2967, 30.4176], [31.2725, 30.437], [31.2941, 30.5282], [31.376, 30.5966], [31.3796, 30.6361], [31.3575, 30.7262], [31.3673, 30.7717], [31.3854, 30.7869], [31.4209, 30.7957], [31.5472, 30.7958], [31.5757, 30.8054], [31.6223, 30.8482], [31.6203, 30.8844], [31.6682, 30.9086], [31.6892, 30.9471], [31.7416, 31.0008], [31.7835, 31.0659], [31.8617, 31.0682], [31.9482, 31.0841], [31.9832, 31.1064], [32.0119, 31.1076], [32.0523, 31.1288]]]]}}, {"type": "Feature", "properties": {"osm_type": "relation", "osm_id": 3062184, "name": "Al Ismailiya", "admin_level": "4", "iso": "EG-IS", "parent_iso": "EG", "parent_osm_id": 1473947}, "geometry": {"type": "Polygon", "coordinates": [[[32.1426, 31.0803], [32.1418, 31.0874], [32.2285, 31.0959], [32.3112, 31.1188], [32.6021, 30.9737], [32.652, 30.5041], [32.7457, 30.3729], [32.7987, 30.254], [32.5774, 30.2633], [32.5375, 30.2512], [32.4979, 30.219], [32.4591, 30.2038], [32.3772, 30.2153], [32.3341, 30.2371], [32.2476, 30.243], [31.8873, 30.2324], [31.8431, 30.339], [31.8004, 30.5044], [31.7682, 30.5362], [31.7638, 30.5572], [31.7686, 30.5621], [31.8338, 30.5477], [31.8773, 30.548], [31.974, 30.5596], [32.0321, 30.6018], [32.0986, 30.6773], [32.13, 30.7421], [32.1171, 30.7948], [32.1179, 30.8334], [32.1648, 30.9336], [32.1944, 30.9656], [32.2018, 30.9938], [32.1922, 31.036], [32.16, 31.0549], [32.1426, 31.0803]]]}}, {"type": "Feature", "properties": {"osm_type": "relation", "osm_id": 4103404, "name": "Damietta", "admin_level": "4", "iso": "EG-DT", "parent_iso": "EG", "parent_osm_id": 1473947}, "geometry": {"type": "Polygon", "coordinates": [[[32.0829, 31.359], [32.056, 31.3629], [32.0066, 31.3953], [31.995, 31.395], [31.9857, 31.4204], [31.9683, 31.4365], [31.9935, 31.4378], [31.918, 31.524], [31.8895, 31.5321], [31.8789, 31.5185], [31.8652, 31.5253], [31.8652, 31.5123], [31.8509, 31.5185], [31.8447, 31.498], [31.8652, 31.498], [31.8597, 31.4869], [31.875, 31.4633], [31.8721, 31.4496], [31.8789, 31.4433], [31.8721, 31.4433], [31.8789, 31.4291], [31.8721, 31.4291], [31.8621, 31.4506], [31.8379, 31.457], [31.8416, 31.4645], [31.8304, 31.4588], [31.8242, 31.4433], [31.8379, 31.4496], [31.8584, 31.4433], [31.8584, 31.4365], [31.8509, 31.4365], [31.8548, 31.4232], [31.8789, 31.4161], [31.8617, 31.4076], [31.8379, 31.4161], [31.8304, 31.4086], [31.8447, 31.395], [31.8279, 31.3684], [31.8584, 31.3615], [31.8584, 31.354], [31.7972, 31.3595], [31.7902, 31.3435], [31.8027, 31.3313], [31.7902, 31.3266], [31.7959, 31.311], [31.7691, 31.2988], [31.7732, 31.2759], [31.7949, 31.2777], [31.7796, 31.246], [31.7489, 31.2283], [31.6781, 31.2067], [31.6223, 31.1656], [31.61, 31.1648], [31.5968, 31.1909], [31.6136, 31.1956], [31.6321, 31.217], [31.6256, 31.2432], [31.662, 31.2487], [31.6763, 31.259], [31.678, 31.2704], [31.6594, 31.2784], [31.6662, 31.2927], [31.6814, 31.2866], [31.6931, 31.2911], [31.6862, 31.3258], [31.6758, 31.3335], [31.6511, 31.326], [31.6502, 31.2996], [31.6339, 31.2906], [31.6122, 31.3109], [31.5643, 31.3258], [31.5596, 31.3513], [31.5085, 31.3599], [31.4992, 31.3705], [31.5604, 31.4201], [31.5716, 31.4438], [31.7483, 31.4816], [31.8744, 31.5356], [31.9129, 31.5349], [31.9448, 31.5209], [32.009, 31.4172], [32.057, 31.3751], [32.0938, 31.3657], [32.0829, 31.359]]]}}, {"type": "Feature", "properties": {"osm_type": "relation", "osm_id": 4103405, "name": "Kafr El Sheikh", "admin_level": "4", "iso": "EG-KFS", "parent_iso": "EG", "parent_osm_id": 1473947}, "geometry": {"type": "Polygon", "coordinates": [[[30.3982, 31.4436], [30.3706, 31.4616], [30.3557, 31.4911], [30.3622, 31.5087], [30.4564, 31.4627], [30.5358, 31.4639], [30.6765, 31.4962], [30.9739, 31.5867], [30.9739, 31.5799], [30.8664, 31.5483], [30.6281, 31.4343], [30.5579, 31.4222], [30.5427, 31.395], [30.6267, 31.3887], [30.6538, 31.3958], [30.6751, 31.4216], [30.6951, 31.4169], [30.7344, 31.3881], [30.7562, 31.423], [30.7985, 31.4465], [30.8374, 31.4291], [30.8737, 31.4345], [30.8858, 31.4291], [30.8789, 31.4223], [30.8924, 31.4191], [30.9397, 31.4433], [30.9333, 31.4451], [30.9397, 31.457], [30.9807, 31.4365], [30.9969, 31.4511], [31.0081, 31.4713], [31.0022, 31.4796], [31.0217, 31.498], [31.0291, 31.5185], [31.0807, 31.5142], [31.1111, 31.4912], [31.1292, 31.5045], [31.1111, 31.5123], [31.1304, 31.517], [31.1111, 31.5397], [31.0708, 31.5654], [31.0232, 31.583], [30.978, 31.5843], [31.0124, 31.5969], [31.0974, 31.6079], [31.221, 31.5799], [31.3499, 31.5297], [31.2769, 31.496], [31.2517, 31.4785], [31.246, 31.4639], [31.2477, 31.4471], [31.2735, 31.4094], [31.2825, 31.349], [31.2854, 31.2102], [31.2735, 31.1622], [31.2995, 31.131], [31.2485, 31.1099], [31.2219, 31.1298], [31.2016, 31.1331], [31.1786, 31.1277], [31.1573, 31.1106], [31.0708, 31.1212], [31.0627, 31.1123], [31.0621, 31.0707], [31.0401, 31.0257], [30.9518, 31.0152], [30.9085, 30.9901], [30.8491, 30.9825], [30.7802, 31.0045], [30.7636, 30.9836], [30.7277, 31.019], [30.7277, 31.0525], [30.6993, 31.0922], [30.652, 31.1146], [30.606, 31.1729], [30.5702, 31.1996], [30.5254, 31.1965], [30.5148, 31.2381], [30.508, 31.2381], [30.508, 31.2306], [30.4943, 31.2381], [30.5202, 31.2895], [30.5182, 31.3281], [30.4833, 31.3546], [30.4738, 31.3399], [30.4583, 31.348], [30.4486, 31.3751], [30.4261, 31.3849], [30.4248, 31.4291], [30.4153, 31.441], [30.3982, 31.4436]]]}}, {"type": "Feature", "properties": {"osm_type": "relation", "osm_id": 3824513, "name": "Lake", "admin_level": "4", "iso": "EG-BH", "parent_iso": "EG", "parent_osm_id": 1473947}, "geometry": {"type": "Polygon", "coordinates": [[[30.0985, 31.2847], [30.1726, 31.2714], [30.1447, 31.2516], [30.1521, 31.2441], [30.1401, 31.2372], [30.1652, 31.2168], [30.2068, 31.2379], [30.2017, 31.2265], [30.2205, 31.2202], [30.2546, 31.2516], [30.2614, 31.2441], [30.2688, 31.2653], [30.2751, 31.2653], [30.2766, 31.2464], [30.2887, 31.2379], [30.303, 31.2714], [30.2876, 31.2782], [30.2409, 31.2653], [30.2546, 31.2783], [30.1795, 31.2714], [30.1795, 31.2783], [30.2517, 31.3034], [30.3128, 31.3506], [30.3345, 31.381], [30.3484, 31.4213], [30.3524, 31.4632], [30.3439, 31.498], [30.3508, 31.498], [30.3646, 31.4601], [30.3784, 31.4467], [30.4153, 31.441], [30.4248, 31.4291], [30.4261, 31.3849], [30.4486, 31.3751], [30.4583, 31.348], [30.4738, 31.3399], [30.4833, 31.3546], [30.5182, 31.3281], [30.5202, 31.2895], [30.4943, 31.2381], [30.5018, 31.2306], [30.5148, 31.2381], [30.5254, 31.1965], [30.5702, 31.1996], [30.606, 31.1729], [30.652, 31.1146], [30.6993, 31.0922], [30.7232, 31.0623], [30.7277, 31.019], [30.7636, 30.9836], [30.7516, 30.9768], [30.7823, 30.9228], [30.7571, 30.886], [30.7899, 30.8778], [30.7938, 30.8683], [30.7898, 30.847], [30.7619, 30.8272], [30.8068, 30.8334], [30.8165, 30.8272], [30.815, 30.8178], [30.7761, 30.8061], [30.7532, 30.7755], [30.7551, 30.7645], [30.7685, 30.7601], [30.7924, 30.7636], [30.7966, 30.7474], [30.7744, 30.7164], [30.7937, 30.6946], [30.8047, 30.6135], [30.8172, 30.5957], [30.8376, 30.587], [30.8213, 30.5686], [30.8239, 30.5522], [30.8512, 30.546], [30.8453, 30.5184], [30.8308, 30.4976], [30.8512, 30.4532], [30.8444, 30.4014], [30.8795, 30.3729], [30.8332, 30.3617], [30.8266, 30.348], [30.8331, 30.3338], [30.369, 29.9708], [30.3286, 29.8982], [29.6718, 30.252], [29.6249, 30.3371], [29.6845, 30.4622], [29.7287, 30.5028], [29.8924, 30.5694], [29.9284, 30.5909], [29.9608, 30.6212], [30.0127, 30.6983], [29.9848, 30.7605], [29.9385, 30.8089], [29.8671, 30.9167], [29.8642, 30.9397], [29.9098, 31.0051], [29.9008, 31.0316], [29.8706, 31.0568], [29.8676, 31.0756], [30.0114, 31.1487], [30.0385, 31.1813], [30.0985, 31.2847]]]}}, {"type": "Feature", "properties": {"osm_type": "relation", "osm_id": 3061846, "name": "Alexandria", "admin_level": "4", "iso": "EG-ALX", "parent_iso": "EG", "parent_osm_id": 1473947}, "geometry": {"type": "Polygon", "coordinates": [[[29.5981, 31.0095], [29.6187, 31.0293], [29.766, 31.1216], [29.7815, 31.1479], [29.8093, 31.1423], [29.8384, 31.1541], [29.8846, 31.1895], [29.8757, 31.2009], [29.8635, 31.1964], [29.877, 31.2136], [29.8982, 31.2032], [29.9832, 31.2633], [30.0031, 31.2871], [30.0491, 31.3131], [30.0422, 31.3205], [30.0696, 31.3335], [30.0667, 31.3049], [30.0985, 31.2847], [30.0385, 31.1813], [30.0114, 31.1487], [29.8676, 31.0756], [29.8706, 31.0568], [29.9008, 31.0316], [29.9098, 31.0051], [29.8642, 30.9397], [29.8671, 30.9167], [29.9385, 30.8089], [29.9848, 30.7605], [30.0127, 30.6983], [29.9608, 30.6212], [29.9284, 30.5909], [29.8924, 30.5694], [29.7287, 30.5028], [29.6845, 30.4622], [29.6249, 30.3371], [29.5981, 31.0095]]]}}, {"type": "Feature", "properties": {"osm_type": "relation", "osm_id": 4103336, "name": "Cairo", "admin_level": "4", "iso": "EG-C", "parent_iso": "EG", "parent_osm_id": 1473947}, "geometry": {"type": "Polygon", "coordinates": [[[31.8873, 30.2324], [31.8886, 30.1754], [31.9148, 30.0779], [31.9364, 29.8725], [31.9289, 29.7832], [31.2916, 29.7599], [31.2835, 29.7727], [31.2969, 29.8055], [31.2888, 29.8851], [31.2622, 29.9489], [31.2257, 29.9895], [31.2212, 30.0079], [31.2376, 30.1148], [31.3062, 30.1372], [31.3262, 30.1646], [31.3448, 30.1586], [31.3909, 30.1765], [31.4403, 30.1844], [31.5939, 30.1904], [31.8431, 30.339], [31.8873, 30.2324]]]}}, {"type": "Feature", "properties": {"osm_type": "relation", "osm_id": 3824206, "name": "Aj Jiza", "admin_level": "4", "iso": "EG-GZ", "parent_iso": "EG", "parent_osm_id": 1473947}, "geometry": {"type": "Polygon", "coordinates": [[[29.7492, 28.7593], [29.5871, 28.3844], [29.4599, 28.2361], [29.3085, 28.1364], [28.8461, 27.9208], [28.7749, 27.8732], [28.7247, 27.8062], [28.6532, 27.6679], [27.3248, 27.6679], [27.7571, 28.4836], [27.8319, 28.5665], [27.9062, 28.5929], [28.6992, 28.7751], [28.901, 28.9089], [29.5506, 29.4828], [30.3286, 29.8982], [30.369, 29.9708], [30.8331, 30.3338], [30.8512, 30.3263], [30.8827, 30.3458], [30.9096, 30.3399], [30.917, 30.3362], [30.927, 30.2918], [30.9699, 30.2735], [30.9788, 30.2258], [30.9912, 30.2154], [31.0294, 30.2096], [31.051, 30.2219], [31.0679, 30.2216], [31.1666, 30.156], [31.2286, 30.1412], [31.2376, 30.1148], [31.2212, 30.0079], [31.2257, 29.9895], [31.2622, 29.9489], [31.2888, 29.8851], [31.2969, 29.8055], [31.2835, 29.7727], [31.2916, 29.7599], [31.9289, 29.7832], [31.9327, 29.7368], [31.8691, 28.9682], [31.5011, 29.0659], [31.433, 29.1031], [31.3816, 29.1527], [31.3562, 29.1971], [31.2553, 29.2988], [31.2559, 29.3393], [31.2348, 29.3715], [31.1726, 29.3979], [31.1019, 29.4001], [31.0305, 29.6805], [30.9558, 29.7371], [30.746, 29.7143], [30.5363, 29.6304], [30.355, 29.5364], [30.2816, 29.485], [29.8149, 29.0884], [29.7742, 28.836], [29.7492, 28.7593]]]}}, {"type": "Feature", "properties": {"osm_type": "relation", "osm_id": 3726175, "name": "Al Minya", "admin_level": "4", "iso": "EG-MN", "parent_iso": "EG", "parent_osm_id": 1473947}, "geometry": {"type": "Polygon", "coordinates": [[[28.6532, 27.6679], [28.7247, 27.8062], [28.7749, 27.8732], [28.8461, 27.9208], [29.3085, 28.1364], [29.4599, 28.2361], [29.5871, 28.3844], [29.7492, 28.7593], [30.7687, 28.781], [30.7865, 28.7641], [30.9442, 28.7157], [30.9072, 28.451], [30.8526, 28.3659], [30.8238, 28.2994], [30.8154, 28.2587], [30.8334, 28.1481], [30.9074, 28.0027], [30.9209, 27.881], [30.9547, 27.7857], [30.9592, 27.7157], [30.9412, 27.6201], [30.8345, 27.6087], [30.7654, 27.6309], [30.6984, 27.6236], [30.6712, 27.634], [30.6878, 27.6676], [28.6532, 27.6679]]]}}, {"type": "Feature", "properties": {"osm_type": "relation", "osm_id": 3726124, "name": "Faiyum", "admin_level": "4", "iso": "EG-FYM", "parent_iso": "EG", "parent_osm_id": 1473947}, "geometry": {"type": "Polygon", "coordinates": [[[31.1019, 29.4001], [31.0618, 29.3649], [31.0232, 29.2983], [30.9822, 29.2592], [30.9323, 29.186], [30.8643, 29.1206], [30.7802, 29.0824], [30.3637, 28.9798], [30.3164, 28.9762], [30.2498, 29.0181], [29.8149, 29.0884], [30.2816, 29.485], [30.355, 29.5364], [30.5363, 29.6304], [30.746, 29.7143], [30.9558, 29.7371], [31.0024, 29.7054], [31.0305, 29.6805], [31.1019, 29.4001]]]}}, {"type": "Feature", "properties": {"osm_type": "relation", "osm_id": 3726170, "name": "Bani Sweif", "admin_level": "4", "iso": "EG-BNS", "parent_iso": "EG", "parent_osm_id": 1473947}, "geometry": {"type": "Polygon", "coordinates": [[[30.3164, 28.9762], [30.3637, 28.9798], [30.7802, 29.0824], [30.8643, 29.1206], [30.9323, 29.186], [30.9822, 29.2592], [31.0232, 29.2983], [31.0618, 29.3649], [31.1019, 29.4001], [31.1469, 29.4012], [31.2024, 29.3899], [31.2348, 29.3715], [31.2559, 29.3393], [31.2533, 29.2027], [31.217, 29.1221], [30.9929, 28.846], [30.953, 28.7654], [30.9442, 28.7157], [30.7865, 28.7641], [30.7687, 28.781], [29.7492, 28.7593], [29.7742, 28.836], [29.8149, 29.0884], [30.2498, 29.0181], [30.3164, 28.9762]]]}}, {"type": "Feature", "properties": {"osm_type": "relation", "osm_id": 3824207, "name": "Monufia Governorate", "admin_level": "4", "iso": "EG-MNF", "parent_iso": "EG", "parent_osm_id": 1473947}, "geometry": {"type": "Polygon", "coordinates": [[[31.0294, 30.2096], [30.9912, 30.2154], [30.9788, 30.2258], [30.9699, 30.2735], [30.927, 30.2918], [30.917, 30.3362], [30.8827, 30.3458], [30.8512, 30.3263], [30.8331, 30.3338], [30.8266, 30.348], [30.8332, 30.3617], [30.8795, 30.3729], [30.8444, 30.4014], [30.8512, 30.4532], [30.8308, 30.4976], [30.8453, 30.5184], [30.8512, 30.546], [30.8239, 30.5522], [30.8213, 30.5686], [30.8376, 30.587], [30.8172, 30.5957], [30.7983, 30.6377], [30.7961, 30.6802], [30.8221, 30.6944], [30.9276, 30.7167], [30.9495, 30.7119], [30.9965, 30.6796], [31.0606, 30.6881], [31.0903, 30.6462], [31.1456, 30.6454], [31.1796, 30.6306], [31.1928, 30.6106], [31.2622, 30.5522], [31.2491, 30.5479], [31.228, 30.5597], [31.2203, 30.542], [31.228, 30.5181], [31.1791, 30.4882], [31.1796, 30.4697], [31.1361, 30.4464], [31.1252, 30.4028], [31.1013, 30.4164], [31.1067, 30.3825], [31.0871, 30.3703], [31.0561, 30.3747], [31.1039, 30.3325], [31.1008, 30.2779], [31.1081, 30.2709], [31.1113, 30.227], [31.1454, 30.1754], [31.0679, 30.2216], [31.051, 30.2219], [31.0294, 30.2096]]]}}, {"type": "Feature", "properties": {"osm_type": "relation", "osm_id": 4103337, "name": "Al Qalyubiya", "admin_level": "4", "iso": "EG-KB", "parent_iso": "EG", "parent_osm_id": 1473947}, "geometry": {"type": "Polygon", "coordinates": [[[31.5939, 30.1904], [31.4403, 30.1844], [31.3909, 30.1765], [31.3448, 30.1586], [31.3262, 30.1646], [31.3062, 30.1372], [31.2376, 30.1148], [31.2286, 30.1412], [31.1666, 30.156], [31.1155, 30.2155], [31.1081, 30.2709], [31.1008, 30.2779], [31.1039, 30.3325], [31.0561, 30.3747], [31.0871, 30.3703], [31.1067, 30.3825], [31.1013, 30.4164], [31.1252, 30.4028], [31.1361, 30.4464], [31.1796, 30.4697], [31.1791, 30.4882], [31.228, 30.5181], [31.2203, 30.542], [31.228, 30.5597], [31.2491, 30.5479], [31.2622, 30.5522], [31.2512, 30.5651], [31.2537, 30.5884], [31.2958, 30.5703], [31.331, 30.5793], [31.3529, 30.5738], [31.2941, 30.5282], [31.2725, 30.437], [31.2967, 30.4176], [31.3427, 30.3592], [31.3676, 30.2982], [31.3857, 30.2805], [31.5939, 30.1904]]]}}, {"type": "Feature", "properties": {"osm_type": "relation", "osm_id": 3584607, "name": "Gharbiyya Governorate", "admin_level": "4", "iso": "EG-GH", "parent_iso": "EG", "parent_osm_id": 1473947}, "geometry": {"type": "Polygon", "coordinates": [[[30.9965, 30.6796], [30.9495, 30.7119], [30.9276, 30.7167], [30.8221, 30.6944], [30.7961, 30.6802], [30.7884, 30.7055], [30.7744, 30.7164], [30.7966, 30.7474], [30.7924, 30.7636], [30.7685, 30.7601], [30.7551, 30.7645], [30.7532, 30.7755], [30.7761, 30.8061], [30.815, 30.8178], [30.8165, 30.8272], [30.8068, 30.8334], [30.7619, 30.8272], [30.7898, 30.847], [30.7938, 30.8683], [30.7899, 30.8778], [30.7571, 30.886], [30.7823, 30.9228], [30.7516, 30.9768], [30.7802, 31.0045], [30.8491, 30.9825], [30.9085, 30.9901], [30.9518, 31.0152], [31.0238, 31.019], [31.0489, 31.0343], [31.0621, 31.0707], [31.0627, 31.1123], [31.0708, 31.1212], [31.1573, 31.1106], [31.1901, 31.1324], [31.2219, 31.1298], [31.2485, 31.1099], [31.2362, 31.1128], [31.2184, 31.0311], [31.2475, 31.0178], [31.3054, 31.0297], [31.2969, 30.9842], [31.2635, 30.9739], [31.2553, 30.9637], [31.2622, 30.9228], [31.2418, 30.8993], [31.2553, 30.8886], [31.2348, 30.8818], [31.2531, 30.8683], [31.2548, 30.8537], [31.2139, 30.837], [31.2309, 30.814], [31.2348, 30.7719], [31.2416, 30.7474], [31.2531, 30.7415], [31.2704, 30.661], [31.2512, 30.5651], [31.2297, 30.5771], [31.1721, 30.635], [31.1456, 30.6454], [31.0903, 30.6462], [31.0606, 30.6881], [30.9965, 30.6796]]]}}, {"type": "Feature", "properties": {"osm_type": "relation", "osm_id": 3726186, "name": "Suhaj", "admin_level": "4", "iso": "EG-SHG", "parent_iso": "EG", "parent_osm_id": 1473947}, "geometry": {"type": "Polygon", "coordinates": [[[32.27, 26.1312], [32.2565, 26.1317], [32.2112, 26.1588], [32.1618, 26.2235], [32.1371, 26.2368], [32.0855, 26.195], [32.013, 26.1841], [31.9523, 26.1399], [31.534, 26.6106], [31.4389, 26.6835], [31.3, 26.8374], [31.3931, 26.8825], [31.4448, 26.9364], [31.462, 26.9401], [31.5002, 26.9118], [31.5315, 26.8566], [31.5528, 26.8372], [31.579, 26.8288], [31.619, 26.8332], [31.7869, 26.7284], [31.831, 26.69], [31.8959, 26.5892], [31.9118, 26.5553], [31.9194, 26.4994], [31.9589, 26.4391], [31.9885, 26.4077], [32.0327, 26.3839], [32.1271, 26.3607], [32.1553, 26.3468], [32.2017, 26.278], [32.3075, 26.1582], [32.2805, 26.1321], [32.27, 26.1312]]]}}, {"type": "Feature", "properties": {"osm_type": "relation", "osm_id": 3726189, "name": "Qena", "admin_level": "4", "iso": "EG-KN", "parent_iso": "EG", "parent_osm_id": 1473947}, "geometry": {"type": "Polygon", "coordinates": [[[32.1371, 26.2368], [32.1618, 26.2235], [32.2112, 26.1588], [32.2565, 26.1317], [32.27, 26.1312], [32.2805, 26.1321], [32.3075, 26.1582], [32.3384, 26.1644], [32.5398, 26.2517], [32.6208, 26.2625], [32.6844, 26.2589], [32.7625, 26.2383], [32.8064, 26.2135], [32.8409, 26.1847], [32.8944, 26.114], [32.9192, 26.0445], [32.9299, 25.9713], [32.9294, 25.9121], [32.915, 25.8585], [32.8452, 25.7395], [32.6606, 25.5719], [32.623, 25.499], [32.623, 25.4315], [32.6402, 25.3566], [32.6641, 25.3072], [32.7048, 25.2699], [32.6937, 25.1792], [32.6539, 25.1457], [32.5589, 25.2117], [32.5193, 25.2603], [32.5043, 25.2964], [32.4776, 25.4398], [32.4435, 25.561], [32.443, 25.5971], [32.4647, 25.6374], [32.4941, 25.6648], [32.632, 25.7632], [32.6584, 25.7926], [32.6871, 25.8942], [32.7481, 26.0012], [32.7504, 26.0353], [32.7423, 26.066], [32.7273, 26.0865], [32.6961, 26.1058], [32.6187, 26.1041], [32.3611, 26.0001], [32.2241, 25.9701], [32.1629, 25.9787], [32.1108, 26.0054], [31.9523, 26.1399], [32.013, 26.1841], [32.0855, 26.195], [32.1371, 26.2368]], [[32.6514, 25.6831], [32.6694, 25.7211], [32.6497, 25.7299], [32.6249, 25.6872], [32.6514, 25.6831]]]}}, {"type": "Feature", "properties": {"osm_type": "relation", "osm_id": 3726184, "name": "Asyut", "admin_level": "4", "iso": "EG-AST", "parent_iso": "EG", "parent_osm_id": 1473947}, "geometry": {"type": "Polygon", "coordinates": [[[30.6712, 27.634], [30.6984, 27.6236], [30.7654, 27.6309], [30.8345, 27.6087], [30.9412, 27.6201], [30.9392, 27.5025], [30.9656, 27.4365], [30.9842, 27.4184], [31.0719, 27.3732], [31.2367, 27.3172], [31.2884, 27.2834], [31.3407, 27.1905], [31.4122, 27.1408], [31.489, 27.0678], [31.619, 26.8332], [31.579, 26.8288], [31.5528, 26.8372], [31.5315, 26.8566], [31.5002, 26.9118], [31.462, 26.9401], [31.4448, 26.9364], [31.3931, 26.8825], [31.3, 26.8374], [31.1621, 27.0798], [31.0804, 27.1495], [30.9394, 27.209], [30.7909, 27.3375], [30.681, 27.5366], [30.6672, 27.5954], [30.6712, 27.634]]]}}, {"type": "Feature", "properties": {"osm_type": "relation", "osm_id": 3726211, "name": "Luxor", "admin_level": "4", "iso": "EG-LX", "parent_iso": "EG", "parent_osm_id": 1473947}, "geometry": {"type": "Polygon", "coordinates": [[[32.6497, 25.7299], [32.6694, 25.7211], [32.6514, 25.6831], [32.6249, 25.6872], [32.6497, 25.7299]]]}}]}