{"type": "FeatureCollection", "features": [{"type": "Feature", "properties": {"osm_type": "relation", "osm_id": 419199091, "name": "Agion Oros", "admin_level": "4", "iso": "", "parent_iso": "GR", "parent_osm_id": 192307, "kind": "subdivision_1"}, "geometry": {"type": "Polygon", "coordinates": [[[24.005, 40.3146], [24.0397, 40.2935], [24.1214, 40.2895], [24.1627, 40.2798], [24.1865, 40.2473], [24.2227, 40.2175], [24.2232, 40.1943], [24.2808, 40.1613], [24.2913, 40.1264], [24.3064, 40.1129], [24.4003, 40.1402], [24.3831, 40.1843], [24.2864, 40.2466], [24.2476, 40.3095], [24.1941, 40.3204], [24.1876, 40.3287], [24.1933, 40.3404], [24.1838, 40.3486], [24.0672, 40.3675], [24.044, 40.3971], [24.035, 40.3983], [24.0119, 40.446], [24.003, 40.4491], [23.9944, 40.4382], [24.012, 40.3931], [24.0052, 40.357], [24.0156, 40.3331], [24.005, 40.3146]]]}}, {"type": "Feature", "properties": {"osm_type": "relation", "osm_id": 282436, "name": "Region of Crete", "admin_level": "5", "iso": "GR-M", "parent_iso": "GR", "parent_osm_id": 192307, "kind": "subdivision_1"}, "geometry": {"type": "MultiPolygon", "coordinates": [[[[24.1219, 34.8592], [24.0649, 34.8727], [24.0608, 34.8588], [24.0383, 34.8555], [24.0499, 34.8395], [24.1223, 34.8034], [24.1314, 34.8076], [24.111, 34.8318], [24.1219, 34.8592]]], [[[25.7323, 34.879], [25.6899, 34.8805], [25.6809, 34.872], [25.708, 34.8654], [25.733, 34.8726], [25.7323, 34.879]]], [[[25.2168, 35.467], [25.1838, 35.4417], [25.2386, 35.4291], [25.2462, 35.4515], [25.2168, 35.467]]], [[[25.7461, 35.2564], [25.7583, 35.2865], [25.7421, 35.2952], [25.7355, 35.2568], [25.7461, 35.2564]]], [[[26.1415, 34.9299], [26.1576, 34.9408], [26.1322, 34.9503], [26.1245, 34.9451], [26.1266, 34.9359], [26.1415, 34.9299]]], [[[23.8132, 35.5353], [23.7783, 35.5475], [23.7774, 35.5978], [23.7623, 35.6483], [23.7736, 35.6685], [23.7377, 35.6945], [23.7122, 35.663], [23.7053, 35.6406], [23.7163, 35.6187], [23.7082, 35.6085], [23.7106, 35.5948], [23.7291, 35.5463], [23.7177, 35.5081], [23.6551, 35.4996], [23.6123, 35.5205], [23.6128, 35.5626], [23.603, 35.5907], [23.6077, 35.6094], [23.5945, 35.6267], [23.5997, 35.6111], [23.589, 35.5802], [23.5769, 35.5911], [23.5828, 35.5615], [23.568, 35.5276], [23.5781, 35.4859], [23.5536, 35.4647], [23.5592, 35.4475], [23.5699, 35.4452], [23.5678, 35.4247], [23.5461, 35.412], [23.5491, 35.3949], [23.534, 35.3811], [23.5296, 35.3622], [23.5377, 35.3498], [23.5337, 35.3373], [23.5479, 35.3225], [23.5244, 35.3135], [23.5176, 35.301], [23.5413, 35.2712], [23.579, 35.2613], [23.5736, 35.2457], [23.583, 35.2347], [23.6621, 35.2385], [23.6799, 35.2242], [23.698, 35.239], [23.752, 35.2401], [23.7842, 35.2317], [23.8144, 35.2486], [23.8864, 35.2369], [23.9226, 35.2215], [23.9902, 35.229], [24.0199, 35.1999], [24.0489, 35.194], [24.0864, 35.2034], [24.134, 35.2026], [24.153, 35.1926], [24.1955, 35.2008], [24.2305, 35.1813], [24.2841, 35.175], [24.32, 35.1889], [24.3514, 35.1831], [24.3881, 35.1937], [24.4003, 35.1821], [24.3923, 35.1758], [24.4509, 35.1519], [24.5206, 35.1436], [24.5564, 35.1101], [24.5574, 35.101], [24.5714, 35.1057], [24.5887, 35.0973], [24.6944, 35.0975], [24.7376, 35.0833], [24.7521, 35.0573], [24.7605, 35.0107], [24.7466, 35.0039], [24.7453, 34.9647], [24.7531, 34.9547], [24.732, 34.9319], [24.7334, 34.9219], [24.7934, 34.9245], [24.8098, 34.9363], [24.8399, 34.9411], [24.8932, 34.9304], [24.9478, 34.9324], [24.9642, 34.9247], [24.9701, 34.933], [25.0164, 34.9315], [25.0451, 34.9423], [25.0974, 34.9336], [25.1371, 34.9531], [25.1947, 34.9456], [25.2679, 34.9675], [25.2865, 34.9856], [25.3291, 34.9818], [25.3719, 34.9979], [25.417, 34.986], [25.4527, 34.991], [25.5058, 34.9824], [25.5956, 35.0069], [25.6626, 35.0042], [25.6885, 35.0142], [25.7956, 34.9981], [25.8981, 35.0285], [25.9605, 35.0315], [25.9772, 35.0391], [26.0258, 35.0165], [26.0868, 35.0182], [26.0959, 34.9963], [26.1192, 34.9973], [26.1602, 35.0135], [26.1939, 35.0149], [26.2172, 35.0352], [26.2311, 35.0374], [26.272, 35.0877], [26.2667, 35.101], [26.2821, 35.1155], [26.281, 35.1673], [26.3182, 35.1814], [26.3161, 35.1986], [26.3014, 35.1872], [26.2802, 35.1944], [26.2702, 35.2068], [26.2753, 35.2218], [26.2644, 35.2616], [26.3144, 35.3065], [26.3101, 35.3173], [26.2828, 35.3089], [26.3009, 35.3017], [26.2742, 35.2955], [26.287, 35.2853], [26.259, 35.2801], [26.2544, 35.2719], [26.2425, 35.2814], [26.2333, 35.2787], [26.2216, 35.2616], [26.2248, 35.2506], [26.169, 35.2017], [26.1396, 35.196], [26.114, 35.2026], [26.1069, 35.2085], [26.1171, 35.2251], [26.1097, 35.2289], [26.0695, 35.2202], [26.0593, 35.2306], [26.0648, 35.2358], [26.05, 35.225], [26.029, 35.2301], [25.9966, 35.1987], [25.9627, 35.2005], [25.946, 35.1809], [25.9143, 35.18], [25.8964, 35.1877], [25.8776, 35.1589], [25.8497, 35.1565], [25.8252, 35.1195], [25.8039, 35.1108], [25.7283, 35.1298], [25.7283, 35.1462], [25.7097, 35.1757], [25.7199, 35.2026], [25.7141, 35.2202], [25.7394, 35.2322], [25.7214, 35.2681], [25.7269, 35.3033], [25.762, 35.3199], [25.7698, 35.3415], [25.6989, 35.3365], [25.6598, 35.3478], [25.5724, 35.321], [25.5437, 35.3211], [25.4875, 35.2966], [25.4382, 35.293], [25.3997, 35.3131], [25.3851, 35.3382], [25.1992, 35.3326], [25.1847, 35.3456], [25.1364, 35.3429], [25.1462, 35.3499], [25.1065, 35.3392], [25.0532, 35.342], [25.04, 35.3575], [25.0408, 35.4001], [25.0191, 35.4043], [25.0171, 35.4209], [24.9918, 35.4142], [24.9716, 35.4279], [24.9536, 35.403], [24.9154, 35.4068], [24.8856, 35.4227], [24.8729, 35.4099], [24.8356, 35.4062], [24.8268, 35.4114], [24.7877, 35.4067], [24.7845, 35.4199], [24.7336, 35.4255], [24.6519, 35.4202], [24.6069, 35.3907], [24.5351, 35.3729], [24.3755, 35.3625], [24.3614, 35.3526], [24.2954, 35.3546], [24.2621, 35.3644], [24.2582, 35.4554], [24.2413, 35.4734], [24.1872, 35.4494], [24.1508, 35.4723], [24.1227, 35.4705], [24.0605, 35.494], [24.0736, 35.5054], [24.1032, 35.5069], [24.1664, 35.4948], [24.1658, 35.5007], [24.1838, 35.5092], [24.2016, 35.5382], [24.1696, 35.5892], [24.1214, 35.6018], [24.0818, 35.5912], [24.0727, 35.5814], [24.0861, 35.5533], [24.0522, 35.5518], [24.0483, 35.5279], [24.0293, 35.5162], [23.9532, 35.5133], [23.8132, 35.5353]]]]}}, {"type": "Feature", "properties": {"osm_type": "relation", "osm_id": 957716, "name": "Attica", "admin_level": "5", "iso": "GR-I", "parent_iso": "GR", "parent_osm_id": 192307, "kind": "subdivision_1"}, "geometry": {"type": "MultiPolygon", "coordinates": [[[[23.2878, 35.8899], [23.2698, 35.9024], [23.2914, 35.8517], [23.3277, 35.8214], [23.3191, 35.8786], [23.3082, 35.8892], [23.2878, 35.8899]]], [[[22.952, 36.3831], [22.9207, 36.3762], [22.9236, 36.3688], [22.9076, 36.3545], [22.8921, 36.3226], [22.9219, 36.2899], [22.9131, 36.2729], [22.9232, 36.245], [22.9011, 36.2325], [22.9159, 36.2125], [22.9109, 36.1984], [22.9445, 36.1555], [23.0471, 36.1306], [23.0444, 36.1784], [23.0541, 36.2183], [23.0699, 36.2263], [23.09, 36.219], [23.1015, 36.2448], [23.0506, 36.2854], [22.9865, 36.3213], [22.952, 36.3831]]], [[[23.1389, 37.2767], [23.1134, 37.2832], [23.0944, 37.2748], [23.135, 37.2345], [23.1554, 37.2361], [23.1695, 37.2554], [23.1652, 37.2648], [23.1389, 37.2767]]], [[[23.576, 37.3657], [23.5177, 37.3706], [23.4624, 37.352], [23.3623, 37.2995], [23.3953, 37.2931], [23.4466, 37.3168], [23.4986, 37.3182], [23.5024, 37.3425], [23.5651, 37.3555], [23.576, 37.3657]]], [[[23.3623, 37.3399], [23.3437, 37.3508], [23.3352, 37.3352], [23.3237, 37.3476], [23.2819, 37.3355], [23.3007, 37.3213], [23.3186, 37.3208], [23.3559, 37.3313], [23.3623, 37.3399]]], [[[23.5166, 37.5252], [23.4844, 37.5409], [23.4821, 37.5603], [23.4725, 37.5528], [23.4724, 37.5352], [23.425, 37.5263], [23.4598, 37.4964], [23.4588, 37.5065], [23.4652, 37.5085], [23.4915, 37.5011], [23.5113, 37.508], [23.5245, 37.5226], [23.5166, 37.5252]]], [[[23.5282, 37.9883], [23.4903, 38.0024], [23.4728, 37.9959], [23.4776, 37.986], [23.4725, 37.9803], [23.4185, 37.9837], [23.4171, 37.9786], [23.4507, 37.9725], [23.4184, 37.9582], [23.423, 37.9515], [23.4969, 37.9603], [23.469, 37.9242], [23.4077, 37.9298], [23.4028, 37.8938], [23.4445, 37.8752], [23.4898, 37.901], [23.5154, 37.8967], [23.5118, 37.9125], [23.5303, 37.9136], [23.5396, 37.9409], [23.5749, 37.946], [23.5376, 37.9483], [23.5496, 37.9543], [23.5253, 37.9636], [23.5439, 37.9944], [23.5282, 37.9883]]], [[[23.3517, 37.7112], [23.3348, 37.7037], [23.3218, 37.6855], [23.3253, 37.6761], [23.3405, 37.6729], [23.3733, 37.6962], [23.3657, 37.7109], [23.3517, 37.7112]]], [[[23.487, 37.7729], [23.4178, 37.7615], [23.4339, 37.7291], [23.4624, 37.7152], [23.4687, 37.6995], [23.4524, 37.6876], [23.4786, 37.6735], [23.5254, 37.6928], [23.5215, 37.7102], [23.5408, 37.7283], [23.5359, 37.7429], [23.5554, 37.75], [23.5651, 37.7641], [23.563, 37.7705], [23.487, 37.7729]]], [[[23.1797, 37.9516], [23.2295, 37.9723], [23.2712, 37.978], [23.303, 37.9708], [23.3555, 37.9778], [23.4202, 37.9691], [23.3875, 37.9802], [23.4161, 37.9891], [23.4187, 38.0002], [23.4512, 38.0236], [23.4925, 38.0262], [23.4994, 38.0376], [23.5215, 38.0441], [23.5479, 38.0337], [23.5742, 38.0453], [23.5975, 38.0289], [23.5922, 38.0124], [23.5974, 38.0097], [23.5844, 37.9968], [23.5636, 37.9989], [23.5714, 37.9932], [23.5531, 37.98], [23.5552, 37.9645], [23.5899, 37.9519], [23.6058, 37.9611], [23.6123, 37.9566], [23.6074, 37.9475], [23.624, 37.942], [23.6418, 37.9486], [23.6401, 37.94], [23.6213, 37.9366], [23.6331, 37.9265], [23.653, 37.9323], [23.6475, 37.9387], [23.6821, 37.9424], [23.6887, 37.9354], [23.6841, 37.9284], [23.6785, 37.9347], [23.6808, 37.9294], [23.7141, 37.9089], [23.7246, 37.8761], [23.7499, 37.8592], [23.7417, 37.8516], [23.7693, 37.8339], [23.7684, 37.8194], [23.7562, 37.8131], [23.7693, 37.8137], [23.7733, 37.8048], [23.7807, 37.8124], [23.7887, 37.7969], [23.8042, 37.8191], [23.8148, 37.8204], [23.8271, 37.8097], [23.8424, 37.8145], [23.9009, 37.7741], [23.9097, 37.7203], [23.9458, 37.7206], [23.9362, 37.7062], [23.9424, 37.6719], [24.0317, 37.6519], [24.0419, 37.6678], [24.0728, 37.6869], [24.0569, 37.6951], [24.0639, 37.7046], [24.0531, 37.7322], [24.0764, 37.7437], [24.0733, 37.7567], [24.0854, 37.7923], [24.0472, 37.8216], [24.0577, 37.8571], [24.0428, 37.8639], [24.0447, 37.8748], [24.0242, 37.8705], [24.0101, 37.8875], [24.0428, 37.8953], [24.0451, 37.9037], [24.0319, 37.9211], [24.0062, 37.9271], [24.0169, 37.941], [24.0065, 37.9651], [24.0094, 37.9807], [24.0311, 37.9929], [24.001, 38.0367], [23.9992, 38.0665], [23.9806, 38.1036], [24.0093, 38.1308], [24.0555, 38.1417], [24.0617, 38.1595], [24.0795, 38.1617], [24.0589, 38.181], [24.0737, 38.1916], [24.0728, 38.1994], [24.0308, 38.2215], [23.9534, 38.2849], [23.9199, 38.2951], [23.8934, 38.2948], [23.8083, 38.3252], [23.7876, 38.3215], [23.7696, 38.3383], [23.6904, 38.3403], [23.6849, 38.324], [23.6644, 38.321], [23.6594, 38.3141], [23.665, 38.2999], [23.6489, 38.2965], [23.6352, 38.2732], [23.6321, 38.2401], [23.6385, 38.2396], [23.6343, 38.2305], [23.6406, 38.226], [23.6329, 38.21], [23.6393, 38.2014], [23.6252, 38.1867], [23.6317, 38.174], [23.5795, 38.1566], [23.5739, 38.1448], [23.5576, 38.1385], [23.5158, 38.1354], [23.5074, 38.1539], [23.4613, 38.1645], [23.4601, 38.2088], [23.4088, 38.2056], [23.3744, 38.2133], [23.3704, 38.2283], [23.3913, 38.2361], [23.3959, 38.2664], [23.383, 38.269], [23.3609, 38.2595], [23.3242, 38.2626], [23.3071, 38.2432], [23.2918, 38.2393], [23.2928, 38.1937], [23.2866, 38.1845], [23.2218, 38.1898], [23.2119, 38.1823], [23.1262, 38.1684], [23.1309, 38.1629], [23.1888, 38.1651], [23.2248, 38.1516], [23.2193, 38.1442], [23.1779, 38.141], [23.1807, 38.1255], [23.2048, 38.1259], [23.2174, 38.1159], [23.2153, 38.0993], [23.1788, 38.0866], [23.1699, 38.0738], [23.1175, 38.0606], [23.1161, 38.0294], [23.1315, 38.02], [23.1142, 38.0133], [23.1067, 37.9952], [23.1149, 37.9845], [23.1719, 37.9687], [23.1797, 37.9516]]], [[[23.9013, 37.491], [23.924, 37.4662], [23.942, 37.4603], [23.9295, 37.4819], [23.9013, 37.491]]], [[[23.4244, 37.4117], [23.5033, 37.4257], [23.5213, 37.4354], [23.5145, 37.4417], [23.5207, 37.4515], [23.4972, 37.4726], [23.4783, 37.4755], [23.4766, 37.4848], [23.4423, 37.5015], [23.391, 37.5092], [23.389, 37.5184], [23.4094, 37.5202], [23.4175, 37.5304], [23.3682, 37.5565], [23.3854, 37.5605], [23.3906, 37.5799], [23.4148, 37.6126], [23.4013, 37.635], [23.3478, 37.6365], [23.3236, 37.6315], [23.3072, 37.6169], [23.3479, 37.5851], [23.3655, 37.5509], [23.332, 37.5328], [23.3167, 37.5333], [23.3028, 37.5475], [23.2717, 37.5564], [23.2637, 37.5728], [23.2452, 37.5818], [23.2004, 37.5967], [23.1853, 37.5895], [23.1874, 37.5695], [23.1713, 37.5619], [23.1643, 37.5445], [23.1765, 37.5252], [23.2194, 37.5221], [23.251, 37.5017], [23.2725, 37.502], [23.2739, 37.4933], [23.3022, 37.4968], [23.3108, 37.4892], [23.3097, 37.471], [23.3409, 37.4725], [23.3475, 37.4589], [23.3642, 37.4639], [23.4052, 37.4566], [23.4226, 37.4689], [23.4544, 37.4631], [23.4529, 37.4483], [23.4244, 37.4117]]]]}}, {"type": "Feature", "properties": {"osm_type": "relation", "osm_id": 725529524, "name": "Macedonia-Thrace", "admin_level": "4", "iso": "", "parent_iso": "GR", "parent_osm_id": 192307, "kind": "subdivision_1"}, "geometry": {"type": "MultiPolygon", "coordinates": [[[[24.6684, 40.7835], [24.65, 40.8013], [24.5985, 40.7772], [24.582, 40.7593], [24.5626, 40.7626], [24.5574, 40.7391], [24.5339, 40.7143], [24.5111, 40.6637], [24.5144, 40.6437], [24.5286, 40.6248], [24.5903, 40.6207], [24.6065, 40.6089], [24.6199, 40.5848], [24.6402, 40.5826], [24.6431, 40.5724], [24.6612, 40.5741], [24.6986, 40.5964], [24.7436, 40.6027], [24.7601, 40.6161], [24.7748, 40.6069], [24.779, 40.6191], [24.7631, 40.6732], [24.7816, 40.6851], [24.7784, 40.7021], [24.7607, 40.7077], [24.7575, 40.7187], [24.7634, 40.7322], [24.7851, 40.736], [24.738, 40.7564], [24.7188, 40.7833], [24.6942, 40.7766], [24.6684, 40.7835]]], [[[23.3749, 40.1406], [23.3564, 40.1545], [23.3475, 40.1827], [23.3344, 40.1967], [23.3216, 40.1957], [23.3262, 40.1794], [23.3166, 40.1421], [23.322, 40.1278], [23.3068, 40.1019], [23.3128, 40.0789], [23.338, 40.0688], [23.3796, 40.008], [23.376, 39.982], [23.3552, 39.9539], [23.3784, 39.9623], [23.414, 39.9596], [23.4433, 39.9705], [23.4652, 39.9697], [23.5931, 39.9211], [23.6855, 39.9172], [23.7143, 39.9087], [23.7496, 39.9172], [23.7437, 39.9317], [23.6927, 39.9334], [23.6678, 39.9809], [23.5944, 39.9961], [23.4934, 40.034], [23.4543, 40.0697], [23.4173, 40.1263], [23.3969, 40.1393], [23.3749, 40.1406]]], [[[23.9251, 40.3177], [23.9163, 40.3424], [23.8842, 40.3293], [23.9348, 40.3091], [23.9489, 40.3101], [23.9251, 40.3177]]], [[[25.5681, 40.51], [25.5011, 40.497], [25.4528, 40.4693], [25.4635, 40.4557], [25.5636, 40.3965], [25.5998, 40.3937], [25.6961, 40.4219], [25.6984, 40.4659], [25.6574, 40.4934], [25.5681, 40.51]]], [[[24.011, 40.3894], [23.9769, 40.3782], [23.9305, 40.3813], [23.8892, 40.3953], [23.8544, 40.4239], [23.8469, 40.4395], [23.8383, 40.4404], [23.8209, 40.4804], [23.8288, 40.5164], [23.8925, 40.5194], [23.9184, 40.5331], [23.8831, 40.5601], [23.8754, 40.5543], [23.8337, 40.5571], [23.8186, 40.5801], [23.7841, 40.5924], [23.7769, 40.6184], [23.7426, 40.656], [23.696, 40.6672], [23.701, 40.7029], [23.733, 40.7507], [23.8451, 40.784], [23.9808, 40.7349], [24.0496, 40.7189], [24.085, 40.721], [24.1449, 40.7394], [24.2853, 40.8107], [24.338, 40.825], [24.3324, 40.8308], [24.3152, 40.8239], [24.3061, 40.829], [24.31, 40.848], [24.3312, 40.8479], [24.3351, 40.8557], [24.3158, 40.8682], [24.3166, 40.8776], [24.3453, 40.9009], [24.3791, 40.9099], [24.3944, 40.9335], [24.4161, 40.9308], [24.4292, 40.9441], [24.4624, 40.9427], [24.5087, 40.9585], [24.5518, 40.9528], [24.6275, 40.8585], [24.6668, 40.873], [24.6958, 40.8657], [24.7031, 40.8577], [24.6903, 40.854], [24.7652, 40.8599], [24.7987, 40.8457], [24.8777, 40.909], [24.9388, 40.9289], [24.9885, 40.9308], [24.9981, 40.9586], [25.0445, 40.9911], [25.065, 41.002], [25.1062, 41.0057], [25.1408, 40.9887], [25.1252, 40.965], [25.1286, 40.9566], [25.1637, 40.9495], [25.174, 40.94], [25.2496, 40.936], [25.2651, 40.9222], [25.2713, 40.9324], [25.2986, 40.9431], [25.3395, 40.9411], [25.3606, 40.9354], [25.3794, 40.9097], [25.4546, 40.8978], [25.5525, 40.8589], [25.5886, 40.8688], [25.7072, 40.848], [25.8143, 40.8511], [25.8802, 40.84], [25.912, 40.8477], [25.9459, 40.8422], [25.9897, 40.8194], [26.0059, 40.7933], [26.0242, 40.7949], [26.038, 40.7682], [26.0281, 40.7372], [26.0328, 40.7303], [26.0759, 40.7276], [26.1253, 40.7441], [26.1281, 40.7722], [26.1551, 40.8084], [26.2006, 40.8223], [26.2189, 40.8365], [26.2167, 40.8463], [26.2051, 40.8481], [26.206, 40.8637], [26.2234, 40.8658], [26.2239, 40.8905], [26.23, 40.8902], [26.2329, 40.8732], [26.2333, 40.8847], [26.2498, 40.8817], [26.2632, 40.9144], [26.2747, 40.8941], [26.2917, 40.8939], [26.3009, 40.9039], [26.287, 40.9305], [26.3057, 40.929], [26.3277, 40.9438], [26.359, 40.9472], [26.3258, 40.983], [26.3524, 40.996], [26.3678, 41.0201], [26.3294, 41.0431], [26.33, 41.0531], [26.3135, 41.0737], [26.3136, 41.0848], [26.3323, 41.0981], [26.3341, 41.1075], [26.3053, 41.111], [26.3327, 41.1471], [26.3079, 41.1688], [26.3239, 41.1909], [26.3202, 41.2075], [26.3313, 41.2281], [26.3179, 41.2366], [26.3188, 41.2476], [26.3336, 41.2588], [26.3752, 41.249], [26.4056, 41.2547], [26.4434, 41.2825], [26.467, 41.2866], [26.4664, 41.3033], [26.4885, 41.3082], [26.501, 41.3285], [26.5292, 41.3413], [26.5559, 41.337], [26.5763, 41.3229], [26.5963, 41.3226], [26.6284, 41.3455], [26.6352, 41.3854], [26.6301, 41.4158], [26.6126, 41.4258], [26.6134, 41.4628], [26.6017, 41.4771], [26.6052, 41.5005], [26.5922, 41.5295], [26.6028, 41.546], [26.5904, 41.5612], [26.5989, 41.6035], [26.5298, 41.6216], [26.4896, 41.6533], [26.4956, 41.6615], [26.4864, 41.6725], [26.4687, 41.67], [26.4431, 41.686], [26.4255, 41.6815], [26.3932, 41.6891], [26.3672, 41.7095], [26.2797, 41.7134], [26.2509, 41.723], [26.2305, 41.74], [26.2135, 41.7321], [26.1687, 41.7485], [26.1236, 41.7311], [26.109, 41.7134], [26.0811, 41.7154], [26.0622, 41.6923], [26.0642, 41.6625], [26.0785, 41.6436], [26.09, 41.6429], [26.0952, 41.6268], [26.1386, 41.6318], [26.1393, 41.6132], [26.1539, 41.6056], [26.1474, 41.5545], [26.1765, 41.5548], [26.1818, 41.5409], [26.1842, 41.518], [26.1708, 41.4923], [26.1536, 41.4822], [26.1961, 41.441], [26.1595, 41.42], [26.1589, 41.3946], [26.1471, 41.3766], [26.1362, 41.3747], [26.1298, 41.3558], [26.1001, 41.3568], [26.0856, 41.3456], [26.0352, 41.3498], [26.0103, 41.3445], [25.9995, 41.3264], [25.9742, 41.3182], [25.9396, 41.3206], [25.8869, 41.3054], [25.8719, 41.3116], [25.872, 41.3288], [25.8544, 41.3275], [25.8246, 41.3472], [25.7796, 41.3213], [25.7186, 41.3168], [25.7104, 41.2914], [25.656, 41.3144], [25.6133, 41.3041], [25.5595, 41.3175], [25.5448, 41.3072], [25.5314, 41.2777], [25.4739, 41.2866], [25.4325, 41.2757], [25.4295, 41.2653], [25.3675, 41.2601], [25.3331, 41.2421], [25.2967, 41.245], [25.2811, 41.2364], [25.2329, 41.2472], [25.2191, 41.2831], [25.1832, 41.299], [25.1794, 41.3102], [25.1318, 41.3239], [25.1238, 41.3318], [25.1262, 41.3423], [25.0981, 41.3342], [25.077, 41.3419], [25.0565, 41.3632], [24.9776, 41.3758], [24.9404, 41.3876], [24.9128, 41.4081], [24.8696, 41.3909], [24.8192, 41.4011], [24.8157, 41.3539], [24.8024, 41.347], [24.7459, 41.3841], [24.7306, 41.4162], [24.681, 41.425], [24.6596, 41.4163], [24.6618, 41.4328], [24.65, 41.435], [24.612, 41.4247], [24.5976, 41.441], [24.5948, 41.4672], [24.573, 41.4765], [24.5615, 41.5006], [24.5628, 41.5161], [24.5461, 41.5392], [24.5536, 41.5504], [24.5265, 41.5681], [24.4802, 41.5553], [24.4507, 41.522], [24.396, 41.5391], [24.3642, 41.5168], [24.3386, 41.5264], [24.3046, 41.5108], [24.2953, 41.5252], [24.3016, 41.5388], [24.2702, 41.5594], [24.2754, 41.568], [24.2605, 41.5727], [24.2278, 41.5474], [24.21, 41.5501], [24.1838, 41.5152], [24.1729, 41.5167], [24.158, 41.5375], [24.1342, 41.5336], [24.1012, 41.5505], [24.08, 41.5425], [24.06, 41.5224], [24.0624, 41.4859], [24.0735, 41.4668], [24.0457, 41.4512], [24.0239, 41.4558], [24.0173, 41.4678], [23.9715, 41.4383], [23.9434, 41.4503], [23.9417, 41.4617], [23.9143, 41.4819], [23.907, 41.4585], [23.8901, 41.4501], [23.8004, 41.4374], [23.7679, 41.3969], [23.6742, 41.4107], [23.6479, 41.3942], [23.6476, 41.3815], [23.6364, 41.3755], [23.6005, 41.3782], [23.5779, 41.3906], [23.5465, 41.3892], [23.5251, 41.4052], [23.4843, 41.3987], [23.4385, 41.4063], [23.4203, 41.3985], [23.4021, 41.4009], [23.3417, 41.3642], [23.3222, 41.3997], [23.3046, 41.4011], [23.2816, 41.399], [23.2321, 41.3753], [23.2229, 41.3355], [23.1792, 41.3195], [23.1057, 41.3165], [23.0292, 41.3337], [22.9315, 41.3405], [22.8276, 41.3343], [22.8053, 41.3402], [22.7621, 41.3194], [22.7572, 41.303], [22.766, 41.2925], [22.7564, 41.2745], [22.7609, 41.2674], [22.7474, 41.163], [22.732, 41.1464], [22.7111, 41.1395], [22.6632, 41.1851], [22.6457, 41.1775], [22.6421, 41.1605], [22.6177, 41.1336], [22.5877, 41.1173], [22.5621, 41.1312], [22.4165, 41.1194], [22.4027, 41.1285], [22.4024, 41.1376], [22.3494, 41.1356], [22.3324, 41.1202], [22.3234, 41.1509], [22.3023, 41.1477], [22.2685, 41.1634], [22.2149, 41.1687], [22.172, 41.1567], [22.1402, 41.1252], [22.0871, 41.1394], [22.0669, 41.1576], [22.0232, 41.133], [21.9748, 41.1277], [21.9125, 41.0904], [21.9034, 41.0698], [21.912, 41.0494], [21.9054, 41.0427], [21.8841, 41.0407], [21.8838, 41.0285], [21.8515, 41.0113], [21.8463, 40.9975], [21.8015, 40.9761], [21.8041, 40.9447], [21.7872, 40.9311], [21.8073, 40.9084], [21.8278, 40.9057], [21.8291, 40.8974], [21.8021, 40.8792], [21.7342, 40.8541], [21.7319, 40.868], [21.7045, 40.8643], [21.742, 40.817], [21.7358, 40.8056], [21.7423, 40.7952], [21.732, 40.7853], [21.7494, 40.774], [21.7721, 40.7793], [21.7952, 40.7727], [21.7802, 40.7429], [21.8116, 40.7252], [21.8196, 40.6972], [21.8346, 40.6964], [21.8473, 40.7079], [21.8695, 40.6898], [21.9064, 40.6813], [21.9024, 40.6502], [21.8849, 40.6411], [21.8848, 40.5963], [21.9135, 40.5758], [21.9142, 40.5682], [21.8924, 40.5562], [21.8962, 40.5422], [21.9251, 40.5196], [21.9285, 40.488], [21.9858, 40.4775], [22.0288, 40.4472], [22.019, 40.4425], [22.0234, 40.4359], [22.0717, 40.4414], [22.1054, 40.4311], [22.0928, 40.3804], [22.1268, 40.3568], [22.1509, 40.3601], [22.1548, 40.3546], [22.1319, 40.3401], [22.128, 40.3238], [22.1615, 40.3004], [22.1842, 40.3018], [22.1951, 40.2929], [22.1683, 40.234], [22.115, 40.2115], [22.1035, 40.1984], [22.1152, 40.1899], [22.1831, 40.1967], [22.2104, 40.19], [22.222, 40.1764], [22.2007, 40.1695], [22.1902, 40.1528], [22.1936, 40.1469], [22.2102, 40.1491], [22.2065, 40.1278], [22.2153, 40.1018], [22.2421, 40.112], [22.2679, 40.1586], [22.2879, 40.1741], [22.3214, 40.1812], [22.3531, 40.1566], [22.3443, 40.1413], [22.347, 40.1289], [22.3556, 40.1395], [22.3711, 40.1396], [22.3638, 40.0973], [22.3467, 40.0682], [22.3604, 40.0655], [22.3789, 40.0391], [22.3985, 40.0496], [22.41, 40.0351], [22.4309, 40.0406], [22.4619, 40.0189], [22.4895, 40.0129], [22.4959, 40.0072], [22.4871, 39.996], [22.4983, 39.9907], [22.4978, 39.9691], [22.531, 39.9469], [22.6004, 39.9558], [22.6255, 39.9721], [22.6541, 39.9637], [22.6637, 39.9459], [22.6784, 39.9587], [22.6704, 39.9705], [22.5933, 40.0138], [22.5875, 40.0368], [22.5701, 40.0564], [22.5684, 40.0981], [22.5476, 40.143], [22.5557, 40.1714], [22.5882, 40.2075], [22.5859, 40.2268], [22.6008, 40.2737], [22.6623, 40.3618], [22.6268, 40.3783], [22.6112, 40.4068], [22.6066, 40.4416], [22.5861, 40.4624], [22.6003, 40.4756], [22.6534, 40.4682], [22.653, 40.4803], [22.6664, 40.4899], [22.6522, 40.5129], [22.6615, 40.5259], [22.6824, 40.529], [22.7191, 40.5009], [22.7277, 40.5087], [22.7211, 40.52], [22.7344, 40.5067], [22.7356, 40.5235], [22.7522, 40.5146], [22.7364, 40.535], [22.7433, 40.54], [22.7415, 40.5585], [22.7744, 40.5699], [22.7954, 40.5645], [22.853, 40.5898], [22.8575, 40.6108], [22.8338, 40.6191], [22.8905, 40.6431], [22.9472, 40.6268], [22.9482, 40.593], [22.9346, 40.5794], [22.9812, 40.5503], [22.9715, 40.5331], [22.9267, 40.51], [22.8874, 40.5019], [22.8274, 40.5072], [22.8163, 40.5019], [22.8143, 40.4786], [22.8548, 40.4663], [22.8651, 40.4329], [22.8826, 40.4256], [22.9028, 40.3978], [22.8898, 40.3751], [22.9444, 40.3807], [22.9853, 40.3669], [23.013, 40.3459], [23.0203, 40.324], [23.1038, 40.2986], [23.1447, 40.2731], [23.2933, 40.2364], [23.3147, 40.2196], [23.3216, 40.1968], [23.3342, 40.1973], [23.3319, 40.2125], [23.3486, 40.239], [23.4009, 40.2795], [23.4956, 40.259], [23.5248, 40.2387], [23.5843, 40.2251], [23.6523, 40.2246], [23.6874, 40.1908], [23.7145, 40.1773], [23.7362, 40.1444], [23.7733, 40.1167], [23.7738, 40.0983], [23.7912, 40.09], [23.787, 40.0648], [23.8127, 40.0429], [23.8113, 40.0286], [23.8231, 40.0054], [23.8273, 40.0232], [23.8594, 40.0134], [23.8722, 39.9965], [23.9023, 39.9847], [23.901, 39.9609], [23.9186, 39.963], [23.9176, 39.9711], [23.9259, 39.9593], [23.9177, 39.9483], [23.9423, 39.9378], [23.9941, 39.9539], [23.9654, 39.9634], [23.9946, 39.9699], [23.9887, 39.9891], [24.0211, 40.0088], [24.0173, 40.0369], [23.9912, 40.0356], [23.9859, 40.0419], [24.0079, 40.0589], [23.9796, 40.0834], [23.9817, 40.1016], [23.9953, 40.1098], [23.9111, 40.1582], [23.824, 40.1807], [23.8075, 40.1934], [23.7763, 40.1914], [23.7596, 40.2116], [23.7591, 40.2274], [23.7378, 40.23], [23.7074, 40.2605], [23.6942, 40.2854], [23.6949, 40.3039], [23.7064, 40.3332], [23.7278, 40.3341], [23.7349, 40.3537], [23.7837, 40.3377], [23.8092, 40.3561], [23.8526, 40.3703], [23.8902, 40.3604], [23.9051, 40.3659], [23.9334, 40.3603], [24.005, 40.3146], [24.0156, 40.3331], [24.0052, 40.357], [24.011, 40.3894]]]]}}, {"type": "Feature", "properties": {"osm_type": "relation", "osm_id": 554424, "name": "Epirus", "admin_level": "5", "iso": "GR-D", "parent_iso": "GR", "parent_osm_id": 192307, "kind": "subdivision_1"}, "geometry": {"type": "Polygon", "coordinates": [[[21.7872, 40.9311], [21.7601, 40.9263], [21.7058, 40.9435], [21.6866, 40.9396], [21.6657, 40.9171], [21.6706, 40.8984], [21.6356, 40.8971], [21.6037, 40.8802], [21.5932, 40.866], [21.5665, 40.8664], [21.5256, 40.9102], [21.4647, 40.9068], [21.4252, 40.9174], [21.3567, 40.8781], [21.2597, 40.8594], [21.2428, 40.8742], [21.208, 40.884], [21.1422, 40.8555], [20.9802, 40.8557], [20.9848, 40.7931], [20.9627, 40.7722], [20.9836, 40.7623], [20.9847, 40.7382], [21.0264, 40.7083], [21.0573, 40.6672], [21.0566, 40.6167], [21.0447, 40.6137], [21.0485, 40.6028], [21.04, 40.5916], [21.0469, 40.5722], [21.0421, 40.5593], [21.0072, 40.5518], [20.999, 40.5342], [20.9691, 40.52], [20.9684, 40.4883], [20.9516, 40.4683], [20.9292, 40.4626], [20.9073, 40.4761], [20.872, 40.4706], [20.8441, 40.4799], [20.8226, 40.4418], [20.7875, 40.4286], [20.7905, 40.3626], [20.7594, 40.3349], [20.7642, 40.3212], [20.7366, 40.3101], [20.7135, 40.2826], [20.708, 40.266], [20.7216, 40.253], [20.7244, 40.2237], [20.7065, 40.1994], [20.6799, 40.1862], [20.6753, 40.1664], [20.6942, 40.1522], [20.676, 40.1253], [20.6782, 40.0993], [20.6214, 40.0875], [20.6033, 40.073], [20.5744, 40.0661], [20.5491, 40.0639], [20.5115, 40.0831], [20.4897, 40.064], [20.4493, 40.0731], [20.41, 40.0492], [20.4132, 40.0375], [20.3942, 39.9961], [20.3741, 39.9888], [20.3122, 39.991], [20.3453, 39.9468], [20.3376, 39.924], [20.3847, 39.8886], [20.3897, 39.8689], [20.4166, 39.8417], [20.4143, 39.8144], [20.3815, 39.7848], [20.3475, 39.8041], [20.3086, 39.8142], [20.2895, 39.8048], [20.3073, 39.7811], [20.2924, 39.7627], [20.3218, 39.7289], [20.2835, 39.7116], [20.2661, 39.6947], [20.2624, 39.6721], [20.2318, 39.6849], [20.2182, 39.6648], [20.2261, 39.6478], [20.1938, 39.6447], [20.1362, 39.6544], [20.0671, 39.689], [20.0308, 39.6985], [20.0089, 39.6921], [20.0258, 39.6788], [20.0604, 39.6829], [20.0651, 39.6735], [20.1019, 39.6622], [20.0983, 39.6571], [20.0876, 39.6632], [20.0997, 39.6516], [20.1135, 39.6596], [20.1819, 39.6257], [20.1853, 39.6076], [20.1593, 39.59], [20.1724, 39.579], [20.164, 39.5598], [20.1362, 39.5277], [20.168, 39.5365], [20.2013, 39.5198], [20.1688, 39.5198], [20.1724, 39.5136], [20.2345, 39.5199], [20.2626, 39.5101], [20.2572, 39.4833], [20.2303, 39.4939], [20.2122, 39.4913], [20.2769, 39.4528], [20.2746, 39.4456], [20.2125, 39.4461], [20.2335, 39.4033], [20.2604, 39.3963], [20.2789, 39.3808], [20.276, 39.3647], [20.2875, 39.3275], [20.348, 39.2836], [20.3943, 39.2853], [20.4327, 39.2738], [20.4402, 39.2821], [20.4632, 39.2697], [20.4666, 39.2796], [20.4776, 39.2756], [20.4707, 39.2621], [20.4785, 39.2163], [20.532, 39.1894], [20.596, 39.1237], [20.6618, 39.0872], [20.7061, 39.0465], [20.7153, 39.0129], [20.7, 38.9966], [20.7268, 38.9496], [20.7573, 38.9505], [20.7524, 38.9737], [20.7585, 38.9838], [20.7536, 38.9742], [20.759, 38.9715], [20.7872, 38.972], [20.8199, 38.9545], [20.8306, 38.9596], [20.8288, 38.969], [20.7402, 39.0138], [20.7546, 39.0199], [20.7911, 39.0591], [20.8077, 39.0616], [20.8239, 39.0521], [20.8086, 39.062], [20.7849, 39.0596], [20.7882, 39.0747], [20.8016, 39.0794], [20.7722, 39.0833], [20.7904, 39.0913], [20.773, 39.0971], [20.7725, 39.1037], [20.7936, 39.0957], [20.7985, 39.1056], [20.7852, 39.1079], [20.8132, 39.1052], [20.7918, 39.1099], [20.7992, 39.1173], [20.8414, 39.0927], [20.8126, 39.0757], [20.8361, 39.0754], [20.8632, 39.0631], [20.8551, 39.0457], [20.8594, 39.0337], [20.8736, 39.0345], [20.8648, 39.0433], [20.8685, 39.0574], [20.8927, 39.0573], [20.8882, 39.0744], [20.9298, 39.0592], [20.9473, 39.0679], [20.9355, 39.0496], [20.9423, 39.0304], [20.964, 39.0372], [20.9828, 39.0182], [21.0409, 39.0022], [21.0569, 39.0064], [21.0358, 39.0182], [21.0599, 39.0084], [21.0686, 39.0124], [21.0437, 39.0221], [21.0607, 39.0326], [21.055, 39.0387], [21.0684, 39.0395], [21.0747, 39.0238], [21.0731, 39.0454], [21.0802, 39.0531], [21.1086, 39.0461], [21.0872, 39.0804], [21.1091, 39.0863], [21.0944, 39.1005], [21.1184, 39.1207], [21.178, 39.1256], [21.1915, 39.1359], [21.2022, 39.124], [21.2343, 39.1316], [21.2711, 39.1173], [21.3242, 39.1456], [21.3235, 39.1606], [21.3735, 39.1747], [21.3537, 39.1901], [21.3513, 39.2136], [21.3673, 39.2345], [21.4115, 39.2619], [21.4287, 39.2958], [21.4149, 39.2993], [21.4151, 39.3178], [21.4006, 39.3293], [21.3898, 39.3545], [21.3061, 39.3577], [21.2725, 39.3774], [21.2774, 39.3948], [21.2672, 39.4163], [21.2282, 39.437], [21.2016, 39.463], [21.1944, 39.4746], [21.215, 39.4807], [21.2154, 39.4989], [21.181, 39.4995], [21.2034, 39.5224], [21.185, 39.6093], [21.181, 39.6165], [21.1528, 39.6181], [21.1544, 39.649], [21.128, 39.6646], [21.1204, 39.6794], [21.1589, 39.7005], [21.1672, 39.7178], [21.1835, 39.7113], [21.2026, 39.7167], [21.2271, 39.7083], [21.2362, 39.696], [21.2509, 39.6977], [21.2545, 39.7082], [21.2466, 39.7129], [21.247, 39.7244], [21.2251, 39.7316], [21.2338, 39.7556], [21.2263, 39.8042], [21.2512, 39.8075], [21.2481, 39.8149], [21.2647, 39.8363], [21.2634, 39.8522], [21.2909, 39.8522], [21.3185, 39.8694], [21.3233, 39.8467], [21.3356, 39.832], [21.3668, 39.8393], [21.3837, 39.8323], [21.3905, 39.8432], [21.421, 39.8511], [21.4158, 39.8575], [21.4242, 39.8722], [21.4095, 39.8745], [21.4281, 39.8946], [21.4732, 39.9006], [21.4845, 39.8891], [21.5237, 39.9], [21.5562, 39.887], [21.5833, 39.8937], [21.62, 39.8688], [21.653, 39.8785], [21.656, 39.8667], [21.6783, 39.855], [21.7003, 39.8565], [21.7192, 39.8733], [21.737, 39.8693], [21.7444, 39.8552], [21.7642, 39.8563], [21.7892, 39.846], [21.8326, 39.8619], [21.9119, 39.846], [21.9191, 39.8618], [21.9004, 39.903], [21.9094, 39.9238], [21.8916, 39.9423], [21.8725, 39.9439], [21.8639, 39.9582], [21.8838, 39.9552], [21.9055, 39.9674], [21.9105, 39.9825], [21.932, 39.9815], [21.9492, 39.9934], [21.9616, 40.0288], [21.9961, 40.043], [21.994, 40.0594], [22.0213, 40.0628], [22.0223, 40.0763], [22.0732, 40.1128], [22.102, 40.1449], [22.088, 40.1618], [22.0931, 40.1715], [22.1028, 40.1782], [22.1228, 40.1636], [22.1233, 40.1797], [22.1035, 40.1984], [22.1055, 40.2045], [22.1683, 40.234], [22.1951, 40.2929], [22.1842, 40.3018], [22.1615, 40.3004], [22.128, 40.3238], [22.1319, 40.3401], [22.1548, 40.3546], [22.1509, 40.3601], [22.1268, 40.3568], [22.0928, 40.3804], [22.1054, 40.4311], [22.0717, 40.4414], [22.0234, 40.4359], [22.019, 40.4425], [22.0288, 40.4472], [21.9858, 40.4775], [21.9285, 40.488], [21.9251, 40.5196], [21.8962, 40.5422], [21.8924, 40.5562], [21.9142, 40.5682], [21.9135, 40.5758], [21.8848, 40.5963], [21.8849, 40.6411], [21.9024, 40.6502], [21.9064, 40.6813], [21.8695, 40.6898], [21.8473, 40.7079], [21.8346, 40.6964], [21.8196, 40.6972], [21.8116, 40.7252], [21.7802, 40.7429], [21.7952, 40.7727], [21.7721, 40.7793], [21.7494, 40.774], [21.732, 40.7853], [21.7423, 40.7952], [21.7358, 40.8056], [21.742, 40.817], [21.7045, 40.8643], [21.7319, 40.868], [21.7342, 40.8541], [21.8021, 40.8792], [21.8291, 40.8974], [21.8278, 40.9057], [21.8073, 40.9084], [21.7872, 40.9311]]]}}, {"type": "Feature", "properties": {"osm_type": "relation", "osm_id": 655947966, "name": "Peloponisos-W. Greece & Ionian", "admin_level": "4", "iso": "", "parent_iso": "GR", "parent_osm_id": 192307, "kind": "subdivision_1"}, "geometry": {"type": "MultiPolygon", "coordinates": [[[[21.5602, 37.0538], [21.5581, 37.0662], [21.5391, 37.0568], [21.5491, 37.0487], [21.5493, 37.0339], [21.5602, 37.0538]]], [[[22.9832, 36.4784], [22.9805, 36.5108], [22.9611, 36.5068], [22.9275, 36.4811], [22.926, 36.4664], [22.934, 36.4611], [22.9495, 36.474], [22.9679, 36.4764], [22.9879, 36.4555], [22.9913, 36.468], [22.9832, 36.4784]]], [[[21.7762, 36.7009], [21.7761, 36.7203], [21.7878, 36.7416], [21.7611, 36.7585], [21.7487, 36.7195], [21.7762, 36.7009]]], [[[21.7264, 36.7847], [21.702, 36.7942], [21.6921, 36.7749], [21.6971, 36.7581], [21.6915, 36.74], [21.7014, 36.738], [21.7001, 36.7588], [21.7193, 36.7673], [21.7156, 36.7789], [21.7264, 36.7847]]], [[[21.6713, 36.9094], [21.6736, 36.9232], [21.6626, 36.9487], [21.6542, 36.949], [21.6713, 36.9094]]], [[[20.7751, 37.8403], [20.7418, 37.8592], [20.7171, 37.8877], [20.7054, 37.9302], [20.6961, 37.931], [20.6326, 37.8844], [20.6232, 37.847], [20.6268, 37.8198], [20.6486, 37.7958], [20.6785, 37.7901], [20.6731, 37.7674], [20.6935, 37.762], [20.6942, 37.7429], [20.7114, 37.7261], [20.7571, 37.7083], [20.8058, 37.6573], [20.8317, 37.646], [20.859, 37.6564], [20.8566, 37.6671], [20.8358, 37.6832], [20.8412, 37.6977], [20.868, 37.7248], [20.9009, 37.736], [20.9199, 37.7364], [20.9621, 37.7193], [20.9887, 37.7052], [20.9844, 37.6976], [20.9933, 37.7027], [20.9861, 37.7304], [20.9499, 37.7449], [20.9404, 37.7606], [20.8996, 37.7765], [20.9023, 37.8049], [20.8249, 37.8372], [20.7902, 37.8462], [20.7751, 37.8403]]], [[[23.1175, 38.0606], [23.0566, 38.0522], [23.0418, 38.056], [23.0409, 38.0627], [23.0203, 38.0561], [22.9695, 38.0784], [22.9489, 38.0777], [22.9383, 38.0661], [22.9162, 38.0646], [22.8491, 38.0278], [22.9099, 38.0174], [22.9759, 37.9783], [22.9605, 37.952], [23.0078, 37.9193], [23.1028, 37.9157], [23.1394, 37.9218], [23.1663, 37.949], [23.1797, 37.9516], [23.1719, 37.9687], [23.1149, 37.9845], [23.1067, 37.9952], [23.1142, 38.0133], [23.1315, 38.02], [23.1161, 38.0294], [23.1175, 38.0606]]], [[[20.2495, 39.1392], [20.2225, 39.1627], [20.2126, 39.1537], [20.2354, 39.1378], [20.2495, 39.1392]]], [[[20.204, 39.181], [20.1641, 39.2277], [20.1259, 39.2379], [20.1424, 39.1996], [20.1729, 39.182], [20.204, 39.181]]], [[[19.8679, 39.8159], [19.8463, 39.8224], [19.7954, 39.7904], [19.7494, 39.7994], [19.7151, 39.7898], [19.6938, 39.7987], [19.6776, 39.7953], [19.6572, 39.7807], [19.6404, 39.7547], [19.6282, 39.7523], [19.6534, 39.7364], [19.6533, 39.7106], [19.6642, 39.7225], [19.6823, 39.7139], [19.6737, 39.6848], [19.6784, 39.6788], [19.7002, 39.6685], [19.7265, 39.6705], [19.7259, 39.658], [19.7464, 39.6239], [19.829, 39.5748], [19.8499, 39.5453], [19.8423, 39.5298], [19.8505, 39.4965], [19.8726, 39.4536], [20.1119, 39.3608], [20.1222, 39.38], [20.1067, 39.3927], [20.0955, 39.4224], [20.0684, 39.4557], [20.0551, 39.4439], [20.018, 39.4334], [20.0016, 39.4569], [19.9692, 39.4607], [19.9295, 39.4848], [19.9093, 39.5675], [19.9145, 39.5863], [19.9009, 39.5994], [19.9051, 39.6076], [19.9139, 39.5911], [19.9275, 39.5963], [19.922, 39.6121], [19.9275, 39.6234], [19.8506, 39.647], [19.8414, 39.6592], [19.8575, 39.6636], [19.856, 39.6696], [19.8422, 39.6764], [19.838, 39.6957], [19.8452, 39.7076], [19.9294, 39.7355], [19.9567, 39.7759], [19.9429, 39.7865], [19.9375, 39.7802], [19.9299, 39.7838], [19.9197, 39.7954], [19.9096, 39.7894], [19.8868, 39.7983], [19.8679, 39.8159]]], [[[19.3971, 39.8605], [19.3816, 39.8687], [19.3738, 39.8583], [19.3917, 39.8358], [19.4102, 39.8393], [19.4324, 39.8635], [19.3971, 39.8605]]], [[[19.5771, 39.8758], [19.5927, 39.8804], [19.5952, 39.8915], [19.5741, 39.8988], [19.5771, 39.8758]]], [[[20.7165, 38.5388], [20.7213, 38.5622], [20.7112, 38.5683], [20.6995, 38.546], [20.7165, 38.5388]]], [[[20.9034, 38.548], [20.9386, 38.6043], [20.8977, 38.5672], [20.8951, 38.5484], [20.898, 38.5426], [20.9055, 38.5426], [20.9034, 38.548]]], [[[20.9553, 38.6529], [20.8953, 38.6405], [20.8689, 38.5956], [20.8715, 38.5775], [20.8883, 38.5896], [20.8961, 38.6083], [20.9277, 38.6151], [20.9344, 38.6262], [20.9519, 38.6328], [20.9613, 38.6454], [20.9553, 38.6529]]], [[[20.7816, 38.6784], [20.7749, 38.669], [20.74, 38.6677], [20.735, 38.6375], [20.8067, 38.5902], [20.7561, 38.6304], [20.7659, 38.646], [20.7857, 38.6435], [20.807, 38.6621], [20.8085, 38.668], [20.7924, 38.6678], [20.7816, 38.6784]]], [[[20.6837, 38.8345], [20.6958, 38.8506], [20.6912, 38.8527], [20.6731, 38.832], [20.646, 38.8321], [20.6227, 38.7934], [20.5984, 38.7753], [20.5736, 38.7056], [20.5564, 38.6809], [20.5582, 38.6283], [20.5427, 38.5871], [20.5485, 38.5715], [20.542, 38.5614], [20.5714, 38.5891], [20.5953, 38.632], [20.6071, 38.6285], [20.6164, 38.6019], [20.633, 38.6022], [20.6403, 38.5789], [20.6485, 38.5817], [20.6417, 38.5972], [20.6525, 38.6076], [20.6849, 38.6061], [20.6945, 38.6204], [20.695, 38.6393], [20.7071, 38.6246], [20.7217, 38.6262], [20.7234, 38.6422], [20.7113, 38.6719], [20.7219, 38.6749], [20.723, 38.6956], [20.714, 38.7049], [20.7077, 38.6788], [20.6979, 38.6811], [20.732, 38.7302], [20.7184, 38.7619], [20.7267, 38.8065], [20.7097, 38.8362], [20.6837, 38.8345]]], [[[23.2004, 37.5967], [23.156, 37.6235], [23.1705, 37.6422], [23.151, 37.6748], [23.1759, 37.7154], [23.1597, 37.7147], [23.1177, 37.7319], [23.1287, 37.733], [23.1176, 37.7517], [23.1269, 37.7664], [23.146, 37.7587], [23.1779, 37.7765], [23.1784, 37.8036], [23.1129, 37.8476], [23.0638, 37.8392], [23.0453, 37.8469], [23.009, 37.8459], [22.9918, 37.881], [23.0161, 37.8995], [23.0094, 37.916], [22.958, 37.9521], [22.9487, 37.9421], [22.9258, 37.9434], [22.8977, 37.9319], [22.8568, 37.9378], [22.7988, 37.9655], [22.7745, 37.9995], [22.7245, 38.0366], [22.6408, 38.0764], [22.5474, 38.1047], [22.4907, 38.1362], [22.4153, 38.1305], [22.391, 38.1353], [22.3526, 38.1506], [22.3352, 38.1766], [22.2693, 38.1709], [22.2161, 38.1806], [22.2005, 38.1993], [22.1755, 38.2005], [22.1492, 38.2182], [22.1332, 38.2477], [22.1119, 38.2638], [22.077, 38.2545], [22.0675, 38.2714], [22.0271, 38.2851], [22.0175, 38.3112], [21.9893, 38.3113], [21.9473, 38.3281], [21.8893, 38.3242], [21.8542, 38.338], [21.8262, 38.3164], [21.779, 38.3076], [21.7386, 38.271], [21.718, 38.2157], [21.6737, 38.1701], [21.6052, 38.1429], [21.545, 38.158], [21.5305, 38.1554], [21.4523, 38.1994], [21.4098, 38.1909], [21.3892, 38.2143], [21.3715, 38.2183], [21.3746, 38.1977], [21.3636, 38.1684], [21.3661, 38.1217], [21.355, 38.1041], [21.342, 38.1004], [21.3051, 38.028], [21.2555, 37.9735], [21.1975, 37.9353], [21.1647, 37.9274], [21.1421, 37.9411], [21.1284, 37.9368], [21.1074, 37.8776], [21.1113, 37.8428], [21.2353, 37.807], [21.2976, 37.766], [21.3201, 37.7043], [21.3053, 37.6724], [21.3106, 37.6635], [21.3042, 37.6441], [21.3117, 37.6323], [21.3281, 37.6614], [21.378, 37.6575], [21.5336, 37.5671], [21.6095, 37.4941], [21.661, 37.4184], [21.6931, 37.3468], [21.6983, 37.3181], [21.693, 37.2956], [21.6706, 37.2589], [21.6497, 37.252], [21.5819, 37.1991], [21.5662, 37.1602], [21.5787, 37.0881], [21.5762, 37.0613], [21.6184, 37.0159], [21.643, 37.0009], [21.6587, 36.9728], [21.6573, 36.9503], [21.6831, 36.9564], [21.7097, 36.9435], [21.7081, 36.9243], [21.691, 36.9109], [21.68, 36.8886], [21.7049, 36.815], [21.7165, 36.8162], [21.7293, 36.7991], [21.7636, 36.792], [21.7702, 36.7995], [21.8085, 36.8072], [21.8227, 36.8037], [21.8296, 36.7771], [21.8466, 36.7565], [21.8624, 36.7504], [21.879, 36.7206], [21.932, 36.7574], [21.9394, 36.783], [21.9675, 36.7942], [21.9382, 36.8086], [21.9216, 36.8651], [21.9341, 36.9299], [21.9353, 36.957], [21.9265, 36.9676], [21.9322, 36.9836], [21.9761, 37.0066], [22.0358, 37.025], [22.0817, 37.0281], [22.1495, 37.0181], [22.1547, 36.9947], [22.1405, 36.9657], [22.1464, 36.9391], [22.1276, 36.9169], [22.1682, 36.8906], [22.18, 36.8894], [22.2032, 36.9044], [22.2259, 36.894], [22.2598, 36.8413], [22.2964, 36.8139], [22.3488, 36.6981], [22.3885, 36.694], [22.3663, 36.6785], [22.362, 36.6669], [22.3692, 36.6501], [22.3829, 36.6455], [22.3814, 36.6388], [22.3631, 36.6387], [22.3665, 36.6216], [22.3767, 36.6169], [22.3642, 36.61], [22.3642, 36.6015], [22.3862, 36.5933], [22.3729, 36.5813], [22.3868, 36.5751], [22.3817, 36.5547], [22.391, 36.5415], [22.3555, 36.5242], [22.3478, 36.5275], [22.3482, 36.5104], [22.3687, 36.4774], [22.3908, 36.4676], [22.4004, 36.4814], [22.4207, 36.4633], [22.4588, 36.4516], [22.4568, 36.4405], [22.4715, 36.4307], [22.4694, 36.4067], [22.4839, 36.3855], [22.4967, 36.4197], [22.4838, 36.4335], [22.5021, 36.4436], [22.504, 36.4867], [22.4726, 36.5284], [22.482, 36.5544], [22.4761, 36.6131], [22.4941, 36.6192], [22.51, 36.6029], [22.5285, 36.6163], [22.4994, 36.6596], [22.5111, 36.6691], [22.5323, 36.6626], [22.5404, 36.6476], [22.5512, 36.6504], [22.5478, 36.6721], [22.5223, 36.6798], [22.5205, 36.6911], [22.5305, 36.6964], [22.5234, 36.7087], [22.57, 36.7327], [22.5658, 36.7759], [22.6311, 36.8068], [22.7832, 36.7988], [22.7937, 36.7817], [22.7981, 36.7497], [22.8209, 36.7115], [22.8042, 36.6813], [22.8067, 36.6715], [22.8203, 36.6597], [22.8282, 36.6869], [22.8473, 36.6835], [22.8828, 36.6484], [22.8754, 36.6229], [22.9387, 36.5798], [22.9445, 36.5713], [22.9394, 36.5616], [22.9658, 36.5267], [22.9849, 36.5185], [23.0164, 36.5289], [23.0378, 36.5251], [23.0662, 36.5037], [23.069, 36.4839], [23.0621, 36.4739], [23.087, 36.4419], [23.1061, 36.441], [23.1308, 36.4276], [23.1448, 36.4407], [23.1968, 36.4347], [23.2, 36.4398], [23.1948, 36.4588], [23.1664, 36.4658], [23.1607, 36.4844], [23.1296, 36.4961], [23.1468, 36.5331], [23.1286, 36.5581], [23.0997, 36.5643], [23.0676, 36.5853], [23.0319, 36.6274], [23.0302, 36.6698], [23.0388, 36.6862], [23.0597, 36.6906], [23.0334, 36.6924], [23.0374, 36.7029], [23.0241, 36.7126], [23.0279, 36.7288], [23.0462, 36.7301], [23.0581, 36.7454], [23.0865, 36.729], [23.0916, 36.7371], [23.0843, 36.76], [23.1109, 36.774], [23.0757, 36.7875], [23.0898, 36.7859], [23.084, 36.8072], [23.0904, 36.8189], [23.0553, 36.8377], [23.0329, 36.9073], [23.0138, 36.9362], [23.0164, 36.9476], [22.9902, 36.9744], [23.0065, 36.9874], [23.0021, 37.0253], [22.9683, 37.0668], [22.9846, 37.073], [22.9832, 37.0807], [22.9624, 37.0907], [22.9549, 37.1193], [22.9315, 37.1184], [22.9184, 37.1086], [22.8974, 37.1193], [22.8942, 37.1485], [22.9089, 37.1932], [22.8948, 37.2003], [22.8769, 37.2403], [22.8545, 37.2555], [22.8635, 37.2674], [22.839, 37.2786], [22.7968, 37.3609], [22.774, 37.3874], [22.7532, 37.3931], [22.7688, 37.4247], [22.7517, 37.4381], [22.747, 37.4631], [22.7277, 37.4862], [22.739, 37.512], [22.7172, 37.5604], [22.7471, 37.5846], [22.7807, 37.5893], [22.8015, 37.5732], [22.7991, 37.5628], [22.8111, 37.5473], [22.8213, 37.545], [22.8205, 37.5277], [22.8478, 37.516], [22.8988, 37.5329], [22.9287, 37.5238], [22.9192, 37.5337], [22.8985, 37.5377], [22.9283, 37.5353], [22.9369, 37.5203], [22.9805, 37.5141], [23.0034, 37.4593], [23.0421, 37.4806], [23.054, 37.4658], [23.0471, 37.4562], [23.0565, 37.4504], [23.1222, 37.4497], [23.1316, 37.4384], [23.131, 37.4209], [23.1418, 37.4144], [23.1305, 37.4098], [23.1119, 37.4225], [23.111, 37.3993], [23.099, 37.3901], [23.0631, 37.3917], [23.0743, 37.3656], [23.0652, 37.3522], [23.1109, 37.3501], [23.1243, 37.3419], [23.1139, 37.3291], [23.1278, 37.3153], [23.1499, 37.3268], [23.1561, 37.3184], [23.1369, 37.3111], [23.1423, 37.3008], [23.1748, 37.2856], [23.1819, 37.295], [23.1989, 37.2909], [23.1983, 37.306], [23.1787, 37.323], [23.1932, 37.341], [23.2762, 37.3467], [23.2659, 37.3561], [23.2477, 37.3536], [23.2508, 37.3648], [23.2275, 37.3669], [23.23, 37.3829], [23.261, 37.385], [23.2464, 37.387], [23.2721, 37.407], [23.2971, 37.394], [23.3381, 37.4139], [23.4097, 37.4038], [23.4478, 37.4407], [23.4544, 37.4631], [23.4226, 37.4689], [23.4052, 37.4566], [23.3642, 37.4639], [23.3475, 37.4589], [23.3409, 37.4725], [23.3097, 37.471], [23.3108, 37.4892], [23.3022, 37.4968], [23.2739, 37.4933], [23.2725, 37.502], [23.251, 37.5017], [23.2194, 37.5221], [23.1765, 37.5252], [23.1643, 37.5445], [23.1713, 37.5619], [23.1874, 37.5695], [23.1853, 37.5895], [23.2004, 37.5967]]], [[[21.4863, 38.3277], [21.4706, 38.3393], [21.4785, 38.3352], [21.4818, 38.3072], [21.4454, 38.3312], [21.4314, 38.3273], [21.4211, 38.3335], [21.4176, 38.3274], [21.4496, 38.3221], [21.4824, 38.3006], [21.4863, 38.3277]]], [[[20.5643, 38.4745], [20.537, 38.4698], [20.5426, 38.4566], [20.5359, 38.433], [20.544, 38.4251], [20.5393, 38.4118], [20.5493, 38.3867], [20.5384, 38.3776], [20.5371, 38.3863], [20.5272, 38.388], [20.5479, 38.3623], [20.5322, 38.341], [20.4772, 38.3096], [20.4689, 38.3263], [20.4569, 38.3219], [20.4459, 38.3283], [20.4417, 38.357], [20.4227, 38.3523], [20.4096, 38.3359], [20.401, 38.3578], [20.3876, 38.2747], [20.3785, 38.264], [20.3586, 38.2603], [20.3575, 38.2232], [20.3376, 38.1892], [20.3399, 38.1784], [20.3756, 38.1646], [20.3866, 38.1484], [20.3914, 38.155], [20.4388, 38.1618], [20.4394, 38.2255], [20.4213, 38.2672], [20.4294, 38.279], [20.4441, 38.2808], [20.4801, 38.2045], [20.5103, 38.1684], [20.5007, 38.1651], [20.4802, 38.1909], [20.4685, 38.1901], [20.4808, 38.1708], [20.4753, 38.1592], [20.4959, 38.1347], [20.4892, 38.1231], [20.5138, 38.1023], [20.5333, 38.1042], [20.5668, 38.0896], [20.5764, 38.1048], [20.6189, 38.1174], [20.7028, 38.069], [20.7409, 38.0625], [20.7647, 38.0695], [20.7891, 38.0598], [20.8143, 38.108], [20.8127, 38.1181], [20.7925, 38.1308], [20.7122, 38.2242], [20.6953, 38.2624], [20.6733, 38.2617], [20.6785, 38.2802], [20.6656, 38.2759], [20.6485, 38.253], [20.6339, 38.2526], [20.6104, 38.2931], [20.5978, 38.3017], [20.6275, 38.3179], [20.6236, 38.3521], [20.6109, 38.4021], [20.5969, 38.4061], [20.5835, 38.4617], [20.5643, 38.4745]]], [[[21.1122, 38.3161], [21.1041, 38.3168], [21.1065, 38.3027], [21.0927, 38.299], [21.0974, 38.2835], [21.106, 38.2839], [21.1002, 38.2937], [21.1195, 38.3053], [21.1122, 38.3161]]], [[[20.6732, 38.4738], [20.6752, 38.4927], [20.6511, 38.5022], [20.6464, 38.4679], [20.6239, 38.4797], [20.6151, 38.4655], [20.6287, 38.4426], [20.6414, 38.4364], [20.6495, 38.4048], [20.6674, 38.376], [20.6663, 38.3625], [20.6857, 38.3492], [20.6895, 38.3275], [20.7056, 38.3073], [20.7236, 38.3031], [20.7639, 38.318], [20.7438, 38.3293], [20.7403, 38.3436], [20.7486, 38.3534], [20.7411, 38.3631], [20.752, 38.3698], [20.735, 38.3861], [20.7165, 38.3918], [20.7238, 38.3858], [20.718, 38.381], [20.7021, 38.3851], [20.7206, 38.3656], [20.7019, 38.3742], [20.6753, 38.3655], [20.675, 38.3803], [20.7079, 38.4367], [20.6928, 38.4495], [20.6941, 38.4584], [20.6715, 38.4597], [20.6732, 38.4738]]], [[[21.1044, 38.4197], [21.0813, 38.4354], [21.0852, 38.408], [21.1, 38.3931], [21.1044, 38.4197]]], [[[20.8074, 38.4763], [20.8215, 38.4786], [20.8201, 38.503], [20.7967, 38.4841], [20.8074, 38.4763]]], [[[21.1086, 39.0461], [21.163, 38.9802], [21.1415, 38.9579], [21.1395, 38.9226], [21.1646, 38.9067], [21.1745, 38.8669], [21.163, 38.8662], [21.1507, 38.8928], [21.0976, 38.9135], [21.0897, 38.905], [21.0915, 38.8781], [21.081, 38.871], [21.0819, 38.8627], [21.0185, 38.8982], [21.03, 38.9107], [21.024, 38.9258], [20.9966, 38.9237], [20.9803, 38.9441], [20.9431, 38.9326], [20.9206, 38.9451], [20.9019, 38.9208], [20.8608, 38.9181], [20.8806, 38.9247], [20.8701, 38.933], [20.863, 38.957], [20.8398, 38.9211], [20.8101, 38.9182], [20.7888, 38.9234], [20.7645, 38.9573], [20.7602, 38.9324], [20.7468, 38.9224], [20.7836, 38.8737], [20.8009, 38.868], [20.7364, 38.8506], [20.7311, 38.8425], [20.7418, 38.8359], [20.73, 38.8157], [20.729, 38.795], [20.7511, 38.7893], [20.7631, 38.7608], [20.7808, 38.7542], [20.7931, 38.7659], [20.8084, 38.7628], [20.8485, 38.7955], [20.8719, 38.7949], [20.8936, 38.7345], [20.8937, 38.7095], [20.9178, 38.6718], [20.9329, 38.6774], [20.9462, 38.6694], [20.9887, 38.6687], [20.9911, 38.6413], [21.023, 38.605], [21.0128, 38.5356], [21.0252, 38.5087], [21.0442, 38.503], [21.077, 38.5322], [21.096, 38.5316], [21.0855, 38.4958], [21.0993, 38.4874], [21.0797, 38.4894], [21.077, 38.4835], [21.0887, 38.4787], [21.0837, 38.4728], [21.1029, 38.4805], [21.0913, 38.4667], [21.1114, 38.4498], [21.1094, 38.4376], [21.1195, 38.4254], [21.1139, 38.4201], [21.1523, 38.414], [21.1229, 38.4153], [21.1264, 38.3866], [21.112, 38.3785], [21.1153, 38.3713], [21.1054, 38.3706], [21.1033, 38.3859], [21.098, 38.3839], [21.0904, 38.3697], [21.1082, 38.3588], [21.0957, 38.348], [21.0986, 38.3342], [21.1285, 38.338], [21.1353, 38.3332], [21.1328, 38.3219], [21.1595, 38.3083], [21.1552, 38.3014], [21.1422, 38.3121], [21.1434, 38.3038], [21.2504, 38.304], [21.2123, 38.3137], [21.2198, 38.3241], [21.2301, 38.3185], [21.2351, 38.3285], [21.2667, 38.3398], [21.26, 38.3568], [21.2681, 38.3624], [21.2892, 38.3601], [21.293, 38.3732], [21.3421, 38.3852], [21.335, 38.3887], [21.3404, 38.4284], [21.3571, 38.4373], [21.3438, 38.4382], [21.3339, 38.4559], [21.3011, 38.4797], [21.3027, 38.4895], [21.3189, 38.4996], [21.357, 38.461], [21.3694, 38.3994], [21.3969, 38.3865], [21.4118, 38.394], [21.4226, 38.3814], [21.4213, 38.3679], [21.4125, 38.3626], [21.4121, 38.3284], [21.4217, 38.3636], [21.4715, 38.3677], [21.4628, 38.363], [21.4665, 38.3528], [21.4864, 38.3561], [21.4768, 38.3423], [21.4868, 38.3278], [21.4876, 38.2993], [21.5086, 38.3017], [21.5096, 38.2929], [21.5317, 38.3139], [21.5771, 38.3288], [21.5884, 38.3438], [21.6148, 38.3415], [21.6354, 38.3552], [21.6808, 38.3456], [21.7025, 38.3503], [21.7666, 38.3278], [21.7778, 38.3597], [21.7921, 38.3746], [21.8319, 38.3925], [21.8517, 38.3745], [21.8772, 38.4034], [21.8861, 38.4431], [21.8798, 38.465], [21.9358, 38.4911], [21.9999, 38.5084], [21.9897, 38.5324], [21.9942, 38.5555], [22.0031, 38.5592], [22.0155, 38.5875], [21.9672, 38.6071], [21.9784, 38.6204], [22.0046, 38.6251], [22.0004, 38.6377], [21.9866, 38.6458], [21.9822, 38.6694], [21.9991, 38.6804], [21.9826, 38.6925], [21.9954, 38.696], [21.9914, 38.7102], [22.0255, 38.7261], [22.0238, 38.7397], [21.9952, 38.7742], [21.9721, 38.7694], [21.9463, 38.7834], [21.9444, 38.7425], [21.8988, 38.7238], [21.8758, 38.7368], [21.831, 38.7372], [21.8192, 38.6945], [21.7767, 38.6753], [21.7691, 38.675], [21.7736, 38.7034], [21.7625, 38.715], [21.6856, 38.7027], [21.6681, 38.7155], [21.6416, 38.7138], [21.5712, 38.7368], [21.5635, 38.7827], [21.5478, 38.8032], [21.5708, 38.8181], [21.5656, 38.832], [21.5743, 38.8487], [21.6197, 38.8507], [21.6215, 38.841], [21.6375, 38.8708], [21.5751, 38.8886], [21.5076, 38.8891], [21.4985, 38.9018], [21.4929, 38.94], [21.5111, 38.9662], [21.4651, 38.9865], [21.4287, 38.9924], [21.4011, 39.0128], [21.3942, 39.0082], [21.3752, 39.0172], [21.3773, 39.0324], [21.3943, 39.05], [21.4209, 39.0528], [21.4116, 39.0604], [21.4138, 39.0758], [21.4362, 39.1059], [21.4215, 39.11], [21.3958, 39.1376], [21.3969, 39.1645], [21.3735, 39.1747], [21.3235, 39.1606], [21.3242, 39.1456], [21.2711, 39.1173], [21.2343, 39.1316], [21.2022, 39.124], [21.1915, 39.1359], [21.178, 39.1256], [21.1184, 39.1207], [21.0944, 39.1005], [21.1091, 39.0863], [21.0872, 39.0804], [21.1086, 39.0461]]]]}}, {"type": "Feature", "properties": {"osm_type": "relation", "osm_id": 958517, "name": "Northern Aegean", "admin_level": "5", "iso": "GR-K", "parent_iso": "GR", "parent_osm_id": 192307, "kind": "subdivision_1"}, "geometry": {"type": "MultiPolygon", "coordinates": [[[[27.015, 35.4331], [26.9316, 35.4176], [26.9041, 35.4227], [26.8521, 35.3742], [26.8457, 35.3639], [26.8502, 35.3534], [26.8814, 35.3434], [26.9094, 35.3633], [26.9301, 35.3675], [26.9588, 35.3939], [26.9831, 35.3958], [26.9972, 35.4082], [27.0025, 35.4268], [27.015, 35.4331]]], [[[27.2149, 35.83], [27.19, 35.8044], [27.1654, 35.8027], [27.1614, 35.7251], [27.1441, 35.7138], [27.1238, 35.6843], [27.1212, 35.6451], [27.063, 35.5982], [27.0789, 35.5809], [27.0771, 35.5688], [27.1037, 35.5594], [27.1131, 35.5457], [27.1053, 35.512], [27.1196, 35.4845], [27.0829, 35.4462], [27.1411, 35.4179], [27.1452, 35.4086], [27.1353, 35.3981], [27.172, 35.4256], [27.1516, 35.4249], [27.174, 35.4618], [27.1888, 35.4635], [27.2013, 35.481], [27.2176, 35.4823], [27.23, 35.4739], [27.2424, 35.4945], [27.2342, 35.5065], [27.2011, 35.5143], [27.2, 35.5316], [27.2104, 35.5344], [27.2174, 35.5488], [27.2045, 35.5597], [27.2038, 35.5734], [27.1887, 35.577], [27.1741, 35.5997], [27.1508, 35.613], [27.1589, 35.6208], [27.1613, 35.6554], [27.1914, 35.6839], [27.2034, 35.7188], [27.2171, 35.7268], [27.2094, 35.7709], [27.2311, 35.7988], [27.233, 35.825], [27.2149, 35.83]]], [[[29.5754, 36.1241], [29.6068, 36.1459], [29.5897, 36.1509], [29.5985, 36.1654], [29.5872, 36.1651], [29.5714, 36.1496], [29.5627, 36.1265], [29.5754, 36.1241]]], [[[27.5993, 36.2478], [27.5185, 36.2376], [27.52, 36.2066], [27.5524, 36.2181], [27.5776, 36.2166], [27.5817, 36.2093], [27.6128, 36.2167], [27.6219, 36.2366], [27.5993, 36.2478]]], [[[27.7228, 36.2712], [27.723, 36.2829], [27.6993, 36.2828], [27.6847, 36.2607], [27.7086, 36.2694], [27.7009, 36.246], [27.7228, 36.2712]]], [[[27.2389, 35.8455], [27.231, 35.8753], [27.2408, 35.9013], [27.2277, 35.9058], [27.1926, 35.8557], [27.2112, 35.8372], [27.2362, 35.8331], [27.2389, 35.8455]]], [[[28.2285, 36.4456], [28.2201, 36.4581], [28.1872, 36.4212], [28.1178, 36.4194], [27.8967, 36.333], [27.8781, 36.323], [27.8416, 36.2808], [27.8063, 36.2708], [27.7885, 36.2388], [27.7885, 36.2193], [27.7682, 36.1893], [27.6846, 36.1552], [27.69, 36.145], [27.7014, 36.1464], [27.7124, 36.1361], [27.7106, 36.1148], [27.7502, 36.1054], [27.7582, 36.0959], [27.755, 36.0133], [27.7201, 35.9434], [27.7365, 35.9146], [27.7705, 35.8922], [27.7509, 35.8797], [27.7955, 35.889], [27.8252, 35.9139], [27.8632, 35.9297], [27.9538, 36.0453], [28.0136, 36.0743], [28.0367, 36.0774], [28.0871, 36.0544], [28.0749, 36.0732], [28.0903, 36.0819], [28.0948, 36.1041], [28.0677, 36.1082], [28.0746, 36.1394], [28.0998, 36.1768], [28.1391, 36.1888], [28.1469, 36.2259], [28.167, 36.2489], [28.1743, 36.2803], [28.2127, 36.325], [28.2073, 36.3491], [28.2466, 36.3864], [28.2287, 36.406], [28.241, 36.4361], [28.2373, 36.4489], [28.2357, 36.4413], [28.2285, 36.4456]]], [[[25.8394, 36.3569], [25.7671, 36.4046], [25.7274, 36.3668], [25.7386, 36.3522], [25.7704, 36.3441], [25.8211, 36.354], [25.8434, 36.3448], [25.8584, 36.3534], [25.8394, 36.3569]]], [[[25.3558, 36.441], [25.3435, 36.4594], [25.3366, 36.4564], [25.3241, 36.4318], [25.3267, 36.4192], [25.3507, 36.4112], [25.3464, 36.4331], [25.3558, 36.441]]], [[[25.396, 36.4127], [25.3905, 36.4151], [25.3867, 36.3984], [25.4054, 36.3964], [25.4109, 36.4089], [25.396, 36.4127]]], [[[25.4282, 36.461], [25.4225, 36.4731], [25.3901, 36.481], [25.3695, 36.4719], [25.3712, 36.4579], [25.4147, 36.4584], [25.4237, 36.4442], [25.4161, 36.429], [25.4254, 36.4236], [25.4344, 36.3918], [25.4145, 36.3621], [25.3786, 36.367], [25.3579, 36.3562], [25.421, 36.346], [25.4409, 36.3317], [25.487, 36.362], [25.4874, 36.4034], [25.4282, 36.461]]], [[[26.694, 36.34], [26.6822, 36.3592], [26.6553, 36.3562], [26.6678, 36.3302], [26.6852, 36.328], [26.694, 36.34]]], [[[27.3705, 36.4619], [27.3505, 36.4841], [27.3341, 36.4589], [27.3102, 36.4619], [27.3033, 36.4673], [27.3075, 36.4736], [27.2992, 36.4707], [27.2927, 36.4248], [27.3115, 36.4225], [27.3191, 36.4125], [27.3255, 36.4238], [27.3547, 36.4319], [27.3596, 36.4085], [27.3945, 36.3778], [27.4477, 36.4013], [27.4372, 36.4174], [27.4283, 36.4029], [27.4079, 36.4194], [27.3981, 36.4097], [27.3873, 36.4141], [27.3932, 36.4344], [27.3705, 36.4619]]], [[[24.2456, 36.7696], [24.2557, 36.7915], [24.2519, 36.8011], [24.2211, 36.801], [24.2248, 36.783], [24.2456, 36.7696]]], [[[24.4682, 36.7424], [24.4296, 36.7596], [24.428, 36.7737], [24.41, 36.7624], [24.4081, 36.7525], [24.428, 36.7249], [24.4533, 36.7258], [24.47, 36.7069], [24.445, 36.6893], [24.3961, 36.7049], [24.3904, 36.7133], [24.398, 36.7251], [24.3944, 36.7348], [24.3717, 36.7311], [24.3543, 36.75], [24.3439, 36.7437], [24.3367, 36.7043], [24.3269, 36.695], [24.332, 36.6786], [24.3178, 36.6626], [24.3217, 36.6461], [24.4126, 36.6558], [24.4442, 36.67], [24.4738, 36.6599], [24.5324, 36.6769], [24.5476, 36.7025], [24.5312, 36.7403], [24.5401, 36.7576], [24.5104, 36.7682], [24.5062, 36.7563], [24.4682, 36.7424]]], [[[24.5597, 36.8467], [24.5204, 36.8225], [24.5207, 36.7996], [24.5388, 36.7739], [24.5725, 36.7766], [24.5882, 36.7926], [24.5949, 36.8225], [24.6027, 36.8269], [24.5942, 36.8341], [24.5728, 36.8312], [24.5597, 36.8467]]], [[[24.9172, 36.6315], [24.862, 36.6664], [24.8413, 36.659], [24.859, 36.6339], [24.8936, 36.6272], [24.896, 36.6143], [24.916, 36.5971], [24.9485, 36.5925], [24.9567, 36.6029], [24.9475, 36.6135], [24.952, 36.6205], [24.9253, 36.6345], [24.9172, 36.6315]]], [[[25.1771, 36.6983], [25.1836, 36.7138], [25.1683, 36.7167], [25.1392, 36.7154], [25.1, 36.6962], [25.0595, 36.6366], [25.0782, 36.6354], [25.127, 36.6591], [25.1771, 36.6983]]], [[[27.1411, 36.9563], [27.1084, 36.9547], [27.1333, 36.9221], [27.1754, 36.9205], [27.1511, 36.9356], [27.1705, 36.9513], [27.1581, 36.9589], [27.1411, 36.9563]]], [[[26.909, 37.0175], [26.8836, 37.0126], [26.9159, 36.9998], [26.9175, 36.9908], [26.9238, 37.007], [26.909, 37.0175]]], [[[26.4764, 37.0125], [26.4274, 37.0106], [26.4245, 37.0047], [26.4391, 36.9985], [26.4182, 36.9924], [26.4454, 36.9937], [26.4613, 37.0028], [26.4968, 36.9977], [26.4764, 37.0125]]], [[[24.9982, 36.9697], [24.9894, 36.9736], [24.9808, 36.9645], [24.9917, 36.9494], [25.0302, 36.9619], [25.0177, 36.972], [24.9982, 36.9697]]], [[[25.5991, 36.9295], [25.6204, 36.936], [25.6251, 36.9448], [25.6114, 36.9534], [25.5981, 36.9507], [25.5895, 36.9387], [25.5991, 36.9295]]], [[[25.0716, 36.9389], [25.0594, 36.9711], [25.0737, 36.9835], [25.0803, 37.0346], [25.0908, 37.0435], [25.0779, 37.0501], [25.0198, 37.0052], [25.0212, 36.9799], [25.0716, 36.9389]]], [[[26.9056, 37.0714], [26.8898, 37.0804], [26.8804, 37.0741], [26.9146, 37.0547], [26.9135, 37.0369], [26.9407, 37.0431], [26.9673, 37.0159], [26.9395, 37.0197], [26.9393, 37.0031], [26.925, 36.9854], [26.9297, 36.9673], [26.9091, 36.9518], [26.9297, 36.9466], [26.9397, 36.9292], [26.9601, 36.9255], [26.9853, 36.9251], [26.9866, 36.9514], [27.0533, 36.9455], [27.0519, 36.9521], [27.0299, 36.9583], [27.0452, 36.9679], [27.0288, 36.9741], [27.0393, 36.9777], [27.0484, 36.9942], [27.0364, 37.0135], [27.0082, 37.0116], [26.9901, 37.0224], [26.9735, 37.0388], [26.9927, 37.0407], [26.9561, 37.0634], [26.9056, 37.0714]]], [[[26.3067, 36.9903], [26.2723, 36.985], [26.2693, 36.9744], [26.2885, 36.9702], [26.31, 36.9827], [26.3067, 36.9903]]], [[[25.478, 36.8288], [25.4815, 36.8442], [25.473, 36.8714], [25.415, 36.8326], [25.422, 36.823], [25.4519, 36.8189], [25.478, 36.8288]]], [[[24.6212, 36.7897], [24.6051, 36.7825], [24.6152, 36.7551], [24.6438, 36.7432], [24.6658, 36.7529], [24.6574, 36.7781], [24.6212, 36.7897]]], [[[27.2974, 36.8924], [27.2863, 36.8966], [27.2799, 36.9167], [27.2323, 36.8939], [27.1659, 36.8885], [27.0756, 36.8502], [27.0298, 36.8125], [26.995, 36.7716], [26.9636, 36.7748], [26.925, 36.7626], [26.9179, 36.7495], [26.9244, 36.7052], [26.9426, 36.686], [26.9737, 36.6727], [26.967, 36.706], [26.9841, 36.7167], [26.9707, 36.7377], [26.9814, 36.7508], [27.0445, 36.7679], [27.1096, 36.7577], [27.171, 36.8075], [27.3511, 36.8581], [27.3515, 36.8745], [27.3417, 36.8884], [27.3235, 36.8849], [27.2974, 36.8924]]], [[[25.5324, 36.8715], [25.5207, 36.8915], [25.5048, 36.883], [25.5005, 36.871], [25.5381, 36.8523], [25.5434, 36.8576], [25.5324, 36.8715]]], [[[24.6397, 37.0418], [24.657, 36.9994], [24.6787, 36.9931], [24.6637, 36.9889], [24.6586, 36.9789], [24.6796, 36.9554], [24.679, 36.939], [24.6922, 36.9309], [24.6879, 36.9225], [24.698, 36.9031], [24.7122, 36.9057], [24.7262, 36.9293], [24.7619, 36.9456], [24.7637, 36.9561], [24.7048, 37.0211], [24.6397, 37.0418]]], [[[26.019, 36.9333], [26.0065, 36.9388], [25.9956, 36.9296], [25.9701, 36.9269], [25.9548, 36.9106], [25.9754, 36.9077], [25.9757, 36.9008], [25.908, 36.8669], [25.8447, 36.8513], [25.8412, 36.8363], [25.8662, 36.8303], [25.8481, 36.8281], [25.8532, 36.8168], [25.8291, 36.8081], [25.7823, 36.8113], [25.7563, 36.7906], [25.7404, 36.7927], [25.7745, 36.7687], [25.8055, 36.769], [25.8268, 36.7858], [25.8708, 36.7904], [25.9047, 36.8162], [25.9103, 36.8322], [25.9725, 36.8783], [26.0524, 36.9001], [26.0823, 36.8931], [26.0884, 36.8963], [26.0444, 36.9138], [26.019, 36.9333]]], [[[25.6744, 36.897], [25.6468, 36.9094], [25.6104, 36.8935], [25.6063, 36.8807], [25.6784, 36.8746], [25.6828, 36.8854], [25.6744, 36.897]]], [[[25.5917, 36.9134], [25.5958, 36.9259], [25.5523, 36.9006], [25.5682, 36.8997], [25.5917, 36.9134]]], [[[26.3814, 36.6443], [26.3734, 36.6354], [26.3813, 36.6142], [26.4115, 36.6206], [26.3895, 36.6106], [26.399, 36.5843], [26.3801, 36.5905], [26.3629, 36.5847], [26.3557, 36.571], [26.3415, 36.5701], [26.338, 36.5811], [26.3058, 36.5952], [26.2848, 36.5974], [26.2796, 36.5864], [26.2774, 36.5982], [26.2684, 36.5987], [26.2636, 36.5814], [26.2738, 36.5621], [26.268, 36.5545], [26.2793, 36.5486], [26.2928, 36.5204], [26.3215, 36.5074], [26.3383, 36.5147], [26.3631, 36.5115], [26.3575, 36.5277], [26.3402, 36.5405], [26.3585, 36.5436], [26.3543, 36.5615], [26.3645, 36.5753], [26.4141, 36.5734], [26.4459, 36.5904], [26.4544, 36.5824], [26.447, 36.5799], [26.4702, 36.5827], [26.4537, 36.6063], [26.3935, 36.644], [26.3814, 36.6443]]], [[[27.1704, 36.6189], [27.1275, 36.6079], [27.127, 36.571], [27.1722, 36.5578], [27.1945, 36.5604], [27.2062, 36.5704], [27.214, 36.5851], [27.2001, 36.6047], [27.1879, 36.6201], [27.1704, 36.6189]]], [[[27.8151, 36.6239], [27.837, 36.6404], [27.8253, 36.6423], [27.7911, 36.6236], [27.7991, 36.6228], [27.7976, 36.6127], [27.7841, 36.6057], [27.7699, 36.6108], [27.77, 36.5872], [27.813, 36.5898], [27.8124, 36.5798], [27.7958, 36.5657], [27.8219, 36.5706], [27.8493, 36.56], [27.8333, 36.5479], [27.8377, 36.5373], [27.8772, 36.553], [27.8628, 36.5661], [27.8775, 36.5772], [27.8593, 36.5809], [27.8781, 36.5909], [27.8726, 36.6312], [27.839, 36.616], [27.8381, 36.6227], [27.8151, 36.6239]]], [[[27.8608, 36.6676], [27.834, 36.6583], [27.8327, 36.6469], [27.8592, 36.6474], [27.8667, 36.6544], [27.8566, 36.6591], [27.8608, 36.6676]]], [[[27.1437, 36.6683], [27.1315, 36.6817], [27.1211, 36.6673], [27.1053, 36.6666], [27.1038, 36.6564], [27.1115, 36.6448], [27.1252, 36.6676], [27.1437, 36.6683]]], [[[25.3113, 36.7889], [25.2712, 36.7831], [25.2598, 36.7659], [25.2529, 36.7228], [25.2725, 36.7264], [25.268, 36.7148], [25.2935, 36.715], [25.2939, 36.7027], [25.3567, 36.6424], [25.3671, 36.6584], [25.3855, 36.6518], [25.3833, 36.6976], [25.4029, 36.7138], [25.3459, 36.7517], [25.3275, 36.7548], [25.3338, 36.7665], [25.3113, 36.7889]]], [[[27.096, 37.2761], [27.1033, 37.2807], [27.0877, 37.2904], [27.0995, 37.3022], [27.09, 37.3073], [27.0805, 37.2819], [27.096, 37.2761]]], [[[26.5748, 37.3674], [26.5752, 37.377], [26.5662, 37.3808], [26.5509, 37.3661], [26.532, 37.3751], [26.542, 37.335], [26.5308, 37.3286], [26.5266, 37.2914], [26.5552, 37.2911], [26.5423, 37.277], [26.5624, 37.271], [26.5729, 37.2808], [26.5609, 37.2875], [26.5619, 37.2967], [26.5737, 37.3022], [26.5436, 37.3265], [26.5615, 37.3266], [26.5652, 37.348], [26.6143, 37.3398], [26.6002, 37.347], [26.5934, 37.3634], [26.5748, 37.3674]]], [[[26.7647, 37.3035], [26.7211, 37.3284], [26.7112, 37.3123], [26.7215, 37.3003], [26.7675, 37.2957], [26.7593, 37.2901], [26.7632, 37.2839], [26.7805, 37.2776], [26.7911, 37.3015], [26.7829, 37.3087], [26.7647, 37.3035]]], [[[24.1061, 37.6451], [24.1366, 37.7128], [24.151, 37.7203], [24.1428, 37.7569], [24.1284, 37.7408], [24.1046, 37.6796], [24.1061, 37.6451]]], [[[26.0082, 38.6045], [25.94, 38.5882], [25.8904, 38.5887], [25.8572, 38.5804], [25.8309, 38.5404], [25.8611, 38.4947], [25.8931, 38.4753], [25.9426, 38.4598], [25.9571, 38.4418], [25.9539, 38.4196], [25.9629, 38.4162], [25.9649, 38.4023], [25.9886, 38.3916], [25.9959, 38.35], [25.9951, 38.3415], [25.974, 38.3307], [25.96, 38.2953], [25.9307, 38.3005], [25.9286, 38.2867], [25.9241, 38.3016], [25.9181, 38.2999], [25.8755, 38.2697], [25.8641, 38.2441], [25.885, 38.2445], [25.8896, 38.2203], [25.9139, 38.222], [25.9101, 38.2152], [25.9228, 38.1978], [25.9485, 38.1935], [25.9709, 38.1685], [26.0108, 38.15], [26.0218, 38.1571], [26.0226, 38.1789], [26.0373, 38.1985], [26.0995, 38.2104], [26.116, 38.2328], [26.1035, 38.2458], [26.103, 38.2724], [26.1587, 38.3099], [26.1563, 38.3313], [26.142, 38.3407], [26.1337, 38.4038], [26.1526, 38.4642], [26.1401, 38.4639], [26.1431, 38.4773], [26.1234, 38.4783], [26.1284, 38.4882], [26.1531, 38.4967], [26.151, 38.5231], [26.1621, 38.5373], [26.1584, 38.5525], [26.1377, 38.5656], [26.1279, 38.5483], [26.1169, 38.5558], [26.1148, 38.5408], [26.1053, 38.5566], [26.0858, 38.5567], [26.0632, 38.5943], [26.0423, 38.5891], [26.0082, 38.6045]]], [[[26.1905, 38.5419], [26.1826, 38.5446], [26.1884, 38.5357], [26.2081, 38.5162], [26.25, 38.505], [26.2727, 38.5207], [26.1905, 38.5419]]], [[[25.5193, 38.5321], [25.528, 38.5502], [25.5105, 38.5529], [25.4975, 38.5346], [25.5193, 38.5321]]], [[[25.5706, 38.6097], [25.5555, 38.5972], [25.5328, 38.5984], [25.5655, 38.5639], [25.56, 38.5403], [25.5702, 38.5446], [25.6097, 38.5338], [25.6199, 38.5901], [25.5928, 38.6069], [25.5706, 38.6097]]], [[[26.4579, 37.5826], [26.4509, 37.5979], [26.4364, 37.6027], [26.4001, 37.5785], [26.4365, 37.5776], [26.4378, 37.5672], [26.4497, 37.5636], [26.4579, 37.5826]]], [[[26.528, 37.6257], [26.5343, 37.6415], [26.5101, 37.656], [26.4979, 37.6304], [26.5156, 37.6228], [26.5108, 37.6134], [26.5166, 37.5969], [26.4961, 37.5824], [26.4838, 37.6058], [26.4734, 37.6023], [26.4807, 37.5585], [26.5097, 37.5277], [26.5143, 37.5474], [26.4983, 37.5754], [26.5329, 37.5989], [26.5386, 37.6252], [26.528, 37.6257]]], [[[25.0293, 37.6758], [25.0056, 37.6772], [24.9988, 37.6652], [24.9825, 37.6783], [24.9741, 37.6625], [25.0578, 37.5976], [25.1025, 37.579], [25.1113, 37.5681], [25.1073, 37.5544], [25.1424, 37.5509], [25.1892, 37.5245], [25.2338, 37.5394], [25.2317, 37.5571], [25.2536, 37.5873], [25.2511, 37.6104], [25.1894, 37.6397], [25.1494, 37.6426], [25.1518, 37.6335], [25.1448, 37.6321], [25.1137, 37.6538], [25.0567, 37.6505], [25.0549, 37.6742], [25.043, 37.6773], [25.034, 37.6704], [25.0293, 37.6758]]], [[[24.3921, 37.6719], [24.3497, 37.6847], [24.3257, 37.678], [24.3132, 37.666], [24.3277, 37.6656], [24.2944, 37.6584], [24.2674, 37.6065], [24.2649, 37.5842], [24.2794, 37.5733], [24.2718, 37.5449], [24.2757, 37.5224], [24.3019, 37.5299], [24.3875, 37.6081], [24.4103, 37.652], [24.3921, 37.6719]]], [[[24.7434, 37.6307], [24.7089, 37.6305], [24.6846, 37.6066], [24.6498, 37.606], [24.7444, 37.5912], [24.736, 37.6017], [24.7434, 37.6307]]], [[[26.7521, 37.8123], [26.6753, 37.7959], [26.6436, 37.7736], [26.5962, 37.7618], [26.5691, 37.7342], [26.5904, 37.6763], [26.6202, 37.6851], [26.6418, 37.7024], [26.7218, 37.7096], [26.7523, 37.6961], [26.7936, 37.6427], [26.8684, 37.6372], [26.8811, 37.6443], [26.8873, 37.67], [26.9104, 37.6827], [26.9595, 37.6907], [26.9831, 37.7073], [27.0631, 37.7094], [27.0703, 37.717], [27.063, 37.7291], [27.0366, 37.7289], [27.0417, 37.7376], [27.0264, 37.7588], [27.0661, 37.7796], [26.9993, 37.7775], [26.9872, 37.7849], [26.9912, 37.7963], [26.9802, 37.7927], [26.9809, 37.7795], [26.9536, 37.788], [26.9488, 37.7833], [26.9766, 37.7553], [26.9657, 37.7478], [26.923, 37.7733], [26.8817, 37.779], [26.848, 37.8062], [26.7521, 37.8123]]], [[[24.837, 37.9251], [24.8266, 37.9386], [24.832, 37.9594], [24.7949, 37.9693], [24.7892, 37.9996], [24.7393, 37.9894], [24.6929, 37.966], [24.6851, 37.9492], [24.6926, 37.9416], [24.6909, 37.926], [24.6799, 37.9249], [24.6932, 37.9203], [24.7102, 37.8916], [24.7094, 37.8714], [24.7319, 37.8877], [24.7664, 37.8755], [24.7994, 37.8239], [24.8261, 37.8131], [24.8254, 37.7969], [24.8431, 37.7937], [24.8517, 37.7768], [24.87, 37.767], [24.8869, 37.7671], [24.9279, 37.7], [24.9608, 37.6826], [24.9563, 37.7034], [24.9817, 37.731], [25.0004, 37.7697], [24.9519, 37.7714], [24.9807, 37.8133], [24.9525, 37.8391], [24.9347, 37.8437], [24.9568, 37.8729], [24.9549, 37.8968], [24.8765, 37.9015], [24.8434, 37.9111], [24.837, 37.9251]]], [[[26.3511, 39.3797], [26.342, 39.3896], [26.3147, 39.3748], [26.227, 39.3835], [26.1823, 39.3765], [26.1685, 39.369], [26.1752, 39.3613], [26.1698, 39.3468], [26.1815, 39.337], [26.1704, 39.325], [26.1152, 39.3057], [26.0993, 39.3135], [26.0951, 39.3046], [26.0733, 39.2962], [26.0095, 39.2888], [25.9999, 39.2796], [25.9779, 39.2788], [25.9699, 39.2861], [25.9504, 39.2754], [25.9238, 39.2804], [25.9208, 39.2941], [25.9118, 39.2928], [25.8794, 39.2764], [25.8591, 39.2534], [25.8614, 39.2413], [25.8491, 39.2371], [25.8454, 39.2292], [25.8568, 39.2205], [25.8531, 39.1824], [25.8314, 39.1884], [25.8438, 39.1752], [25.8671, 39.1675], [25.8744, 39.1517], [25.9346, 39.1321], [25.954, 39.1056], [25.9931, 39.1088], [26.0689, 39.0875], [26.0836, 39.0894], [26.0972, 39.112], [26.1126, 39.1047], [26.1234, 39.1384], [26.1557, 39.1593], [26.156, 39.1827], [26.1675, 39.1958], [26.2059, 39.2066], [26.2768, 39.1984], [26.2957, 39.1824], [26.2818, 39.1565], [26.2509, 39.1504], [26.2222, 39.1307], [26.1887, 39.1262], [26.162, 39.0971], [26.1339, 39.0865], [26.1105, 39.093], [26.0844, 39.0791], [26.0845, 39.0729], [26.1121, 39.0676], [26.1419, 39.0299], [26.1703, 39.0091], [26.1963, 39.0192], [26.2364, 39.0154], [26.2863, 39.0013], [26.3272, 38.9767], [26.3653, 38.976], [26.4039, 38.9642], [26.49, 38.9771], [26.5178, 38.9711], [26.5418, 38.9891], [26.5313, 39.0211], [26.491, 39.0606], [26.4505, 39.0818], [26.4443, 39.107], [26.4875, 39.1191], [26.5289, 39.0824], [26.5307, 39.0673], [26.513, 39.0576], [26.5117, 39.0494], [26.5317, 39.0448], [26.5233, 39.0361], [26.5398, 39.0114], [26.5647, 39.0188], [26.6074, 39.0089], [26.6156, 39.0243], [26.6106, 39.0468], [26.5938, 39.0697], [26.5572, 39.0961], [26.5559, 39.1053], [26.5671, 39.1118], [26.5545, 39.1131], [26.5454, 39.1337], [26.5299, 39.1412], [26.5378, 39.1694], [26.4995, 39.1811], [26.4753, 39.2244], [26.382, 39.2691], [26.38, 39.2829], [26.4245, 39.334], [26.3546, 39.3491], [26.3503, 39.3561], [26.3669, 39.3782], [26.3511, 39.3797]]], [[[24.9884, 39.4643], [25.0067, 39.4899], [25.0244, 39.4945], [25.0574, 39.5304], [25.003, 39.5628], [24.9774, 39.5325], [24.9708, 39.5096], [24.9739, 39.4824], [24.9884, 39.4643]]], [[[25.437, 40.0053], [25.4346, 40.0176], [25.4459, 40.0363], [25.4005, 40.0052], [25.3726, 40.0205], [25.365, 40.015], [25.3706, 40.0012], [25.3416, 39.9801], [25.3462, 39.9654], [25.3159, 39.9656], [25.2907, 39.9398], [25.2791, 39.9418], [25.2751, 39.9484], [25.2832, 39.9552], [25.2641, 39.9684], [25.2615, 39.975], [25.2725, 39.9869], [25.2475, 39.9894], [25.2339, 40.0056], [25.1548, 39.9889], [25.1407, 40.0074], [25.0934, 39.9907], [25.0387, 39.9889], [25.0344, 39.9842], [25.0445, 39.9835], [25.0489, 39.9736], [25.0466, 39.9341], [25.0729, 39.9178], [25.0511, 39.8606], [25.0666, 39.8539], [25.0467, 39.8329], [25.0711, 39.841], [25.0895, 39.8376], [25.1177, 39.8516], [25.1273, 39.8484], [25.1283, 39.8341], [25.1367, 39.8338], [25.1581, 39.8544], [25.1696, 39.8551], [25.1753, 39.8511], [25.1618, 39.8453], [25.1463, 39.8102], [25.1635, 39.7986], [25.2261, 39.7965], [25.2045, 39.8358], [25.1797, 39.8493], [25.2026, 39.8768], [25.2315, 39.8793], [25.1904, 39.8839], [25.2286, 39.9072], [25.2553, 39.9123], [25.2785, 39.8934], [25.2618, 39.8773], [25.2691, 39.8665], [25.2424, 39.8593], [25.2356, 39.8499], [25.2497, 39.8491], [25.2642, 39.8334], [25.294, 39.8225], [25.2917, 39.8058], [25.3034, 39.7934], [25.3547, 39.7824], [25.3504, 39.7999], [25.3722, 39.8109], [25.3448, 39.8366], [25.3419, 39.851], [25.3557, 39.8577], [25.3438, 39.8647], [25.3406, 39.8785], [25.3692, 39.8892], [25.3587, 39.8895], [25.3547, 39.9041], [25.3813, 39.9152], [25.3889, 39.9449], [25.4145, 39.9689], [25.4414, 39.979], [25.437, 40.0053]]], [[[26.7424, 37.3861], [26.718, 37.4126], [26.7102, 37.4016], [26.7191, 37.3898], [26.7464, 37.3676], [26.7578, 37.3762], [26.7424, 37.3861]]], [[[24.4314, 37.4392], [24.4255, 37.4422], [24.4347, 37.4832], [24.4005, 37.4629], [24.3647, 37.4214], [24.3707, 37.4111], [24.3926, 37.4132], [24.3908, 37.383], [24.3999, 37.3666], [24.3783, 37.3507], [24.3698, 37.3322], [24.3738, 37.3109], [24.3638, 37.3085], [24.3648, 37.3002], [24.393, 37.3051], [24.431, 37.3461], [24.4411, 37.3478], [24.4588, 37.3778], [24.4556, 37.3937], [24.4689, 37.3965], [24.4741, 37.3902], [24.4841, 37.3961], [24.4682, 37.4277], [24.4422, 37.4303], [24.4395, 37.4405], [24.4314, 37.4392]]], [[[25.2683, 37.3731], [25.2782, 37.3898], [25.2692, 37.412], [25.2683, 37.3731]]], [[[25.2295, 37.4277], [25.221, 37.44], [25.2174, 37.4254], [25.199, 37.4321], [25.213, 37.4074], [25.2337, 37.3975], [25.2194, 37.3709], [25.2387, 37.3823], [25.2546, 37.3786], [25.2567, 37.3976], [25.2417, 37.3927], [25.2333, 37.3992], [25.2394, 37.418], [25.2295, 37.4277]]], [[[24.9463, 37.4465], [24.9471, 37.4828], [24.9308, 37.5013], [24.8785, 37.5121], [24.8828, 37.4996], [24.9015, 37.4884], [24.8946, 37.4807], [24.8995, 37.4571], [24.8939, 37.4455], [24.8576, 37.4121], [24.8568, 37.3986], [24.8848, 37.3918], [24.8766, 37.3629], [24.9428, 37.3904], [24.9486, 37.3835], [24.9729, 37.401], [24.9529, 37.4315], [24.9359, 37.432], [24.9463, 37.4465]]], [[[25.3604, 37.4953], [25.3454, 37.4998], [25.3139, 37.4916], [25.3087, 37.4835], [25.3292, 37.4544], [25.3243, 37.4356], [25.3062, 37.4394], [25.3021, 37.4336], [25.313, 37.419], [25.3059, 37.4026], [25.3232, 37.4227], [25.335, 37.4098], [25.3375, 37.4155], [25.3656, 37.4088], [25.3882, 37.4225], [25.3998, 37.4135], [25.4062, 37.4333], [25.4593, 37.4453], [25.4615, 37.4745], [25.4332, 37.4712], [25.4301, 37.4821], [25.4142, 37.482], [25.3939, 37.4963], [25.3796, 37.4916], [25.384, 37.469], [25.3741, 37.4635], [25.3621, 37.4771], [25.3604, 37.4953]]], [[[26.9872, 37.4723], [26.9257, 37.4752], [26.9436, 37.4634], [26.9521, 37.4443], [26.9658, 37.4566], [26.9776, 37.4443], [26.9907, 37.4588], [27.0064, 37.4544], [26.9872, 37.4723]]], [[[26.3625, 37.6863], [26.2978, 37.6806], [26.2006, 37.6278], [26.143, 37.6373], [26.0763, 37.6333], [26.0047, 37.5708], [25.975, 37.5167], [25.9902, 37.5084], [26.0188, 37.5166], [26.0582, 37.5149], [26.0841, 37.5285], [26.1088, 37.554], [26.2233, 37.5716], [26.2935, 37.6107], [26.3625, 37.6863]]], [[[25.2311, 37.1503], [25.1593, 37.1218], [25.1319, 37.0958], [25.1539, 37.0949], [25.1556, 37.0887], [25.1073, 37.0635], [25.0992, 37.0174], [25.1172, 36.9927], [25.1316, 36.9982], [25.1441, 36.9855], [25.1809, 36.9747], [25.2514, 37.0159], [25.2513, 37.0276], [25.278, 37.061], [25.2557, 37.0801], [25.269, 37.0934], [25.2648, 37.1007], [25.2788, 37.1197], [25.2777, 37.1325], [25.2931, 37.1439], [25.2641, 37.1518], [25.2573, 37.1407], [25.2697, 37.1389], [25.2657, 37.1288], [25.2257, 37.1195], [25.212, 37.128], [25.2217, 37.1317], [25.2265, 37.1466], [25.2345, 37.1412], [25.2311, 37.1503]]], [[[25.5892, 37.1384], [25.5767, 37.1634], [25.5332, 37.2031], [25.4891, 37.1844], [25.4531, 37.1437], [25.4109, 37.1337], [25.3776, 37.1076], [25.3664, 37.0865], [25.3417, 37.0907], [25.3388, 37.0807], [25.3781, 37.0395], [25.3698, 37.0244], [25.391, 36.994], [25.385, 36.9765], [25.4251, 36.9658], [25.4223, 36.9368], [25.4344, 36.9206], [25.4506, 36.919], [25.5048, 36.9516], [25.5425, 36.9537], [25.555, 36.9655], [25.5781, 37.0225], [25.5848, 37.0749], [25.6056, 37.0848], [25.5912, 37.0885], [25.5987, 37.1089], [25.5892, 37.1384]]], [[[26.8112, 37.1991], [26.7951, 37.201], [26.8091, 37.1914], [26.8014, 37.1872], [26.781, 37.1956], [26.7676, 37.1733], [26.7908, 37.1638], [26.7991, 37.152], [26.8274, 37.1526], [26.8283, 37.1449], [26.8086, 37.1325], [26.8231, 37.1127], [26.8584, 37.1305], [26.852, 37.1159], [26.8313, 37.1112], [26.842, 37.0995], [26.8748, 37.0983], [26.8701, 37.1092], [26.8878, 37.1041], [26.8911, 37.1148], [26.8595, 37.1446], [26.873, 37.1571], [26.8362, 37.1612], [26.8519, 37.1713], [26.8544, 37.186], [26.816, 37.1907], [26.8112, 37.1991]]], [[[24.499, 37.206], [24.4906, 37.2095], [24.4746, 37.2036], [24.4735, 37.1958], [24.4454, 37.1922], [24.4291, 37.169], [24.436, 37.1623], [24.4218, 37.1618], [24.4307, 37.1402], [24.4161, 37.1346], [24.4136, 37.1218], [24.4603, 37.1384], [24.4573, 37.1238], [24.4925, 37.1244], [24.4834, 37.111], [24.5023, 37.1108], [24.5155, 37.1196], [24.5167, 37.146], [24.5342, 37.1307], [24.5333, 37.1526], [24.5229, 37.1614], [24.5343, 37.1793], [24.5329, 37.1931], [24.5152, 37.2056], [24.499, 37.206]]], [[[25.8286, 37.1267], [25.8304, 37.1366], [25.7964, 37.1141], [25.7794, 37.1233], [25.7971, 37.0951], [25.8257, 37.0881], [25.8348, 37.0931], [25.836, 37.1052], [25.8187, 37.1254], [25.8286, 37.1267]]]]}}, {"type": "Feature", "properties": {"osm_type": "relation", "osm_id": 910915, "name": "Central Greece", "admin_level": "5", "iso": "GR-H", "parent_iso": "GR", "parent_osm_id": 192307, "kind": "subdivision_1"}, "geometry": {"type": "MultiPolygon", "coordinates": [[[[24.279, 37.9824], [24.2827, 38.0027], [24.2564, 38.024], [24.2283, 37.985], [24.2466, 37.9754], [24.279, 37.9824]]], [[[24.2861, 38.0377], [24.2777, 38.0184], [24.2935, 38.0105], [24.2956, 38.0343], [24.2861, 38.0377]]], [[[24.6273, 38.7566], [24.603, 38.7649], [24.5946, 38.7535], [24.623, 38.7469], [24.6273, 38.7566]]], [[[24.3597, 38.8286], [24.3725, 38.8401], [24.3532, 38.85], [24.3427, 38.8331], [24.3597, 38.8286]]], [[[24.4913, 38.7981], [24.5066, 38.8386], [24.4786, 38.8087], [24.4913, 38.7981]]], [[[24.5764, 38.8841], [24.5707, 38.9091], [24.5809, 38.9251], [24.4861, 38.9808], [24.4489, 38.9491], [24.4686, 38.9161], [24.4547, 38.9094], [24.4533, 38.8957], [24.4326, 38.8764], [24.459, 38.8807], [24.466, 38.8672], [24.4774, 38.8744], [24.4864, 38.8543], [24.5097, 38.8575], [24.5059, 38.8423], [24.5337, 38.8501], [24.5421, 38.8347], [24.555, 38.8433], [24.5667, 38.8388], [24.5677, 38.8073], [24.5304, 38.7956], [24.5316, 38.785], [24.5472, 38.7815], [24.5637, 38.7623], [24.5702, 38.7606], [24.5696, 38.7832], [24.5926, 38.7901], [24.6205, 38.7638], [24.6328, 38.7743], [24.6503, 38.7672], [24.6822, 38.7758], [24.6755, 38.7851], [24.6814, 38.8066], [24.6658, 38.8239], [24.6043, 38.8557], [24.5958, 38.8682], [24.5703, 38.8725], [24.5764, 38.8841]]], [[[24.0669, 39.3426], [24.0759, 39.3649], [24.0616, 39.3638], [24.0415, 39.3226], [24.0662, 39.3159], [24.0482, 39.3044], [24.0677, 39.2934], [24.0948, 39.3106], [24.0987, 39.3493], [24.0794, 39.3551], [24.0669, 39.3426]]], [[[24.332, 39.3689], [24.3217, 39.3665], [24.3121, 39.3376], [24.3166, 39.3328], [24.3259, 39.3349], [24.332, 39.3689]]], [[[24.1615, 39.3654], [24.185, 39.3978], [24.1774, 39.4062], [24.1762, 39.431], [24.1591, 39.4029], [24.1563, 39.3827], [24.1365, 39.3704], [24.1615, 39.3654]]], [[[23.6904, 38.3403], [23.6778, 38.3397], [23.6463, 38.3593], [23.6309, 38.3772], [23.6297, 38.409], [23.5967, 38.4188], [23.5979, 38.4418], [23.57, 38.4466], [23.5759, 38.4626], [23.5892, 38.4623], [23.5886, 38.4757], [23.5509, 38.5075], [23.5402, 38.5103], [23.5133, 38.4799], [23.4776, 38.4861], [23.4634, 38.4999], [23.4116, 38.4984], [23.4039, 38.5099], [23.3683, 38.5107], [23.3313, 38.4979], [23.3269, 38.5058], [23.34, 38.5192], [23.3779, 38.5271], [23.3545, 38.5375], [23.3346, 38.5338], [23.3154, 38.57], [23.2865, 38.5624], [23.3065, 38.5887], [23.3405, 38.605], [23.3211, 38.6382], [23.2853, 38.6492], [23.2545, 38.6436], [23.189, 38.6787], [23.1665, 38.673], [23.192, 38.6569], [23.1898, 38.6493], [23.1433, 38.6462], [23.131, 38.6329], [23.1077, 38.6248], [23.1028, 38.6333], [23.1233, 38.6449], [23.1019, 38.6476], [23.1082, 38.6377], [23.0992, 38.6342], [23.0857, 38.6414], [23.0858, 38.6533], [23.0974, 38.6444], [23.0657, 38.679], [23.0645, 38.7228], [23.0346, 38.7564], [22.9674, 38.7453], [22.9026, 38.776], [22.8662, 38.7544], [22.8247, 38.7879], [22.7666, 38.7806], [22.7262, 38.8222], [22.7089, 38.8295], [22.6978, 38.8525], [22.6589, 38.8329], [22.6308, 38.8376], [22.6061, 38.8212], [22.5949, 38.8429], [22.5879, 38.8258], [22.5768, 38.8242], [22.5698, 38.8383], [22.5543, 38.8336], [22.5526, 38.843], [22.579, 38.8668], [22.5275, 38.8589], [22.5582, 38.8735], [22.5468, 38.8819], [22.5758, 38.8894], [22.6101, 38.9111], [22.6469, 38.904], [22.6725, 38.8822], [22.6948, 38.8774], [22.7097, 38.8881], [22.7244, 38.8754], [22.7494, 38.8701], [22.8314, 38.8891], [22.8404, 38.8958], [22.838, 38.9109], [22.8566, 38.9269], [22.9129, 38.9208], [22.9399, 38.9282], [22.9324, 38.9385], [22.9365, 38.9447], [22.9729, 38.9525], [22.9905, 38.9442], [22.9968, 38.9692], [23.0105, 38.9761], [23.0266, 39.0155], [23.0608, 39.0231], [23.0642, 39.0382], [23.0366, 39.0377], [22.9613, 39.0072], [22.9616, 39.0334], [22.9911, 39.0365], [22.9954, 39.0682], [22.9764, 39.0883], [22.9797, 39.1009], [22.9364, 39.1287], [22.9412, 39.1134], [22.9226, 39.1134], [22.907, 39.1633], [22.8882, 39.1694], [22.8905, 39.1892], [22.8712, 39.1838], [22.8771, 39.1689], [22.8648, 39.154], [22.8503, 39.1546], [22.8228, 39.2072], [22.8147, 39.2476], [22.8211, 39.2766], [22.9443, 39.3002], [22.9251, 39.32], [22.9435, 39.3428], [22.9283, 39.3489], [22.9316, 39.3599], [22.9698, 39.3478], [22.9935, 39.3504], [23.0131, 39.335], [23.02, 39.3164], [23.0755, 39.3153], [23.1213, 39.3048], [23.1634, 39.2729], [23.1815, 39.249], [23.1781, 39.2339], [23.1918, 39.2061], [23.2177, 39.1884], [23.222, 39.1761], [23.2123, 39.1478], [23.2005, 39.1453], [23.1905, 39.158], [23.1778, 39.1558], [23.1774, 39.1276], [23.1507, 39.1322], [23.1559, 39.1192], [23.1417, 39.1214], [23.1077, 39.1], [23.0963, 39.0975], [23.0955, 39.1032], [23.1166, 39.129], [23.1063, 39.1532], [23.0693, 39.1399], [23.0646, 39.1162], [23.0504, 39.0959], [23.0701, 39.0919], [23.0725, 39.0851], [23.1221, 39.0841], [23.1317, 39.0941], [23.2181, 39.1073], [23.2253, 39.1119], [23.2055, 39.1174], [23.2124, 39.1266], [23.2479, 39.1264], [23.2729, 39.1409], [23.3006, 39.1402], [23.3242, 39.1519], [23.3513, 39.1864], [23.3174, 39.2458], [23.2831, 39.2753], [23.2741, 39.3148], [23.2545, 39.3357], [23.207, 39.3645], [23.1928, 39.3947], [23.1151, 39.4622], [23.0956, 39.4993], [23.0484, 39.5279], [23.0188, 39.5291], [23.0053, 39.5497], [22.9816, 39.5522], [22.9279, 39.5845], [22.9042, 39.6251], [22.8518, 39.7984], [22.8134, 39.8159], [22.7704, 39.8542], [22.7365, 39.869], [22.7138, 39.9095], [22.7167, 39.9385], [22.7097, 39.9517], [22.6624, 39.9755], [22.6784, 39.9587], [22.6637, 39.9459], [22.6541, 39.9637], [22.6255, 39.9721], [22.5821, 39.9519], [22.531, 39.9469], [22.507, 39.9574], [22.4978, 39.9691], [22.4983, 39.9907], [22.4871, 39.996], [22.4959, 40.0072], [22.4895, 40.0129], [22.4619, 40.0189], [22.4309, 40.0406], [22.41, 40.0351], [22.3985, 40.0496], [22.3789, 40.0391], [22.3604, 40.0655], [22.3467, 40.0682], [22.3638, 40.0973], [22.3711, 40.1396], [22.3556, 40.1395], [22.347, 40.1289], [22.3443, 40.1413], [22.3531, 40.1566], [22.3214, 40.1812], [22.2879, 40.1741], [22.2679, 40.1586], [22.2421, 40.112], [22.2153, 40.1018], [22.2065, 40.1278], [22.2102, 40.1491], [22.1936, 40.1469], [22.1902, 40.1528], [22.2007, 40.1695], [22.222, 40.1764], [22.2104, 40.19], [22.1831, 40.1967], [22.1152, 40.1899], [22.1228, 40.1636], [22.1028, 40.1782], [22.0931, 40.1715], [22.088, 40.1618], [22.102, 40.1449], [22.0732, 40.1128], [22.0223, 40.0763], [22.0213, 40.0628], [21.994, 40.0594], [21.9961, 40.043], [21.9616, 40.0288], [21.9492, 39.9934], [21.932, 39.9815], [21.9105, 39.9825], [21.9055, 39.9674], [21.8838, 39.9552], [21.8639, 39.9582], [21.8725, 39.9439], [21.8916, 39.9423], [21.9094, 39.9238], [21.9004, 39.903], [21.9191, 39.8618], [21.9119, 39.846], [21.8326, 39.8619], [21.7892, 39.846], [21.7642, 39.8563], [21.7444, 39.8552], [21.737, 39.8693], [21.7192, 39.8733], [21.7003, 39.8565], [21.6783, 39.855], [21.656, 39.8667], [21.653, 39.8785], [21.62, 39.8688], [21.5833, 39.8937], [21.5562, 39.887], [21.5237, 39.9], [21.4845, 39.8891], [21.4732, 39.9006], [21.4324, 39.8958], [21.4095, 39.8745], [21.4242, 39.8722], [21.4158, 39.8575], [21.421, 39.8511], [21.3905, 39.8432], [21.3837, 39.8323], [21.3668, 39.8393], [21.3356, 39.832], [21.3233, 39.8467], [21.3185, 39.8694], [21.2909, 39.8522], [21.2634, 39.8522], [21.2647, 39.8363], [21.2481, 39.8149], [21.2512, 39.8075], [21.2263, 39.8042], [21.2338, 39.7556], [21.2251, 39.7316], [21.247, 39.7244], [21.2466, 39.7129], [21.2545, 39.7082], [21.2509, 39.6977], [21.2362, 39.696], [21.2271, 39.7083], [21.2026, 39.7167], [21.1835, 39.7113], [21.1672, 39.7178], [21.1589, 39.7005], [21.1204, 39.6794], [21.128, 39.6646], [21.1544, 39.649], [21.1528, 39.6181], [21.181, 39.6165], [21.185, 39.6093], [21.2034, 39.5224], [21.181, 39.4995], [21.2154, 39.4989], [21.215, 39.4807], [21.1944, 39.4746], [21.2016, 39.463], [21.2282, 39.437], [21.2672, 39.4163], [21.2774, 39.3948], [21.2725, 39.3774], [21.3061, 39.3577], [21.3898, 39.3545], [21.4006, 39.3293], [21.4151, 39.3178], [21.4149, 39.2993], [21.4287, 39.2958], [21.4115, 39.2619], [21.3673, 39.2345], [21.3513, 39.2136], [21.3537, 39.1901], [21.3799, 39.1669], [21.3969, 39.1645], [21.3958, 39.1376], [21.4215, 39.11], [21.4362, 39.1059], [21.4138, 39.0758], [21.4116, 39.0604], [21.4209, 39.0528], [21.3943, 39.05], [21.3773, 39.0324], [21.3752, 39.0172], [21.3942, 39.0082], [21.4011, 39.0128], [21.4287, 38.9924], [21.4651, 38.9865], [21.5111, 38.9662], [21.4929, 38.94], [21.4985, 38.9018], [21.5076, 38.8891], [21.5751, 38.8886], [21.6375, 38.8708], [21.6215, 38.841], [21.6197, 38.8507], [21.5743, 38.8487], [21.5656, 38.832], [21.5708, 38.8181], [21.5478, 38.8032], [21.5635, 38.7827], [21.5712, 38.7368], [21.6416, 38.7138], [21.6681, 38.7155], [21.6856, 38.7027], [21.7625, 38.715], [21.7736, 38.7034], [21.7691, 38.675], [21.8059, 38.6832], [21.8192, 38.6945], [21.831, 38.7372], [21.8758, 38.7368], [21.8988, 38.7238], [21.9444, 38.7425], [21.9463, 38.7834], [21.9721, 38.7694], [21.9952, 38.7742], [22.0238, 38.7397], [22.0255, 38.7261], [21.9914, 38.7102], [21.9954, 38.696], [21.9826, 38.6925], [21.9991, 38.6804], [21.9822, 38.6694], [21.9866, 38.6458], [22.0004, 38.6377], [22.0046, 38.6251], [21.9784, 38.6204], [21.9672, 38.6071], [22.0155, 38.5875], [22.0031, 38.5592], [21.9942, 38.5555], [21.9897, 38.5324], [21.9999, 38.5084], [21.9358, 38.4911], [21.8798, 38.465], [21.8861, 38.4431], [21.8798, 38.4374], [21.8827, 38.4152], [21.8517, 38.3745], [21.8962, 38.3714], [21.9321, 38.4032], [21.9545, 38.4051], [21.9942, 38.3981], [22.0044, 38.3891], [22.0513, 38.3949], [22.0834, 38.3748], [22.1275, 38.3656], [22.1423, 38.3447], [22.1582, 38.3486], [22.1837, 38.3209], [22.1941, 38.3383], [22.2494, 38.3626], [22.2859, 38.3386], [22.293, 38.3387], [22.3001, 38.3554], [22.3237, 38.3442], [22.3573, 38.3492], [22.3588, 38.3369], [22.3784, 38.3325], [22.3957, 38.3487], [22.3846, 38.3527], [22.3842, 38.3616], [22.4026, 38.3639], [22.3974, 38.3797], [22.3735, 38.3908], [22.3931, 38.4094], [22.4165, 38.412], [22.4, 38.4428], [22.4176, 38.4438], [22.4197, 38.4317], [22.4553, 38.4276], [22.5047, 38.3815], [22.513, 38.3614], [22.5375, 38.3449], [22.5388, 38.3356], [22.5231, 38.3351], [22.5191, 38.3282], [22.5365, 38.3161], [22.5557, 38.2825], [22.5849, 38.2798], [22.5921, 38.307], [22.6033, 38.3156], [22.586, 38.327], [22.5936, 38.3485], [22.6183, 38.3644], [22.6226, 38.354], [22.636, 38.3495], [22.6479, 38.3672], [22.6282, 38.3756], [22.6572, 38.3862], [22.6849, 38.3648], [22.688, 38.3486], [22.677, 38.3403], [22.6919, 38.3182], [22.7975, 38.2752], [22.7981, 38.2683], [22.7843, 38.265], [22.763, 38.2425], [22.8049, 38.2256], [22.8418, 38.2249], [22.8604, 38.2326], [22.8813, 38.2223], [22.8919, 38.2373], [22.9065, 38.1829], [22.9154, 38.1918], [22.9457, 38.1827], [22.969, 38.1891], [22.9445, 38.208], [22.9211, 38.2002], [22.9239, 38.2166], [22.9324, 38.2191], [22.9602, 38.2109], [23.0242, 38.2137], [23.0518, 38.1938], [23.0308, 38.1819], [23.067, 38.1704], [23.1113, 38.2071], [23.1431, 38.1827], [23.1262, 38.1684], [23.2119, 38.1823], [23.2218, 38.1898], [23.2866, 38.1845], [23.2928, 38.1937], [23.2918, 38.2393], [23.3071, 38.2432], [23.3242, 38.2626], [23.3609, 38.2595], [23.383, 38.269], [23.3959, 38.2664], [23.395, 38.254], [23.3913, 38.2361], [23.3704, 38.2283], [23.3744, 38.2133], [23.4088, 38.2056], [23.4601, 38.2088], [23.4613, 38.1645], [23.5074, 38.1539], [23.5158, 38.1354], [23.5576, 38.1385], [23.5739, 38.1448], [23.5795, 38.1566], [23.6317, 38.174], [23.6252, 38.1867], [23.6393, 38.2014], [23.6329, 38.21], [23.6406, 38.226], [23.6343, 38.2305], [23.6385, 38.2396], [23.6321, 38.2401], [23.6352, 38.2732], [23.6489, 38.2965], [23.665, 38.2999], [23.6594, 38.3141], [23.6644, 38.321], [23.6849, 38.324], [23.6904, 38.3403]]], [[[23.2962, 39.0388], [23.2312, 39.0224], [23.2042, 39.0042], [23.1292, 39.0076], [23.0947, 38.9818], [23.0818, 38.9411], [23.0496, 38.9437], [23.0083, 38.9097], [22.9422, 38.8975], [22.8519, 38.8674], [22.8338, 38.8482], [22.8307, 38.826], [22.8865, 38.8392], [22.96, 38.8361], [22.9842, 38.8472], [22.9926, 38.8578], [22.9857, 38.8693], [22.9484, 38.877], [22.9645, 38.8906], [22.9901, 38.8812], [23.0328, 38.882], [23.0413, 38.8588], [23.0823, 38.8386], [23.1339, 38.8524], [23.1966, 38.8347], [23.2341, 38.8], [23.279, 38.7768], [23.2827, 38.7671], [23.3008, 38.7706], [23.3215, 38.7616], [23.3506, 38.7252], [23.3859, 38.6982], [23.4302, 38.6827], [23.4488, 38.6494], [23.4927, 38.6304], [23.5118, 38.5871], [23.5284, 38.5776], [23.5577, 38.5828], [23.5707, 38.5727], [23.6009, 38.5701], [23.6265, 38.5424], [23.6356, 38.5112], [23.6239, 38.4754], [23.5945, 38.4688], [23.5881, 38.4499], [23.6081, 38.4549], [23.6205, 38.4479], [23.6216, 38.4287], [23.637, 38.4191], [23.6469, 38.3997], [23.662, 38.3985], [23.673, 38.4103], [23.6921, 38.413], [23.7986, 38.3897], [23.8206, 38.4043], [23.8423, 38.4033], [23.8992, 38.3846], [23.9604, 38.387], [23.9973, 38.4026], [24.0167, 38.3898], [24.0486, 38.3951], [24.0581, 38.379], [24.0497, 38.3701], [24.0594, 38.3412], [24.0264, 38.3371], [24.0224, 38.3285], [24.1078, 38.3156], [24.109, 38.3009], [24.1211, 38.3026], [24.0951, 38.2802], [24.1132, 38.2533], [24.1246, 38.2583], [24.1386, 38.2817], [24.1537, 38.2794], [24.1585, 38.267], [24.1184, 38.2214], [24.1253, 38.2124], [24.1606, 38.2279], [24.1858, 38.2152], [24.192, 38.1892], [24.2073, 38.1798], [24.2095, 38.1604], [24.1843, 38.1394], [24.1794, 38.126], [24.2124, 38.1238], [24.2085, 38.0887], [24.2464, 38.0962], [24.2828, 38.0848], [24.2868, 38.0678], [24.3068, 38.0696], [24.3217, 38.0464], [24.3048, 38.0325], [24.3114, 38.0177], [24.332, 38.0128], [24.3368, 37.9923], [24.3828, 37.9608], [24.4033, 37.9784], [24.3861, 37.9851], [24.393, 38.0062], [24.4146, 38.0133], [24.4553, 38.0016], [24.4713, 37.9816], [24.4724, 37.9589], [24.4995, 37.9492], [24.5107, 37.9491], [24.5364, 37.9728], [24.5569, 37.9785], [24.5681, 38.0114], [24.5812, 38.0231], [24.588, 38.0668], [24.5783, 38.0755], [24.582, 38.0923], [24.574, 38.107], [24.5899, 38.1361], [24.5916, 38.1562], [24.5546, 38.1411], [24.4908, 38.1479], [24.4336, 38.1442], [24.392, 38.1658], [24.35, 38.1553], [24.3282, 38.1688], [24.3286, 38.187], [24.3125, 38.1825], [24.2724, 38.1981], [24.2479, 38.2312], [24.2561, 38.2513], [24.255, 38.2885], [24.2357, 38.3059], [24.2379, 38.3134], [24.2047, 38.3382], [24.2158, 38.35], [24.2124, 38.3797], [24.1818, 38.3947], [24.1879, 38.4082], [24.2074, 38.4115], [24.1838, 38.4284], [24.1905, 38.4554], [24.1867, 38.4841], [24.2302, 38.5261], [24.1552, 38.5691], [24.1227, 38.5966], [24.1219, 38.6287], [24.1551, 38.6512], [24.047, 38.6871], [24.0302, 38.6787], [23.98, 38.6767], [23.9505, 38.6607], [23.8924, 38.6777], [23.8595, 38.6709], [23.8105, 38.6942], [23.7548, 38.7066], [23.7494, 38.7264], [23.7048, 38.7687], [23.6821, 38.7526], [23.6299, 38.7547], [23.6075, 38.7685], [23.5933, 38.7645], [23.585, 38.7752], [23.5888, 38.7848], [23.5215, 38.8078], [23.5124, 38.8222], [23.4586, 38.8464], [23.4262, 38.9058], [23.4297, 38.9536], [23.3862, 38.9608], [23.3719, 38.983], [23.3768, 39.0073], [23.3398, 39.0152], [23.3192, 39.0371], [23.2962, 39.0388]]], [[[24.1155, 39.0582], [24.1268, 39.0657], [24.1156, 39.0792], [24.1156, 39.1046], [24.0997, 39.0916], [24.1081, 39.0693], [24.1016, 39.056], [24.1155, 39.0582]]], [[[23.6802, 39.1593], [23.642, 39.1768], [23.6345, 39.1916], [23.614, 39.1975], [23.6105, 39.2103], [23.5895, 39.2025], [23.628, 39.1453], [23.6547, 39.1222], [23.6605, 39.0877], [23.6984, 39.088], [23.7098, 39.0735], [23.7254, 39.0706], [23.7666, 39.089], [23.7932, 39.1236], [23.7546, 39.1313], [23.7325, 39.1189], [23.7212, 39.1474], [23.6802, 39.1593]]], [[[23.514, 39.1706], [23.5072, 39.189], [23.4615, 39.2109], [23.4422, 39.1958], [23.4439, 39.1816], [23.3867, 39.1571], [23.3924, 39.1467], [23.4052, 39.1491], [23.4225, 39.1379], [23.4438, 39.1417], [23.4481, 39.1301], [23.4608, 39.1281], [23.4598, 39.1418], [23.4761, 39.1608], [23.5037, 39.1599], [23.514, 39.1706]]], [[[23.9719, 39.2401], [23.965, 39.2177], [23.9785, 39.195], [23.9384, 39.1809], [23.9567, 39.1655], [23.9786, 39.1646], [23.9872, 39.1823], [23.99, 39.2087], [23.9798, 39.2129], [23.9806, 39.2311], [23.9719, 39.2401]]], [[[23.8859, 39.16], [23.9205, 39.1775], [23.9326, 39.2076], [23.9829, 39.2657], [23.9576, 39.2753], [23.9531, 39.2908], [23.9156, 39.2498], [23.9123, 39.2321], [23.8865, 39.219], [23.8768, 39.2051], [23.8794, 39.1768], [23.8287, 39.1518], [23.8327, 39.1411], [23.8587, 39.1349], [23.8859, 39.16]]]]}}]}