{"type": "FeatureCollection", "features": [{"type": "Feature", "properties": {"osm_type": "relation", "osm_id": 4579481, "name": "Jahra Governorate", "admin_level": "4", "iso": "KW-JA", "parent_iso": "KW", "parent_osm_id": 305099}, "geometry": {"type": "MultiPolygon", "coordinates": [[[[47.6742, 30.0982], [47.7314, 30.0886], [47.948, 29.994], [47.9753, 29.9426], [47.9827, 29.8607], [47.9956, 29.8277], [48.0217, 29.7797], [48.0524, 29.743], [48.0789, 29.744], [48.1192, 29.6545], [48.1613, 29.6016], [48.1809, 29.5622], [48.1768, 29.5419], [48.1545, 29.5391], [48.1135, 29.5546], [48.0859, 29.575], [48.0239, 29.5848], [47.9655, 29.5763], [47.9106, 29.5318], [47.8493, 29.502], [47.807, 29.4676], [47.7639, 29.4129], [47.7184, 29.3942], [47.7047, 29.3636], [47.7917, 29.3725], [47.8373, 29.3875], [47.8512, 29.3802], [47.8226, 29.3634], [47.8164, 29.3376], [47.8409, 29.3229], [47.8585, 29.3232], [47.8649, 29.31], [47.8459, 29.3075], [47.8417, 29.2662], [47.7841, 29.2037], [47.7699, 29.0558], [47.5231, 29.021], [47.4463, 28.9762], [47.4335, 28.9947], [46.5324, 29.0957], [46.7119, 29.2714], [46.7745, 29.3635], [46.8535, 29.4446], [46.8831, 29.5125], [46.9578, 29.6204], [46.9774, 29.658], [46.9888, 29.7127], [47.0254, 29.7721], [47.1105, 29.9609], [47.1447, 30.0033], [47.1971, 30.0342], [47.3582, 30.0921], [47.6742, 30.0982]]], [[[48.3527, 29.7098], [48.3031, 29.6452], [48.2663, 29.616], [48.229, 29.5999], [48.1858, 29.6039], [48.1616, 29.6297], [48.0851, 29.7678], [48.0461, 29.8004], [48.1133, 29.8391], [48.1192, 29.8736], [48.0851, 29.8799], [48.0951, 29.8947], [48.1336, 29.8799], [48.1587, 29.8792], [48.1665, 29.8859], [48.1608, 29.9016], [48.1937, 29.9164], [48.1974, 29.9254], [48.1813, 29.9351], [48.1472, 29.9351], [48.1404, 29.9699], [48.1227, 29.9697], [48.1167, 29.9741], [48.1209, 29.9814], [48.1621, 29.9957], [48.1887, 29.9835], [48.3445, 29.7906], [48.3595, 29.7545], [48.3527, 29.7098]]], [[[48.0789, 30.0041], [48.0584, 29.9835], [48.0311, 29.971], [48.0108, 29.9805], [48.0093, 29.9869], [48.0547, 30.0245], [48.1092, 30.028], [48.1061, 30.0176], [48.0789, 30.0041]]]]}}, {"type": "Feature", "properties": {"osm_type": "relation", "osm_id": 4579477, "name": "Ahmadi Governorate", "admin_level": "4", "iso": "KW-AH", "parent_iso": "KW", "parent_osm_id": 305099}, "geometry": {"type": "Polygon", "coordinates": [[[47.6681, 28.5335], [47.6598, 28.56], [47.5968, 28.6088], [47.5817, 28.6315], [47.5584, 28.6915], [47.5499, 28.7706], [47.4945, 28.904], [47.4463, 28.9762], [47.5231, 29.021], [47.7699, 29.0558], [47.7841, 29.2037], [47.8417, 29.2662], [47.8761, 29.2275], [47.8772, 29.185], [48.1061, 29.2135], [48.1284, 29.1739], [48.1585, 29.0173], [48.176, 28.9838], [48.2259, 28.9183], [48.241, 28.9057], [48.2795, 28.8944], [48.2769, 28.8396], [48.3288, 28.76], [48.3936, 28.7434], [48.3796, 28.7104], [48.3867, 28.6751], [48.3662, 28.6887], [48.366, 28.6757], [48.3799, 28.6677], [48.3677, 28.6567], [48.3527, 28.6614], [48.3518, 28.6405], [48.361, 28.6356], [48.3867, 28.654], [48.3971, 28.5833], [48.4328, 28.5405], [47.6681, 28.5335]]]}}, {"type": "Feature", "properties": {"osm_type": "relation", "osm_id": 4579482, "name": "Mubarak al-Kabir Governorate", "admin_level": "4", "iso": "KW-MU", "parent_iso": "KW", "parent_osm_id": 305099}, "geometry": {"type": "Polygon", "coordinates": [[[48.0938, 29.3104], [48.0954, 29.2577], [48.1061, 29.2135], [48.0346, 29.2087], [48.0238, 29.2643], [48.0087, 29.2954], [48.05, 29.2954], [48.0938, 29.3104]]]}}, {"type": "Feature", "properties": {"osm_type": "relation", "osm_id": 17903691, "name": "Hawalli Governorate", "admin_level": "4", "iso": "KW-HA", "parent_iso": "KW", "parent_osm_id": 305099}, "geometry": {"type": "Polygon", "coordinates": [[[48.0084, 29.3692], [48.0252, 29.3549], [48.0633, 29.3434], [48.1003, 29.35], [48.0938, 29.3104], [48.05, 29.2954], [48.0087, 29.2954], [47.9797, 29.3513], [48.0084, 29.3692]]]}}, {"type": "Feature", "properties": {"osm_type": "relation", "osm_id": 4579478, "name": "Capital Governorate", "admin_level": "4", "iso": "KW-KU", "parent_iso": "KW", "parent_osm_id": 305099}, "geometry": {"type": "MultiPolygon", "coordinates": [[[[47.8585, 29.3232], [47.8992, 29.3352], [47.9054, 29.3593], [47.9202, 29.3649], [47.9393, 29.3594], [47.9857, 29.3938], [48.0084, 29.3692], [47.9797, 29.3513], [47.9918, 29.3304], [47.8649, 29.31], [47.8585, 29.3232]]], [[[48.3382, 29.4628], [48.3732, 29.4431], [48.389, 29.4249], [48.3974, 29.3875], [48.3169, 29.427], [48.2692, 29.4297], [48.27, 29.456], [48.2811, 29.4711], [48.3382, 29.4628]]]]}}, {"type": "Feature", "properties": {"osm_type": "relation", "osm_id": 4579479, "name": "Farwaniya Governorate", "admin_level": "4", "iso": "KW-FA", "parent_iso": "KW", "parent_osm_id": 305099}, "geometry": {"type": "Polygon", "coordinates": [[[47.8649, 29.31], [47.9918, 29.3304], [48.0238, 29.2643], [48.0346, 29.2087], [47.8772, 29.185], [47.8761, 29.2275], [47.8417, 29.2662], [47.8459, 29.3075], [47.8649, 29.31]]]}}]}