{"type": "FeatureCollection", "features": [{"type": "Feature", "properties": {"osm_type": "relation", "osm_id": 1231790, "name": "Sint Maarten", "admin_level": "3", "iso": "NL-SX", "parent_iso": "NL", "parent_osm_id": 2323309}, "geometry": {"type": "Polygon", "coordinates": [[[-63.107, 18.0621], [-63.0176, 18.0334], [-63.0306, 18.0191], [-63.0976, 18.036], [-63.1189, 18.0515], [-63.107, 18.0621]]]}}, {"type": "Feature", "properties": {"osm_type": "relation", "osm_id": 47826, "name": "Groningen", "admin_level": "4", "iso": "NL-GR", "parent_iso": "NL", "parent_osm_id": 2323309}, "geometry": {"type": "MultiPolygon", "coordinates": [[[[7.1946, 53.245], [7.1954, 53.185], [7.1719, 53.1377], [7.1851, 53.1054], [7.1944, 53.0338], [7.1836, 52.9661], [7.1619, 52.9326], [7.0722, 52.8413], [7.0481, 52.8611], [7.0178, 52.8704], [7.0382, 52.9122], [6.9355, 52.9884], [6.7348, 53.1144], [6.6987, 53.119], [6.6315, 53.1056], [6.617, 53.1245], [6.5306, 53.1912], [6.4684, 53.2045], [6.4137, 53.1778], [6.3854, 53.1582], [6.3542, 53.1084], [6.3301, 53.0881], [6.183, 53.1243], [6.1737, 53.1315], [6.1691, 53.1529], [6.176, 53.1744], [6.2234, 53.2165], [6.2179, 53.2406], [6.2502, 53.2837], [6.2871, 53.3099], [6.2761, 53.3136], [6.2737, 53.3447], [6.2341, 53.3449], [6.1801, 53.3643], [6.1703, 53.3861], [6.186, 53.411], [6.2739, 53.4127], [6.3115, 53.399], [6.3456, 53.4127], [6.4944, 53.4387], [6.7302, 53.4606], [6.8291, 53.4506], [6.8669, 53.4343], [6.9006, 53.3518], [6.9486, 53.3261], [7.02, 53.3061], [7.0378, 53.3096], [7.0583, 53.3019], [7.0855, 53.3096], [7.0735, 53.2956], [7.0807, 53.2668], [7.1946, 53.245]]], [[[6.4412, 53.5566], [6.5101, 53.5436], [6.4964, 53.5362], [6.4607, 53.5434], [6.4412, 53.5566]]]]}}, {"type": "Feature", "properties": {"osm_type": "relation", "osm_id": 47540, "name": "Drenthe", "admin_level": "4", "iso": "NL-DR", "parent_iso": "NL", "parent_osm_id": 2323309}, "geometry": {"type": "Polygon", "coordinates": [[[7.0722, 52.8413], [7.0533, 52.7906], [7.0367, 52.6474], [7.0185, 52.626], [6.9677, 52.6367], [6.9184, 52.6322], [6.8654, 52.642], [6.7705, 52.641], [6.7191, 52.6268], [6.7078, 52.6309], [6.7058, 52.6466], [6.6964, 52.6522], [6.6112, 52.6726], [6.582, 52.6694], [6.5208, 52.6459], [6.5216, 52.6115], [6.4742, 52.6243], [6.4484, 52.6179], [6.429, 52.628], [6.3866, 52.6185], [6.325, 52.6678], [6.273, 52.6679], [6.2179, 52.6862], [6.1972, 52.6789], [6.1791, 52.6821], [6.1303, 52.7485], [6.2069, 52.7967], [6.1295, 52.8534], [6.2654, 52.9257], [6.3145, 52.9222], [6.348, 52.9084], [6.3958, 52.9278], [6.4295, 52.9594], [6.4338, 52.9693], [6.4217, 52.9846], [6.3675, 53.0285], [6.3546, 53.0636], [6.3077, 53.0784], [6.3095, 53.0921], [6.338, 53.0909], [6.3854, 53.1582], [6.4684, 53.2045], [6.5306, 53.1912], [6.617, 53.1245], [6.6315, 53.1056], [6.6987, 53.119], [6.7405, 53.1119], [6.9355, 52.9884], [7.0382, 52.9122], [7.0178, 52.8704], [7.0481, 52.8611], [7.0722, 52.8413]]]}}, {"type": "Feature", "properties": {"osm_type": "relation", "osm_id": 47608, "name": "Overijssel", "admin_level": "4", "iso": "NL-OV", "parent_iso": "NL", "parent_osm_id": 2323309}, "geometry": {"type": "Polygon", "coordinates": [[[6.7191, 52.6268], [6.7018, 52.6191], [6.7102, 52.6086], [6.704, 52.5831], [6.7438, 52.5597], [6.6717, 52.5417], [6.684, 52.526], [6.6951, 52.4756], [6.7412, 52.4537], [6.9002, 52.4319], [6.9515, 52.4375], [6.9733, 52.4514], [7.0342, 52.3908], [7.0482, 52.3651], [7.0398, 52.3286], [7.0125, 52.2849], [7.0119, 52.2666], [7.0263, 52.2306], [6.9819, 52.214], [6.9277, 52.1719], [6.8848, 52.1603], [6.8307, 52.1129], [6.7716, 52.1088], [6.6619, 52.1273], [6.6718, 52.1423], [6.6667, 52.1645], [6.6456, 52.1698], [6.606, 52.1649], [6.5918, 52.1793], [6.4952, 52.1772], [6.4114, 52.2446], [6.3817, 52.2468], [6.3225, 52.2295], [6.1796, 52.2377], [6.1599, 52.2253], [6.1461, 52.2303], [6.1441, 52.2488], [6.1241, 52.2562], [6.1245, 52.2709], [6.1065, 52.2997], [6.0861, 52.3055], [6.068, 52.3218], [6.0873, 52.3594], [6.0816, 52.3706], [6.12, 52.3804], [6.1348, 52.4044], [6.1348, 52.4187], [6.0954, 52.4679], [6.0496, 52.5053], [6.0307, 52.511], [5.9697, 52.485], [5.9313, 52.4806], [5.8915, 52.5204], [5.8669, 52.5218], [5.8465, 52.5777], [5.8325, 52.5852], [5.8325, 52.5971], [5.8442, 52.6053], [5.895, 52.6195], [5.9396, 52.6167], [6.0198, 52.6376], [5.9978, 52.6538], [5.9265, 52.6717], [5.9453, 52.6888], [5.9234, 52.7399], [5.9048, 52.7565], [5.7852, 52.8037], [5.8224, 52.815], [5.8794, 52.8059], [5.909, 52.8167], [5.9279, 52.8334], [5.9593, 52.8416], [5.9931, 52.8228], [6.0324, 52.8211], [6.0519, 52.8393], [6.1295, 52.8534], [6.2069, 52.7967], [6.1303, 52.7485], [6.1649, 52.6934], [6.1833, 52.68], [6.2179, 52.6862], [6.273, 52.6679], [6.325, 52.6678], [6.3866, 52.6185], [6.429, 52.628], [6.4484, 52.6179], [6.4742, 52.6243], [6.5216, 52.6115], [6.5208, 52.6459], [6.582, 52.6694], [6.6112, 52.6726], [6.6964, 52.6522], [6.7058, 52.6466], [6.7078, 52.6309], [6.7191, 52.6268]]]}}, {"type": "Feature", "properties": {"osm_type": "relation", "osm_id": 47554, "name": "Gelderland", "admin_level": "4", "iso": "NL-GE", "parent_iso": "NL", "parent_osm_id": 2323309}, "geometry": {"type": "Polygon", "coordinates": [[[6.7716, 52.1088], [6.7499, 52.1029], [6.7114, 52.0673], [6.6799, 52.0605], [6.673, 52.0501], [6.675, 52.0348], [6.7782, 52.0013], [6.8092, 51.9795], [6.8107, 51.9606], [6.7898, 51.9511], [6.7438, 51.9083], [6.7167, 51.8993], [6.6282, 51.8975], [6.5286, 51.8764], [6.4629, 51.8484], [6.3785, 51.8601], [6.3866, 51.8376], [6.3825, 51.8276], [6.345, 51.8211], [6.342, 51.8367], [6.2874, 51.8462], [6.2647, 51.8662], [6.2252, 51.8625], [6.127, 51.8967], [6.093, 51.8853], [6.1561, 51.8421], [6.084, 51.8537], [5.9315, 51.8156], [5.928, 51.8067], [5.9508, 51.7959], [5.9641, 51.7766], [5.9624, 51.7564], [5.9414, 51.7453], [5.8899, 51.7773], [5.8632, 51.7728], [5.8628, 51.7594], [5.7599, 51.7626], [5.6613, 51.8002], [5.6432, 51.8238], [5.5985, 51.83], [5.5346, 51.8239], [5.5008, 51.835], [5.4415, 51.8164], [5.401, 51.8182], [5.3811, 51.8116], [5.3675, 51.7754], [5.3179, 51.7474], [5.1349, 51.7348], [5.126, 51.7367], [5.1372, 51.7531], [5.1373, 51.7692], [5.1004, 51.7848], [5.065, 51.7831], [5.0278, 51.8008], [5.0121, 51.8115], [5.0108, 51.8449], [5.0045, 51.8509], [5.0334, 51.852], [5.1205, 51.8762], [5.1179, 51.8915], [5.1826, 51.9669], [5.2214, 51.9685], [5.2395, 51.9771], [5.2543, 51.9791], [5.3105, 51.9597], [5.3606, 51.977], [5.4204, 51.974], [5.462, 51.9876], [5.5051, 51.982], [5.6157, 51.9483], [5.6165, 51.9778], [5.5722, 52.019], [5.5533, 52.1048], [5.5369, 52.1025], [5.5412, 52.0951], [5.535, 52.0823], [5.5093, 52.0718], [5.4686, 52.0823], [5.4976, 52.114], [5.5085, 52.1135], [5.5128, 52.1362], [5.4745, 52.1609], [5.4241, 52.1754], [5.4387, 52.1959], [5.3969, 52.2199], [5.4089, 52.2677], [5.426, 52.2639], [5.5327, 52.2769], [5.5791, 52.3448], [5.6007, 52.3577], [5.6546, 52.3815], [5.771, 52.4138], [5.8153, 52.4408], [5.8551, 52.4807], [5.8669, 52.5218], [5.8915, 52.5204], [5.925, 52.484], [5.9394, 52.4793], [6.0307, 52.511], [6.0496, 52.5053], [6.0954, 52.4679], [6.1348, 52.4187], [6.1348, 52.4044], [6.12, 52.3804], [6.0816, 52.3706], [6.0873, 52.3594], [6.068, 52.3218], [6.0861, 52.3055], [6.1065, 52.2997], [6.1245, 52.2709], [6.1241, 52.2562], [6.1441, 52.2488], [6.1419, 52.2351], [6.1543, 52.2256], [6.1796, 52.2377], [6.3225, 52.2295], [6.3817, 52.2468], [6.4114, 52.2446], [6.4952, 52.1772], [6.5918, 52.1793], [6.606, 52.1649], [6.6535, 52.1685], [6.671, 52.1576], [6.6718, 52.1423], [6.6619, 52.1273], [6.7716, 52.1088]]]}}, {"type": "Feature", "properties": {"osm_type": "relation", "osm_id": 47793, "name": "Limburg", "admin_level": "4", "iso": "NL-LI", "parent_iso": "NL", "parent_osm_id": 2323309}, "geometry": {"type": "Polygon", "coordinates": [[[5.9461, 51.7463], [5.9393, 51.7319], [5.9783, 51.7298], [6.022, 51.7095], [6.0086, 51.6812], [6.0315, 51.663], [6.0992, 51.6445], [6.0821, 51.6078], [6.0865, 51.5955], [6.1933, 51.5093], [6.2053, 51.4584], [6.1927, 51.399], [6.2078, 51.3877], [6.1936, 51.3445], [6.1478, 51.3182], [6.0652, 51.2316], [6.0566, 51.2117], [6.0537, 51.1894], [6.0608, 51.1709], [6.0843, 51.1627], [6.1341, 51.1842], [6.1571, 51.1793], [6.1263, 51.1646], [6.1473, 51.1523], [5.9829, 51.0747], [5.938, 51.0309], [5.9196, 51.0297], [5.8805, 51.0521], [5.8525, 51.0428], [5.8736, 50.9906], [5.8746, 50.9654], [5.9277, 50.9777], [6.0037, 50.9737], [5.9958, 50.9518], [5.9999, 50.9294], [6.0637, 50.9075], [6.0546, 50.8915], [6.0631, 50.8709], [6.0567, 50.8527], [6.0456, 50.8442], [6.0093, 50.8405], [6.0005, 50.8304], [5.9983, 50.8007], [5.984, 50.7922], [5.9688, 50.7946], [5.973, 50.7818], [5.9971, 50.7629], [5.9949, 50.7499], [5.7932, 50.7521], [5.7524, 50.7734], [5.7278, 50.7542], [5.7066, 50.7542], [5.6884, 50.7608], [5.7005, 50.7956], [5.6407, 50.815], [5.6245, 50.8303], [5.6223, 50.8527], [5.6945, 50.9037], [5.7224, 50.9117], [5.764, 50.9594], [5.7224, 50.9594], [5.7776, 51.0236], [5.764, 51.0352], [5.7715, 51.0581], [5.7913, 51.055], [5.7988, 51.0615], [5.8118, 51.0823], [5.8049, 51.0966], [5.846, 51.1034], [5.8232, 51.1187], [5.8405, 51.1389], [5.8291, 51.1565], [5.7814, 51.1524], [5.7308, 51.1838], [5.659, 51.1791], [5.625, 51.1969], [5.5514, 51.2168], [5.6154, 51.232], [5.63, 51.2727], [5.6758, 51.3164], [5.875, 51.3541], [5.9344, 51.3849], [5.876, 51.4468], [5.8378, 51.567], [5.9236, 51.5566], [5.9996, 51.57], [6.0338, 51.5579], [6.0493, 51.5665], [6.026, 51.6207], [5.9822, 51.6559], [5.9889, 51.6655], [5.9733, 51.6763], [5.96, 51.7124], [5.8882, 51.729], [5.8797, 51.7412], [5.8827, 51.7533], [5.8628, 51.7594], [5.8632, 51.7728], [5.887, 51.7779], [5.9158, 51.7561], [5.9461, 51.7463]]]}}, {"type": "Feature", "properties": {"osm_type": "relation", "osm_id": 47806, "name": "Zeeland", "admin_level": "4", "iso": "NL-ZE", "parent_iso": "NL", "parent_osm_id": 2323309}, "geometry": {"type": "MultiPolygon", "coordinates": [[[[3.4539, 51.2356], [3.3917, 51.2468], [3.3674, 51.2635], [3.3532, 51.2886], [3.3581, 51.3367], [3.3494, 51.3752], [3.5257, 51.4156], [3.5414, 51.4167], [3.6047, 51.3911], [3.7022, 51.3736], [3.7555, 51.3501], [3.834, 51.3432], [3.9558, 51.3718], [3.9841, 51.4105], [4.0291, 51.4042], [4.0702, 51.3706], [4.1219, 51.3594], [4.1565, 51.3576], [4.18, 51.3774], [4.2215, 51.368], [4.2079, 51.3306], [4.1686, 51.2969], [4.119, 51.2724], [3.927, 51.2063], [3.8087, 51.2053], [3.7814, 51.2199], [3.7762, 51.2545], [3.6095, 51.2904], [3.5143, 51.281], [3.5034, 51.274], [3.5012, 51.2403], [3.4539, 51.2356]]], [[[4.2811, 51.3689], [4.2571, 51.3725], [4.2449, 51.4145], [4.2347, 51.419], [4.201, 51.4053], [4.1111, 51.407], [4.0702, 51.419], [4.0151, 51.4489], [3.957, 51.4558], [3.9431, 51.4504], [3.9021, 51.4049], [3.8272, 51.3911], [3.7891, 51.4122], [3.7288, 51.4308], [3.6897, 51.4543], [3.61, 51.4451], [3.5354, 51.4592], [3.4948, 51.5009], [3.4619, 51.519], [3.447, 51.546], [3.5604, 51.5946], [3.8511, 51.6108], [3.8822, 51.5961], [3.9058, 51.5692], [3.8716, 51.5556], [3.8716, 51.5494], [3.9673, 51.5431], [4.0159, 51.5308], [4.0571, 51.5084], [4.1048, 51.4457], [4.1808, 51.4459], [4.2005, 51.4395], [4.2638, 51.4445], [4.2666, 51.3881], [4.2811, 51.3689]]], [[[4.2305, 51.5196], [4.1533, 51.5351], [4.0913, 51.5351], [3.9881, 51.5903], [4.0677, 51.6107], [4.1834, 51.6029], [4.237, 51.568], [4.2439, 51.5434], [4.2305, 51.5196]]], [[[4.1861, 51.6168], [4.136, 51.6204], [4.118, 51.6307], [4.1109, 51.647], [4.1307, 51.6583], [4.1978, 51.6379], [4.1861, 51.6168]]], [[[4.0366, 51.6859], [4.0973, 51.6702], [4.0994, 51.6541], [4.0726, 51.6369], [3.978, 51.6233], [3.9015, 51.642], [3.8856, 51.6684], [3.8093, 51.6995], [3.7959, 51.7001], [3.7654, 51.6784], [3.7206, 51.6768], [3.7, 51.6806], [3.6867, 51.6927], [3.6895, 51.725], [3.7258, 51.7397], [3.8142, 51.7482], [3.9618, 51.7381], [4.0366, 51.6859]]]]}}, {"type": "Feature", "properties": {"osm_type": "relation", "osm_id": 47696, "name": "North Brabant", "admin_level": "4", "iso": "NL-NB", "parent_iso": "NL", "parent_osm_id": 2323309}, "geometry": {"type": "Polygon", "coordinates": [[[4.8227, 51.4137], [4.8154, 51.4311], [4.8239, 51.4756], [4.7787, 51.4954], [4.7312, 51.4856], [4.6539, 51.4262], [4.6301, 51.4182], [4.5406, 51.4201], [4.5215, 51.4286], [4.5332, 51.4676], [4.5126, 51.4774], [4.4294, 51.462], [4.3771, 51.4429], [4.3892, 51.4346], [4.3799, 51.4095], [4.4162, 51.374], [4.4112, 51.3567], [4.3922, 51.3504], [4.3456, 51.3523], [4.2811, 51.3689], [4.2666, 51.3881], [4.2621, 51.4189], [4.2687, 51.4293], [4.2638, 51.4445], [4.2832, 51.4477], [4.2967, 51.4705], [4.2886, 51.4921], [4.2678, 51.5083], [4.2305, 51.5196], [4.244, 51.5553], [4.2075, 51.5896], [4.2026, 51.6091], [4.1861, 51.6168], [4.1978, 51.6379], [4.3337, 51.6569], [4.3727, 51.6735], [4.4031, 51.7083], [4.5449, 51.696], [4.644, 51.7191], [4.6756, 51.7194], [4.7399, 51.7744], [4.7904, 51.8027], [4.8703, 51.8081], [4.909, 51.8299], [5.0093, 51.8252], [5.0121, 51.8115], [5.065, 51.7831], [5.1004, 51.7848], [5.1373, 51.7692], [5.1372, 51.7531], [5.126, 51.7367], [5.1349, 51.7348], [5.337, 51.7534], [5.3675, 51.7754], [5.3811, 51.8116], [5.401, 51.8182], [5.4415, 51.8164], [5.5008, 51.835], [5.5346, 51.8239], [5.5985, 51.83], [5.6432, 51.8238], [5.6613, 51.8002], [5.7599, 51.7626], [5.8628, 51.7594], [5.8827, 51.7533], [5.8797, 51.7412], [5.8882, 51.729], [5.96, 51.7124], [5.9733, 51.6763], [5.9889, 51.6655], [5.9822, 51.6559], [6.026, 51.6207], [6.0495, 51.5745], [6.0493, 51.5665], [6.0338, 51.5579], [5.9996, 51.57], [5.9236, 51.5566], [5.8378, 51.567], [5.876, 51.4468], [5.9344, 51.3849], [5.875, 51.3541], [5.6758, 51.3164], [5.63, 51.2727], [5.6154, 51.232], [5.5514, 51.2168], [5.5352, 51.262], [5.4932, 51.2865], [5.4716, 51.2881], [5.3891, 51.2587], [5.2154, 51.2587], [5.2149, 51.2943], [5.1973, 51.3083], [5.1229, 51.3134], [5.1026, 51.3507], [5.0681, 51.3745], [5.0617, 51.3843], [5.0653, 51.4059], [5.0799, 51.4385], [5.0603, 51.462], [5.0275, 51.4768], [5.0121, 51.4743], [4.9802, 51.4305], [4.9319, 51.3956], [4.9103, 51.3919], [4.8533, 51.4061], [4.7833, 51.4076], [4.7621, 51.4134], [4.7678, 51.4254], [4.8227, 51.4137]]]}}, {"type": "Feature", "properties": {"osm_type": "relation", "osm_id": 47772, "name": "South Holland", "admin_level": "4", "iso": "NL-ZH", "parent_iso": "NL", "parent_osm_id": 2323309}, "geometry": {"type": "Polygon", "coordinates": [[[4.1109, 51.647], [4.1126, 51.6708], [4.1257, 51.6796], [4.1769, 51.6859], [4.1411, 51.7039], [4.0715, 51.7172], [4.0571, 51.7303], [4.0508, 51.7635], [4.0339, 51.7842], [3.9815, 51.81], [3.8716, 51.7883], [3.8623, 51.8161], [3.9627, 51.8474], [4.0476, 51.8337], [4.0776, 51.8436], [4.0321, 51.882], [4.032, 51.8961], [4.0435, 51.9087], [4.01, 51.9801], [4.0156, 51.9877], [4.0225, 51.9944], [4.069, 51.9879], [4.1077, 51.9919], [4.1419, 52.0056], [4.2847, 52.1129], [4.4069, 52.2235], [4.5081, 52.3364], [4.499, 52.3261], [4.5486, 52.3125], [4.6097, 52.3134], [4.5677, 52.2705], [4.5481, 52.2204], [4.6055, 52.2132], [4.7103, 52.2346], [4.7256, 52.2115], [4.7362, 52.2083], [4.7679, 52.2212], [4.7919, 52.1991], [4.8627, 52.168], [4.8537, 52.1634], [4.8633, 52.1339], [4.8256, 52.1405], [4.7908, 52.1197], [4.8198, 52.1088], [4.8325, 52.0716], [4.8777, 52.0714], [4.8312, 52.0525], [4.7994, 52.0227], [4.8038, 52.0164], [4.8496, 52.0202], [4.854, 52.0081], [4.8243, 51.9968], [4.8873, 51.9412], [4.9268, 51.9493], [4.989, 51.9802], [5.0304, 51.9743], [5.1049, 52.0038], [5.1309, 51.9961], [5.1541, 51.974], [5.1826, 51.9669], [5.1179, 51.8915], [5.1205, 51.8762], [5.0334, 51.852], [5.0045, 51.8509], [5.0108, 51.8449], [5.0093, 51.8252], [4.909, 51.8299], [4.8703, 51.8081], [4.7904, 51.8027], [4.7399, 51.7744], [4.6756, 51.7194], [4.644, 51.7191], [4.5449, 51.696], [4.4031, 51.7083], [4.3727, 51.6735], [4.3337, 51.6569], [4.197, 51.6377], [4.1307, 51.6583], [4.1109, 51.647]]]}}, {"type": "Feature", "properties": {"osm_type": "relation", "osm_id": 47654, "name": "North Holland", "admin_level": "4", "iso": "NL-NH", "parent_iso": "NL", "parent_osm_id": 2323309}, "geometry": {"type": "MultiPolygon", "coordinates": [[[[4.5081, 52.3364], [4.5686, 52.4453], [4.5773, 52.4809], [4.5969, 52.5066], [4.6393, 52.7007], [4.6694, 52.7966], [4.7117, 52.8631], [4.7264, 52.9383], [4.7455, 52.9676], [4.807, 52.9618], [4.8169, 52.9676], [4.8244, 52.9601], [4.8094, 52.9296], [4.8328, 52.9113], [4.9131, 52.9056], [4.9783, 52.9357], [5.0781, 52.954], [5.1798, 53.009], [5.2602, 52.8654], [5.3703, 52.7903], [5.3589, 52.689], [5.3087, 52.6987], [5.278, 52.6858], [5.2618, 52.6486], [5.0952, 52.5822], [5.1194, 52.5159], [5.168, 52.4722], [5.1939, 52.4285], [5.1599, 52.4285], [5.1033, 52.3962], [5.1049, 52.3638], [5.1599, 52.3282], [5.2828, 52.3185], [5.3676, 52.2833], [5.2638, 52.2759], [5.202, 52.1874], [5.1824, 52.179], [5.1268, 52.1809], [5.045, 52.1681], [5.034, 52.2045], [5.0416, 52.2248], [5.0582, 52.2374], [5.0304, 52.2671], [5.0658, 52.2792], [5.0091, 52.2772], [4.9936, 52.2854], [4.9331, 52.2755], [4.9113, 52.2556], [4.8715, 52.2522], [4.7362, 52.2083], [4.7256, 52.2115], [4.7103, 52.2346], [4.6055, 52.2132], [4.5741, 52.2136], [4.5481, 52.2204], [4.5467, 52.2278], [4.5593, 52.2409], [4.5677, 52.2705], [4.6097, 52.3134], [4.5486, 52.3125], [4.499, 52.3261], [4.5081, 52.3364]]], [[[4.8926, 53.111], [4.8926, 53.1048], [4.9131, 53.1048], [4.8931, 53.0761], [4.8652, 53.0502], [4.8181, 53.0268], [4.7957, 53.0003], [4.762, 52.9943], [4.7268, 53.0031], [4.7077, 53.0285], [4.7139, 53.0546], [4.7337, 53.0842], [4.7585, 53.1085], [4.8057, 53.133], [4.8543, 53.1877], [4.8898, 53.1809], [4.8858, 53.1662], [4.9102, 53.1346], [4.9099, 53.1188], [4.8926, 53.111]]]]}}, {"type": "Feature", "properties": {"osm_type": "relation", "osm_id": 47381, "name": "Frisia", "admin_level": "4", "iso": "NL-FR", "parent_iso": "NL", "parent_osm_id": 2323309}, "geometry": {"type": "MultiPolygon", "coordinates": [[[[5.1798, 53.009], [5.3128, 53.0828], [5.3792, 53.0974], [5.3998, 53.1221], [5.4271, 53.1903], [5.4474, 53.2209], [5.5042, 53.257], [5.541, 53.2666], [5.5916, 53.3028], [5.6597, 53.312], [5.6946, 53.3301], [5.9808, 53.4061], [6.186, 53.411], [6.1703, 53.3861], [6.1801, 53.3643], [6.2341, 53.3449], [6.2737, 53.3447], [6.2761, 53.3136], [6.2871, 53.3089], [6.254, 53.2882], [6.2179, 53.2406], [6.226, 53.2206], [6.176, 53.1744], [6.1691, 53.1529], [6.1737, 53.1315], [6.1962, 53.1171], [6.2648, 53.1092], [6.3095, 53.0921], [6.3077, 53.0784], [6.3546, 53.0636], [6.3675, 53.0285], [6.4338, 52.9693], [6.402, 52.9319], [6.348, 52.9084], [6.3145, 52.9222], [6.2654, 52.9257], [6.1295, 52.8534], [6.0519, 52.8393], [6.0324, 52.8211], [5.9931, 52.8228], [5.9593, 52.8416], [5.9279, 52.8334], [5.909, 52.8167], [5.8794, 52.8059], [5.8224, 52.815], [5.7852, 52.8037], [5.7751, 52.819], [5.7405, 52.8387], [5.6808, 52.8379], [5.6323, 52.8281], [5.5579, 52.7926], [5.3718, 52.7893], [5.2602, 52.8654], [5.1798, 53.009]]], [[[4.8789, 53.2209], [4.9865, 53.29], [5.0545, 53.3138], [5.1048, 53.3096], [5.1048, 53.3028], [5.0365, 53.2918], [4.9102, 53.2125], [4.8789, 53.2209]]], [[[5.4236, 53.4304], [5.5853, 53.4536], [5.562, 53.4343], [5.4754, 53.4269], [5.4817, 53.4127], [5.4686, 53.4085], [5.427, 53.4064], [5.2083, 53.3527], [5.1799, 53.3531], [5.1677, 53.3682], [5.1789, 53.3854], [5.2502, 53.4064], [5.4072, 53.4226], [5.4236, 53.4304]]], [[[5.674, 53.4679], [5.9138, 53.4739], [5.9546, 53.4611], [5.8556, 53.4474], [5.7528, 53.4474], [5.679, 53.4301], [5.6536, 53.4337], [5.6361, 53.4487], [5.6419, 53.4634], [5.6589, 53.4719], [5.674, 53.4679]]], [[[6.2118, 53.5089], [6.3108, 53.5141], [6.3387, 53.5089], [6.3387, 53.502], [6.1532, 53.4688], [6.1333, 53.4536], [6.1271, 53.4631], [6.1333, 53.4679], [6.1228, 53.4816], [6.148, 53.4949], [6.2118, 53.5089]]]]}}, {"type": "Feature", "properties": {"osm_type": "relation", "osm_id": null, "name": "Bonaire", "admin_level": "4", "iso": "NL-BQ1", "parent_iso": "NL", "parent_osm_id": 2323309}, "geometry": {"type": "Polygon", "coordinates": [[[-68.2115, 12.2281], [-68.19, 12.2048], [-68.2108, 12.1901], [-68.2053, 12.1182], [-68.2388, 12.1046], [-68.2275, 12.0507], [-68.2373, 12.0268], [-68.2542, 12.0236], [-68.2806, 12.0722], [-68.2873, 12.1083], [-68.2822, 12.1599], [-68.3026, 12.2029], [-68.3213, 12.2139], [-68.3918, 12.2278], [-68.4107, 12.2403], [-68.4174, 12.257], [-68.4033, 12.2765], [-68.4108, 12.2827], [-68.4001, 12.3044], [-68.3766, 12.31], [-68.3319, 12.269], [-68.2525, 12.2355], [-68.2115, 12.2281]]]}}, {"type": "Feature", "properties": {"osm_type": "relation", "osm_id": null, "name": "Sint Eustatius", "admin_level": "4", "iso": "NL-BQ3", "parent_iso": "NL", "parent_osm_id": 2323309}, "geometry": {"type": "Polygon", "coordinates": [[[-62.9971, 17.5256], [-62.9451, 17.4854], [-62.9587, 17.4646], [-62.9811, 17.4677], [-62.9947, 17.4921], [-62.9971, 17.5256]]]}}, {"type": "Feature", "properties": {"osm_type": "relation", "osm_id": null, "name": "Saba", "admin_level": "4", "iso": "NL-BQ2", "parent_iso": "NL", "parent_osm_id": 2323309}, "geometry": {"type": "Polygon", "coordinates": [[[-63.2384, 17.6469], [-63.2237, 17.6292], [-63.2384, 17.6147], [-63.2513, 17.6238], [-63.2489, 17.6404], [-63.2384, 17.6469]]]}}, {"type": "Feature", "properties": {"osm_type": "relation", "osm_id": 47407, "name": "Flevoland", "admin_level": "4", "iso": "NL-FL", "parent_iso": "NL", "parent_osm_id": 2323309}, "geometry": {"type": "Polygon", "coordinates": [[[5.7405, 52.8387], [5.7751, 52.819], [5.7852, 52.8037], [5.9048, 52.7565], [5.9234, 52.7399], [5.9453, 52.6888], [5.9265, 52.6717], [5.9978, 52.6538], [6.0198, 52.6376], [5.9396, 52.6167], [5.895, 52.6195], [5.8325, 52.5971], [5.867, 52.5216], [5.8659, 52.5055], [5.8551, 52.4807], [5.8153, 52.4408], [5.771, 52.4138], [5.6546, 52.3815], [5.6007, 52.3577], [5.5791, 52.3448], [5.5327, 52.2769], [5.4972, 52.2693], [5.4066, 52.2682], [5.2828, 52.3185], [5.1599, 52.3282], [5.1049, 52.3638], [5.1033, 52.3962], [5.1599, 52.4285], [5.1939, 52.4285], [5.168, 52.4722], [5.1194, 52.5159], [5.0952, 52.5822], [5.2618, 52.6486], [5.278, 52.6858], [5.3087, 52.6987], [5.3589, 52.689], [5.3703, 52.7903], [5.5579, 52.7926], [5.6566, 52.8346], [5.7405, 52.8387]]]}}, {"type": "Feature", "properties": {"osm_type": "relation", "osm_id": 47667, "name": "Utrecht", "admin_level": "4", "iso": "NL-UT", "parent_iso": "NL", "parent_osm_id": 2323309}, "geometry": {"type": "Polygon", "coordinates": [[[5.4089, 52.2677], [5.3969, 52.2199], [5.4387, 52.1959], [5.4241, 52.1754], [5.4745, 52.1609], [5.5128, 52.1362], [5.5085, 52.1135], [5.4976, 52.114], [5.4686, 52.0823], [5.5093, 52.0718], [5.535, 52.0823], [5.5412, 52.0951], [5.5369, 52.1025], [5.5533, 52.1048], [5.5722, 52.019], [5.6165, 51.9778], [5.6157, 51.9483], [5.5051, 51.982], [5.462, 51.9876], [5.4204, 51.974], [5.3606, 51.977], [5.3105, 51.9597], [5.2543, 51.9791], [5.2214, 51.9685], [5.1729, 51.9678], [5.1541, 51.974], [5.1309, 51.9961], [5.1049, 52.0038], [5.0304, 51.9743], [4.989, 51.9802], [4.9268, 51.9493], [4.8873, 51.9412], [4.8243, 51.9968], [4.854, 52.0081], [4.8496, 52.0202], [4.8038, 52.0164], [4.7994, 52.0227], [4.8312, 52.0525], [4.8777, 52.0714], [4.8325, 52.0716], [4.8198, 52.1088], [4.7908, 52.1197], [4.8256, 52.1405], [4.8633, 52.1339], [4.8537, 52.1634], [4.8627, 52.168], [4.7919, 52.1991], [4.7679, 52.2212], [4.8144, 52.2296], [4.8715, 52.2522], [4.9113, 52.2556], [4.9331, 52.2755], [4.9863, 52.2855], [5.0091, 52.2772], [5.0658, 52.2792], [5.0304, 52.2671], [5.0582, 52.2374], [5.0416, 52.2248], [5.034, 52.2045], [5.045, 52.1681], [5.1268, 52.1809], [5.1824, 52.179], [5.202, 52.1874], [5.2457, 52.2572], [5.2683, 52.2775], [5.3661, 52.2832], [5.4089, 52.2677]]]}}]}